<?xml version="1.0" encoding="UTF-8"?>
<gpx version="1.1" creator="Gpx-Optimizer" xmlns="http://www.topografix.com/GPX/1/1">
<trk>
  <name>Mtb_Kefermarkt-Wintersdorf-Linz</name>
  <type>bicycle</type>
  <trkseg>
    <trkpt lat="48.43762" lon="14.53798"><ele>469</ele></trkpt>
    <trkpt lat="48.43731" lon="14.53820"><ele>462</ele></trkpt>
    <trkpt lat="48.43723" lon="14.53839"><ele>460</ele></trkpt>
    <trkpt lat="48.43810" lon="14.53798"><ele>461</ele></trkpt>
    <trkpt lat="48.43897" lon="14.53772"><ele>465</ele></trkpt>
    <trkpt lat="48.43979" lon="14.53723"><ele>463</ele></trkpt>
    <trkpt lat="48.43970" lon="14.53630"><ele>463</ele></trkpt>
    <trkpt lat="48.43949" lon="14.53577"><ele>463</ele></trkpt>
    <trkpt lat="48.43940" lon="14.53559"><ele>462</ele></trkpt>
    <trkpt lat="48.43881" lon="14.53466"><ele>460</ele></trkpt>
    <trkpt lat="48.43798" lon="14.53382"><ele>459</ele></trkpt>
    <trkpt lat="48.43864" lon="14.53316"><ele>462</ele></trkpt>
    <trkpt lat="48.43900" lon="14.53281"><ele>463</ele></trkpt>
    <trkpt lat="48.43945" lon="14.53299"><ele>463</ele></trkpt>
    <trkpt lat="48.44005" lon="14.53310"><ele>466</ele></trkpt>
    <trkpt lat="48.44026" lon="14.53289"><ele>456</ele></trkpt>
    <trkpt lat="48.43997" lon="14.53272"><ele>458</ele></trkpt>
    <trkpt lat="48.43964" lon="14.53242"><ele>466</ele></trkpt>
    <trkpt lat="48.43964" lon="14.53179"><ele>467</ele></trkpt>
    <trkpt lat="48.43967" lon="14.53112"><ele>476</ele></trkpt>
    <trkpt lat="48.43967" lon="14.53051"><ele>476</ele></trkpt>
    <trkpt lat="48.43979" lon="14.52993"><ele>483</ele></trkpt>
    <trkpt lat="48.43973" lon="14.52940"><ele>483</ele></trkpt>
    <trkpt lat="48.43949" lon="14.52903"><ele>483</ele></trkpt>
    <trkpt lat="48.43959" lon="14.52905"><ele>485</ele></trkpt>
    <trkpt lat="48.44006" lon="14.52910"><ele>485</ele></trkpt>
    <trkpt lat="48.44025" lon="14.52867"><ele>486</ele></trkpt>
    <trkpt lat="48.44006" lon="14.52802"><ele>490</ele></trkpt>
    <trkpt lat="48.43987" lon="14.52729"><ele>490</ele></trkpt>
    <trkpt lat="48.43961" lon="14.52624"><ele>485</ele></trkpt>
    <trkpt lat="48.43973" lon="14.52524"><ele>480</ele></trkpt>
    <trkpt lat="48.44004" lon="14.52425"><ele>473</ele></trkpt>
    <trkpt lat="48.44021" lon="14.52379"><ele>471</ele></trkpt>
    <trkpt lat="48.44069" lon="14.52322"><ele>465</ele></trkpt>
    <trkpt lat="48.44124" lon="14.52287"><ele>469</ele></trkpt>
    <trkpt lat="48.44146" lon="14.52220"><ele>469</ele></trkpt>
    <trkpt lat="48.44139" lon="14.52177"><ele>470</ele></trkpt>
    <trkpt lat="48.44131" lon="14.52170"><ele>470</ele></trkpt>
    <trkpt lat="48.44099" lon="14.52143"><ele>474</ele></trkpt>
    <trkpt lat="48.44063" lon="14.52110"><ele>473</ele></trkpt>
    <trkpt lat="48.44029" lon="14.52076"><ele>473</ele></trkpt>
    <trkpt lat="48.44005" lon="14.52060"><ele>477</ele></trkpt>
    <trkpt lat="48.43976" lon="14.52066"><ele>482</ele></trkpt>
    <trkpt lat="48.43949" lon="14.52052"><ele>488</ele></trkpt>
    <trkpt lat="48.43919" lon="14.52038"><ele>493</ele></trkpt>
    <trkpt lat="48.43893" lon="14.52027"><ele>496</ele></trkpt>
    <trkpt lat="48.43891" lon="14.51962"><ele>506</ele></trkpt>
    <trkpt lat="48.43891" lon="14.51906"><ele>512</ele></trkpt>
    <trkpt lat="48.43891" lon="14.51850"><ele>514</ele></trkpt>
    <trkpt lat="48.43893" lon="14.51795"><ele>513</ele></trkpt>
    <trkpt lat="48.43895" lon="14.51742"><ele>515</ele></trkpt>
    <trkpt lat="48.43894" lon="14.51689"><ele>518</ele></trkpt>
    <trkpt lat="48.43878" lon="14.51644"><ele>521</ele></trkpt>
    <trkpt lat="48.43850" lon="14.51609"><ele>526</ele></trkpt>
    <trkpt lat="48.43822" lon="14.51571"><ele>530</ele></trkpt>
    <trkpt lat="48.43803" lon="14.51538"><ele>533</ele></trkpt>
    <trkpt lat="48.43791" lon="14.51501"><ele>540</ele></trkpt>
    <trkpt lat="48.43783" lon="14.51467"><ele>542</ele></trkpt>
    <trkpt lat="48.43780" lon="14.51426"><ele>546</ele></trkpt>
    <trkpt lat="48.43769" lon="14.51390"><ele>549</ele></trkpt>
    <trkpt lat="48.43753" lon="14.51363"><ele>549</ele></trkpt>
    <trkpt lat="48.43737" lon="14.51330"><ele>548</ele></trkpt>
    <trkpt lat="48.43718" lon="14.51301"><ele>554</ele></trkpt>
    <trkpt lat="48.43704" lon="14.51267"><ele>561</ele></trkpt>
    <trkpt lat="48.43696" lon="14.51225"><ele>562</ele></trkpt>
    <trkpt lat="48.43687" lon="14.51186"><ele>565</ele></trkpt>
    <trkpt lat="48.43689" lon="14.51144"><ele>569</ele></trkpt>
    <trkpt lat="48.43675" lon="14.51112"><ele>575</ele></trkpt>
    <trkpt lat="48.43665" lon="14.51079"><ele>578</ele></trkpt>
    <trkpt lat="48.43654" lon="14.51055"><ele>583</ele></trkpt>
    <trkpt lat="48.43643" lon="14.51028"><ele>585</ele></trkpt>
    <trkpt lat="48.43641" lon="14.50995"><ele>589</ele></trkpt>
    <trkpt lat="48.43642" lon="14.50958"><ele>592</ele></trkpt>
    <trkpt lat="48.43642" lon="14.50922"><ele>591</ele></trkpt>
    <trkpt lat="48.43645" lon="14.50886"><ele>589</ele></trkpt>
    <trkpt lat="48.43652" lon="14.50851"><ele>592</ele></trkpt>
    <trkpt lat="48.43655" lon="14.50831"><ele>589</ele></trkpt>
    <trkpt lat="48.43652" lon="14.50812"><ele>585</ele></trkpt>
    <trkpt lat="48.43652" lon="14.50769"><ele>594</ele></trkpt>
    <trkpt lat="48.43651" lon="14.50699"><ele>598</ele></trkpt>
    <trkpt lat="48.43656" lon="14.50615"><ele>600</ele></trkpt>
    <trkpt lat="48.43642" lon="14.50571"><ele>600</ele></trkpt>
    <trkpt lat="48.43613" lon="14.50534"><ele>603</ele></trkpt>
    <trkpt lat="48.43592" lon="14.50511"><ele>575</ele></trkpt>
    <trkpt lat="48.43571" lon="14.50496"><ele>620</ele></trkpt>
    <trkpt lat="48.43567" lon="14.50451"><ele>586</ele></trkpt>
    <trkpt lat="48.43565" lon="14.50408"><ele>621</ele></trkpt>
    <trkpt lat="48.43556" lon="14.50374"><ele>595</ele></trkpt>
    <trkpt lat="48.43539" lon="14.50351"><ele>625</ele></trkpt>
    <trkpt lat="48.43521" lon="14.50328"><ele>626</ele></trkpt>
    <trkpt lat="48.43501" lon="14.50309"><ele>626</ele></trkpt>
    <trkpt lat="48.43482" lon="14.50285"><ele>631</ele></trkpt>
    <trkpt lat="48.43466" lon="14.50261"><ele>632</ele></trkpt>
    <trkpt lat="48.43434" lon="14.50234"><ele>638</ele></trkpt>
    <trkpt lat="48.43395" lon="14.50200"><ele>638</ele></trkpt>
    <trkpt lat="48.43366" lon="14.50179"><ele>640</ele></trkpt>
    <trkpt lat="48.43337" lon="14.50173"><ele>639</ele></trkpt>
    <trkpt lat="48.43313" lon="14.50169"><ele>635</ele></trkpt>
    <trkpt lat="48.43288" lon="14.50177"><ele>636</ele></trkpt>
    <trkpt lat="48.43267" lon="14.50178"><ele>634</ele></trkpt>
    <trkpt lat="48.43246" lon="14.50179"><ele>641</ele></trkpt>
    <trkpt lat="48.43224" lon="14.50187"><ele>644</ele></trkpt>
    <trkpt lat="48.43203" lon="14.50192"><ele>647</ele></trkpt>
    <trkpt lat="48.43181" lon="14.50201"><ele>652</ele></trkpt>
    <trkpt lat="48.43167" lon="14.50202"><ele>656</ele></trkpt>
    <trkpt lat="48.43133" lon="14.50209"><ele>662</ele></trkpt>
    <trkpt lat="48.43107" lon="14.50214"><ele>662</ele></trkpt>
    <trkpt lat="48.43090" lon="14.50211"><ele>668</ele></trkpt>
    <trkpt lat="48.43072" lon="14.50213"><ele>667</ele></trkpt>
    <trkpt lat="48.43040" lon="14.50234"><ele>670</ele></trkpt>
    <trkpt lat="48.42988" lon="14.50246"><ele>663</ele></trkpt>
    <trkpt lat="48.42978" lon="14.50205"><ele>656</ele></trkpt>
    <trkpt lat="48.42975" lon="14.50156"><ele>657</ele></trkpt>
    <trkpt lat="48.42971" lon="14.50117"><ele>659</ele></trkpt>
    <trkpt lat="48.42968" lon="14.50075"><ele>659</ele></trkpt>
    <trkpt lat="48.42966" lon="14.50018"><ele>662</ele></trkpt>
    <trkpt lat="48.42968" lon="14.49946"><ele>665</ele></trkpt>
    <trkpt lat="48.42983" lon="14.49864"><ele>658</ele></trkpt>
    <trkpt lat="48.42978" lon="14.49844"><ele>656</ele></trkpt>
    <trkpt lat="48.42972" lon="14.49756"><ele>646</ele></trkpt>
    <trkpt lat="48.42989" lon="14.49638"><ele>631</ele></trkpt>
    <trkpt lat="48.42966" lon="14.49512"><ele>619</ele></trkpt>
    <trkpt lat="48.42926" lon="14.49427"><ele>621</ele></trkpt>
    <trkpt lat="48.42893" lon="14.49378"><ele>627</ele></trkpt>
    <trkpt lat="48.42863" lon="14.49327"><ele>633</ele></trkpt>
    <trkpt lat="48.42834" lon="14.49291"><ele>638</ele></trkpt>
    <trkpt lat="48.42810" lon="14.49246"><ele>639</ele></trkpt>
    <trkpt lat="48.42796" lon="14.49201"><ele>645</ele></trkpt>
    <trkpt lat="48.42787" lon="14.49160"><ele>646</ele></trkpt>
    <trkpt lat="48.42782" lon="14.49118"><ele>651</ele></trkpt>
    <trkpt lat="48.42784" lon="14.49077"><ele>654</ele></trkpt>
    <trkpt lat="48.42788" lon="14.49038"><ele>659</ele></trkpt>
    <trkpt lat="48.42796" lon="14.48998"><ele>662</ele></trkpt>
    <trkpt lat="48.42799" lon="14.48947"><ele>661</ele></trkpt>
    <trkpt lat="48.42798" lon="14.48869"><ele>654</ele></trkpt>
    <trkpt lat="48.42783" lon="14.48767"><ele>641</ele></trkpt>
    <trkpt lat="48.42771" lon="14.48590"><ele>626</ele></trkpt>
    <trkpt lat="48.42785" lon="14.48458"><ele>631</ele></trkpt>
    <trkpt lat="48.42793" lon="14.48415"><ele>628</ele></trkpt>
    <trkpt lat="48.42854" lon="14.48406"><ele>624</ele></trkpt>
    <trkpt lat="48.42883" lon="14.48366"><ele>619</ele></trkpt>
    <trkpt lat="48.42869" lon="14.48350"><ele>624</ele></trkpt>
    <trkpt lat="48.42840" lon="14.48318"><ele>623</ele></trkpt>
    <trkpt lat="48.42822" lon="14.48307"><ele>624</ele></trkpt>
    <trkpt lat="48.42826" lon="14.48175"><ele>611</ele></trkpt>
    <trkpt lat="48.42852" lon="14.48071"><ele>607</ele></trkpt>
    <trkpt lat="48.42871" lon="14.47977"><ele>609</ele></trkpt>
    <trkpt lat="48.42870" lon="14.47878"><ele>603</ele></trkpt>
    <trkpt lat="48.42867" lon="14.47678"><ele>590</ele></trkpt>
    <trkpt lat="48.42872" lon="14.47654"><ele>587</ele></trkpt>
    <trkpt lat="48.42931" lon="14.47640"><ele>581</ele></trkpt>
    <trkpt lat="48.42872" lon="14.47609"><ele>576</ele></trkpt>
    <trkpt lat="48.42898" lon="14.47519"><ele>563</ele></trkpt>
    <trkpt lat="48.42948" lon="14.47376"><ele>547</ele></trkpt>
    <trkpt lat="48.42959" lon="14.47297"><ele>540</ele></trkpt>
    <trkpt lat="48.42920" lon="14.47245"><ele>532</ele></trkpt>
    <trkpt lat="48.42867" lon="14.47155"><ele>515</ele></trkpt>
    <trkpt lat="48.42814" lon="14.47087"><ele>521</ele></trkpt>
    <trkpt lat="48.42671" lon="14.46991"><ele>498</ele></trkpt>
    <trkpt lat="48.42568" lon="14.46976"><ele>510</ele></trkpt>
    <trkpt lat="48.42454" lon="14.46881"><ele>488</ele></trkpt>
    <trkpt lat="48.42510" lon="14.46802"><ele>470</ele></trkpt>
    <trkpt lat="48.42573" lon="14.46715"><ele>466</ele></trkpt>
    <trkpt lat="48.42642" lon="14.46625"><ele>474</ele></trkpt>
    <trkpt lat="48.42694" lon="14.46538"><ele>520</ele></trkpt>
    <trkpt lat="48.42746" lon="14.46425"><ele>480</ele></trkpt>
    <trkpt lat="48.42805" lon="14.46337"><ele>469</ele></trkpt>
    <trkpt lat="48.42861" lon="14.46204"><ele>476</ele></trkpt>
    <trkpt lat="48.42865" lon="14.46069"><ele>472</ele></trkpt>
    <trkpt lat="48.42918" lon="14.45971"><ele>473</ele></trkpt>
    <trkpt lat="48.42934" lon="14.45881"><ele>478</ele></trkpt>
    <trkpt lat="48.42915" lon="14.45821"><ele>480</ele></trkpt>
    <trkpt lat="48.42895" lon="14.45776"><ele>499</ele></trkpt>
    <trkpt lat="48.42874" lon="14.45731"><ele>495</ele></trkpt>
    <trkpt lat="48.42857" lon="14.45697"><ele>498</ele></trkpt>
    <trkpt lat="48.42861" lon="14.45659"><ele>520</ele></trkpt>
    <trkpt lat="48.42864" lon="14.45641"><ele>506</ele></trkpt>
    <trkpt lat="48.42855" lon="14.45637"><ele>507</ele></trkpt>
    <trkpt lat="48.42826" lon="14.45662"><ele>517</ele></trkpt>
    <trkpt lat="48.42809" lon="14.45696"><ele>518</ele></trkpt>
    <trkpt lat="48.42788" lon="14.45736"><ele>520</ele></trkpt>
    <trkpt lat="48.42766" lon="14.45777"><ele>545</ele></trkpt>
    <trkpt lat="48.42713" lon="14.45784"><ele>515</ele></trkpt>
    <trkpt lat="48.42620" lon="14.45780"><ele>508</ele></trkpt>
    <trkpt lat="48.42585" lon="14.45778"><ele>513</ele></trkpt>
    <trkpt lat="48.42562" lon="14.45774"><ele>519</ele></trkpt>
    <trkpt lat="48.42532" lon="14.45768"><ele>519</ele></trkpt>
    <trkpt lat="48.42504" lon="14.45778"><ele>522</ele></trkpt>
    <trkpt lat="48.42476" lon="14.45795"><ele>520</ele></trkpt>
    <trkpt lat="48.42450" lon="14.45816"><ele>528</ele></trkpt>
    <trkpt lat="48.42428" lon="14.45843"><ele>530</ele></trkpt>
    <trkpt lat="48.42414" lon="14.45883"><ele>534</ele></trkpt>
    <trkpt lat="48.42392" lon="14.45915"><ele>520</ele></trkpt>
    <trkpt lat="48.42366" lon="14.45926"><ele>543</ele></trkpt>
    <trkpt lat="48.42334" lon="14.45932"><ele>544</ele></trkpt>
    <trkpt lat="48.42300" lon="14.45939"><ele>545</ele></trkpt>
    <trkpt lat="48.42257" lon="14.45949"><ele>546</ele></trkpt>
    <trkpt lat="48.42178" lon="14.45951"><ele>531</ele></trkpt>
    <trkpt lat="48.42193" lon="14.45892"><ele>544</ele></trkpt>
    <trkpt lat="48.42220" lon="14.45825"><ele>571</ele></trkpt>
    <trkpt lat="48.42250" lon="14.45761"><ele>554</ele></trkpt>
    <trkpt lat="48.42270" lon="14.45704"><ele>555</ele></trkpt>
    <trkpt lat="48.42289" lon="14.45644"><ele>552</ele></trkpt>
    <trkpt lat="48.42307" lon="14.45588"><ele>557</ele></trkpt>
    <trkpt lat="48.42321" lon="14.45538"><ele>565</ele></trkpt>
    <trkpt lat="48.42336" lon="14.45481"><ele>568</ele></trkpt>
    <trkpt lat="48.42348" lon="14.45423"><ele>561</ele></trkpt>
    <trkpt lat="48.42360" lon="14.45364"><ele>574</ele></trkpt>
    <trkpt lat="48.42369" lon="14.45304"><ele>578</ele></trkpt>
    <trkpt lat="48.42379" lon="14.45235"><ele>578</ele></trkpt>
    <trkpt lat="48.42388" lon="14.45165"><ele>565</ele></trkpt>
    <trkpt lat="48.42394" lon="14.45101"><ele>594</ele></trkpt>
    <trkpt lat="48.42402" lon="14.45038"><ele>593</ele></trkpt>
    <trkpt lat="48.42409" lon="14.44975"><ele>596</ele></trkpt>
    <trkpt lat="48.42420" lon="14.44905"><ele>599</ele></trkpt>
    <trkpt lat="48.42429" lon="14.44830"><ele>601</ele></trkpt>
    <trkpt lat="48.42439" lon="14.44759"><ele>604</ele></trkpt>
    <trkpt lat="48.42448" lon="14.44687"><ele>607</ele></trkpt>
    <trkpt lat="48.42456" lon="14.44615"><ele>608</ele></trkpt>
    <trkpt lat="48.42462" lon="14.44539"><ele>609</ele></trkpt>
    <trkpt lat="48.42465" lon="14.44453"><ele>613</ele></trkpt>
    <trkpt lat="48.42465" lon="14.44371"><ele>615</ele></trkpt>
    <trkpt lat="48.42478" lon="14.44300"><ele>619</ele></trkpt>
    <trkpt lat="48.42513" lon="14.44279"><ele>621</ele></trkpt>
    <trkpt lat="48.42559" lon="14.44262"><ele>618</ele></trkpt>
    <trkpt lat="48.42596" lon="14.44216"><ele>616</ele></trkpt>
    <trkpt lat="48.42646" lon="14.44152"><ele>616</ele></trkpt>
    <trkpt lat="48.42726" lon="14.44097"><ele>617</ele></trkpt>
    <trkpt lat="48.42804" lon="14.44060"><ele>619</ele></trkpt>
    <trkpt lat="48.42887" lon="14.44038"><ele>621</ele></trkpt>
    <trkpt lat="48.43006" lon="14.44154"><ele>598</ele></trkpt>
    <trkpt lat="48.43107" lon="14.44118"><ele>615</ele></trkpt>
    <trkpt lat="48.43130" lon="14.44058"><ele>615</ele></trkpt>
    <trkpt lat="48.43132" lon="14.43995"><ele>617</ele></trkpt>
    <trkpt lat="48.43140" lon="14.43947"><ele>625</ele></trkpt>
    <trkpt lat="48.43169" lon="14.43964"><ele>625</ele></trkpt>
    <trkpt lat="48.43192" lon="14.43971"><ele>625</ele></trkpt>
    <trkpt lat="48.43189" lon="14.43918"><ele>593</ele></trkpt>
    <trkpt lat="48.43185" lon="14.43870"><ele>633</ele></trkpt>
    <trkpt lat="48.43188" lon="14.43825"><ele>638</ele></trkpt>
    <trkpt lat="48.43211" lon="14.43816"><ele>641</ele></trkpt>
    <trkpt lat="48.43232" lon="14.43847"><ele>630</ele></trkpt>
    <trkpt lat="48.43246" lon="14.43884"><ele>649</ele></trkpt>
    <trkpt lat="48.43269" lon="14.43931"><ele>655</ele></trkpt>
    <trkpt lat="48.43296" lon="14.43970"><ele>655</ele></trkpt>
    <trkpt lat="48.43318" lon="14.43952"><ele>657</ele></trkpt>
    <trkpt lat="48.43337" lon="14.43914"><ele>669</ele></trkpt>
    <trkpt lat="48.43352" lon="14.43880"><ele>670</ele></trkpt>
    <trkpt lat="48.43367" lon="14.43854"><ele>671</ele></trkpt>
    <trkpt lat="48.43385" lon="14.43831"><ele>664</ele></trkpt>
    <trkpt lat="48.43411" lon="14.43813"><ele>675</ele></trkpt>
    <trkpt lat="48.43402" lon="14.43815"><ele>646</ele></trkpt>
    <trkpt lat="48.43341" lon="14.43796"><ele>670</ele></trkpt>
    <trkpt lat="48.43242" lon="14.43745"><ele>661</ele></trkpt>
    <trkpt lat="48.43173" lon="14.43716"><ele>648</ele></trkpt>
    <trkpt lat="48.43103" lon="14.43724"><ele>644</ele></trkpt>
    <trkpt lat="48.43039" lon="14.43742"><ele>647</ele></trkpt>
    <trkpt lat="48.42988" lon="14.43733"><ele>649</ele></trkpt>
    <trkpt lat="48.42979" lon="14.43679"><ele>652</ele></trkpt>
    <trkpt lat="48.43000" lon="14.43642"><ele>653</ele></trkpt>
    <trkpt lat="48.43025" lon="14.43631"><ele>651</ele></trkpt>
    <trkpt lat="48.43045" lon="14.43620"><ele>621</ele></trkpt>
    <trkpt lat="48.43062" lon="14.43599"><ele>659</ele></trkpt>
    <trkpt lat="48.43081" lon="14.43582"><ele>667</ele></trkpt>
    <trkpt lat="48.43104" lon="14.43574"><ele>673</ele></trkpt>
    <trkpt lat="48.43126" lon="14.43552"><ele>673</ele></trkpt>
    <trkpt lat="48.43139" lon="14.43525"><ele>678</ele></trkpt>
    <trkpt lat="48.43150" lon="14.43495"><ele>678</ele></trkpt>
    <trkpt lat="48.43166" lon="14.43468"><ele>677</ele></trkpt>
    <trkpt lat="48.43185" lon="14.43430"><ele>679</ele></trkpt>
    <trkpt lat="48.43208" lon="14.43353"><ele>688</ele></trkpt>
    <trkpt lat="48.43178" lon="14.43271"><ele>667</ele></trkpt>
    <trkpt lat="48.43140" lon="14.43260"><ele>680</ele></trkpt>
    <trkpt lat="48.43131" lon="14.43201"><ele>650</ele></trkpt>
    <trkpt lat="48.43130" lon="14.43130"><ele>689</ele></trkpt>
    <trkpt lat="48.43119" lon="14.43049"><ele>693</ele></trkpt>
    <trkpt lat="48.43129" lon="14.42959"><ele>645</ele></trkpt>
    <trkpt lat="48.43142" lon="14.42914"><ele>689</ele></trkpt>
    <trkpt lat="48.43146" lon="14.42876"><ele>694</ele></trkpt>
    <trkpt lat="48.43153" lon="14.42851"><ele>693</ele></trkpt>
    <trkpt lat="48.43170" lon="14.42790"><ele>694</ele></trkpt>
    <trkpt lat="48.43153" lon="14.42753"><ele>696</ele></trkpt>
    <trkpt lat="48.43146" lon="14.42711"><ele>702</ele></trkpt>
    <trkpt lat="48.43147" lon="14.42663"><ele>650</ele></trkpt>
    <trkpt lat="48.43125" lon="14.42628"><ele>696</ele></trkpt>
    <trkpt lat="48.43134" lon="14.42573"><ele>703</ele></trkpt>
    <trkpt lat="48.43170" lon="14.42453"><ele>704</ele></trkpt>
    <trkpt lat="48.43201" lon="14.42384"><ele>703</ele></trkpt>
    <trkpt lat="48.43192" lon="14.42307"><ele>692</ele></trkpt>
    <trkpt lat="48.43193" lon="14.42186"><ele>695</ele></trkpt>
    <trkpt lat="48.43188" lon="14.42111"><ele>704</ele></trkpt>
    <trkpt lat="48.43191" lon="14.42030"><ele>654</ele></trkpt>
    <trkpt lat="48.43197" lon="14.41952"><ele>705</ele></trkpt>
    <trkpt lat="48.43233" lon="14.41898"><ele>681</ele></trkpt>
    <trkpt lat="48.43255" lon="14.41854"><ele>644</ele></trkpt>
    <trkpt lat="48.43246" lon="14.41796"><ele>700</ele></trkpt>
    <trkpt lat="48.43221" lon="14.41721"><ele>661</ele></trkpt>
    <trkpt lat="48.43158" lon="14.41605"><ele>689</ele></trkpt>
    <trkpt lat="48.43134" lon="14.41532"><ele>696</ele></trkpt>
    <trkpt lat="48.43126" lon="14.41476"><ele>710</ele></trkpt>
    <trkpt lat="48.43127" lon="14.41409"><ele>695</ele></trkpt>
    <trkpt lat="48.43103" lon="14.41394"><ele>710</ele></trkpt>
    <trkpt lat="48.43082" lon="14.41418"><ele>717</ele></trkpt>
    <trkpt lat="48.43063" lon="14.41439"><ele>709</ele></trkpt>
    <trkpt lat="48.43030" lon="14.41459"><ele>693</ele></trkpt>
    <trkpt lat="48.43025" lon="14.41370"><ele>718</ele></trkpt>
    <trkpt lat="48.43037" lon="14.41273"><ele>721</ele></trkpt>
    <trkpt lat="48.43050" lon="14.41208"><ele>724</ele></trkpt>
    <trkpt lat="48.43058" lon="14.41150"><ele>728</ele></trkpt>
    <trkpt lat="48.43079" lon="14.41087"><ele>731</ele></trkpt>
    <trkpt lat="48.43086" lon="14.41002"><ele>735</ele></trkpt>
    <trkpt lat="48.43106" lon="14.40933"><ele>735</ele></trkpt>
    <trkpt lat="48.43129" lon="14.40895"><ele>738</ele></trkpt>
    <trkpt lat="48.43143" lon="14.40859"><ele>735</ele></trkpt>
    <trkpt lat="48.43163" lon="14.40818"><ele>744</ele></trkpt>
    <trkpt lat="48.43197" lon="14.40758"><ele>742</ele></trkpt>
    <trkpt lat="48.43238" lon="14.40495"><ele>723</ele></trkpt>
    <trkpt lat="48.43272" lon="14.40274"><ele>730</ele></trkpt>
    <trkpt lat="48.43316" lon="14.40120"><ele>730</ele></trkpt>
    <trkpt lat="48.43350" lon="14.40081"><ele>728</ele></trkpt>
    <trkpt lat="48.43389" lon="14.39977"><ele>724</ele></trkpt>
    <trkpt lat="48.43449" lon="14.39855"><ele>722</ele></trkpt>
    <trkpt lat="48.43400" lon="14.39798"><ele>715</ele></trkpt>
    <trkpt lat="48.43354" lon="14.39731"><ele>719</ele></trkpt>
    <trkpt lat="48.43321" lon="14.39656"><ele>720</ele></trkpt>
    <trkpt lat="48.43288" lon="14.39606"><ele>721</ele></trkpt>
    <trkpt lat="48.43246" lon="14.39578"><ele>730</ele></trkpt>
    <trkpt lat="48.43197" lon="14.39451"><ele>710</ele></trkpt>
    <trkpt lat="48.43209" lon="14.39337"><ele>698</ele></trkpt>
    <trkpt lat="48.43205" lon="14.39212"><ele>694</ele></trkpt>
    <trkpt lat="48.43253" lon="14.39099"><ele>676</ele></trkpt>
    <trkpt lat="48.43230" lon="14.39013"><ele>664</ele></trkpt>
    <trkpt lat="48.43239" lon="14.38922"><ele>661</ele></trkpt>
    <trkpt lat="48.43297" lon="14.38854"><ele>640</ele></trkpt>
    <trkpt lat="48.43324" lon="14.38753"><ele>629</ele></trkpt>
    <trkpt lat="48.43336" lon="14.38650"><ele>605</ele></trkpt>
    <trkpt lat="48.43308" lon="14.38453"><ele>590</ele></trkpt>
    <trkpt lat="48.43199" lon="14.38241"><ele>571</ele></trkpt>
    <trkpt lat="48.43053" lon="14.38085"><ele>559</ele></trkpt>
    <trkpt lat="48.43042" lon="14.37979"><ele>556</ele></trkpt>
    <trkpt lat="48.43099" lon="14.37856"><ele>554</ele></trkpt>
    <trkpt lat="48.43151" lon="14.37746"><ele>579</ele></trkpt>
    <trkpt lat="48.43211" lon="14.37647"><ele>553</ele></trkpt>
    <trkpt lat="48.43210" lon="14.37526"><ele>552</ele></trkpt>
    <trkpt lat="48.43170" lon="14.37475"><ele>553</ele></trkpt>
    <trkpt lat="48.43139" lon="14.37493"><ele>558</ele></trkpt>
    <trkpt lat="48.43113" lon="14.37516"><ele>561</ele></trkpt>
    <trkpt lat="48.43086" lon="14.37538"><ele>588</ele></trkpt>
    <trkpt lat="48.43057" lon="14.37555"><ele>577</ele></trkpt>
    <trkpt lat="48.43026" lon="14.37570"><ele>583</ele></trkpt>
    <trkpt lat="48.42994" lon="14.37583"><ele>585</ele></trkpt>
    <trkpt lat="48.42966" lon="14.37599"><ele>588</ele></trkpt>
    <trkpt lat="48.42942" lon="14.37620"><ele>592</ele></trkpt>
    <trkpt lat="48.42918" lon="14.37646"><ele>594</ele></trkpt>
    <trkpt lat="48.42891" lon="14.37669"><ele>596</ele></trkpt>
    <trkpt lat="48.42864" lon="14.37696"><ele>601</ele></trkpt>
    <trkpt lat="48.42836" lon="14.37724"><ele>608</ele></trkpt>
    <trkpt lat="48.42807" lon="14.37750"><ele>615</ele></trkpt>
    <trkpt lat="48.42777" lon="14.37751"><ele>612</ele></trkpt>
    <trkpt lat="48.42756" lon="14.37720"><ele>611</ele></trkpt>
    <trkpt lat="48.42745" lon="14.37677"><ele>612</ele></trkpt>
    <trkpt lat="48.42770" lon="14.37661"><ele>616</ele></trkpt>
    <trkpt lat="48.42792" lon="14.37631"><ele>619</ele></trkpt>
    <trkpt lat="48.42806" lon="14.37594"><ele>621</ele></trkpt>
    <trkpt lat="48.42797" lon="14.37551"><ele>621</ele></trkpt>
    <trkpt lat="48.42791" lon="14.37512"><ele>628</ele></trkpt>
    <trkpt lat="48.42788" lon="14.37471"><ele>631</ele></trkpt>
    <trkpt lat="48.42795" lon="14.37433"><ele>644</ele></trkpt>
    <trkpt lat="48.42804" lon="14.37396"><ele>638</ele></trkpt>
    <trkpt lat="48.42809" lon="14.37355"><ele>641</ele></trkpt>
    <trkpt lat="48.42810" lon="14.37313"><ele>643</ele></trkpt>
    <trkpt lat="48.42814" lon="14.37270"><ele>646</ele></trkpt>
    <trkpt lat="48.42818" lon="14.37220"><ele>650</ele></trkpt>
    <trkpt lat="48.42821" lon="14.37169"><ele>652</ele></trkpt>
    <trkpt lat="48.42824" lon="14.37121"><ele>653</ele></trkpt>
    <trkpt lat="48.42816" lon="14.37079"><ele>656</ele></trkpt>
    <trkpt lat="48.42805" lon="14.37043"><ele>660</ele></trkpt>
    <trkpt lat="48.42793" lon="14.37007"><ele>660</ele></trkpt>
    <trkpt lat="48.42778" lon="14.36961"><ele>661</ele></trkpt>
    <trkpt lat="48.42768" lon="14.36915"><ele>654</ele></trkpt>
    <trkpt lat="48.42755" lon="14.36882"><ele>661</ele></trkpt>
    <trkpt lat="48.42714" lon="14.36874"><ele>664</ele></trkpt>
    <trkpt lat="48.42679" lon="14.36872"><ele>667</ele></trkpt>
    <trkpt lat="48.42650" lon="14.36859"><ele>663</ele></trkpt>
    <trkpt lat="48.42644" lon="14.36813"><ele>671</ele></trkpt>
    <trkpt lat="48.42632" lon="14.36786"><ele>676</ele></trkpt>
    <trkpt lat="48.42612" lon="14.36773"><ele>683</ele></trkpt>
    <trkpt lat="48.42593" lon="14.36762"><ele>688</ele></trkpt>
    <trkpt lat="48.42572" lon="14.36756"><ele>686</ele></trkpt>
    <trkpt lat="48.42554" lon="14.36742"><ele>690</ele></trkpt>
    <trkpt lat="48.42538" lon="14.36719"><ele>693</ele></trkpt>
    <trkpt lat="48.42521" lon="14.36684"><ele>691</ele></trkpt>
    <trkpt lat="48.42519" lon="14.36640"><ele>690</ele></trkpt>
    <trkpt lat="48.42520" lon="14.36598"><ele>691</ele></trkpt>
    <trkpt lat="48.42513" lon="14.36562"><ele>689</ele></trkpt>
    <trkpt lat="48.42498" lon="14.36518"><ele>686</ele></trkpt>
    <trkpt lat="48.42474" lon="14.36471"><ele>678</ele></trkpt>
    <trkpt lat="48.42470" lon="14.36422"><ele>692</ele></trkpt>
    <trkpt lat="48.42467" lon="14.36345"><ele>701</ele></trkpt>
    <trkpt lat="48.42444" lon="14.36292"><ele>601</ele></trkpt>
    <trkpt lat="48.42422" lon="14.36236"><ele>679</ele></trkpt>
    <trkpt lat="48.42393" lon="14.36178"><ele>667</ele></trkpt>
    <trkpt lat="48.42367" lon="14.36123"><ele>709</ele></trkpt>
    <trkpt lat="48.42325" lon="14.36058"><ele>713</ele></trkpt>
    <trkpt lat="48.42259" lon="14.36082"><ele>711</ele></trkpt>
    <trkpt lat="48.42186" lon="14.36116"><ele>712</ele></trkpt>
    <trkpt lat="48.42160" lon="14.36069"><ele>705</ele></trkpt>
    <trkpt lat="48.42170" lon="14.35964"><ele>704</ele></trkpt>
    <trkpt lat="48.42151" lon="14.35890"><ele>708</ele></trkpt>
    <trkpt lat="48.42123" lon="14.35857"><ele>721</ele></trkpt>
    <trkpt lat="48.42094" lon="14.35792"><ele>717</ele></trkpt>
    <trkpt lat="48.42063" lon="14.35709"><ele>719</ele></trkpt>
    <trkpt lat="48.42031" lon="14.35612"><ele>692</ele></trkpt>
    <trkpt lat="48.41990" lon="14.35435"><ele>691</ele></trkpt>
    <trkpt lat="48.41960" lon="14.35337"><ele>692</ele></trkpt>
    <trkpt lat="48.41914" lon="14.35232"><ele>692</ele></trkpt>
    <trkpt lat="48.41919" lon="14.35111"><ele>696</ele></trkpt>
    <trkpt lat="48.41916" lon="14.34990"><ele>694</ele></trkpt>
    <trkpt lat="48.41962" lon="14.34915"><ele>697</ele></trkpt>
    <trkpt lat="48.41995" lon="14.34871"><ele>691</ele></trkpt>
    <trkpt lat="48.42031" lon="14.34834"><ele>703</ele></trkpt>
    <trkpt lat="48.42071" lon="14.34806"><ele>705</ele></trkpt>
    <trkpt lat="48.42110" lon="14.34786"><ele>712</ele></trkpt>
    <trkpt lat="48.42153" lon="14.34771"><ele>707</ele></trkpt>
    <trkpt lat="48.42206" lon="14.34731"><ele>708</ele></trkpt>
    <trkpt lat="48.42202" lon="14.34645"><ele>711</ele></trkpt>
    <trkpt lat="48.42126" lon="14.34616"><ele>709</ele></trkpt>
    <trkpt lat="48.42063" lon="14.34610"><ele>717</ele></trkpt>
    <trkpt lat="48.42018" lon="14.34587"><ele>715</ele></trkpt>
    <trkpt lat="48.41967" lon="14.34537"><ele>715</ele></trkpt>
    <trkpt lat="48.41899" lon="14.34458"><ele>717</ele></trkpt>
    <trkpt lat="48.41810" lon="14.34357"><ele>710</ele></trkpt>
    <trkpt lat="48.41709" lon="14.34391"><ele>713</ele></trkpt>
    <trkpt lat="48.41664" lon="14.34352"><ele>715</ele></trkpt>
    <trkpt lat="48.41645" lon="14.34294"><ele>719</ele></trkpt>
    <trkpt lat="48.41628" lon="14.34233"><ele>722</ele></trkpt>
    <trkpt lat="48.41623" lon="14.34170"><ele>726</ele></trkpt>
    <trkpt lat="48.41628" lon="14.34107"><ele>729</ele></trkpt>
    <trkpt lat="48.41626" lon="14.34043"><ele>731</ele></trkpt>
    <trkpt lat="48.41600" lon="14.33977"><ele>732</ele></trkpt>
    <trkpt lat="48.41571" lon="14.33907"><ele>731</ele></trkpt>
    <trkpt lat="48.41550" lon="14.33854"><ele>733</ele></trkpt>
    <trkpt lat="48.41482" lon="14.33814"><ele>731</ele></trkpt>
    <trkpt lat="48.41379" lon="14.33755"><ele>727</ele></trkpt>
    <trkpt lat="48.41371" lon="14.33696"><ele>725</ele></trkpt>
    <trkpt lat="48.41388" lon="14.33628"><ele>701</ele></trkpt>
    <trkpt lat="48.41400" lon="14.33547"><ele>735</ele></trkpt>
    <trkpt lat="48.41400" lon="14.33466"><ele>738</ele></trkpt>
    <trkpt lat="48.41397" lon="14.33373"><ele>737</ele></trkpt>
    <trkpt lat="48.41395" lon="14.33282"><ele>740</ele></trkpt>
    <trkpt lat="48.41383" lon="14.33204"><ele>742</ele></trkpt>
    <trkpt lat="48.41331" lon="14.33140"><ele>737</ele></trkpt>
    <trkpt lat="48.41278" lon="14.33071"><ele>723</ele></trkpt>
    <trkpt lat="48.41264" lon="14.32985"><ele>746</ele></trkpt>
    <trkpt lat="48.41229" lon="14.32928"><ele>745</ele></trkpt>
    <trkpt lat="48.41127" lon="14.32828"><ele>743</ele></trkpt>
    <trkpt lat="48.41043" lon="14.32804"><ele>749</ele></trkpt>
    <trkpt lat="48.40996" lon="14.32831"><ele>750</ele></trkpt>
    <trkpt lat="48.40946" lon="14.32877"><ele>721</ele></trkpt>
    <trkpt lat="48.40878" lon="14.32875"><ele>729</ele></trkpt>
    <trkpt lat="48.40781" lon="14.32890"><ele>747</ele></trkpt>
    <trkpt lat="48.40712" lon="14.32951"><ele>749</ele></trkpt>
    <trkpt lat="48.40641" lon="14.32911"><ele>743</ele></trkpt>
    <trkpt lat="48.40523" lon="14.32866"><ele>739</ele></trkpt>
    <trkpt lat="48.40403" lon="14.32781"><ele>732</ele></trkpt>
    <trkpt lat="48.40374" lon="14.32650"><ele>739</ele></trkpt>
    <trkpt lat="48.40363" lon="14.32551"><ele>733</ele></trkpt>
    <trkpt lat="48.40348" lon="14.32467"><ele>730</ele></trkpt>
    <trkpt lat="48.40323" lon="14.32386"><ele>736</ele></trkpt>
    <trkpt lat="48.40292" lon="14.32303"><ele>741</ele></trkpt>
    <trkpt lat="48.40251" lon="14.32238"><ele>743</ele></trkpt>
    <trkpt lat="48.40187" lon="14.32224"><ele>741</ele></trkpt>
    <trkpt lat="48.40114" lon="14.32204"><ele>745</ele></trkpt>
    <trkpt lat="48.40040" lon="14.32131"><ele>746</ele></trkpt>
    <trkpt lat="48.39952" lon="14.32049"><ele>738</ele></trkpt>
    <trkpt lat="48.39813" lon="14.31975"><ele>726</ele></trkpt>
    <trkpt lat="48.39689" lon="14.31981"><ele>708</ele></trkpt>
    <trkpt lat="48.39599" lon="14.32011"><ele>728</ele></trkpt>
    <trkpt lat="48.39505" lon="14.31986"><ele>730</ele></trkpt>
    <trkpt lat="48.39391" lon="14.31930"><ele>731</ele></trkpt>
    <trkpt lat="48.39280" lon="14.31881"><ele>733</ele></trkpt>
    <trkpt lat="48.39201" lon="14.31874"><ele>733</ele></trkpt>
    <trkpt lat="48.39121" lon="14.31924"><ele>736</ele></trkpt>
    <trkpt lat="48.39055" lon="14.31989"><ele>735</ele></trkpt>
    <trkpt lat="48.38975" lon="14.32024"><ele>731</ele></trkpt>
    <trkpt lat="48.38880" lon="14.32109"><ele>725</ele></trkpt>
    <trkpt lat="48.38757" lon="14.32069"><ele>719</ele></trkpt>
    <trkpt lat="48.38627" lon="14.31919"><ele>708</ele></trkpt>
    <trkpt lat="48.38511" lon="14.31708"><ele>698</ele></trkpt>
    <trkpt lat="48.38393" lon="14.31572"><ele>692</ele></trkpt>
    <trkpt lat="48.38250" lon="14.31588"><ele>689</ele></trkpt>
    <trkpt lat="48.38119" lon="14.31553"><ele>678</ele></trkpt>
    <trkpt lat="48.37984" lon="14.31559"><ele>672</ele></trkpt>
    <trkpt lat="48.37876" lon="14.31473"><ele>674</ele></trkpt>
    <trkpt lat="48.37802" lon="14.31394"><ele>670</ele></trkpt>
    <trkpt lat="48.37706" lon="14.31335"><ele>678</ele></trkpt>
    <trkpt lat="48.37659" lon="14.31211"><ele>673</ele></trkpt>
    <trkpt lat="48.37555" lon="14.31192"><ele>668</ele></trkpt>
    <trkpt lat="48.37477" lon="14.31260"><ele>663</ele></trkpt>
    <trkpt lat="48.37422" lon="14.31408"><ele>668</ele></trkpt>
    <trkpt lat="48.37354" lon="14.31547"><ele>660</ele></trkpt>
    <trkpt lat="48.37197" lon="14.31599"><ele>653</ele></trkpt>
    <trkpt lat="48.37089" lon="14.31491"><ele>651</ele></trkpt>
    <trkpt lat="48.37013" lon="14.31375"><ele>649</ele></trkpt>
    <trkpt lat="48.36928" lon="14.31311"><ele>645</ele></trkpt>
    <trkpt lat="48.36806" lon="14.31314"><ele>646</ele></trkpt>
    <trkpt lat="48.36670" lon="14.31231"><ele>633</ele></trkpt>
    <trkpt lat="48.36616" lon="14.31153"><ele>639</ele></trkpt>
    <trkpt lat="48.36579" lon="14.31087"><ele>639</ele></trkpt>
    <trkpt lat="48.36574" lon="14.31001"><ele>637</ele></trkpt>
    <trkpt lat="48.36568" lon="14.30943"><ele>640</ele></trkpt>
    <trkpt lat="48.36554" lon="14.30894"><ele>642</ele></trkpt>
    <trkpt lat="48.36531" lon="14.30832"><ele>638</ele></trkpt>
    <trkpt lat="48.36477" lon="14.30706"><ele>634</ele></trkpt>
    <trkpt lat="48.36411" lon="14.30691"><ele>632</ele></trkpt>
    <trkpt lat="48.36337" lon="14.30641"><ele>628</ele></trkpt>
    <trkpt lat="48.36251" lon="14.30545"><ele>631</ele></trkpt>
    <trkpt lat="48.36201" lon="14.30504"><ele>628</ele></trkpt>
    <trkpt lat="48.36156" lon="14.30495"><ele>629</ele></trkpt>
    <trkpt lat="48.36027" lon="14.30470"><ele>614</ele></trkpt>
    <trkpt lat="48.35949" lon="14.30577"><ele>631</ele></trkpt>
    <trkpt lat="48.35878" lon="14.30683"><ele>616</ele></trkpt>
    <trkpt lat="48.35821" lon="14.30773"><ele>614</ele></trkpt>
    <trkpt lat="48.35760" lon="14.30900"><ele>629</ele></trkpt>
    <trkpt lat="48.35764" lon="14.31044"><ele>611</ele></trkpt>
    <trkpt lat="48.35753" lon="14.31182"><ele>609</ele></trkpt>
    <trkpt lat="48.35637" lon="14.31312"><ele>596</ele></trkpt>
    <trkpt lat="48.35460" lon="14.31211"><ele>581</ele></trkpt>
    <trkpt lat="48.35253" lon="14.31198"><ele>567</ele></trkpt>
    <trkpt lat="48.35062" lon="14.31241"><ele>596</ele></trkpt>
    <trkpt lat="48.34883" lon="14.31183"><ele>541</ele></trkpt>
    <trkpt lat="48.34701" lon="14.31061"><ele>523</ele></trkpt>
    <trkpt lat="48.34778" lon="14.30824"><ele>540</ele></trkpt>
    <trkpt lat="48.34721" lon="14.30699"><ele>545</ele></trkpt>
    <trkpt lat="48.34604" lon="14.30470"><ele>658</ele></trkpt>
    <trkpt lat="48.34420" lon="14.30526"><ele>469</ele></trkpt>
    <trkpt lat="48.34283" lon="14.30711"><ele>463</ele></trkpt>
    <trkpt lat="48.34145" lon="14.30623"><ele>428</ele></trkpt>
    <trkpt lat="48.34238" lon="14.30370"><ele>447</ele></trkpt>
    <trkpt lat="48.34363" lon="14.30117"><ele>405</ele></trkpt>
    <trkpt lat="48.34323" lon="14.30135"><ele>379</ele></trkpt>
    <trkpt lat="48.34154" lon="14.30247"><ele>366</ele></trkpt>
    <trkpt lat="48.33968" lon="14.30292"><ele>353</ele></trkpt>
    <trkpt lat="48.33831" lon="14.30279"><ele>333</ele></trkpt>
    <trkpt lat="48.33722" lon="14.30406"><ele>320</ele></trkpt>
    <trkpt lat="48.33651" lon="14.30376"><ele>311</ele></trkpt>
    <trkpt lat="48.33699" lon="14.30205"><ele>302</ele></trkpt>
    <trkpt lat="48.33815" lon="14.30063"><ele>308</ele></trkpt>
    <trkpt lat="48.33770" lon="14.30052"><ele>284</ele></trkpt>
    <trkpt lat="48.33598" lon="14.30104"><ele>275</ele></trkpt>
    <trkpt lat="48.33446" lon="14.30067"><ele>255</ele></trkpt>
    <trkpt lat="48.33375" lon="14.30069"><ele>255</ele></trkpt>
    <trkpt lat="48.33336" lon="14.29966"><ele>254</ele></trkpt>
    <trkpt lat="48.33229" lon="14.29958"><ele>253</ele></trkpt>
    <trkpt lat="48.33115" lon="14.29933"><ele>255</ele></trkpt>
    <trkpt lat="48.32993" lon="14.29960"><ele>250</ele></trkpt>
    <trkpt lat="48.32893" lon="14.29958"><ele>250</ele></trkpt>
    <trkpt lat="48.32791" lon="14.29944"><ele>249</ele></trkpt>
    <trkpt lat="48.32711" lon="14.29877"><ele>247</ele></trkpt>
    <trkpt lat="48.32620" lon="14.29814"><ele>248</ele></trkpt>
    <trkpt lat="48.32537" lon="14.29765"><ele>253</ele></trkpt>
    <trkpt lat="48.32440" lon="14.29772"><ele>248</ele></trkpt>
    <trkpt lat="48.32392" lon="14.29863"><ele>243</ele></trkpt>
    <trkpt lat="48.32373" lon="14.29964"><ele>245</ele></trkpt>
    <trkpt lat="48.32363" lon="14.29990"><ele>244</ele></trkpt>
    <trkpt lat="48.32324" lon="14.29967"><ele>248</ele></trkpt>
    <trkpt lat="48.32277" lon="14.29891"><ele>250</ele></trkpt>
    <trkpt lat="48.32212" lon="14.29801"><ele>249</ele></trkpt>
    <trkpt lat="48.32144" lon="14.29727"><ele>249</ele></trkpt>
    <trkpt lat="48.32092" lon="14.29665"><ele>248</ele></trkpt>
    <trkpt lat="48.32022" lon="14.29555"><ele>245</ele></trkpt>
    <trkpt lat="48.31950" lon="14.29464"><ele>244</ele></trkpt>
    <trkpt lat="48.31858" lon="14.29378"><ele>245</ele></trkpt>
    <trkpt lat="48.31780" lon="14.29365"><ele>247</ele></trkpt>
    <trkpt lat="48.31711" lon="14.29357"><ele>247</ele></trkpt>
    <trkpt lat="48.31637" lon="14.29279"><ele>245</ele></trkpt>
    <trkpt lat="48.31557" lon="14.29196"><ele>245</ele></trkpt>
    <trkpt lat="48.31481" lon="14.29123"><ele>243</ele></trkpt>
    <trkpt lat="48.31408" lon="14.29047"><ele>246</ele></trkpt>
    <trkpt lat="48.31329" lon="14.28967"><ele>245</ele></trkpt>
    <trkpt lat="48.31250" lon="14.28886"><ele>241</ele></trkpt>
    <trkpt lat="48.31170" lon="14.28798"><ele>242</ele></trkpt>
    <trkpt lat="48.31111" lon="14.28704"><ele>241</ele></trkpt>
    <trkpt lat="48.31047" lon="14.28615"><ele>240</ele></trkpt>
    <trkpt lat="48.30998" lon="14.28513"><ele>244</ele></trkpt>
    <trkpt lat="48.30940" lon="14.28389"><ele>246</ele></trkpt>
    <trkpt lat="48.30913" lon="14.28318"><ele>247</ele></trkpt>
    <trkpt lat="48.30928" lon="14.28224"><ele>246</ele></trkpt>
    <trkpt lat="48.30988" lon="14.28178"><ele>247</ele></trkpt>
    <trkpt lat="48.31034" lon="14.28206"><ele>250</ele></trkpt>
    <trkpt lat="48.31040" lon="14.28297"><ele>238</ele></trkpt>
    <trkpt lat="48.30958" lon="14.28361"><ele>244</ele></trkpt>
    <trkpt lat="48.30902" lon="14.28409"><ele>251</ele></trkpt>
    <trkpt lat="48.30846" lon="14.28451"><ele>255</ele></trkpt>
    <trkpt lat="48.30778" lon="14.28500"><ele>256</ele></trkpt>
    <trkpt lat="48.30694" lon="14.28566"><ele>255</ele></trkpt>
    <trkpt lat="48.30605" lon="14.28609"><ele>255</ele></trkpt>
    <trkpt lat="48.30585" lon="14.28528"><ele>253</ele></trkpt>
    <trkpt lat="48.30553" lon="14.28480"><ele>258</ele></trkpt>
    <trkpt lat="48.30505" lon="14.28462"><ele>257</ele></trkpt>
    <trkpt lat="48.30442" lon="14.28518"><ele>254</ele></trkpt>
    <trkpt lat="48.30403" lon="14.28544"><ele>169</ele></trkpt>
    <trkpt lat="48.30339" lon="14.28563"><ele>227</ele></trkpt>
    <trkpt lat="48.30292" lon="14.28588"><ele>238</ele></trkpt>
    <trkpt lat="48.30227" lon="14.28649"><ele>250</ele></trkpt>
    <trkpt lat="48.30161" lon="14.28703"><ele>260</ele></trkpt>
    <trkpt lat="48.30087" lon="14.28727"><ele>252</ele></trkpt>
    <trkpt lat="48.30020" lon="14.28733"><ele>246</ele></trkpt>
    <trkpt lat="48.29919" lon="14.28747"><ele>238</ele></trkpt>
    <trkpt lat="48.29815" lon="14.28773"><ele>246</ele></trkpt>
    <trkpt lat="48.29704" lon="14.28752"><ele>260</ele></trkpt>
    <trkpt lat="48.29614" lon="14.28717"><ele>263</ele></trkpt>
    <trkpt lat="48.29531" lon="14.28692"><ele>264</ele></trkpt>
    <trkpt lat="48.29464" lon="14.28664"><ele>266</ele></trkpt>
    <trkpt lat="48.29397" lon="14.28611"><ele>264</ele></trkpt>
    <trkpt lat="48.29356" lon="14.28538"><ele>259</ele></trkpt>
    <trkpt lat="48.29350" lon="14.28517"><ele>256</ele></trkpt>
    <trkpt lat="48.29317" lon="14.28468"><ele>262</ele></trkpt>
    <trkpt lat="48.29283" lon="14.28491"><ele>264</ele></trkpt>
    <trkpt lat="48.29226" lon="14.28526"><ele>263</ele></trkpt>
    <trkpt lat="48.29202" lon="14.28532"><ele>270</ele></trkpt>
    <trkpt lat="48.29189" lon="14.28528"><ele>271</ele></trkpt>
    <trkpt lat="48.29170" lon="14.28527"><ele>269</ele></trkpt>
    <trkpt lat="48.29151" lon="14.28530"><ele>274</ele></trkpt>
    <trkpt lat="48.29127" lon="14.28550"><ele>280</ele></trkpt>
    <trkpt lat="48.29064" lon="14.28562"><ele>277</ele></trkpt>
    <trkpt lat="48.29023" lon="14.28537"><ele>279</ele></trkpt>
    <trkpt lat="48.29025" lon="14.28442"><ele>277</ele></trkpt>
    <trkpt lat="48.29036" lon="14.28366"><ele>279</ele></trkpt>
    <trkpt lat="48.29048" lon="14.28304"><ele>283</ele></trkpt>
    <trkpt lat="48.29053" lon="14.28242"><ele>285</ele></trkpt>
    <trkpt lat="48.29031" lon="14.28225"><ele>287</ele></trkpt>
    <trkpt lat="48.28960" lon="14.28208"><ele>291</ele></trkpt>
    <trkpt lat="48.28894" lon="14.28178"><ele>292</ele></trkpt>
    <trkpt lat="48.28832" lon="14.28144"><ele>296</ele></trkpt>
    <trkpt lat="48.28781" lon="14.28125"><ele>298</ele></trkpt>
    <trkpt lat="48.28713" lon="14.28122"><ele>295</ele></trkpt>
    <trkpt lat="48.28671" lon="14.28044"><ele>291</ele></trkpt>
    <trkpt lat="48.28666" lon="14.27979"><ele>278</ele></trkpt>
    <trkpt lat="48.28642" lon="14.27857"><ele>288</ele></trkpt>
    <trkpt lat="48.28585" lon="14.27799"><ele>294</ele></trkpt>
    <trkpt lat="48.28546" lon="14.27769"><ele>303</ele></trkpt>
    <trkpt lat="48.28565" lon="14.27715"><ele>310</ele></trkpt>
    <trkpt lat="48.28556" lon="14.27648"><ele>308</ele></trkpt>
    <trkpt lat="48.28553" lon="14.27577"><ele>307</ele></trkpt>
    <trkpt lat="48.28575" lon="14.27511"><ele>306</ele></trkpt>
    <trkpt lat="48.28517" lon="14.27496"><ele>300</ele></trkpt>
    <trkpt lat="48.28529" lon="14.27513"><ele>316</ele></trkpt>
  </trkseg>
</trk>
</gpx>