<?xml version="1.0" encoding="UTF-8"?>
<gpx version="1.1" creator="Gpx-Optimizer" xmlns="http://www.topografix.com/GPX/1/1">
<trk>
  <name>Stubwies SO-Wand</name>
  <trkseg>
    <trkpt lat="47.64857" lon="14.29142"><ele>1384</ele></trkpt>
    <trkpt lat="47.64875" lon="14.29135"><ele>1378</ele></trkpt>
    <trkpt lat="47.64884" lon="14.29155"><ele>1373</ele></trkpt>
    <trkpt lat="47.64888" lon="14.29182"><ele>1372</ele></trkpt>
    <trkpt lat="47.64901" lon="14.29210"><ele>1377</ele></trkpt>
    <trkpt lat="47.64904" lon="14.29236"><ele>1381</ele></trkpt>
    <trkpt lat="47.64910" lon="14.29262"><ele>1372</ele></trkpt>
    <trkpt lat="47.64907" lon="14.29291"><ele>1370</ele></trkpt>
    <trkpt lat="47.64894" lon="14.29319"><ele>1373</ele></trkpt>
    <trkpt lat="47.64894" lon="14.29343"><ele>1364</ele></trkpt>
    <trkpt lat="47.64903" lon="14.29368"><ele>1357</ele></trkpt>
    <trkpt lat="47.64923" lon="14.29371"><ele>1359</ele></trkpt>
    <trkpt lat="47.64939" lon="14.29356"><ele>1356</ele></trkpt>
    <trkpt lat="47.64948" lon="14.29359"><ele>1359</ele></trkpt>
    <trkpt lat="47.64961" lon="14.29375"><ele>1372</ele></trkpt>
    <trkpt lat="47.64965" lon="14.29387"><ele>1373</ele></trkpt>
    <trkpt lat="47.64972" lon="14.29396"><ele>1377</ele></trkpt>
    <trkpt lat="47.64974" lon="14.29424"><ele>1381</ele></trkpt>
    <trkpt lat="47.64981" lon="14.29439"><ele>1388</ele></trkpt>
    <trkpt lat="47.64978" lon="14.29470"><ele>1391</ele></trkpt>
    <trkpt lat="47.64982" lon="14.29486"><ele>1394</ele></trkpt>
    <trkpt lat="47.64993" lon="14.29509"><ele>1398</ele></trkpt>
    <trkpt lat="47.65003" lon="14.29513"><ele>1397</ele></trkpt>
    <trkpt lat="47.65013" lon="14.29517"><ele>1400</ele></trkpt>
    <trkpt lat="47.65028" lon="14.29514"><ele>1406</ele></trkpt>
    <trkpt lat="47.65035" lon="14.29522"><ele>1411</ele></trkpt>
    <trkpt lat="47.65052" lon="14.29528"><ele>1415</ele></trkpt>
    <trkpt lat="47.65063" lon="14.29531"><ele>1419</ele></trkpt>
    <trkpt lat="47.65074" lon="14.29540"><ele>1419</ele></trkpt>
    <trkpt lat="47.65084" lon="14.29533"><ele>1420</ele></trkpt>
    <trkpt lat="47.65101" lon="14.29538"><ele>1426</ele></trkpt>
    <trkpt lat="47.65121" lon="14.29540"><ele>1417</ele></trkpt>
    <trkpt lat="47.65130" lon="14.29530"><ele>1425</ele></trkpt>
    <trkpt lat="47.65138" lon="14.29501"><ele>1428</ele></trkpt>
    <trkpt lat="47.65129" lon="14.29482"><ele>1423</ele></trkpt>
    <trkpt lat="47.65106" lon="14.29461"><ele>1422</ele></trkpt>
    <trkpt lat="47.65086" lon="14.29464"><ele>1433</ele></trkpt>
    <trkpt lat="47.65064" lon="14.29457"><ele>1432</ele></trkpt>
    <trkpt lat="47.65063" lon="14.29440"><ele>1421</ele></trkpt>
    <trkpt lat="47.65064" lon="14.29414"><ele>1406</ele></trkpt>
    <trkpt lat="47.65065" lon="14.29398"><ele>1405</ele></trkpt>
    <trkpt lat="47.65064" lon="14.29380"><ele>1394</ele></trkpt>
    <trkpt lat="47.65068" lon="14.29366"><ele>1390</ele></trkpt>
    <trkpt lat="47.65077" lon="14.29350"><ele>1384</ele></trkpt>
    <trkpt lat="47.65091" lon="14.29345"><ele>1380</ele></trkpt>
    <trkpt lat="47.65109" lon="14.29341"><ele>1381</ele></trkpt>
    <trkpt lat="47.65122" lon="14.29323"><ele>1372</ele></trkpt>
    <trkpt lat="47.65134" lon="14.29295"><ele>1363</ele></trkpt>
    <trkpt lat="47.65147" lon="14.29272"><ele>1359</ele></trkpt>
    <trkpt lat="47.65164" lon="14.29283"><ele>1364</ele></trkpt>
    <trkpt lat="47.65176" lon="14.29302"><ele>1365</ele></trkpt>
    <trkpt lat="47.65193" lon="14.29322"><ele>1367</ele></trkpt>
    <trkpt lat="47.65208" lon="14.29341"><ele>1367</ele></trkpt>
    <trkpt lat="47.65225" lon="14.29362"><ele>1371</ele></trkpt>
    <trkpt lat="47.65232" lon="14.29378"><ele>1371</ele></trkpt>
    <trkpt lat="47.65239" lon="14.29399"><ele>1368</ele></trkpt>
    <trkpt lat="47.65248" lon="14.29404"><ele>1370</ele></trkpt>
    <trkpt lat="47.65257" lon="14.29414"><ele>1370</ele></trkpt>
    <trkpt lat="47.65267" lon="14.29417"><ele>1379</ele></trkpt>
    <trkpt lat="47.65272" lon="14.29445"><ele>1381</ele></trkpt>
    <trkpt lat="47.65285" lon="14.29455"><ele>1384</ele></trkpt>
    <trkpt lat="47.65296" lon="14.29468"><ele>1394</ele></trkpt>
    <trkpt lat="47.65303" lon="14.29493"><ele>1404</ele></trkpt>
    <trkpt lat="47.65303" lon="14.29507"><ele>1407</ele></trkpt>
    <trkpt lat="47.65317" lon="14.29521"><ele>1415</ele></trkpt>
    <trkpt lat="47.65333" lon="14.29517"><ele>1422</ele></trkpt>
    <trkpt lat="47.65347" lon="14.29526"><ele>1425</ele></trkpt>
    <trkpt lat="47.65350" lon="14.29548"><ele>1437</ele></trkpt>
    <trkpt lat="47.65360" lon="14.29559"><ele>1441</ele></trkpt>
    <trkpt lat="47.65365" lon="14.29572"><ele>1441</ele></trkpt>
    <trkpt lat="47.65374" lon="14.29592"><ele>1442</ele></trkpt>
    <trkpt lat="47.65390" lon="14.29592"><ele>1452</ele></trkpt>
    <trkpt lat="47.65406" lon="14.29589"><ele>1448</ele></trkpt>
    <trkpt lat="47.65421" lon="14.29567"><ele>1451</ele></trkpt>
    <trkpt lat="47.65427" lon="14.29576"><ele>1454</ele></trkpt>
    <trkpt lat="47.65432" lon="14.29599"><ele>1463</ele></trkpt>
    <trkpt lat="47.65436" lon="14.29623"><ele>1456</ele></trkpt>
    <trkpt lat="47.65444" lon="14.29637"><ele>1460</ele></trkpt>
    <trkpt lat="47.65445" lon="14.29660"><ele>1473</ele></trkpt>
    <trkpt lat="47.65442" lon="14.29684"><ele>1482</ele></trkpt>
    <trkpt lat="47.65447" lon="14.29706"><ele>1475</ele></trkpt>
    <trkpt lat="47.65458" lon="14.29720"><ele>1480</ele></trkpt>
    <trkpt lat="47.65458" lon="14.29737"><ele>1484</ele></trkpt>
    <trkpt lat="47.65469" lon="14.29756"><ele>1491</ele></trkpt>
    <trkpt lat="47.65471" lon="14.29783"><ele>1496</ele></trkpt>
    <trkpt lat="47.65472" lon="14.29807"><ele>1503</ele></trkpt>
    <trkpt lat="47.65480" lon="14.29825"><ele>1498</ele></trkpt>
    <trkpt lat="47.65481" lon="14.29844"><ele>1506</ele></trkpt>
    <trkpt lat="47.65464" lon="14.29864"><ele>1510</ele></trkpt>
    <trkpt lat="47.65452" lon="14.29874"><ele>1513</ele></trkpt>
    <trkpt lat="47.65438" lon="14.29880"><ele>1520</ele></trkpt>
    <trkpt lat="47.65425" lon="14.29897"><ele>1522</ele></trkpt>
    <trkpt lat="47.65412" lon="14.29913"><ele>1522</ele></trkpt>
    <trkpt lat="47.65404" lon="14.29925"><ele>1526</ele></trkpt>
    <trkpt lat="47.65399" lon="14.29947"><ele>1527</ele></trkpt>
    <trkpt lat="47.65403" lon="14.29973"><ele>1533</ele></trkpt>
    <trkpt lat="47.65403" lon="14.29988"><ele>1536</ele></trkpt>
    <trkpt lat="47.65407" lon="14.30010"><ele>1528</ele></trkpt>
    <trkpt lat="47.65397" lon="14.30035"><ele>1538</ele></trkpt>
    <trkpt lat="47.65388" lon="14.30043"><ele>1543</ele></trkpt>
    <trkpt lat="47.65376" lon="14.30066"><ele>1546</ele></trkpt>
    <trkpt lat="47.65369" lon="14.30093"><ele>1549</ele></trkpt>
    <trkpt lat="47.65357" lon="14.30112"><ele>1548</ele></trkpt>
    <trkpt lat="47.65357" lon="14.30132"><ele>1544</ele></trkpt>
    <trkpt lat="47.65357" lon="14.30153"><ele>1573</ele></trkpt>
    <trkpt lat="47.65366" lon="14.30174"><ele>1586</ele></trkpt>
    <trkpt lat="47.65375" lon="14.30193"><ele>1615</ele></trkpt>
    <trkpt lat="47.65386" lon="14.30193"><ele>1667</ele></trkpt>
    <trkpt lat="47.65380" lon="14.30179"><ele>1709</ele></trkpt>
    <trkpt lat="47.65393" lon="14.30173"><ele>1768</ele></trkpt>
    <trkpt lat="47.65408" lon="14.30180"><ele>1769</ele></trkpt>
    <trkpt lat="47.65422" lon="14.30171"><ele>1769</ele></trkpt>
    <trkpt lat="47.65423" lon="14.30147"><ele>1772</ele></trkpt>
    <trkpt lat="47.65437" lon="14.30134"><ele>1763</ele></trkpt>
    <trkpt lat="47.65454" lon="14.30129"><ele>1747</ele></trkpt>
    <trkpt lat="47.65466" lon="14.30146"><ele>1729</ele></trkpt>
    <trkpt lat="47.65479" lon="14.30162"><ele>1716</ele></trkpt>
    <trkpt lat="47.65487" lon="14.30169"><ele>1718</ele></trkpt>
    <trkpt lat="47.65502" lon="14.30174"><ele>1705</ele></trkpt>
    <trkpt lat="47.65517" lon="14.30166"><ele>1696</ele></trkpt>
    <trkpt lat="47.65533" lon="14.30158"><ele>1695</ele></trkpt>
    <trkpt lat="47.65550" lon="14.30144"><ele>1694</ele></trkpt>
    <trkpt lat="47.65563" lon="14.30127"><ele>1691</ele></trkpt>
    <trkpt lat="47.65573" lon="14.30114"><ele>1694</ele></trkpt>
    <trkpt lat="47.65574" lon="14.30100"><ele>1693</ele></trkpt>
    <trkpt lat="47.65580" lon="14.30083"><ele>1695</ele></trkpt>
    <trkpt lat="47.65589" lon="14.30071"><ele>1691</ele></trkpt>
    <trkpt lat="47.65593" lon="14.30058"><ele>1693</ele></trkpt>
    <trkpt lat="47.65606" lon="14.30052"><ele>1692</ele></trkpt>
    <trkpt lat="47.65618" lon="14.30051"><ele>1691</ele></trkpt>
    <trkpt lat="47.65631" lon="14.30032"><ele>1688</ele></trkpt>
    <trkpt lat="47.65637" lon="14.30011"><ele>1692</ele></trkpt>
    <trkpt lat="47.65648" lon="14.29999"><ele>1690</ele></trkpt>
    <trkpt lat="47.65655" lon="14.29988"><ele>1688</ele></trkpt>
    <trkpt lat="47.65657" lon="14.29969"><ele>1682</ele></trkpt>
    <trkpt lat="47.65664" lon="14.29953"><ele>1680</ele></trkpt>
    <trkpt lat="47.65674" lon="14.29944"><ele>1685</ele></trkpt>
    <trkpt lat="47.65678" lon="14.29931"><ele>1679</ele></trkpt>
    <trkpt lat="47.65684" lon="14.29909"><ele>1657</ele></trkpt>
    <trkpt lat="47.65694" lon="14.29890"><ele>1662</ele></trkpt>
    <trkpt lat="47.65705" lon="14.29873"><ele>1653</ele></trkpt>
    <trkpt lat="47.65718" lon="14.29859"><ele>1636</ele></trkpt>
    <trkpt lat="47.65728" lon="14.29839"><ele>1632</ele></trkpt>
    <trkpt lat="47.65741" lon="14.29831"><ele>1623</ele></trkpt>
    <trkpt lat="47.65747" lon="14.29820"><ele>1619</ele></trkpt>
    <trkpt lat="47.65761" lon="14.29805"><ele>1610</ele></trkpt>
    <trkpt lat="47.65771" lon="14.29798"><ele>1606</ele></trkpt>
    <trkpt lat="47.65785" lon="14.29786"><ele>1590</ele></trkpt>
    <trkpt lat="47.65797" lon="14.29769"><ele>1584</ele></trkpt>
    <trkpt lat="47.65806" lon="14.29760"><ele>1580</ele></trkpt>
    <trkpt lat="47.65821" lon="14.29750"><ele>1575</ele></trkpt>
    <trkpt lat="47.65838" lon="14.29746"><ele>1571</ele></trkpt>
    <trkpt lat="47.65857" lon="14.29736"><ele>1563</ele></trkpt>
    <trkpt lat="47.65869" lon="14.29738"><ele>1557</ele></trkpt>
    <trkpt lat="47.65883" lon="14.29728"><ele>1548</ele></trkpt>
    <trkpt lat="47.65888" lon="14.29715"><ele>1549</ele></trkpt>
    <trkpt lat="47.65899" lon="14.29696"><ele>1538</ele></trkpt>
    <trkpt lat="47.65905" lon="14.29684"><ele>1538</ele></trkpt>
    <trkpt lat="47.65919" lon="14.29665"><ele>1553</ele></trkpt>
    <trkpt lat="47.65926" lon="14.29651"><ele>1530</ele></trkpt>
    <trkpt lat="47.65928" lon="14.29627"><ele>1512</ele></trkpt>
    <trkpt lat="47.65930" lon="14.29614"><ele>1512</ele></trkpt>
    <trkpt lat="47.65931" lon="14.29600"><ele>1509</ele></trkpt>
    <trkpt lat="47.65934" lon="14.29587"><ele>1498</ele></trkpt>
    <trkpt lat="47.65944" lon="14.29568"><ele>1539</ele></trkpt>
    <trkpt lat="47.65959" lon="14.29566"><ele>1499</ele></trkpt>
    <trkpt lat="47.65967" lon="14.29554"><ele>1490</ele></trkpt>
    <trkpt lat="47.65975" lon="14.29542"><ele>1491</ele></trkpt>
    <trkpt lat="47.65978" lon="14.29526"><ele>1502</ele></trkpt>
    <trkpt lat="47.65986" lon="14.29514"><ele>1492</ele></trkpt>
    <trkpt lat="47.65990" lon="14.29497"><ele>1480</ele></trkpt>
    <trkpt lat="47.65991" lon="14.29479"><ele>1484</ele></trkpt>
    <trkpt lat="47.65992" lon="14.29458"><ele>1481</ele></trkpt>
    <trkpt lat="47.65990" lon="14.29432"><ele>1475</ele></trkpt>
    <trkpt lat="47.65993" lon="14.29409"><ele>1474</ele></trkpt>
    <trkpt lat="47.65993" lon="14.29382"><ele>1475</ele></trkpt>
    <trkpt lat="47.65987" lon="14.29358"><ele>1472</ele></trkpt>
    <trkpt lat="47.65977" lon="14.29343"><ele>1473</ele></trkpt>
    <trkpt lat="47.65977" lon="14.29328"><ele>1476</ele></trkpt>
    <trkpt lat="47.65967" lon="14.29310"><ele>1476</ele></trkpt>
    <trkpt lat="47.65955" lon="14.29302"><ele>1468</ele></trkpt>
    <trkpt lat="47.65935" lon="14.29291"><ele>1466</ele></trkpt>
    <trkpt lat="47.65914" lon="14.29277"><ele>1463</ele></trkpt>
    <trkpt lat="47.65896" lon="14.29264"><ele>1458</ele></trkpt>
    <trkpt lat="47.65878" lon="14.29260"><ele>1454</ele></trkpt>
    <trkpt lat="47.65856" lon="14.29258"><ele>1448</ele></trkpt>
    <trkpt lat="47.65835" lon="14.29263"><ele>1452</ele></trkpt>
    <trkpt lat="47.65819" lon="14.29264"><ele>1457</ele></trkpt>
    <trkpt lat="47.65802" lon="14.29260"><ele>1453</ele></trkpt>
    <trkpt lat="47.65788" lon="14.29249"><ele>1448</ele></trkpt>
    <trkpt lat="47.65769" lon="14.29248"><ele>1449</ele></trkpt>
    <trkpt lat="47.65756" lon="14.29236"><ele>1434</ele></trkpt>
    <trkpt lat="47.65747" lon="14.29217"><ele>1430</ele></trkpt>
    <trkpt lat="47.65742" lon="14.29202"><ele>1431</ele></trkpt>
    <trkpt lat="47.65738" lon="14.29163"><ele>1434</ele></trkpt>
    <trkpt lat="47.65720" lon="14.29136"><ele>1432</ele></trkpt>
    <trkpt lat="47.65710" lon="14.29114"><ele>1438</ele></trkpt>
    <trkpt lat="47.65695" lon="14.29092"><ele>1444</ele></trkpt>
    <trkpt lat="47.65678" lon="14.29072"><ele>1431</ele></trkpt>
    <trkpt lat="47.65654" lon="14.29056"><ele>1427</ele></trkpt>
    <trkpt lat="47.65637" lon="14.29040"><ele>1424</ele></trkpt>
    <trkpt lat="47.65624" lon="14.29023"><ele>1421</ele></trkpt>
    <trkpt lat="47.65611" lon="14.29015"><ele>1417</ele></trkpt>
    <trkpt lat="47.65606" lon="14.29004"><ele>1417</ele></trkpt>
    <trkpt lat="47.65601" lon="14.28979"><ele>1421</ele></trkpt>
    <trkpt lat="47.65583" lon="14.28963"><ele>1419</ele></trkpt>
    <trkpt lat="47.65554" lon="14.28985"><ele>1424</ele></trkpt>
    <trkpt lat="47.65541" lon="14.29009"><ele>1426</ele></trkpt>
    <trkpt lat="47.65527" lon="14.29032"><ele>1422</ele></trkpt>
    <trkpt lat="47.65512" lon="14.29024"><ele>1421</ele></trkpt>
    <trkpt lat="47.65514" lon="14.28997"><ele>1420</ele></trkpt>
    <trkpt lat="47.65515" lon="14.28972"><ele>1417</ele></trkpt>
    <trkpt lat="47.65515" lon="14.28952"><ele>1419</ele></trkpt>
    <trkpt lat="47.65510" lon="14.28926"><ele>1415</ele></trkpt>
    <trkpt lat="47.65506" lon="14.28897"><ele>1416</ele></trkpt>
    <trkpt lat="47.65497" lon="14.28870"><ele>1405</ele></trkpt>
    <trkpt lat="47.65489" lon="14.28847"><ele>1401</ele></trkpt>
    <trkpt lat="47.65474" lon="14.28826"><ele>1401</ele></trkpt>
    <trkpt lat="47.65454" lon="14.28822"><ele>1394</ele></trkpt>
    <trkpt lat="47.65437" lon="14.28837"><ele>1391</ele></trkpt>
    <trkpt lat="47.65425" lon="14.28854"><ele>1387</ele></trkpt>
    <trkpt lat="47.65417" lon="14.28878"><ele>1384</ele></trkpt>
    <trkpt lat="47.65410" lon="14.28902"><ele>1381</ele></trkpt>
    <trkpt lat="47.65402" lon="14.28925"><ele>1379</ele></trkpt>
    <trkpt lat="47.65399" lon="14.28942"><ele>1378</ele></trkpt>
    <trkpt lat="47.65396" lon="14.28964"><ele>1372</ele></trkpt>
    <trkpt lat="47.65384" lon="14.28986"><ele>1370</ele></trkpt>
    <trkpt lat="47.65370" lon="14.28997"><ele>1367</ele></trkpt>
    <trkpt lat="47.65353" lon="14.29010"><ele>1366</ele></trkpt>
    <trkpt lat="47.65339" lon="14.29024"><ele>1360</ele></trkpt>
    <trkpt lat="47.65334" lon="14.29051"><ele>1354</ele></trkpt>
    <trkpt lat="47.65326" lon="14.29080"><ele>1353</ele></trkpt>
    <trkpt lat="47.65323" lon="14.29109"><ele>1355</ele></trkpt>
    <trkpt lat="47.65321" lon="14.29135"><ele>1354</ele></trkpt>
    <trkpt lat="47.65315" lon="14.29159"><ele>1351</ele></trkpt>
    <trkpt lat="47.65303" lon="14.29180"><ele>1352</ele></trkpt>
    <trkpt lat="47.65284" lon="14.29183"><ele>1350</ele></trkpt>
    <trkpt lat="47.65262" lon="14.29186"><ele>1342</ele></trkpt>
    <trkpt lat="47.65241" lon="14.29188"><ele>1337</ele></trkpt>
    <trkpt lat="47.65220" lon="14.29191"><ele>1338</ele></trkpt>
    <trkpt lat="47.65201" lon="14.29196"><ele>1335</ele></trkpt>
    <trkpt lat="47.65183" lon="14.29205"><ele>1337</ele></trkpt>
    <trkpt lat="47.65167" lon="14.29211"><ele>1341</ele></trkpt>
    <trkpt lat="47.65151" lon="14.29220"><ele>1342</ele></trkpt>
    <trkpt lat="47.65131" lon="14.29227"><ele>1340</ele></trkpt>
    <trkpt lat="47.65112" lon="14.29232"><ele>1338</ele></trkpt>
    <trkpt lat="47.65089" lon="14.29240"><ele>1341</ele></trkpt>
    <trkpt lat="47.65071" lon="14.29247"><ele>1340</ele></trkpt>
    <trkpt lat="47.65060" lon="14.29252"><ele>1339</ele></trkpt>
    <trkpt lat="47.65038" lon="14.29255"><ele>1338</ele></trkpt>
    <trkpt lat="47.65016" lon="14.29256"><ele>1343</ele></trkpt>
    <trkpt lat="47.65003" lon="14.29278"><ele>1343</ele></trkpt>
    <trkpt lat="47.64990" lon="14.29301"><ele>1342</ele></trkpt>
    <trkpt lat="47.64971" lon="14.29312"><ele>1345</ele></trkpt>
    <trkpt lat="47.64955" lon="14.29328"><ele>1344</ele></trkpt>
    <trkpt lat="47.64942" lon="14.29352"><ele>1348</ele></trkpt>
    <trkpt lat="47.64924" lon="14.29363"><ele>1352</ele></trkpt>
    <trkpt lat="47.64913" lon="14.29359"><ele>1355</ele></trkpt>
    <trkpt lat="47.64912" lon="14.29329"><ele>1360</ele></trkpt>
    <trkpt lat="47.64918" lon="14.29312"><ele>1364</ele></trkpt>
    <trkpt lat="47.64924" lon="14.29297"><ele>1360</ele></trkpt>
    <trkpt lat="47.64921" lon="14.29280"><ele>1368</ele></trkpt>
    <trkpt lat="47.64917" lon="14.29255"><ele>1367</ele></trkpt>
    <trkpt lat="47.64912" lon="14.29236"><ele>1370</ele></trkpt>
    <trkpt lat="47.64908" lon="14.29210"><ele>1370</ele></trkpt>
    <trkpt lat="47.64900" lon="14.29188"><ele>1370</ele></trkpt>
    <trkpt lat="47.64891" lon="14.29166"><ele>1368</ele></trkpt>
    <trkpt lat="47.64889" lon="14.29151"><ele>1377</ele></trkpt>
    <trkpt lat="47.64884" lon="14.29133"><ele>1377</ele></trkpt>
    <trkpt lat="47.64879" lon="14.29116"><ele>1386</ele></trkpt>
    <trkpt lat="47.64859" lon="14.29117"><ele>1383</ele></trkpt>
    <trkpt lat="47.64845" lon="14.29128"><ele>1385</ele></trkpt>
    <trkpt lat="47.64830" lon="14.29139"><ele>1388</ele></trkpt>
    <trkpt lat="47.64817" lon="14.29134"><ele>1390</ele></trkpt>
    <trkpt lat="47.64807" lon="14.29126"><ele>1396</ele></trkpt>
    <trkpt lat="47.64795" lon="14.29111"><ele>1396</ele></trkpt>
    <trkpt lat="47.64786" lon="14.29097"><ele>1397</ele></trkpt>
    <trkpt lat="47.64771" lon="14.29088"><ele>1398</ele></trkpt>
    <trkpt lat="47.64757" lon="14.29078"><ele>1404</ele></trkpt>
    <trkpt lat="47.64742" lon="14.29071"><ele>1404</ele></trkpt>
    <trkpt lat="47.64724" lon="14.29071"><ele>1404</ele></trkpt>
    <trkpt lat="47.64706" lon="14.29065"><ele>1400</ele></trkpt>
    <trkpt lat="47.64689" lon="14.29060"><ele>1399</ele></trkpt>
    <trkpt lat="47.64673" lon="14.29057"><ele>1400</ele></trkpt>
    <trkpt lat="47.64657" lon="14.29057"><ele>1404</ele></trkpt>
    <trkpt lat="47.64642" lon="14.29059"><ele>1405</ele></trkpt>
    <trkpt lat="47.64627" lon="14.29058"><ele>1406</ele></trkpt>
    <trkpt lat="47.64613" lon="14.29056"><ele>1410</ele></trkpt>
    <trkpt lat="47.64614" lon="14.29037"><ele>1412</ele></trkpt>
    <trkpt lat="47.64607" lon="14.29018"><ele>1416</ele></trkpt>
    <trkpt lat="47.64600" lon="14.28993"><ele>1407</ele></trkpt>
    <trkpt lat="47.64587" lon="14.28978"><ele>1417</ele></trkpt>
    <trkpt lat="47.64584" lon="14.28965"><ele>1413</ele></trkpt>
    <trkpt lat="47.64587" lon="14.28952"><ele>1405</ele></trkpt>
    <trkpt lat="47.64587" lon="14.28937"><ele>1410</ele></trkpt>
    <trkpt lat="47.64581" lon="14.28918"><ele>1416</ele></trkpt>
    <trkpt lat="47.64587" lon="14.28900"><ele>1414</ele></trkpt>
    <trkpt lat="47.64599" lon="14.28890"><ele>1422</ele></trkpt>
    <trkpt lat="47.64612" lon="14.28887"><ele>1416</ele></trkpt>
    <trkpt lat="47.64603" lon="14.28900"><ele>1411</ele></trkpt>
    <trkpt lat="47.64603" lon="14.28886"><ele>1402</ele></trkpt>
    <trkpt lat="47.64594" lon="14.28891"><ele>1424</ele></trkpt>
    <trkpt lat="47.64577" lon="14.28956"><ele>1414</ele></trkpt>
    <trkpt lat="47.64470" lon="14.29112"><ele>1401</ele></trkpt>
    <trkpt lat="47.64365" lon="14.29203"><ele>1382</ele></trkpt>
    <trkpt lat="47.64267" lon="14.29218"><ele>1371</ele></trkpt>
    <trkpt lat="47.64187" lon="14.29258"><ele>1356</ele></trkpt>
    <trkpt lat="47.64144" lon="14.29291"><ele>1335</ele></trkpt>
    <trkpt lat="47.64073" lon="14.29374"><ele>1310</ele></trkpt>
    <trkpt lat="47.64015" lon="14.29487"><ele>1277</ele></trkpt>
    <trkpt lat="47.63980" lon="14.29536"><ele>1254</ele></trkpt>
    <trkpt lat="47.63976" lon="14.29548"><ele>1249</ele></trkpt>
    <trkpt lat="47.63928" lon="14.29611"><ele>1232</ele></trkpt>
    <trkpt lat="47.63872" lon="14.29677"><ele>1206</ele></trkpt>
    <trkpt lat="47.63827" lon="14.29750"><ele>1183</ele></trkpt>
    <trkpt lat="47.63689" lon="14.29902"><ele>1151</ele></trkpt>
    <trkpt lat="47.63641" lon="14.30066"><ele>1115</ele></trkpt>
    <trkpt lat="47.63632" lon="14.30070"><ele>1111</ele></trkpt>
    <trkpt lat="47.63631" lon="14.30084"><ele>1108</ele></trkpt>
    <trkpt lat="47.63600" lon="14.30195"><ele>1080</ele></trkpt>
    <trkpt lat="47.63508" lon="14.30332"><ele>1042</ele></trkpt>
    <trkpt lat="47.63403" lon="14.30476"><ele>1020</ele></trkpt>
    <trkpt lat="47.63344" lon="14.30516"><ele>1004</ele></trkpt>
    <trkpt lat="47.63340" lon="14.30529"><ele>1000</ele></trkpt>
    <trkpt lat="47.63242" lon="14.30614"><ele>966</ele></trkpt>
    <trkpt lat="47.63106" lon="14.30818"><ele>933</ele></trkpt>
    <trkpt lat="47.63023" lon="14.30953"><ele>907</ele></trkpt>
    <trkpt lat="47.63017" lon="14.30966"><ele>897</ele></trkpt>
    <trkpt lat="47.62930" lon="14.31164"><ele>895</ele></trkpt>
    <trkpt lat="47.62865" lon="14.31297"><ele>868</ele></trkpt>
    <trkpt lat="47.62778" lon="14.31377"><ele>841</ele></trkpt>
    <trkpt lat="47.62722" lon="14.31411"><ele>821</ele></trkpt>
    <trkpt lat="47.62732" lon="14.31454"><ele>820</ele></trkpt>
    <trkpt lat="47.62759" lon="14.31527"><ele>862</ele></trkpt>
    <trkpt lat="47.62746" lon="14.31562"><ele>816</ele></trkpt>
    <trkpt lat="47.62751" lon="14.31594"><ele>850</ele></trkpt>
    <trkpt lat="47.62761" lon="14.31616"><ele>813</ele></trkpt>
    <trkpt lat="47.62771" lon="14.31639"><ele>810</ele></trkpt>
    <trkpt lat="47.62767" lon="14.31669"><ele>796</ele></trkpt>
    <trkpt lat="47.62763" lon="14.31700"><ele>800</ele></trkpt>
  </trkseg>
</trk>
</gpx>