<?xml version="1.0" encoding="UTF-8"?>
<gpx version="1.1" creator="Gpx-Optimizer" xmlns="http://www.topografix.com/GPX/1/1">
<trk>
  <name>Ski_BrandleckTurmtal</name>
  <trkseg>
    <trkpt lat="47.64501" lon="14.09604"><ele>643</ele></trkpt>
    <trkpt lat="47.64510" lon="14.09594"><ele>693</ele></trkpt>
    <trkpt lat="47.64530" lon="14.09587"><ele>719</ele></trkpt>
    <trkpt lat="47.64536" lon="14.09566"><ele>712</ele></trkpt>
    <trkpt lat="47.64532" lon="14.09536"><ele>713</ele></trkpt>
    <trkpt lat="47.64525" lon="14.09504"><ele>713</ele></trkpt>
    <trkpt lat="47.64514" lon="14.09474"><ele>714</ele></trkpt>
    <trkpt lat="47.64502" lon="14.09446"><ele>714</ele></trkpt>
    <trkpt lat="47.64505" lon="14.09415"><ele>710</ele></trkpt>
    <trkpt lat="47.64517" lon="14.09390"><ele>710</ele></trkpt>
    <trkpt lat="47.64524" lon="14.09356"><ele>707</ele></trkpt>
    <trkpt lat="47.64534" lon="14.09320"><ele>713</ele></trkpt>
    <trkpt lat="47.64546" lon="14.09292"><ele>714</ele></trkpt>
    <trkpt lat="47.64565" lon="14.09260"><ele>716</ele></trkpt>
    <trkpt lat="47.64583" lon="14.09237"><ele>720</ele></trkpt>
    <trkpt lat="47.64600" lon="14.09218"><ele>714</ele></trkpt>
    <trkpt lat="47.64617" lon="14.09194"><ele>713</ele></trkpt>
    <trkpt lat="47.64615" lon="14.09158"><ele>729</ele></trkpt>
    <trkpt lat="47.64600" lon="14.09128"><ele>732</ele></trkpt>
    <trkpt lat="47.64596" lon="14.09096"><ele>726</ele></trkpt>
    <trkpt lat="47.64579" lon="14.09074"><ele>732</ele></trkpt>
    <trkpt lat="47.64559" lon="14.09053"><ele>733</ele></trkpt>
    <trkpt lat="47.64543" lon="14.09032"><ele>735</ele></trkpt>
    <trkpt lat="47.64532" lon="14.09012"><ele>739</ele></trkpt>
    <trkpt lat="47.64522" lon="14.08992"><ele>738</ele></trkpt>
    <trkpt lat="47.64508" lon="14.08970"><ele>737</ele></trkpt>
    <trkpt lat="47.64498" lon="14.08948"><ele>738</ele></trkpt>
    <trkpt lat="47.64500" lon="14.08924"><ele>731</ele></trkpt>
    <trkpt lat="47.64499" lon="14.08902"><ele>734</ele></trkpt>
    <trkpt lat="47.64493" lon="14.08879"><ele>734</ele></trkpt>
    <trkpt lat="47.64495" lon="14.08857"><ele>732</ele></trkpt>
    <trkpt lat="47.64507" lon="14.08843"><ele>741</ele></trkpt>
    <trkpt lat="47.64521" lon="14.08842"><ele>757</ele></trkpt>
    <trkpt lat="47.64540" lon="14.08842"><ele>765</ele></trkpt>
    <trkpt lat="47.64552" lon="14.08858"><ele>761</ele></trkpt>
    <trkpt lat="47.64563" lon="14.08871"><ele>758</ele></trkpt>
    <trkpt lat="47.64576" lon="14.08864"><ele>756</ele></trkpt>
    <trkpt lat="47.64588" lon="14.08844"><ele>753</ele></trkpt>
    <trkpt lat="47.64608" lon="14.08835"><ele>722</ele></trkpt>
    <trkpt lat="47.64629" lon="14.08835"><ele>760</ele></trkpt>
    <trkpt lat="47.64637" lon="14.08826"><ele>731</ele></trkpt>
    <trkpt lat="47.64645" lon="14.08812"><ele>758</ele></trkpt>
    <trkpt lat="47.64654" lon="14.08791"><ele>767</ele></trkpt>
    <trkpt lat="47.64664" lon="14.08785"><ele>768</ele></trkpt>
    <trkpt lat="47.64668" lon="14.08768"><ele>769</ele></trkpt>
    <trkpt lat="47.64682" lon="14.08751"><ele>775</ele></trkpt>
    <trkpt lat="47.64698" lon="14.08757"><ele>795</ele></trkpt>
    <trkpt lat="47.64716" lon="14.08768"><ele>807</ele></trkpt>
    <trkpt lat="47.64726" lon="14.08763"><ele>803</ele></trkpt>
    <trkpt lat="47.64740" lon="14.08751"><ele>808</ele></trkpt>
    <trkpt lat="47.64749" lon="14.08757"><ele>817</ele></trkpt>
    <trkpt lat="47.64749" lon="14.08742"><ele>820</ele></trkpt>
    <trkpt lat="47.64745" lon="14.08730"><ele>816</ele></trkpt>
    <trkpt lat="47.64753" lon="14.08708"><ele>813</ele></trkpt>
    <trkpt lat="47.64762" lon="14.08686"><ele>822</ele></trkpt>
    <trkpt lat="47.64777" lon="14.08677"><ele>842</ele></trkpt>
    <trkpt lat="47.64796" lon="14.08681"><ele>830</ele></trkpt>
    <trkpt lat="47.64808" lon="14.08693"><ele>843</ele></trkpt>
    <trkpt lat="47.64819" lon="14.08716"><ele>836</ele></trkpt>
    <trkpt lat="47.64824" lon="14.08732"><ele>794</ele></trkpt>
    <trkpt lat="47.64831" lon="14.08754"><ele>844</ele></trkpt>
    <trkpt lat="47.64846" lon="14.08767"><ele>807</ele></trkpt>
    <trkpt lat="47.64862" lon="14.08775"><ele>835</ele></trkpt>
    <trkpt lat="47.64875" lon="14.08775"><ele>845</ele></trkpt>
    <trkpt lat="47.64886" lon="14.08778"><ele>803</ele></trkpt>
    <trkpt lat="47.64909" lon="14.08777"><ele>856</ele></trkpt>
    <trkpt lat="47.64923" lon="14.08778"><ele>860</ele></trkpt>
    <trkpt lat="47.64931" lon="14.08788"><ele>864</ele></trkpt>
    <trkpt lat="47.64938" lon="14.08798"><ele>868</ele></trkpt>
    <trkpt lat="47.64957" lon="14.08804"><ele>863</ele></trkpt>
    <trkpt lat="47.64973" lon="14.08812"><ele>864</ele></trkpt>
    <trkpt lat="47.64980" lon="14.08825"><ele>864</ele></trkpt>
    <trkpt lat="47.64988" lon="14.08841"><ele>860</ele></trkpt>
    <trkpt lat="47.64997" lon="14.08858"><ele>859</ele></trkpt>
    <trkpt lat="47.65003" lon="14.08869"><ele>850</ele></trkpt>
    <trkpt lat="47.65013" lon="14.08883"><ele>853</ele></trkpt>
    <trkpt lat="47.65021" lon="14.08897"><ele>854</ele></trkpt>
    <trkpt lat="47.65028" lon="14.08912"><ele>846</ele></trkpt>
    <trkpt lat="47.65033" lon="14.08932"><ele>852</ele></trkpt>
    <trkpt lat="47.65035" lon="14.08960"><ele>851</ele></trkpt>
    <trkpt lat="47.65041" lon="14.08983"><ele>852</ele></trkpt>
    <trkpt lat="47.65048" lon="14.09009"><ele>856</ele></trkpt>
    <trkpt lat="47.65062" lon="14.09024"><ele>865</ele></trkpt>
    <trkpt lat="47.65078" lon="14.09036"><ele>878</ele></trkpt>
    <trkpt lat="47.65088" lon="14.09055"><ele>883</ele></trkpt>
    <trkpt lat="47.65085" lon="14.09070"><ele>885</ele></trkpt>
    <trkpt lat="47.65081" lon="14.09088"><ele>883</ele></trkpt>
    <trkpt lat="47.65083" lon="14.09107"><ele>885</ele></trkpt>
    <trkpt lat="47.65094" lon="14.09122"><ele>889</ele></trkpt>
    <trkpt lat="47.65106" lon="14.09098"><ele>892</ele></trkpt>
    <trkpt lat="47.65114" lon="14.09085"><ele>887</ele></trkpt>
    <trkpt lat="47.65120" lon="14.09070"><ele>899</ele></trkpt>
    <trkpt lat="47.65123" lon="14.09053"><ele>902</ele></trkpt>
    <trkpt lat="47.65126" lon="14.09036"><ele>906</ele></trkpt>
    <trkpt lat="47.65129" lon="14.09023"><ele>915</ele></trkpt>
    <trkpt lat="47.65125" lon="14.08995"><ele>919</ele></trkpt>
    <trkpt lat="47.65121" lon="14.08972"><ele>914</ele></trkpt>
    <trkpt lat="47.65117" lon="14.08953"><ele>922</ele></trkpt>
    <trkpt lat="47.65110" lon="14.08935"><ele>920</ele></trkpt>
    <trkpt lat="47.65112" lon="14.08916"><ele>925</ele></trkpt>
    <trkpt lat="47.65124" lon="14.08911"><ele>922</ele></trkpt>
    <trkpt lat="47.65135" lon="14.08918"><ele>925</ele></trkpt>
    <trkpt lat="47.65148" lon="14.08930"><ele>931</ele></trkpt>
    <trkpt lat="47.65164" lon="14.08944"><ele>935</ele></trkpt>
    <trkpt lat="47.65175" lon="14.08961"><ele>936</ele></trkpt>
    <trkpt lat="47.65190" lon="14.08946"><ele>947</ele></trkpt>
    <trkpt lat="47.65197" lon="14.08931"><ele>950</ele></trkpt>
    <trkpt lat="47.65204" lon="14.08919"><ele>957</ele></trkpt>
    <trkpt lat="47.65207" lon="14.08906"><ele>958</ele></trkpt>
    <trkpt lat="47.65203" lon="14.08885"><ele>953</ele></trkpt>
    <trkpt lat="47.65197" lon="14.08872"><ele>964</ele></trkpt>
    <trkpt lat="47.65188" lon="14.08869"><ele>970</ele></trkpt>
    <trkpt lat="47.65179" lon="14.08846"><ele>967</ele></trkpt>
    <trkpt lat="47.65173" lon="14.08822"><ele>973</ele></trkpt>
    <trkpt lat="47.65169" lon="14.08806"><ele>979</ele></trkpt>
    <trkpt lat="47.65185" lon="14.08801"><ele>987</ele></trkpt>
    <trkpt lat="47.65190" lon="14.08789"><ele>985</ele></trkpt>
    <trkpt lat="47.65197" lon="14.08778"><ele>985</ele></trkpt>
    <trkpt lat="47.65207" lon="14.08778"><ele>982</ele></trkpt>
    <trkpt lat="47.65218" lon="14.08791"><ele>990</ele></trkpt>
    <trkpt lat="47.65231" lon="14.08788"><ele>999</ele></trkpt>
    <trkpt lat="47.65223" lon="14.08780"><ele>1005</ele></trkpt>
    <trkpt lat="47.65236" lon="14.08758"><ele>1008</ele></trkpt>
    <trkpt lat="47.65238" lon="14.08735"><ele>1021</ele></trkpt>
    <trkpt lat="47.65250" lon="14.08718"><ele>1018</ele></trkpt>
    <trkpt lat="47.65242" lon="14.08701"><ele>1029</ele></trkpt>
    <trkpt lat="47.65252" lon="14.08700"><ele>1034</ele></trkpt>
    <trkpt lat="47.65252" lon="14.08677"><ele>1046</ele></trkpt>
    <trkpt lat="47.65269" lon="14.08670"><ele>1037</ele></trkpt>
    <trkpt lat="47.65283" lon="14.08675"><ele>1033</ele></trkpt>
    <trkpt lat="47.65301" lon="14.08674"><ele>1045</ele></trkpt>
    <trkpt lat="47.65312" lon="14.08668"><ele>1045</ele></trkpt>
    <trkpt lat="47.65321" lon="14.08665"><ele>1035</ele></trkpt>
    <trkpt lat="47.65339" lon="14.08662"><ele>1038</ele></trkpt>
    <trkpt lat="47.65356" lon="14.08666"><ele>1064</ele></trkpt>
    <trkpt lat="47.65364" lon="14.08673"><ele>1061</ele></trkpt>
    <trkpt lat="47.65373" lon="14.08676"><ele>1032</ele></trkpt>
    <trkpt lat="47.65383" lon="14.08680"><ele>1049</ele></trkpt>
    <trkpt lat="47.65393" lon="14.08691"><ele>1014</ele></trkpt>
    <trkpt lat="47.65404" lon="14.08700"><ele>1035</ele></trkpt>
    <trkpt lat="47.65415" lon="14.08706"><ele>1034</ele></trkpt>
    <trkpt lat="47.65424" lon="14.08717"><ele>1040</ele></trkpt>
    <trkpt lat="47.65428" lon="14.08704"><ele>1047</ele></trkpt>
    <trkpt lat="47.65437" lon="14.08687"><ele>1087</ele></trkpt>
    <trkpt lat="47.65446" lon="14.08700"><ele>1084</ele></trkpt>
    <trkpt lat="47.65458" lon="14.08716"><ele>1102</ele></trkpt>
    <trkpt lat="47.65469" lon="14.08716"><ele>1110</ele></trkpt>
    <trkpt lat="47.65466" lon="14.08700"><ele>1138</ele></trkpt>
    <trkpt lat="47.65471" lon="14.08688"><ele>1149</ele></trkpt>
    <trkpt lat="47.65480" lon="14.08678"><ele>1118</ele></trkpt>
    <trkpt lat="47.65465" lon="14.08661"><ele>1148</ele></trkpt>
    <trkpt lat="47.65456" lon="14.08652"><ele>1154</ele></trkpt>
    <trkpt lat="47.65450" lon="14.08635"><ele>1157</ele></trkpt>
    <trkpt lat="47.65460" lon="14.08605"><ele>1125</ele></trkpt>
    <trkpt lat="47.65470" lon="14.08607"><ele>1146</ele></trkpt>
    <trkpt lat="47.65483" lon="14.08609"><ele>1146</ele></trkpt>
    <trkpt lat="47.65476" lon="14.08589"><ele>1165</ele></trkpt>
    <trkpt lat="47.65460" lon="14.08567"><ele>1169</ele></trkpt>
    <trkpt lat="47.65470" lon="14.08551"><ele>1177</ele></trkpt>
    <trkpt lat="47.65483" lon="14.08548"><ele>1177</ele></trkpt>
    <trkpt lat="47.65500" lon="14.08549"><ele>1191</ele></trkpt>
    <trkpt lat="47.65486" lon="14.08537"><ele>1193</ele></trkpt>
    <trkpt lat="47.65497" lon="14.08518"><ele>1207</ele></trkpt>
    <trkpt lat="47.65487" lon="14.08504"><ele>1226</ele></trkpt>
    <trkpt lat="47.65474" lon="14.08490"><ele>1234</ele></trkpt>
    <trkpt lat="47.65491" lon="14.08473"><ele>1238</ele></trkpt>
    <trkpt lat="47.65501" lon="14.08473"><ele>1240</ele></trkpt>
    <trkpt lat="47.65487" lon="14.08457"><ele>1248</ele></trkpt>
    <trkpt lat="47.65478" lon="14.08448"><ele>1248</ele></trkpt>
    <trkpt lat="47.65473" lon="14.08425"><ele>1257</ele></trkpt>
    <trkpt lat="47.65483" lon="14.08417"><ele>1256</ele></trkpt>
    <trkpt lat="47.65476" lon="14.08399"><ele>1279</ele></trkpt>
    <trkpt lat="47.65468" lon="14.08386"><ele>1282</ele></trkpt>
    <trkpt lat="47.65461" lon="14.08375"><ele>1283</ele></trkpt>
    <trkpt lat="47.65453" lon="14.08367"><ele>1287</ele></trkpt>
    <trkpt lat="47.65444" lon="14.08362"><ele>1291</ele></trkpt>
    <trkpt lat="47.65435" lon="14.08358"><ele>1294</ele></trkpt>
    <trkpt lat="47.65428" lon="14.08334"><ele>1296</ele></trkpt>
    <trkpt lat="47.65421" lon="14.08316"><ele>1302</ele></trkpt>
    <trkpt lat="47.65428" lon="14.08303"><ele>1297</ele></trkpt>
    <trkpt lat="47.65434" lon="14.08289"><ele>1298</ele></trkpt>
    <trkpt lat="47.65426" lon="14.08268"><ele>1321</ele></trkpt>
    <trkpt lat="47.65413" lon="14.08253"><ele>1332</ele></trkpt>
    <trkpt lat="47.65411" lon="14.08234"><ele>1335</ele></trkpt>
    <trkpt lat="47.65417" lon="14.08222"><ele>1338</ele></trkpt>
    <trkpt lat="47.65421" lon="14.08210"><ele>1332</ele></trkpt>
    <trkpt lat="47.65437" lon="14.08197"><ele>1339</ele></trkpt>
    <trkpt lat="47.65455" lon="14.08189"><ele>1339</ele></trkpt>
    <trkpt lat="47.65466" lon="14.08188"><ele>1341</ele></trkpt>
    <trkpt lat="47.65484" lon="14.08187"><ele>1354</ele></trkpt>
    <trkpt lat="47.65481" lon="14.08170"><ele>1382</ele></trkpt>
    <trkpt lat="47.65484" lon="14.08151"><ele>1392</ele></trkpt>
    <trkpt lat="47.65496" lon="14.08154"><ele>1393</ele></trkpt>
    <trkpt lat="47.65513" lon="14.08159"><ele>1405</ele></trkpt>
    <trkpt lat="47.65522" lon="14.08161"><ele>1407</ele></trkpt>
    <trkpt lat="47.65511" lon="14.08143"><ele>1419</ele></trkpt>
    <trkpt lat="47.65520" lon="14.08146"><ele>1419</ele></trkpt>
    <trkpt lat="47.65525" lon="14.08133"><ele>1420</ele></trkpt>
    <trkpt lat="47.65511" lon="14.08120"><ele>1442</ele></trkpt>
    <trkpt lat="47.65523" lon="14.08113"><ele>1437</ele></trkpt>
    <trkpt lat="47.65508" lon="14.08098"><ele>1443</ele></trkpt>
    <trkpt lat="47.65505" lon="14.08077"><ele>1445</ele></trkpt>
    <trkpt lat="47.65515" lon="14.08076"><ele>1443</ele></trkpt>
    <trkpt lat="47.65499" lon="14.08064"><ele>1463</ele></trkpt>
    <trkpt lat="47.65510" lon="14.08059"><ele>1456</ele></trkpt>
    <trkpt lat="47.65505" lon="14.08035"><ele>1461</ele></trkpt>
    <trkpt lat="47.65490" lon="14.08024"><ele>1480</ele></trkpt>
    <trkpt lat="47.65500" lon="14.07999"><ele>1469</ele></trkpt>
    <trkpt lat="47.65509" lon="14.07984"><ele>1475</ele></trkpt>
    <trkpt lat="47.65520" lon="14.07978"><ele>1471</ele></trkpt>
    <trkpt lat="47.65529" lon="14.07979"><ele>1477</ele></trkpt>
    <trkpt lat="47.65550" lon="14.07982"><ele>1484</ele></trkpt>
    <trkpt lat="47.65559" lon="14.07986"><ele>1483</ele></trkpt>
    <trkpt lat="47.65573" lon="14.08002"><ele>1499</ele></trkpt>
    <trkpt lat="47.65562" lon="14.07981"><ele>1518</ele></trkpt>
    <trkpt lat="47.65557" lon="14.07968"><ele>1521</ele></trkpt>
    <trkpt lat="47.65553" lon="14.07956"><ele>1522</ele></trkpt>
    <trkpt lat="47.65540" lon="14.07935"><ele>1540</ele></trkpt>
    <trkpt lat="47.65538" lon="14.07910"><ele>1543</ele></trkpt>
    <trkpt lat="47.65534" lon="14.07897"><ele>1545</ele></trkpt>
    <trkpt lat="47.65544" lon="14.07897"><ele>1540</ele></trkpt>
    <trkpt lat="47.65549" lon="14.07881"><ele>1542</ele></trkpt>
    <trkpt lat="47.65536" lon="14.07859"><ele>1556</ele></trkpt>
    <trkpt lat="47.65544" lon="14.07843"><ele>1553</ele></trkpt>
    <trkpt lat="47.65527" lon="14.07830"><ele>1556</ele></trkpt>
    <trkpt lat="47.65517" lon="14.07832"><ele>1557</ele></trkpt>
    <trkpt lat="47.65502" lon="14.07824"><ele>1571</ele></trkpt>
    <trkpt lat="47.65493" lon="14.07804"><ele>1587</ele></trkpt>
    <trkpt lat="47.65502" lon="14.07798"><ele>1580</ele></trkpt>
    <trkpt lat="47.65512" lon="14.07794"><ele>1576</ele></trkpt>
    <trkpt lat="47.65521" lon="14.07787"><ele>1576</ele></trkpt>
    <trkpt lat="47.65512" lon="14.07767"><ele>1610</ele></trkpt>
    <trkpt lat="47.65501" lon="14.07748"><ele>1619</ele></trkpt>
    <trkpt lat="47.65491" lon="14.07744"><ele>1627</ele></trkpt>
    <trkpt lat="47.65492" lon="14.07729"><ele>1628</ele></trkpt>
    <trkpt lat="47.65509" lon="14.07710"><ele>1625</ele></trkpt>
    <trkpt lat="47.65521" lon="14.07703"><ele>1618</ele></trkpt>
    <trkpt lat="47.65531" lon="14.07684"><ele>1635</ele></trkpt>
    <trkpt lat="47.65537" lon="14.07670"><ele>1640</ele></trkpt>
    <trkpt lat="47.65542" lon="14.07659"><ele>1644</ele></trkpt>
    <trkpt lat="47.65544" lon="14.07639"><ele>1664</ele></trkpt>
    <trkpt lat="47.65534" lon="14.07617"><ele>1673</ele></trkpt>
    <trkpt lat="47.65525" lon="14.07597"><ele>1677</ele></trkpt>
    <trkpt lat="47.65533" lon="14.07588"><ele>1672</ele></trkpt>
    <trkpt lat="47.65543" lon="14.07580"><ele>1673</ele></trkpt>
    <trkpt lat="47.65545" lon="14.07564"><ele>1680</ele></trkpt>
    <trkpt lat="47.65538" lon="14.07551"><ele>1684</ele></trkpt>
    <trkpt lat="47.65548" lon="14.07531"><ele>1693</ele></trkpt>
    <trkpt lat="47.65555" lon="14.07512"><ele>1704</ele></trkpt>
    <trkpt lat="47.65570" lon="14.07498"><ele>1706</ele></trkpt>
    <trkpt lat="47.65578" lon="14.07485"><ele>1709</ele></trkpt>
    <trkpt lat="47.65583" lon="14.07474"><ele>1710</ele></trkpt>
    <trkpt lat="47.65583" lon="14.07451"><ele>1728</ele></trkpt>
    <trkpt lat="47.65578" lon="14.07427"><ele>1743</ele></trkpt>
    <trkpt lat="47.65576" lon="14.07410"><ele>1745</ele></trkpt>
    <trkpt lat="47.65587" lon="14.07391"><ele>1761</ele></trkpt>
    <trkpt lat="47.65584" lon="14.07367"><ele>1756</ele></trkpt>
    <trkpt lat="47.65577" lon="14.07353"><ele>1746</ele></trkpt>
    <trkpt lat="47.65562" lon="14.07345"><ele>1742</ele></trkpt>
    <trkpt lat="47.65548" lon="14.07332"><ele>1754</ele></trkpt>
    <trkpt lat="47.65541" lon="14.07311"><ele>1766</ele></trkpt>
    <trkpt lat="47.65546" lon="14.07295"><ele>1769</ele></trkpt>
    <trkpt lat="47.65559" lon="14.07301"><ele>1759</ele></trkpt>
    <trkpt lat="47.65550" lon="14.07277"><ele>1765</ele></trkpt>
    <trkpt lat="47.65547" lon="14.07263"><ele>1764</ele></trkpt>
    <trkpt lat="47.65544" lon="14.07250"><ele>1769</ele></trkpt>
    <trkpt lat="47.65536" lon="14.07242"><ele>1776</ele></trkpt>
    <trkpt lat="47.65539" lon="14.07222"><ele>1784</ele></trkpt>
    <trkpt lat="47.65593" lon="14.07208"><ele>1739</ele></trkpt>
    <trkpt lat="47.65608" lon="14.07212"><ele>1757</ele></trkpt>
    <trkpt lat="47.65608" lon="14.07196"><ele>1768</ele></trkpt>
    <trkpt lat="47.65619" lon="14.07178"><ele>1782</ele></trkpt>
    <trkpt lat="47.65635" lon="14.07159"><ele>1790</ele></trkpt>
    <trkpt lat="47.65655" lon="14.07132"><ele>1748</ele></trkpt>
    <trkpt lat="47.65664" lon="14.07131"><ele>1785</ele></trkpt>
    <trkpt lat="47.65650" lon="14.07118"><ele>1810</ele></trkpt>
    <trkpt lat="47.65639" lon="14.07108"><ele>1825</ele></trkpt>
    <trkpt lat="47.65636" lon="14.07085"><ele>1838</ele></trkpt>
    <trkpt lat="47.65650" lon="14.07072"><ele>1830</ele></trkpt>
    <trkpt lat="47.65647" lon="14.07047"><ele>1847</ele></trkpt>
    <trkpt lat="47.65651" lon="14.07033"><ele>1847</ele></trkpt>
    <trkpt lat="47.65644" lon="14.07025"><ele>1856</ele></trkpt>
    <trkpt lat="47.65651" lon="14.07007"><ele>1861</ele></trkpt>
    <trkpt lat="47.65656" lon="14.06994"><ele>1861</ele></trkpt>
    <trkpt lat="47.65664" lon="14.06972"><ele>1858</ele></trkpt>
    <trkpt lat="47.65669" lon="14.06961"><ele>1854</ele></trkpt>
    <trkpt lat="47.65683" lon="14.06946"><ele>1850</ele></trkpt>
    <trkpt lat="47.65715" lon="14.06851"><ele>1811</ele></trkpt>
    <trkpt lat="47.65734" lon="14.06827"><ele>1869</ele></trkpt>
    <trkpt lat="47.65745" lon="14.06816"><ele>1871</ele></trkpt>
    <trkpt lat="47.65757" lon="14.06796"><ele>1877</ele></trkpt>
    <trkpt lat="47.65776" lon="14.06790"><ele>1828</ele></trkpt>
    <trkpt lat="47.65789" lon="14.06786"><ele>1820</ele></trkpt>
    <trkpt lat="47.65794" lon="14.06755"><ele>1900</ele></trkpt>
    <trkpt lat="47.65816" lon="14.06702"><ele>1842</ele></trkpt>
    <trkpt lat="47.65826" lon="14.06704"><ele>1903</ele></trkpt>
    <trkpt lat="47.65834" lon="14.06709"><ele>1925</ele></trkpt>
    <trkpt lat="47.65849" lon="14.06720"><ele>1916</ele></trkpt>
    <trkpt lat="47.65858" lon="14.06725"><ele>1914</ele></trkpt>
    <trkpt lat="47.65874" lon="14.06739"><ele>1916</ele></trkpt>
    <trkpt lat="47.65889" lon="14.06756"><ele>1926</ele></trkpt>
    <trkpt lat="47.65904" lon="14.06774"><ele>1903</ele></trkpt>
    <trkpt lat="47.65908" lon="14.06799"><ele>1935</ele></trkpt>
    <trkpt lat="47.65901" lon="14.06789"><ele>1952</ele></trkpt>
    <trkpt lat="47.65914" lon="14.06806"><ele>1948</ele></trkpt>
    <trkpt lat="47.65916" lon="14.06823"><ele>1947</ele></trkpt>
    <trkpt lat="47.65928" lon="14.06839"><ele>1990</ele></trkpt>
    <trkpt lat="47.65933" lon="14.06851"><ele>1995</ele></trkpt>
    <trkpt lat="47.65929" lon="14.06834"><ele>2034</ele></trkpt>
    <trkpt lat="47.65931" lon="14.06810"><ele>2039</ele></trkpt>
    <trkpt lat="47.65928" lon="14.06787"><ele>2052</ele></trkpt>
    <trkpt lat="47.65938" lon="14.06768"><ele>2041</ele></trkpt>
    <trkpt lat="47.65941" lon="14.06744"><ele>2065</ele></trkpt>
    <trkpt lat="47.65955" lon="14.06731"><ele>2065</ele></trkpt>
    <trkpt lat="47.65967" lon="14.06699"><ele>2085</ele></trkpt>
    <trkpt lat="47.65984" lon="14.06673"><ele>2090</ele></trkpt>
    <trkpt lat="47.65987" lon="14.06651"><ele>2110</ele></trkpt>
    <trkpt lat="47.65992" lon="14.06630"><ele>2065</ele></trkpt>
    <trkpt lat="47.66001" lon="14.06608"><ele>2199</ele></trkpt>
    <trkpt lat="47.66007" lon="14.06629"><ele>2202</ele></trkpt>
    <trkpt lat="47.66029" lon="14.06630"><ele>2150</ele></trkpt>
    <trkpt lat="47.66051" lon="14.06613"><ele>2191</ele></trkpt>
    <trkpt lat="47.66067" lon="14.06617"><ele>2190</ele></trkpt>
    <trkpt lat="47.66072" lon="14.06568"><ele>2209</ele></trkpt>
    <trkpt lat="47.66070" lon="14.06546"><ele>2216</ele></trkpt>
    <trkpt lat="47.66066" lon="14.06527"><ele>2225</ele></trkpt>
    <trkpt lat="47.66058" lon="14.06505"><ele>2230</ele></trkpt>
    <trkpt lat="47.66056" lon="14.06481"><ele>2239</ele></trkpt>
    <trkpt lat="47.66040" lon="14.06473"><ele>2240</ele></trkpt>
    <trkpt lat="47.66043" lon="14.06449"><ele>2240</ele></trkpt>
    <trkpt lat="47.66038" lon="14.06425"><ele>2250</ele></trkpt>
    <trkpt lat="47.66032" lon="14.06413"><ele>2247</ele></trkpt>
    <trkpt lat="47.66018" lon="14.06400"><ele>2253</ele></trkpt>
    <trkpt lat="47.66028" lon="14.06412"><ele>2245</ele></trkpt>
    <trkpt lat="47.66023" lon="14.06464"><ele>2224</ele></trkpt>
    <trkpt lat="47.66036" lon="14.06481"><ele>2224</ele></trkpt>
    <trkpt lat="47.66029" lon="14.06535"><ele>2205</ele></trkpt>
    <trkpt lat="47.66032" lon="14.06549"><ele>2195</ele></trkpt>
    <trkpt lat="47.66038" lon="14.06572"><ele>2189</ele></trkpt>
    <trkpt lat="47.66052" lon="14.06610"><ele>2119</ele></trkpt>
    <trkpt lat="47.66038" lon="14.06610"><ele>2164</ele></trkpt>
    <trkpt lat="47.66015" lon="14.06630"><ele>2153</ele></trkpt>
    <trkpt lat="47.66013" lon="14.06673"><ele>2187</ele></trkpt>
    <trkpt lat="47.65985" lon="14.06681"><ele>2130</ele></trkpt>
    <trkpt lat="47.65982" lon="14.06695"><ele>2120</ele></trkpt>
    <trkpt lat="47.65968" lon="14.06724"><ele>2096</ele></trkpt>
    <trkpt lat="47.65967" lon="14.06751"><ele>2084</ele></trkpt>
    <trkpt lat="47.65957" lon="14.06746"><ele>2083</ele></trkpt>
    <trkpt lat="47.65946" lon="14.06789"><ele>2060</ele></trkpt>
    <trkpt lat="47.65943" lon="14.06803"><ele>2054</ele></trkpt>
    <trkpt lat="47.65928" lon="14.06836"><ele>2045</ele></trkpt>
    <trkpt lat="47.65908" lon="14.06867"><ele>2040</ele></trkpt>
    <trkpt lat="47.65914" lon="14.06857"><ele>2031</ele></trkpt>
    <trkpt lat="47.65912" lon="14.06831"><ele>2033</ele></trkpt>
    <trkpt lat="47.65908" lon="14.06843"><ele>2025</ele></trkpt>
    <trkpt lat="47.65899" lon="14.06808"><ele>1990</ele></trkpt>
    <trkpt lat="47.65824" lon="14.06780"><ele>1944</ele></trkpt>
    <trkpt lat="47.65819" lon="14.06797"><ele>1938</ele></trkpt>
    <trkpt lat="47.65722" lon="14.06954"><ele>1942</ele></trkpt>
    <trkpt lat="47.65718" lon="14.06995"><ele>1902</ele></trkpt>
    <trkpt lat="47.65704" lon="14.07003"><ele>1891</ele></trkpt>
    <trkpt lat="47.65719" lon="14.07028"><ele>1890</ele></trkpt>
    <trkpt lat="47.65728" lon="14.07028"><ele>1890</ele></trkpt>
    <trkpt lat="47.65737" lon="14.07033"><ele>1887</ele></trkpt>
    <trkpt lat="47.65738" lon="14.07087"><ele>1866</ele></trkpt>
    <trkpt lat="47.65694" lon="14.07169"><ele>1835</ele></trkpt>
    <trkpt lat="47.65686" lon="14.07181"><ele>1798</ele></trkpt>
    <trkpt lat="47.65612" lon="14.07285"><ele>1725</ele></trkpt>
    <trkpt lat="47.65594" lon="14.07345"><ele>1742</ele></trkpt>
    <trkpt lat="47.65586" lon="14.07467"><ele>1700</ele></trkpt>
    <trkpt lat="47.65532" lon="14.07536"><ele>1667</ele></trkpt>
    <trkpt lat="47.65539" lon="14.07629"><ele>1631</ele></trkpt>
    <trkpt lat="47.65529" lon="14.07630"><ele>1629</ele></trkpt>
    <trkpt lat="47.65491" lon="14.07652"><ele>1613</ele></trkpt>
    <trkpt lat="47.65484" lon="14.07664"><ele>1616</ele></trkpt>
    <trkpt lat="47.65461" lon="14.07715"><ele>1599</ele></trkpt>
    <trkpt lat="47.65469" lon="14.07725"><ele>1586</ele></trkpt>
    <trkpt lat="47.65428" lon="14.07734"><ele>1581</ele></trkpt>
    <trkpt lat="47.65422" lon="14.07827"><ele>1554</ele></trkpt>
    <trkpt lat="47.65418" lon="14.07864"><ele>1531</ele></trkpt>
    <trkpt lat="47.65418" lon="14.07879"><ele>1529</ele></trkpt>
    <trkpt lat="47.65396" lon="14.07962"><ele>1496</ele></trkpt>
    <trkpt lat="47.65390" lon="14.07975"><ele>1491</ele></trkpt>
    <trkpt lat="47.65381" lon="14.08032"><ele>1463</ele></trkpt>
    <trkpt lat="47.65361" lon="14.08064"><ele>1442</ele></trkpt>
    <trkpt lat="47.65357" lon="14.08099"><ele>1426</ele></trkpt>
    <trkpt lat="47.65372" lon="14.08179"><ele>1387</ele></trkpt>
    <trkpt lat="47.65375" lon="14.08193"><ele>1373</ele></trkpt>
    <trkpt lat="47.65405" lon="14.08270"><ele>1340</ele></trkpt>
    <trkpt lat="47.65422" lon="14.08277"><ele>1333</ele></trkpt>
    <trkpt lat="47.65444" lon="14.08389"><ele>1290</ele></trkpt>
    <trkpt lat="47.65469" lon="14.08405"><ele>1286</ele></trkpt>
    <trkpt lat="47.65492" lon="14.08435"><ele>1280</ele></trkpt>
    <trkpt lat="47.65505" lon="14.08460"><ele>1270</ele></trkpt>
    <trkpt lat="47.65492" lon="14.08475"><ele>1251</ele></trkpt>
    <trkpt lat="47.65482" lon="14.08482"><ele>1242</ele></trkpt>
    <trkpt lat="47.65499" lon="14.08499"><ele>1229</ele></trkpt>
    <trkpt lat="47.65501" lon="14.08516"><ele>1220</ele></trkpt>
    <trkpt lat="47.65499" lon="14.08542"><ele>1207</ele></trkpt>
    <trkpt lat="47.65487" lon="14.08561"><ele>1195</ele></trkpt>
    <trkpt lat="47.65483" lon="14.08574"><ele>1192</ele></trkpt>
    <trkpt lat="47.65486" lon="14.08628"><ele>1172</ele></trkpt>
    <trkpt lat="47.65477" lon="14.08659"><ele>1121</ele></trkpt>
    <trkpt lat="47.65482" lon="14.08671"><ele>1147</ele></trkpt>
    <trkpt lat="47.65476" lon="14.08687"><ele>1136</ele></trkpt>
    <trkpt lat="47.65469" lon="14.08710"><ele>1136</ele></trkpt>
    <trkpt lat="47.65453" lon="14.08728"><ele>1127</ele></trkpt>
    <trkpt lat="47.65445" lon="14.08720"><ele>1133</ele></trkpt>
    <trkpt lat="47.65436" lon="14.08722"><ele>1132</ele></trkpt>
    <trkpt lat="47.65412" lon="14.08699"><ele>1127</ele></trkpt>
    <trkpt lat="47.65381" lon="14.08711"><ele>1120</ele></trkpt>
    <trkpt lat="47.65356" lon="14.08757"><ele>1108</ele></trkpt>
    <trkpt lat="47.65336" lon="14.08749"><ele>1103</ele></trkpt>
    <trkpt lat="47.65327" lon="14.08771"><ele>1020</ele></trkpt>
    <trkpt lat="47.65319" lon="14.08779"><ele>1035</ele></trkpt>
    <trkpt lat="47.65314" lon="14.08791"><ele>1019</ele></trkpt>
    <trkpt lat="47.65297" lon="14.08803"><ele>1016</ele></trkpt>
    <trkpt lat="47.65267" lon="14.08827"><ele>1001</ele></trkpt>
    <trkpt lat="47.65243" lon="14.08843"><ele>997</ele></trkpt>
    <trkpt lat="47.65226" lon="14.08858"><ele>981</ele></trkpt>
    <trkpt lat="47.65203" lon="14.08882"><ele>967</ele></trkpt>
    <trkpt lat="47.65205" lon="14.08898"><ele>963</ele></trkpt>
    <trkpt lat="47.65201" lon="14.08919"><ele>954</ele></trkpt>
    <trkpt lat="47.65165" lon="14.08961"><ele>941</ele></trkpt>
    <trkpt lat="47.65174" lon="14.08955"><ele>936</ele></trkpt>
    <trkpt lat="47.65167" lon="14.08947"><ele>929</ele></trkpt>
    <trkpt lat="47.65126" lon="14.08907"><ele>908</ele></trkpt>
    <trkpt lat="47.65108" lon="14.08927"><ele>924</ele></trkpt>
    <trkpt lat="47.65128" lon="14.09000"><ele>925</ele></trkpt>
    <trkpt lat="47.65121" lon="14.09061"><ele>922</ele></trkpt>
    <trkpt lat="47.65103" lon="14.09114"><ele>906</ele></trkpt>
    <trkpt lat="47.65095" lon="14.09122"><ele>902</ele></trkpt>
    <trkpt lat="47.65082" lon="14.09116"><ele>898</ele></trkpt>
    <trkpt lat="47.65086" lon="14.09084"><ele>894</ele></trkpt>
    <trkpt lat="47.65090" lon="14.09061"><ele>895</ele></trkpt>
    <trkpt lat="47.65084" lon="14.09038"><ele>897</ele></trkpt>
    <trkpt lat="47.65073" lon="14.09041"><ele>894</ele></trkpt>
    <trkpt lat="47.65053" lon="14.09046"><ele>893</ele></trkpt>
    <trkpt lat="47.65042" lon="14.09023"><ele>887</ele></trkpt>
    <trkpt lat="47.65037" lon="14.08999"><ele>887</ele></trkpt>
    <trkpt lat="47.65032" lon="14.08971"><ele>885</ele></trkpt>
    <trkpt lat="47.65023" lon="14.08951"><ele>891</ele></trkpt>
    <trkpt lat="47.65010" lon="14.08926"><ele>892</ele></trkpt>
    <trkpt lat="47.65001" lon="14.08910"><ele>890</ele></trkpt>
    <trkpt lat="47.64989" lon="14.08892"><ele>900</ele></trkpt>
    <trkpt lat="47.64981" lon="14.08870"><ele>889</ele></trkpt>
    <trkpt lat="47.64969" lon="14.08849"><ele>891</ele></trkpt>
    <trkpt lat="47.64960" lon="14.08832"><ele>882</ele></trkpt>
    <trkpt lat="47.64942" lon="14.08821"><ele>878</ele></trkpt>
    <trkpt lat="47.64924" lon="14.08813"><ele>875</ele></trkpt>
    <trkpt lat="47.64905" lon="14.08810"><ele>870</ele></trkpt>
    <trkpt lat="47.64890" lon="14.08799"><ele>863</ele></trkpt>
    <trkpt lat="47.64871" lon="14.08797"><ele>861</ele></trkpt>
    <trkpt lat="47.64850" lon="14.08787"><ele>857</ele></trkpt>
    <trkpt lat="47.64830" lon="14.08779"><ele>854</ele></trkpt>
    <trkpt lat="47.64821" lon="14.08747"><ele>849</ele></trkpt>
    <trkpt lat="47.64809" lon="14.08727"><ele>846</ele></trkpt>
    <trkpt lat="47.64799" lon="14.08747"><ele>839</ele></trkpt>
    <trkpt lat="47.64803" lon="14.08776"><ele>844</ele></trkpt>
    <trkpt lat="47.64802" lon="14.08797"><ele>835</ele></trkpt>
    <trkpt lat="47.64780" lon="14.08787"><ele>831</ele></trkpt>
    <trkpt lat="47.64769" lon="14.08788"><ele>832</ele></trkpt>
    <trkpt lat="47.64771" lon="14.08807"><ele>831</ele></trkpt>
    <trkpt lat="47.64751" lon="14.08810"><ele>824</ele></trkpt>
    <trkpt lat="47.64733" lon="14.08809"><ele>819</ele></trkpt>
    <trkpt lat="47.64720" lon="14.08793"><ele>814</ele></trkpt>
    <trkpt lat="47.64706" lon="14.08800"><ele>810</ele></trkpt>
    <trkpt lat="47.64690" lon="14.08801"><ele>803</ele></trkpt>
    <trkpt lat="47.64674" lon="14.08811"><ele>790</ele></trkpt>
    <trkpt lat="47.64665" lon="14.08825"><ele>784</ele></trkpt>
    <trkpt lat="47.64655" lon="14.08845"><ele>780</ele></trkpt>
    <trkpt lat="47.64639" lon="14.08838"><ele>778</ele></trkpt>
    <trkpt lat="47.64625" lon="14.08842"><ele>775</ele></trkpt>
    <trkpt lat="47.64611" lon="14.08849"><ele>770</ele></trkpt>
    <trkpt lat="47.64601" lon="14.08852"><ele>764</ele></trkpt>
    <trkpt lat="47.64581" lon="14.08860"><ele>756</ele></trkpt>
    <trkpt lat="47.64566" lon="14.08877"><ele>754</ele></trkpt>
    <trkpt lat="47.64549" lon="14.08872"><ele>750</ele></trkpt>
    <trkpt lat="47.64535" lon="14.08849"><ele>745</ele></trkpt>
    <trkpt lat="47.64515" lon="14.08843"><ele>747</ele></trkpt>
    <trkpt lat="47.64497" lon="14.08834"><ele>742</ele></trkpt>
    <trkpt lat="47.64495" lon="14.08857"><ele>742</ele></trkpt>
    <trkpt lat="47.64496" lon="14.08883"><ele>740</ele></trkpt>
    <trkpt lat="47.64502" lon="14.08907"><ele>736</ele></trkpt>
    <trkpt lat="47.64506" lon="14.08936"><ele>735</ele></trkpt>
    <trkpt lat="47.64516" lon="14.08960"><ele>734</ele></trkpt>
    <trkpt lat="47.64531" lon="14.08980"><ele>730</ele></trkpt>
    <trkpt lat="47.64550" lon="14.09002"><ele>730</ele></trkpt>
    <trkpt lat="47.64558" lon="14.09024"><ele>725</ele></trkpt>
    <trkpt lat="47.64574" lon="14.09046"><ele>722</ele></trkpt>
    <trkpt lat="47.64590" lon="14.09065"><ele>719</ele></trkpt>
    <trkpt lat="47.64598" lon="14.09093"><ele>720</ele></trkpt>
    <trkpt lat="47.64608" lon="14.09110"><ele>716</ele></trkpt>
    <trkpt lat="47.64618" lon="14.09124"><ele>719</ele></trkpt>
    <trkpt lat="47.64632" lon="14.09138"><ele>730</ele></trkpt>
    <trkpt lat="47.64629" lon="14.09160"><ele>727</ele></trkpt>
    <trkpt lat="47.64618" lon="14.09180"><ele>729</ele></trkpt>
    <trkpt lat="47.64603" lon="14.09190"><ele>728</ele></trkpt>
    <trkpt lat="47.64591" lon="14.09207"><ele>727</ele></trkpt>
    <trkpt lat="47.64580" lon="14.09228"><ele>730</ele></trkpt>
    <trkpt lat="47.64569" lon="14.09257"><ele>730</ele></trkpt>
    <trkpt lat="47.64552" lon="14.09273"><ele>727</ele></trkpt>
    <trkpt lat="47.64538" lon="14.09290"><ele>726</ele></trkpt>
    <trkpt lat="47.64526" lon="14.09323"><ele>728</ele></trkpt>
    <trkpt lat="47.64524" lon="14.09357"><ele>735</ele></trkpt>
    <trkpt lat="47.64518" lon="14.09381"><ele>732</ele></trkpt>
    <trkpt lat="47.64509" lon="14.09403"><ele>733</ele></trkpt>
    <trkpt lat="47.64505" lon="14.09428"><ele>736</ele></trkpt>
    <trkpt lat="47.64512" lon="14.09440"><ele>735</ele></trkpt>
    <trkpt lat="47.64523" lon="14.09465"><ele>730</ele></trkpt>
    <trkpt lat="47.64530" lon="14.09493"><ele>731</ele></trkpt>
    <trkpt lat="47.64538" lon="14.09522"><ele>730</ele></trkpt>
    <trkpt lat="47.64551" lon="14.09538"><ele>727</ele></trkpt>
    <trkpt lat="47.64545" lon="14.09558"><ele>729</ele></trkpt>
    <trkpt lat="47.64540" lon="14.09577"><ele>733</ele></trkpt>
    <trkpt lat="47.64522" lon="14.09583"><ele>731</ele></trkpt>
    <trkpt lat="47.64521" lon="14.09597"><ele>728</ele></trkpt>
    <trkpt lat="47.64514" lon="14.09590"><ele>728</ele></trkpt>
  </trkseg>
</trk>
</gpx>