<?xml version="1.0" encoding="UTF-8"?>
<gpx version="1.1" creator="Gpx-Optimizer" xmlns="http://www.topografix.com/GPX/1/1">
<trk>
  <name>Ski_2RamsauerGrößtenberg</name>
  <trkseg>
    <trkpt lat="47.84076" lon="14.26541"><ele>565</ele></trkpt>
    <trkpt lat="47.84065" lon="14.26560"><ele>576</ele></trkpt>
    <trkpt lat="47.84058" lon="14.26574"><ele>578</ele></trkpt>
    <trkpt lat="47.84051" lon="14.26591"><ele>583</ele></trkpt>
    <trkpt lat="47.84045" lon="14.26607"><ele>591</ele></trkpt>
    <trkpt lat="47.84040" lon="14.26623"><ele>597</ele></trkpt>
    <trkpt lat="47.84032" lon="14.26645"><ele>599</ele></trkpt>
    <trkpt lat="47.84024" lon="14.26661"><ele>602</ele></trkpt>
    <trkpt lat="47.84023" lon="14.26679"><ele>605</ele></trkpt>
    <trkpt lat="47.84020" lon="14.26693"><ele>610</ele></trkpt>
    <trkpt lat="47.84009" lon="14.26718"><ele>617</ele></trkpt>
    <trkpt lat="47.84005" lon="14.26731"><ele>621</ele></trkpt>
    <trkpt lat="47.84001" lon="14.26744"><ele>627</ele></trkpt>
    <trkpt lat="47.83993" lon="14.26766"><ele>635</ele></trkpt>
    <trkpt lat="47.83980" lon="14.26788"><ele>639</ele></trkpt>
    <trkpt lat="47.83977" lon="14.26803"><ele>642</ele></trkpt>
    <trkpt lat="47.83970" lon="14.26826"><ele>643</ele></trkpt>
    <trkpt lat="47.83962" lon="14.26853"><ele>652</ele></trkpt>
    <trkpt lat="47.83958" lon="14.26867"><ele>655</ele></trkpt>
    <trkpt lat="47.83949" lon="14.26895"><ele>660</ele></trkpt>
    <trkpt lat="47.83944" lon="14.26907"><ele>665</ele></trkpt>
    <trkpt lat="47.83941" lon="14.26923"><ele>666</ele></trkpt>
    <trkpt lat="47.83935" lon="14.26937"><ele>668</ele></trkpt>
    <trkpt lat="47.83928" lon="14.26954"><ele>670</ele></trkpt>
    <trkpt lat="47.83927" lon="14.26969"><ele>676</ele></trkpt>
    <trkpt lat="47.83928" lon="14.26987"><ele>678</ele></trkpt>
    <trkpt lat="47.83928" lon="14.27002"><ele>680</ele></trkpt>
    <trkpt lat="47.83911" lon="14.27017"><ele>685</ele></trkpt>
    <trkpt lat="47.83913" lon="14.27042"><ele>646</ele></trkpt>
    <trkpt lat="47.83909" lon="14.27057"><ele>691</ele></trkpt>
    <trkpt lat="47.83906" lon="14.27084"><ele>701</ele></trkpt>
    <trkpt lat="47.83903" lon="14.27101"><ele>688</ele></trkpt>
    <trkpt lat="47.83896" lon="14.27117"><ele>698</ele></trkpt>
    <trkpt lat="47.83892" lon="14.27140"><ele>717</ele></trkpt>
    <trkpt lat="47.83888" lon="14.27153"><ele>719</ele></trkpt>
    <trkpt lat="47.83871" lon="14.27155"><ele>720</ele></trkpt>
    <trkpt lat="47.83853" lon="14.27133"><ele>732</ele></trkpt>
    <trkpt lat="47.83848" lon="14.27114"><ele>737</ele></trkpt>
    <trkpt lat="47.83847" lon="14.27098"><ele>734</ele></trkpt>
    <trkpt lat="47.83839" lon="14.27079"><ele>735</ele></trkpt>
    <trkpt lat="47.83830" lon="14.27078"><ele>738</ele></trkpt>
    <trkpt lat="47.83828" lon="14.27097"><ele>734</ele></trkpt>
    <trkpt lat="47.83829" lon="14.27120"><ele>735</ele></trkpt>
    <trkpt lat="47.83830" lon="14.27143"><ele>739</ele></trkpt>
    <trkpt lat="47.83827" lon="14.27162"><ele>738</ele></trkpt>
    <trkpt lat="47.83827" lon="14.27181"><ele>747</ele></trkpt>
    <trkpt lat="47.83823" lon="14.27200"><ele>750</ele></trkpt>
    <trkpt lat="47.83816" lon="14.27215"><ele>756</ele></trkpt>
    <trkpt lat="47.83808" lon="14.27230"><ele>755</ele></trkpt>
    <trkpt lat="47.83799" lon="14.27248"><ele>762</ele></trkpt>
    <trkpt lat="47.83793" lon="14.27264"><ele>771</ele></trkpt>
    <trkpt lat="47.83785" lon="14.27280"><ele>773</ele></trkpt>
    <trkpt lat="47.83776" lon="14.27294"><ele>774</ele></trkpt>
    <trkpt lat="47.83765" lon="14.27309"><ele>778</ele></trkpt>
    <trkpt lat="47.83757" lon="14.27326"><ele>777</ele></trkpt>
    <trkpt lat="47.83750" lon="14.27342"><ele>778</ele></trkpt>
    <trkpt lat="47.83746" lon="14.27360"><ele>784</ele></trkpt>
    <trkpt lat="47.83763" lon="14.27371"><ele>776</ele></trkpt>
    <trkpt lat="47.83774" lon="14.27378"><ele>774</ele></trkpt>
    <trkpt lat="47.83784" lon="14.27389"><ele>769</ele></trkpt>
    <trkpt lat="47.83794" lon="14.27404"><ele>771</ele></trkpt>
    <trkpt lat="47.83802" lon="14.27423"><ele>770</ele></trkpt>
    <trkpt lat="47.83812" lon="14.27443"><ele>772</ele></trkpt>
    <trkpt lat="47.83822" lon="14.27454"><ele>782</ele></trkpt>
    <trkpt lat="47.83830" lon="14.27472"><ele>786</ele></trkpt>
    <trkpt lat="47.83835" lon="14.27495"><ele>781</ele></trkpt>
    <trkpt lat="47.83839" lon="14.27516"><ele>777</ele></trkpt>
    <trkpt lat="47.83848" lon="14.27538"><ele>783</ele></trkpt>
    <trkpt lat="47.83852" lon="14.27551"><ele>785</ele></trkpt>
    <trkpt lat="47.83852" lon="14.27567"><ele>787</ele></trkpt>
    <trkpt lat="47.83853" lon="14.27591"><ele>787</ele></trkpt>
    <trkpt lat="47.83852" lon="14.27612"><ele>786</ele></trkpt>
    <trkpt lat="47.83855" lon="14.27638"><ele>790</ele></trkpt>
    <trkpt lat="47.83863" lon="14.27654"><ele>792</ele></trkpt>
    <trkpt lat="47.83870" lon="14.27672"><ele>792</ele></trkpt>
    <trkpt lat="47.83873" lon="14.27693"><ele>794</ele></trkpt>
    <trkpt lat="47.83876" lon="14.27711"><ele>795</ele></trkpt>
    <trkpt lat="47.83879" lon="14.27733"><ele>797</ele></trkpt>
    <trkpt lat="47.83877" lon="14.27757"><ele>803</ele></trkpt>
    <trkpt lat="47.83872" lon="14.27778"><ele>797</ele></trkpt>
    <trkpt lat="47.83863" lon="14.27794"><ele>792</ele></trkpt>
    <trkpt lat="47.83860" lon="14.27813"><ele>806</ele></trkpt>
    <trkpt lat="47.83850" lon="14.27831"><ele>802</ele></trkpt>
    <trkpt lat="47.83837" lon="14.27846"><ele>804</ele></trkpt>
    <trkpt lat="47.83823" lon="14.27861"><ele>798</ele></trkpt>
    <trkpt lat="47.83815" lon="14.27879"><ele>803</ele></trkpt>
    <trkpt lat="47.83804" lon="14.27895"><ele>804</ele></trkpt>
    <trkpt lat="47.83797" lon="14.27917"><ele>809</ele></trkpt>
    <trkpt lat="47.83785" lon="14.27932"><ele>810</ele></trkpt>
    <trkpt lat="47.83777" lon="14.27945"><ele>816</ele></trkpt>
    <trkpt lat="47.83770" lon="14.27959"><ele>817</ele></trkpt>
    <trkpt lat="47.83765" lon="14.27976"><ele>822</ele></trkpt>
    <trkpt lat="47.83763" lon="14.27990"><ele>823</ele></trkpt>
    <trkpt lat="47.83746" lon="14.27997"><ele>782</ele></trkpt>
    <trkpt lat="47.83754" lon="14.28010"><ele>824</ele></trkpt>
    <trkpt lat="47.83732" lon="14.28014"><ele>839</ele></trkpt>
    <trkpt lat="47.83719" lon="14.28014"><ele>832</ele></trkpt>
    <trkpt lat="47.83708" lon="14.28031"><ele>827</ele></trkpt>
    <trkpt lat="47.83701" lon="14.28043"><ele>835</ele></trkpt>
    <trkpt lat="47.83693" lon="14.28065"><ele>845</ele></trkpt>
    <trkpt lat="47.83683" lon="14.28075"><ele>842</ele></trkpt>
    <trkpt lat="47.83677" lon="14.28091"><ele>856</ele></trkpt>
    <trkpt lat="47.83671" lon="14.28102"><ele>857</ele></trkpt>
    <trkpt lat="47.83655" lon="14.28113"><ele>848</ele></trkpt>
    <trkpt lat="47.83640" lon="14.28120"><ele>824</ele></trkpt>
    <trkpt lat="47.83630" lon="14.28139"><ele>873</ele></trkpt>
    <trkpt lat="47.83620" lon="14.28156"><ele>874</ele></trkpt>
    <trkpt lat="47.83634" lon="14.28166"><ele>890</ele></trkpt>
    <trkpt lat="47.83648" lon="14.28179"><ele>885</ele></trkpt>
    <trkpt lat="47.83640" lon="14.28200"><ele>850</ele></trkpt>
    <trkpt lat="47.83624" lon="14.28207"><ele>855</ele></trkpt>
    <trkpt lat="47.83606" lon="14.28212"><ele>911</ele></trkpt>
    <trkpt lat="47.83584" lon="14.28221"><ele>924</ele></trkpt>
    <trkpt lat="47.83571" lon="14.28218"><ele>918</ele></trkpt>
    <trkpt lat="47.83552" lon="14.28213"><ele>915</ele></trkpt>
    <trkpt lat="47.83542" lon="14.28207"><ele>927</ele></trkpt>
    <trkpt lat="47.83527" lon="14.28219"><ele>919</ele></trkpt>
    <trkpt lat="47.83505" lon="14.28221"><ele>934</ele></trkpt>
    <trkpt lat="47.83491" lon="14.28235"><ele>946</ele></trkpt>
    <trkpt lat="47.83476" lon="14.28232"><ele>942</ele></trkpt>
    <trkpt lat="47.83460" lon="14.28235"><ele>978</ele></trkpt>
    <trkpt lat="47.83446" lon="14.28247"><ele>991</ele></trkpt>
    <trkpt lat="47.83437" lon="14.28241"><ele>997</ele></trkpt>
    <trkpt lat="47.83425" lon="14.28247"><ele>1010</ele></trkpt>
    <trkpt lat="47.83412" lon="14.28249"><ele>1018</ele></trkpt>
    <trkpt lat="47.83406" lon="14.28261"><ele>1020</ele></trkpt>
    <trkpt lat="47.83392" lon="14.28258"><ele>1031</ele></trkpt>
    <trkpt lat="47.83378" lon="14.28270"><ele>1054</ele></trkpt>
    <trkpt lat="47.83367" lon="14.28288"><ele>1059</ele></trkpt>
    <trkpt lat="47.83351" lon="14.28278"><ele>1067</ele></trkpt>
    <trkpt lat="47.83344" lon="14.28300"><ele>1080</ele></trkpt>
    <trkpt lat="47.83337" lon="14.28290"><ele>1085</ele></trkpt>
    <trkpt lat="47.83322" lon="14.28287"><ele>1091</ele></trkpt>
    <trkpt lat="47.83318" lon="14.28264"><ele>1090</ele></trkpt>
    <trkpt lat="47.83304" lon="14.28256"><ele>1111</ele></trkpt>
    <trkpt lat="47.83292" lon="14.28251"><ele>1113</ele></trkpt>
    <trkpt lat="47.83279" lon="14.28261"><ele>1131</ele></trkpt>
    <trkpt lat="47.83267" lon="14.28237"><ele>1130</ele></trkpt>
    <trkpt lat="47.83269" lon="14.28223"><ele>1136</ele></trkpt>
    <trkpt lat="47.83265" lon="14.28197"><ele>1139</ele></trkpt>
    <trkpt lat="47.83272" lon="14.28175"><ele>1144</ele></trkpt>
    <trkpt lat="47.83258" lon="14.28191"><ele>1144</ele></trkpt>
    <trkpt lat="47.83249" lon="14.28211"><ele>1146</ele></trkpt>
    <trkpt lat="47.83237" lon="14.28225"><ele>1161</ele></trkpt>
    <trkpt lat="47.83229" lon="14.28239"><ele>1160</ele></trkpt>
    <trkpt lat="47.83214" lon="14.28248"><ele>1162</ele></trkpt>
    <trkpt lat="47.83201" lon="14.28247"><ele>1182</ele></trkpt>
    <trkpt lat="47.83187" lon="14.28234"><ele>1192</ele></trkpt>
    <trkpt lat="47.83176" lon="14.28231"><ele>1201</ele></trkpt>
    <trkpt lat="47.83165" lon="14.28250"><ele>1205</ele></trkpt>
    <trkpt lat="47.83163" lon="14.28225"><ele>1217</ele></trkpt>
    <trkpt lat="47.83159" lon="14.28209"><ele>1218</ele></trkpt>
    <trkpt lat="47.83154" lon="14.28181"><ele>1221</ele></trkpt>
    <trkpt lat="47.83146" lon="14.28161"><ele>1241</ele></trkpt>
    <trkpt lat="47.83132" lon="14.28166"><ele>1260</ele></trkpt>
    <trkpt lat="47.83121" lon="14.28182"><ele>1269</ele></trkpt>
    <trkpt lat="47.83112" lon="14.28181"><ele>1267</ele></trkpt>
    <trkpt lat="47.83100" lon="14.28199"><ele>1273</ele></trkpt>
    <trkpt lat="47.83086" lon="14.28222"><ele>1275</ele></trkpt>
    <trkpt lat="47.83071" lon="14.28221"><ele>1294</ele></trkpt>
    <trkpt lat="47.83062" lon="14.28203"><ele>1298</ele></trkpt>
    <trkpt lat="47.83050" lon="14.28200"><ele>1309</ele></trkpt>
    <trkpt lat="47.83042" lon="14.28219"><ele>1312</ele></trkpt>
    <trkpt lat="47.83033" lon="14.28218"><ele>1315</ele></trkpt>
    <trkpt lat="47.83021" lon="14.28233"><ele>1322</ele></trkpt>
    <trkpt lat="47.83009" lon="14.28236"><ele>1330</ele></trkpt>
    <trkpt lat="47.82993" lon="14.28239"><ele>1336</ele></trkpt>
    <trkpt lat="47.82981" lon="14.28250"><ele>1347</ele></trkpt>
    <trkpt lat="47.82972" lon="14.28270"><ele>1352</ele></trkpt>
    <trkpt lat="47.82966" lon="14.28294"><ele>1359</ele></trkpt>
    <trkpt lat="47.82957" lon="14.28314"><ele>1368</ele></trkpt>
    <trkpt lat="47.82947" lon="14.28335"><ele>1373</ele></trkpt>
    <trkpt lat="47.82943" lon="14.28359"><ele>1378</ele></trkpt>
    <trkpt lat="47.82941" lon="14.28383"><ele>1388</ele></trkpt>
    <trkpt lat="47.82936" lon="14.28402"><ele>1390</ele></trkpt>
    <trkpt lat="47.82922" lon="14.28416"><ele>1396</ele></trkpt>
    <trkpt lat="47.82907" lon="14.28427"><ele>1407</ele></trkpt>
    <trkpt lat="47.82893" lon="14.28428"><ele>1414</ele></trkpt>
    <trkpt lat="47.82890" lon="14.28452"><ele>1405</ele></trkpt>
    <trkpt lat="47.82878" lon="14.28459"><ele>1432</ele></trkpt>
    <trkpt lat="47.82865" lon="14.28445"><ele>1440</ele></trkpt>
    <trkpt lat="47.82849" lon="14.28454"><ele>1449</ele></trkpt>
    <trkpt lat="47.82851" lon="14.28430"><ele>1452</ele></trkpt>
    <trkpt lat="47.82864" lon="14.28444"><ele>1451</ele></trkpt>
    <trkpt lat="47.82894" lon="14.28429"><ele>1435</ele></trkpt>
    <trkpt lat="47.82901" lon="14.28418"><ele>1428</ele></trkpt>
    <trkpt lat="47.82926" lon="14.28404"><ele>1408</ele></trkpt>
    <trkpt lat="47.82947" lon="14.28392"><ele>1396</ele></trkpt>
    <trkpt lat="47.82950" lon="14.28347"><ele>1389</ele></trkpt>
    <trkpt lat="47.82980" lon="14.28331"><ele>1368</ele></trkpt>
    <trkpt lat="47.82992" lon="14.28312"><ele>1357</ele></trkpt>
    <trkpt lat="47.83022" lon="14.28224"><ele>1339</ele></trkpt>
    <trkpt lat="47.83045" lon="14.28212"><ele>1328</ele></trkpt>
    <trkpt lat="47.83084" lon="14.28197"><ele>1296</ele></trkpt>
    <trkpt lat="47.83099" lon="14.28202"><ele>1286</ele></trkpt>
    <trkpt lat="47.83131" lon="14.28209"><ele>1266</ele></trkpt>
    <trkpt lat="47.83162" lon="14.28231"><ele>1230</ele></trkpt>
    <trkpt lat="47.83216" lon="14.28248"><ele>1195</ele></trkpt>
    <trkpt lat="47.83252" lon="14.28251"><ele>1169</ele></trkpt>
    <trkpt lat="47.83328" lon="14.28243"><ele>1145</ele></trkpt>
    <trkpt lat="47.83342" lon="14.28245"><ele>1121</ele></trkpt>
    <trkpt lat="47.83402" lon="14.28271"><ele>1074</ele></trkpt>
    <trkpt lat="47.83423" lon="14.28255"><ele>1061</ele></trkpt>
    <trkpt lat="47.83474" lon="14.28240"><ele>1068</ele></trkpt>
    <trkpt lat="47.83551" lon="14.28215"><ele>983</ele></trkpt>
    <trkpt lat="47.83560" lon="14.28208"><ele>972</ele></trkpt>
    <trkpt lat="47.83578" lon="14.28189"><ele>958</ele></trkpt>
    <trkpt lat="47.83589" lon="14.28202"><ele>948</ele></trkpt>
    <trkpt lat="47.83604" lon="14.28205"><ele>945</ele></trkpt>
    <trkpt lat="47.83609" lon="14.28169"><ele>975</ele></trkpt>
    <trkpt lat="47.83691" lon="14.28090"><ele>881</ele></trkpt>
    <trkpt lat="47.83690" lon="14.28068"><ele>883</ele></trkpt>
    <trkpt lat="47.83713" lon="14.28033"><ele>866</ele></trkpt>
    <trkpt lat="47.83724" lon="14.28014"><ele>861</ele></trkpt>
    <trkpt lat="47.83769" lon="14.27991"><ele>845</ele></trkpt>
    <trkpt lat="47.83786" lon="14.27968"><ele>850</ele></trkpt>
    <trkpt lat="47.83800" lon="14.27948"><ele>842</ele></trkpt>
    <trkpt lat="47.83801" lon="14.27935"><ele>833</ele></trkpt>
    <trkpt lat="47.83833" lon="14.27872"><ele>826</ele></trkpt>
    <trkpt lat="47.83875" lon="14.27806"><ele>825</ele></trkpt>
    <trkpt lat="47.83878" lon="14.27710"><ele>810</ele></trkpt>
    <trkpt lat="47.83847" lon="14.27607"><ele>794</ele></trkpt>
    <trkpt lat="47.83830" lon="14.27503"><ele>783</ele></trkpt>
    <trkpt lat="47.83790" lon="14.27415"><ele>782</ele></trkpt>
    <trkpt lat="47.83746" lon="14.27371"><ele>777</ele></trkpt>
    <trkpt lat="47.83745" lon="14.27333"><ele>782</ele></trkpt>
    <trkpt lat="47.83778" lon="14.27282"><ele>779</ele></trkpt>
    <trkpt lat="47.83816" lon="14.27234"><ele>770</ele></trkpt>
    <trkpt lat="47.83843" lon="14.27157"><ele>760</ele></trkpt>
    <trkpt lat="47.83842" lon="14.27069"><ele>754</ele></trkpt>
    <trkpt lat="47.83851" lon="14.27074"><ele>740</ele></trkpt>
    <trkpt lat="47.83865" lon="14.27067"><ele>741</ele></trkpt>
    <trkpt lat="47.83881" lon="14.27042"><ele>727</ele></trkpt>
    <trkpt lat="47.83892" lon="14.27019"><ele>731</ele></trkpt>
    <trkpt lat="47.83914" lon="14.27014"><ele>722</ele></trkpt>
    <trkpt lat="47.83928" lon="14.27021"><ele>708</ele></trkpt>
    <trkpt lat="47.83935" lon="14.26901"><ele>681</ele></trkpt>
    <trkpt lat="47.83920" lon="14.26866"><ele>668</ele></trkpt>
    <trkpt lat="47.83944" lon="14.26822"><ele>654</ele></trkpt>
    <trkpt lat="47.84010" lon="14.26709"><ele>623</ele></trkpt>
    <trkpt lat="47.84062" lon="14.26548"><ele>603</ele></trkpt>
    <trkpt lat="47.84105" lon="14.26463"><ele>579</ele></trkpt>
    <trkpt lat="47.84155" lon="14.26369"><ele>562</ele></trkpt>
    <trkpt lat="47.84167" lon="14.26279"><ele>543</ele></trkpt>
    <trkpt lat="47.84184" lon="14.26223"><ele>533</ele></trkpt>
    <trkpt lat="47.84174" lon="14.26179"><ele>528</ele></trkpt>
    <trkpt lat="47.84157" lon="14.26137"><ele>518</ele></trkpt>
    <trkpt lat="47.84151" lon="14.26110"><ele>516</ele></trkpt>
    <trkpt lat="47.84137" lon="14.26097"><ele>514</ele></trkpt>
    <trkpt lat="47.84129" lon="14.26091"><ele>514</ele></trkpt>
  </trkseg>
</trk>
</gpx>