<?xml version="1.0" encoding="UTF-8"?>
<gpx version="1.1" creator="Gpx-Optimizer" xmlns="http://www.topografix.com/GPX/1/1">
<trk>
  <name>Ski_Grießenspitze</name>
  <trkseg>
    <trkpt lat="47.14550" lon="13.51878"><ele>1175</ele></trkpt>
    <trkpt lat="47.14562" lon="13.51847"><ele>1188</ele></trkpt>
    <trkpt lat="47.14569" lon="13.51822"><ele>1192</ele></trkpt>
    <trkpt lat="47.14572" lon="13.51801"><ele>1193</ele></trkpt>
    <trkpt lat="47.14590" lon="13.51787"><ele>1193</ele></trkpt>
    <trkpt lat="47.14604" lon="13.51778"><ele>1217</ele></trkpt>
    <trkpt lat="47.14614" lon="13.51771"><ele>1207</ele></trkpt>
    <trkpt lat="47.14629" lon="13.51762"><ele>1198</ele></trkpt>
    <trkpt lat="47.14639" lon="13.51757"><ele>1200</ele></trkpt>
    <trkpt lat="47.14649" lon="13.51748"><ele>1206</ele></trkpt>
    <trkpt lat="47.14631" lon="13.51740"><ele>1208</ele></trkpt>
    <trkpt lat="47.14620" lon="13.51736"><ele>1212</ele></trkpt>
    <trkpt lat="47.14599" lon="13.51727"><ele>1232</ele></trkpt>
    <trkpt lat="47.14585" lon="13.51723"><ele>1220</ele></trkpt>
    <trkpt lat="47.14575" lon="13.51710"><ele>1227</ele></trkpt>
    <trkpt lat="47.14566" lon="13.51704"><ele>1225</ele></trkpt>
    <trkpt lat="47.14554" lon="13.51700"><ele>1228</ele></trkpt>
    <trkpt lat="47.14553" lon="13.51675"><ele>1236</ele></trkpt>
    <trkpt lat="47.14564" lon="13.51652"><ele>1241</ele></trkpt>
    <trkpt lat="47.14569" lon="13.51640"><ele>1243</ele></trkpt>
    <trkpt lat="47.14562" lon="13.51627"><ele>1246</ele></trkpt>
    <trkpt lat="47.14556" lon="13.51617"><ele>1247</ele></trkpt>
    <trkpt lat="47.14540" lon="13.51601"><ele>1247</ele></trkpt>
    <trkpt lat="47.14536" lon="13.51580"><ele>1263</ele></trkpt>
    <trkpt lat="47.14540" lon="13.51556"><ele>1274</ele></trkpt>
    <trkpt lat="47.14541" lon="13.51531"><ele>1281</ele></trkpt>
    <trkpt lat="47.14523" lon="13.51521"><ele>1283</ele></trkpt>
    <trkpt lat="47.14515" lon="13.51514"><ele>1285</ele></trkpt>
    <trkpt lat="47.14508" lon="13.51501"><ele>1283</ele></trkpt>
    <trkpt lat="47.14500" lon="13.51495"><ele>1283</ele></trkpt>
    <trkpt lat="47.14505" lon="13.51471"><ele>1299</ele></trkpt>
    <trkpt lat="47.14506" lon="13.51455"><ele>1303</ele></trkpt>
    <trkpt lat="47.14508" lon="13.51443"><ele>1308</ele></trkpt>
    <trkpt lat="47.14516" lon="13.51427"><ele>1309</ele></trkpt>
    <trkpt lat="47.14502" lon="13.51429"><ele>1309</ele></trkpt>
    <trkpt lat="47.14489" lon="13.51433"><ele>1305</ele></trkpt>
    <trkpt lat="47.14476" lon="13.51439"><ele>1305</ele></trkpt>
    <trkpt lat="47.14462" lon="13.51441"><ele>1301</ele></trkpt>
    <trkpt lat="47.14448" lon="13.51447"><ele>1304</ele></trkpt>
    <trkpt lat="47.14436" lon="13.51457"><ele>1304</ele></trkpt>
    <trkpt lat="47.14424" lon="13.51474"><ele>1308</ele></trkpt>
    <trkpt lat="47.14410" lon="13.51488"><ele>1339</ele></trkpt>
    <trkpt lat="47.14394" lon="13.51483"><ele>1323</ele></trkpt>
    <trkpt lat="47.14382" lon="13.51487"><ele>1333</ele></trkpt>
    <trkpt lat="47.14371" lon="13.51483"><ele>1337</ele></trkpt>
    <trkpt lat="47.14362" lon="13.51480"><ele>1342</ele></trkpt>
    <trkpt lat="47.14347" lon="13.51468"><ele>1347</ele></trkpt>
    <trkpt lat="47.14339" lon="13.51458"><ele>1348</ele></trkpt>
    <trkpt lat="47.14328" lon="13.51438"><ele>1354</ele></trkpt>
    <trkpt lat="47.14312" lon="13.51430"><ele>1356</ele></trkpt>
    <trkpt lat="47.14310" lon="13.51416"><ele>1361</ele></trkpt>
    <trkpt lat="47.14302" lon="13.51402"><ele>1365</ele></trkpt>
    <trkpt lat="47.14293" lon="13.51394"><ele>1366</ele></trkpt>
    <trkpt lat="47.14283" lon="13.51388"><ele>1367</ele></trkpt>
    <trkpt lat="47.14268" lon="13.51391"><ele>1370</ele></trkpt>
    <trkpt lat="47.14259" lon="13.51366"><ele>1374</ele></trkpt>
    <trkpt lat="47.14254" lon="13.51355"><ele>1378</ele></trkpt>
    <trkpt lat="47.14243" lon="13.51343"><ele>1387</ele></trkpt>
    <trkpt lat="47.14235" lon="13.51331"><ele>1389</ele></trkpt>
    <trkpt lat="47.14219" lon="13.51320"><ele>1394</ele></trkpt>
    <trkpt lat="47.14211" lon="13.51313"><ele>1399</ele></trkpt>
    <trkpt lat="47.14203" lon="13.51304"><ele>1407</ele></trkpt>
    <trkpt lat="47.14197" lon="13.51294"><ele>1410</ele></trkpt>
    <trkpt lat="47.14191" lon="13.51278"><ele>1410</ele></trkpt>
    <trkpt lat="47.14185" lon="13.51261"><ele>1412</ele></trkpt>
    <trkpt lat="47.14179" lon="13.51244"><ele>1415</ele></trkpt>
    <trkpt lat="47.14174" lon="13.51231"><ele>1421</ele></trkpt>
    <trkpt lat="47.14171" lon="13.51215"><ele>1419</ele></trkpt>
    <trkpt lat="47.14170" lon="13.51198"><ele>1420</ele></trkpt>
    <trkpt lat="47.14167" lon="13.51178"><ele>1420</ele></trkpt>
    <trkpt lat="47.14166" lon="13.51163"><ele>1422</ele></trkpt>
    <trkpt lat="47.14159" lon="13.51150"><ele>1423</ele></trkpt>
    <trkpt lat="47.14152" lon="13.51141"><ele>1422</ele></trkpt>
    <trkpt lat="47.14135" lon="13.51125"><ele>1430</ele></trkpt>
    <trkpt lat="47.14127" lon="13.51110"><ele>1430</ele></trkpt>
    <trkpt lat="47.14122" lon="13.51098"><ele>1428</ele></trkpt>
    <trkpt lat="47.14115" lon="13.51089"><ele>1434</ele></trkpt>
    <trkpt lat="47.14111" lon="13.51068"><ele>1450</ele></trkpt>
    <trkpt lat="47.14095" lon="13.51055"><ele>1447</ele></trkpt>
    <trkpt lat="47.14083" lon="13.51039"><ele>1452</ele></trkpt>
    <trkpt lat="47.14075" lon="13.51018"><ele>1455</ele></trkpt>
    <trkpt lat="47.14066" lon="13.51007"><ele>1457</ele></trkpt>
    <trkpt lat="47.14054" lon="13.50989"><ele>1470</ele></trkpt>
    <trkpt lat="47.14047" lon="13.50979"><ele>1474</ele></trkpt>
    <trkpt lat="47.14033" lon="13.50966"><ele>1485</ele></trkpt>
    <trkpt lat="47.14026" lon="13.50956"><ele>1488</ele></trkpt>
    <trkpt lat="47.14017" lon="13.50938"><ele>1495</ele></trkpt>
    <trkpt lat="47.14004" lon="13.50917"><ele>1501</ele></trkpt>
    <trkpt lat="47.13992" lon="13.50895"><ele>1505</ele></trkpt>
    <trkpt lat="47.13979" lon="13.50877"><ele>1512</ele></trkpt>
    <trkpt lat="47.13973" lon="13.50866"><ele>1513</ele></trkpt>
    <trkpt lat="47.13965" lon="13.50855"><ele>1514</ele></trkpt>
    <trkpt lat="47.13958" lon="13.50843"><ele>1516</ele></trkpt>
    <trkpt lat="47.13944" lon="13.50828"><ele>1521</ele></trkpt>
    <trkpt lat="47.13938" lon="13.50815"><ele>1519</ele></trkpt>
    <trkpt lat="47.13928" lon="13.50810"><ele>1523</ele></trkpt>
    <trkpt lat="47.13916" lon="13.50793"><ele>1524</ele></trkpt>
    <trkpt lat="47.13908" lon="13.50784"><ele>1528</ele></trkpt>
    <trkpt lat="47.13900" lon="13.50772"><ele>1531</ele></trkpt>
    <trkpt lat="47.13892" lon="13.50763"><ele>1532</ele></trkpt>
    <trkpt lat="47.13883" lon="13.50757"><ele>1537</ele></trkpt>
    <trkpt lat="47.13866" lon="13.50749"><ele>1552</ele></trkpt>
    <trkpt lat="47.13856" lon="13.50746"><ele>1556</ele></trkpt>
    <trkpt lat="47.13847" lon="13.50741"><ele>1562</ele></trkpt>
    <trkpt lat="47.13820" lon="13.50741"><ele>1577</ele></trkpt>
    <trkpt lat="47.13807" lon="13.50741"><ele>1575</ele></trkpt>
    <trkpt lat="47.13787" lon="13.50731"><ele>1586</ele></trkpt>
    <trkpt lat="47.13779" lon="13.50725"><ele>1583</ele></trkpt>
    <trkpt lat="47.13770" lon="13.50716"><ele>1584</ele></trkpt>
    <trkpt lat="47.13760" lon="13.50708"><ele>1584</ele></trkpt>
    <trkpt lat="47.13739" lon="13.50691"><ele>1585</ele></trkpt>
    <trkpt lat="47.13720" lon="13.50668"><ele>1586</ele></trkpt>
    <trkpt lat="47.13712" lon="13.50658"><ele>1619</ele></trkpt>
    <trkpt lat="47.13693" lon="13.50627"><ele>1630</ele></trkpt>
    <trkpt lat="47.13681" lon="13.50616"><ele>1608</ele></trkpt>
    <trkpt lat="47.13670" lon="13.50605"><ele>1607</ele></trkpt>
    <trkpt lat="47.13661" lon="13.50593"><ele>1619</ele></trkpt>
    <trkpt lat="47.13655" lon="13.50579"><ele>1642</ele></trkpt>
    <trkpt lat="47.13646" lon="13.50554"><ele>1623</ele></trkpt>
    <trkpt lat="47.13641" lon="13.50543"><ele>1619</ele></trkpt>
    <trkpt lat="47.13634" lon="13.50526"><ele>1617</ele></trkpt>
    <trkpt lat="47.13627" lon="13.50513"><ele>1620</ele></trkpt>
    <trkpt lat="47.13623" lon="13.50500"><ele>1621</ele></trkpt>
    <trkpt lat="47.13618" lon="13.50489"><ele>1629</ele></trkpt>
    <trkpt lat="47.13611" lon="13.50474"><ele>1632</ele></trkpt>
    <trkpt lat="47.13604" lon="13.50462"><ele>1639</ele></trkpt>
    <trkpt lat="47.13600" lon="13.50448"><ele>1642</ele></trkpt>
    <trkpt lat="47.13595" lon="13.50435"><ele>1656</ele></trkpt>
    <trkpt lat="47.13587" lon="13.50421"><ele>1670</ele></trkpt>
    <trkpt lat="47.13567" lon="13.50399"><ele>1661</ele></trkpt>
    <trkpt lat="47.13557" lon="13.50391"><ele>1658</ele></trkpt>
    <trkpt lat="47.13551" lon="13.50371"><ele>1662</ele></trkpt>
    <trkpt lat="47.13548" lon="13.50356"><ele>1661</ele></trkpt>
    <trkpt lat="47.13539" lon="13.50341"><ele>1662</ele></trkpt>
    <trkpt lat="47.13533" lon="13.50321"><ele>1664</ele></trkpt>
    <trkpt lat="47.13519" lon="13.50312"><ele>1663</ele></trkpt>
    <trkpt lat="47.13515" lon="13.50298"><ele>1664</ele></trkpt>
    <trkpt lat="47.13508" lon="13.50287"><ele>1667</ele></trkpt>
    <trkpt lat="47.13502" lon="13.50275"><ele>1669</ele></trkpt>
    <trkpt lat="47.13482" lon="13.50249"><ele>1683</ele></trkpt>
    <trkpt lat="47.13479" lon="13.50236"><ele>1680</ele></trkpt>
    <trkpt lat="47.13473" lon="13.50219"><ele>1680</ele></trkpt>
    <trkpt lat="47.13468" lon="13.50204"><ele>1677</ele></trkpt>
    <trkpt lat="47.13461" lon="13.50187"><ele>1687</ele></trkpt>
    <trkpt lat="47.13450" lon="13.50161"><ele>1717</ele></trkpt>
    <trkpt lat="47.13451" lon="13.50136"><ele>1704</ele></trkpt>
    <trkpt lat="47.13447" lon="13.50119"><ele>1704</ele></trkpt>
    <trkpt lat="47.13439" lon="13.50105"><ele>1709</ele></trkpt>
    <trkpt lat="47.13432" lon="13.50074"><ele>1718</ele></trkpt>
    <trkpt lat="47.13403" lon="13.50051"><ele>1711</ele></trkpt>
    <trkpt lat="47.13395" lon="13.50038"><ele>1714</ele></trkpt>
    <trkpt lat="47.13378" lon="13.50013"><ele>1719</ele></trkpt>
    <trkpt lat="47.13373" lon="13.49996"><ele>1718</ele></trkpt>
    <trkpt lat="47.13367" lon="13.49982"><ele>1723</ele></trkpt>
    <trkpt lat="47.13362" lon="13.49967"><ele>1727</ele></trkpt>
    <trkpt lat="47.13357" lon="13.49954"><ele>1732</ele></trkpt>
    <trkpt lat="47.13355" lon="13.49941"><ele>1740</ele></trkpt>
    <trkpt lat="47.13373" lon="13.49929"><ele>1749</ele></trkpt>
    <trkpt lat="47.13366" lon="13.49901"><ele>1744</ele></trkpt>
    <trkpt lat="47.13373" lon="13.49887"><ele>1750</ele></trkpt>
    <trkpt lat="47.13370" lon="13.49865"><ele>1760</ele></trkpt>
    <trkpt lat="47.13370" lon="13.49852"><ele>1733</ele></trkpt>
    <trkpt lat="47.13385" lon="13.49842"><ele>1774</ele></trkpt>
    <trkpt lat="47.13379" lon="13.49814"><ele>1765</ele></trkpt>
    <trkpt lat="47.13378" lon="13.49785"><ele>1760</ele></trkpt>
    <trkpt lat="47.13372" lon="13.49762"><ele>1772</ele></trkpt>
    <trkpt lat="47.13366" lon="13.49748"><ele>1782</ele></trkpt>
    <trkpt lat="47.13356" lon="13.49732"><ele>1789</ele></trkpt>
    <trkpt lat="47.13371" lon="13.49722"><ele>1779</ele></trkpt>
    <trkpt lat="47.13362" lon="13.49695"><ele>1805</ele></trkpt>
    <trkpt lat="47.13359" lon="13.49673"><ele>1802</ele></trkpt>
    <trkpt lat="47.13351" lon="13.49660"><ele>1784</ele></trkpt>
    <trkpt lat="47.13344" lon="13.49651"><ele>1802</ele></trkpt>
    <trkpt lat="47.13354" lon="13.49648"><ele>1805</ele></trkpt>
    <trkpt lat="47.13348" lon="13.49627"><ele>1786</ele></trkpt>
    <trkpt lat="47.13343" lon="13.49613"><ele>1818</ele></trkpt>
    <trkpt lat="47.13333" lon="13.49615"><ele>1821</ele></trkpt>
    <trkpt lat="47.13355" lon="13.49604"><ele>1815</ele></trkpt>
    <trkpt lat="47.13367" lon="13.49605"><ele>1816</ele></trkpt>
    <trkpt lat="47.13377" lon="13.49602"><ele>1826</ele></trkpt>
    <trkpt lat="47.13395" lon="13.49589"><ele>1838</ele></trkpt>
    <trkpt lat="47.13392" lon="13.49565"><ele>1841</ele></trkpt>
    <trkpt lat="47.13388" lon="13.49537"><ele>1847</ele></trkpt>
    <trkpt lat="47.13408" lon="13.49539"><ele>1848</ele></trkpt>
    <trkpt lat="47.13424" lon="13.49541"><ele>1851</ele></trkpt>
    <trkpt lat="47.13433" lon="13.49539"><ele>1860</ele></trkpt>
    <trkpt lat="47.13436" lon="13.49514"><ele>1869</ele></trkpt>
    <trkpt lat="47.13433" lon="13.49487"><ele>1876</ele></trkpt>
    <trkpt lat="47.13436" lon="13.49474"><ele>1877</ele></trkpt>
    <trkpt lat="47.13430" lon="13.49457"><ele>1883</ele></trkpt>
    <trkpt lat="47.13440" lon="13.49458"><ele>1883</ele></trkpt>
    <trkpt lat="47.13456" lon="13.49450"><ele>1893</ele></trkpt>
    <trkpt lat="47.13451" lon="13.49426"><ele>1900</ele></trkpt>
    <trkpt lat="47.13465" lon="13.49414"><ele>1905</ele></trkpt>
    <trkpt lat="47.13451" lon="13.49391"><ele>1913</ele></trkpt>
    <trkpt lat="47.13447" lon="13.49378"><ele>1919</ele></trkpt>
    <trkpt lat="47.13455" lon="13.49366"><ele>1913</ele></trkpt>
    <trkpt lat="47.13471" lon="13.49358"><ele>1919</ele></trkpt>
    <trkpt lat="47.13490" lon="13.49357"><ele>1926</ele></trkpt>
    <trkpt lat="47.13482" lon="13.49331"><ele>1934</ele></trkpt>
    <trkpt lat="47.13476" lon="13.49309"><ele>1939</ele></trkpt>
    <trkpt lat="47.13480" lon="13.49294"><ele>1946</ele></trkpt>
    <trkpt lat="47.13490" lon="13.49296"><ele>1949</ele></trkpt>
    <trkpt lat="47.13509" lon="13.49290"><ele>1957</ele></trkpt>
    <trkpt lat="47.13518" lon="13.49288"><ele>1960</ele></trkpt>
    <trkpt lat="47.13536" lon="13.49292"><ele>1963</ele></trkpt>
    <trkpt lat="47.13545" lon="13.49294"><ele>1964</ele></trkpt>
    <trkpt lat="47.13562" lon="13.49295"><ele>1959</ele></trkpt>
    <trkpt lat="47.13573" lon="13.49298"><ele>1967</ele></trkpt>
    <trkpt lat="47.13569" lon="13.49270"><ele>1975</ele></trkpt>
    <trkpt lat="47.13564" lon="13.49246"><ele>1982</ele></trkpt>
    <trkpt lat="47.13555" lon="13.49226"><ele>1988</ele></trkpt>
    <trkpt lat="47.13549" lon="13.49203"><ele>1995</ele></trkpt>
    <trkpt lat="47.13541" lon="13.49177"><ele>1997</ele></trkpt>
    <trkpt lat="47.13537" lon="13.49164"><ele>2000</ele></trkpt>
    <trkpt lat="47.13525" lon="13.49144"><ele>1999</ele></trkpt>
    <trkpt lat="47.13539" lon="13.49135"><ele>2013</ele></trkpt>
    <trkpt lat="47.13549" lon="13.49132"><ele>2014</ele></trkpt>
    <trkpt lat="47.13540" lon="13.49111"><ele>2024</ele></trkpt>
    <trkpt lat="47.13555" lon="13.49107"><ele>2031</ele></trkpt>
    <trkpt lat="47.13563" lon="13.49099"><ele>2029</ele></trkpt>
    <trkpt lat="47.13574" lon="13.49102"><ele>2034</ele></trkpt>
    <trkpt lat="47.13580" lon="13.49083"><ele>2052</ele></trkpt>
    <trkpt lat="47.13577" lon="13.49069"><ele>2053</ele></trkpt>
    <trkpt lat="47.13569" lon="13.49048"><ele>2056</ele></trkpt>
    <trkpt lat="47.13558" lon="13.49027"><ele>2064</ele></trkpt>
    <trkpt lat="47.13574" lon="13.49020"><ele>2061</ele></trkpt>
    <trkpt lat="47.13593" lon="13.49013"><ele>2068</ele></trkpt>
    <trkpt lat="47.13587" lon="13.49000"><ele>2075</ele></trkpt>
    <trkpt lat="47.13580" lon="13.48980"><ele>2085</ele></trkpt>
    <trkpt lat="47.13565" lon="13.48954"><ele>2086</ele></trkpt>
    <trkpt lat="47.13581" lon="13.48948"><ele>2087</ele></trkpt>
    <trkpt lat="47.13590" lon="13.48949"><ele>2089</ele></trkpt>
    <trkpt lat="47.13598" lon="13.48937"><ele>2105</ele></trkpt>
    <trkpt lat="47.13590" lon="13.48912"><ele>2108</ele></trkpt>
    <trkpt lat="47.13606" lon="13.48913"><ele>2108</ele></trkpt>
    <trkpt lat="47.13599" lon="13.48887"><ele>2120</ele></trkpt>
    <trkpt lat="47.13593" lon="13.48865"><ele>2126</ele></trkpt>
    <trkpt lat="47.13585" lon="13.48853"><ele>2129</ele></trkpt>
    <trkpt lat="47.13571" lon="13.48837"><ele>2135</ele></trkpt>
    <trkpt lat="47.13564" lon="13.48816"><ele>2134</ele></trkpt>
    <trkpt lat="47.13556" lon="13.48802"><ele>2134</ele></trkpt>
    <trkpt lat="47.13544" lon="13.48783"><ele>2143</ele></trkpt>
    <trkpt lat="47.13539" lon="13.48768"><ele>2140</ele></trkpt>
    <trkpt lat="47.13531" lon="13.48747"><ele>2148</ele></trkpt>
    <trkpt lat="47.13528" lon="13.48733"><ele>2154</ele></trkpt>
    <trkpt lat="47.13524" lon="13.48720"><ele>2159</ele></trkpt>
    <trkpt lat="47.13520" lon="13.48707"><ele>2160</ele></trkpt>
    <trkpt lat="47.13516" lon="13.48683"><ele>2168</ele></trkpt>
    <trkpt lat="47.13513" lon="13.48669"><ele>2171</ele></trkpt>
    <trkpt lat="47.13507" lon="13.48647"><ele>2177</ele></trkpt>
    <trkpt lat="47.13505" lon="13.48623"><ele>2170</ele></trkpt>
    <trkpt lat="47.13502" lon="13.48603"><ele>2170</ele></trkpt>
    <trkpt lat="47.13499" lon="13.48583"><ele>2175</ele></trkpt>
    <trkpt lat="47.13492" lon="13.48556"><ele>2178</ele></trkpt>
    <trkpt lat="47.13489" lon="13.48532"><ele>2182</ele></trkpt>
    <trkpt lat="47.13485" lon="13.48520"><ele>2188</ele></trkpt>
    <trkpt lat="47.13476" lon="13.48500"><ele>2188</ele></trkpt>
    <trkpt lat="47.13464" lon="13.48480"><ele>2198</ele></trkpt>
    <trkpt lat="47.13456" lon="13.48469"><ele>2204</ele></trkpt>
    <trkpt lat="47.13448" lon="13.48448"><ele>2207</ele></trkpt>
    <trkpt lat="47.13439" lon="13.48427"><ele>2211</ele></trkpt>
    <trkpt lat="47.13428" lon="13.48408"><ele>2217</ele></trkpt>
    <trkpt lat="47.13420" lon="13.48386"><ele>2216</ele></trkpt>
    <trkpt lat="47.13407" lon="13.48367"><ele>2227</ele></trkpt>
    <trkpt lat="47.13399" lon="13.48357"><ele>2231</ele></trkpt>
    <trkpt lat="47.13387" lon="13.48340"><ele>2241</ele></trkpt>
    <trkpt lat="47.13375" lon="13.48321"><ele>2237</ele></trkpt>
    <trkpt lat="47.13363" lon="13.48319"><ele>2245</ele></trkpt>
    <trkpt lat="47.13353" lon="13.48311"><ele>2245</ele></trkpt>
    <trkpt lat="47.13343" lon="13.48295"><ele>2242</ele></trkpt>
    <trkpt lat="47.13349" lon="13.48273"><ele>2260</ele></trkpt>
    <trkpt lat="47.13362" lon="13.48259"><ele>2271</ele></trkpt>
    <trkpt lat="47.13347" lon="13.48244"><ele>2274</ele></trkpt>
    <trkpt lat="47.13338" lon="13.48241"><ele>2277</ele></trkpt>
    <trkpt lat="47.13319" lon="13.48237"><ele>2287</ele></trkpt>
    <trkpt lat="47.13303" lon="13.48238"><ele>2279</ele></trkpt>
    <trkpt lat="47.13288" lon="13.48235"><ele>2277</ele></trkpt>
    <trkpt lat="47.13271" lon="13.48235"><ele>2286</ele></trkpt>
    <trkpt lat="47.13262" lon="13.48235"><ele>2286</ele></trkpt>
    <trkpt lat="47.13257" lon="13.48216"><ele>2311</ele></trkpt>
    <trkpt lat="47.13270" lon="13.48200"><ele>2313</ele></trkpt>
    <trkpt lat="47.13283" lon="13.48187"><ele>2321</ele></trkpt>
    <trkpt lat="47.13292" lon="13.48167"><ele>2327</ele></trkpt>
    <trkpt lat="47.13276" lon="13.48166"><ele>2334</ele></trkpt>
    <trkpt lat="47.13261" lon="13.48156"><ele>2335</ele></trkpt>
    <trkpt lat="47.13252" lon="13.48150"><ele>2337</ele></trkpt>
    <trkpt lat="47.13240" lon="13.48144"><ele>2339</ele></trkpt>
    <trkpt lat="47.13256" lon="13.48133"><ele>2357</ele></trkpt>
    <trkpt lat="47.13268" lon="13.48114"><ele>2357</ele></trkpt>
    <trkpt lat="47.13276" lon="13.48104"><ele>2358</ele></trkpt>
    <trkpt lat="47.13261" lon="13.48093"><ele>2363</ele></trkpt>
    <trkpt lat="47.13244" lon="13.48087"><ele>2361</ele></trkpt>
    <trkpt lat="47.13237" lon="13.48078"><ele>2364</ele></trkpt>
    <trkpt lat="47.13223" lon="13.48068"><ele>2381</ele></trkpt>
    <trkpt lat="47.13216" lon="13.48059"><ele>2381</ele></trkpt>
    <trkpt lat="47.13198" lon="13.48066"><ele>2387</ele></trkpt>
    <trkpt lat="47.13185" lon="13.48050"><ele>2389</ele></trkpt>
    <trkpt lat="47.13199" lon="13.48039"><ele>2398</ele></trkpt>
    <trkpt lat="47.13215" lon="13.48037"><ele>2400</ele></trkpt>
    <trkpt lat="47.13229" lon="13.48038"><ele>2405</ele></trkpt>
    <trkpt lat="47.13219" lon="13.48034"><ele>2401</ele></trkpt>
    <trkpt lat="47.13247" lon="13.48080"><ele>2385</ele></trkpt>
    <trkpt lat="47.13250" lon="13.48128"><ele>2365</ele></trkpt>
    <trkpt lat="47.13251" lon="13.48240"><ele>2309</ele></trkpt>
    <trkpt lat="47.13288" lon="13.48259"><ele>2296</ele></trkpt>
    <trkpt lat="47.13345" lon="13.48354"><ele>2238</ele></trkpt>
    <trkpt lat="47.13357" lon="13.48419"><ele>2216</ele></trkpt>
    <trkpt lat="47.13358" lon="13.48433"><ele>2216</ele></trkpt>
    <trkpt lat="47.13335" lon="13.48580"><ele>2184</ele></trkpt>
    <trkpt lat="47.13328" lon="13.48591"><ele>2182</ele></trkpt>
    <trkpt lat="47.13320" lon="13.48603"><ele>2180</ele></trkpt>
    <trkpt lat="47.13319" lon="13.48664"><ele>2153</ele></trkpt>
    <trkpt lat="47.13322" lon="13.48677"><ele>2151</ele></trkpt>
    <trkpt lat="47.13319" lon="13.48724"><ele>2128</ele></trkpt>
    <trkpt lat="47.13311" lon="13.48732"><ele>2129</ele></trkpt>
    <trkpt lat="47.13302" lon="13.48860"><ele>2098</ele></trkpt>
    <trkpt lat="47.13294" lon="13.48871"><ele>2079</ele></trkpt>
    <trkpt lat="47.13310" lon="13.48987"><ele>2054</ele></trkpt>
    <trkpt lat="47.13306" lon="13.49002"><ele>2052</ele></trkpt>
    <trkpt lat="47.13297" lon="13.49020"><ele>2054</ele></trkpt>
    <trkpt lat="47.13285" lon="13.49018"><ele>2054</ele></trkpt>
    <trkpt lat="47.13272" lon="13.49027"><ele>2051</ele></trkpt>
    <trkpt lat="47.13235" lon="13.49047"><ele>2022</ele></trkpt>
    <trkpt lat="47.13237" lon="13.49080"><ele>1998</ele></trkpt>
    <trkpt lat="47.13218" lon="13.49163"><ele>1961</ele></trkpt>
    <trkpt lat="47.13208" lon="13.49241"><ele>1927</ele></trkpt>
    <trkpt lat="47.13218" lon="13.49250"><ele>1918</ele></trkpt>
    <trkpt lat="47.13271" lon="13.49361"><ele>1895</ele></trkpt>
    <trkpt lat="47.13258" lon="13.49541"><ele>1819</ele></trkpt>
    <trkpt lat="47.13267" lon="13.49564"><ele>1829</ele></trkpt>
    <trkpt lat="47.13292" lon="13.49547"><ele>1832</ele></trkpt>
    <trkpt lat="47.13299" lon="13.49557"><ele>1832</ele></trkpt>
    <trkpt lat="47.13311" lon="13.49561"><ele>1832</ele></trkpt>
    <trkpt lat="47.13332" lon="13.49587"><ele>1836</ele></trkpt>
    <trkpt lat="47.13333" lon="13.49607"><ele>1835</ele></trkpt>
    <trkpt lat="47.13354" lon="13.49606"><ele>1832</ele></trkpt>
    <trkpt lat="47.13375" lon="13.49608"><ele>1833</ele></trkpt>
    <trkpt lat="47.13382" lon="13.49600"><ele>1840</ele></trkpt>
    <trkpt lat="47.13392" lon="13.49579"><ele>1845</ele></trkpt>
    <trkpt lat="47.13391" lon="13.49566"><ele>1845</ele></trkpt>
    <trkpt lat="47.13390" lon="13.49553"><ele>1845</ele></trkpt>
    <trkpt lat="47.13399" lon="13.49547"><ele>1845</ele></trkpt>
    <trkpt lat="47.13415" lon="13.49549"><ele>1850</ele></trkpt>
    <trkpt lat="47.13435" lon="13.49539"><ele>1864</ele></trkpt>
    <trkpt lat="47.13436" lon="13.49523"><ele>1867</ele></trkpt>
    <trkpt lat="47.13436" lon="13.49490"><ele>1867</ele></trkpt>
    <trkpt lat="47.13430" lon="13.49464"><ele>1883</ele></trkpt>
    <trkpt lat="47.13449" lon="13.49457"><ele>1894</ele></trkpt>
    <trkpt lat="47.13451" lon="13.49433"><ele>1903</ele></trkpt>
    <trkpt lat="47.13457" lon="13.49404"><ele>1910</ele></trkpt>
    <trkpt lat="47.13456" lon="13.49389"><ele>1916</ele></trkpt>
    <trkpt lat="47.13454" lon="13.49367"><ele>1917</ele></trkpt>
    <trkpt lat="47.13470" lon="13.49357"><ele>1921</ele></trkpt>
    <trkpt lat="47.13492" lon="13.49358"><ele>1919</ele></trkpt>
    <trkpt lat="47.13481" lon="13.49333"><ele>1934</ele></trkpt>
    <trkpt lat="47.13478" lon="13.49320"><ele>1938</ele></trkpt>
    <trkpt lat="47.13472" lon="13.49293"><ele>1967</ele></trkpt>
    <trkpt lat="47.13490" lon="13.49296"><ele>1950</ele></trkpt>
    <trkpt lat="47.13508" lon="13.49286"><ele>1953</ele></trkpt>
    <trkpt lat="47.13525" lon="13.49291"><ele>1964</ele></trkpt>
    <trkpt lat="47.13541" lon="13.49294"><ele>1973</ele></trkpt>
    <trkpt lat="47.13551" lon="13.49298"><ele>1976</ele></trkpt>
    <trkpt lat="47.13562" lon="13.49297"><ele>1978</ele></trkpt>
    <trkpt lat="47.13571" lon="13.49299"><ele>1978</ele></trkpt>
    <trkpt lat="47.13570" lon="13.49269"><ele>1982</ele></trkpt>
    <trkpt lat="47.13565" lon="13.49256"><ele>1984</ele></trkpt>
    <trkpt lat="47.13560" lon="13.49232"><ele>1994</ele></trkpt>
    <trkpt lat="47.13576" lon="13.49222"><ele>1998</ele></trkpt>
    <trkpt lat="47.13593" lon="13.49232"><ele>2005</ele></trkpt>
    <trkpt lat="47.13611" lon="13.49233"><ele>2014</ele></trkpt>
    <trkpt lat="47.13627" lon="13.49237"><ele>2014</ele></trkpt>
    <trkpt lat="47.13642" lon="13.49251"><ele>2025</ele></trkpt>
    <trkpt lat="47.13653" lon="13.49254"><ele>2026</ele></trkpt>
    <trkpt lat="47.13664" lon="13.49272"><ele>2028</ele></trkpt>
    <trkpt lat="47.13678" lon="13.49274"><ele>2031</ele></trkpt>
    <trkpt lat="47.13688" lon="13.49274"><ele>2038</ele></trkpt>
    <trkpt lat="47.13697" lon="13.49277"><ele>2039</ele></trkpt>
    <trkpt lat="47.13691" lon="13.49253"><ele>2045</ele></trkpt>
    <trkpt lat="47.13686" lon="13.49242"><ele>2050</ele></trkpt>
    <trkpt lat="47.13678" lon="13.49220"><ele>2058</ele></trkpt>
    <trkpt lat="47.13690" lon="13.49215"><ele>2060</ele></trkpt>
    <trkpt lat="47.13705" lon="13.49229"><ele>2066</ele></trkpt>
    <trkpt lat="47.13713" lon="13.49240"><ele>2065</ele></trkpt>
    <trkpt lat="47.13722" lon="13.49263"><ele>2071</ele></trkpt>
    <trkpt lat="47.13734" lon="13.49271"><ele>2077</ele></trkpt>
    <trkpt lat="47.13742" lon="13.49282"><ele>2077</ele></trkpt>
    <trkpt lat="47.13751" lon="13.49287"><ele>2083</ele></trkpt>
    <trkpt lat="47.13767" lon="13.49280"><ele>2082</ele></trkpt>
    <trkpt lat="47.13775" lon="13.49274"><ele>2078</ele></trkpt>
    <trkpt lat="47.13805" lon="13.49277"><ele>2068</ele></trkpt>
    <trkpt lat="47.13814" lon="13.49324"><ele>2046</ele></trkpt>
    <trkpt lat="47.13840" lon="13.49392"><ele>2018</ele></trkpt>
    <trkpt lat="47.13834" lon="13.49423"><ele>2003</ele></trkpt>
    <trkpt lat="47.13845" lon="13.49495"><ele>1991</ele></trkpt>
    <trkpt lat="47.13851" lon="13.49567"><ele>1968</ele></trkpt>
    <trkpt lat="47.13847" lon="13.49582"><ele>1963</ele></trkpt>
    <trkpt lat="47.13808" lon="13.49677"><ele>1919</ele></trkpt>
    <trkpt lat="47.13797" lon="13.49678"><ele>1916</ele></trkpt>
    <trkpt lat="47.13763" lon="13.49645"><ele>1925</ele></trkpt>
    <trkpt lat="47.13754" lon="13.49641"><ele>1914</ele></trkpt>
    <trkpt lat="47.13680" lon="13.49739"><ele>1866</ele></trkpt>
    <trkpt lat="47.13660" lon="13.49775"><ele>1846</ele></trkpt>
    <trkpt lat="47.13658" lon="13.49914"><ele>1819</ele></trkpt>
    <trkpt lat="47.13674" lon="13.49933"><ele>1815</ele></trkpt>
    <trkpt lat="47.13680" lon="13.49946"><ele>1814</ele></trkpt>
    <trkpt lat="47.13624" lon="13.50043"><ele>1784</ele></trkpt>
    <trkpt lat="47.13619" lon="13.50057"><ele>1781</ele></trkpt>
    <trkpt lat="47.13580" lon="13.50128"><ele>1729</ele></trkpt>
    <trkpt lat="47.13531" lon="13.50252"><ele>1691</ele></trkpt>
    <trkpt lat="47.13519" lon="13.50256"><ele>1682</ele></trkpt>
    <trkpt lat="47.13522" lon="13.50318"><ele>1669</ele></trkpt>
    <trkpt lat="47.13559" lon="13.50394"><ele>1650</ele></trkpt>
    <trkpt lat="47.13588" lon="13.50449"><ele>1647</ele></trkpt>
    <trkpt lat="47.13595" lon="13.50458"><ele>1644</ele></trkpt>
    <trkpt lat="47.13618" lon="13.50496"><ele>1645</ele></trkpt>
    <trkpt lat="47.13621" lon="13.50513"><ele>1655</ele></trkpt>
    <trkpt lat="47.13640" lon="13.50558"><ele>1625</ele></trkpt>
    <trkpt lat="47.13661" lon="13.50594"><ele>1615</ele></trkpt>
    <trkpt lat="47.13693" lon="13.50637"><ele>1610</ele></trkpt>
    <trkpt lat="47.13758" lon="13.50712"><ele>1591</ele></trkpt>
    <trkpt lat="47.13815" lon="13.50734"><ele>1574</ele></trkpt>
    <trkpt lat="47.13854" lon="13.50750"><ele>1564</ele></trkpt>
    <trkpt lat="47.13869" lon="13.50760"><ele>1550</ele></trkpt>
    <trkpt lat="47.13880" lon="13.50776"><ele>1541</ele></trkpt>
    <trkpt lat="47.13896" lon="13.50786"><ele>1543</ele></trkpt>
    <trkpt lat="47.13916" lon="13.50799"><ele>1535</ele></trkpt>
    <trkpt lat="47.13946" lon="13.50832"><ele>1524</ele></trkpt>
    <trkpt lat="47.13961" lon="13.50862"><ele>1519</ele></trkpt>
    <trkpt lat="47.13982" lon="13.50889"><ele>1513</ele></trkpt>
    <trkpt lat="47.13989" lon="13.50913"><ele>1501</ele></trkpt>
    <trkpt lat="47.14002" lon="13.50931"><ele>1495</ele></trkpt>
    <trkpt lat="47.14010" lon="13.50942"><ele>1493</ele></trkpt>
    <trkpt lat="47.14016" lon="13.50957"><ele>1489</ele></trkpt>
    <trkpt lat="47.14023" lon="13.50968"><ele>1484</ele></trkpt>
    <trkpt lat="47.14037" lon="13.50980"><ele>1480</ele></trkpt>
    <trkpt lat="47.14044" lon="13.50988"><ele>1476</ele></trkpt>
    <trkpt lat="47.14055" lon="13.51003"><ele>1465</ele></trkpt>
    <trkpt lat="47.14064" lon="13.51019"><ele>1464</ele></trkpt>
    <trkpt lat="47.14081" lon="13.51041"><ele>1448</ele></trkpt>
    <trkpt lat="47.14131" lon="13.51095"><ele>1446</ele></trkpt>
    <trkpt lat="47.14103" lon="13.51085"><ele>1436</ele></trkpt>
    <trkpt lat="47.14111" lon="13.51098"><ele>1432</ele></trkpt>
    <trkpt lat="47.14117" lon="13.51115"><ele>1432</ele></trkpt>
    <trkpt lat="47.14133" lon="13.51130"><ele>1429</ele></trkpt>
    <trkpt lat="47.14142" lon="13.51160"><ele>1426</ele></trkpt>
    <trkpt lat="47.14153" lon="13.51172"><ele>1422</ele></trkpt>
    <trkpt lat="47.14161" lon="13.51209"><ele>1421</ele></trkpt>
    <trkpt lat="47.14181" lon="13.51274"><ele>1403</ele></trkpt>
    <trkpt lat="47.14190" lon="13.51296"><ele>1396</ele></trkpt>
    <trkpt lat="47.14200" lon="13.51308"><ele>1393</ele></trkpt>
    <trkpt lat="47.14224" lon="13.51372"><ele>1383</ele></trkpt>
    <trkpt lat="47.14258" lon="13.51414"><ele>1369</ele></trkpt>
    <trkpt lat="47.14268" lon="13.51450"><ele>1361</ele></trkpt>
    <trkpt lat="47.14276" lon="13.51438"><ele>1353</ele></trkpt>
    <trkpt lat="47.14302" lon="13.51438"><ele>1349</ele></trkpt>
    <trkpt lat="47.14316" lon="13.51431"><ele>1347</ele></trkpt>
    <trkpt lat="47.14324" lon="13.51437"><ele>1350</ele></trkpt>
    <trkpt lat="47.14368" lon="13.51482"><ele>1337</ele></trkpt>
    <trkpt lat="47.14388" lon="13.51484"><ele>1327</ele></trkpt>
    <trkpt lat="47.14408" lon="13.51476"><ele>1323</ele></trkpt>
    <trkpt lat="47.14423" lon="13.51471"><ele>1320</ele></trkpt>
    <trkpt lat="47.14432" lon="13.51470"><ele>1318</ele></trkpt>
    <trkpt lat="47.14504" lon="13.51424"><ele>1304</ele></trkpt>
    <trkpt lat="47.14496" lon="13.51442"><ele>1297</ele></trkpt>
    <trkpt lat="47.14504" lon="13.51452"><ele>1296</ele></trkpt>
    <trkpt lat="47.14537" lon="13.51522"><ele>1269</ele></trkpt>
    <trkpt lat="47.14552" lon="13.51552"><ele>1268</ele></trkpt>
    <trkpt lat="47.14566" lon="13.51581"><ele>1243</ele></trkpt>
    <trkpt lat="47.14596" lon="13.51691"><ele>1263</ele></trkpt>
    <trkpt lat="47.14613" lon="13.51722"><ele>1199</ele></trkpt>
    <trkpt lat="47.14655" lon="13.51750"><ele>1197</ele></trkpt>
    <trkpt lat="47.14571" lon="13.51795"><ele>1178</ele></trkpt>
    <trkpt lat="47.14563" lon="13.51801"><ele>1173</ele></trkpt>
    <trkpt lat="47.14561" lon="13.51833"><ele>1173</ele></trkpt>
    <trkpt lat="47.14553" lon="13.51857"><ele>1162</ele></trkpt>
    <trkpt lat="47.14551" lon="13.51871"><ele>1172</ele></trkpt>
  </trkseg>
</trk>
</gpx>