<?xml version="1.0" encoding="UTF-8"?>
<gpx version="1.1" creator="Gpx-Optimizer" xmlns="http://www.topografix.com/GPX/1/1">
<trk>
  <name>Ski_Wildkar</name>
  <trkseg>
    <trkpt lat="47.33742" lon="13.74302"><ele>1084</ele></trkpt>
    <trkpt lat="47.33741" lon="13.74275"><ele>1066</ele></trkpt>
    <trkpt lat="47.33716" lon="13.74281"><ele>1063</ele></trkpt>
    <trkpt lat="47.33697" lon="13.74278"><ele>1067</ele></trkpt>
    <trkpt lat="47.33688" lon="13.74253"><ele>1070</ele></trkpt>
    <trkpt lat="47.33667" lon="13.74236"><ele>1063</ele></trkpt>
    <trkpt lat="47.33656" lon="13.74220"><ele>1062</ele></trkpt>
    <trkpt lat="47.33644" lon="13.74209"><ele>1061</ele></trkpt>
    <trkpt lat="47.33633" lon="13.74198"><ele>1060</ele></trkpt>
    <trkpt lat="47.33626" lon="13.74183"><ele>1061</ele></trkpt>
    <trkpt lat="47.33618" lon="13.74163"><ele>1065</ele></trkpt>
    <trkpt lat="47.33615" lon="13.74144"><ele>1062</ele></trkpt>
    <trkpt lat="47.33607" lon="13.74132"><ele>1066</ele></trkpt>
    <trkpt lat="47.33595" lon="13.74127"><ele>1068</ele></trkpt>
    <trkpt lat="47.33584" lon="13.74117"><ele>1069</ele></trkpt>
    <trkpt lat="47.33567" lon="13.74115"><ele>1079</ele></trkpt>
    <trkpt lat="47.33553" lon="13.74143"><ele>1080</ele></trkpt>
    <trkpt lat="47.33545" lon="13.74158"><ele>1087</ele></trkpt>
    <trkpt lat="47.33529" lon="13.74185"><ele>1088</ele></trkpt>
    <trkpt lat="47.33521" lon="13.74203"><ele>1092</ele></trkpt>
    <trkpt lat="47.33513" lon="13.74223"><ele>1094</ele></trkpt>
    <trkpt lat="47.33498" lon="13.74237"><ele>1097</ele></trkpt>
    <trkpt lat="47.33487" lon="13.74252"><ele>1096</ele></trkpt>
    <trkpt lat="47.33478" lon="13.74268"><ele>1105</ele></trkpt>
    <trkpt lat="47.33466" lon="13.74263"><ele>1099</ele></trkpt>
    <trkpt lat="47.33466" lon="13.74249"><ele>1090</ele></trkpt>
    <trkpt lat="47.33463" lon="13.74225"><ele>1108</ele></trkpt>
    <trkpt lat="47.33458" lon="13.74206"><ele>1098</ele></trkpt>
    <trkpt lat="47.33443" lon="13.74196"><ele>1124</ele></trkpt>
    <trkpt lat="47.33434" lon="13.74179"><ele>1133</ele></trkpt>
    <trkpt lat="47.33421" lon="13.74165"><ele>1141</ele></trkpt>
    <trkpt lat="47.33410" lon="13.74147"><ele>1145</ele></trkpt>
    <trkpt lat="47.33404" lon="13.74125"><ele>1147</ele></trkpt>
    <trkpt lat="47.33404" lon="13.74101"><ele>1158</ele></trkpt>
    <trkpt lat="47.33411" lon="13.74092"><ele>1161</ele></trkpt>
    <trkpt lat="47.33407" lon="13.74067"><ele>1155</ele></trkpt>
    <trkpt lat="47.33413" lon="13.74089"><ele>1184</ele></trkpt>
    <trkpt lat="47.33402" lon="13.74099"><ele>1183</ele></trkpt>
    <trkpt lat="47.33388" lon="13.74112"><ele>1132</ele></trkpt>
    <trkpt lat="47.33375" lon="13.74120"><ele>1182</ele></trkpt>
    <trkpt lat="47.33365" lon="13.74135"><ele>1165</ele></trkpt>
    <trkpt lat="47.33358" lon="13.74154"><ele>1197</ele></trkpt>
    <trkpt lat="47.33352" lon="13.74171"><ele>1200</ele></trkpt>
    <trkpt lat="47.33346" lon="13.74185"><ele>1201</ele></trkpt>
    <trkpt lat="47.33344" lon="13.74205"><ele>1202</ele></trkpt>
    <trkpt lat="47.33341" lon="13.74225"><ele>1213</ele></trkpt>
    <trkpt lat="47.33333" lon="13.74241"><ele>1218</ele></trkpt>
    <trkpt lat="47.33319" lon="13.74256"><ele>1217</ele></trkpt>
    <trkpt lat="47.33303" lon="13.74269"><ele>1215</ele></trkpt>
    <trkpt lat="47.33296" lon="13.74284"><ele>1219</ele></trkpt>
    <trkpt lat="47.33287" lon="13.74298"><ele>1220</ele></trkpt>
    <trkpt lat="47.33263" lon="13.74290"><ele>1212</ele></trkpt>
    <trkpt lat="47.33255" lon="13.74276"><ele>1205</ele></trkpt>
    <trkpt lat="47.33247" lon="13.74283"><ele>1210</ele></trkpt>
    <trkpt lat="47.33244" lon="13.74312"><ele>1216</ele></trkpt>
    <trkpt lat="47.33232" lon="13.74330"><ele>1218</ele></trkpt>
    <trkpt lat="47.33224" lon="13.74349"><ele>1222</ele></trkpt>
    <trkpt lat="47.33217" lon="13.74365"><ele>1224</ele></trkpt>
    <trkpt lat="47.33214" lon="13.74385"><ele>1233</ele></trkpt>
    <trkpt lat="47.33199" lon="13.74401"><ele>1231</ele></trkpt>
    <trkpt lat="47.33190" lon="13.74415"><ele>1225</ele></trkpt>
    <trkpt lat="47.33175" lon="13.74428"><ele>1230</ele></trkpt>
    <trkpt lat="47.33162" lon="13.74443"><ele>1233</ele></trkpt>
    <trkpt lat="47.33149" lon="13.74455"><ele>1231</ele></trkpt>
    <trkpt lat="47.33140" lon="13.74475"><ele>1236</ele></trkpt>
    <trkpt lat="47.33134" lon="13.74489"><ele>1217</ele></trkpt>
    <trkpt lat="47.33127" lon="13.74502"><ele>1237</ele></trkpt>
    <trkpt lat="47.33109" lon="13.74514"><ele>1234</ele></trkpt>
    <trkpt lat="47.33097" lon="13.74533"><ele>1236</ele></trkpt>
    <trkpt lat="47.33085" lon="13.74545"><ele>1235</ele></trkpt>
    <trkpt lat="47.33076" lon="13.74559"><ele>1237</ele></trkpt>
    <trkpt lat="47.33063" lon="13.74574"><ele>1233</ele></trkpt>
    <trkpt lat="47.33058" lon="13.74590"><ele>1241</ele></trkpt>
    <trkpt lat="47.33048" lon="13.74605"><ele>1244</ele></trkpt>
    <trkpt lat="47.33034" lon="13.74613"><ele>1246</ele></trkpt>
    <trkpt lat="47.33022" lon="13.74625"><ele>1243</ele></trkpt>
    <trkpt lat="47.33010" lon="13.74636"><ele>1244</ele></trkpt>
    <trkpt lat="47.32996" lon="13.74641"><ele>1244</ele></trkpt>
    <trkpt lat="47.32985" lon="13.74650"><ele>1249</ele></trkpt>
    <trkpt lat="47.32972" lon="13.74663"><ele>1251</ele></trkpt>
    <trkpt lat="47.32963" lon="13.74661"><ele>1252</ele></trkpt>
    <trkpt lat="47.32951" lon="13.74674"><ele>1258</ele></trkpt>
    <trkpt lat="47.32937" lon="13.74691"><ele>1264</ele></trkpt>
    <trkpt lat="47.32929" lon="13.74697"><ele>1267</ele></trkpt>
    <trkpt lat="47.32920" lon="13.74706"><ele>1268</ele></trkpt>
    <trkpt lat="47.32904" lon="13.74710"><ele>1265</ele></trkpt>
    <trkpt lat="47.32888" lon="13.74700"><ele>1280</ele></trkpt>
    <trkpt lat="47.32887" lon="13.74677"><ele>1293</ele></trkpt>
    <trkpt lat="47.32881" lon="13.74668"><ele>1297</ele></trkpt>
    <trkpt lat="47.32870" lon="13.74669"><ele>1308</ele></trkpt>
    <trkpt lat="47.32870" lon="13.74645"><ele>1292</ele></trkpt>
    <trkpt lat="47.32863" lon="13.74625"><ele>1325</ele></trkpt>
    <trkpt lat="47.32854" lon="13.74610"><ele>1334</ele></trkpt>
    <trkpt lat="47.32839" lon="13.74621"><ele>1331</ele></trkpt>
    <trkpt lat="47.32825" lon="13.74627"><ele>1350</ele></trkpt>
    <trkpt lat="47.32811" lon="13.74617"><ele>1359</ele></trkpt>
    <trkpt lat="47.32795" lon="13.74624"><ele>1384</ele></trkpt>
    <trkpt lat="47.32780" lon="13.74632"><ele>1391</ele></trkpt>
    <trkpt lat="47.32765" lon="13.74643"><ele>1386</ele></trkpt>
    <trkpt lat="47.32751" lon="13.74647"><ele>1408</ele></trkpt>
    <trkpt lat="47.32742" lon="13.74636"><ele>1420</ele></trkpt>
    <trkpt lat="47.32740" lon="13.74616"><ele>1423</ele></trkpt>
    <trkpt lat="47.32731" lon="13.74602"><ele>1428</ele></trkpt>
    <trkpt lat="47.32722" lon="13.74600"><ele>1426</ele></trkpt>
    <trkpt lat="47.32707" lon="13.74631"><ele>1410</ele></trkpt>
    <trkpt lat="47.32692" lon="13.74669"><ele>1419</ele></trkpt>
    <trkpt lat="47.32670" lon="13.74703"><ele>1413</ele></trkpt>
    <trkpt lat="47.32639" lon="13.74713"><ele>1401</ele></trkpt>
    <trkpt lat="47.32619" lon="13.74738"><ele>1397</ele></trkpt>
    <trkpt lat="47.32608" lon="13.74756"><ele>1409</ele></trkpt>
    <trkpt lat="47.32595" lon="13.74762"><ele>1410</ele></trkpt>
    <trkpt lat="47.32578" lon="13.74769"><ele>1414</ele></trkpt>
    <trkpt lat="47.32564" lon="13.74769"><ele>1402</ele></trkpt>
    <trkpt lat="47.32546" lon="13.74771"><ele>1414</ele></trkpt>
    <trkpt lat="47.32530" lon="13.74771"><ele>1418</ele></trkpt>
    <trkpt lat="47.32517" lon="13.74775"><ele>1417</ele></trkpt>
    <trkpt lat="47.32500" lon="13.74784"><ele>1419</ele></trkpt>
    <trkpt lat="47.32484" lon="13.74786"><ele>1422</ele></trkpt>
    <trkpt lat="47.32469" lon="13.74795"><ele>1399</ele></trkpt>
    <trkpt lat="47.32449" lon="13.74806"><ele>1437</ele></trkpt>
    <trkpt lat="47.32432" lon="13.74807"><ele>1439</ele></trkpt>
    <trkpt lat="47.32418" lon="13.74808"><ele>1441</ele></trkpt>
    <trkpt lat="47.32403" lon="13.74811"><ele>1418</ele></trkpt>
    <trkpt lat="47.32393" lon="13.74818"><ele>1440</ele></trkpt>
    <trkpt lat="47.32383" lon="13.74827"><ele>1444</ele></trkpt>
    <trkpt lat="47.32374" lon="13.74845"><ele>1449</ele></trkpt>
    <trkpt lat="47.32363" lon="13.74867"><ele>1452</ele></trkpt>
    <trkpt lat="47.32354" lon="13.74881"><ele>1456</ele></trkpt>
    <trkpt lat="47.32329" lon="13.74876"><ele>1451</ele></trkpt>
    <trkpt lat="47.32321" lon="13.74862"><ele>1461</ele></trkpt>
    <trkpt lat="47.32320" lon="13.74838"><ele>1472</ele></trkpt>
    <trkpt lat="47.32312" lon="13.74827"><ele>1478</ele></trkpt>
    <trkpt lat="47.32300" lon="13.74829"><ele>1484</ele></trkpt>
    <trkpt lat="47.32289" lon="13.74832"><ele>1491</ele></trkpt>
    <trkpt lat="47.32277" lon="13.74840"><ele>1499</ele></trkpt>
    <trkpt lat="47.32260" lon="13.74846"><ele>1507</ele></trkpt>
    <trkpt lat="47.32248" lon="13.74813"><ele>1500</ele></trkpt>
    <trkpt lat="47.32248" lon="13.74798"><ele>1475</ele></trkpt>
    <trkpt lat="47.32252" lon="13.74765"><ele>1500</ele></trkpt>
    <trkpt lat="47.32254" lon="13.74748"><ele>1503</ele></trkpt>
    <trkpt lat="47.32241" lon="13.74738"><ele>1480</ele></trkpt>
    <trkpt lat="47.32230" lon="13.74737"><ele>1520</ele></trkpt>
    <trkpt lat="47.32209" lon="13.74721"><ele>1525</ele></trkpt>
    <trkpt lat="47.32210" lon="13.74707"><ele>1535</ele></trkpt>
    <trkpt lat="47.32223" lon="13.74686"><ele>1543</ele></trkpt>
    <trkpt lat="47.32229" lon="13.74671"><ele>1550</ele></trkpt>
    <trkpt lat="47.32232" lon="13.74648"><ele>1554</ele></trkpt>
    <trkpt lat="47.32225" lon="13.74631"><ele>1554</ele></trkpt>
    <trkpt lat="47.32205" lon="13.74630"><ele>1573</ele></trkpt>
    <trkpt lat="47.32195" lon="13.74630"><ele>1575</ele></trkpt>
    <trkpt lat="47.32175" lon="13.74628"><ele>1599</ele></trkpt>
    <trkpt lat="47.32182" lon="13.74605"><ele>1575</ele></trkpt>
    <trkpt lat="47.32186" lon="13.74589"><ele>1601</ele></trkpt>
    <trkpt lat="47.32193" lon="13.74579"><ele>1602</ele></trkpt>
    <trkpt lat="47.32174" lon="13.74572"><ele>1610</ele></trkpt>
    <trkpt lat="47.32163" lon="13.74566"><ele>1611</ele></trkpt>
    <trkpt lat="47.32153" lon="13.74566"><ele>1612</ele></trkpt>
    <trkpt lat="47.32143" lon="13.74563"><ele>1613</ele></trkpt>
    <trkpt lat="47.32133" lon="13.74565"><ele>1616</ele></trkpt>
    <trkpt lat="47.32111" lon="13.74574"><ele>1610</ele></trkpt>
    <trkpt lat="47.32098" lon="13.74578"><ele>1615</ele></trkpt>
    <trkpt lat="47.32088" lon="13.74580"><ele>1620</ele></trkpt>
    <trkpt lat="47.32049" lon="13.74595"><ele>1638</ele></trkpt>
    <trkpt lat="47.32031" lon="13.74588"><ele>1609</ele></trkpt>
    <trkpt lat="47.32015" lon="13.74587"><ele>1643</ele></trkpt>
    <trkpt lat="47.31987" lon="13.74608"><ele>1643</ele></trkpt>
    <trkpt lat="47.31965" lon="13.74623"><ele>1642</ele></trkpt>
    <trkpt lat="47.31934" lon="13.74640"><ele>1643</ele></trkpt>
    <trkpt lat="47.31918" lon="13.74650"><ele>1655</ele></trkpt>
    <trkpt lat="47.31829" lon="13.74648"><ele>1656</ele></trkpt>
    <trkpt lat="47.31814" lon="13.74641"><ele>1660</ele></trkpt>
    <trkpt lat="47.31800" lon="13.74637"><ele>1660</ele></trkpt>
    <trkpt lat="47.31792" lon="13.74632"><ele>1666</ele></trkpt>
    <trkpt lat="47.31783" lon="13.74642"><ele>1672</ele></trkpt>
    <trkpt lat="47.31771" lon="13.74649"><ele>1678</ele></trkpt>
    <trkpt lat="47.31761" lon="13.74659"><ele>1687</ele></trkpt>
    <trkpt lat="47.31751" lon="13.74656"><ele>1686</ele></trkpt>
    <trkpt lat="47.31721" lon="13.74668"><ele>1674</ele></trkpt>
    <trkpt lat="47.31709" lon="13.74687"><ele>1697</ele></trkpt>
    <trkpt lat="47.31694" lon="13.74749"><ele>1716</ele></trkpt>
    <trkpt lat="47.31686" lon="13.74769"><ele>1725</ele></trkpt>
    <trkpt lat="47.31700" lon="13.74808"><ele>1732</ele></trkpt>
    <trkpt lat="47.31698" lon="13.74832"><ele>1752</ele></trkpt>
    <trkpt lat="47.31700" lon="13.74855"><ele>1765</ele></trkpt>
    <trkpt lat="47.31693" lon="13.74874"><ele>1772</ele></trkpt>
    <trkpt lat="47.31683" lon="13.74877"><ele>1775</ele></trkpt>
    <trkpt lat="47.31666" lon="13.74871"><ele>1774</ele></trkpt>
    <trkpt lat="47.31652" lon="13.74863"><ele>1771</ele></trkpt>
    <trkpt lat="47.31647" lon="13.74877"><ele>1780</ele></trkpt>
    <trkpt lat="47.31650" lon="13.74901"><ele>1783</ele></trkpt>
    <trkpt lat="47.31635" lon="13.74910"><ele>1793</ele></trkpt>
    <trkpt lat="47.31620" lon="13.74905"><ele>1802</ele></trkpt>
    <trkpt lat="47.31611" lon="13.74898"><ele>1801</ele></trkpt>
    <trkpt lat="47.31600" lon="13.74917"><ele>1815</ele></trkpt>
    <trkpt lat="47.31585" lon="13.74915"><ele>1820</ele></trkpt>
    <trkpt lat="47.31573" lon="13.74931"><ele>1826</ele></trkpt>
    <trkpt lat="47.31558" lon="13.74941"><ele>1840</ele></trkpt>
    <trkpt lat="47.31556" lon="13.74955"><ele>1843</ele></trkpt>
    <trkpt lat="47.31539" lon="13.74959"><ele>1837</ele></trkpt>
    <trkpt lat="47.31532" lon="13.74971"><ele>1854</ele></trkpt>
    <trkpt lat="47.31526" lon="13.74994"><ele>1864</ele></trkpt>
    <trkpt lat="47.31515" lon="13.74989"><ele>1868</ele></trkpt>
    <trkpt lat="47.31505" lon="13.75007"><ele>1878</ele></trkpt>
    <trkpt lat="47.31497" lon="13.75032"><ele>1890</ele></trkpt>
    <trkpt lat="47.31488" lon="13.75053"><ele>1891</ele></trkpt>
    <trkpt lat="47.31482" lon="13.75070"><ele>1895</ele></trkpt>
    <trkpt lat="47.31479" lon="13.75088"><ele>1898</ele></trkpt>
    <trkpt lat="47.31474" lon="13.75101"><ele>1901</ele></trkpt>
    <trkpt lat="47.31468" lon="13.75114"><ele>1902</ele></trkpt>
    <trkpt lat="47.31463" lon="13.75127"><ele>1902</ele></trkpt>
    <trkpt lat="47.31459" lon="13.75141"><ele>1903</ele></trkpt>
    <trkpt lat="47.31444" lon="13.75151"><ele>1904</ele></trkpt>
    <trkpt lat="47.31428" lon="13.75160"><ele>1907</ele></trkpt>
    <trkpt lat="47.31415" lon="13.75175"><ele>1908</ele></trkpt>
    <trkpt lat="47.31400" lon="13.75163"><ele>1919</ele></trkpt>
    <trkpt lat="47.31392" lon="13.75144"><ele>1881</ele></trkpt>
    <trkpt lat="47.31395" lon="13.75119"><ele>1930</ele></trkpt>
    <trkpt lat="47.31395" lon="13.75103"><ele>1937</ele></trkpt>
    <trkpt lat="47.31380" lon="13.75113"><ele>1938</ele></trkpt>
    <trkpt lat="47.31368" lon="13.75105"><ele>1950</ele></trkpt>
    <trkpt lat="47.31358" lon="13.75091"><ele>1955</ele></trkpt>
    <trkpt lat="47.31345" lon="13.75087"><ele>1957</ele></trkpt>
    <trkpt lat="47.31341" lon="13.75062"><ele>1956</ele></trkpt>
    <trkpt lat="47.31334" lon="13.75032"><ele>1963</ele></trkpt>
    <trkpt lat="47.31332" lon="13.75017"><ele>1965</ele></trkpt>
    <trkpt lat="47.31330" lon="13.74999"><ele>1969</ele></trkpt>
    <trkpt lat="47.31329" lon="13.74983"><ele>1977</ele></trkpt>
    <trkpt lat="47.31324" lon="13.74959"><ele>1979</ele></trkpt>
    <trkpt lat="47.31318" lon="13.74944"><ele>1978</ele></trkpt>
    <trkpt lat="47.31316" lon="13.74926"><ele>1964</ele></trkpt>
    <trkpt lat="47.31308" lon="13.74903"><ele>1976</ele></trkpt>
    <trkpt lat="47.31294" lon="13.74885"><ele>1983</ele></trkpt>
    <trkpt lat="47.31287" lon="13.74869"><ele>1981</ele></trkpt>
    <trkpt lat="47.31281" lon="13.74842"><ele>1979</ele></trkpt>
    <trkpt lat="47.31280" lon="13.74812"><ele>1976</ele></trkpt>
    <trkpt lat="47.31276" lon="13.74793"><ele>1982</ele></trkpt>
    <trkpt lat="47.31259" lon="13.74758"><ele>1987</ele></trkpt>
    <trkpt lat="47.31234" lon="13.74717"><ele>1979</ele></trkpt>
    <trkpt lat="47.31220" lon="13.74701"><ele>1981</ele></trkpt>
    <trkpt lat="47.31210" lon="13.74690"><ele>1985</ele></trkpt>
    <trkpt lat="47.31203" lon="13.74672"><ele>1989</ele></trkpt>
    <trkpt lat="47.31195" lon="13.74653"><ele>1983</ele></trkpt>
    <trkpt lat="47.31184" lon="13.74641"><ele>1991</ele></trkpt>
    <trkpt lat="47.31175" lon="13.74632"><ele>1988</ele></trkpt>
    <trkpt lat="47.31165" lon="13.74625"><ele>1994</ele></trkpt>
    <trkpt lat="47.31154" lon="13.74613"><ele>1981</ele></trkpt>
    <trkpt lat="47.31142" lon="13.74591"><ele>1999</ele></trkpt>
    <trkpt lat="47.31134" lon="13.74578"><ele>2002</ele></trkpt>
    <trkpt lat="47.31133" lon="13.74559"><ele>2004</ele></trkpt>
    <trkpt lat="47.31131" lon="13.74539"><ele>2005</ele></trkpt>
    <trkpt lat="47.31126" lon="13.74520"><ele>2010</ele></trkpt>
    <trkpt lat="47.31117" lon="13.74505"><ele>1991</ele></trkpt>
    <trkpt lat="47.31109" lon="13.74488"><ele>2005</ele></trkpt>
    <trkpt lat="47.31107" lon="13.74474"><ele>2011</ele></trkpt>
    <trkpt lat="47.31098" lon="13.74461"><ele>2013</ele></trkpt>
    <trkpt lat="47.31094" lon="13.74445"><ele>2005</ele></trkpt>
    <trkpt lat="47.31085" lon="13.74421"><ele>2013</ele></trkpt>
    <trkpt lat="47.31079" lon="13.74409"><ele>2019</ele></trkpt>
    <trkpt lat="47.31068" lon="13.74379"><ele>2026</ele></trkpt>
    <trkpt lat="47.31052" lon="13.74349"><ele>2017</ele></trkpt>
    <trkpt lat="47.31033" lon="13.74336"><ele>2021</ele></trkpt>
    <trkpt lat="47.31013" lon="13.74315"><ele>2022</ele></trkpt>
    <trkpt lat="47.30997" lon="13.74303"><ele>2021</ele></trkpt>
    <trkpt lat="47.30985" lon="13.74278"><ele>2018</ele></trkpt>
    <trkpt lat="47.30969" lon="13.74247"><ele>2020</ele></trkpt>
    <trkpt lat="47.30960" lon="13.74209"><ele>2014</ele></trkpt>
    <trkpt lat="47.30946" lon="13.74185"><ele>2013</ele></trkpt>
    <trkpt lat="47.30931" lon="13.74170"><ele>2008</ele></trkpt>
    <trkpt lat="47.30927" lon="13.74150"><ele>2020</ele></trkpt>
    <trkpt lat="47.30924" lon="13.74134"><ele>2019</ele></trkpt>
    <trkpt lat="47.30915" lon="13.74122"><ele>2016</ele></trkpt>
    <trkpt lat="47.30909" lon="13.74104"><ele>2017</ele></trkpt>
    <trkpt lat="47.30897" lon="13.74108"><ele>2024</ele></trkpt>
    <trkpt lat="47.30888" lon="13.74098"><ele>2027</ele></trkpt>
    <trkpt lat="47.30856" lon="13.74079"><ele>2021</ele></trkpt>
    <trkpt lat="47.30840" lon="13.74067"><ele>2019</ele></trkpt>
    <trkpt lat="47.30830" lon="13.74056"><ele>2020</ele></trkpt>
    <trkpt lat="47.30814" lon="13.74043"><ele>2013</ele></trkpt>
    <trkpt lat="47.30800" lon="13.74038"><ele>2014</ele></trkpt>
    <trkpt lat="47.30785" lon="13.74043"><ele>2012</ele></trkpt>
    <trkpt lat="47.30778" lon="13.74052"><ele>2014</ele></trkpt>
    <trkpt lat="47.30775" lon="13.74034"><ele>2011</ele></trkpt>
    <trkpt lat="47.30766" lon="13.74028"><ele>2014</ele></trkpt>
    <trkpt lat="47.30753" lon="13.74013"><ele>2020</ele></trkpt>
    <trkpt lat="47.30741" lon="13.74008"><ele>2021</ele></trkpt>
    <trkpt lat="47.30735" lon="13.73992"><ele>2026</ele></trkpt>
    <trkpt lat="47.30722" lon="13.73966"><ele>2026</ele></trkpt>
    <trkpt lat="47.30715" lon="13.73948"><ele>2027</ele></trkpt>
    <trkpt lat="47.30710" lon="13.73936"><ele>2031</ele></trkpt>
    <trkpt lat="47.30704" lon="13.73909"><ele>2040</ele></trkpt>
    <trkpt lat="47.30702" lon="13.73895"><ele>2043</ele></trkpt>
    <trkpt lat="47.30702" lon="13.73875"><ele>2045</ele></trkpt>
    <trkpt lat="47.30701" lon="13.73848"><ele>2044</ele></trkpt>
    <trkpt lat="47.30695" lon="13.73824"><ele>2052</ele></trkpt>
    <trkpt lat="47.30684" lon="13.73807"><ele>2061</ele></trkpt>
    <trkpt lat="47.30676" lon="13.73786"><ele>2058</ele></trkpt>
    <trkpt lat="47.30660" lon="13.73775"><ele>2068</ele></trkpt>
    <trkpt lat="47.30643" lon="13.73761"><ele>2074</ele></trkpt>
    <trkpt lat="47.30637" lon="13.73750"><ele>2075</ele></trkpt>
    <trkpt lat="47.30630" lon="13.73734"><ele>2073</ele></trkpt>
    <trkpt lat="47.30615" lon="13.73721"><ele>2082</ele></trkpt>
    <trkpt lat="47.30600" lon="13.73711"><ele>2081</ele></trkpt>
    <trkpt lat="47.30588" lon="13.73709"><ele>2084</ele></trkpt>
    <trkpt lat="47.30578" lon="13.73705"><ele>2083</ele></trkpt>
    <trkpt lat="47.30569" lon="13.73703"><ele>2083</ele></trkpt>
    <trkpt lat="47.30552" lon="13.73697"><ele>2100</ele></trkpt>
    <trkpt lat="47.30560" lon="13.73675"><ele>2110</ele></trkpt>
    <trkpt lat="47.30579" lon="13.73645"><ele>2112</ele></trkpt>
    <trkpt lat="47.30583" lon="13.73631"><ele>2126</ele></trkpt>
    <trkpt lat="47.30600" lon="13.73611"><ele>2131</ele></trkpt>
    <trkpt lat="47.30614" lon="13.73593"><ele>2130</ele></trkpt>
    <trkpt lat="47.30608" lon="13.73580"><ele>2145</ele></trkpt>
    <trkpt lat="47.30597" lon="13.73585"><ele>2148</ele></trkpt>
    <trkpt lat="47.30583" lon="13.73593"><ele>2149</ele></trkpt>
    <trkpt lat="47.30569" lon="13.73580"><ele>2151</ele></trkpt>
    <trkpt lat="47.30554" lon="13.73594"><ele>2151</ele></trkpt>
    <trkpt lat="47.30543" lon="13.73606"><ele>2163</ele></trkpt>
    <trkpt lat="47.30534" lon="13.73601"><ele>2166</ele></trkpt>
    <trkpt lat="47.30514" lon="13.73602"><ele>2166</ele></trkpt>
    <trkpt lat="47.30500" lon="13.73616"><ele>2162</ele></trkpt>
    <trkpt lat="47.30490" lon="13.73619"><ele>2161</ele></trkpt>
    <trkpt lat="47.30477" lon="13.73619"><ele>2167</ele></trkpt>
    <trkpt lat="47.30465" lon="13.73624"><ele>2170</ele></trkpt>
    <trkpt lat="47.30448" lon="13.73610"><ele>2177</ele></trkpt>
    <trkpt lat="47.30439" lon="13.73602"><ele>2174</ele></trkpt>
    <trkpt lat="47.30425" lon="13.73584"><ele>2175</ele></trkpt>
    <trkpt lat="47.30414" lon="13.73574"><ele>2175</ele></trkpt>
    <trkpt lat="47.30405" lon="13.73569"><ele>2177</ele></trkpt>
    <trkpt lat="47.30388" lon="13.73561"><ele>2179</ele></trkpt>
    <trkpt lat="47.30378" lon="13.73551"><ele>2181</ele></trkpt>
    <trkpt lat="47.30367" lon="13.73539"><ele>2180</ele></trkpt>
    <trkpt lat="47.30355" lon="13.73527"><ele>2178</ele></trkpt>
    <trkpt lat="47.30345" lon="13.73523"><ele>2180</ele></trkpt>
    <trkpt lat="47.30329" lon="13.73509"><ele>2186</ele></trkpt>
    <trkpt lat="47.30320" lon="13.73505"><ele>2188</ele></trkpt>
    <trkpt lat="47.30308" lon="13.73497"><ele>2180</ele></trkpt>
    <trkpt lat="47.30294" lon="13.73488"><ele>2177</ele></trkpt>
    <trkpt lat="47.30279" lon="13.73487"><ele>2180</ele></trkpt>
    <trkpt lat="47.30268" lon="13.73486"><ele>2183</ele></trkpt>
    <trkpt lat="47.30254" lon="13.73485"><ele>2186</ele></trkpt>
    <trkpt lat="47.30241" lon="13.73487"><ele>2185</ele></trkpt>
    <trkpt lat="47.30232" lon="13.73481"><ele>2185</ele></trkpt>
    <trkpt lat="47.30219" lon="13.73471"><ele>2189</ele></trkpt>
    <trkpt lat="47.30199" lon="13.73463"><ele>2193</ele></trkpt>
    <trkpt lat="47.30186" lon="13.73457"><ele>2193</ele></trkpt>
    <trkpt lat="47.30175" lon="13.73437"><ele>2195</ele></trkpt>
    <trkpt lat="47.30164" lon="13.73421"><ele>2190</ele></trkpt>
    <trkpt lat="47.30147" lon="13.73404"><ele>2195</ele></trkpt>
    <trkpt lat="47.30128" lon="13.73389"><ele>2198</ele></trkpt>
    <trkpt lat="47.30120" lon="13.73383"><ele>2202</ele></trkpt>
    <trkpt lat="47.30103" lon="13.73365"><ele>2201</ele></trkpt>
    <trkpt lat="47.30092" lon="13.73357"><ele>2202</ele></trkpt>
    <trkpt lat="47.30081" lon="13.73353"><ele>2206</ele></trkpt>
    <trkpt lat="47.30067" lon="13.73340"><ele>2215</ele></trkpt>
    <trkpt lat="47.30056" lon="13.73336"><ele>2218</ele></trkpt>
    <trkpt lat="47.30040" lon="13.73346"><ele>2222</ele></trkpt>
    <trkpt lat="47.30034" lon="13.73358"><ele>2227</ele></trkpt>
    <trkpt lat="47.30018" lon="13.73365"><ele>2231</ele></trkpt>
    <trkpt lat="47.30003" lon="13.73375"><ele>2236</ele></trkpt>
    <trkpt lat="47.29989" lon="13.73392"><ele>2240</ele></trkpt>
    <trkpt lat="47.29969" lon="13.73416"><ele>2221</ele></trkpt>
    <trkpt lat="47.29953" lon="13.73421"><ele>2255</ele></trkpt>
    <trkpt lat="47.29936" lon="13.73427"><ele>2245</ele></trkpt>
    <trkpt lat="47.29931" lon="13.73411"><ele>2255</ele></trkpt>
    <trkpt lat="47.29921" lon="13.73389"><ele>2263</ele></trkpt>
    <trkpt lat="47.29917" lon="13.73365"><ele>2272</ele></trkpt>
    <trkpt lat="47.29914" lon="13.73342"><ele>2280</ele></trkpt>
    <trkpt lat="47.29907" lon="13.73320"><ele>2287</ele></trkpt>
    <trkpt lat="47.29905" lon="13.73294"><ele>2291</ele></trkpt>
    <trkpt lat="47.29892" lon="13.73308"><ele>2302</ele></trkpt>
    <trkpt lat="47.29881" lon="13.73323"><ele>2300</ele></trkpt>
    <trkpt lat="47.29868" lon="13.73338"><ele>2298</ele></trkpt>
    <trkpt lat="47.29844" lon="13.73370"><ele>2319</ele></trkpt>
    <trkpt lat="47.29842" lon="13.73335"><ele>2329</ele></trkpt>
    <trkpt lat="47.29836" lon="13.73315"><ele>2336</ele></trkpt>
    <trkpt lat="47.29824" lon="13.73313"><ele>2363</ele></trkpt>
    <trkpt lat="47.29812" lon="13.73304"><ele>2371</ele></trkpt>
    <trkpt lat="47.29805" lon="13.73289"><ele>2382</ele></trkpt>
    <trkpt lat="47.29806" lon="13.73265"><ele>2395</ele></trkpt>
    <trkpt lat="47.29791" lon="13.73258"><ele>2419</ele></trkpt>
    <trkpt lat="47.29782" lon="13.73278"><ele>2402</ele></trkpt>
    <trkpt lat="47.29759" lon="13.73316"><ele>2416</ele></trkpt>
    <trkpt lat="47.29735" lon="13.73350"><ele>2423</ele></trkpt>
    <trkpt lat="47.29723" lon="13.73366"><ele>2424</ele></trkpt>
    <trkpt lat="47.29721" lon="13.73390"><ele>2441</ele></trkpt>
    <trkpt lat="47.29731" lon="13.73406"><ele>2455</ele></trkpt>
    <trkpt lat="47.29721" lon="13.73424"><ele>2474</ele></trkpt>
    <trkpt lat="47.29706" lon="13.73431"><ele>2478</ele></trkpt>
    <trkpt lat="47.29725" lon="13.73397"><ele>2457</ele></trkpt>
    <trkpt lat="47.29714" lon="13.73362"><ele>2442</ele></trkpt>
    <trkpt lat="47.29713" lon="13.73342"><ele>2434</ele></trkpt>
    <trkpt lat="47.29719" lon="13.73325"><ele>2425</ele></trkpt>
    <trkpt lat="47.29720" lon="13.73311"><ele>2413</ele></trkpt>
    <trkpt lat="47.29737" lon="13.73304"><ele>2417</ele></trkpt>
    <trkpt lat="47.29754" lon="13.73301"><ele>2423</ele></trkpt>
    <trkpt lat="47.29767" lon="13.73301"><ele>2422</ele></trkpt>
    <trkpt lat="47.29778" lon="13.73309"><ele>2415</ele></trkpt>
    <trkpt lat="47.29804" lon="13.73332"><ele>2394</ele></trkpt>
    <trkpt lat="47.29872" lon="13.73383"><ele>2350</ele></trkpt>
    <trkpt lat="47.29967" lon="13.73343"><ele>2283</ele></trkpt>
    <trkpt lat="47.30009" lon="13.73358"><ele>2263</ele></trkpt>
    <trkpt lat="47.30020" lon="13.73362"><ele>2242</ele></trkpt>
    <trkpt lat="47.30140" lon="13.73412"><ele>2206</ele></trkpt>
    <trkpt lat="47.30239" lon="13.73463"><ele>2205</ele></trkpt>
    <trkpt lat="47.30317" lon="13.73497"><ele>2195</ele></trkpt>
    <trkpt lat="47.30349" lon="13.73519"><ele>2181</ele></trkpt>
    <trkpt lat="47.30407" lon="13.73566"><ele>2177</ele></trkpt>
    <trkpt lat="47.30461" lon="13.73609"><ele>2174</ele></trkpt>
    <trkpt lat="47.30468" lon="13.73622"><ele>2173</ele></trkpt>
    <trkpt lat="47.30488" lon="13.73701"><ele>2170</ele></trkpt>
    <trkpt lat="47.30490" lon="13.73722"><ele>2163</ele></trkpt>
    <trkpt lat="47.30500" lon="13.73726"><ele>2160</ele></trkpt>
    <trkpt lat="47.30512" lon="13.73722"><ele>2151</ele></trkpt>
    <trkpt lat="47.30532" lon="13.73717"><ele>2140</ele></trkpt>
    <trkpt lat="47.30543" lon="13.73721"><ele>2131</ele></trkpt>
    <trkpt lat="47.30571" lon="13.73661"><ele>2118</ele></trkpt>
    <trkpt lat="47.30577" lon="13.73638"><ele>2107</ele></trkpt>
    <trkpt lat="47.30593" lon="13.73627"><ele>2112</ele></trkpt>
    <trkpt lat="47.30596" lon="13.73611"><ele>2118</ele></trkpt>
    <trkpt lat="47.30609" lon="13.73597"><ele>2133</ele></trkpt>
    <trkpt lat="47.30627" lon="13.73592"><ele>2131</ele></trkpt>
    <trkpt lat="47.30643" lon="13.73584"><ele>2133</ele></trkpt>
    <trkpt lat="47.30659" lon="13.73576"><ele>2146</ele></trkpt>
    <trkpt lat="47.30675" lon="13.73565"><ele>2146</ele></trkpt>
    <trkpt lat="47.30692" lon="13.73561"><ele>2157</ele></trkpt>
    <trkpt lat="47.30701" lon="13.73554"><ele>2156</ele></trkpt>
    <trkpt lat="47.30707" lon="13.73538"><ele>2161</ele></trkpt>
    <trkpt lat="47.30723" lon="13.73533"><ele>2166</ele></trkpt>
    <trkpt lat="47.30740" lon="13.73534"><ele>2167</ele></trkpt>
    <trkpt lat="47.30750" lon="13.73524"><ele>2173</ele></trkpt>
    <trkpt lat="47.30760" lon="13.73522"><ele>2173</ele></trkpt>
    <trkpt lat="47.30776" lon="13.73523"><ele>2177</ele></trkpt>
    <trkpt lat="47.30785" lon="13.73519"><ele>2177</ele></trkpt>
    <trkpt lat="47.30795" lon="13.73517"><ele>2174</ele></trkpt>
    <trkpt lat="47.30811" lon="13.73512"><ele>2180</ele></trkpt>
    <trkpt lat="47.30823" lon="13.73525"><ele>2189</ele></trkpt>
    <trkpt lat="47.30834" lon="13.73544"><ele>2212</ele></trkpt>
    <trkpt lat="47.30845" lon="13.73564"><ele>2219</ele></trkpt>
    <trkpt lat="47.30861" lon="13.73576"><ele>2223</ele></trkpt>
    <trkpt lat="47.30866" lon="13.73562"><ele>2228</ele></trkpt>
    <trkpt lat="47.30864" lon="13.73548"><ele>2226</ele></trkpt>
    <trkpt lat="47.30876" lon="13.73534"><ele>2223</ele></trkpt>
    <trkpt lat="47.30883" lon="13.73523"><ele>2237</ele></trkpt>
    <trkpt lat="47.30871" lon="13.73506"><ele>2258</ele></trkpt>
    <trkpt lat="47.30857" lon="13.73494"><ele>2264</ele></trkpt>
    <trkpt lat="47.30865" lon="13.73476"><ele>2270</ele></trkpt>
    <trkpt lat="47.30874" lon="13.73460"><ele>2266</ele></trkpt>
    <trkpt lat="47.30888" lon="13.73453"><ele>2283</ele></trkpt>
    <trkpt lat="47.30902" lon="13.73463"><ele>2285</ele></trkpt>
    <trkpt lat="47.30914" lon="13.73449"><ele>2303</ele></trkpt>
    <trkpt lat="47.30916" lon="13.73424"><ele>2307</ele></trkpt>
    <trkpt lat="47.30916" lon="13.73411"><ele>2311</ele></trkpt>
    <trkpt lat="47.30917" lon="13.73397"><ele>2312</ele></trkpt>
    <trkpt lat="47.30917" lon="13.73370"><ele>2315</ele></trkpt>
    <trkpt lat="47.30928" lon="13.73351"><ele>2319</ele></trkpt>
    <trkpt lat="47.30935" lon="13.73328"><ele>2327</ele></trkpt>
    <trkpt lat="47.30947" lon="13.73314"><ele>2322</ele></trkpt>
    <trkpt lat="47.30935" lon="13.73301"><ele>2336</ele></trkpt>
    <trkpt lat="47.30919" lon="13.73306"><ele>2338</ele></trkpt>
    <trkpt lat="47.30918" lon="13.73289"><ele>2346</ele></trkpt>
    <trkpt lat="47.30903" lon="13.73282"><ele>2355</ele></trkpt>
    <trkpt lat="47.30887" lon="13.73288"><ele>2367</ele></trkpt>
    <trkpt lat="47.30873" lon="13.73302"><ele>2372</ele></trkpt>
    <trkpt lat="47.30862" lon="13.73301"><ele>2383</ele></trkpt>
    <trkpt lat="47.30854" lon="13.73286"><ele>2391</ele></trkpt>
    <trkpt lat="47.30837" lon="13.73298"><ele>2394</ele></trkpt>
    <trkpt lat="47.30821" lon="13.73303"><ele>2400</ele></trkpt>
    <trkpt lat="47.30804" lon="13.73305"><ele>2408</ele></trkpt>
    <trkpt lat="47.30803" lon="13.73282"><ele>2414</ele></trkpt>
    <trkpt lat="47.30787" lon="13.73280"><ele>2415</ele></trkpt>
    <trkpt lat="47.30770" lon="13.73288"><ele>2421</ele></trkpt>
    <trkpt lat="47.30756" lon="13.73291"><ele>2422</ele></trkpt>
    <trkpt lat="47.30745" lon="13.73285"><ele>2425</ele></trkpt>
    <trkpt lat="47.30766" lon="13.73284"><ele>2428</ele></trkpt>
    <trkpt lat="47.30779" lon="13.73279"><ele>2425</ele></trkpt>
    <trkpt lat="47.30789" lon="13.73277"><ele>2422</ele></trkpt>
    <trkpt lat="47.30835" lon="13.73305"><ele>2399</ele></trkpt>
    <trkpt lat="47.30840" lon="13.73294"><ele>2396</ele></trkpt>
    <trkpt lat="47.30855" lon="13.73295"><ele>2387</ele></trkpt>
    <trkpt lat="47.30915" lon="13.73313"><ele>2351</ele></trkpt>
    <trkpt lat="47.30924" lon="13.73306"><ele>2337</ele></trkpt>
    <trkpt lat="47.30957" lon="13.73456"><ele>2294</ele></trkpt>
    <trkpt lat="47.30998" lon="13.73530"><ele>2281</ele></trkpt>
    <trkpt lat="47.31005" lon="13.73543"><ele>2278</ele></trkpt>
    <trkpt lat="47.31003" lon="13.73712"><ele>2236</ele></trkpt>
    <trkpt lat="47.31010" lon="13.73773"><ele>2231</ele></trkpt>
    <trkpt lat="47.31019" lon="13.73783"><ele>2225</ele></trkpt>
    <trkpt lat="47.31025" lon="13.73796"><ele>2223</ele></trkpt>
    <trkpt lat="47.31133" lon="13.73848"><ele>2196</ele></trkpt>
    <trkpt lat="47.31172" lon="13.73893"><ele>2183</ele></trkpt>
    <trkpt lat="47.31211" lon="13.73943"><ele>2180</ele></trkpt>
    <trkpt lat="47.31228" lon="13.74033"><ele>2159</ele></trkpt>
    <trkpt lat="47.31208" lon="13.74005"><ele>2155</ele></trkpt>
    <trkpt lat="47.31184" lon="13.74009"><ele>2155</ele></trkpt>
    <trkpt lat="47.31168" lon="13.74016"><ele>2159</ele></trkpt>
    <trkpt lat="47.31151" lon="13.74017"><ele>2161</ele></trkpt>
    <trkpt lat="47.31134" lon="13.74015"><ele>2159</ele></trkpt>
    <trkpt lat="47.31146" lon="13.74089"><ele>2104</ele></trkpt>
    <trkpt lat="47.31222" lon="13.74150"><ele>2084</ele></trkpt>
    <trkpt lat="47.31295" lon="13.74188"><ele>2067</ele></trkpt>
    <trkpt lat="47.31307" lon="13.74190"><ele>2007</ele></trkpt>
    <trkpt lat="47.31319" lon="13.74185"><ele>2039</ele></trkpt>
    <trkpt lat="47.31330" lon="13.74195"><ele>2030</ele></trkpt>
    <trkpt lat="47.31402" lon="13.74261"><ele>1998</ele></trkpt>
    <trkpt lat="47.31403" lon="13.74307"><ele>1975</ele></trkpt>
    <trkpt lat="47.31399" lon="13.74319"><ele>1969</ele></trkpt>
    <trkpt lat="47.31411" lon="13.74417"><ele>1938</ele></trkpt>
    <trkpt lat="47.31414" lon="13.74431"><ele>1934</ele></trkpt>
    <trkpt lat="47.31419" lon="13.74442"><ele>1936</ele></trkpt>
    <trkpt lat="47.31429" lon="13.74473"><ele>1934</ele></trkpt>
    <trkpt lat="47.31435" lon="13.74486"><ele>1929</ele></trkpt>
    <trkpt lat="47.31440" lon="13.74510"><ele>1927</ele></trkpt>
    <trkpt lat="47.31437" lon="13.74532"><ele>1924</ele></trkpt>
    <trkpt lat="47.31439" lon="13.74550"><ele>1921</ele></trkpt>
    <trkpt lat="47.31439" lon="13.74565"><ele>1926</ele></trkpt>
    <trkpt lat="47.31440" lon="13.74592"><ele>1927</ele></trkpt>
    <trkpt lat="47.31463" lon="13.74655"><ele>1925</ele></trkpt>
    <trkpt lat="47.31494" lon="13.74753"><ele>1902</ele></trkpt>
    <trkpt lat="47.31492" lon="13.74784"><ele>1899</ele></trkpt>
    <trkpt lat="47.31514" lon="13.74847"><ele>1891</ele></trkpt>
    <trkpt lat="47.31552" lon="13.74914"><ele>1870</ele></trkpt>
    <trkpt lat="47.31558" lon="13.74950"><ele>1848</ele></trkpt>
    <trkpt lat="47.31568" lon="13.74960"><ele>1842</ele></trkpt>
    <trkpt lat="47.31657" lon="13.74936"><ele>1826</ele></trkpt>
    <trkpt lat="47.31676" lon="13.74879"><ele>1795</ele></trkpt>
    <trkpt lat="47.31685" lon="13.74873"><ele>1783</ele></trkpt>
    <trkpt lat="47.31685" lon="13.74775"><ele>1758</ele></trkpt>
    <trkpt lat="47.31697" lon="13.74726"><ele>1690</ele></trkpt>
    <trkpt lat="47.31719" lon="13.74718"><ele>1664</ele></trkpt>
    <trkpt lat="47.31725" lon="13.74701"><ele>1693</ele></trkpt>
    <trkpt lat="47.31848" lon="13.74664"><ele>1678</ele></trkpt>
    <trkpt lat="47.31885" lon="13.74659"><ele>1627</ele></trkpt>
    <trkpt lat="47.31914" lon="13.74644"><ele>1668</ele></trkpt>
    <trkpt lat="47.31970" lon="13.74624"><ele>1652</ele></trkpt>
    <trkpt lat="47.32016" lon="13.74593"><ele>1654</ele></trkpt>
    <trkpt lat="47.32025" lon="13.74592"><ele>1660</ele></trkpt>
    <trkpt lat="47.32086" lon="13.74641"><ele>1629</ele></trkpt>
    <trkpt lat="47.32145" lon="13.74603"><ele>1621</ele></trkpt>
    <trkpt lat="47.32177" lon="13.74612"><ele>1604</ele></trkpt>
    <trkpt lat="47.32211" lon="13.74637"><ele>1585</ele></trkpt>
    <trkpt lat="47.32221" lon="13.74669"><ele>1567</ele></trkpt>
    <trkpt lat="47.32255" lon="13.74721"><ele>1539</ele></trkpt>
    <trkpt lat="47.32280" lon="13.74777"><ele>1517</ele></trkpt>
    <trkpt lat="47.32290" lon="13.74788"><ele>1501</ele></trkpt>
    <trkpt lat="47.32341" lon="13.74874"><ele>1476</ele></trkpt>
    <trkpt lat="47.32479" lon="13.74799"><ele>1433</ele></trkpt>
    <trkpt lat="47.32636" lon="13.74733"><ele>1434</ele></trkpt>
    <trkpt lat="47.32675" lon="13.74715"><ele>1426</ele></trkpt>
    <trkpt lat="47.32689" lon="13.74681"><ele>1431</ele></trkpt>
    <trkpt lat="47.32696" lon="13.74657"><ele>1432</ele></trkpt>
    <trkpt lat="47.32704" lon="13.74640"><ele>1430</ele></trkpt>
    <trkpt lat="47.32711" lon="13.74620"><ele>1430</ele></trkpt>
    <trkpt lat="47.32721" lon="13.74599"><ele>1433</ele></trkpt>
    <trkpt lat="47.32728" lon="13.74585"><ele>1434</ele></trkpt>
    <trkpt lat="47.32738" lon="13.74568"><ele>1436</ele></trkpt>
    <trkpt lat="47.32750" lon="13.74559"><ele>1449</ele></trkpt>
    <trkpt lat="47.32761" lon="13.74542"><ele>1448</ele></trkpt>
    <trkpt lat="47.32774" lon="13.74533"><ele>1454</ele></trkpt>
    <trkpt lat="47.32786" lon="13.74523"><ele>1455</ele></trkpt>
    <trkpt lat="47.32792" lon="13.74511"><ele>1449</ele></trkpt>
    <trkpt lat="47.32805" lon="13.74499"><ele>1444</ele></trkpt>
    <trkpt lat="47.32817" lon="13.74481"><ele>1446</ele></trkpt>
    <trkpt lat="47.32827" lon="13.74459"><ele>1445</ele></trkpt>
    <trkpt lat="47.32838" lon="13.74438"><ele>1448</ele></trkpt>
    <trkpt lat="47.32845" lon="13.74416"><ele>1447</ele></trkpt>
    <trkpt lat="47.32863" lon="13.74396"><ele>1452</ele></trkpt>
    <trkpt lat="47.32874" lon="13.74375"><ele>1451</ele></trkpt>
    <trkpt lat="47.32883" lon="13.74354"><ele>1448</ele></trkpt>
    <trkpt lat="47.32928" lon="13.74262"><ele>1433</ele></trkpt>
    <trkpt lat="47.32948" lon="13.74190"><ele>1444</ele></trkpt>
    <trkpt lat="47.32955" lon="13.74177"><ele>1447</ele></trkpt>
    <trkpt lat="47.32974" lon="13.74121"><ele>1450</ele></trkpt>
    <trkpt lat="47.32980" lon="13.74091"><ele>1443</ele></trkpt>
    <trkpt lat="47.32985" lon="13.73987"><ele>1458</ele></trkpt>
    <trkpt lat="47.32966" lon="13.73956"><ele>1460</ele></trkpt>
    <trkpt lat="47.32978" lon="13.73931"><ele>1441</ele></trkpt>
    <trkpt lat="47.32989" lon="13.73912"><ele>1481</ele></trkpt>
    <trkpt lat="47.32929" lon="13.73715"><ele>1447</ele></trkpt>
    <trkpt lat="47.32936" lon="13.73706"><ele>1423</ele></trkpt>
    <trkpt lat="47.33012" lon="13.73654"><ele>1392</ele></trkpt>
    <trkpt lat="47.33025" lon="13.73644"><ele>1388</ele></trkpt>
    <trkpt lat="47.33050" lon="13.73650"><ele>1379</ele></trkpt>
    <trkpt lat="47.33172" lon="13.73664"><ele>1413</ele></trkpt>
    <trkpt lat="47.33173" lon="13.73680"><ele>1362</ele></trkpt>
    <trkpt lat="47.33189" lon="13.73732"><ele>1334</ele></trkpt>
    <trkpt lat="47.33217" lon="13.73804"><ele>1328</ele></trkpt>
    <trkpt lat="47.33211" lon="13.73931"><ele>1320</ele></trkpt>
    <trkpt lat="47.33193" lon="13.73960"><ele>1321</ele></trkpt>
    <trkpt lat="47.33198" lon="13.74018"><ele>1313</ele></trkpt>
    <trkpt lat="47.33203" lon="13.74054"><ele>1305</ele></trkpt>
    <trkpt lat="47.33200" lon="13.74091"><ele>1302</ele></trkpt>
    <trkpt lat="47.33194" lon="13.74114"><ele>1300</ele></trkpt>
    <trkpt lat="47.33157" lon="13.74164"><ele>1308</ele></trkpt>
    <trkpt lat="47.33153" lon="13.74193"><ele>1287</ele></trkpt>
    <trkpt lat="47.33149" lon="13.74222"><ele>1281</ele></trkpt>
    <trkpt lat="47.33147" lon="13.74251"><ele>1279</ele></trkpt>
    <trkpt lat="47.33144" lon="13.74288"><ele>1276</ele></trkpt>
    <trkpt lat="47.33137" lon="13.74318"><ele>1272</ele></trkpt>
    <trkpt lat="47.33146" lon="13.74328"><ele>1267</ele></trkpt>
    <trkpt lat="47.33152" lon="13.74295"><ele>1266</ele></trkpt>
    <trkpt lat="47.33157" lon="13.74267"><ele>1264</ele></trkpt>
    <trkpt lat="47.33170" lon="13.74240"><ele>1257</ele></trkpt>
    <trkpt lat="47.33187" lon="13.74207"><ele>1253</ele></trkpt>
    <trkpt lat="47.33205" lon="13.74194"><ele>1254</ele></trkpt>
    <trkpt lat="47.33222" lon="13.74175"><ele>1253</ele></trkpt>
    <trkpt lat="47.33238" lon="13.74147"><ele>1246</ele></trkpt>
    <trkpt lat="47.33245" lon="13.74114"><ele>1249</ele></trkpt>
    <trkpt lat="47.33254" lon="13.74092"><ele>1250</ele></trkpt>
    <trkpt lat="47.33270" lon="13.74061"><ele>1250</ele></trkpt>
    <trkpt lat="47.33289" lon="13.74040"><ele>1245</ele></trkpt>
    <trkpt lat="47.33306" lon="13.74020"><ele>1253</ele></trkpt>
    <trkpt lat="47.33326" lon="13.73989"><ele>1235</ele></trkpt>
    <trkpt lat="47.33321" lon="13.74031"><ele>1226</ele></trkpt>
    <trkpt lat="47.33304" lon="13.74062"><ele>1226</ele></trkpt>
    <trkpt lat="47.33295" lon="13.74091"><ele>1224</ele></trkpt>
    <trkpt lat="47.33294" lon="13.74123"><ele>1216</ele></trkpt>
    <trkpt lat="47.33295" lon="13.74156"><ele>1213</ele></trkpt>
    <trkpt lat="47.33296" lon="13.74191"><ele>1207</ele></trkpt>
    <trkpt lat="47.33282" lon="13.74221"><ele>1209</ele></trkpt>
    <trkpt lat="47.33262" lon="13.74248"><ele>1206</ele></trkpt>
    <trkpt lat="47.33252" lon="13.74276"><ele>1201</ele></trkpt>
    <trkpt lat="47.33253" lon="13.74296"><ele>1197</ele></trkpt>
    <trkpt lat="47.33261" lon="13.74290"><ele>1205</ele></trkpt>
    <trkpt lat="47.33277" lon="13.74271"><ele>1193</ele></trkpt>
    <trkpt lat="47.33298" lon="13.74244"><ele>1183</ele></trkpt>
    <trkpt lat="47.33313" lon="13.74223"><ele>1182</ele></trkpt>
    <trkpt lat="47.33326" lon="13.74197"><ele>1188</ele></trkpt>
    <trkpt lat="47.33327" lon="13.74161"><ele>1181</ele></trkpt>
    <trkpt lat="47.33339" lon="13.74138"><ele>1176</ele></trkpt>
    <trkpt lat="47.33359" lon="13.74116"><ele>1175</ele></trkpt>
    <trkpt lat="47.33379" lon="13.74101"><ele>1173</ele></trkpt>
    <trkpt lat="47.33393" lon="13.74078"><ele>1164</ele></trkpt>
    <trkpt lat="47.33409" lon="13.74057"><ele>1169</ele></trkpt>
    <trkpt lat="47.33423" lon="13.74036"><ele>1161</ele></trkpt>
    <trkpt lat="47.33434" lon="13.74015"><ele>1153</ele></trkpt>
    <trkpt lat="47.33447" lon="13.73985"><ele>1167</ele></trkpt>
    <trkpt lat="47.33453" lon="13.73957"><ele>1160</ele></trkpt>
    <trkpt lat="47.33466" lon="13.73993"><ele>1147</ele></trkpt>
    <trkpt lat="47.33460" lon="13.74022"><ele>1140</ele></trkpt>
    <trkpt lat="47.33454" lon="13.74049"><ele>1138</ele></trkpt>
    <trkpt lat="47.33452" lon="13.74081"><ele>1139</ele></trkpt>
    <trkpt lat="47.33445" lon="13.74111"><ele>1144</ele></trkpt>
    <trkpt lat="47.33434" lon="13.74144"><ele>1132</ele></trkpt>
    <trkpt lat="47.33420" lon="13.74170"><ele>1128</ele></trkpt>
    <trkpt lat="47.33408" lon="13.74199"><ele>1164</ele></trkpt>
    <trkpt lat="47.33399" lon="13.74233"><ele>1131</ele></trkpt>
    <trkpt lat="47.33388" lon="13.74264"><ele>1125</ele></trkpt>
    <trkpt lat="47.33376" lon="13.74289"><ele>1128</ele></trkpt>
    <trkpt lat="47.33368" lon="13.74311"><ele>1119</ele></trkpt>
    <trkpt lat="47.33358" lon="13.74344"><ele>1114</ele></trkpt>
    <trkpt lat="47.33346" lon="13.74375"><ele>1116</ele></trkpt>
    <trkpt lat="47.33334" lon="13.74400"><ele>1111</ele></trkpt>
    <trkpt lat="47.33334" lon="13.74423"><ele>1100</ele></trkpt>
    <trkpt lat="47.33345" lon="13.74405"><ele>1116</ele></trkpt>
    <trkpt lat="47.33362" lon="13.74381"><ele>1100</ele></trkpt>
    <trkpt lat="47.33376" lon="13.74356"><ele>1094</ele></trkpt>
    <trkpt lat="47.33395" lon="13.74337"><ele>1092</ele></trkpt>
    <trkpt lat="47.33410" lon="13.74319"><ele>1095</ele></trkpt>
    <trkpt lat="47.33430" lon="13.74300"><ele>1081</ele></trkpt>
    <trkpt lat="47.33447" lon="13.74279"><ele>1101</ele></trkpt>
    <trkpt lat="47.33467" lon="13.74261"><ele>1119</ele></trkpt>
    <trkpt lat="47.33488" lon="13.74243"><ele>1081</ele></trkpt>
    <trkpt lat="47.33506" lon="13.74229"><ele>1080</ele></trkpt>
    <trkpt lat="47.33520" lon="13.74209"><ele>1102</ele></trkpt>
    <trkpt lat="47.33534" lon="13.74181"><ele>1080</ele></trkpt>
    <trkpt lat="47.33550" lon="13.74181"><ele>1067</ele></trkpt>
    <trkpt lat="47.33594" lon="13.74275"><ele>1055</ele></trkpt>
    <trkpt lat="47.33631" lon="13.74313"><ele>1042</ele></trkpt>
    <trkpt lat="47.33665" lon="13.74294"><ele>1041</ele></trkpt>
    <trkpt lat="47.33695" lon="13.74287"><ele>1037</ele></trkpt>
    <trkpt lat="47.33704" lon="13.74284"><ele>1030</ele></trkpt>
    <trkpt lat="47.33717" lon="13.74281"><ele>1032</ele></trkpt>
    <trkpt lat="47.33727" lon="13.74280"><ele>1034</ele></trkpt>
    <trkpt lat="47.33749" lon="13.74276"><ele>1049</ele></trkpt>
  </trkseg>
</trk>
</gpx>