<?xml version="1.0" encoding="UTF-8"?>
<gpx version="1.1" creator="Gpx-Optimizer" xmlns="http://www.topografix.com/GPX/1/1">
<trk>
  <name>Mtb_GasteinPatschgstuhl</name>
  <type>bicycle</type>
  <trkseg>
    <trkpt lat="47.10170" lon="13.12752"><ele>1111</ele></trkpt>
    <trkpt lat="47.10177" lon="13.12728"><ele>1090</ele></trkpt>
    <trkpt lat="47.10188" lon="13.12803"><ele>1096</ele></trkpt>
    <trkpt lat="47.10280" lon="13.12805"><ele>1094</ele></trkpt>
    <trkpt lat="47.10307" lon="13.12922"><ele>1091</ele></trkpt>
    <trkpt lat="47.10352" lon="13.13025"><ele>1096</ele></trkpt>
    <trkpt lat="47.10431" lon="13.13132"><ele>1097</ele></trkpt>
    <trkpt lat="47.10514" lon="13.13216"><ele>1094</ele></trkpt>
    <trkpt lat="47.10613" lon="13.13263"><ele>1091</ele></trkpt>
    <trkpt lat="47.10700" lon="13.13326"><ele>1091</ele></trkpt>
    <trkpt lat="47.10726" lon="13.13418"><ele>1094</ele></trkpt>
    <trkpt lat="47.10751" lon="13.13469"><ele>1093</ele></trkpt>
    <trkpt lat="47.10746" lon="13.13522"><ele>1091</ele></trkpt>
    <trkpt lat="47.10713" lon="13.13570"><ele>1087</ele></trkpt>
    <trkpt lat="47.10706" lon="13.13586"><ele>1088</ele></trkpt>
    <trkpt lat="47.10694" lon="13.13595"><ele>1086</ele></trkpt>
    <trkpt lat="47.10664" lon="13.13625"><ele>1086</ele></trkpt>
    <trkpt lat="47.10642" lon="13.13664"><ele>1092</ele></trkpt>
    <trkpt lat="47.10640" lon="13.13708"><ele>1099</ele></trkpt>
    <trkpt lat="47.10636" lon="13.13744"><ele>1108</ele></trkpt>
    <trkpt lat="47.10613" lon="13.13765"><ele>1106</ele></trkpt>
    <trkpt lat="47.10606" lon="13.13771"><ele>1109</ele></trkpt>
    <trkpt lat="47.10587" lon="13.13796"><ele>1113</ele></trkpt>
    <trkpt lat="47.10569" lon="13.13803"><ele>1121</ele></trkpt>
    <trkpt lat="47.10560" lon="13.13802"><ele>1122</ele></trkpt>
    <trkpt lat="47.10533" lon="13.13791"><ele>1118</ele></trkpt>
    <trkpt lat="47.10509" lon="13.13778"><ele>1136</ele></trkpt>
    <trkpt lat="47.10485" lon="13.13763"><ele>1145</ele></trkpt>
    <trkpt lat="47.10463" lon="13.13746"><ele>1150</ele></trkpt>
    <trkpt lat="47.10442" lon="13.13730"><ele>1156</ele></trkpt>
    <trkpt lat="47.10414" lon="13.13715"><ele>1163</ele></trkpt>
    <trkpt lat="47.10407" lon="13.13695"><ele>1170</ele></trkpt>
    <trkpt lat="47.10389" lon="13.13644"><ele>1182</ele></trkpt>
    <trkpt lat="47.10387" lon="13.13596"><ele>1176</ele></trkpt>
    <trkpt lat="47.10377" lon="13.13558"><ele>1174</ele></trkpt>
    <trkpt lat="47.10381" lon="13.13516"><ele>1177</ele></trkpt>
    <trkpt lat="47.10381" lon="13.13478"><ele>1175</ele></trkpt>
    <trkpt lat="47.10381" lon="13.13450"><ele>1176</ele></trkpt>
    <trkpt lat="47.10371" lon="13.13419"><ele>1181</ele></trkpt>
    <trkpt lat="47.10358" lon="13.13405"><ele>1187</ele></trkpt>
    <trkpt lat="47.10340" lon="13.13393"><ele>1196</ele></trkpt>
    <trkpt lat="47.10314" lon="13.13377"><ele>1205</ele></trkpt>
    <trkpt lat="47.10284" lon="13.13360"><ele>1207</ele></trkpt>
    <trkpt lat="47.10258" lon="13.13351"><ele>1207</ele></trkpt>
    <trkpt lat="47.10230" lon="13.13338"><ele>1217</ele></trkpt>
    <trkpt lat="47.10212" lon="13.13325"><ele>1223</ele></trkpt>
    <trkpt lat="47.10180" lon="13.13309"><ele>1220</ele></trkpt>
    <trkpt lat="47.10204" lon="13.13321"><ele>1239</ele></trkpt>
    <trkpt lat="47.10226" lon="13.13358"><ele>1245</ele></trkpt>
    <trkpt lat="47.10237" lon="13.13393"><ele>1237</ele></trkpt>
    <trkpt lat="47.10241" lon="13.13428"><ele>1239</ele></trkpt>
    <trkpt lat="47.10210" lon="13.13446"><ele>1243</ele></trkpt>
    <trkpt lat="47.10178" lon="13.13449"><ele>1251</ele></trkpt>
    <trkpt lat="47.10145" lon="13.13437"><ele>1262</ele></trkpt>
    <trkpt lat="47.10126" lon="13.13427"><ele>1213</ele></trkpt>
    <trkpt lat="47.10098" lon="13.13405"><ele>1222</ele></trkpt>
    <trkpt lat="47.10074" lon="13.13383"><ele>1267</ele></trkpt>
    <trkpt lat="47.10047" lon="13.13353"><ele>1267</ele></trkpt>
    <trkpt lat="47.10027" lon="13.13326"><ele>1255</ele></trkpt>
    <trkpt lat="47.10009" lon="13.13296"><ele>1243</ele></trkpt>
    <trkpt lat="47.09989" lon="13.13293"><ele>1259</ele></trkpt>
    <trkpt lat="47.09971" lon="13.13276"><ele>1222</ele></trkpt>
    <trkpt lat="47.09955" lon="13.13255"><ele>1265</ele></trkpt>
    <trkpt lat="47.09933" lon="13.13241"><ele>1264</ele></trkpt>
    <trkpt lat="47.09916" lon="13.13232"><ele>1267</ele></trkpt>
    <trkpt lat="47.09889" lon="13.13226"><ele>1274</ele></trkpt>
    <trkpt lat="47.09877" lon="13.13205"><ele>1257</ele></trkpt>
    <trkpt lat="47.09854" lon="13.13197"><ele>1279</ele></trkpt>
    <trkpt lat="47.09831" lon="13.13166"><ele>1275</ele></trkpt>
    <trkpt lat="47.09807" lon="13.13137"><ele>1276</ele></trkpt>
    <trkpt lat="47.09788" lon="13.13130"><ele>1283</ele></trkpt>
    <trkpt lat="47.09768" lon="13.13112"><ele>1285</ele></trkpt>
    <trkpt lat="47.09748" lon="13.13104"><ele>1291</ele></trkpt>
    <trkpt lat="47.09723" lon="13.13102"><ele>1299</ele></trkpt>
    <trkpt lat="47.09699" lon="13.13097"><ele>1296</ele></trkpt>
    <trkpt lat="47.09677" lon="13.13102"><ele>1307</ele></trkpt>
    <trkpt lat="47.09648" lon="13.13097"><ele>1305</ele></trkpt>
    <trkpt lat="47.09625" lon="13.13091"><ele>1309</ele></trkpt>
    <trkpt lat="47.09597" lon="13.13096"><ele>1292</ele></trkpt>
    <trkpt lat="47.09569" lon="13.13088"><ele>1319</ele></trkpt>
    <trkpt lat="47.09544" lon="13.13072"><ele>1327</ele></trkpt>
    <trkpt lat="47.09521" lon="13.13066"><ele>1329</ele></trkpt>
    <trkpt lat="47.09495" lon="13.13058"><ele>1336</ele></trkpt>
    <trkpt lat="47.09469" lon="13.13053"><ele>1349</ele></trkpt>
    <trkpt lat="47.09444" lon="13.13046"><ele>1346</ele></trkpt>
    <trkpt lat="47.09420" lon="13.13036"><ele>1334</ele></trkpt>
    <trkpt lat="47.09393" lon="13.13024"><ele>1336</ele></trkpt>
    <trkpt lat="47.09363" lon="13.13014"><ele>1342</ele></trkpt>
    <trkpt lat="47.09336" lon="13.12998"><ele>1331</ele></trkpt>
    <trkpt lat="47.09307" lon="13.12992"><ele>1350</ele></trkpt>
    <trkpt lat="47.09281" lon="13.12988"><ele>1256</ele></trkpt>
    <trkpt lat="47.09260" lon="13.12987"><ele>1354</ele></trkpt>
    <trkpt lat="47.09270" lon="13.13008"><ele>1356</ele></trkpt>
    <trkpt lat="47.09281" lon="13.13037"><ele>1360</ele></trkpt>
    <trkpt lat="47.09297" lon="13.13071"><ele>1352</ele></trkpt>
    <trkpt lat="47.09312" lon="13.13100"><ele>1361</ele></trkpt>
    <trkpt lat="47.09328" lon="13.13117"><ele>1363</ele></trkpt>
    <trkpt lat="47.09341" lon="13.13150"><ele>1368</ele></trkpt>
    <trkpt lat="47.09353" lon="13.13185"><ele>1376</ele></trkpt>
    <trkpt lat="47.09366" lon="13.13207"><ele>1378</ele></trkpt>
    <trkpt lat="47.09381" lon="13.13233"><ele>1383</ele></trkpt>
    <trkpt lat="47.09394" lon="13.13253"><ele>1366</ele></trkpt>
    <trkpt lat="47.09409" lon="13.13273"><ele>1385</ele></trkpt>
    <trkpt lat="47.09411" lon="13.13298"><ele>1385</ele></trkpt>
    <trkpt lat="47.09380" lon="13.13300"><ele>1401</ele></trkpt>
    <trkpt lat="47.09340" lon="13.13288"><ele>1410</ele></trkpt>
    <trkpt lat="47.09310" lon="13.13266"><ele>1410</ele></trkpt>
    <trkpt lat="47.09292" lon="13.13238"><ele>1402</ele></trkpt>
    <trkpt lat="47.09265" lon="13.13220"><ele>1411</ele></trkpt>
    <trkpt lat="47.09238" lon="13.13191"><ele>1412</ele></trkpt>
    <trkpt lat="47.09211" lon="13.13155"><ele>1406</ele></trkpt>
    <trkpt lat="47.09187" lon="13.13124"><ele>1412</ele></trkpt>
    <trkpt lat="47.09158" lon="13.13088"><ele>1414</ele></trkpt>
    <trkpt lat="47.09131" lon="13.13057"><ele>1420</ele></trkpt>
    <trkpt lat="47.09098" lon="13.13040"><ele>1416</ele></trkpt>
    <trkpt lat="47.09066" lon="13.13028"><ele>1424</ele></trkpt>
    <trkpt lat="47.09019" lon="13.13009"><ele>1428</ele></trkpt>
    <trkpt lat="47.08946" lon="13.12993"><ele>1375</ele></trkpt>
    <trkpt lat="47.08877" lon="13.12984"><ele>1429</ele></trkpt>
    <trkpt lat="47.08794" lon="13.12961"><ele>1429</ele></trkpt>
    <trkpt lat="47.08731" lon="13.12925"><ele>1441</ele></trkpt>
    <trkpt lat="47.08694" lon="13.12930"><ele>1448</ele></trkpt>
    <trkpt lat="47.08672" lon="13.12943"><ele>1448</ele></trkpt>
    <trkpt lat="47.08654" lon="13.12960"><ele>1432</ele></trkpt>
    <trkpt lat="47.08619" lon="13.12986"><ele>1443</ele></trkpt>
    <trkpt lat="47.08597" lon="13.13019"><ele>1385</ele></trkpt>
    <trkpt lat="47.08579" lon="13.13048"><ele>1441</ele></trkpt>
    <trkpt lat="47.08554" lon="13.13072"><ele>1450</ele></trkpt>
    <trkpt lat="47.08541" lon="13.13096"><ele>1382</ele></trkpt>
    <trkpt lat="47.08561" lon="13.13107"><ele>1442</ele></trkpt>
    <trkpt lat="47.08579" lon="13.13092"><ele>1452</ele></trkpt>
    <trkpt lat="47.08599" lon="13.13077"><ele>1387</ele></trkpt>
    <trkpt lat="47.08617" lon="13.13068"><ele>1458</ele></trkpt>
    <trkpt lat="47.08637" lon="13.13068"><ele>1466</ele></trkpt>
    <trkpt lat="47.08657" lon="13.13064"><ele>1438</ele></trkpt>
    <trkpt lat="47.08678" lon="13.13060"><ele>1477</ele></trkpt>
    <trkpt lat="47.08689" lon="13.13064"><ele>1476</ele></trkpt>
    <trkpt lat="47.08710" lon="13.13064"><ele>1417</ele></trkpt>
    <trkpt lat="47.08737" lon="13.13072"><ele>1423</ele></trkpt>
    <trkpt lat="47.08756" lon="13.13082"><ele>1479</ele></trkpt>
    <trkpt lat="47.08778" lon="13.13089"><ele>1482</ele></trkpt>
    <trkpt lat="47.08803" lon="13.13112"><ele>1404</ele></trkpt>
    <trkpt lat="47.08827" lon="13.13126"><ele>1478</ele></trkpt>
    <trkpt lat="47.08856" lon="13.13138"><ele>1439</ele></trkpt>
    <trkpt lat="47.08878" lon="13.13146"><ele>1489</ele></trkpt>
    <trkpt lat="47.08902" lon="13.13174"><ele>1494</ele></trkpt>
    <trkpt lat="47.08919" lon="13.13186"><ele>1452</ele></trkpt>
    <trkpt lat="47.08942" lon="13.13195"><ele>1507</ele></trkpt>
    <trkpt lat="47.08960" lon="13.13222"><ele>1506</ele></trkpt>
    <trkpt lat="47.08974" lon="13.13252"><ele>1506</ele></trkpt>
    <trkpt lat="47.08989" lon="13.13272"><ele>1515</ele></trkpt>
    <trkpt lat="47.09007" lon="13.13291"><ele>1515</ele></trkpt>
    <trkpt lat="47.09028" lon="13.13309"><ele>1520</ele></trkpt>
    <trkpt lat="47.09049" lon="13.13322"><ele>1525</ele></trkpt>
    <trkpt lat="47.09072" lon="13.13358"><ele>1525</ele></trkpt>
    <trkpt lat="47.09097" lon="13.13383"><ele>1528</ele></trkpt>
    <trkpt lat="47.09111" lon="13.13391"><ele>1536</ele></trkpt>
    <trkpt lat="47.09130" lon="13.13413"><ele>1484</ele></trkpt>
    <trkpt lat="47.09149" lon="13.13433"><ele>1537</ele></trkpt>
    <trkpt lat="47.09174" lon="13.13447"><ele>1543</ele></trkpt>
    <trkpt lat="47.09199" lon="13.13472"><ele>1546</ele></trkpt>
    <trkpt lat="47.09220" lon="13.13493"><ele>1552</ele></trkpt>
    <trkpt lat="47.09238" lon="13.13533"><ele>1557</ele></trkpt>
    <trkpt lat="47.09246" lon="13.13559"><ele>1563</ele></trkpt>
    <trkpt lat="47.09251" lon="13.13581"><ele>1566</ele></trkpt>
    <trkpt lat="47.09268" lon="13.13591"><ele>1567</ele></trkpt>
    <trkpt lat="47.09286" lon="13.13608"><ele>1569</ele></trkpt>
    <trkpt lat="47.09299" lon="13.13639"><ele>1565</ele></trkpt>
    <trkpt lat="47.09302" lon="13.13666"><ele>1563</ele></trkpt>
    <trkpt lat="47.09314" lon="13.13702"><ele>1562</ele></trkpt>
    <trkpt lat="47.09330" lon="13.13718"><ele>1566</ele></trkpt>
    <trkpt lat="47.09352" lon="13.13748"><ele>1574</ele></trkpt>
    <trkpt lat="47.09375" lon="13.13782"><ele>1580</ele></trkpt>
    <trkpt lat="47.09395" lon="13.13807"><ele>1583</ele></trkpt>
    <trkpt lat="47.09409" lon="13.13830"><ele>1580</ele></trkpt>
    <trkpt lat="47.09424" lon="13.13857"><ele>1588</ele></trkpt>
    <trkpt lat="47.09438" lon="13.13877"><ele>1594</ele></trkpt>
    <trkpt lat="47.09458" lon="13.13893"><ele>1603</ele></trkpt>
    <trkpt lat="47.09477" lon="13.13918"><ele>1601</ele></trkpt>
    <trkpt lat="47.09497" lon="13.13935"><ele>1608</ele></trkpt>
    <trkpt lat="47.09517" lon="13.13957"><ele>1611</ele></trkpt>
    <trkpt lat="47.09540" lon="13.13988"><ele>1611</ele></trkpt>
    <trkpt lat="47.09567" lon="13.14015"><ele>1610</ele></trkpt>
    <trkpt lat="47.09592" lon="13.14047"><ele>1613</ele></trkpt>
    <trkpt lat="47.09614" lon="13.14064"><ele>1617</ele></trkpt>
    <trkpt lat="47.09635" lon="13.14076"><ele>1614</ele></trkpt>
    <trkpt lat="47.09661" lon="13.14095"><ele>1620</ele></trkpt>
    <trkpt lat="47.09685" lon="13.14111"><ele>1622</ele></trkpt>
    <trkpt lat="47.09707" lon="13.14119"><ele>1623</ele></trkpt>
    <trkpt lat="47.09735" lon="13.14136"><ele>1628</ele></trkpt>
    <trkpt lat="47.09753" lon="13.14156"><ele>1633</ele></trkpt>
    <trkpt lat="47.09774" lon="13.14176"><ele>1639</ele></trkpt>
    <trkpt lat="47.09791" lon="13.14204"><ele>1643</ele></trkpt>
    <trkpt lat="47.09811" lon="13.14230"><ele>1648</ele></trkpt>
    <trkpt lat="47.09832" lon="13.14267"><ele>1646</ele></trkpt>
    <trkpt lat="47.09850" lon="13.14294"><ele>1647</ele></trkpt>
    <trkpt lat="47.09868" lon="13.14317"><ele>1662</ele></trkpt>
    <trkpt lat="47.09878" lon="13.14341"><ele>1657</ele></trkpt>
    <trkpt lat="47.09851" lon="13.14325"><ele>1664</ele></trkpt>
    <trkpt lat="47.09840" lon="13.14301"><ele>1664</ele></trkpt>
    <trkpt lat="47.09816" lon="13.14281"><ele>1672</ele></trkpt>
    <trkpt lat="47.09797" lon="13.14269"><ele>1670</ele></trkpt>
    <trkpt lat="47.09777" lon="13.14268"><ele>1679</ele></trkpt>
    <trkpt lat="47.09762" lon="13.14263"><ele>1658</ele></trkpt>
    <trkpt lat="47.09741" lon="13.14251"><ele>1692</ele></trkpt>
    <trkpt lat="47.09720" lon="13.14246"><ele>1665</ele></trkpt>
    <trkpt lat="47.09703" lon="13.14240"><ele>1691</ele></trkpt>
    <trkpt lat="47.09682" lon="13.14233"><ele>1710</ele></trkpt>
    <trkpt lat="47.09660" lon="13.14230"><ele>1722</ele></trkpt>
    <trkpt lat="47.09635" lon="13.14223"><ele>1717</ele></trkpt>
    <trkpt lat="47.09613" lon="13.14216"><ele>1723</ele></trkpt>
    <trkpt lat="47.09587" lon="13.14210"><ele>1635</ele></trkpt>
    <trkpt lat="47.09572" lon="13.14214"><ele>1722</ele></trkpt>
    <trkpt lat="47.09590" lon="13.14230"><ele>1711</ele></trkpt>
    <trkpt lat="47.09612" lon="13.14239"><ele>1720</ele></trkpt>
    <trkpt lat="47.09630" lon="13.14259"><ele>1717</ele></trkpt>
    <trkpt lat="47.09655" lon="13.14279"><ele>1720</ele></trkpt>
    <trkpt lat="47.09675" lon="13.14298"><ele>1724</ele></trkpt>
    <trkpt lat="47.09693" lon="13.14310"><ele>1728</ele></trkpt>
    <trkpt lat="47.09713" lon="13.14331"><ele>1732</ele></trkpt>
    <trkpt lat="47.09695" lon="13.14337"><ele>1737</ele></trkpt>
    <trkpt lat="47.09672" lon="13.14320"><ele>1737</ele></trkpt>
    <trkpt lat="47.09647" lon="13.14328"><ele>1662</ele></trkpt>
    <trkpt lat="47.09629" lon="13.14334"><ele>1754</ele></trkpt>
    <trkpt lat="47.09612" lon="13.14327"><ele>1759</ele></trkpt>
    <trkpt lat="47.09582" lon="13.14328"><ele>1749</ele></trkpt>
    <trkpt lat="47.09554" lon="13.14321"><ele>1764</ele></trkpt>
    <trkpt lat="47.09525" lon="13.14309"><ele>1742</ele></trkpt>
    <trkpt lat="47.09501" lon="13.14293"><ele>1769</ele></trkpt>
    <trkpt lat="47.09478" lon="13.14283"><ele>1778</ele></trkpt>
    <trkpt lat="47.09455" lon="13.14287"><ele>1778</ele></trkpt>
    <trkpt lat="47.09435" lon="13.14285"><ele>1778</ele></trkpt>
    <trkpt lat="47.09426" lon="13.14279"><ele>1776</ele></trkpt>
    <trkpt lat="47.09402" lon="13.14267"><ele>1748</ele></trkpt>
    <trkpt lat="47.09381" lon="13.14250"><ele>1774</ele></trkpt>
    <trkpt lat="47.09363" lon="13.14232"><ele>1776</ele></trkpt>
    <trkpt lat="47.09346" lon="13.14219"><ele>1778</ele></trkpt>
    <trkpt lat="47.09325" lon="13.14212"><ele>1784</ele></trkpt>
    <trkpt lat="47.09306" lon="13.14197"><ele>1787</ele></trkpt>
    <trkpt lat="47.09289" lon="13.14176"><ele>1786</ele></trkpt>
    <trkpt lat="47.09273" lon="13.14162"><ele>1790</ele></trkpt>
    <trkpt lat="47.09260" lon="13.14151"><ele>1791</ele></trkpt>
    <trkpt lat="47.09241" lon="13.14137"><ele>1752</ele></trkpt>
    <trkpt lat="47.09219" lon="13.14128"><ele>1794</ele></trkpt>
    <trkpt lat="47.09205" lon="13.14109"><ele>1657</ele></trkpt>
    <trkpt lat="47.09188" lon="13.14113"><ele>1800</ele></trkpt>
    <trkpt lat="47.09159" lon="13.14111"><ele>1815</ele></trkpt>
    <trkpt lat="47.09135" lon="13.14094"><ele>1776</ele></trkpt>
    <trkpt lat="47.09113" lon="13.14074"><ele>1812</ele></trkpt>
    <trkpt lat="47.09095" lon="13.14051"><ele>1816</ele></trkpt>
    <trkpt lat="47.09078" lon="13.14031"><ele>1810</ele></trkpt>
    <trkpt lat="47.09055" lon="13.14012"><ele>1822</ele></trkpt>
    <trkpt lat="47.09037" lon="13.14004"><ele>1553</ele></trkpt>
    <trkpt lat="47.09014" lon="13.14002"><ele>1558</ele></trkpt>
    <trkpt lat="47.08992" lon="13.13998"><ele>1500</ele></trkpt>
    <trkpt lat="47.08965" lon="13.14000"><ele>1820</ele></trkpt>
    <trkpt lat="47.08944" lon="13.14000"><ele>1836</ele></trkpt>
    <trkpt lat="47.08923" lon="13.13996"><ele>1825</ele></trkpt>
    <trkpt lat="47.08901" lon="13.13993"><ele>1841</ele></trkpt>
    <trkpt lat="47.08879" lon="13.13996"><ele>1847</ele></trkpt>
    <trkpt lat="47.08851" lon="13.13992"><ele>1854</ele></trkpt>
    <trkpt lat="47.08835" lon="13.13989"><ele>1854</ele></trkpt>
    <trkpt lat="47.08811" lon="13.13984"><ele>1856</ele></trkpt>
    <trkpt lat="47.08790" lon="13.13983"><ele>1646</ele></trkpt>
    <trkpt lat="47.08790" lon="13.14005"><ele>1856</ele></trkpt>
    <trkpt lat="47.08818" lon="13.14023"><ele>1862</ele></trkpt>
    <trkpt lat="47.08838" lon="13.14039"><ele>1867</ele></trkpt>
    <trkpt lat="47.08852" lon="13.14061"><ele>1868</ele></trkpt>
    <trkpt lat="47.08858" lon="13.14077"><ele>1874</ele></trkpt>
    <trkpt lat="47.08884" lon="13.14113"><ele>1875</ele></trkpt>
    <trkpt lat="47.08905" lon="13.14132"><ele>1873</ele></trkpt>
    <trkpt lat="47.08930" lon="13.14138"><ele>1877</ele></trkpt>
    <trkpt lat="47.08913" lon="13.14141"><ele>1885</ele></trkpt>
    <trkpt lat="47.08890" lon="13.14136"><ele>1877</ele></trkpt>
    <trkpt lat="47.08868" lon="13.14123"><ele>1820</ele></trkpt>
    <trkpt lat="47.08845" lon="13.14103"><ele>1886</ele></trkpt>
    <trkpt lat="47.08818" lon="13.14087"><ele>1895</ele></trkpt>
    <trkpt lat="47.08798" lon="13.14077"><ele>1890</ele></trkpt>
    <trkpt lat="47.08771" lon="13.14076"><ele>1898</ele></trkpt>
    <trkpt lat="47.08743" lon="13.14084"><ele>1906</ele></trkpt>
    <trkpt lat="47.08729" lon="13.14085"><ele>1903</ele></trkpt>
    <trkpt lat="47.08711" lon="13.14100"><ele>1909</ele></trkpt>
    <trkpt lat="47.08696" lon="13.14113"><ele>1910</ele></trkpt>
    <trkpt lat="47.08680" lon="13.14130"><ele>1916</ele></trkpt>
    <trkpt lat="47.08662" lon="13.14145"><ele>1922</ele></trkpt>
    <trkpt lat="47.08650" lon="13.14169"><ele>1926</ele></trkpt>
    <trkpt lat="47.08674" lon="13.14163"><ele>1926</ele></trkpt>
    <trkpt lat="47.08691" lon="13.14156"><ele>1926</ele></trkpt>
    <trkpt lat="47.08712" lon="13.14162"><ele>1929</ele></trkpt>
    <trkpt lat="47.08729" lon="13.14172"><ele>1930</ele></trkpt>
    <trkpt lat="47.08742" lon="13.14185"><ele>1927</ele></trkpt>
    <trkpt lat="47.08765" lon="13.14203"><ele>1930</ele></trkpt>
    <trkpt lat="47.08788" lon="13.14216"><ele>1937</ele></trkpt>
    <trkpt lat="47.08805" lon="13.14231"><ele>1942</ele></trkpt>
    <trkpt lat="47.08822" lon="13.14243"><ele>1943</ele></trkpt>
    <trkpt lat="47.08835" lon="13.14249"><ele>1945</ele></trkpt>
    <trkpt lat="47.08850" lon="13.14253"><ele>1950</ele></trkpt>
    <trkpt lat="47.08862" lon="13.14266"><ele>1950</ele></trkpt>
    <trkpt lat="47.08874" lon="13.14280"><ele>1953</ele></trkpt>
    <trkpt lat="47.08887" lon="13.14290"><ele>1955</ele></trkpt>
    <trkpt lat="47.08903" lon="13.14304"><ele>1956</ele></trkpt>
    <trkpt lat="47.08913" lon="13.14306"><ele>1962</ele></trkpt>
    <trkpt lat="47.08927" lon="13.14321"><ele>1963</ele></trkpt>
    <trkpt lat="47.08915" lon="13.14321"><ele>1959</ele></trkpt>
    <trkpt lat="47.08893" lon="13.14316"><ele>1891</ele></trkpt>
    <trkpt lat="47.08874" lon="13.14309"><ele>1961</ele></trkpt>
    <trkpt lat="47.08856" lon="13.14302"><ele>1968</ele></trkpt>
    <trkpt lat="47.08831" lon="13.14297"><ele>1971</ele></trkpt>
    <trkpt lat="47.08808" lon="13.14297"><ele>1980</ele></trkpt>
    <trkpt lat="47.08786" lon="13.14297"><ele>1982</ele></trkpt>
    <trkpt lat="47.08767" lon="13.14293"><ele>1977</ele></trkpt>
    <trkpt lat="47.08746" lon="13.14292"><ele>1960</ele></trkpt>
    <trkpt lat="47.08738" lon="13.14309"><ele>1988</ele></trkpt>
    <trkpt lat="47.08771" lon="13.14321"><ele>1989</ele></trkpt>
    <trkpt lat="47.08797" lon="13.14328"><ele>1992</ele></trkpt>
    <trkpt lat="47.08816" lon="13.14347"><ele>1993</ele></trkpt>
    <trkpt lat="47.08836" lon="13.14366"><ele>1996</ele></trkpt>
    <trkpt lat="47.08854" lon="13.14373"><ele>1999</ele></trkpt>
    <trkpt lat="47.08868" lon="13.14383"><ele>1997</ele></trkpt>
    <trkpt lat="47.08888" lon="13.14402"><ele>2002</ele></trkpt>
    <trkpt lat="47.08908" lon="13.14415"><ele>2007</ele></trkpt>
    <trkpt lat="47.08925" lon="13.14419"><ele>2008</ele></trkpt>
    <trkpt lat="47.08942" lon="13.14424"><ele>2008</ele></trkpt>
    <trkpt lat="47.08969" lon="13.14426"><ele>2017</ele></trkpt>
    <trkpt lat="47.08987" lon="13.14438"><ele>2017</ele></trkpt>
    <trkpt lat="47.08998" lon="13.14455"><ele>2019</ele></trkpt>
    <trkpt lat="47.09006" lon="13.14476"><ele>2020</ele></trkpt>
    <trkpt lat="47.09025" lon="13.14501"><ele>2026</ele></trkpt>
    <trkpt lat="47.09038" lon="13.14519"><ele>2029</ele></trkpt>
    <trkpt lat="47.09052" lon="13.14550"><ele>2028</ele></trkpt>
    <trkpt lat="47.09066" lon="13.14569"><ele>2029</ele></trkpt>
    <trkpt lat="47.09076" lon="13.14578"><ele>2028</ele></trkpt>
    <trkpt lat="47.09100" lon="13.14603"><ele>2038</ele></trkpt>
    <trkpt lat="47.09118" lon="13.14619"><ele>2042</ele></trkpt>
    <trkpt lat="47.09132" lon="13.14638"><ele>2044</ele></trkpt>
    <trkpt lat="47.09143" lon="13.14648"><ele>2045</ele></trkpt>
    <trkpt lat="47.09134" lon="13.14652"><ele>2052</ele></trkpt>
    <trkpt lat="47.09109" lon="13.14659"><ele>2052</ele></trkpt>
    <trkpt lat="47.09095" lon="13.14640"><ele>2043</ele></trkpt>
    <trkpt lat="47.09080" lon="13.14618"><ele>2045</ele></trkpt>
    <trkpt lat="47.09058" lon="13.14608"><ele>2058</ele></trkpt>
    <trkpt lat="47.09035" lon="13.14605"><ele>2060</ele></trkpt>
    <trkpt lat="47.09017" lon="13.14592"><ele>2062</ele></trkpt>
    <trkpt lat="47.08999" lon="13.14571"><ele>2063</ele></trkpt>
    <trkpt lat="47.08977" lon="13.14558"><ele>2062</ele></trkpt>
    <trkpt lat="47.08947" lon="13.14561"><ele>2067</ele></trkpt>
    <trkpt lat="47.08929" lon="13.14539"><ele>2069</ele></trkpt>
    <trkpt lat="47.08896" lon="13.14516"><ele>2050</ele></trkpt>
    <trkpt lat="47.08868" lon="13.14519"><ele>2050</ele></trkpt>
    <trkpt lat="47.08837" lon="13.14520"><ele>2075</ele></trkpt>
    <trkpt lat="47.08809" lon="13.14503"><ele>2063</ele></trkpt>
    <trkpt lat="47.08780" lon="13.14497"><ele>2082</ele></trkpt>
    <trkpt lat="47.08762" lon="13.14504"><ele>2083</ele></trkpt>
    <trkpt lat="47.08748" lon="13.14504"><ele>2084</ele></trkpt>
    <trkpt lat="47.08732" lon="13.14505"><ele>2087</ele></trkpt>
    <trkpt lat="47.08716" lon="13.14506"><ele>2093</ele></trkpt>
    <trkpt lat="47.08703" lon="13.14500"><ele>2098</ele></trkpt>
    <trkpt lat="47.08678" lon="13.14507"><ele>2104</ele></trkpt>
    <trkpt lat="47.08665" lon="13.14505"><ele>2104</ele></trkpt>
    <trkpt lat="47.08651" lon="13.14514"><ele>2106</ele></trkpt>
    <trkpt lat="47.08638" lon="13.14528"><ele>2102</ele></trkpt>
    <trkpt lat="47.08626" lon="13.14546"><ele>1745</ele></trkpt>
    <trkpt lat="47.08644" lon="13.14525"><ele>2109</ele></trkpt>
    <trkpt lat="47.08660" lon="13.14516"><ele>2108</ele></trkpt>
    <trkpt lat="47.08726" lon="13.14511"><ele>2097</ele></trkpt>
    <trkpt lat="47.08769" lon="13.14511"><ele>2088</ele></trkpt>
    <trkpt lat="47.08849" lon="13.14529"><ele>2080</ele></trkpt>
    <trkpt lat="47.08937" lon="13.14561"><ele>2074</ele></trkpt>
    <trkpt lat="47.09027" lon="13.14600"><ele>2067</ele></trkpt>
    <trkpt lat="47.09109" lon="13.14658"><ele>2053</ele></trkpt>
    <trkpt lat="47.09134" lon="13.14631"><ele>2049</ele></trkpt>
    <trkpt lat="47.09121" lon="13.14616"><ele>2041</ele></trkpt>
    <trkpt lat="47.09060" lon="13.14543"><ele>2005</ele></trkpt>
    <trkpt lat="47.08999" lon="13.14463"><ele>2021</ele></trkpt>
    <trkpt lat="47.08923" lon="13.14405"><ele>2009</ele></trkpt>
    <trkpt lat="47.08818" lon="13.14344"><ele>1998</ele></trkpt>
    <trkpt lat="47.08738" lon="13.14301"><ele>1984</ele></trkpt>
    <trkpt lat="47.08797" lon="13.14293"><ele>1982</ele></trkpt>
    <trkpt lat="47.08902" lon="13.14310"><ele>1972</ele></trkpt>
    <trkpt lat="47.08889" lon="13.14286"><ele>1954</ele></trkpt>
    <trkpt lat="47.08805" lon="13.14216"><ele>1972</ele></trkpt>
    <trkpt lat="47.08709" lon="13.14162"><ele>1935</ele></trkpt>
    <trkpt lat="47.08656" lon="13.14152"><ele>1924</ele></trkpt>
    <trkpt lat="47.08727" lon="13.14097"><ele>1914</ele></trkpt>
    <trkpt lat="47.08824" lon="13.14093"><ele>1900</ele></trkpt>
    <trkpt lat="47.08875" lon="13.14124"><ele>1894</ele></trkpt>
    <trkpt lat="47.08914" lon="13.14114"><ele>1886</ele></trkpt>
    <trkpt lat="47.08847" lon="13.14045"><ele>1875</ele></trkpt>
    <trkpt lat="47.08792" lon="13.13974"><ele>1750</ele></trkpt>
    <trkpt lat="47.08954" lon="13.13999"><ele>1827</ele></trkpt>
    <trkpt lat="47.09097" lon="13.14058"><ele>1812</ele></trkpt>
    <trkpt lat="47.09222" lon="13.14122"><ele>1786</ele></trkpt>
    <trkpt lat="47.09339" lon="13.14203"><ele>1778</ele></trkpt>
    <trkpt lat="47.09457" lon="13.14282"><ele>1761</ele></trkpt>
    <trkpt lat="47.09468" lon="13.14275"><ele>1758</ele></trkpt>
    <trkpt lat="47.09508" lon="13.14285"><ele>1754</ele></trkpt>
    <trkpt lat="47.09640" lon="13.14327"><ele>1731</ele></trkpt>
    <trkpt lat="47.09705" lon="13.14346"><ele>1722</ele></trkpt>
    <trkpt lat="47.09629" lon="13.14266"><ele>1719</ele></trkpt>
    <trkpt lat="47.09596" lon="13.14203"><ele>1690</ele></trkpt>
    <trkpt lat="47.09727" lon="13.14227"><ele>1678</ele></trkpt>
    <trkpt lat="47.09855" lon="13.14318"><ele>1653</ele></trkpt>
    <trkpt lat="47.09838" lon="13.14285"><ele>1648</ele></trkpt>
    <trkpt lat="47.09713" lon="13.14131"><ele>1632</ele></trkpt>
    <trkpt lat="47.09558" lon="13.14013"><ele>1611</ele></trkpt>
    <trkpt lat="47.09419" lon="13.13879"><ele>1588</ele></trkpt>
    <trkpt lat="47.09296" lon="13.13671"><ele>1572</ele></trkpt>
    <trkpt lat="47.09213" lon="13.13540"><ele>1557</ele></trkpt>
    <trkpt lat="47.09060" lon="13.13356"><ele>1524</ele></trkpt>
    <trkpt lat="47.08921" lon="13.13208"><ele>1508</ele></trkpt>
    <trkpt lat="47.08755" lon="13.13098"><ele>1486</ele></trkpt>
    <trkpt lat="47.08601" lon="13.13082"><ele>1465</ele></trkpt>
    <trkpt lat="47.08531" lon="13.13105"><ele>1445</ele></trkpt>
    <trkpt lat="47.08604" lon="13.13009"><ele>1417</ele></trkpt>
    <trkpt lat="47.08741" lon="13.12926"><ele>1413</ele></trkpt>
    <trkpt lat="47.08875" lon="13.12975"><ele>1422</ele></trkpt>
    <trkpt lat="47.08921" lon="13.12991"><ele>1414</ele></trkpt>
    <trkpt lat="47.08930" lon="13.12991"><ele>1506</ele></trkpt>
    <trkpt lat="47.09002" lon="13.13014"><ele>1408</ele></trkpt>
    <trkpt lat="47.09072" lon="13.13044"><ele>1408</ele></trkpt>
    <trkpt lat="47.09185" lon="13.13127"><ele>1573</ele></trkpt>
    <trkpt lat="47.09327" lon="13.13282"><ele>1394</ele></trkpt>
    <trkpt lat="47.09396" lon="13.13288"><ele>1380</ele></trkpt>
    <trkpt lat="47.09301" lon="13.13107"><ele>1368</ele></trkpt>
    <trkpt lat="47.09275" lon="13.12986"><ele>1357</ele></trkpt>
    <trkpt lat="47.09421" lon="13.13020"><ele>1342</ele></trkpt>
    <trkpt lat="47.09543" lon="13.13060"><ele>1324</ele></trkpt>
    <trkpt lat="47.09662" lon="13.13084"><ele>1307</ele></trkpt>
    <trkpt lat="47.09821" lon="13.13155"><ele>1289</ele></trkpt>
    <trkpt lat="47.09938" lon="13.13242"><ele>1265</ele></trkpt>
    <trkpt lat="47.10030" lon="13.13325"><ele>1248</ele></trkpt>
    <trkpt lat="47.10162" lon="13.13431"><ele>1240</ele></trkpt>
    <trkpt lat="47.10214" lon="13.13384"><ele>1235</ele></trkpt>
    <trkpt lat="47.10181" lon="13.13305"><ele>1218</ele></trkpt>
    <trkpt lat="47.10330" lon="13.13365"><ele>1203</ele></trkpt>
    <trkpt lat="47.10376" lon="13.13527"><ele>1175</ele></trkpt>
    <trkpt lat="47.10425" lon="13.13695"><ele>1163</ele></trkpt>
    <trkpt lat="47.10524" lon="13.13790"><ele>1139</ele></trkpt>
    <trkpt lat="47.10598" lon="13.13770"><ele>1121</ele></trkpt>
    <trkpt lat="47.10663" lon="13.13605"><ele>1099</ele></trkpt>
    <trkpt lat="47.10758" lon="13.13512"><ele>1087</ele></trkpt>
    <trkpt lat="47.10775" lon="13.13488"><ele>1086</ele></trkpt>
    <trkpt lat="47.10734" lon="13.13474"><ele>1087</ele></trkpt>
    <trkpt lat="47.10679" lon="13.13465"><ele>1088</ele></trkpt>
    <trkpt lat="47.10616" lon="13.13449"><ele>1086</ele></trkpt>
    <trkpt lat="47.10579" lon="13.13363"><ele>1089</ele></trkpt>
    <trkpt lat="47.10563" lon="13.13236"><ele>1083</ele></trkpt>
    <trkpt lat="47.10476" lon="13.13187"><ele>1088</ele></trkpt>
    <trkpt lat="47.10407" lon="13.13114"><ele>1094</ele></trkpt>
    <trkpt lat="47.10346" lon="13.13040"><ele>1100</ele></trkpt>
    <trkpt lat="47.10293" lon="13.12963"><ele>1101</ele></trkpt>
    <trkpt lat="47.10320" lon="13.12851"><ele>1100</ele></trkpt>
    <trkpt lat="47.10247" lon="13.12832"><ele>1109</ele></trkpt>
    <trkpt lat="47.10181" lon="13.12815"><ele>1114</ele></trkpt>
    <trkpt lat="47.10177" lon="13.12733"><ele>1103</ele></trkpt>
  </trkseg>
</trk>
</gpx>