<?xml version="1.0" encoding="UTF-8"?>
<gpx version="1.1" creator="Gpx-Optimizer" xmlns="http://www.topografix.com/GPX/1/1">
<trk>
  <name>Mtb_GasteinTischlerfälle</name>
  <type>bicycle</type>
  <trkseg>
    <trkpt lat="47.10600" lon="13.21119"><ele>1217</ele></trkpt>
    <trkpt lat="47.10592" lon="13.21135"><ele>1266</ele></trkpt>
    <trkpt lat="47.10577" lon="13.21195"><ele>1270</ele></trkpt>
    <trkpt lat="47.10571" lon="13.21264"><ele>1273</ele></trkpt>
    <trkpt lat="47.10521" lon="13.21284"><ele>1275</ele></trkpt>
    <trkpt lat="47.10487" lon="13.21303"><ele>1268</ele></trkpt>
    <trkpt lat="47.10455" lon="13.21322"><ele>1271</ele></trkpt>
    <trkpt lat="47.10419" lon="13.21337"><ele>1271</ele></trkpt>
    <trkpt lat="47.10399" lon="13.21315"><ele>1271</ele></trkpt>
    <trkpt lat="47.10374" lon="13.21315"><ele>1273</ele></trkpt>
    <trkpt lat="47.10353" lon="13.21305"><ele>1288</ele></trkpt>
    <trkpt lat="47.10340" lon="13.21288"><ele>1294</ele></trkpt>
    <trkpt lat="47.10328" lon="13.21272"><ele>1299</ele></trkpt>
    <trkpt lat="47.10304" lon="13.21257"><ele>1302</ele></trkpt>
    <trkpt lat="47.10281" lon="13.21245"><ele>1304</ele></trkpt>
    <trkpt lat="47.10264" lon="13.21236"><ele>1306</ele></trkpt>
    <trkpt lat="47.10247" lon="13.21232"><ele>1301</ele></trkpt>
    <trkpt lat="47.10232" lon="13.21244"><ele>1297</ele></trkpt>
    <trkpt lat="47.10220" lon="13.21255"><ele>1297</ele></trkpt>
    <trkpt lat="47.10197" lon="13.21280"><ele>1308</ele></trkpt>
    <trkpt lat="47.10182" lon="13.21285"><ele>1311</ele></trkpt>
    <trkpt lat="47.10168" lon="13.21298"><ele>1310</ele></trkpt>
    <trkpt lat="47.10154" lon="13.21311"><ele>1321</ele></trkpt>
    <trkpt lat="47.10144" lon="13.21330"><ele>1330</ele></trkpt>
    <trkpt lat="47.10130" lon="13.21343"><ele>1336</ele></trkpt>
    <trkpt lat="47.10117" lon="13.21342"><ele>1338</ele></trkpt>
    <trkpt lat="47.10101" lon="13.21351"><ele>1346</ele></trkpt>
    <trkpt lat="47.10087" lon="13.21356"><ele>1349</ele></trkpt>
    <trkpt lat="47.10072" lon="13.21361"><ele>1349</ele></trkpt>
    <trkpt lat="47.10059" lon="13.21370"><ele>1346</ele></trkpt>
    <trkpt lat="47.10049" lon="13.21382"><ele>1353</ele></trkpt>
    <trkpt lat="47.10029" lon="13.21387"><ele>1358</ele></trkpt>
    <trkpt lat="47.10018" lon="13.21402"><ele>1367</ele></trkpt>
    <trkpt lat="47.09992" lon="13.21404"><ele>1367</ele></trkpt>
    <trkpt lat="47.09969" lon="13.21409"><ele>1373</ele></trkpt>
    <trkpt lat="47.09942" lon="13.21408"><ele>1379</ele></trkpt>
    <trkpt lat="47.09922" lon="13.21406"><ele>1373</ele></trkpt>
    <trkpt lat="47.09904" lon="13.21420"><ele>1375</ele></trkpt>
    <trkpt lat="47.09882" lon="13.21421"><ele>1374</ele></trkpt>
    <trkpt lat="47.09860" lon="13.21415"><ele>1347</ele></trkpt>
    <trkpt lat="47.09841" lon="13.21405"><ele>1341</ele></trkpt>
    <trkpt lat="47.09829" lon="13.21403"><ele>1360</ele></trkpt>
    <trkpt lat="47.09804" lon="13.21409"><ele>1369</ele></trkpt>
    <trkpt lat="47.09786" lon="13.21402"><ele>1369</ele></trkpt>
    <trkpt lat="47.09785" lon="13.21387"><ele>1347</ele></trkpt>
    <trkpt lat="47.09776" lon="13.21384"><ele>1349</ele></trkpt>
    <trkpt lat="47.09771" lon="13.21395"><ele>1374</ele></trkpt>
    <trkpt lat="47.09749" lon="13.21397"><ele>1380</ele></trkpt>
    <trkpt lat="47.09731" lon="13.21400"><ele>1380</ele></trkpt>
    <trkpt lat="47.09713" lon="13.21390"><ele>1388</ele></trkpt>
    <trkpt lat="47.09695" lon="13.21419"><ele>1385</ele></trkpt>
    <trkpt lat="47.09677" lon="13.21433"><ele>1388</ele></trkpt>
    <trkpt lat="47.09663" lon="13.21448"><ele>1395</ele></trkpt>
    <trkpt lat="47.09651" lon="13.21462"><ele>1403</ele></trkpt>
    <trkpt lat="47.09632" lon="13.21478"><ele>1401</ele></trkpt>
    <trkpt lat="47.09622" lon="13.21493"><ele>1405</ele></trkpt>
    <trkpt lat="47.09617" lon="13.21517"><ele>1399</ele></trkpt>
    <trkpt lat="47.09619" lon="13.21541"><ele>1352</ele></trkpt>
    <trkpt lat="47.09603" lon="13.21550"><ele>1321</ele></trkpt>
    <trkpt lat="47.09591" lon="13.21561"><ele>1382</ele></trkpt>
    <trkpt lat="47.09590" lon="13.21579"><ele>1394</ele></trkpt>
    <trkpt lat="47.09590" lon="13.21564"><ele>1370</ele></trkpt>
    <trkpt lat="47.09597" lon="13.21550"><ele>1384</ele></trkpt>
    <trkpt lat="47.09608" lon="13.21531"><ele>1383</ele></trkpt>
    <trkpt lat="47.09616" lon="13.21506"><ele>1338</ele></trkpt>
    <trkpt lat="47.09624" lon="13.21480"><ele>1388</ele></trkpt>
    <trkpt lat="47.09635" lon="13.21462"><ele>1396</ele></trkpt>
    <trkpt lat="47.09645" lon="13.21444"><ele>1399</ele></trkpt>
    <trkpt lat="47.09659" lon="13.21428"><ele>1401</ele></trkpt>
    <trkpt lat="47.09672" lon="13.21413"><ele>1401</ele></trkpt>
    <trkpt lat="47.09688" lon="13.21402"><ele>1402</ele></trkpt>
    <trkpt lat="47.09706" lon="13.21385"><ele>1395</ele></trkpt>
    <trkpt lat="47.09726" lon="13.21379"><ele>1388</ele></trkpt>
    <trkpt lat="47.09745" lon="13.21375"><ele>1385</ele></trkpt>
    <trkpt lat="47.09768" lon="13.21386"><ele>1371</ele></trkpt>
    <trkpt lat="47.09785" lon="13.21396"><ele>1372</ele></trkpt>
    <trkpt lat="47.09799" lon="13.21393"><ele>1368</ele></trkpt>
    <trkpt lat="47.09816" lon="13.21395"><ele>1369</ele></trkpt>
    <trkpt lat="47.09835" lon="13.21380"><ele>1361</ele></trkpt>
    <trkpt lat="47.09845" lon="13.21394"><ele>1353</ele></trkpt>
    <trkpt lat="47.09864" lon="13.21384"><ele>1362</ele></trkpt>
    <trkpt lat="47.09874" lon="13.21388"><ele>1365</ele></trkpt>
    <trkpt lat="47.09892" lon="13.21385"><ele>1374</ele></trkpt>
    <trkpt lat="47.09914" lon="13.21387"><ele>1333</ele></trkpt>
    <trkpt lat="47.09935" lon="13.21385"><ele>1367</ele></trkpt>
    <trkpt lat="47.09958" lon="13.21386"><ele>1365</ele></trkpt>
    <trkpt lat="47.09983" lon="13.21379"><ele>1352</ele></trkpt>
    <trkpt lat="47.09996" lon="13.21380"><ele>1356</ele></trkpt>
    <trkpt lat="47.10013" lon="13.21375"><ele>1354</ele></trkpt>
    <trkpt lat="47.10032" lon="13.21371"><ele>1357</ele></trkpt>
    <trkpt lat="47.10037" lon="13.21360"><ele>1356</ele></trkpt>
    <trkpt lat="47.10057" lon="13.21345"><ele>1355</ele></trkpt>
    <trkpt lat="47.10074" lon="13.21338"><ele>1355</ele></trkpt>
    <trkpt lat="47.10090" lon="13.21321"><ele>1359</ele></trkpt>
    <trkpt lat="47.10112" lon="13.21322"><ele>1358</ele></trkpt>
    <trkpt lat="47.10130" lon="13.21317"><ele>1353</ele></trkpt>
    <trkpt lat="47.10144" lon="13.21301"><ele>1345</ele></trkpt>
    <trkpt lat="47.10157" lon="13.21281"><ele>1340</ele></trkpt>
    <trkpt lat="47.10170" lon="13.21282"><ele>1340</ele></trkpt>
    <trkpt lat="47.10188" lon="13.21270"><ele>1328</ele></trkpt>
    <trkpt lat="47.10198" lon="13.21262"><ele>1323</ele></trkpt>
    <trkpt lat="47.10211" lon="13.21241"><ele>1318</ele></trkpt>
    <trkpt lat="47.10219" lon="13.21217"><ele>1311</ele></trkpt>
    <trkpt lat="47.10235" lon="13.21188"><ele>1297</ele></trkpt>
    <trkpt lat="47.10253" lon="13.21198"><ele>1289</ele></trkpt>
    <trkpt lat="47.10244" lon="13.21221"><ele>1330</ele></trkpt>
    <trkpt lat="47.10253" lon="13.21212"><ele>1320</ele></trkpt>
    <trkpt lat="47.10272" lon="13.21200"><ele>1293</ele></trkpt>
    <trkpt lat="47.10290" lon="13.21214"><ele>1299</ele></trkpt>
    <trkpt lat="47.10309" lon="13.21221"><ele>1292</ele></trkpt>
    <trkpt lat="47.10323" lon="13.21236"><ele>1290</ele></trkpt>
    <trkpt lat="47.10327" lon="13.21253"><ele>1295</ele></trkpt>
    <trkpt lat="47.10392" lon="13.21291"><ele>1288</ele></trkpt>
    <trkpt lat="47.10439" lon="13.21306"><ele>1285</ele></trkpt>
    <trkpt lat="47.10547" lon="13.21254"><ele>1279</ele></trkpt>
    <trkpt lat="47.10583" lon="13.21113"><ele>1271</ele></trkpt>
    <trkpt lat="47.10625" lon="13.20927"><ele>1263</ele></trkpt>
    <trkpt lat="47.10701" lon="13.20811"><ele>1257</ele></trkpt>
    <trkpt lat="47.10806" lon="13.20689"><ele>1237</ele></trkpt>
    <trkpt lat="47.10858" lon="13.20479"><ele>1235</ele></trkpt>
    <trkpt lat="47.10979" lon="13.20369"><ele>1216</ele></trkpt>
    <trkpt lat="47.11047" lon="13.20185"><ele>1209</ele></trkpt>
    <trkpt lat="47.11112" lon="13.20010"><ele>1191</ele></trkpt>
    <trkpt lat="47.11201" lon="13.19900"><ele>1179</ele></trkpt>
    <trkpt lat="47.11312" lon="13.19773"><ele>1166</ele></trkpt>
    <trkpt lat="47.11364" lon="13.19611"><ele>1158</ele></trkpt>
    <trkpt lat="47.11414" lon="13.19475"><ele>1148</ele></trkpt>
    <trkpt lat="47.11428" lon="13.19311"><ele>1137</ele></trkpt>
    <trkpt lat="47.11439" lon="13.19202"><ele>1137</ele></trkpt>
    <trkpt lat="47.11475" lon="13.19097"><ele>1142</ele></trkpt>
    <trkpt lat="47.11529" lon="13.18945"><ele>1137</ele></trkpt>
    <trkpt lat="47.11624" lon="13.18839"><ele>1134</ele></trkpt>
    <trkpt lat="47.11702" lon="13.18736"><ele>1130</ele></trkpt>
    <trkpt lat="47.11799" lon="13.18607"><ele>1121</ele></trkpt>
    <trkpt lat="47.11908" lon="13.18502"><ele>1108</ele></trkpt>
    <trkpt lat="47.12023" lon="13.18337"><ele>1108</ele></trkpt>
    <trkpt lat="47.12092" lon="13.18176"><ele>1165</ele></trkpt>
    <trkpt lat="47.12188" lon="13.18088"><ele>1104</ele></trkpt>
    <trkpt lat="47.12250" lon="13.17954"><ele>1092</ele></trkpt>
    <trkpt lat="47.12316" lon="13.17811"><ele>1089</ele></trkpt>
    <trkpt lat="47.12374" lon="13.17683"><ele>1081</ele></trkpt>
    <trkpt lat="47.12388" lon="13.17543"><ele>1079</ele></trkpt>
    <trkpt lat="47.12394" lon="13.17432"><ele>1080</ele></trkpt>
    <trkpt lat="47.12392" lon="13.17314"><ele>1074</ele></trkpt>
    <trkpt lat="47.12450" lon="13.17220"><ele>1072</ele></trkpt>
    <trkpt lat="47.12517" lon="13.17124"><ele>1073</ele></trkpt>
    <trkpt lat="47.12572" lon="13.17051"><ele>1074</ele></trkpt>
    <trkpt lat="47.12643" lon="13.16957"><ele>1088</ele></trkpt>
    <trkpt lat="47.12659" lon="13.16855"><ele>1086</ele></trkpt>
    <trkpt lat="47.12701" lon="13.16705"><ele>1077</ele></trkpt>
    <trkpt lat="47.12698" lon="13.16491"><ele>1076</ele></trkpt>
    <trkpt lat="47.12687" lon="13.16295"><ele>1071</ele></trkpt>
    <trkpt lat="47.12698" lon="13.16164"><ele>1073</ele></trkpt>
    <trkpt lat="47.12731" lon="13.16059"><ele>1066</ele></trkpt>
    <trkpt lat="47.12765" lon="13.15972"><ele>1071</ele></trkpt>
    <trkpt lat="47.12734" lon="13.15844"><ele>1071</ele></trkpt>
    <trkpt lat="47.12724" lon="13.15777"><ele>1069</ele></trkpt>
    <trkpt lat="47.12699" lon="13.15737"><ele>1070</ele></trkpt>
    <trkpt lat="47.12673" lon="13.15709"><ele>1078</ele></trkpt>
    <trkpt lat="47.12665" lon="13.15661"><ele>1079</ele></trkpt>
    <trkpt lat="47.12657" lon="13.15632"><ele>1082</ele></trkpt>
    <trkpt lat="47.12651" lon="13.15620"><ele>1082</ele></trkpt>
    <trkpt lat="47.12631" lon="13.15564"><ele>1082</ele></trkpt>
    <trkpt lat="47.12617" lon="13.15512"><ele>1076</ele></trkpt>
    <trkpt lat="47.12611" lon="13.15482"><ele>1077</ele></trkpt>
    <trkpt lat="47.12610" lon="13.15466"><ele>1075</ele></trkpt>
    <trkpt lat="47.12602" lon="13.15410"><ele>1082</ele></trkpt>
    <trkpt lat="47.12597" lon="13.15395"><ele>1092</ele></trkpt>
    <trkpt lat="47.12568" lon="13.15338"><ele>1100</ele></trkpt>
    <trkpt lat="47.12559" lon="13.15280"><ele>1111</ele></trkpt>
    <trkpt lat="47.12557" lon="13.15097"><ele>1107</ele></trkpt>
    <trkpt lat="47.12476" lon="13.14842"><ele>1096</ele></trkpt>
    <trkpt lat="47.12367" lon="13.14582"><ele>1080</ele></trkpt>
    <trkpt lat="47.12259" lon="13.14571"><ele>1081</ele></trkpt>
    <trkpt lat="47.12167" lon="13.14493"><ele>1080</ele></trkpt>
    <trkpt lat="47.12064" lon="13.14454"><ele>1066</ele></trkpt>
    <trkpt lat="47.11961" lon="13.14420"><ele>1061</ele></trkpt>
    <trkpt lat="47.11860" lon="13.14260"><ele>1056</ele></trkpt>
    <trkpt lat="47.11807" lon="13.14120"><ele>1058</ele></trkpt>
    <trkpt lat="47.11762" lon="13.14043"><ele>1061</ele></trkpt>
    <trkpt lat="47.11714" lon="13.14016"><ele>1070</ele></trkpt>
    <trkpt lat="47.11660" lon="13.14002"><ele>1075</ele></trkpt>
    <trkpt lat="47.11603" lon="13.13917"><ele>1073</ele></trkpt>
    <trkpt lat="47.11550" lon="13.13923"><ele>1077</ele></trkpt>
    <trkpt lat="47.11501" lon="13.13940"><ele>1073</ele></trkpt>
    <trkpt lat="47.11402" lon="13.13914"><ele>1075</ele></trkpt>
    <trkpt lat="47.11381" lon="13.13887"><ele>1076</ele></trkpt>
    <trkpt lat="47.11326" lon="13.13753"><ele>1071</ele></trkpt>
    <trkpt lat="47.11265" lon="13.13602"><ele>1060</ele></trkpt>
    <trkpt lat="47.11207" lon="13.13611"><ele>1067</ele></trkpt>
    <trkpt lat="47.11175" lon="13.13633"><ele>1069</ele></trkpt>
    <trkpt lat="47.11130" lon="13.13639"><ele>1077</ele></trkpt>
    <trkpt lat="47.11060" lon="13.13662"><ele>1081</ele></trkpt>
    <trkpt lat="47.10988" lon="13.13650"><ele>1082</ele></trkpt>
    <trkpt lat="47.10913" lon="13.13616"><ele>1079</ele></trkpt>
    <trkpt lat="47.10838" lon="13.13613"><ele>1078</ele></trkpt>
    <trkpt lat="47.10780" lon="13.13543"><ele>1083</ele></trkpt>
    <trkpt lat="47.10769" lon="13.13520"><ele>1080</ele></trkpt>
    <trkpt lat="47.10722" lon="13.13478"><ele>1088</ele></trkpt>
    <trkpt lat="47.10668" lon="13.13460"><ele>1091</ele></trkpt>
    <trkpt lat="47.10614" lon="13.13445"><ele>1086</ele></trkpt>
    <trkpt lat="47.10575" lon="13.13382"><ele>1087</ele></trkpt>
    <trkpt lat="47.10574" lon="13.13244"><ele>1077</ele></trkpt>
    <trkpt lat="47.10496" lon="13.13204"><ele>1077</ele></trkpt>
    <trkpt lat="47.10441" lon="13.13148"><ele>1080</ele></trkpt>
    <trkpt lat="47.10475" lon="13.13061"><ele>1091</ele></trkpt>
    <trkpt lat="47.10478" lon="13.12969"><ele>1091</ele></trkpt>
    <trkpt lat="47.10408" lon="13.12945"><ele>1092</ele></trkpt>
    <trkpt lat="47.10350" lon="13.12959"><ele>1095</ele></trkpt>
    <trkpt lat="47.10317" lon="13.12927"><ele>1097</ele></trkpt>
    <trkpt lat="47.10308" lon="13.12844"><ele>1096</ele></trkpt>
    <trkpt lat="47.10247" lon="13.12818"><ele>1091</ele></trkpt>
    <trkpt lat="47.10191" lon="13.12806"><ele>1093</ele></trkpt>
    <trkpt lat="47.10186" lon="13.12773"><ele>1094</ele></trkpt>
    <trkpt lat="47.10174" lon="13.12782"><ele>1094</ele></trkpt>
    <trkpt lat="47.10174" lon="13.12795"><ele>1088</ele></trkpt>
    <trkpt lat="47.10172" lon="13.12782"><ele>1086</ele></trkpt>
    <trkpt lat="47.10174" lon="13.12755"><ele>1086</ele></trkpt>
    <trkpt lat="47.10176" lon="13.12738"><ele>1089</ele></trkpt>
    <trkpt lat="47.10187" lon="13.12776"><ele>1096</ele></trkpt>
    <trkpt lat="47.10195" lon="13.12796"><ele>1092</ele></trkpt>
    <trkpt lat="47.10208" lon="13.12801"><ele>1099</ele></trkpt>
    <trkpt lat="47.10222" lon="13.12797"><ele>1096</ele></trkpt>
    <trkpt lat="47.10203" lon="13.12793"><ele>1094</ele></trkpt>
    <trkpt lat="47.10195" lon="13.12773"><ele>1097</ele></trkpt>
    <trkpt lat="47.10195" lon="13.12790"><ele>1092</ele></trkpt>
    <trkpt lat="47.10209" lon="13.12795"><ele>1088</ele></trkpt>
    <trkpt lat="47.10229" lon="13.12797"><ele>1096</ele></trkpt>
    <trkpt lat="47.10243" lon="13.12793"><ele>1092</ele></trkpt>
  </trkseg>
</trk>
</gpx>