<?xml version="1.0" encoding="UTF-8"?>
<gpx version="1.1" creator="Gpx-Optimizer" xmlns="http://www.topografix.com/GPX/1/1">
<trk>
  <name>Hike_Gleirscherspitze</name>
  <type>hike</type>
  <trkseg>
    <trkpt lat="47.30619" lon="11.38002"><ele>1983</ele></trkpt>
    <trkpt lat="47.30630" lon="11.37986"><ele>1946</ele></trkpt>
    <trkpt lat="47.30648" lon="11.37977"><ele>1946</ele></trkpt>
    <trkpt lat="47.30634" lon="11.37982"><ele>1946</ele></trkpt>
    <trkpt lat="47.30650" lon="11.37982"><ele>1951</ele></trkpt>
    <trkpt lat="47.30632" lon="11.37968"><ele>1929</ele></trkpt>
    <trkpt lat="47.30628" lon="11.37937"><ele>1916</ele></trkpt>
    <trkpt lat="47.30619" lon="11.37926"><ele>1917</ele></trkpt>
    <trkpt lat="47.30615" lon="11.37888"><ele>1915</ele></trkpt>
    <trkpt lat="47.30607" lon="11.37868"><ele>1915</ele></trkpt>
    <trkpt lat="47.30626" lon="11.37865"><ele>1916</ele></trkpt>
    <trkpt lat="47.30633" lon="11.37884"><ele>1916</ele></trkpt>
    <trkpt lat="47.30647" lon="11.37915"><ele>1913</ele></trkpt>
    <trkpt lat="47.30657" lon="11.37940"><ele>1909</ele></trkpt>
    <trkpt lat="47.30668" lon="11.37966"><ele>1911</ele></trkpt>
    <trkpt lat="47.30678" lon="11.37986"><ele>1908</ele></trkpt>
    <trkpt lat="47.30684" lon="11.38010"><ele>1910</ele></trkpt>
    <trkpt lat="47.30697" lon="11.38029"><ele>1905</ele></trkpt>
    <trkpt lat="47.30711" lon="11.38052"><ele>1908</ele></trkpt>
    <trkpt lat="47.30735" lon="11.38064"><ele>1907</ele></trkpt>
    <trkpt lat="47.30735" lon="11.38085"><ele>1908</ele></trkpt>
    <trkpt lat="47.30748" lon="11.38091"><ele>1912</ele></trkpt>
    <trkpt lat="47.30755" lon="11.38104"><ele>1909</ele></trkpt>
    <trkpt lat="47.30758" lon="11.38127"><ele>1913</ele></trkpt>
    <trkpt lat="47.30752" lon="11.38140"><ele>1919</ele></trkpt>
    <trkpt lat="47.30762" lon="11.38165"><ele>1916</ele></trkpt>
    <trkpt lat="47.30775" lon="11.38182"><ele>1928</ele></trkpt>
    <trkpt lat="47.30779" lon="11.38198"><ele>1927</ele></trkpt>
    <trkpt lat="47.30784" lon="11.38210"><ele>1927</ele></trkpt>
    <trkpt lat="47.30789" lon="11.38222"><ele>1927</ele></trkpt>
    <trkpt lat="47.30796" lon="11.38246"><ele>1928</ele></trkpt>
    <trkpt lat="47.30797" lon="11.38267"><ele>1926</ele></trkpt>
    <trkpt lat="47.30802" lon="11.38290"><ele>1928</ele></trkpt>
    <trkpt lat="47.30806" lon="11.38314"><ele>1927</ele></trkpt>
    <trkpt lat="47.30810" lon="11.38334"><ele>1931</ele></trkpt>
    <trkpt lat="47.30808" lon="11.38349"><ele>1930</ele></trkpt>
    <trkpt lat="47.30815" lon="11.38368"><ele>1929</ele></trkpt>
    <trkpt lat="47.30822" lon="11.38385"><ele>1932</ele></trkpt>
    <trkpt lat="47.30828" lon="11.38414"><ele>1935</ele></trkpt>
    <trkpt lat="47.30828" lon="11.38443"><ele>1936</ele></trkpt>
    <trkpt lat="47.30825" lon="11.38464"><ele>1937</ele></trkpt>
    <trkpt lat="47.30819" lon="11.38481"><ele>1936</ele></trkpt>
    <trkpt lat="47.30812" lon="11.38491"><ele>1937</ele></trkpt>
    <trkpt lat="47.30806" lon="11.38507"><ele>1939</ele></trkpt>
    <trkpt lat="47.30810" lon="11.38526"><ele>1937</ele></trkpt>
    <trkpt lat="47.30816" lon="11.38540"><ele>1943</ele></trkpt>
    <trkpt lat="47.30817" lon="11.38573"><ele>1942</ele></trkpt>
    <trkpt lat="47.30822" lon="11.38586"><ele>1943</ele></trkpt>
    <trkpt lat="47.30830" lon="11.38608"><ele>1952</ele></trkpt>
    <trkpt lat="47.30835" lon="11.38621"><ele>1958</ele></trkpt>
    <trkpt lat="47.30847" lon="11.38629"><ele>1956</ele></trkpt>
    <trkpt lat="47.30851" lon="11.38643"><ele>1957</ele></trkpt>
    <trkpt lat="47.30862" lon="11.38649"><ele>1958</ele></trkpt>
    <trkpt lat="47.30869" lon="11.38668"><ele>1968</ele></trkpt>
    <trkpt lat="47.30867" lon="11.38693"><ele>1972</ele></trkpt>
    <trkpt lat="47.30873" lon="11.38713"><ele>1975</ele></trkpt>
    <trkpt lat="47.30880" lon="11.38725"><ele>1979</ele></trkpt>
    <trkpt lat="47.30888" lon="11.38747"><ele>1982</ele></trkpt>
    <trkpt lat="47.30896" lon="11.38769"><ele>1982</ele></trkpt>
    <trkpt lat="47.30904" lon="11.38786"><ele>2001</ele></trkpt>
    <trkpt lat="47.30914" lon="11.38805"><ele>2006</ele></trkpt>
    <trkpt lat="47.30917" lon="11.38829"><ele>2017</ele></trkpt>
    <trkpt lat="47.30906" lon="11.38848"><ele>2022</ele></trkpt>
    <trkpt lat="47.30912" lon="11.38860"><ele>2025</ele></trkpt>
    <trkpt lat="47.30928" lon="11.38861"><ele>1999</ele></trkpt>
    <trkpt lat="47.30942" lon="11.38875"><ele>2035</ele></trkpt>
    <trkpt lat="47.30952" lon="11.38896"><ele>2012</ele></trkpt>
    <trkpt lat="47.30958" lon="11.38907"><ele>2047</ele></trkpt>
    <trkpt lat="47.30976" lon="11.38904"><ele>2054</ele></trkpt>
    <trkpt lat="47.30987" lon="11.38906"><ele>2055</ele></trkpt>
    <trkpt lat="47.31004" lon="11.38925"><ele>2038</ele></trkpt>
    <trkpt lat="47.31020" lon="11.38922"><ele>2006</ele></trkpt>
    <trkpt lat="47.31031" lon="11.38935"><ele>2060</ele></trkpt>
    <trkpt lat="47.31042" lon="11.38938"><ele>2038</ele></trkpt>
    <trkpt lat="47.31057" lon="11.38952"><ele>2061</ele></trkpt>
    <trkpt lat="47.31064" lon="11.38960"><ele>2062</ele></trkpt>
    <trkpt lat="47.31076" lon="11.38978"><ele>2053</ele></trkpt>
    <trkpt lat="47.31088" lon="11.38995"><ele>2080</ele></trkpt>
    <trkpt lat="47.31105" lon="11.39009"><ele>2020</ele></trkpt>
    <trkpt lat="47.31111" lon="11.39031"><ele>2098</ele></trkpt>
    <trkpt lat="47.31116" lon="11.39052"><ele>2103</ele></trkpt>
    <trkpt lat="47.31125" lon="11.39064"><ele>2081</ele></trkpt>
    <trkpt lat="47.31124" lon="11.39089"><ele>2103</ele></trkpt>
    <trkpt lat="47.31128" lon="11.39113"><ele>2094</ele></trkpt>
    <trkpt lat="47.31129" lon="11.39130"><ele>2114</ele></trkpt>
    <trkpt lat="47.31134" lon="11.39153"><ele>2113</ele></trkpt>
    <trkpt lat="47.31138" lon="11.39178"><ele>2115</ele></trkpt>
    <trkpt lat="47.31149" lon="11.39197"><ele>2131</ele></trkpt>
    <trkpt lat="47.31160" lon="11.39214"><ele>2140</ele></trkpt>
    <trkpt lat="47.31169" lon="11.39221"><ele>2144</ele></trkpt>
    <trkpt lat="47.31171" lon="11.39246"><ele>2148</ele></trkpt>
    <trkpt lat="47.31180" lon="11.39265"><ele>2135</ele></trkpt>
    <trkpt lat="47.31193" lon="11.39280"><ele>2153</ele></trkpt>
    <trkpt lat="47.31203" lon="11.39290"><ele>2158</ele></trkpt>
    <trkpt lat="47.31213" lon="11.39305"><ele>2161</ele></trkpt>
    <trkpt lat="47.31220" lon="11.39313"><ele>2164</ele></trkpt>
    <trkpt lat="47.31230" lon="11.39330"><ele>2158</ele></trkpt>
    <trkpt lat="47.31241" lon="11.39358"><ele>2157</ele></trkpt>
    <trkpt lat="47.31237" lon="11.39376"><ele>2169</ele></trkpt>
    <trkpt lat="47.31236" lon="11.39400"><ele>2137</ele></trkpt>
    <trkpt lat="47.31242" lon="11.39411"><ele>2173</ele></trkpt>
    <trkpt lat="47.31244" lon="11.39427"><ele>2168</ele></trkpt>
    <trkpt lat="47.31246" lon="11.39452"><ele>2140</ele></trkpt>
    <trkpt lat="47.31246" lon="11.39476"><ele>2181</ele></trkpt>
    <trkpt lat="47.31248" lon="11.39496"><ele>2192</ele></trkpt>
    <trkpt lat="47.31256" lon="11.39503"><ele>2190</ele></trkpt>
    <trkpt lat="47.31267" lon="11.39504"><ele>2188</ele></trkpt>
    <trkpt lat="47.31276" lon="11.39508"><ele>2183</ele></trkpt>
    <trkpt lat="47.31292" lon="11.39518"><ele>2174</ele></trkpt>
    <trkpt lat="47.31303" lon="11.39526"><ele>2078</ele></trkpt>
    <trkpt lat="47.31320" lon="11.39529"><ele>2188</ele></trkpt>
    <trkpt lat="47.31328" lon="11.39535"><ele>2206</ele></trkpt>
    <trkpt lat="47.31343" lon="11.39547"><ele>2209</ele></trkpt>
    <trkpt lat="47.31352" lon="11.39572"><ele>2208</ele></trkpt>
    <trkpt lat="47.31357" lon="11.39586"><ele>2189</ele></trkpt>
    <trkpt lat="47.31364" lon="11.39599"><ele>2156</ele></trkpt>
    <trkpt lat="47.31374" lon="11.39611"><ele>2214</ele></trkpt>
    <trkpt lat="47.31383" lon="11.39631"><ele>2219</ele></trkpt>
    <trkpt lat="47.31392" lon="11.39642"><ele>2222</ele></trkpt>
    <trkpt lat="47.31407" lon="11.39661"><ele>2224</ele></trkpt>
    <trkpt lat="47.31415" lon="11.39675"><ele>2223</ele></trkpt>
    <trkpt lat="47.31430" lon="11.39686"><ele>2236</ele></trkpt>
    <trkpt lat="47.31445" lon="11.39702"><ele>2212</ele></trkpt>
    <trkpt lat="47.31455" lon="11.39706"><ele>2236</ele></trkpt>
    <trkpt lat="47.31470" lon="11.39720"><ele>2219</ele></trkpt>
    <trkpt lat="47.31480" lon="11.39720"><ele>2228</ele></trkpt>
    <trkpt lat="47.31490" lon="11.39734"><ele>2237</ele></trkpt>
    <trkpt lat="47.31498" lon="11.39738"><ele>2237</ele></trkpt>
    <trkpt lat="47.31511" lon="11.39747"><ele>2139</ele></trkpt>
    <trkpt lat="47.31524" lon="11.39763"><ele>2255</ele></trkpt>
    <trkpt lat="47.31541" lon="11.39767"><ele>2254</ele></trkpt>
    <trkpt lat="47.31525" lon="11.39779"><ele>2289</ele></trkpt>
    <trkpt lat="47.31532" lon="11.39758"><ele>2281</ele></trkpt>
    <trkpt lat="47.31545" lon="11.39774"><ele>2288</ele></trkpt>
    <trkpt lat="47.31546" lon="11.39798"><ele>2304</ele></trkpt>
    <trkpt lat="47.31561" lon="11.39802"><ele>2289</ele></trkpt>
    <trkpt lat="47.31575" lon="11.39813"><ele>2276</ele></trkpt>
    <trkpt lat="47.31557" lon="11.39805"><ele>2311</ele></trkpt>
    <trkpt lat="47.31549" lon="11.39799"><ele>2298</ele></trkpt>
    <trkpt lat="47.31540" lon="11.39786"><ele>2300</ele></trkpt>
    <trkpt lat="47.31528" lon="11.39770"><ele>2251</ele></trkpt>
    <trkpt lat="47.31512" lon="11.39765"><ele>2259</ele></trkpt>
    <trkpt lat="47.31500" lon="11.39754"><ele>2263</ele></trkpt>
    <trkpt lat="47.31493" lon="11.39743"><ele>2268</ele></trkpt>
    <trkpt lat="47.31482" lon="11.39729"><ele>2216</ele></trkpt>
    <trkpt lat="47.31464" lon="11.39725"><ele>2259</ele></trkpt>
    <trkpt lat="47.31449" lon="11.39707"><ele>2249</ele></trkpt>
    <trkpt lat="47.31435" lon="11.39696"><ele>2243</ele></trkpt>
    <trkpt lat="47.31424" lon="11.39683"><ele>2243</ele></trkpt>
    <trkpt lat="47.31413" lon="11.39679"><ele>2241</ele></trkpt>
    <trkpt lat="47.31397" lon="11.39658"><ele>2234</ele></trkpt>
    <trkpt lat="47.31386" lon="11.39643"><ele>2233</ele></trkpt>
    <trkpt lat="47.31373" lon="11.39625"><ele>2224</ele></trkpt>
    <trkpt lat="47.31364" lon="11.39607"><ele>2219</ele></trkpt>
    <trkpt lat="47.31353" lon="11.39592"><ele>2216</ele></trkpt>
    <trkpt lat="47.31344" lon="11.39571"><ele>2213</ele></trkpt>
    <trkpt lat="47.31336" lon="11.39548"><ele>2211</ele></trkpt>
    <trkpt lat="47.31332" lon="11.39530"><ele>1861</ele></trkpt>
    <trkpt lat="47.31330" lon="11.39515"><ele>2174</ele></trkpt>
    <trkpt lat="47.31330" lon="11.39492"><ele>2213</ele></trkpt>
    <trkpt lat="47.31333" lon="11.39467"><ele>2228</ele></trkpt>
    <trkpt lat="47.31340" lon="11.39457"><ele>2232</ele></trkpt>
    <trkpt lat="47.31346" lon="11.39435"><ele>2232</ele></trkpt>
    <trkpt lat="47.31351" lon="11.39423"><ele>2236</ele></trkpt>
    <trkpt lat="47.31360" lon="11.39403"><ele>2227</ele></trkpt>
    <trkpt lat="47.31372" lon="11.39386"><ele>2237</ele></trkpt>
    <trkpt lat="47.31356" lon="11.39386"><ele>2170</ele></trkpt>
    <trkpt lat="47.31346" lon="11.39391"><ele>2121</ele></trkpt>
    <trkpt lat="47.31339" lon="11.39376"><ele>2209</ele></trkpt>
    <trkpt lat="47.31337" lon="11.39347"><ele>1955</ele></trkpt>
    <trkpt lat="47.31334" lon="11.39326"><ele>2205</ele></trkpt>
    <trkpt lat="47.31333" lon="11.39298"><ele>1913</ele></trkpt>
    <trkpt lat="47.31329" lon="11.39282"><ele>1997</ele></trkpt>
    <trkpt lat="47.31324" lon="11.39270"><ele>2231</ele></trkpt>
    <trkpt lat="47.31319" lon="11.39258"><ele>2252</ele></trkpt>
    <trkpt lat="47.31311" lon="11.39242"><ele>2244</ele></trkpt>
    <trkpt lat="47.31302" lon="11.39229"><ele>2221</ele></trkpt>
    <trkpt lat="47.31293" lon="11.39219"><ele>2250</ele></trkpt>
    <trkpt lat="47.31291" lon="11.39190"><ele>2226</ele></trkpt>
    <trkpt lat="47.31289" lon="11.39166"><ele>2266</ele></trkpt>
    <trkpt lat="47.31288" lon="11.39152"><ele>2254</ele></trkpt>
    <trkpt lat="47.31293" lon="11.39134"><ele>2203</ele></trkpt>
    <trkpt lat="47.31289" lon="11.39107"><ele>2261</ele></trkpt>
    <trkpt lat="47.31287" lon="11.39083"><ele>2259</ele></trkpt>
    <trkpt lat="47.31285" lon="11.39070"><ele>1836</ele></trkpt>
    <trkpt lat="47.31282" lon="11.39046"><ele>2236</ele></trkpt>
    <trkpt lat="47.31282" lon="11.39031"><ele>1837</ele></trkpt>
    <trkpt lat="47.31271" lon="11.39002"><ele>2117</ele></trkpt>
    <trkpt lat="47.31267" lon="11.38979"><ele>2228</ele></trkpt>
    <trkpt lat="47.31257" lon="11.38961"><ele>2196</ele></trkpt>
    <trkpt lat="47.31259" lon="11.38947"><ele>2226</ele></trkpt>
    <trkpt lat="47.31262" lon="11.38934"><ele>1886</ele></trkpt>
    <trkpt lat="47.31266" lon="11.38910"><ele>2098</ele></trkpt>
    <trkpt lat="47.31262" lon="11.38886"><ele>2156</ele></trkpt>
    <trkpt lat="47.31253" lon="11.38867"><ele>2237</ele></trkpt>
    <trkpt lat="47.31244" lon="11.38850"><ele>2080</ele></trkpt>
    <trkpt lat="47.31233" lon="11.38833"><ele>2090</ele></trkpt>
    <trkpt lat="47.31224" lon="11.38815"><ele>2212</ele></trkpt>
    <trkpt lat="47.31212" lon="11.38791"><ele>2216</ele></trkpt>
    <trkpt lat="47.31206" lon="11.38775"><ele>2253</ele></trkpt>
    <trkpt lat="47.31206" lon="11.38756"><ele>2233</ele></trkpt>
    <trkpt lat="47.31207" lon="11.38739"><ele>2197</ele></trkpt>
    <trkpt lat="47.31203" lon="11.38722"><ele>2250</ele></trkpt>
    <trkpt lat="47.31193" lon="11.38710"><ele>2101</ele></trkpt>
    <trkpt lat="47.31188" lon="11.38689"><ele>2258</ele></trkpt>
    <trkpt lat="47.31193" lon="11.38677"><ele>2259</ele></trkpt>
    <trkpt lat="47.31192" lon="11.38653"><ele>2214</ele></trkpt>
    <trkpt lat="47.31203" lon="11.38639"><ele>2258</ele></trkpt>
    <trkpt lat="47.31212" lon="11.38624"><ele>2143</ele></trkpt>
    <trkpt lat="47.31222" lon="11.38594"><ele>2138</ele></trkpt>
    <trkpt lat="47.31226" lon="11.38569"><ele>2263</ele></trkpt>
    <trkpt lat="47.31230" lon="11.38545"><ele>2268</ele></trkpt>
    <trkpt lat="47.31235" lon="11.38519"><ele>2268</ele></trkpt>
    <trkpt lat="47.31237" lon="11.38499"><ele>2251</ele></trkpt>
    <trkpt lat="47.31236" lon="11.38479"><ele>2195</ele></trkpt>
    <trkpt lat="47.31228" lon="11.38453"><ele>2267</ele></trkpt>
    <trkpt lat="47.31219" lon="11.38426"><ele>1826</ele></trkpt>
    <trkpt lat="47.31212" lon="11.38414"><ele>2082</ele></trkpt>
    <trkpt lat="47.31205" lon="11.38401"><ele>2254</ele></trkpt>
    <trkpt lat="47.31220" lon="11.38409"><ele>2269</ele></trkpt>
    <trkpt lat="47.31239" lon="11.38419"><ele>2235</ele></trkpt>
    <trkpt lat="47.31247" lon="11.38425"><ele>2265</ele></trkpt>
    <trkpt lat="47.31260" lon="11.38432"><ele>2215</ele></trkpt>
    <trkpt lat="47.31261" lon="11.38449"><ele>2274</ele></trkpt>
    <trkpt lat="47.31262" lon="11.38464"><ele>2261</ele></trkpt>
    <trkpt lat="47.31279" lon="11.38465"><ele>2287</ele></trkpt>
    <trkpt lat="47.31276" lon="11.38483"><ele>2145</ele></trkpt>
    <trkpt lat="47.31288" lon="11.38496"><ele>2248</ele></trkpt>
    <trkpt lat="47.31286" lon="11.38518"><ele>2290</ele></trkpt>
    <trkpt lat="47.31303" lon="11.38531"><ele>2315</ele></trkpt>
    <trkpt lat="47.31312" lon="11.38540"><ele>2316</ele></trkpt>
    <trkpt lat="47.31305" lon="11.38552"><ele>2321</ele></trkpt>
    <trkpt lat="47.31293" lon="11.38551"><ele>2307</ele></trkpt>
    <trkpt lat="47.31295" lon="11.38565"><ele>2120</ele></trkpt>
    <trkpt lat="47.31296" lon="11.38588"><ele>2317</ele></trkpt>
    <trkpt lat="47.31293" lon="11.38608"><ele>2330</ele></trkpt>
    <trkpt lat="47.31291" lon="11.38630"><ele>2335</ele></trkpt>
    <trkpt lat="47.31296" lon="11.38600"><ele>2335</ele></trkpt>
    <trkpt lat="47.31297" lon="11.38580"><ele>2331</ele></trkpt>
    <trkpt lat="47.31292" lon="11.38558"><ele>2334</ele></trkpt>
    <trkpt lat="47.31309" lon="11.38545"><ele>2317</ele></trkpt>
    <trkpt lat="47.31291" lon="11.38527"><ele>2321</ele></trkpt>
    <trkpt lat="47.31293" lon="11.38505"><ele>2314</ele></trkpt>
    <trkpt lat="47.31289" lon="11.38484"><ele>2305</ele></trkpt>
    <trkpt lat="47.31277" lon="11.38483"><ele>2244</ele></trkpt>
    <trkpt lat="47.31277" lon="11.38463"><ele>2265</ele></trkpt>
    <trkpt lat="47.31268" lon="11.38461"><ele>2293</ele></trkpt>
    <trkpt lat="47.31256" lon="11.38431"><ele>2285</ele></trkpt>
    <trkpt lat="47.31240" lon="11.38418"><ele>2286</ele></trkpt>
    <trkpt lat="47.31224" lon="11.38407"><ele>2283</ele></trkpt>
    <trkpt lat="47.31212" lon="11.38397"><ele>2145</ele></trkpt>
    <trkpt lat="47.31198" lon="11.38387"><ele>2269</ele></trkpt>
    <trkpt lat="47.31188" lon="11.38378"><ele>2271</ele></trkpt>
    <trkpt lat="47.31202" lon="11.38394"><ele>2170</ele></trkpt>
    <trkpt lat="47.31194" lon="11.38404"><ele>2263</ele></trkpt>
    <trkpt lat="47.31183" lon="11.38396"><ele>2258</ele></trkpt>
    <trkpt lat="47.31173" lon="11.38395"><ele>2131</ele></trkpt>
    <trkpt lat="47.31181" lon="11.38412"><ele>2242</ele></trkpt>
    <trkpt lat="47.31170" lon="11.38403"><ele>2236</ele></trkpt>
    <trkpt lat="47.31161" lon="11.38398"><ele>2239</ele></trkpt>
    <trkpt lat="47.31160" lon="11.38412"><ele>2233</ele></trkpt>
    <trkpt lat="47.31143" lon="11.38407"><ele>2235</ele></trkpt>
    <trkpt lat="47.31134" lon="11.38424"><ele>2210</ele></trkpt>
    <trkpt lat="47.31120" lon="11.38432"><ele>2216</ele></trkpt>
    <trkpt lat="47.31114" lon="11.38443"><ele>2198</ele></trkpt>
    <trkpt lat="47.31099" lon="11.38446"><ele>2175</ele></trkpt>
    <trkpt lat="47.31089" lon="11.38459"><ele>2166</ele></trkpt>
    <trkpt lat="47.31077" lon="11.38471"><ele>2170</ele></trkpt>
    <trkpt lat="47.31086" lon="11.38493"><ele>2145</ele></trkpt>
    <trkpt lat="47.31065" lon="11.38503"><ele>2146</ele></trkpt>
    <trkpt lat="47.31053" lon="11.38494"><ele>2149</ele></trkpt>
    <trkpt lat="47.31040" lon="11.38488"><ele>2143</ele></trkpt>
    <trkpt lat="47.31046" lon="11.38500"><ele>2084</ele></trkpt>
    <trkpt lat="47.31030" lon="11.38503"><ele>2128</ele></trkpt>
    <trkpt lat="47.31037" lon="11.38519"><ele>2119</ele></trkpt>
    <trkpt lat="47.31028" lon="11.38510"><ele>2118</ele></trkpt>
    <trkpt lat="47.31038" lon="11.38527"><ele>2114</ele></trkpt>
    <trkpt lat="47.31022" lon="11.38537"><ele>2110</ele></trkpt>
    <trkpt lat="47.31011" lon="11.38523"><ele>2093</ele></trkpt>
    <trkpt lat="47.30991" lon="11.38535"><ele>2125</ele></trkpt>
    <trkpt lat="47.31004" lon="11.38546"><ele>2178</ele></trkpt>
    <trkpt lat="47.31014" lon="11.38554"><ele>2090</ele></trkpt>
    <trkpt lat="47.31017" lon="11.38570"><ele>2036</ele></trkpt>
    <trkpt lat="47.31004" lon="11.38565"><ele>2077</ele></trkpt>
    <trkpt lat="47.31009" lon="11.38589"><ele>2069</ele></trkpt>
    <trkpt lat="47.31002" lon="11.38602"><ele>2070</ele></trkpt>
    <trkpt lat="47.30988" lon="11.38616"><ele>2070</ele></trkpt>
    <trkpt lat="47.30988" lon="11.38596"><ele>2063</ele></trkpt>
    <trkpt lat="47.30979" lon="11.38605"><ele>2064</ele></trkpt>
    <trkpt lat="47.30970" lon="11.38625"><ele>2053</ele></trkpt>
    <trkpt lat="47.30969" lon="11.38641"><ele>2049</ele></trkpt>
    <trkpt lat="47.30969" lon="11.38661"><ele>2042</ele></trkpt>
    <trkpt lat="47.30964" lon="11.38641"><ele>2031</ele></trkpt>
    <trkpt lat="47.30956" lon="11.38616"><ele>2044</ele></trkpt>
    <trkpt lat="47.30948" lon="11.38647"><ele>2044</ele></trkpt>
    <trkpt lat="47.30942" lon="11.38660"><ele>2029</ele></trkpt>
    <trkpt lat="47.30931" lon="11.38670"><ele>1998</ele></trkpt>
    <trkpt lat="47.30932" lon="11.38649"><ele>2012</ele></trkpt>
    <trkpt lat="47.30918" lon="11.38640"><ele>1997</ele></trkpt>
    <trkpt lat="47.30911" lon="11.38626"><ele>2004</ele></trkpt>
    <trkpt lat="47.30899" lon="11.38614"><ele>1982</ele></trkpt>
    <trkpt lat="47.30886" lon="11.38615"><ele>1966</ele></trkpt>
    <trkpt lat="47.30870" lon="11.38610"><ele>1964</ele></trkpt>
    <trkpt lat="47.30850" lon="11.38590"><ele>1970</ele></trkpt>
    <trkpt lat="47.30841" lon="11.38566"><ele>1965</ele></trkpt>
    <trkpt lat="47.30832" lon="11.38551"><ele>2024</ele></trkpt>
    <trkpt lat="47.30828" lon="11.38539"><ele>1958</ele></trkpt>
    <trkpt lat="47.30822" lon="11.38522"><ele>1954</ele></trkpt>
    <trkpt lat="47.30811" lon="11.38526"><ele>1949</ele></trkpt>
    <trkpt lat="47.30810" lon="11.38542"><ele>1950</ele></trkpt>
    <trkpt lat="47.30807" lon="11.38506"><ele>1931</ele></trkpt>
    <trkpt lat="47.30826" lon="11.38496"><ele>1989</ele></trkpt>
    <trkpt lat="47.30824" lon="11.38463"><ele>1941</ele></trkpt>
    <trkpt lat="47.30828" lon="11.38432"><ele>1940</ele></trkpt>
    <trkpt lat="47.30827" lon="11.38408"><ele>1938</ele></trkpt>
    <trkpt lat="47.30827" lon="11.38386"><ele>1930</ele></trkpt>
    <trkpt lat="47.30818" lon="11.38366"><ele>1928</ele></trkpt>
    <trkpt lat="47.30814" lon="11.38339"><ele>1921</ele></trkpt>
    <trkpt lat="47.30815" lon="11.38318"><ele>1918</ele></trkpt>
    <trkpt lat="47.30802" lon="11.38295"><ele>1917</ele></trkpt>
    <trkpt lat="47.30788" lon="11.38276"><ele>1922</ele></trkpt>
    <trkpt lat="47.30792" lon="11.38256"><ele>1928</ele></trkpt>
    <trkpt lat="47.30792" lon="11.38229"><ele>1924</ele></trkpt>
    <trkpt lat="47.30780" lon="11.38209"><ele>1919</ele></trkpt>
    <trkpt lat="47.30778" lon="11.38184"><ele>1925</ele></trkpt>
    <trkpt lat="47.30768" lon="11.38171"><ele>1918</ele></trkpt>
    <trkpt lat="47.30760" lon="11.38162"><ele>1984</ele></trkpt>
    <trkpt lat="47.30758" lon="11.38149"><ele>1913</ele></trkpt>
    <trkpt lat="47.30754" lon="11.38127"><ele>1910</ele></trkpt>
    <trkpt lat="47.30745" lon="11.38110"><ele>1912</ele></trkpt>
    <trkpt lat="47.30742" lon="11.38089"><ele>1907</ele></trkpt>
    <trkpt lat="47.30726" lon="11.38078"><ele>1957</ele></trkpt>
    <trkpt lat="47.30722" lon="11.38056"><ele>1893</ele></trkpt>
    <trkpt lat="47.30702" lon="11.38035"><ele>1895</ele></trkpt>
    <trkpt lat="47.30695" lon="11.38018"><ele>1891</ele></trkpt>
    <trkpt lat="47.30690" lon="11.37998"><ele>1890</ele></trkpt>
    <trkpt lat="47.30695" lon="11.37973"><ele>1894</ele></trkpt>
    <trkpt lat="47.30680" lon="11.37959"><ele>1890</ele></trkpt>
    <trkpt lat="47.30671" lon="11.37935"><ele>1887</ele></trkpt>
    <trkpt lat="47.30661" lon="11.37906"><ele>1879</ele></trkpt>
    <trkpt lat="47.30643" lon="11.37911"><ele>1892</ele></trkpt>
    <trkpt lat="47.30625" lon="11.37926"><ele>1902</ele></trkpt>
    <trkpt lat="47.30630" lon="11.37945"><ele>1912</ele></trkpt>
    <trkpt lat="47.30636" lon="11.37957"><ele>1823</ele></trkpt>
    <trkpt lat="47.30650" lon="11.37983"><ele>1910</ele></trkpt>
    <trkpt lat="47.30675" lon="11.37967"><ele>1926</ele></trkpt>
    <trkpt lat="47.30630" lon="11.37973"><ele>1918</ele></trkpt>
    <trkpt lat="47.30557" lon="11.37990"><ele>1889</ele></trkpt>
    <trkpt lat="47.30444" lon="11.38118"><ele>1828</ele></trkpt>
    <trkpt lat="47.30316" lon="11.38212"><ele>1800</ele></trkpt>
    <trkpt lat="47.30178" lon="11.38291"><ele>1223</ele></trkpt>
    <trkpt lat="47.30084" lon="11.38396"><ele>1844</ele></trkpt>
    <trkpt lat="47.29954" lon="11.38445"><ele>1730</ele></trkpt>
    <trkpt lat="47.29807" lon="11.38502"><ele>1672</ele></trkpt>
    <trkpt lat="47.29727" lon="11.38649"><ele>1989</ele></trkpt>
    <trkpt lat="47.29524" lon="11.38931"><ele>1876</ele></trkpt>
    <trkpt lat="47.29346" lon="11.39143"><ele>1682</ele></trkpt>
    <trkpt lat="47.29238" lon="11.39250"><ele>1354</ele></trkpt>
    <trkpt lat="47.29124" lon="11.39366"><ele>1209</ele></trkpt>
    <trkpt lat="47.29018" lon="11.39472"><ele>1220</ele></trkpt>
    <trkpt lat="47.28854" lon="11.39617"><ele>1450</ele></trkpt>
    <trkpt lat="47.28731" lon="11.39732"><ele>1127</ele></trkpt>
    <trkpt lat="47.28643" lon="11.39843"><ele>973</ele></trkpt>
    <trkpt lat="47.28623" lon="11.39868"><ele>914</ele></trkpt>
  </trkseg>
</trk>
</gpx>