<?xml version="1.0" encoding="UTF-8"?>
<gpx version="1.1" creator="Gpx-Optimizer" xmlns="http://www.topografix.com/GPX/1/1">
<trk>
  <name>Hike_Ehnbachklamm</name>
  <type>hike</type>
  <trkseg>
    <trkpt lat="47.28115" lon="11.24960"><ele>937</ele></trkpt>
    <trkpt lat="47.28113" lon="11.24976"><ele>924</ele></trkpt>
    <trkpt lat="47.28109" lon="11.25011"><ele>924</ele></trkpt>
    <trkpt lat="47.28103" lon="11.25037"><ele>923</ele></trkpt>
    <trkpt lat="47.28098" lon="11.25070"><ele>923</ele></trkpt>
    <trkpt lat="47.28095" lon="11.25094"><ele>920</ele></trkpt>
    <trkpt lat="47.28092" lon="11.25113"><ele>919</ele></trkpt>
    <trkpt lat="47.28087" lon="11.25138"><ele>917</ele></trkpt>
    <trkpt lat="47.28078" lon="11.25167"><ele>921</ele></trkpt>
    <trkpt lat="47.28073" lon="11.25199"><ele>918</ele></trkpt>
    <trkpt lat="47.28078" lon="11.25225"><ele>920</ele></trkpt>
    <trkpt lat="47.28076" lon="11.25250"><ele>921</ele></trkpt>
    <trkpt lat="47.28058" lon="11.25248"><ele>924</ele></trkpt>
    <trkpt lat="47.28050" lon="11.25280"><ele>925</ele></trkpt>
    <trkpt lat="47.28055" lon="11.25303"><ele>920</ele></trkpt>
    <trkpt lat="47.28055" lon="11.25327"><ele>920</ele></trkpt>
    <trkpt lat="47.28043" lon="11.25338"><ele>921</ele></trkpt>
    <trkpt lat="47.28030" lon="11.25343"><ele>922</ele></trkpt>
    <trkpt lat="47.28020" lon="11.25352"><ele>921</ele></trkpt>
    <trkpt lat="47.28019" lon="11.25379"><ele>926</ele></trkpt>
    <trkpt lat="47.28019" lon="11.25404"><ele>923</ele></trkpt>
    <trkpt lat="47.28010" lon="11.25435"><ele>928</ele></trkpt>
    <trkpt lat="47.28011" lon="11.25467"><ele>926</ele></trkpt>
    <trkpt lat="47.28016" lon="11.25491"><ele>925</ele></trkpt>
    <trkpt lat="47.28019" lon="11.25519"><ele>923</ele></trkpt>
    <trkpt lat="47.28027" lon="11.25546"><ele>927</ele></trkpt>
    <trkpt lat="47.28044" lon="11.25562"><ele>922</ele></trkpt>
    <trkpt lat="47.28063" lon="11.25568"><ele>927</ele></trkpt>
    <trkpt lat="47.28080" lon="11.25582"><ele>925</ele></trkpt>
    <trkpt lat="47.28092" lon="11.25595"><ele>927</ele></trkpt>
    <trkpt lat="47.28100" lon="11.25604"><ele>929</ele></trkpt>
    <trkpt lat="47.28081" lon="11.25624"><ele>931</ele></trkpt>
    <trkpt lat="47.28068" lon="11.25638"><ele>935</ele></trkpt>
    <trkpt lat="47.28055" lon="11.25645"><ele>938</ele></trkpt>
    <trkpt lat="47.28049" lon="11.25666"><ele>940</ele></trkpt>
    <trkpt lat="47.28072" lon="11.25674"><ele>926</ele></trkpt>
    <trkpt lat="47.28092" lon="11.25695"><ele>933</ele></trkpt>
    <trkpt lat="47.28108" lon="11.25698"><ele>936</ele></trkpt>
    <trkpt lat="47.28124" lon="11.25722"><ele>938</ele></trkpt>
    <trkpt lat="47.28126" lon="11.25744"><ele>944</ele></trkpt>
    <trkpt lat="47.28113" lon="11.25751"><ele>940</ele></trkpt>
    <trkpt lat="47.28109" lon="11.25765"><ele>929</ele></trkpt>
    <trkpt lat="47.28127" lon="11.25778"><ele>928</ele></trkpt>
    <trkpt lat="47.28141" lon="11.25785"><ele>930</ele></trkpt>
    <trkpt lat="47.28144" lon="11.25803"><ele>927</ele></trkpt>
    <trkpt lat="47.28160" lon="11.25821"><ele>928</ele></trkpt>
    <trkpt lat="47.28169" lon="11.25854"><ele>930</ele></trkpt>
    <trkpt lat="47.28181" lon="11.25878"><ele>922</ele></trkpt>
    <trkpt lat="47.28193" lon="11.25885"><ele>922</ele></trkpt>
    <trkpt lat="47.28196" lon="11.25898"><ele>922</ele></trkpt>
    <trkpt lat="47.28200" lon="11.25926"><ele>921</ele></trkpt>
    <trkpt lat="47.28188" lon="11.25937"><ele>925</ele></trkpt>
    <trkpt lat="47.28174" lon="11.25915"><ele>926</ele></trkpt>
    <trkpt lat="47.28156" lon="11.25917"><ele>922</ele></trkpt>
    <trkpt lat="47.28141" lon="11.25946"><ele>918</ele></trkpt>
    <trkpt lat="47.28137" lon="11.25974"><ele>915</ele></trkpt>
    <trkpt lat="47.28137" lon="11.26006"><ele>910</ele></trkpt>
    <trkpt lat="47.28137" lon="11.26041"><ele>915</ele></trkpt>
    <trkpt lat="47.28145" lon="11.26069"><ele>907</ele></trkpt>
    <trkpt lat="47.28141" lon="11.26095"><ele>905</ele></trkpt>
    <trkpt lat="47.28142" lon="11.26125"><ele>905</ele></trkpt>
    <trkpt lat="47.28140" lon="11.26151"><ele>921</ele></trkpt>
    <trkpt lat="47.28148" lon="11.26178"><ele>902</ele></trkpt>
    <trkpt lat="47.28161" lon="11.26197"><ele>898</ele></trkpt>
    <trkpt lat="47.28164" lon="11.26215"><ele>896</ele></trkpt>
    <trkpt lat="47.28186" lon="11.26247"><ele>897</ele></trkpt>
    <trkpt lat="47.28201" lon="11.26248"><ele>894</ele></trkpt>
    <trkpt lat="47.28177" lon="11.26224"><ele>901</ele></trkpt>
    <trkpt lat="47.28168" lon="11.26217"><ele>907</ele></trkpt>
    <trkpt lat="47.28164" lon="11.26237"><ele>886</ele></trkpt>
    <trkpt lat="47.28160" lon="11.26255"><ele>881</ele></trkpt>
    <trkpt lat="47.28166" lon="11.26268"><ele>914</ele></trkpt>
    <trkpt lat="47.28150" lon="11.26265"><ele>881</ele></trkpt>
    <trkpt lat="47.28157" lon="11.26289"><ele>911</ele></trkpt>
    <trkpt lat="47.28167" lon="11.26315"><ele>887</ele></trkpt>
    <trkpt lat="47.28172" lon="11.26328"><ele>856</ele></trkpt>
    <trkpt lat="47.28164" lon="11.26334"><ele>874</ele></trkpt>
    <trkpt lat="47.28153" lon="11.26342"><ele>846</ele></trkpt>
    <trkpt lat="47.28140" lon="11.26331"><ele>842</ele></trkpt>
    <trkpt lat="47.28133" lon="11.26341"><ele>847</ele></trkpt>
    <trkpt lat="47.28127" lon="11.26328"><ele>873</ele></trkpt>
    <trkpt lat="47.28119" lon="11.26310"><ele>849</ele></trkpt>
    <trkpt lat="47.28107" lon="11.26290"><ele>839</ele></trkpt>
    <trkpt lat="47.28097" lon="11.26282"><ele>840</ele></trkpt>
    <trkpt lat="47.28106" lon="11.26295"><ele>849</ele></trkpt>
    <trkpt lat="47.28091" lon="11.26263"><ele>834</ele></trkpt>
    <trkpt lat="47.28082" lon="11.26247"><ele>830</ele></trkpt>
    <trkpt lat="47.28071" lon="11.26227"><ele>826</ele></trkpt>
    <trkpt lat="47.28069" lon="11.26206"><ele>801</ele></trkpt>
    <trkpt lat="47.28049" lon="11.26190"><ele>802</ele></trkpt>
    <trkpt lat="47.28034" lon="11.26181"><ele>801</ele></trkpt>
    <trkpt lat="47.28024" lon="11.26161"><ele>796</ele></trkpt>
    <trkpt lat="47.28018" lon="11.26150"><ele>801</ele></trkpt>
    <trkpt lat="47.28006" lon="11.26129"><ele>798</ele></trkpt>
    <trkpt lat="47.28012" lon="11.26108"><ele>799</ele></trkpt>
    <trkpt lat="47.28007" lon="11.26086"><ele>796</ele></trkpt>
    <trkpt lat="47.28001" lon="11.26060"><ele>794</ele></trkpt>
    <trkpt lat="47.27997" lon="11.26038"><ele>789</ele></trkpt>
    <trkpt lat="47.28000" lon="11.26015"><ele>775</ele></trkpt>
    <trkpt lat="47.28000" lon="11.25994"><ele>779</ele></trkpt>
    <trkpt lat="47.27997" lon="11.25968"><ele>785</ele></trkpt>
    <trkpt lat="47.27979" lon="11.25954"><ele>782</ele></trkpt>
    <trkpt lat="47.27975" lon="11.25940"><ele>778</ele></trkpt>
    <trkpt lat="47.27979" lon="11.25927"><ele>776</ele></trkpt>
    <trkpt lat="47.27970" lon="11.25919"><ele>775</ele></trkpt>
    <trkpt lat="47.27955" lon="11.25911"><ele>786</ele></trkpt>
    <trkpt lat="47.27943" lon="11.25899"><ele>788</ele></trkpt>
    <trkpt lat="47.27936" lon="11.25887"><ele>805</ele></trkpt>
    <trkpt lat="47.27929" lon="11.25866"><ele>806</ele></trkpt>
    <trkpt lat="47.27926" lon="11.25850"><ele>782</ele></trkpt>
    <trkpt lat="47.27918" lon="11.25834"><ele>802</ele></trkpt>
    <trkpt lat="47.27916" lon="11.25817"><ele>779</ele></trkpt>
    <trkpt lat="47.27918" lon="11.25788"><ele>802</ele></trkpt>
    <trkpt lat="47.27923" lon="11.25759"><ele>778</ele></trkpt>
    <trkpt lat="47.27928" lon="11.25730"><ele>777</ele></trkpt>
    <trkpt lat="47.27912" lon="11.25710"><ele>780</ele></trkpt>
    <trkpt lat="47.27899" lon="11.25694"><ele>782</ele></trkpt>
    <trkpt lat="47.27887" lon="11.25703"><ele>896</ele></trkpt>
    <trkpt lat="47.27873" lon="11.25714"><ele>802</ele></trkpt>
    <trkpt lat="47.27863" lon="11.25700"><ele>887</ele></trkpt>
    <trkpt lat="47.27856" lon="11.25680"><ele>790</ele></trkpt>
    <trkpt lat="47.27846" lon="11.25659"><ele>795</ele></trkpt>
    <trkpt lat="47.27837" lon="11.25667"><ele>790</ele></trkpt>
    <trkpt lat="47.27837" lon="11.25650"><ele>756</ele></trkpt>
    <trkpt lat="47.27847" lon="11.25668"><ele>758</ele></trkpt>
    <trkpt lat="47.27860" lon="11.25683"><ele>771</ele></trkpt>
    <trkpt lat="47.27859" lon="11.25659"><ele>770</ele></trkpt>
    <trkpt lat="47.27853" lon="11.25646"><ele>769</ele></trkpt>
    <trkpt lat="47.27840" lon="11.25667"><ele>772</ele></trkpt>
    <trkpt lat="47.27831" lon="11.25643"><ele>770</ele></trkpt>
    <trkpt lat="47.27825" lon="11.25632"><ele>772</ele></trkpt>
    <trkpt lat="47.27819" lon="11.25609"><ele>760</ele></trkpt>
    <trkpt lat="47.27818" lon="11.25594"><ele>758</ele></trkpt>
    <trkpt lat="47.27814" lon="11.25561"><ele>753</ele></trkpt>
    <trkpt lat="47.27813" lon="11.25541"><ele>762</ele></trkpt>
    <trkpt lat="47.27804" lon="11.25531"><ele>882</ele></trkpt>
    <trkpt lat="47.27797" lon="11.25507"><ele>755</ele></trkpt>
    <trkpt lat="47.27797" lon="11.25488"><ele>752</ele></trkpt>
    <trkpt lat="47.27792" lon="11.25465"><ele>746</ele></trkpt>
    <trkpt lat="47.27794" lon="11.25441"><ele>750</ele></trkpt>
    <trkpt lat="47.27778" lon="11.25417"><ele>731</ele></trkpt>
    <trkpt lat="47.27780" lon="11.25400"><ele>741</ele></trkpt>
    <trkpt lat="47.27774" lon="11.25381"><ele>730</ele></trkpt>
    <trkpt lat="47.27770" lon="11.25358"><ele>729</ele></trkpt>
    <trkpt lat="47.27767" lon="11.25339"><ele>724</ele></trkpt>
    <trkpt lat="47.27762" lon="11.25323"><ele>719</ele></trkpt>
    <trkpt lat="47.27755" lon="11.25306"><ele>708</ele></trkpt>
    <trkpt lat="47.27751" lon="11.25285"><ele>710</ele></trkpt>
    <trkpt lat="47.27742" lon="11.25272"><ele>707</ele></trkpt>
    <trkpt lat="47.27736" lon="11.25249"><ele>694</ele></trkpt>
    <trkpt lat="47.27726" lon="11.25229"><ele>685</ele></trkpt>
    <trkpt lat="47.27714" lon="11.25217"><ele>689</ele></trkpt>
    <trkpt lat="47.27700" lon="11.25210"><ele>739</ele></trkpt>
    <trkpt lat="47.27689" lon="11.25204"><ele>728</ele></trkpt>
    <trkpt lat="47.27681" lon="11.25224"><ele>721</ele></trkpt>
    <trkpt lat="47.27665" lon="11.25215"><ele>746</ele></trkpt>
    <trkpt lat="47.27652" lon="11.25196"><ele>760</ele></trkpt>
    <trkpt lat="47.27642" lon="11.25166"><ele>766</ele></trkpt>
    <trkpt lat="47.27639" lon="11.25152"><ele>763</ele></trkpt>
    <trkpt lat="47.27638" lon="11.25176"><ele>738</ele></trkpt>
    <trkpt lat="47.27624" lon="11.25186"><ele>714</ele></trkpt>
    <trkpt lat="47.27612" lon="11.25169"><ele>703</ele></trkpt>
    <trkpt lat="47.27600" lon="11.25159"><ele>711</ele></trkpt>
    <trkpt lat="47.27590" lon="11.25154"><ele>727</ele></trkpt>
    <trkpt lat="47.27583" lon="11.25144"><ele>793</ele></trkpt>
    <trkpt lat="47.27567" lon="11.25134"><ele>736</ele></trkpt>
    <trkpt lat="47.27557" lon="11.25129"><ele>778</ele></trkpt>
    <trkpt lat="47.27564" lon="11.25139"><ele>840</ele></trkpt>
    <trkpt lat="47.27569" lon="11.25118"><ele>791</ele></trkpt>
    <trkpt lat="47.27542" lon="11.25105"><ele>835</ele></trkpt>
    <trkpt lat="47.27531" lon="11.25137"><ele>694</ele></trkpt>
    <trkpt lat="47.27523" lon="11.25146"><ele>717</ele></trkpt>
    <trkpt lat="47.27509" lon="11.25137"><ele>720</ele></trkpt>
    <trkpt lat="47.27493" lon="11.25116"><ele>694</ele></trkpt>
    <trkpt lat="47.27482" lon="11.25102"><ele>668</ele></trkpt>
    <trkpt lat="47.27486" lon="11.25081"><ele>671</ele></trkpt>
    <trkpt lat="47.27503" lon="11.25059"><ele>677</ele></trkpt>
    <trkpt lat="47.27506" lon="11.25023"><ele>675</ele></trkpt>
    <trkpt lat="47.27504" lon="11.25000"><ele>672</ele></trkpt>
    <trkpt lat="47.27508" lon="11.24987"><ele>674</ele></trkpt>
    <trkpt lat="47.27514" lon="11.24967"><ele>670</ele></trkpt>
    <trkpt lat="47.27515" lon="11.24940"><ele>675</ele></trkpt>
    <trkpt lat="47.27516" lon="11.24916"><ele>675</ele></trkpt>
    <trkpt lat="47.27512" lon="11.24885"><ele>672</ele></trkpt>
    <trkpt lat="47.27502" lon="11.24864"><ele>672</ele></trkpt>
    <trkpt lat="47.27521" lon="11.24882"><ele>673</ele></trkpt>
    <trkpt lat="47.27527" lon="11.24913"><ele>675</ele></trkpt>
    <trkpt lat="47.27532" lon="11.24940"><ele>677</ele></trkpt>
    <trkpt lat="47.27538" lon="11.24952"><ele>679</ele></trkpt>
    <trkpt lat="47.27534" lon="11.24976"><ele>692</ele></trkpt>
    <trkpt lat="47.27532" lon="11.25004"><ele>691</ele></trkpt>
    <trkpt lat="47.27528" lon="11.25020"><ele>696</ele></trkpt>
    <trkpt lat="47.27530" lon="11.25046"><ele>698</ele></trkpt>
    <trkpt lat="47.27526" lon="11.25062"><ele>704</ele></trkpt>
    <trkpt lat="47.27540" lon="11.25053"><ele>710</ele></trkpt>
    <trkpt lat="47.27545" lon="11.25037"><ele>714</ele></trkpt>
    <trkpt lat="47.27543" lon="11.25061"><ele>726</ele></trkpt>
    <trkpt lat="47.27545" lon="11.25075"><ele>727</ele></trkpt>
    <trkpt lat="47.27539" lon="11.25106"><ele>718</ele></trkpt>
    <trkpt lat="47.27537" lon="11.25074"><ele>729</ele></trkpt>
    <trkpt lat="47.27549" lon="11.25057"><ele>729</ele></trkpt>
    <trkpt lat="47.27550" lon="11.25032"><ele>726</ele></trkpt>
    <trkpt lat="47.27537" lon="11.25056"><ele>717</ele></trkpt>
    <trkpt lat="47.27528" lon="11.25065"><ele>712</ele></trkpt>
    <trkpt lat="47.27532" lon="11.25049"><ele>709</ele></trkpt>
    <trkpt lat="47.27526" lon="11.25032"><ele>712</ele></trkpt>
    <trkpt lat="47.27529" lon="11.25014"><ele>706</ele></trkpt>
    <trkpt lat="47.27537" lon="11.24998"><ele>698</ele></trkpt>
    <trkpt lat="47.27538" lon="11.24981"><ele>693</ele></trkpt>
    <trkpt lat="47.27542" lon="11.24956"><ele>680</ele></trkpt>
    <trkpt lat="47.27538" lon="11.24941"><ele>678</ele></trkpt>
    <trkpt lat="47.27533" lon="11.24922"><ele>685</ele></trkpt>
    <trkpt lat="47.27527" lon="11.24898"><ele>681</ele></trkpt>
    <trkpt lat="47.27522" lon="11.24875"><ele>674</ele></trkpt>
    <trkpt lat="47.27525" lon="11.24855"><ele>668</ele></trkpt>
    <trkpt lat="47.27528" lon="11.24828"><ele>671</ele></trkpt>
    <trkpt lat="47.27527" lon="11.24814"><ele>677</ele></trkpt>
    <trkpt lat="47.27532" lon="11.24790"><ele>667</ele></trkpt>
    <trkpt lat="47.27537" lon="11.24772"><ele>663</ele></trkpt>
    <trkpt lat="47.27550" lon="11.24753"><ele>659</ele></trkpt>
    <trkpt lat="47.27558" lon="11.24729"><ele>664</ele></trkpt>
    <trkpt lat="47.27568" lon="11.24703"><ele>659</ele></trkpt>
    <trkpt lat="47.27570" lon="11.24685"><ele>661</ele></trkpt>
    <trkpt lat="47.27572" lon="11.24651"><ele>663</ele></trkpt>
    <trkpt lat="47.27589" lon="11.24630"><ele>659</ele></trkpt>
    <trkpt lat="47.27603" lon="11.24602"><ele>655</ele></trkpt>
    <trkpt lat="47.27614" lon="11.24578"><ele>654</ele></trkpt>
    <trkpt lat="47.27620" lon="11.24539"><ele>662</ele></trkpt>
    <trkpt lat="47.27632" lon="11.24507"><ele>649</ele></trkpt>
    <trkpt lat="47.27636" lon="11.24477"><ele>658</ele></trkpt>
    <trkpt lat="47.27646" lon="11.24444"><ele>659</ele></trkpt>
    <trkpt lat="47.27662" lon="11.24414"><ele>664</ele></trkpt>
    <trkpt lat="47.27673" lon="11.24388"><ele>660</ele></trkpt>
    <trkpt lat="47.27678" lon="11.24361"><ele>657</ele></trkpt>
    <trkpt lat="47.27696" lon="11.24337"><ele>654</ele></trkpt>
    <trkpt lat="47.27707" lon="11.24307"><ele>656</ele></trkpt>
    <trkpt lat="47.27716" lon="11.24279"><ele>654</ele></trkpt>
    <trkpt lat="47.27728" lon="11.24251"><ele>655</ele></trkpt>
    <trkpt lat="47.27724" lon="11.24218"><ele>657</ele></trkpt>
    <trkpt lat="47.27702" lon="11.24206"><ele>656</ele></trkpt>
    <trkpt lat="47.27677" lon="11.24222"><ele>664</ele></trkpt>
    <trkpt lat="47.27662" lon="11.24218"><ele>665</ele></trkpt>
    <trkpt lat="47.27639" lon="11.24222"><ele>661</ele></trkpt>
    <trkpt lat="47.27617" lon="11.24226"><ele>656</ele></trkpt>
    <trkpt lat="47.27597" lon="11.24216"><ele>664</ele></trkpt>
    <trkpt lat="47.27580" lon="11.24205"><ele>658</ele></trkpt>
    <trkpt lat="47.27556" lon="11.24203"><ele>651</ele></trkpt>
    <trkpt lat="47.27534" lon="11.24209"><ele>652</ele></trkpt>
    <trkpt lat="47.27512" lon="11.24210"><ele>647</ele></trkpt>
    <trkpt lat="47.27488" lon="11.24212"><ele>646</ele></trkpt>
    <trkpt lat="47.27467" lon="11.24214"><ele>643</ele></trkpt>
    <trkpt lat="47.27445" lon="11.24210"><ele>642</ele></trkpt>
    <trkpt lat="47.27426" lon="11.24203"><ele>635</ele></trkpt>
    <trkpt lat="47.27412" lon="11.24191"><ele>633</ele></trkpt>
    <trkpt lat="47.27390" lon="11.24190"><ele>632</ele></trkpt>
    <trkpt lat="47.27366" lon="11.24195"><ele>632</ele></trkpt>
    <trkpt lat="47.27359" lon="11.24181"><ele>631</ele></trkpt>
    <trkpt lat="47.27366" lon="11.24156"><ele>627</ele></trkpt>
    <trkpt lat="47.27351" lon="11.24162"><ele>641</ele></trkpt>
    <trkpt lat="47.27348" lon="11.24177"><ele>652</ele></trkpt>
  </trkseg>
</trk>
</gpx>