<?xml version="1.0" encoding="UTF-8"?>
<gpx version="1.1" creator="Gpx-Optimizer" xmlns="http://www.topografix.com/GPX/1/1">
<trk>
  <name>Pyhrnerkampl NO-Wand</name>
  <type>hike</type>
  <trkseg>
    <trkpt lat="47.67898" lon="14.18021"><ele>1386</ele></trkpt>
    <trkpt lat="47.67892" lon="14.18053"><ele>1376</ele></trkpt>
    <trkpt lat="47.67891" lon="14.18086"><ele>1374</ele></trkpt>
    <trkpt lat="47.67892" lon="14.18118"><ele>1374</ele></trkpt>
    <trkpt lat="47.67894" lon="14.18149"><ele>1371</ele></trkpt>
    <trkpt lat="47.67898" lon="14.18183"><ele>1375</ele></trkpt>
    <trkpt lat="47.67907" lon="14.18220"><ele>1378</ele></trkpt>
    <trkpt lat="47.67918" lon="14.18252"><ele>1377</ele></trkpt>
    <trkpt lat="47.67926" lon="14.18279"><ele>1369</ele></trkpt>
    <trkpt lat="47.67935" lon="14.18303"><ele>1364</ele></trkpt>
    <trkpt lat="47.67933" lon="14.18319"><ele>1367</ele></trkpt>
    <trkpt lat="47.67920" lon="14.18316"><ele>1373</ele></trkpt>
    <trkpt lat="47.67906" lon="14.18311"><ele>1366</ele></trkpt>
    <trkpt lat="47.67882" lon="14.18296"><ele>1362</ele></trkpt>
    <trkpt lat="47.67861" lon="14.18294"><ele>1352</ele></trkpt>
    <trkpt lat="47.67837" lon="14.18296"><ele>1354</ele></trkpt>
    <trkpt lat="47.67816" lon="14.18288"><ele>1346</ele></trkpt>
    <trkpt lat="47.67795" lon="14.18290"><ele>1352</ele></trkpt>
    <trkpt lat="47.67777" lon="14.18296"><ele>1365</ele></trkpt>
    <trkpt lat="47.67751" lon="14.18286"><ele>1353</ele></trkpt>
    <trkpt lat="47.67732" lon="14.18297"><ele>1338</ele></trkpt>
    <trkpt lat="47.67716" lon="14.18302"><ele>1349</ele></trkpt>
    <trkpt lat="47.67698" lon="14.18296"><ele>1338</ele></trkpt>
    <trkpt lat="47.67680" lon="14.18299"><ele>1355</ele></trkpt>
    <trkpt lat="47.67664" lon="14.18289"><ele>1327</ele></trkpt>
    <trkpt lat="47.67644" lon="14.18289"><ele>1323</ele></trkpt>
    <trkpt lat="47.67624" lon="14.18298"><ele>1318</ele></trkpt>
    <trkpt lat="47.67604" lon="14.18296"><ele>1326</ele></trkpt>
    <trkpt lat="47.67584" lon="14.18286"><ele>1329</ele></trkpt>
    <trkpt lat="47.67565" lon="14.18285"><ele>1354</ele></trkpt>
    <trkpt lat="47.67543" lon="14.18292"><ele>1307</ele></trkpt>
    <trkpt lat="47.67524" lon="14.18303"><ele>1302</ele></trkpt>
    <trkpt lat="47.67504" lon="14.18307"><ele>1358</ele></trkpt>
    <trkpt lat="47.67485" lon="14.18321"><ele>1348</ele></trkpt>
    <trkpt lat="47.67464" lon="14.18333"><ele>1303</ele></trkpt>
    <trkpt lat="47.67448" lon="14.18332"><ele>1304</ele></trkpt>
    <trkpt lat="47.67431" lon="14.18338"><ele>1288</ele></trkpt>
    <trkpt lat="47.67412" lon="14.18353"><ele>1280</ele></trkpt>
    <trkpt lat="47.67398" lon="14.18373"><ele>1337</ele></trkpt>
    <trkpt lat="47.67383" lon="14.18392"><ele>1272</ele></trkpt>
    <trkpt lat="47.67369" lon="14.18403"><ele>1348</ele></trkpt>
    <trkpt lat="47.67351" lon="14.18411"><ele>1298</ele></trkpt>
    <trkpt lat="47.67333" lon="14.18423"><ele>1264</ele></trkpt>
    <trkpt lat="47.67319" lon="14.18442"><ele>1314</ele></trkpt>
    <trkpt lat="47.67305" lon="14.18459"><ele>1295</ele></trkpt>
    <trkpt lat="47.67291" lon="14.18482"><ele>1253</ele></trkpt>
    <trkpt lat="47.67274" lon="14.18497"><ele>1338</ele></trkpt>
    <trkpt lat="47.67262" lon="14.18523"><ele>1250</ele></trkpt>
    <trkpt lat="47.67251" lon="14.18553"><ele>1246</ele></trkpt>
    <trkpt lat="47.67252" lon="14.18582"><ele>1265</ele></trkpt>
    <trkpt lat="47.67257" lon="14.18614"><ele>1245</ele></trkpt>
    <trkpt lat="47.67261" lon="14.18638"><ele>1304</ele></trkpt>
    <trkpt lat="47.67272" lon="14.18664"><ele>1236</ele></trkpt>
    <trkpt lat="47.67250" lon="14.18671"><ele>1219</ele></trkpt>
    <trkpt lat="47.67233" lon="14.18665"><ele>1236</ele></trkpt>
    <trkpt lat="47.67217" lon="14.18668"><ele>1239</ele></trkpt>
    <trkpt lat="47.67200" lon="14.18674"><ele>1247</ele></trkpt>
    <trkpt lat="47.67189" lon="14.18686"><ele>1246</ele></trkpt>
    <trkpt lat="47.67172" lon="14.18692"><ele>1244</ele></trkpt>
    <trkpt lat="47.67161" lon="14.18705"><ele>1239</ele></trkpt>
    <trkpt lat="47.67150" lon="14.18728"><ele>1327</ele></trkpt>
    <trkpt lat="47.67146" lon="14.18749"><ele>1252</ele></trkpt>
    <trkpt lat="47.67146" lon="14.18775"><ele>1263</ele></trkpt>
    <trkpt lat="47.67146" lon="14.18791"><ele>1358</ele></trkpt>
    <trkpt lat="47.67152" lon="14.18816"><ele>1262</ele></trkpt>
    <trkpt lat="47.67155" lon="14.18829"><ele>1256</ele></trkpt>
    <trkpt lat="47.67164" lon="14.18850"><ele>1313</ele></trkpt>
    <trkpt lat="47.67180" lon="14.18850"><ele>1308</ele></trkpt>
    <trkpt lat="47.67195" lon="14.18845"><ele>1356</ele></trkpt>
    <trkpt lat="47.67211" lon="14.18836"><ele>1273</ele></trkpt>
    <trkpt lat="47.67228" lon="14.18829"><ele>1294</ele></trkpt>
    <trkpt lat="47.67239" lon="14.18824"><ele>1271</ele></trkpt>
    <trkpt lat="47.67250" lon="14.18830"><ele>1309</ele></trkpt>
    <trkpt lat="47.67246" lon="14.18844"><ele>1341</ele></trkpt>
    <trkpt lat="47.67244" lon="14.18869"><ele>1296</ele></trkpt>
    <trkpt lat="47.67239" lon="14.18893"><ele>1291</ele></trkpt>
    <trkpt lat="47.67258" lon="14.18900"><ele>1303</ele></trkpt>
    <trkpt lat="47.67260" lon="14.18914"><ele>1295</ele></trkpt>
    <trkpt lat="47.67271" lon="14.18922"><ele>1310</ele></trkpt>
    <trkpt lat="47.67278" lon="14.18939"><ele>1298</ele></trkpt>
    <trkpt lat="47.67277" lon="14.18962"><ele>1303</ele></trkpt>
    <trkpt lat="47.67273" lon="14.18983"><ele>1352</ele></trkpt>
    <trkpt lat="47.67273" lon="14.19003"><ele>1318</ele></trkpt>
    <trkpt lat="47.67276" lon="14.19025"><ele>1324</ele></trkpt>
    <trkpt lat="47.67273" lon="14.19041"><ele>1325</ele></trkpt>
    <trkpt lat="47.67264" lon="14.19044"><ele>1322</ele></trkpt>
    <trkpt lat="47.67254" lon="14.19037"><ele>1329</ele></trkpt>
    <trkpt lat="47.67245" lon="14.19031"><ele>1334</ele></trkpt>
    <trkpt lat="47.67229" lon="14.19024"><ele>1327</ele></trkpt>
    <trkpt lat="47.67217" lon="14.19022"><ele>1342</ele></trkpt>
    <trkpt lat="47.67209" lon="14.19030"><ele>1345</ele></trkpt>
    <trkpt lat="47.67199" lon="14.19037"><ele>1338</ele></trkpt>
    <trkpt lat="47.67187" lon="14.19033"><ele>1341</ele></trkpt>
    <trkpt lat="47.67173" lon="14.19033"><ele>1352</ele></trkpt>
    <trkpt lat="47.67161" lon="14.19044"><ele>1355</ele></trkpt>
    <trkpt lat="47.67146" lon="14.19049"><ele>1358</ele></trkpt>
    <trkpt lat="47.67129" lon="14.19056"><ele>1347</ele></trkpt>
    <trkpt lat="47.67115" lon="14.19065"><ele>1355</ele></trkpt>
    <trkpt lat="47.67105" lon="14.19079"><ele>1350</ele></trkpt>
    <trkpt lat="47.67096" lon="14.19099"><ele>1351</ele></trkpt>
    <trkpt lat="47.67081" lon="14.19117"><ele>1352</ele></trkpt>
    <trkpt lat="47.67069" lon="14.19128"><ele>1356</ele></trkpt>
    <trkpt lat="47.67057" lon="14.19138"><ele>1354</ele></trkpt>
    <trkpt lat="47.67050" lon="14.19153"><ele>1359</ele></trkpt>
    <trkpt lat="47.67043" lon="14.19163"><ele>1364</ele></trkpt>
    <trkpt lat="47.67032" lon="14.19176"><ele>1372</ele></trkpt>
    <trkpt lat="47.67022" lon="14.19180"><ele>1375</ele></trkpt>
    <trkpt lat="47.67008" lon="14.19189"><ele>1377</ele></trkpt>
    <trkpt lat="47.66992" lon="14.19194"><ele>1377</ele></trkpt>
    <trkpt lat="47.66981" lon="14.19205"><ele>1381</ele></trkpt>
    <trkpt lat="47.66969" lon="14.19214"><ele>1383</ele></trkpt>
    <trkpt lat="47.66960" lon="14.19225"><ele>1382</ele></trkpt>
    <trkpt lat="47.66948" lon="14.19237"><ele>1384</ele></trkpt>
    <trkpt lat="47.66935" lon="14.19244"><ele>1390</ele></trkpt>
    <trkpt lat="47.66925" lon="14.19254"><ele>1393</ele></trkpt>
    <trkpt lat="47.66915" lon="14.19259"><ele>1396</ele></trkpt>
    <trkpt lat="47.66903" lon="14.19260"><ele>1393</ele></trkpt>
    <trkpt lat="47.66894" lon="14.19262"><ele>1394</ele></trkpt>
    <trkpt lat="47.66875" lon="14.19270"><ele>1405</ele></trkpt>
    <trkpt lat="47.66863" lon="14.19277"><ele>1399</ele></trkpt>
    <trkpt lat="47.66852" lon="14.19284"><ele>1394</ele></trkpt>
    <trkpt lat="47.66849" lon="14.19304"><ele>1411</ele></trkpt>
    <trkpt lat="47.66855" lon="14.19323"><ele>1402</ele></trkpt>
    <trkpt lat="47.66857" lon="14.19338"><ele>1397</ele></trkpt>
    <trkpt lat="47.66848" lon="14.19337"><ele>1417</ele></trkpt>
    <trkpt lat="47.66837" lon="14.19334"><ele>1416</ele></trkpt>
    <trkpt lat="47.66830" lon="14.19326"><ele>1421</ele></trkpt>
    <trkpt lat="47.66818" lon="14.19320"><ele>1428</ele></trkpt>
    <trkpt lat="47.66802" lon="14.19318"><ele>1399</ele></trkpt>
    <trkpt lat="47.66790" lon="14.19320"><ele>1412</ele></trkpt>
    <trkpt lat="47.66779" lon="14.19324"><ele>1426</ele></trkpt>
    <trkpt lat="47.66762" lon="14.19322"><ele>1423</ele></trkpt>
    <trkpt lat="47.66749" lon="14.19325"><ele>1443</ele></trkpt>
    <trkpt lat="47.66736" lon="14.19325"><ele>1445</ele></trkpt>
    <trkpt lat="47.66720" lon="14.19323"><ele>1447</ele></trkpt>
    <trkpt lat="47.66708" lon="14.19309"><ele>1456</ele></trkpt>
    <trkpt lat="47.66696" lon="14.19305"><ele>1466</ele></trkpt>
    <trkpt lat="47.66683" lon="14.19298"><ele>1465</ele></trkpt>
    <trkpt lat="47.66671" lon="14.19292"><ele>1426</ele></trkpt>
    <trkpt lat="47.66659" lon="14.19282"><ele>1465</ele></trkpt>
    <trkpt lat="47.66650" lon="14.19261"><ele>1477</ele></trkpt>
    <trkpt lat="47.66639" lon="14.19245"><ele>1482</ele></trkpt>
    <trkpt lat="47.66625" lon="14.19221"><ele>1478</ele></trkpt>
    <trkpt lat="47.66628" lon="14.19205"><ele>1485</ele></trkpt>
    <trkpt lat="47.66635" lon="14.19194"><ele>1479</ele></trkpt>
    <trkpt lat="47.66625" lon="14.19178"><ele>1445</ele></trkpt>
    <trkpt lat="47.66615" lon="14.19166"><ele>1491</ele></trkpt>
    <trkpt lat="47.66605" lon="14.19157"><ele>1494</ele></trkpt>
    <trkpt lat="47.66594" lon="14.19146"><ele>1496</ele></trkpt>
    <trkpt lat="47.66582" lon="14.19139"><ele>1507</ele></trkpt>
    <trkpt lat="47.66568" lon="14.19137"><ele>1507</ele></trkpt>
    <trkpt lat="47.66556" lon="14.19131"><ele>1502</ele></trkpt>
    <trkpt lat="47.66543" lon="14.19126"><ele>1505</ele></trkpt>
    <trkpt lat="47.66533" lon="14.19103"><ele>1500</ele></trkpt>
    <trkpt lat="47.66524" lon="14.19091"><ele>1516</ele></trkpt>
    <trkpt lat="47.66519" lon="14.19078"><ele>1517</ele></trkpt>
    <trkpt lat="47.66509" lon="14.19076"><ele>1518</ele></trkpt>
    <trkpt lat="47.66492" lon="14.19069"><ele>1521</ele></trkpt>
    <trkpt lat="47.66479" lon="14.19054"><ele>1542</ele></trkpt>
    <trkpt lat="47.66469" lon="14.19057"><ele>1543</ele></trkpt>
    <trkpt lat="47.66458" lon="14.19045"><ele>1549</ele></trkpt>
    <trkpt lat="47.66461" lon="14.19024"><ele>1571</ele></trkpt>
    <trkpt lat="47.66443" lon="14.19005"><ele>1557</ele></trkpt>
    <trkpt lat="47.66433" lon="14.18997"><ele>1539</ele></trkpt>
    <trkpt lat="47.66423" lon="14.18995"><ele>1571</ele></trkpt>
    <trkpt lat="47.66414" lon="14.18991"><ele>1572</ele></trkpt>
    <trkpt lat="47.66405" lon="14.18990"><ele>1514</ele></trkpt>
    <trkpt lat="47.66397" lon="14.18979"><ele>1506</ele></trkpt>
    <trkpt lat="47.66392" lon="14.18963"><ele>1451</ele></trkpt>
    <trkpt lat="47.66387" lon="14.18948"><ele>1561</ele></trkpt>
    <trkpt lat="47.66375" lon="14.18941"><ele>1580</ele></trkpt>
    <trkpt lat="47.66368" lon="14.18951"><ele>1566</ele></trkpt>
    <trkpt lat="47.66354" lon="14.18940"><ele>1595</ele></trkpt>
    <trkpt lat="47.66341" lon="14.18940"><ele>1571</ele></trkpt>
    <trkpt lat="47.66332" lon="14.18932"><ele>1489</ele></trkpt>
    <trkpt lat="47.66323" lon="14.18931"><ele>1565</ele></trkpt>
    <trkpt lat="47.66304" lon="14.18918"><ele>1565</ele></trkpt>
    <trkpt lat="47.66293" lon="14.18915"><ele>1548</ele></trkpt>
    <trkpt lat="47.66282" lon="14.18907"><ele>1579</ele></trkpt>
    <trkpt lat="47.66265" lon="14.18906"><ele>1586</ele></trkpt>
    <trkpt lat="47.66256" lon="14.18899"><ele>1614</ele></trkpt>
    <trkpt lat="47.66247" lon="14.18887"><ele>1605</ele></trkpt>
    <trkpt lat="47.66249" lon="14.18863"><ele>1620</ele></trkpt>
    <trkpt lat="47.66240" lon="14.18840"><ele>1612</ele></trkpt>
    <trkpt lat="47.66228" lon="14.18842"><ele>1519</ele></trkpt>
    <trkpt lat="47.66214" lon="14.18835"><ele>1598</ele></trkpt>
    <trkpt lat="47.66201" lon="14.18835"><ele>1639</ele></trkpt>
    <trkpt lat="47.66190" lon="14.18834"><ele>1632</ele></trkpt>
    <trkpt lat="47.66170" lon="14.18834"><ele>1598</ele></trkpt>
    <trkpt lat="47.66159" lon="14.18833"><ele>1649</ele></trkpt>
    <trkpt lat="47.66148" lon="14.18829"><ele>1650</ele></trkpt>
    <trkpt lat="47.66138" lon="14.18823"><ele>1659</ele></trkpt>
    <trkpt lat="47.66127" lon="14.18825"><ele>1660</ele></trkpt>
    <trkpt lat="47.66117" lon="14.18826"><ele>1663</ele></trkpt>
    <trkpt lat="47.66108" lon="14.18824"><ele>1667</ele></trkpt>
    <trkpt lat="47.66096" lon="14.18820"><ele>1669</ele></trkpt>
    <trkpt lat="47.66083" lon="14.18816"><ele>1665</ele></trkpt>
    <trkpt lat="47.66070" lon="14.18812"><ele>1667</ele></trkpt>
    <trkpt lat="47.66056" lon="14.18811"><ele>1666</ele></trkpt>
    <trkpt lat="47.66047" lon="14.18812"><ele>1621</ele></trkpt>
    <trkpt lat="47.66035" lon="14.18812"><ele>1670</ele></trkpt>
    <trkpt lat="47.66023" lon="14.18801"><ele>1679</ele></trkpt>
    <trkpt lat="47.66011" lon="14.18799"><ele>1668</ele></trkpt>
    <trkpt lat="47.66001" lon="14.18800"><ele>1680</ele></trkpt>
    <trkpt lat="47.65993" lon="14.18811"><ele>1669</ele></trkpt>
    <trkpt lat="47.65984" lon="14.18839"><ele>1663</ele></trkpt>
    <trkpt lat="47.65975" lon="14.18843"><ele>1685</ele></trkpt>
    <trkpt lat="47.65962" lon="14.18836"><ele>1589</ele></trkpt>
    <trkpt lat="47.65950" lon="14.18834"><ele>1691</ele></trkpt>
    <trkpt lat="47.65924" lon="14.18849"><ele>1697</ele></trkpt>
    <trkpt lat="47.65919" lon="14.18864"><ele>1696</ele></trkpt>
    <trkpt lat="47.65910" lon="14.18884"><ele>1707</ele></trkpt>
    <trkpt lat="47.65890" lon="14.18910"><ele>1706</ele></trkpt>
    <trkpt lat="47.65875" lon="14.18908"><ele>1706</ele></trkpt>
    <trkpt lat="47.65862" lon="14.18913"><ele>1710</ele></trkpt>
    <trkpt lat="47.65846" lon="14.18909"><ele>1707</ele></trkpt>
    <trkpt lat="47.65829" lon="14.18912"><ele>1707</ele></trkpt>
    <trkpt lat="47.65811" lon="14.18909"><ele>1704</ele></trkpt>
    <trkpt lat="47.65798" lon="14.18915"><ele>1705</ele></trkpt>
    <trkpt lat="47.65790" lon="14.18920"><ele>1709</ele></trkpt>
    <trkpt lat="47.65780" lon="14.18921"><ele>1712</ele></trkpt>
    <trkpt lat="47.65764" lon="14.18917"><ele>1717</ele></trkpt>
    <trkpt lat="47.65751" lon="14.18914"><ele>1721</ele></trkpt>
    <trkpt lat="47.65740" lon="14.18915"><ele>1719</ele></trkpt>
    <trkpt lat="47.65730" lon="14.18915"><ele>1720</ele></trkpt>
    <trkpt lat="47.65714" lon="14.18907"><ele>1722</ele></trkpt>
    <trkpt lat="47.65698" lon="14.18903"><ele>1734</ele></trkpt>
    <trkpt lat="47.65685" lon="14.18889"><ele>1741</ele></trkpt>
    <trkpt lat="47.65670" lon="14.18897"><ele>1751</ele></trkpt>
    <trkpt lat="47.65654" lon="14.18889"><ele>1760</ele></trkpt>
    <trkpt lat="47.65636" lon="14.18889"><ele>1769</ele></trkpt>
    <trkpt lat="47.65622" lon="14.18886"><ele>1766</ele></trkpt>
    <trkpt lat="47.65601" lon="14.18878"><ele>1767</ele></trkpt>
    <trkpt lat="47.65589" lon="14.18880"><ele>1770</ele></trkpt>
    <trkpt lat="47.65576" lon="14.18884"><ele>1769</ele></trkpt>
    <trkpt lat="47.65560" lon="14.18890"><ele>1767</ele></trkpt>
    <trkpt lat="47.65540" lon="14.18895"><ele>1732</ele></trkpt>
    <trkpt lat="47.65529" lon="14.18893"><ele>1777</ele></trkpt>
    <trkpt lat="47.65516" lon="14.18887"><ele>1774</ele></trkpt>
    <trkpt lat="47.65504" lon="14.18890"><ele>1779</ele></trkpt>
    <trkpt lat="47.65492" lon="14.18893"><ele>1783</ele></trkpt>
    <trkpt lat="47.65480" lon="14.18888"><ele>1781</ele></trkpt>
    <trkpt lat="47.65466" lon="14.18896"><ele>1784</ele></trkpt>
    <trkpt lat="47.65456" lon="14.18899"><ele>1779</ele></trkpt>
    <trkpt lat="47.65446" lon="14.18896"><ele>1786</ele></trkpt>
    <trkpt lat="47.65426" lon="14.18905"><ele>1787</ele></trkpt>
    <trkpt lat="47.65416" lon="14.18903"><ele>1792</ele></trkpt>
    <trkpt lat="47.65407" lon="14.18903"><ele>1797</ele></trkpt>
    <trkpt lat="47.65395" lon="14.18908"><ele>1802</ele></trkpt>
    <trkpt lat="47.65394" lon="14.18922"><ele>1806</ele></trkpt>
    <trkpt lat="47.65382" lon="14.18931"><ele>1801</ele></trkpt>
    <trkpt lat="47.65369" lon="14.18937"><ele>1801</ele></trkpt>
    <trkpt lat="47.65355" lon="14.18935"><ele>1798</ele></trkpt>
    <trkpt lat="47.65339" lon="14.18935"><ele>1804</ele></trkpt>
    <trkpt lat="47.65328" lon="14.18940"><ele>1803</ele></trkpt>
    <trkpt lat="47.65312" lon="14.18944"><ele>1797</ele></trkpt>
    <trkpt lat="47.65294" lon="14.18954"><ele>1793</ele></trkpt>
    <trkpt lat="47.65285" lon="14.18964"><ele>1794</ele></trkpt>
    <trkpt lat="47.65282" lon="14.18977"><ele>1791</ele></trkpt>
    <trkpt lat="47.65273" lon="14.18986"><ele>1792</ele></trkpt>
    <trkpt lat="47.65261" lon="14.18996"><ele>1792</ele></trkpt>
    <trkpt lat="47.65244" lon="14.18998"><ele>1790</ele></trkpt>
    <trkpt lat="47.65230" lon="14.19002"><ele>1793</ele></trkpt>
    <trkpt lat="47.65213" lon="14.19009"><ele>1789</ele></trkpt>
    <trkpt lat="47.65201" lon="14.19013"><ele>1793</ele></trkpt>
    <trkpt lat="47.65187" lon="14.19010"><ele>1796</ele></trkpt>
    <trkpt lat="47.65173" lon="14.19014"><ele>1797</ele></trkpt>
    <trkpt lat="47.65156" lon="14.19016"><ele>1801</ele></trkpt>
    <trkpt lat="47.65145" lon="14.19033"><ele>1817</ele></trkpt>
    <trkpt lat="47.65138" lon="14.19050"><ele>1813</ele></trkpt>
    <trkpt lat="47.65135" lon="14.19063"><ele>1813</ele></trkpt>
    <trkpt lat="47.65132" lon="14.19087"><ele>1819</ele></trkpt>
    <trkpt lat="47.65120" lon="14.19100"><ele>1824</ele></trkpt>
    <trkpt lat="47.65104" lon="14.19101"><ele>1841</ele></trkpt>
    <trkpt lat="47.65090" lon="14.19113"><ele>1853</ele></trkpt>
    <trkpt lat="47.65083" lon="14.19122"><ele>1855</ele></trkpt>
    <trkpt lat="47.65080" lon="14.19146"><ele>1858</ele></trkpt>
    <trkpt lat="47.65080" lon="14.19174"><ele>1861</ele></trkpt>
    <trkpt lat="47.65078" lon="14.19187"><ele>1863</ele></trkpt>
    <trkpt lat="47.65068" lon="14.19195"><ele>1865</ele></trkpt>
    <trkpt lat="47.65068" lon="14.19220"><ele>1879</ele></trkpt>
    <trkpt lat="47.65059" lon="14.19247"><ele>1885</ele></trkpt>
    <trkpt lat="47.65057" lon="14.19262"><ele>1882</ele></trkpt>
    <trkpt lat="47.65055" lon="14.19278"><ele>1885</ele></trkpt>
    <trkpt lat="47.65042" lon="14.19266"><ele>1902</ele></trkpt>
    <trkpt lat="47.65026" lon="14.19257"><ele>1905</ele></trkpt>
    <trkpt lat="47.65006" lon="14.19254"><ele>1911</ele></trkpt>
    <trkpt lat="47.64994" lon="14.19270"><ele>1918</ele></trkpt>
    <trkpt lat="47.64983" lon="14.19291"><ele>1925</ele></trkpt>
    <trkpt lat="47.64977" lon="14.19300"><ele>1929</ele></trkpt>
    <trkpt lat="47.64988" lon="14.19300"><ele>1924</ele></trkpt>
    <trkpt lat="47.64990" lon="14.19324"><ele>1931</ele></trkpt>
    <trkpt lat="47.64997" lon="14.19346"><ele>1924</ele></trkpt>
    <trkpt lat="47.65005" lon="14.19355"><ele>1930</ele></trkpt>
    <trkpt lat="47.65003" lon="14.19383"><ele>1930</ele></trkpt>
    <trkpt lat="47.65013" lon="14.19404"><ele>1933</ele></trkpt>
    <trkpt lat="47.65024" lon="14.19423"><ele>1945</ele></trkpt>
    <trkpt lat="47.65030" lon="14.19434"><ele>1946</ele></trkpt>
    <trkpt lat="47.65016" lon="14.19448"><ele>1956</ele></trkpt>
    <trkpt lat="47.65014" lon="14.19462"><ele>1955</ele></trkpt>
    <trkpt lat="47.65026" lon="14.19478"><ele>1968</ele></trkpt>
    <trkpt lat="47.65028" lon="14.19491"><ele>1970</ele></trkpt>
    <trkpt lat="47.65031" lon="14.19506"><ele>1972</ele></trkpt>
    <trkpt lat="47.65039" lon="14.19536"><ele>1976</ele></trkpt>
    <trkpt lat="47.65031" lon="14.19570"><ele>1972</ele></trkpt>
    <trkpt lat="47.65025" lon="14.19599"><ele>1978</ele></trkpt>
    <trkpt lat="47.65021" lon="14.19612"><ele>1976</ele></trkpt>
    <trkpt lat="47.65021" lon="14.19635"><ele>1983</ele></trkpt>
    <trkpt lat="47.65013" lon="14.19653"><ele>1989</ele></trkpt>
    <trkpt lat="47.65010" lon="14.19676"><ele>2005</ele></trkpt>
    <trkpt lat="47.65010" lon="14.19701"><ele>2005</ele></trkpt>
    <trkpt lat="47.65010" lon="14.19717"><ele>2005</ele></trkpt>
    <trkpt lat="47.65015" lon="14.19740"><ele>1998</ele></trkpt>
    <trkpt lat="47.65025" lon="14.19729"><ele>2024</ele></trkpt>
    <trkpt lat="47.65033" lon="14.19750"><ele>2033</ele></trkpt>
    <trkpt lat="47.65037" lon="14.19767"><ele>2047</ele></trkpt>
    <trkpt lat="47.65044" lon="14.19785"><ele>2052</ele></trkpt>
    <trkpt lat="47.65041" lon="14.19802"><ele>2083</ele></trkpt>
    <trkpt lat="47.65051" lon="14.19820"><ele>2080</ele></trkpt>
    <trkpt lat="47.65059" lon="14.19841"><ele>2077</ele></trkpt>
    <trkpt lat="47.65066" lon="14.19856"><ele>2108</ele></trkpt>
    <trkpt lat="47.65060" lon="14.19875"><ele>2124</ele></trkpt>
    <trkpt lat="47.65044" lon="14.19880"><ele>2148</ele></trkpt>
    <trkpt lat="47.65028" lon="14.19885"><ele>2177</ele></trkpt>
    <trkpt lat="47.65022" lon="14.19907"><ele>2189</ele></trkpt>
    <trkpt lat="47.65008" lon="14.19896"><ele>2197</ele></trkpt>
    <trkpt lat="47.64993" lon="14.19902"><ele>2211</ele></trkpt>
    <trkpt lat="47.64977" lon="14.19911"><ele>2224</ele></trkpt>
    <trkpt lat="47.64963" lon="14.19922"><ele>2234</ele></trkpt>
    <trkpt lat="47.64943" lon="14.19932"><ele>2243</ele></trkpt>
    <trkpt lat="47.64930" lon="14.19916"><ele>2245</ele></trkpt>
    <trkpt lat="47.64920" lon="14.19902"><ele>2246</ele></trkpt>
    <trkpt lat="47.64911" lon="14.19883"><ele>2246</ele></trkpt>
    <trkpt lat="47.64901" lon="14.19868"><ele>2249</ele></trkpt>
    <trkpt lat="47.64889" lon="14.19855"><ele>2247</ele></trkpt>
    <trkpt lat="47.64875" lon="14.19834"><ele>2243</ele></trkpt>
    <trkpt lat="47.64869" lon="14.19823"><ele>2240</ele></trkpt>
    <trkpt lat="47.64863" lon="14.19808"><ele>2239</ele></trkpt>
    <trkpt lat="47.64859" lon="14.19795"><ele>2233</ele></trkpt>
    <trkpt lat="47.64849" lon="14.19779"><ele>2219</ele></trkpt>
    <trkpt lat="47.64842" lon="14.19756"><ele>2210</ele></trkpt>
    <trkpt lat="47.64829" lon="14.19741"><ele>2217</ele></trkpt>
    <trkpt lat="47.64818" lon="14.19724"><ele>2221</ele></trkpt>
    <trkpt lat="47.64807" lon="14.19708"><ele>2229</ele></trkpt>
    <trkpt lat="47.64802" lon="14.19697"><ele>2231</ele></trkpt>
    <trkpt lat="47.64800" lon="14.19675"><ele>2197</ele></trkpt>
    <trkpt lat="47.64789" lon="14.19658"><ele>2217</ele></trkpt>
    <trkpt lat="47.64777" lon="14.19642"><ele>2223</ele></trkpt>
    <trkpt lat="47.64763" lon="14.19635"><ele>2217</ele></trkpt>
    <trkpt lat="47.64745" lon="14.19642"><ele>2211</ele></trkpt>
    <trkpt lat="47.64741" lon="14.19615"><ele>2206</ele></trkpt>
    <trkpt lat="47.64728" lon="14.19605"><ele>2178</ele></trkpt>
    <trkpt lat="47.64715" lon="14.19589"><ele>2217</ele></trkpt>
    <trkpt lat="47.64713" lon="14.19574"><ele>2214</ele></trkpt>
    <trkpt lat="47.64703" lon="14.19561"><ele>2214</ele></trkpt>
    <trkpt lat="47.64694" lon="14.19550"><ele>2217</ele></trkpt>
    <trkpt lat="47.64678" lon="14.19544"><ele>2211</ele></trkpt>
    <trkpt lat="47.64667" lon="14.19534"><ele>2211</ele></trkpt>
    <trkpt lat="47.64658" lon="14.19524"><ele>2211</ele></trkpt>
    <trkpt lat="47.64646" lon="14.19508"><ele>2211</ele></trkpt>
    <trkpt lat="47.64630" lon="14.19507"><ele>2201</ele></trkpt>
    <trkpt lat="47.64614" lon="14.19508"><ele>2192</ele></trkpt>
    <trkpt lat="47.64603" lon="14.19503"><ele>2191</ele></trkpt>
    <trkpt lat="47.64594" lon="14.19500"><ele>2188</ele></trkpt>
    <trkpt lat="47.64585" lon="14.19505"><ele>2187</ele></trkpt>
    <trkpt lat="47.64574" lon="14.19509"><ele>2185</ele></trkpt>
    <trkpt lat="47.64562" lon="14.19513"><ele>2184</ele></trkpt>
    <trkpt lat="47.64552" lon="14.19512"><ele>2182</ele></trkpt>
    <trkpt lat="47.64534" lon="14.19514"><ele>2169</ele></trkpt>
    <trkpt lat="47.64525" lon="14.19515"><ele>2158</ele></trkpt>
    <trkpt lat="47.64524" lon="14.19537"><ele>2151</ele></trkpt>
    <trkpt lat="47.64524" lon="14.19553"><ele>2144</ele></trkpt>
    <trkpt lat="47.64530" lon="14.19582"><ele>2132</ele></trkpt>
    <trkpt lat="47.64519" lon="14.19576"><ele>2130</ele></trkpt>
    <trkpt lat="47.64506" lon="14.19593"><ele>2118</ele></trkpt>
    <trkpt lat="47.64504" lon="14.19609"><ele>2115</ele></trkpt>
    <trkpt lat="47.64498" lon="14.19620"><ele>2127</ele></trkpt>
    <trkpt lat="47.64482" lon="14.19629"><ele>2125</ele></trkpt>
    <trkpt lat="47.64470" lon="14.19618"><ele>2126</ele></trkpt>
    <trkpt lat="47.64465" lon="14.19603"><ele>2097</ele></trkpt>
    <trkpt lat="47.64457" lon="14.19592"><ele>2090</ele></trkpt>
    <trkpt lat="47.64449" lon="14.19582"><ele>2100</ele></trkpt>
    <trkpt lat="47.64441" lon="14.19571"><ele>2079</ele></trkpt>
    <trkpt lat="47.64432" lon="14.19564"><ele>2090</ele></trkpt>
    <trkpt lat="47.64421" lon="14.19556"><ele>2072</ele></trkpt>
    <trkpt lat="47.64404" lon="14.19546"><ele>2065</ele></trkpt>
    <trkpt lat="47.64386" lon="14.19532"><ele>2062</ele></trkpt>
    <trkpt lat="47.64368" lon="14.19521"><ele>2053</ele></trkpt>
    <trkpt lat="47.64353" lon="14.19548"><ele>2054</ele></trkpt>
    <trkpt lat="47.64333" lon="14.19551"><ele>2057</ele></trkpt>
    <trkpt lat="47.64306" lon="14.19564"><ele>2050</ele></trkpt>
    <trkpt lat="47.64291" lon="14.19566"><ele>2049</ele></trkpt>
    <trkpt lat="47.64277" lon="14.19554"><ele>2048</ele></trkpt>
    <trkpt lat="47.64264" lon="14.19552"><ele>2044</ele></trkpt>
    <trkpt lat="47.64250" lon="14.19549"><ele>2039</ele></trkpt>
    <trkpt lat="47.64239" lon="14.19542"><ele>2036</ele></trkpt>
    <trkpt lat="47.64222" lon="14.19537"><ele>2030</ele></trkpt>
    <trkpt lat="47.64209" lon="14.19548"><ele>2032</ele></trkpt>
    <trkpt lat="47.64197" lon="14.19549"><ele>2032</ele></trkpt>
    <trkpt lat="47.64178" lon="14.19529"><ele>2022</ele></trkpt>
    <trkpt lat="47.64164" lon="14.19520"><ele>2018</ele></trkpt>
    <trkpt lat="47.64148" lon="14.19510"><ele>2015</ele></trkpt>
    <trkpt lat="47.64131" lon="14.19511"><ele>2021</ele></trkpt>
    <trkpt lat="47.64119" lon="14.19502"><ele>2030</ele></trkpt>
    <trkpt lat="47.64106" lon="14.19496"><ele>2026</ele></trkpt>
    <trkpt lat="47.64093" lon="14.19481"><ele>2032</ele></trkpt>
    <trkpt lat="47.64104" lon="14.19472"><ele>2029</ele></trkpt>
    <trkpt lat="47.64116" lon="14.19456"><ele>2032</ele></trkpt>
    <trkpt lat="47.64124" lon="14.19446"><ele>2034</ele></trkpt>
    <trkpt lat="47.64131" lon="14.19419"><ele>2031</ele></trkpt>
    <trkpt lat="47.64143" lon="14.19401"><ele>2035</ele></trkpt>
    <trkpt lat="47.64152" lon="14.19379"><ele>2034</ele></trkpt>
    <trkpt lat="47.64152" lon="14.19359"><ele>2036</ele></trkpt>
    <trkpt lat="47.64157" lon="14.19344"><ele>2036</ele></trkpt>
    <trkpt lat="47.64169" lon="14.19336"><ele>2034</ele></trkpt>
    <trkpt lat="47.64178" lon="14.19317"><ele>2035</ele></trkpt>
    <trkpt lat="47.64182" lon="14.19298"><ele>2036</ele></trkpt>
    <trkpt lat="47.64190" lon="14.19284"><ele>2038</ele></trkpt>
    <trkpt lat="47.64195" lon="14.19269"><ele>2042</ele></trkpt>
    <trkpt lat="47.64200" lon="14.19252"><ele>2044</ele></trkpt>
    <trkpt lat="47.64212" lon="14.19244"><ele>2045</ele></trkpt>
    <trkpt lat="47.64219" lon="14.19235"><ele>2045</ele></trkpt>
    <trkpt lat="47.64229" lon="14.19233"><ele>2045</ele></trkpt>
    <trkpt lat="47.64234" lon="14.19219"><ele>2048</ele></trkpt>
    <trkpt lat="47.64238" lon="14.19195"><ele>2053</ele></trkpt>
    <trkpt lat="47.64235" lon="14.19181"><ele>2051</ele></trkpt>
    <trkpt lat="47.64227" lon="14.19170"><ele>2055</ele></trkpt>
    <trkpt lat="47.64241" lon="14.19149"><ele>2055</ele></trkpt>
    <trkpt lat="47.64247" lon="14.19128"><ele>2065</ele></trkpt>
    <trkpt lat="47.64258" lon="14.19110"><ele>2067</ele></trkpt>
    <trkpt lat="47.64267" lon="14.19089"><ele>2055</ele></trkpt>
    <trkpt lat="47.64274" lon="14.19066"><ele>2082</ele></trkpt>
    <trkpt lat="47.64275" lon="14.19053"><ele>2084</ele></trkpt>
    <trkpt lat="47.64291" lon="14.19048"><ele>2093</ele></trkpt>
    <trkpt lat="47.64307" lon="14.19047"><ele>2109</ele></trkpt>
    <trkpt lat="47.64319" lon="14.19060"><ele>2112</ele></trkpt>
    <trkpt lat="47.64334" lon="14.19072"><ele>2133</ele></trkpt>
    <trkpt lat="47.64348" lon="14.19083"><ele>2139</ele></trkpt>
    <trkpt lat="47.64355" lon="14.19104"><ele>2150</ele></trkpt>
    <trkpt lat="47.64349" lon="14.19093"><ele>2149</ele></trkpt>
    <trkpt lat="47.64335" lon="14.19082"><ele>2133</ele></trkpt>
    <trkpt lat="47.64328" lon="14.19062"><ele>2129</ele></trkpt>
    <trkpt lat="47.64312" lon="14.19056"><ele>2116</ele></trkpt>
    <trkpt lat="47.64304" lon="14.19076"><ele>2108</ele></trkpt>
    <trkpt lat="47.64292" lon="14.19091"><ele>2095</ele></trkpt>
    <trkpt lat="47.64279" lon="14.19105"><ele>2087</ele></trkpt>
    <trkpt lat="47.64263" lon="14.19110"><ele>2080</ele></trkpt>
    <trkpt lat="47.64252" lon="14.19130"><ele>2063</ele></trkpt>
    <trkpt lat="47.64242" lon="14.19154"><ele>2063</ele></trkpt>
    <trkpt lat="47.64226" lon="14.19178"><ele>2064</ele></trkpt>
    <trkpt lat="47.64228" lon="14.19204"><ele>2055</ele></trkpt>
    <trkpt lat="47.64227" lon="14.19218"><ele>2051</ele></trkpt>
    <trkpt lat="47.64222" lon="14.19234"><ele>2042</ele></trkpt>
    <trkpt lat="47.64211" lon="14.19247"><ele>2041</ele></trkpt>
    <trkpt lat="47.64206" lon="14.19269"><ele>2041</ele></trkpt>
    <trkpt lat="47.64207" lon="14.19292"><ele>2041</ele></trkpt>
    <trkpt lat="47.64202" lon="14.19313"><ele>2034</ele></trkpt>
    <trkpt lat="47.64203" lon="14.19337"><ele>2037</ele></trkpt>
    <trkpt lat="47.64200" lon="14.19361"><ele>2037</ele></trkpt>
    <trkpt lat="47.64194" lon="14.19383"><ele>2036</ele></trkpt>
    <trkpt lat="47.64187" lon="14.19401"><ele>2033</ele></trkpt>
    <trkpt lat="47.64183" lon="14.19417"><ele>2032</ele></trkpt>
    <trkpt lat="47.64177" lon="14.19434"><ele>2028</ele></trkpt>
    <trkpt lat="47.64181" lon="14.19459"><ele>2020</ele></trkpt>
    <trkpt lat="47.64186" lon="14.19479"><ele>2020</ele></trkpt>
    <trkpt lat="47.64187" lon="14.19495"><ele>2023</ele></trkpt>
    <trkpt lat="47.64181" lon="14.19509"><ele>2027</ele></trkpt>
    <trkpt lat="47.64184" lon="14.19533"><ele>2030</ele></trkpt>
    <trkpt lat="47.64193" lon="14.19550"><ele>2034</ele></trkpt>
    <trkpt lat="47.64204" lon="14.19550"><ele>2036</ele></trkpt>
    <trkpt lat="47.64214" lon="14.19547"><ele>2034</ele></trkpt>
    <trkpt lat="47.64229" lon="14.19541"><ele>2037</ele></trkpt>
    <trkpt lat="47.64246" lon="14.19548"><ele>2046</ele></trkpt>
    <trkpt lat="47.64257" lon="14.19550"><ele>2048</ele></trkpt>
    <trkpt lat="47.64268" lon="14.19552"><ele>2051</ele></trkpt>
    <trkpt lat="47.64280" lon="14.19557"><ele>2052</ele></trkpt>
    <trkpt lat="47.64289" lon="14.19561"><ele>2093</ele></trkpt>
    <trkpt lat="47.64304" lon="14.19564"><ele>2054</ele></trkpt>
    <trkpt lat="47.64317" lon="14.19558"><ele>2053</ele></trkpt>
    <trkpt lat="47.64330" lon="14.19553"><ele>2056</ele></trkpt>
    <trkpt lat="47.64345" lon="14.19556"><ele>2056</ele></trkpt>
    <trkpt lat="47.64360" lon="14.19545"><ele>2060</ele></trkpt>
    <trkpt lat="47.64373" lon="14.19537"><ele>2061</ele></trkpt>
    <trkpt lat="47.64390" lon="14.19538"><ele>2072</ele></trkpt>
    <trkpt lat="47.64408" lon="14.19547"><ele>2071</ele></trkpt>
    <trkpt lat="47.64418" lon="14.19551"><ele>2070</ele></trkpt>
    <trkpt lat="47.64428" lon="14.19551"><ele>2073</ele></trkpt>
    <trkpt lat="47.64444" lon="14.19562"><ele>2081</ele></trkpt>
    <trkpt lat="47.64450" lon="14.19571"><ele>2083</ele></trkpt>
    <trkpt lat="47.64461" lon="14.19590"><ele>2087</ele></trkpt>
    <trkpt lat="47.64470" lon="14.19611"><ele>2087</ele></trkpt>
    <trkpt lat="47.64478" lon="14.19629"><ele>2092</ele></trkpt>
    <trkpt lat="47.64492" lon="14.19623"><ele>2113</ele></trkpt>
    <trkpt lat="47.64497" lon="14.19605"><ele>2112</ele></trkpt>
    <trkpt lat="47.64504" lon="14.19594"><ele>2121</ele></trkpt>
    <trkpt lat="47.64502" lon="14.19579"><ele>2125</ele></trkpt>
    <trkpt lat="47.64511" lon="14.19574"><ele>2127</ele></trkpt>
    <trkpt lat="47.64527" lon="14.19574"><ele>2133</ele></trkpt>
    <trkpt lat="47.64517" lon="14.19555"><ele>2139</ele></trkpt>
    <trkpt lat="47.64518" lon="14.19530"><ele>2156</ele></trkpt>
    <trkpt lat="47.64528" lon="14.19512"><ele>2162</ele></trkpt>
    <trkpt lat="47.64544" lon="14.19513"><ele>2175</ele></trkpt>
    <trkpt lat="47.64560" lon="14.19507"><ele>2178</ele></trkpt>
    <trkpt lat="47.64571" lon="14.19504"><ele>2180</ele></trkpt>
    <trkpt lat="47.64587" lon="14.19501"><ele>2188</ele></trkpt>
    <trkpt lat="47.64604" lon="14.19504"><ele>2193</ele></trkpt>
    <trkpt lat="47.64614" lon="14.19508"><ele>2168</ele></trkpt>
    <trkpt lat="47.64624" lon="14.19505"><ele>2190</ele></trkpt>
    <trkpt lat="47.64640" lon="14.19501"><ele>2199</ele></trkpt>
    <trkpt lat="47.64619" lon="14.19473"><ele>2211</ele></trkpt>
    <trkpt lat="47.64607" lon="14.19457"><ele>2210</ele></trkpt>
    <trkpt lat="47.64595" lon="14.19444"><ele>2213</ele></trkpt>
    <trkpt lat="47.64585" lon="14.19431"><ele>2213</ele></trkpt>
    <trkpt lat="47.64576" lon="14.19417"><ele>2215</ele></trkpt>
    <trkpt lat="47.64565" lon="14.19398"><ele>2216</ele></trkpt>
    <trkpt lat="47.64557" lon="14.19384"><ele>2215</ele></trkpt>
    <trkpt lat="47.64551" lon="14.19366"><ele>2218</ele></trkpt>
    <trkpt lat="47.64542" lon="14.19349"><ele>2222</ele></trkpt>
    <trkpt lat="47.64535" lon="14.19331"><ele>2219</ele></trkpt>
    <trkpt lat="47.64526" lon="14.19316"><ele>2220</ele></trkpt>
    <trkpt lat="47.64521" lon="14.19304"><ele>2223</ele></trkpt>
    <trkpt lat="47.64514" lon="14.19289"><ele>2225</ele></trkpt>
    <trkpt lat="47.64509" lon="14.19272"><ele>2229</ele></trkpt>
    <trkpt lat="47.64501" lon="14.19257"><ele>2230</ele></trkpt>
    <trkpt lat="47.64495" lon="14.19243"><ele>2232</ele></trkpt>
    <trkpt lat="47.64490" lon="14.19221"><ele>2231</ele></trkpt>
    <trkpt lat="47.64483" lon="14.19196"><ele>2237</ele></trkpt>
    <trkpt lat="47.64479" lon="14.19184"><ele>2237</ele></trkpt>
    <trkpt lat="47.64473" lon="14.19159"><ele>2246</ele></trkpt>
    <trkpt lat="47.64470" lon="14.19142"><ele>2248</ele></trkpt>
    <trkpt lat="47.64469" lon="14.19125"><ele>2250</ele></trkpt>
    <trkpt lat="47.64466" lon="14.19105"><ele>2251</ele></trkpt>
    <trkpt lat="47.64463" lon="14.19092"><ele>2252</ele></trkpt>
    <trkpt lat="47.64456" lon="14.19073"><ele>2253</ele></trkpt>
    <trkpt lat="47.64453" lon="14.19041"><ele>2253</ele></trkpt>
    <trkpt lat="47.64454" lon="14.19016"><ele>2250</ele></trkpt>
    <trkpt lat="47.64460" lon="14.18985"><ele>2249</ele></trkpt>
    <trkpt lat="47.64462" lon="14.18959"><ele>2248</ele></trkpt>
    <trkpt lat="47.64463" lon="14.18943"><ele>2250</ele></trkpt>
    <trkpt lat="47.64461" lon="14.18926"><ele>2251</ele></trkpt>
    <trkpt lat="47.64460" lon="14.18905"><ele>2253</ele></trkpt>
    <trkpt lat="47.64458" lon="14.18885"><ele>2254</ele></trkpt>
    <trkpt lat="47.64459" lon="14.18867"><ele>2256</ele></trkpt>
    <trkpt lat="47.64458" lon="14.18849"><ele>2257</ele></trkpt>
    <trkpt lat="47.64459" lon="14.18831"><ele>2256</ele></trkpt>
    <trkpt lat="47.64456" lon="14.18800"><ele>2262</ele></trkpt>
    <trkpt lat="47.64453" lon="14.18767"><ele>2264</ele></trkpt>
    <trkpt lat="47.64450" lon="14.18748"><ele>2264</ele></trkpt>
    <trkpt lat="47.64444" lon="14.18736"><ele>2270</ele></trkpt>
    <trkpt lat="47.64440" lon="14.18712"><ele>2272</ele></trkpt>
    <trkpt lat="47.64438" lon="14.18698"><ele>2274</ele></trkpt>
    <trkpt lat="47.64428" lon="14.18671"><ele>2277</ele></trkpt>
    <trkpt lat="47.64426" lon="14.18654"><ele>2278</ele></trkpt>
    <trkpt lat="47.64429" lon="14.18628"><ele>2274</ele></trkpt>
    <trkpt lat="47.64439" lon="14.18609"><ele>2274</ele></trkpt>
    <trkpt lat="47.64454" lon="14.18607"><ele>2262</ele></trkpt>
    <trkpt lat="47.64465" lon="14.18623"><ele>2252</ele></trkpt>
    <trkpt lat="47.64480" lon="14.18632"><ele>2248</ele></trkpt>
    <trkpt lat="47.64477" lon="14.18610"><ele>2241</ele></trkpt>
    <trkpt lat="47.64484" lon="14.18594"><ele>2237</ele></trkpt>
    <trkpt lat="47.64491" lon="14.18572"><ele>2226</ele></trkpt>
    <trkpt lat="47.64499" lon="14.18550"><ele>2216</ele></trkpt>
    <trkpt lat="47.64502" lon="14.18536"><ele>2213</ele></trkpt>
    <trkpt lat="47.64517" lon="14.18520"><ele>2213</ele></trkpt>
    <trkpt lat="47.64521" lon="14.18497"><ele>2209</ele></trkpt>
    <trkpt lat="47.64530" lon="14.18477"><ele>2200</ele></trkpt>
    <trkpt lat="47.64540" lon="14.18459"><ele>2195</ele></trkpt>
    <trkpt lat="47.64548" lon="14.18453"><ele>2193</ele></trkpt>
    <trkpt lat="47.64563" lon="14.18443"><ele>2187</ele></trkpt>
    <trkpt lat="47.64578" lon="14.18433"><ele>2177</ele></trkpt>
    <trkpt lat="47.64581" lon="14.18413"><ele>2165</ele></trkpt>
    <trkpt lat="47.64588" lon="14.18397"><ele>2159</ele></trkpt>
    <trkpt lat="47.64606" lon="14.18393"><ele>2151</ele></trkpt>
    <trkpt lat="47.64622" lon="14.18384"><ele>2142</ele></trkpt>
    <trkpt lat="47.64636" lon="14.18374"><ele>2139</ele></trkpt>
    <trkpt lat="47.64649" lon="14.18359"><ele>2124</ele></trkpt>
    <trkpt lat="47.64660" lon="14.18352"><ele>2119</ele></trkpt>
    <trkpt lat="47.64672" lon="14.18336"><ele>2112</ele></trkpt>
    <trkpt lat="47.64681" lon="14.18334"><ele>2112</ele></trkpt>
    <trkpt lat="47.64690" lon="14.18330"><ele>2105</ele></trkpt>
    <trkpt lat="47.64705" lon="14.18317"><ele>2098</ele></trkpt>
    <trkpt lat="47.64717" lon="14.18300"><ele>2087</ele></trkpt>
    <trkpt lat="47.64730" lon="14.18286"><ele>2079</ele></trkpt>
    <trkpt lat="47.64739" lon="14.18276"><ele>2076</ele></trkpt>
    <trkpt lat="47.64751" lon="14.18258"><ele>2071</ele></trkpt>
    <trkpt lat="47.64768" lon="14.18236"><ele>2061</ele></trkpt>
    <trkpt lat="47.64779" lon="14.18225"><ele>2059</ele></trkpt>
    <trkpt lat="47.64791" lon="14.18223"><ele>2056</ele></trkpt>
    <trkpt lat="47.64806" lon="14.18222"><ele>2058</ele></trkpt>
    <trkpt lat="47.64818" lon="14.18229"><ele>2058</ele></trkpt>
    <trkpt lat="47.64830" lon="14.18232"><ele>2057</ele></trkpt>
    <trkpt lat="47.64839" lon="14.18221"><ele>2055</ele></trkpt>
    <trkpt lat="47.64849" lon="14.18213"><ele>2052</ele></trkpt>
    <trkpt lat="47.64858" lon="14.18205"><ele>2049</ele></trkpt>
    <trkpt lat="47.64871" lon="14.18206"><ele>2048</ele></trkpt>
    <trkpt lat="47.64888" lon="14.18196"><ele>2041</ele></trkpt>
    <trkpt lat="47.64903" lon="14.18178"><ele>2033</ele></trkpt>
    <trkpt lat="47.64905" lon="14.18156"><ele>2027</ele></trkpt>
    <trkpt lat="47.64903" lon="14.18140"><ele>2013</ele></trkpt>
    <trkpt lat="47.64906" lon="14.18124"><ele>2007</ele></trkpt>
    <trkpt lat="47.64921" lon="14.18118"><ele>2001</ele></trkpt>
    <trkpt lat="47.64944" lon="14.18108"><ele>1996</ele></trkpt>
    <trkpt lat="47.64963" lon="14.18100"><ele>1998</ele></trkpt>
    <trkpt lat="47.64977" lon="14.18098"><ele>1996</ele></trkpt>
    <trkpt lat="47.64993" lon="14.18089"><ele>1993</ele></trkpt>
    <trkpt lat="47.65009" lon="14.18078"><ele>1991</ele></trkpt>
    <trkpt lat="47.65020" lon="14.18065"><ele>1992</ele></trkpt>
    <trkpt lat="47.65031" lon="14.18055"><ele>1990</ele></trkpt>
    <trkpt lat="47.65042" lon="14.18050"><ele>1966</ele></trkpt>
    <trkpt lat="47.65054" lon="14.18041"><ele>1983</ele></trkpt>
    <trkpt lat="47.65066" lon="14.18035"><ele>1982</ele></trkpt>
    <trkpt lat="47.65079" lon="14.18019"><ele>1973</ele></trkpt>
    <trkpt lat="47.65093" lon="14.18013"><ele>1977</ele></trkpt>
    <trkpt lat="47.65106" lon="14.18007"><ele>1976</ele></trkpt>
    <trkpt lat="47.65120" lon="14.18004"><ele>1976</ele></trkpt>
    <trkpt lat="47.65135" lon="14.18004"><ele>1973</ele></trkpt>
    <trkpt lat="47.65148" lon="14.17995"><ele>1969</ele></trkpt>
    <trkpt lat="47.65162" lon="14.17987"><ele>1968</ele></trkpt>
    <trkpt lat="47.65182" lon="14.17980"><ele>1965</ele></trkpt>
    <trkpt lat="47.65200" lon="14.17981"><ele>1966</ele></trkpt>
    <trkpt lat="47.65216" lon="14.17976"><ele>1952</ele></trkpt>
    <trkpt lat="47.65227" lon="14.17962"><ele>1968</ele></trkpt>
    <trkpt lat="47.65241" lon="14.17955"><ele>1969</ele></trkpt>
    <trkpt lat="47.65254" lon="14.17951"><ele>1970</ele></trkpt>
    <trkpt lat="47.65270" lon="14.17951"><ele>1975</ele></trkpt>
    <trkpt lat="47.65284" lon="14.17943"><ele>1976</ele></trkpt>
    <trkpt lat="47.65294" lon="14.17934"><ele>1976</ele></trkpt>
    <trkpt lat="47.65314" lon="14.17921"><ele>1982</ele></trkpt>
    <trkpt lat="47.65322" lon="14.17906"><ele>1982</ele></trkpt>
    <trkpt lat="47.65332" lon="14.17896"><ele>1985</ele></trkpt>
    <trkpt lat="47.65342" lon="14.17887"><ele>1986</ele></trkpt>
    <trkpt lat="47.65348" lon="14.17874"><ele>1990</ele></trkpt>
    <trkpt lat="47.65357" lon="14.17863"><ele>1990</ele></trkpt>
    <trkpt lat="47.65368" lon="14.17855"><ele>1993</ele></trkpt>
    <trkpt lat="47.65379" lon="14.17843"><ele>1991</ele></trkpt>
    <trkpt lat="47.65393" lon="14.17836"><ele>1992</ele></trkpt>
    <trkpt lat="47.65408" lon="14.17826"><ele>1992</ele></trkpt>
    <trkpt lat="47.65421" lon="14.17817"><ele>1988</ele></trkpt>
    <trkpt lat="47.65438" lon="14.17801"><ele>1987</ele></trkpt>
    <trkpt lat="47.65454" lon="14.17786"><ele>1985</ele></trkpt>
    <trkpt lat="47.65468" lon="14.17776"><ele>1985</ele></trkpt>
    <trkpt lat="47.65482" lon="14.17770"><ele>1985</ele></trkpt>
    <trkpt lat="47.65496" lon="14.17764"><ele>1985</ele></trkpt>
    <trkpt lat="47.65512" lon="14.17769"><ele>1979</ele></trkpt>
    <trkpt lat="47.65529" lon="14.17762"><ele>1976</ele></trkpt>
    <trkpt lat="47.65546" lon="14.17755"><ele>1976</ele></trkpt>
    <trkpt lat="47.65552" lon="14.17729"><ele>1953</ele></trkpt>
    <trkpt lat="47.65559" lon="14.17702"><ele>1969</ele></trkpt>
    <trkpt lat="47.65573" lon="14.17676"><ele>1967</ele></trkpt>
    <trkpt lat="47.65584" lon="14.17651"><ele>1969</ele></trkpt>
    <trkpt lat="47.65602" lon="14.17638"><ele>1968</ele></trkpt>
    <trkpt lat="47.65617" lon="14.17626"><ele>1963</ele></trkpt>
    <trkpt lat="47.65633" lon="14.17619"><ele>1958</ele></trkpt>
    <trkpt lat="47.65646" lon="14.17600"><ele>1958</ele></trkpt>
    <trkpt lat="47.65641" lon="14.17570"><ele>1955</ele></trkpt>
    <trkpt lat="47.65657" lon="14.17551"><ele>1954</ele></trkpt>
    <trkpt lat="47.65675" lon="14.17543"><ele>1951</ele></trkpt>
    <trkpt lat="47.65688" lon="14.17537"><ele>1943</ele></trkpt>
    <trkpt lat="47.65702" lon="14.17531"><ele>1942</ele></trkpt>
    <trkpt lat="47.65712" lon="14.17556"><ele>1937</ele></trkpt>
    <trkpt lat="47.65727" lon="14.17558"><ele>1936</ele></trkpt>
    <trkpt lat="47.65741" lon="14.17548"><ele>1932</ele></trkpt>
    <trkpt lat="47.65753" lon="14.17536"><ele>1928</ele></trkpt>
    <trkpt lat="47.65772" lon="14.17514"><ele>1926</ele></trkpt>
    <trkpt lat="47.65783" lon="14.17497"><ele>1924</ele></trkpt>
    <trkpt lat="47.65799" lon="14.17479"><ele>1921</ele></trkpt>
    <trkpt lat="47.65815" lon="14.17458"><ele>1920</ele></trkpt>
    <trkpt lat="47.65830" lon="14.17437"><ele>1919</ele></trkpt>
    <trkpt lat="47.65846" lon="14.17416"><ele>1919</ele></trkpt>
    <trkpt lat="47.65865" lon="14.17402"><ele>1918</ele></trkpt>
    <trkpt lat="47.65881" lon="14.17387"><ele>1918</ele></trkpt>
    <trkpt lat="47.65892" lon="14.17370"><ele>1912</ele></trkpt>
    <trkpt lat="47.65905" lon="14.17356"><ele>1909</ele></trkpt>
    <trkpt lat="47.65918" lon="14.17345"><ele>1905</ele></trkpt>
    <trkpt lat="47.65933" lon="14.17333"><ele>1901</ele></trkpt>
    <trkpt lat="47.65945" lon="14.17332"><ele>1898</ele></trkpt>
    <trkpt lat="47.65961" lon="14.17320"><ele>1895</ele></trkpt>
    <trkpt lat="47.65978" lon="14.17311"><ele>1891</ele></trkpt>
    <trkpt lat="47.65997" lon="14.17303"><ele>1887</ele></trkpt>
    <trkpt lat="47.66017" lon="14.17310"><ele>1886</ele></trkpt>
    <trkpt lat="47.66034" lon="14.17329"><ele>1885</ele></trkpt>
    <trkpt lat="47.66049" lon="14.17350"><ele>1884</ele></trkpt>
    <trkpt lat="47.66065" lon="14.17367"><ele>1885</ele></trkpt>
    <trkpt lat="47.66078" lon="14.17381"><ele>1885</ele></trkpt>
    <trkpt lat="47.66096" lon="14.17394"><ele>1883</ele></trkpt>
    <trkpt lat="47.66112" lon="14.17393"><ele>1880</ele></trkpt>
    <trkpt lat="47.66129" lon="14.17390"><ele>1877</ele></trkpt>
    <trkpt lat="47.66138" lon="14.17376"><ele>1874</ele></trkpt>
    <trkpt lat="47.66149" lon="14.17379"><ele>1869</ele></trkpt>
    <trkpt lat="47.66158" lon="14.17370"><ele>1867</ele></trkpt>
    <trkpt lat="47.66170" lon="14.17373"><ele>1859</ele></trkpt>
    <trkpt lat="47.66174" lon="14.17396"><ele>1855</ele></trkpt>
    <trkpt lat="47.66181" lon="14.17415"><ele>1853</ele></trkpt>
    <trkpt lat="47.66185" lon="14.17429"><ele>1851</ele></trkpt>
    <trkpt lat="47.66195" lon="14.17420"><ele>1848</ele></trkpt>
    <trkpt lat="47.66199" lon="14.17446"><ele>1848</ele></trkpt>
    <trkpt lat="47.66210" lon="14.17461"><ele>1846</ele></trkpt>
    <trkpt lat="47.66223" lon="14.17467"><ele>1839</ele></trkpt>
    <trkpt lat="47.66231" lon="14.17494"><ele>1842</ele></trkpt>
    <trkpt lat="47.66241" lon="14.17515"><ele>1843</ele></trkpt>
    <trkpt lat="47.66260" lon="14.17518"><ele>1839</ele></trkpt>
    <trkpt lat="47.66276" lon="14.17528"><ele>1841</ele></trkpt>
    <trkpt lat="47.66293" lon="14.17536"><ele>1842</ele></trkpt>
    <trkpt lat="47.66310" lon="14.17526"><ele>1837</ele></trkpt>
    <trkpt lat="47.66327" lon="14.17528"><ele>1838</ele></trkpt>
    <trkpt lat="47.66337" lon="14.17516"><ele>1833</ele></trkpt>
    <trkpt lat="47.66355" lon="14.17510"><ele>1834</ele></trkpt>
    <trkpt lat="47.66375" lon="14.17513"><ele>1834</ele></trkpt>
    <trkpt lat="47.66395" lon="14.17513"><ele>1833</ele></trkpt>
    <trkpt lat="47.66414" lon="14.17513"><ele>1831</ele></trkpt>
    <trkpt lat="47.66433" lon="14.17500"><ele>1829</ele></trkpt>
    <trkpt lat="47.66449" lon="14.17480"><ele>1829</ele></trkpt>
    <trkpt lat="47.66463" lon="14.17474"><ele>1829</ele></trkpt>
    <trkpt lat="47.66480" lon="14.17474"><ele>1831</ele></trkpt>
    <trkpt lat="47.66506" lon="14.17462"><ele>1831</ele></trkpt>
    <trkpt lat="47.66524" lon="14.17455"><ele>1833</ele></trkpt>
    <trkpt lat="47.66541" lon="14.17445"><ele>1833</ele></trkpt>
    <trkpt lat="47.66558" lon="14.17431"><ele>1837</ele></trkpt>
    <trkpt lat="47.66572" lon="14.17419"><ele>1837</ele></trkpt>
    <trkpt lat="47.66587" lon="14.17403"><ele>1836</ele></trkpt>
    <trkpt lat="47.66580" lon="14.17374"><ele>1838</ele></trkpt>
    <trkpt lat="47.66571" lon="14.17346"><ele>1833</ele></trkpt>
    <trkpt lat="47.66565" lon="14.17318"><ele>1832</ele></trkpt>
    <trkpt lat="47.66563" lon="14.17286"><ele>1835</ele></trkpt>
    <trkpt lat="47.66562" lon="14.17259"><ele>1833</ele></trkpt>
    <trkpt lat="47.66566" lon="14.17232"><ele>1828</ele></trkpt>
    <trkpt lat="47.66570" lon="14.17206"><ele>1729</ele></trkpt>
    <trkpt lat="47.66572" lon="14.17177"><ele>1824</ele></trkpt>
    <trkpt lat="47.66578" lon="14.17151"><ele>1821</ele></trkpt>
    <trkpt lat="47.66585" lon="14.17121"><ele>1820</ele></trkpt>
    <trkpt lat="47.66602" lon="14.17108"><ele>1816</ele></trkpt>
    <trkpt lat="47.66622" lon="14.17109"><ele>1812</ele></trkpt>
    <trkpt lat="47.66643" lon="14.17101"><ele>1810</ele></trkpt>
    <trkpt lat="47.66659" lon="14.17083"><ele>1811</ele></trkpt>
    <trkpt lat="47.66669" lon="14.17060"><ele>1807</ele></trkpt>
    <trkpt lat="47.66668" lon="14.17033"><ele>1804</ele></trkpt>
    <trkpt lat="47.66665" lon="14.17011"><ele>1798</ele></trkpt>
    <trkpt lat="47.66656" lon="14.16988"><ele>1793</ele></trkpt>
    <trkpt lat="47.66646" lon="14.16971"><ele>1789</ele></trkpt>
    <trkpt lat="47.66637" lon="14.16952"><ele>1785</ele></trkpt>
    <trkpt lat="47.66626" lon="14.16929"><ele>1784</ele></trkpt>
    <trkpt lat="47.66615" lon="14.16908"><ele>1782</ele></trkpt>
    <trkpt lat="47.66608" lon="14.16889"><ele>1778</ele></trkpt>
    <trkpt lat="47.66609" lon="14.16867"><ele>1776</ele></trkpt>
    <trkpt lat="47.66609" lon="14.16847"><ele>1771</ele></trkpt>
    <trkpt lat="47.66609" lon="14.16823"><ele>1766</ele></trkpt>
    <trkpt lat="47.66613" lon="14.16796"><ele>1763</ele></trkpt>
    <trkpt lat="47.66614" lon="14.16768"><ele>1758</ele></trkpt>
    <trkpt lat="47.66612" lon="14.16739"><ele>1758</ele></trkpt>
    <trkpt lat="47.66606" lon="14.16708"><ele>1753</ele></trkpt>
    <trkpt lat="47.66609" lon="14.16676"><ele>1753</ele></trkpt>
    <trkpt lat="47.66609" lon="14.16643"><ele>1747</ele></trkpt>
    <trkpt lat="47.66609" lon="14.16610"><ele>1746</ele></trkpt>
    <trkpt lat="47.66607" lon="14.16577"><ele>1746</ele></trkpt>
    <trkpt lat="47.66612" lon="14.16554"><ele>1743</ele></trkpt>
    <trkpt lat="47.66622" lon="14.16535"><ele>1742</ele></trkpt>
    <trkpt lat="47.66632" lon="14.16542"><ele>1737</ele></trkpt>
    <trkpt lat="47.66642" lon="14.16551"><ele>1729</ele></trkpt>
    <trkpt lat="47.66654" lon="14.16559"><ele>1723</ele></trkpt>
    <trkpt lat="47.66666" lon="14.16565"><ele>1716</ele></trkpt>
    <trkpt lat="47.66677" lon="14.16564"><ele>1712</ele></trkpt>
    <trkpt lat="47.66688" lon="14.16559"><ele>1709</ele></trkpt>
    <trkpt lat="47.66696" lon="14.16548"><ele>1706</ele></trkpt>
    <trkpt lat="47.66709" lon="14.16557"><ele>1702</ele></trkpt>
    <trkpt lat="47.66717" lon="14.16543"><ele>1698</ele></trkpt>
    <trkpt lat="47.66723" lon="14.16527"><ele>1691</ele></trkpt>
    <trkpt lat="47.66730" lon="14.16511"><ele>1688</ele></trkpt>
    <trkpt lat="47.66735" lon="14.16496"><ele>1684</ele></trkpt>
    <trkpt lat="47.66743" lon="14.16484"><ele>1678</ele></trkpt>
    <trkpt lat="47.66753" lon="14.16471"><ele>1670</ele></trkpt>
    <trkpt lat="47.66766" lon="14.16480"><ele>1664</ele></trkpt>
    <trkpt lat="47.66777" lon="14.16490"><ele>1659</ele></trkpt>
    <trkpt lat="47.66786" lon="14.16494"><ele>1658</ele></trkpt>
    <trkpt lat="47.66801" lon="14.16508"><ele>1656</ele></trkpt>
    <trkpt lat="47.66809" lon="14.16537"><ele>1655</ele></trkpt>
    <trkpt lat="47.66817" lon="14.16559"><ele>1655</ele></trkpt>
    <trkpt lat="47.66822" lon="14.16580"><ele>1658</ele></trkpt>
    <trkpt lat="47.66831" lon="14.16600"><ele>1654</ele></trkpt>
    <trkpt lat="47.66838" lon="14.16622"><ele>1652</ele></trkpt>
    <trkpt lat="47.66850" lon="14.16633"><ele>1648</ele></trkpt>
    <trkpt lat="47.66853" lon="14.16655"><ele>1652</ele></trkpt>
    <trkpt lat="47.66857" lon="14.16678"><ele>1652</ele></trkpt>
    <trkpt lat="47.66866" lon="14.16691"><ele>1646</ele></trkpt>
    <trkpt lat="47.66875" lon="14.16707"><ele>1645</ele></trkpt>
    <trkpt lat="47.66888" lon="14.16724"><ele>1640</ele></trkpt>
    <trkpt lat="47.66895" lon="14.16736"><ele>1633</ele></trkpt>
    <trkpt lat="47.66903" lon="14.16753"><ele>1633</ele></trkpt>
    <trkpt lat="47.66912" lon="14.16773"><ele>1637</ele></trkpt>
    <trkpt lat="47.66922" lon="14.16788"><ele>1632</ele></trkpt>
    <trkpt lat="47.66931" lon="14.16795"><ele>1628</ele></trkpt>
    <trkpt lat="47.66945" lon="14.16823"><ele>1618</ele></trkpt>
    <trkpt lat="47.66958" lon="14.16838"><ele>1614</ele></trkpt>
    <trkpt lat="47.66966" lon="14.16856"><ele>1613</ele></trkpt>
    <trkpt lat="47.66975" lon="14.16865"><ele>1610</ele></trkpt>
    <trkpt lat="47.66990" lon="14.16880"><ele>1604</ele></trkpt>
    <trkpt lat="47.66999" lon="14.16890"><ele>1604</ele></trkpt>
    <trkpt lat="47.67009" lon="14.16901"><ele>1602</ele></trkpt>
    <trkpt lat="47.67020" lon="14.16910"><ele>1594</ele></trkpt>
    <trkpt lat="47.67036" lon="14.16919"><ele>1589</ele></trkpt>
    <trkpt lat="47.67049" lon="14.16938"><ele>1582</ele></trkpt>
    <trkpt lat="47.67058" lon="14.16947"><ele>1581</ele></trkpt>
    <trkpt lat="47.67071" lon="14.16966"><ele>1570</ele></trkpt>
    <trkpt lat="47.67087" lon="14.16985"><ele>1566</ele></trkpt>
    <trkpt lat="47.67095" lon="14.17001"><ele>1563</ele></trkpt>
    <trkpt lat="47.67101" lon="14.17021"><ele>1558</ele></trkpt>
    <trkpt lat="47.67117" lon="14.17031"><ele>1550</ele></trkpt>
    <trkpt lat="47.67131" lon="14.17038"><ele>1544</ele></trkpt>
    <trkpt lat="47.67148" lon="14.17045"><ele>1539</ele></trkpt>
    <trkpt lat="47.67162" lon="14.17058"><ele>1538</ele></trkpt>
    <trkpt lat="47.67174" lon="14.17069"><ele>1532</ele></trkpt>
    <trkpt lat="47.67185" lon="14.17092"><ele>1535</ele></trkpt>
    <trkpt lat="47.67196" lon="14.17118"><ele>1536</ele></trkpt>
    <trkpt lat="47.67202" lon="14.17147"><ele>1529</ele></trkpt>
    <trkpt lat="47.67211" lon="14.17167"><ele>1532</ele></trkpt>
    <trkpt lat="47.67222" lon="14.17191"><ele>1531</ele></trkpt>
    <trkpt lat="47.67233" lon="14.17218"><ele>1535</ele></trkpt>
    <trkpt lat="47.67245" lon="14.17237"><ele>1531</ele></trkpt>
    <trkpt lat="47.67258" lon="14.17258"><ele>1531</ele></trkpt>
    <trkpt lat="47.67267" lon="14.17280"><ele>1524</ele></trkpt>
    <trkpt lat="47.67280" lon="14.17301"><ele>1513</ele></trkpt>
    <trkpt lat="47.67295" lon="14.17311"><ele>1514</ele></trkpt>
    <trkpt lat="47.67304" lon="14.17327"><ele>1510</ele></trkpt>
    <trkpt lat="47.67314" lon="14.17344"><ele>1509</ele></trkpt>
    <trkpt lat="47.67325" lon="14.17359"><ele>1505</ele></trkpt>
    <trkpt lat="47.67338" lon="14.17373"><ele>1506</ele></trkpt>
    <trkpt lat="47.67350" lon="14.17387"><ele>1508</ele></trkpt>
    <trkpt lat="47.67360" lon="14.17402"><ele>1494</ele></trkpt>
    <trkpt lat="47.67365" lon="14.17427"><ele>1490</ele></trkpt>
    <trkpt lat="47.67365" lon="14.17451"><ele>1485</ele></trkpt>
    <trkpt lat="47.67376" lon="14.17470"><ele>1484</ele></trkpt>
    <trkpt lat="47.67386" lon="14.17485"><ele>1485</ele></trkpt>
    <trkpt lat="47.67390" lon="14.17498"><ele>1487</ele></trkpt>
    <trkpt lat="47.67393" lon="14.17513"><ele>1472</ele></trkpt>
    <trkpt lat="47.67399" lon="14.17535"><ele>1470</ele></trkpt>
    <trkpt lat="47.67410" lon="14.17540"><ele>1474</ele></trkpt>
    <trkpt lat="47.67417" lon="14.17556"><ele>1470</ele></trkpt>
    <trkpt lat="47.67428" lon="14.17569"><ele>1465</ele></trkpt>
    <trkpt lat="47.67439" lon="14.17592"><ele>1461</ele></trkpt>
    <trkpt lat="47.67444" lon="14.17606"><ele>1462</ele></trkpt>
    <trkpt lat="47.67453" lon="14.17626"><ele>1461</ele></trkpt>
    <trkpt lat="47.67466" lon="14.17636"><ele>1463</ele></trkpt>
    <trkpt lat="47.67472" lon="14.17654"><ele>1459</ele></trkpt>
    <trkpt lat="47.67481" lon="14.17671"><ele>1452</ele></trkpt>
    <trkpt lat="47.67495" lon="14.17685"><ele>1449</ele></trkpt>
    <trkpt lat="47.67511" lon="14.17698"><ele>1443</ele></trkpt>
    <trkpt lat="47.67526" lon="14.17710"><ele>1443</ele></trkpt>
    <trkpt lat="47.67540" lon="14.17719"><ele>1442</ele></trkpt>
    <trkpt lat="47.67541" lon="14.17742"><ele>1433</ele></trkpt>
    <trkpt lat="47.67555" lon="14.17765"><ele>1430</ele></trkpt>
    <trkpt lat="47.67569" lon="14.17785"><ele>1437</ele></trkpt>
    <trkpt lat="47.67571" lon="14.17809"><ele>1432</ele></trkpt>
    <trkpt lat="47.67590" lon="14.17825"><ele>1428</ele></trkpt>
    <trkpt lat="47.67602" lon="14.17847"><ele>1427</ele></trkpt>
    <trkpt lat="47.67610" lon="14.17869"><ele>1415</ele></trkpt>
    <trkpt lat="47.67611" lon="14.17896"><ele>1422</ele></trkpt>
    <trkpt lat="47.67621" lon="14.17919"><ele>1426</ele></trkpt>
    <trkpt lat="47.67633" lon="14.17932"><ele>1424</ele></trkpt>
    <trkpt lat="47.67646" lon="14.17943"><ele>1419</ele></trkpt>
    <trkpt lat="47.67659" lon="14.17958"><ele>1414</ele></trkpt>
    <trkpt lat="47.67674" lon="14.17971"><ele>1414</ele></trkpt>
    <trkpt lat="47.67690" lon="14.17974"><ele>1409</ele></trkpt>
    <trkpt lat="47.67706" lon="14.17982"><ele>1408</ele></trkpt>
    <trkpt lat="47.67726" lon="14.17990"><ele>1408</ele></trkpt>
    <trkpt lat="47.67741" lon="14.17998"><ele>1405</ele></trkpt>
    <trkpt lat="47.67756" lon="14.18006"><ele>1402</ele></trkpt>
    <trkpt lat="47.67773" lon="14.18012"><ele>1392</ele></trkpt>
    <trkpt lat="47.67790" lon="14.18015"><ele>1398</ele></trkpt>
    <trkpt lat="47.67806" lon="14.18018"><ele>1394</ele></trkpt>
    <trkpt lat="47.67823" lon="14.18013"><ele>1391</ele></trkpt>
    <trkpt lat="47.67838" lon="14.18004"><ele>1392</ele></trkpt>
    <trkpt lat="47.67851" lon="14.18004"><ele>1388</ele></trkpt>
    <trkpt lat="47.67864" lon="14.18018"><ele>1383</ele></trkpt>
    <trkpt lat="47.67875" lon="14.18012"><ele>1380</ele></trkpt>
    <trkpt lat="47.67885" lon="14.17985"><ele>1382</ele></trkpt>
    <trkpt lat="47.67893" lon="14.17965"><ele>1382</ele></trkpt>
    <trkpt lat="47.67895" lon="14.17953"><ele>1383</ele></trkpt>
  </trkseg>
</trk>
</gpx>