<?xml version="1.0" encoding="UTF-8"?>
<gpx version="1.1" creator="Gpx-Optimizer" xmlns="http://www.topografix.com/GPX/1/1">
<trk>
  <name>Feldspitz</name>
  <type>bicycle</type>
  <trkseg>
    <trkpt lat="46.99295" lon="13.14760"><ele>1253</ele></trkpt>
    <trkpt lat="46.99322" lon="13.14692"><ele>1243</ele></trkpt>
    <trkpt lat="46.99347" lon="13.14608"><ele>1425</ele></trkpt>
    <trkpt lat="46.99369" lon="13.14509"><ele>1256</ele></trkpt>
    <trkpt lat="46.99395" lon="13.14424"><ele>1376</ele></trkpt>
    <trkpt lat="46.99430" lon="13.14360"><ele>1258</ele></trkpt>
    <trkpt lat="46.99480" lon="13.14307"><ele>1248</ele></trkpt>
    <trkpt lat="46.99536" lon="13.14263"><ele>1253</ele></trkpt>
    <trkpt lat="46.99588" lon="13.14216"><ele>1256</ele></trkpt>
    <trkpt lat="46.99633" lon="13.14156"><ele>1257</ele></trkpt>
    <trkpt lat="46.99660" lon="13.14087"><ele>1259</ele></trkpt>
    <trkpt lat="46.99680" lon="13.14021"><ele>1260</ele></trkpt>
    <trkpt lat="46.99714" lon="13.13951"><ele>1261</ele></trkpt>
    <trkpt lat="46.99750" lon="13.13893"><ele>1270</ele></trkpt>
    <trkpt lat="46.99776" lon="13.13834"><ele>1278</ele></trkpt>
    <trkpt lat="46.99794" lon="13.13773"><ele>1291</ele></trkpt>
    <trkpt lat="46.99815" lon="13.13716"><ele>1285</ele></trkpt>
    <trkpt lat="46.99844" lon="13.13659"><ele>1284</ele></trkpt>
    <trkpt lat="46.99886" lon="13.13617"><ele>1284</ele></trkpt>
    <trkpt lat="46.99932" lon="13.13590"><ele>1281</ele></trkpt>
    <trkpt lat="46.99965" lon="13.13554"><ele>1290</ele></trkpt>
    <trkpt lat="46.99994" lon="13.13517"><ele>1290</ele></trkpt>
    <trkpt lat="47.00019" lon="13.13470"><ele>1295</ele></trkpt>
    <trkpt lat="47.00039" lon="13.13428"><ele>1300</ele></trkpt>
    <trkpt lat="47.00066" lon="13.13375"><ele>1304</ele></trkpt>
    <trkpt lat="47.00094" lon="13.13319"><ele>1304</ele></trkpt>
    <trkpt lat="47.00116" lon="13.13271"><ele>1305</ele></trkpt>
    <trkpt lat="47.00133" lon="13.13226"><ele>1300</ele></trkpt>
    <trkpt lat="47.00138" lon="13.13171"><ele>1304</ele></trkpt>
    <trkpt lat="47.00144" lon="13.13119"><ele>1309</ele></trkpt>
    <trkpt lat="47.00153" lon="13.13070"><ele>1308</ele></trkpt>
    <trkpt lat="47.00156" lon="13.13018"><ele>1314</ele></trkpt>
    <trkpt lat="47.00159" lon="13.12969"><ele>1315</ele></trkpt>
    <trkpt lat="47.00159" lon="13.12930"><ele>1314</ele></trkpt>
    <trkpt lat="47.00160" lon="13.12883"><ele>1278</ele></trkpt>
    <trkpt lat="47.00159" lon="13.12838"><ele>1324</ele></trkpt>
    <trkpt lat="47.00159" lon="13.12794"><ele>1327</ele></trkpt>
    <trkpt lat="47.00159" lon="13.12751"><ele>1328</ele></trkpt>
    <trkpt lat="47.00160" lon="13.12711"><ele>1333</ele></trkpt>
    <trkpt lat="47.00158" lon="13.12669"><ele>1339</ele></trkpt>
    <trkpt lat="47.00157" lon="13.12628"><ele>1342</ele></trkpt>
    <trkpt lat="47.00153" lon="13.12590"><ele>1343</ele></trkpt>
    <trkpt lat="47.00137" lon="13.12563"><ele>1346</ele></trkpt>
    <trkpt lat="47.00117" lon="13.12543"><ele>1346</ele></trkpt>
    <trkpt lat="47.00099" lon="13.12521"><ele>1352</ele></trkpt>
    <trkpt lat="47.00117" lon="13.12504"><ele>1361</ele></trkpt>
    <trkpt lat="47.00140" lon="13.12504"><ele>1371</ele></trkpt>
    <trkpt lat="47.00167" lon="13.12517"><ele>1373</ele></trkpt>
    <trkpt lat="47.00190" lon="13.12535"><ele>1376</ele></trkpt>
    <trkpt lat="47.00209" lon="13.12570"><ele>1381</ele></trkpt>
    <trkpt lat="47.00212" lon="13.12616"><ele>1384</ele></trkpt>
    <trkpt lat="47.00217" lon="13.12661"><ele>1383</ele></trkpt>
    <trkpt lat="47.00229" lon="13.12699"><ele>1380</ele></trkpt>
    <trkpt lat="47.00247" lon="13.12738"><ele>1387</ele></trkpt>
    <trkpt lat="47.00255" lon="13.12778"><ele>1386</ele></trkpt>
    <trkpt lat="47.00266" lon="13.12822"><ele>1389</ele></trkpt>
    <trkpt lat="47.00268" lon="13.12871"><ele>1392</ele></trkpt>
    <trkpt lat="47.00280" lon="13.12917"><ele>1388</ele></trkpt>
    <trkpt lat="47.00279" lon="13.12881"><ele>1395</ele></trkpt>
    <trkpt lat="47.00277" lon="13.12838"><ele>1405</ele></trkpt>
    <trkpt lat="47.00272" lon="13.12796"><ele>1414</ele></trkpt>
    <trkpt lat="47.00269" lon="13.12758"><ele>1420</ele></trkpt>
    <trkpt lat="47.00268" lon="13.12721"><ele>1420</ele></trkpt>
    <trkpt lat="47.00262" lon="13.12681"><ele>1421</ele></trkpt>
    <trkpt lat="47.00255" lon="13.12643"><ele>1425</ele></trkpt>
    <trkpt lat="47.00260" lon="13.12600"><ele>1421</ele></trkpt>
    <trkpt lat="47.00273" lon="13.12549"><ele>1426</ele></trkpt>
    <trkpt lat="47.00274" lon="13.12504"><ele>1429</ele></trkpt>
    <trkpt lat="47.00263" lon="13.12470"><ele>1429</ele></trkpt>
    <trkpt lat="47.00263" lon="13.12420"><ele>1427</ele></trkpt>
    <trkpt lat="47.00246" lon="13.12354"><ele>1427</ele></trkpt>
    <trkpt lat="47.00222" lon="13.12319"><ele>1429</ele></trkpt>
    <trkpt lat="47.00204" lon="13.12284"><ele>1432</ele></trkpt>
    <trkpt lat="47.00193" lon="13.12242"><ele>1537</ele></trkpt>
    <trkpt lat="47.00172" lon="13.12217"><ele>1627</ele></trkpt>
    <trkpt lat="47.00153" lon="13.12198"><ele>1452</ele></trkpt>
    <trkpt lat="47.00134" lon="13.12175"><ele>1443</ele></trkpt>
    <trkpt lat="47.00134" lon="13.12152"><ele>1450</ele></trkpt>
    <trkpt lat="47.00139" lon="13.12128"><ele>1459</ele></trkpt>
    <trkpt lat="47.00145" lon="13.12096"><ele>1466</ele></trkpt>
    <trkpt lat="47.00148" lon="13.12060"><ele>1475</ele></trkpt>
    <trkpt lat="47.00143" lon="13.12027"><ele>1480</ele></trkpt>
    <trkpt lat="47.00147" lon="13.11992"><ele>1488</ele></trkpt>
    <trkpt lat="47.00149" lon="13.11956"><ele>1485</ele></trkpt>
    <trkpt lat="47.00142" lon="13.11925"><ele>1482</ele></trkpt>
    <trkpt lat="47.00138" lon="13.11884"><ele>1485</ele></trkpt>
    <trkpt lat="47.00133" lon="13.11848"><ele>1491</ele></trkpt>
    <trkpt lat="47.00129" lon="13.11810"><ele>1492</ele></trkpt>
    <trkpt lat="47.00116" lon="13.11779"><ele>1494</ele></trkpt>
    <trkpt lat="47.00106" lon="13.11753"><ele>1501</ele></trkpt>
    <trkpt lat="47.00096" lon="13.11704"><ele>1500</ele></trkpt>
    <trkpt lat="47.00082" lon="13.11664"><ele>1505</ele></trkpt>
    <trkpt lat="47.00064" lon="13.11625"><ele>1511</ele></trkpt>
    <trkpt lat="47.00068" lon="13.11583"><ele>1509</ele></trkpt>
    <trkpt lat="47.00079" lon="13.11581"><ele>1512</ele></trkpt>
    <trkpt lat="47.00104" lon="13.11625"><ele>1516</ele></trkpt>
    <trkpt lat="47.00128" lon="13.11658"><ele>1515</ele></trkpt>
    <trkpt lat="47.00154" lon="13.11690"><ele>1518</ele></trkpt>
    <trkpt lat="47.00183" lon="13.11714"><ele>1521</ele></trkpt>
    <trkpt lat="47.00189" lon="13.11750"><ele>1531</ele></trkpt>
    <trkpt lat="47.00207" lon="13.11774"><ele>1541</ele></trkpt>
    <trkpt lat="47.00230" lon="13.11799"><ele>1541</ele></trkpt>
    <trkpt lat="47.00249" lon="13.11846"><ele>1541</ele></trkpt>
    <trkpt lat="47.00271" lon="13.11865"><ele>1543</ele></trkpt>
    <trkpt lat="47.00253" lon="13.11831"><ele>1544</ele></trkpt>
    <trkpt lat="47.00245" lon="13.11797"><ele>1546</ele></trkpt>
    <trkpt lat="47.00242" lon="13.11762"><ele>1550</ele></trkpt>
    <trkpt lat="47.00237" lon="13.11725"><ele>1551</ele></trkpt>
    <trkpt lat="47.00223" lon="13.11700"><ele>1555</ele></trkpt>
    <trkpt lat="47.00211" lon="13.11675"><ele>1560</ele></trkpt>
    <trkpt lat="47.00202" lon="13.11642"><ele>1568</ele></trkpt>
    <trkpt lat="47.00202" lon="13.11599"><ele>1824</ele></trkpt>
    <trkpt lat="47.00208" lon="13.11559"><ele>1883</ele></trkpt>
    <trkpt lat="47.00208" lon="13.11522"><ele>1583</ele></trkpt>
    <trkpt lat="47.00198" lon="13.11490"><ele>1575</ele></trkpt>
    <trkpt lat="47.00181" lon="13.11470"><ele>1578</ele></trkpt>
    <trkpt lat="47.00159" lon="13.11450"><ele>1580</ele></trkpt>
    <trkpt lat="47.00137" lon="13.11425"><ele>1582</ele></trkpt>
    <trkpt lat="47.00120" lon="13.11390"><ele>1581</ele></trkpt>
    <trkpt lat="47.00097" lon="13.11372"><ele>1585</ele></trkpt>
    <trkpt lat="47.00079" lon="13.11344"><ele>1588</ele></trkpt>
    <trkpt lat="47.00100" lon="13.11350"><ele>1603</ele></trkpt>
    <trkpt lat="47.00127" lon="13.11370"><ele>1611</ele></trkpt>
    <trkpt lat="47.00133" lon="13.11357"><ele>1604</ele></trkpt>
    <trkpt lat="47.00112" lon="13.11344"><ele>1607</ele></trkpt>
    <trkpt lat="47.00094" lon="13.11318"><ele>1633</ele></trkpt>
    <trkpt lat="47.00066" lon="13.11288"><ele>1618</ele></trkpt>
    <trkpt lat="47.00056" lon="13.11259"><ele>1618</ele></trkpt>
    <trkpt lat="47.00080" lon="13.11282"><ele>1610</ele></trkpt>
    <trkpt lat="47.00109" lon="13.11295"><ele>1628</ele></trkpt>
    <trkpt lat="47.00134" lon="13.11303"><ele>1632</ele></trkpt>
    <trkpt lat="47.00166" lon="13.11322"><ele>1638</ele></trkpt>
    <trkpt lat="47.00189" lon="13.11346"><ele>1638</ele></trkpt>
    <trkpt lat="47.00211" lon="13.11373"><ele>1648</ele></trkpt>
    <trkpt lat="47.00205" lon="13.11350"><ele>1643</ele></trkpt>
    <trkpt lat="47.00193" lon="13.11327"><ele>1644</ele></trkpt>
    <trkpt lat="47.00179" lon="13.11297"><ele>1646</ele></trkpt>
    <trkpt lat="47.00165" lon="13.11266"><ele>1644</ele></trkpt>
    <trkpt lat="47.00157" lon="13.11229"><ele>1648</ele></trkpt>
    <trkpt lat="47.00160" lon="13.11197"><ele>1655</ele></trkpt>
    <trkpt lat="47.00163" lon="13.11166"><ele>1665</ele></trkpt>
    <trkpt lat="47.00173" lon="13.11129"><ele>1664</ele></trkpt>
    <trkpt lat="47.00180" lon="13.11092"><ele>1671</ele></trkpt>
    <trkpt lat="47.00183" lon="13.11059"><ele>1674</ele></trkpt>
    <trkpt lat="47.00188" lon="13.11024"><ele>1676</ele></trkpt>
    <trkpt lat="47.00196" lon="13.11012"><ele>1677</ele></trkpt>
    <trkpt lat="47.00184" lon="13.10994"><ele>1693</ele></trkpt>
    <trkpt lat="47.00184" lon="13.10947"><ele>1678</ele></trkpt>
    <trkpt lat="47.00186" lon="13.10921"><ele>1679</ele></trkpt>
    <trkpt lat="47.00171" lon="13.10900"><ele>1719</ele></trkpt>
    <trkpt lat="47.00151" lon="13.10882"><ele>1681</ele></trkpt>
    <trkpt lat="47.00134" lon="13.10866"><ele>1681</ele></trkpt>
    <trkpt lat="47.00117" lon="13.10843"><ele>1796</ele></trkpt>
    <trkpt lat="47.00100" lon="13.10824"><ele>1695</ele></trkpt>
    <trkpt lat="47.00091" lon="13.10804"><ele>1691</ele></trkpt>
    <trkpt lat="47.00074" lon="13.10799"><ele>1693</ele></trkpt>
    <trkpt lat="47.00091" lon="13.10795"><ele>1706</ele></trkpt>
    <trkpt lat="47.00112" lon="13.10807"><ele>1717</ele></trkpt>
    <trkpt lat="47.00135" lon="13.10811"><ele>1723</ele></trkpt>
    <trkpt lat="47.00152" lon="13.10812"><ele>1727</ele></trkpt>
    <trkpt lat="47.00170" lon="13.10812"><ele>1729</ele></trkpt>
    <trkpt lat="47.00192" lon="13.10822"><ele>1736</ele></trkpt>
    <trkpt lat="47.00203" lon="13.10816"><ele>1732</ele></trkpt>
    <trkpt lat="47.00191" lon="13.10815"><ele>1729</ele></trkpt>
    <trkpt lat="47.00170" lon="13.10806"><ele>1737</ele></trkpt>
    <trkpt lat="47.00149" lon="13.10778"><ele>1729</ele></trkpt>
    <trkpt lat="47.00130" lon="13.10753"><ele>1727</ele></trkpt>
    <trkpt lat="47.00142" lon="13.10753"><ele>1733</ele></trkpt>
    <trkpt lat="47.00166" lon="13.10766"><ele>1739</ele></trkpt>
    <trkpt lat="47.00190" lon="13.10768"><ele>1742</ele></trkpt>
    <trkpt lat="47.00201" lon="13.10750"><ele>1743</ele></trkpt>
    <trkpt lat="47.00186" lon="13.10702"><ele>1749</ele></trkpt>
    <trkpt lat="47.00201" lon="13.10680"><ele>1748</ele></trkpt>
    <trkpt lat="47.00228" lon="13.10671"><ele>1755</ele></trkpt>
    <trkpt lat="47.00253" lon="13.10658"><ele>1757</ele></trkpt>
    <trkpt lat="47.00276" lon="13.10638"><ele>1763</ele></trkpt>
    <trkpt lat="47.00278" lon="13.10590"><ele>1764</ele></trkpt>
    <trkpt lat="47.00292" lon="13.10546"><ele>1761</ele></trkpt>
    <trkpt lat="47.00310" lon="13.10526"><ele>1762</ele></trkpt>
    <trkpt lat="47.00326" lon="13.10516"><ele>1769</ele></trkpt>
    <trkpt lat="47.00376" lon="13.10512"><ele>1765</ele></trkpt>
    <trkpt lat="47.00375" lon="13.10533"><ele>1767</ele></trkpt>
    <trkpt lat="47.00394" lon="13.10532"><ele>1769</ele></trkpt>
    <trkpt lat="47.00416" lon="13.10519"><ele>1772</ele></trkpt>
    <trkpt lat="47.00435" lon="13.10508"><ele>1774</ele></trkpt>
    <trkpt lat="47.00451" lon="13.10495"><ele>1774</ele></trkpt>
    <trkpt lat="47.00469" lon="13.10482"><ele>1781</ele></trkpt>
    <trkpt lat="47.00486" lon="13.10468"><ele>1784</ele></trkpt>
    <trkpt lat="47.00502" lon="13.10457"><ele>1784</ele></trkpt>
    <trkpt lat="47.00518" lon="13.10446"><ele>1785</ele></trkpt>
    <trkpt lat="47.00537" lon="13.10425"><ele>1798</ele></trkpt>
    <trkpt lat="47.00550" lon="13.10412"><ele>1802</ele></trkpt>
    <trkpt lat="47.00572" lon="13.10412"><ele>1806</ele></trkpt>
    <trkpt lat="47.00589" lon="13.10412"><ele>1806</ele></trkpt>
    <trkpt lat="47.00604" lon="13.10408"><ele>1808</ele></trkpt>
    <trkpt lat="47.00625" lon="13.10387"><ele>1806</ele></trkpt>
    <trkpt lat="47.00642" lon="13.10380"><ele>1810</ele></trkpt>
    <trkpt lat="47.00667" lon="13.10374"><ele>1809</ele></trkpt>
    <trkpt lat="47.00684" lon="13.10377"><ele>1810</ele></trkpt>
    <trkpt lat="47.00702" lon="13.10394"><ele>1808</ele></trkpt>
    <trkpt lat="47.00710" lon="13.10411"><ele>1811</ele></trkpt>
    <trkpt lat="47.00732" lon="13.10451"><ele>1812</ele></trkpt>
    <trkpt lat="47.00751" lon="13.10480"><ele>1811</ele></trkpt>
    <trkpt lat="47.00771" lon="13.10502"><ele>1817</ele></trkpt>
    <trkpt lat="47.00796" lon="13.10513"><ele>1823</ele></trkpt>
    <trkpt lat="47.00821" lon="13.10506"><ele>1831</ele></trkpt>
    <trkpt lat="47.00846" lon="13.10510"><ele>1834</ele></trkpt>
    <trkpt lat="47.00864" lon="13.10498"><ele>1836</ele></trkpt>
    <trkpt lat="47.00888" lon="13.10496"><ele>1841</ele></trkpt>
    <trkpt lat="47.00905" lon="13.10491"><ele>1839</ele></trkpt>
    <trkpt lat="47.00927" lon="13.10489"><ele>1847</ele></trkpt>
    <trkpt lat="47.00947" lon="13.10490"><ele>1848</ele></trkpt>
    <trkpt lat="47.00967" lon="13.10493"><ele>1852</ele></trkpt>
    <trkpt lat="47.00989" lon="13.10498"><ele>1850</ele></trkpt>
    <trkpt lat="47.01011" lon="13.10514"><ele>1845</ele></trkpt>
    <trkpt lat="47.01043" lon="13.10517"><ele>1842</ele></trkpt>
    <trkpt lat="47.01064" lon="13.10487"><ele>1852</ele></trkpt>
    <trkpt lat="47.01080" lon="13.10458"><ele>1859</ele></trkpt>
    <trkpt lat="47.01080" lon="13.10489"><ele>1868</ele></trkpt>
    <trkpt lat="47.01067" lon="13.10516"><ele>1870</ele></trkpt>
    <trkpt lat="47.01047" lon="13.10544"><ele>1872</ele></trkpt>
    <trkpt lat="47.01022" lon="13.10562"><ele>1870</ele></trkpt>
    <trkpt lat="47.00990" lon="13.10558"><ele>1876</ele></trkpt>
    <trkpt lat="47.00962" lon="13.10560"><ele>1881</ele></trkpt>
    <trkpt lat="47.00937" lon="13.10573"><ele>1888</ele></trkpt>
    <trkpt lat="47.00910" lon="13.10580"><ele>1887</ele></trkpt>
    <trkpt lat="47.00880" lon="13.10589"><ele>1880</ele></trkpt>
    <trkpt lat="47.00858" lon="13.10604"><ele>1887</ele></trkpt>
    <trkpt lat="47.00841" lon="13.10620"><ele>1887</ele></trkpt>
    <trkpt lat="47.00820" lon="13.10631"><ele>1892</ele></trkpt>
    <trkpt lat="47.00804" lon="13.10640"><ele>1894</ele></trkpt>
    <trkpt lat="47.00798" lon="13.10694"><ele>1897</ele></trkpt>
    <trkpt lat="47.00801" lon="13.10720"><ele>1849</ele></trkpt>
    <trkpt lat="47.00814" lon="13.10745"><ele>1905</ele></trkpt>
    <trkpt lat="47.00818" lon="13.10774"><ele>1910</ele></trkpt>
    <trkpt lat="47.00813" lon="13.10803"><ele>1908</ele></trkpt>
    <trkpt lat="47.00814" lon="13.10827"><ele>1911</ele></trkpt>
    <trkpt lat="47.00807" lon="13.10858"><ele>1905</ele></trkpt>
    <trkpt lat="47.00816" lon="13.10886"><ele>1913</ele></trkpt>
    <trkpt lat="47.00822" lon="13.10918"><ele>1911</ele></trkpt>
    <trkpt lat="47.00840" lon="13.10897"><ele>1917</ele></trkpt>
    <trkpt lat="47.00858" lon="13.10867"><ele>1923</ele></trkpt>
    <trkpt lat="47.00865" lon="13.10838"><ele>1926</ele></trkpt>
    <trkpt lat="47.00877" lon="13.10806"><ele>1927</ele></trkpt>
    <trkpt lat="47.00887" lon="13.10789"><ele>1939</ele></trkpt>
    <trkpt lat="47.00902" lon="13.10770"><ele>1946</ele></trkpt>
    <trkpt lat="47.00925" lon="13.10775"><ele>1943</ele></trkpt>
    <trkpt lat="47.00940" lon="13.10791"><ele>1937</ele></trkpt>
    <trkpt lat="47.00960" lon="13.10786"><ele>1887</ele></trkpt>
    <trkpt lat="47.00950" lon="13.10816"><ele>1753</ele></trkpt>
    <trkpt lat="47.00930" lon="13.10835"><ele>1938</ele></trkpt>
    <trkpt lat="47.00915" lon="13.10859"><ele>1950</ele></trkpt>
    <trkpt lat="47.00911" lon="13.10887"><ele>1954</ele></trkpt>
    <trkpt lat="47.00922" lon="13.10925"><ele>1959</ele></trkpt>
    <trkpt lat="47.00942" lon="13.10917"><ele>1964</ele></trkpt>
    <trkpt lat="47.00951" lon="13.10885"><ele>1970</ele></trkpt>
    <trkpt lat="47.00970" lon="13.10874"><ele>1973</ele></trkpt>
    <trkpt lat="47.00988" lon="13.10873"><ele>1956</ele></trkpt>
    <trkpt lat="47.01003" lon="13.10864"><ele>1978</ele></trkpt>
    <trkpt lat="47.01014" lon="13.10829"><ele>1980</ele></trkpt>
    <trkpt lat="47.01030" lon="13.10814"><ele>1987</ele></trkpt>
    <trkpt lat="47.01043" lon="13.10822"><ele>1858</ele></trkpt>
    <trkpt lat="47.01066" lon="13.10834"><ele>1988</ele></trkpt>
    <trkpt lat="47.01080" lon="13.10856"><ele>1985</ele></trkpt>
    <trkpt lat="47.01097" lon="13.10877"><ele>1984</ele></trkpt>
    <trkpt lat="47.01115" lon="13.10885"><ele>1996</ele></trkpt>
    <trkpt lat="47.01134" lon="13.10865"><ele>2002</ele></trkpt>
    <trkpt lat="47.01151" lon="13.10853"><ele>1993</ele></trkpt>
    <trkpt lat="47.01177" lon="13.10853"><ele>1994</ele></trkpt>
    <trkpt lat="47.01195" lon="13.10836"><ele>1917</ele></trkpt>
    <trkpt lat="47.01202" lon="13.10825"><ele>2004</ele></trkpt>
    <trkpt lat="47.01209" lon="13.10845"><ele>1953</ele></trkpt>
    <trkpt lat="47.01206" lon="13.10860"><ele>1874</ele></trkpt>
    <trkpt lat="47.01199" lon="13.10873"><ele>2019</ele></trkpt>
    <trkpt lat="47.01192" lon="13.10890"><ele>2029</ele></trkpt>
    <trkpt lat="47.01180" lon="13.10899"><ele>2018</ele></trkpt>
    <trkpt lat="47.01174" lon="13.10915"><ele>2032</ele></trkpt>
    <trkpt lat="47.01167" lon="13.10926"><ele>2039</ele></trkpt>
    <trkpt lat="47.01150" lon="13.10949"><ele>2044</ele></trkpt>
    <trkpt lat="47.01142" lon="13.10955"><ele>2050</ele></trkpt>
    <trkpt lat="47.01130" lon="13.10973"><ele>2057</ele></trkpt>
    <trkpt lat="47.01124" lon="13.10996"><ele>2060</ele></trkpt>
    <trkpt lat="47.01120" lon="13.11019"><ele>2077</ele></trkpt>
    <trkpt lat="47.01130" lon="13.11036"><ele>2088</ele></trkpt>
    <trkpt lat="47.01129" lon="13.11063"><ele>2095</ele></trkpt>
    <trkpt lat="47.01124" lon="13.11088"><ele>2097</ele></trkpt>
    <trkpt lat="47.01120" lon="13.11100"><ele>2099</ele></trkpt>
    <trkpt lat="47.01119" lon="13.11123"><ele>2098</ele></trkpt>
    <trkpt lat="47.01119" lon="13.11138"><ele>2100</ele></trkpt>
    <trkpt lat="47.01122" lon="13.11157"><ele>2104</ele></trkpt>
    <trkpt lat="47.01137" lon="13.11151"><ele>2099</ele></trkpt>
    <trkpt lat="47.01153" lon="13.11155"><ele>2128</ele></trkpt>
    <trkpt lat="47.01168" lon="13.11160"><ele>2130</ele></trkpt>
    <trkpt lat="47.01185" lon="13.11161"><ele>2143</ele></trkpt>
    <trkpt lat="47.01200" lon="13.11166"><ele>2144</ele></trkpt>
    <trkpt lat="47.01217" lon="13.11165"><ele>2155</ele></trkpt>
    <trkpt lat="47.01232" lon="13.11159"><ele>2167</ele></trkpt>
    <trkpt lat="47.01247" lon="13.11155"><ele>2133</ele></trkpt>
    <trkpt lat="47.01257" lon="13.11153"><ele>2176</ele></trkpt>
    <trkpt lat="47.01262" lon="13.11168"><ele>2166</ele></trkpt>
    <trkpt lat="47.01277" lon="13.11181"><ele>2178</ele></trkpt>
    <trkpt lat="47.01286" lon="13.11189"><ele>2185</ele></trkpt>
    <trkpt lat="47.01300" lon="13.11201"><ele>2154</ele></trkpt>
    <trkpt lat="47.01308" lon="13.11213"><ele>2189</ele></trkpt>
    <trkpt lat="47.01323" lon="13.11237"><ele>2185</ele></trkpt>
    <trkpt lat="47.01337" lon="13.11244"><ele>2192</ele></trkpt>
    <trkpt lat="47.01347" lon="13.11245"><ele>2196</ele></trkpt>
    <trkpt lat="47.01357" lon="13.11251"><ele>2194</ele></trkpt>
    <trkpt lat="47.01368" lon="13.11256"><ele>2199</ele></trkpt>
    <trkpt lat="47.01381" lon="13.11268"><ele>2092</ele></trkpt>
    <trkpt lat="47.01390" lon="13.11274"><ele>2194</ele></trkpt>
    <trkpt lat="47.01400" lon="13.11289"><ele>2196</ele></trkpt>
    <trkpt lat="47.01413" lon="13.11287"><ele>2198</ele></trkpt>
    <trkpt lat="47.01430" lon="13.11294"><ele>2193</ele></trkpt>
    <trkpt lat="47.01441" lon="13.11305"><ele>2194</ele></trkpt>
    <trkpt lat="47.01458" lon="13.11310"><ele>2194</ele></trkpt>
    <trkpt lat="47.01472" lon="13.11320"><ele>2203</ele></trkpt>
    <trkpt lat="47.01486" lon="13.11328"><ele>2212</ele></trkpt>
    <trkpt lat="47.01476" lon="13.11313"><ele>2209</ele></trkpt>
    <trkpt lat="47.01484" lon="13.11329"><ele>2207</ele></trkpt>
    <trkpt lat="47.01498" lon="13.11340"><ele>2193</ele></trkpt>
    <trkpt lat="47.01511" lon="13.11344"><ele>2195</ele></trkpt>
    <trkpt lat="47.01527" lon="13.11334"><ele>2160</ele></trkpt>
    <trkpt lat="47.01540" lon="13.11323"><ele>2169</ele></trkpt>
    <trkpt lat="47.01552" lon="13.11307"><ele>2167</ele></trkpt>
    <trkpt lat="47.01561" lon="13.11301"><ele>2158</ele></trkpt>
    <trkpt lat="47.01562" lon="13.11287"><ele>2146</ele></trkpt>
    <trkpt lat="47.01564" lon="13.11271"><ele>2145</ele></trkpt>
    <trkpt lat="47.01566" lon="13.11250"><ele>2142</ele></trkpt>
    <trkpt lat="47.01578" lon="13.11240"><ele>2137</ele></trkpt>
    <trkpt lat="47.01568" lon="13.11227"><ele>2130</ele></trkpt>
    <trkpt lat="47.01558" lon="13.11214"><ele>2130</ele></trkpt>
    <trkpt lat="47.01543" lon="13.11203"><ele>2124</ele></trkpt>
    <trkpt lat="47.01541" lon="13.11181"><ele>2124</ele></trkpt>
    <trkpt lat="47.01535" lon="13.11160"><ele>2118</ele></trkpt>
    <trkpt lat="47.01532" lon="13.11143"><ele>2115</ele></trkpt>
    <trkpt lat="47.01528" lon="13.11131"><ele>2113</ele></trkpt>
    <trkpt lat="47.01513" lon="13.11135"><ele>2105</ele></trkpt>
    <trkpt lat="47.01503" lon="13.11132"><ele>2099</ele></trkpt>
    <trkpt lat="47.01496" lon="13.11120"><ele>2101</ele></trkpt>
    <trkpt lat="47.01487" lon="13.11113"><ele>2099</ele></trkpt>
    <trkpt lat="47.01471" lon="13.11106"><ele>2088</ele></trkpt>
    <trkpt lat="47.01459" lon="13.11101"><ele>2086</ele></trkpt>
    <trkpt lat="47.01450" lon="13.11090"><ele>2082</ele></trkpt>
    <trkpt lat="47.01441" lon="13.11074"><ele>2078</ele></trkpt>
    <trkpt lat="47.01436" lon="13.11059"><ele>2073</ele></trkpt>
    <trkpt lat="47.01428" lon="13.11039"><ele>2069</ele></trkpt>
    <trkpt lat="47.01420" lon="13.11029"><ele>2063</ele></trkpt>
    <trkpt lat="47.01410" lon="13.11031"><ele>2058</ele></trkpt>
    <trkpt lat="47.01397" lon="13.11024"><ele>2053</ele></trkpt>
    <trkpt lat="47.01387" lon="13.11014"><ele>2031</ele></trkpt>
    <trkpt lat="47.01377" lon="13.11002"><ele>2047</ele></trkpt>
    <trkpt lat="47.01365" lon="13.10997"><ele>2056</ele></trkpt>
    <trkpt lat="47.01357" lon="13.10971"><ele>2051</ele></trkpt>
    <trkpt lat="47.01347" lon="13.10949"><ele>2054</ele></trkpt>
    <trkpt lat="47.01343" lon="13.10928"><ele>2050</ele></trkpt>
    <trkpt lat="47.01342" lon="13.10904"><ele>2051</ele></trkpt>
    <trkpt lat="47.01335" lon="13.10896"><ele>2050</ele></trkpt>
    <trkpt lat="47.01321" lon="13.10881"><ele>2052</ele></trkpt>
    <trkpt lat="47.01305" lon="13.10881"><ele>2048</ele></trkpt>
    <trkpt lat="47.01286" lon="13.10884"><ele>1993</ele></trkpt>
    <trkpt lat="47.01274" lon="13.10890"><ele>2037</ele></trkpt>
    <trkpt lat="47.01266" lon="13.10898"><ele>2038</ele></trkpt>
    <trkpt lat="47.01255" lon="13.10888"><ele>2035</ele></trkpt>
    <trkpt lat="47.01244" lon="13.10879"><ele>2030</ele></trkpt>
    <trkpt lat="47.01231" lon="13.10862"><ele>2021</ele></trkpt>
    <trkpt lat="47.01217" lon="13.10845"><ele>2021</ele></trkpt>
    <trkpt lat="47.01205" lon="13.10832"><ele>2022</ele></trkpt>
    <trkpt lat="47.01188" lon="13.10835"><ele>2016</ele></trkpt>
    <trkpt lat="47.01153" lon="13.10850"><ele>2010</ele></trkpt>
    <trkpt lat="47.01086" lon="13.10854"><ele>2003</ele></trkpt>
    <trkpt lat="47.01037" lon="13.10826"><ele>1998</ele></trkpt>
    <trkpt lat="47.00994" lon="13.10876"><ele>1979</ele></trkpt>
    <trkpt lat="47.00934" lon="13.10928"><ele>1975</ele></trkpt>
    <trkpt lat="47.00916" lon="13.10891"><ele>1967</ele></trkpt>
    <trkpt lat="47.00920" lon="13.10868"><ele>1964</ele></trkpt>
    <trkpt lat="47.00943" lon="13.10832"><ele>1960</ele></trkpt>
    <trkpt lat="47.00951" lon="13.10783"><ele>1904</ele></trkpt>
    <trkpt lat="47.00885" lon="13.10789"><ele>1941</ele></trkpt>
    <trkpt lat="47.00853" lon="13.10874"><ele>1938</ele></trkpt>
    <trkpt lat="47.00826" lon="13.10914"><ele>1929</ele></trkpt>
    <trkpt lat="47.00825" lon="13.10839"><ele>1922</ele></trkpt>
    <trkpt lat="47.00811" lon="13.10735"><ele>1899</ele></trkpt>
    <trkpt lat="47.00803" lon="13.10648"><ele>1904</ele></trkpt>
    <trkpt lat="47.00820" lon="13.10635"><ele>1886</ele></trkpt>
    <trkpt lat="47.00847" lon="13.10612"><ele>1888</ele></trkpt>
    <trkpt lat="47.00863" lon="13.10604"><ele>1869</ele></trkpt>
    <trkpt lat="47.00855" lon="13.10612"><ele>1887</ele></trkpt>
    <trkpt lat="47.00866" lon="13.10606"><ele>1867</ele></trkpt>
    <trkpt lat="47.00946" lon="13.10569"><ele>1875</ele></trkpt>
    <trkpt lat="47.01014" lon="13.10555"><ele>1826</ele></trkpt>
    <trkpt lat="47.01067" lon="13.10513"><ele>1862</ele></trkpt>
    <trkpt lat="47.01069" lon="13.10477"><ele>1860</ele></trkpt>
    <trkpt lat="47.01046" lon="13.10502"><ele>1866</ele></trkpt>
    <trkpt lat="47.00989" lon="13.10501"><ele>1857</ele></trkpt>
    <trkpt lat="47.00920" lon="13.10486"><ele>1848</ele></trkpt>
    <trkpt lat="47.00829" lon="13.10496"><ele>1843</ele></trkpt>
    <trkpt lat="47.00747" lon="13.10470"><ele>1825</ele></trkpt>
    <trkpt lat="47.00699" lon="13.10394"><ele>1819</ele></trkpt>
    <trkpt lat="47.00654" lon="13.10385"><ele>1815</ele></trkpt>
    <trkpt lat="47.00636" lon="13.10389"><ele>1809</ele></trkpt>
    <trkpt lat="47.00621" lon="13.10394"><ele>1811</ele></trkpt>
    <trkpt lat="47.00614" lon="13.10403"><ele>1812</ele></trkpt>
    <trkpt lat="47.00601" lon="13.10408"><ele>1810</ele></trkpt>
    <trkpt lat="47.00592" lon="13.10412"><ele>1815</ele></trkpt>
    <trkpt lat="47.00513" lon="13.10450"><ele>1801</ele></trkpt>
    <trkpt lat="47.00394" lon="13.10531"><ele>1781</ele></trkpt>
    <trkpt lat="47.00385" lon="13.10545"><ele>1776</ele></trkpt>
    <trkpt lat="47.00375" lon="13.10536"><ele>1768</ele></trkpt>
    <trkpt lat="47.00322" lon="13.10517"><ele>1762</ele></trkpt>
    <trkpt lat="47.00307" lon="13.10527"><ele>1763</ele></trkpt>
    <trkpt lat="47.00300" lon="13.10535"><ele>1765</ele></trkpt>
    <trkpt lat="47.00282" lon="13.10598"><ele>1763</ele></trkpt>
    <trkpt lat="47.00220" lon="13.10676"><ele>1759</ele></trkpt>
    <trkpt lat="47.00197" lon="13.10779"><ele>1748</ele></trkpt>
    <trkpt lat="47.00143" lon="13.10779"><ele>1738</ele></trkpt>
    <trkpt lat="47.00188" lon="13.10835"><ele>1725</ele></trkpt>
    <trkpt lat="47.00087" lon="13.10810"><ele>1712</ele></trkpt>
    <trkpt lat="47.00192" lon="13.10927"><ele>1689</ele></trkpt>
    <trkpt lat="47.00187" lon="13.11009"><ele>1692</ele></trkpt>
    <trkpt lat="47.00201" lon="13.11031"><ele>1679</ele></trkpt>
    <trkpt lat="47.00171" lon="13.11271"><ele>1659</ele></trkpt>
    <trkpt lat="47.00175" lon="13.11346"><ele>1643</ele></trkpt>
    <trkpt lat="47.00070" lon="13.11306"><ele>1621</ele></trkpt>
    <trkpt lat="47.00091" lon="13.11363"><ele>1601</ele></trkpt>
    <trkpt lat="47.00178" lon="13.11468"><ele>1587</ele></trkpt>
    <trkpt lat="47.00243" lon="13.11720"><ele>1568</ele></trkpt>
    <trkpt lat="47.00234" lon="13.11832"><ele>1562</ele></trkpt>
    <trkpt lat="47.00103" lon="13.11648"><ele>1524</ele></trkpt>
    <trkpt lat="47.00098" lon="13.11712"><ele>1533</ele></trkpt>
    <trkpt lat="47.00152" lon="13.12003"><ele>1482</ele></trkpt>
    <trkpt lat="47.00166" lon="13.12256"><ele>1458</ele></trkpt>
    <trkpt lat="47.00269" lon="13.12475"><ele>1438</ele></trkpt>
    <trkpt lat="47.00282" lon="13.12748"><ele>1416</ele></trkpt>
    <trkpt lat="47.00261" lon="13.12887"><ele>1400</ele></trkpt>
    <trkpt lat="47.00207" lon="13.12638"><ele>1386</ele></trkpt>
    <trkpt lat="47.00091" lon="13.12513"><ele>1364</ele></trkpt>
    <trkpt lat="47.00168" lon="13.12816"><ele>1350</ele></trkpt>
    <trkpt lat="47.00147" lon="13.13172"><ele>1314</ele></trkpt>
    <trkpt lat="47.00124" lon="13.13300"><ele>1300</ele></trkpt>
    <trkpt lat="47.00035" lon="13.13488"><ele>1296</ele></trkpt>
    <trkpt lat="46.99875" lon="13.13653"><ele>1284</ele></trkpt>
    <trkpt lat="46.99779" lon="13.13893"><ele>1274</ele></trkpt>
    <trkpt lat="46.99674" lon="13.14092"><ele>1259</ele></trkpt>
    <trkpt lat="46.99618" lon="13.14231"><ele>1255</ele></trkpt>
    <trkpt lat="46.99608" lon="13.14249"><ele>1275</ele></trkpt>
    <trkpt lat="46.99585" lon="13.14304"><ele>1248</ele></trkpt>
    <trkpt lat="46.99559" lon="13.14355"><ele>1248</ele></trkpt>
    <trkpt lat="46.99524" lon="13.14396"><ele>1253</ele></trkpt>
    <trkpt lat="46.99484" lon="13.14467"><ele>1254</ele></trkpt>
    <trkpt lat="46.99437" lon="13.14536"><ele>1257</ele></trkpt>
    <trkpt lat="46.99383" lon="13.14593"><ele>1315</ele></trkpt>
    <trkpt lat="46.99339" lon="13.14661"><ele>1232</ele></trkpt>
    <trkpt lat="46.99289" lon="13.14840"><ele>1232</ele></trkpt>
    <trkpt lat="46.99240" lon="13.15062"><ele>1231</ele></trkpt>
    <trkpt lat="46.99189" lon="13.15285"><ele>1231</ele></trkpt>
    <trkpt lat="46.99171" lon="13.15412"><ele>1288</ele></trkpt>
    <trkpt lat="46.99181" lon="13.15574"><ele>1215</ele></trkpt>
    <trkpt lat="46.99199" lon="13.15793"><ele>1300</ele></trkpt>
    <trkpt lat="46.99152" lon="13.15965"><ele>1321</ele></trkpt>
    <trkpt lat="46.99150" lon="13.16136"><ele>1310</ele></trkpt>
    <trkpt lat="46.99191" lon="13.16299"><ele>1216</ele></trkpt>
    <trkpt lat="46.99141" lon="13.16503"><ele>1210</ele></trkpt>
    <trkpt lat="46.99052" lon="13.16713"><ele>1202</ele></trkpt>
    <trkpt lat="46.98941" lon="13.16859"><ele>1198</ele></trkpt>
    <trkpt lat="46.98889" lon="13.16968"><ele>1200</ele></trkpt>
    <trkpt lat="46.98847" lon="13.17056"><ele>1201</ele></trkpt>
    <trkpt lat="46.98762" lon="13.17133"><ele>1197</ele></trkpt>
    <trkpt lat="46.98657" lon="13.17211"><ele>1192</ele></trkpt>
    <trkpt lat="46.98523" lon="13.17197"><ele>1190</ele></trkpt>
    <trkpt lat="46.98395" lon="13.17286"><ele>1187</ele></trkpt>
    <trkpt lat="46.98260" lon="13.17346"><ele>1186</ele></trkpt>
    <trkpt lat="46.98201" lon="13.17504"><ele>1185</ele></trkpt>
    <trkpt lat="46.98127" lon="13.17588"><ele>1187</ele></trkpt>
    <trkpt lat="46.98029" lon="13.17647"><ele>1182</ele></trkpt>
    <trkpt lat="46.97980" lon="13.17708"><ele>1187</ele></trkpt>
    <trkpt lat="46.98012" lon="13.17670"><ele>1186</ele></trkpt>
    <trkpt lat="46.98089" lon="13.17631"><ele>1186</ele></trkpt>
    <trkpt lat="46.98142" lon="13.17612"><ele>1186</ele></trkpt>
    <trkpt lat="46.98188" lon="13.17584"><ele>1188</ele></trkpt>
    <trkpt lat="46.98221" lon="13.17569"><ele>1188</ele></trkpt>
    <trkpt lat="46.98242" lon="13.17557"><ele>1191</ele></trkpt>
  </trkseg>
</trk>
</gpx>