<?xml version="1.0" encoding="UTF-8"?>
<gpx version="1.1" creator="Gpx-Optimizer" xmlns="http://www.topografix.com/GPX/1/1">
<trk>
  <name>Mtb_Gastein-Nassfeld</name>
  <type>bicycle</type>
  <trkseg>
    <trkpt lat="47.10189" lon="13.12727"><ele>1104</ele></trkpt>
    <trkpt lat="47.10186" lon="13.12768"><ele>1102</ele></trkpt>
    <trkpt lat="47.10166" lon="13.12735"><ele>1104</ele></trkpt>
    <trkpt lat="47.10169" lon="13.12645"><ele>1103</ele></trkpt>
    <trkpt lat="47.10101" lon="13.12647"><ele>1103</ele></trkpt>
    <trkpt lat="47.10028" lon="13.12617"><ele>1104</ele></trkpt>
    <trkpt lat="47.09961" lon="13.12522"><ele>1101</ele></trkpt>
    <trkpt lat="47.09890" lon="13.12423"><ele>1102</ele></trkpt>
    <trkpt lat="47.09833" lon="13.12328"><ele>1101</ele></trkpt>
    <trkpt lat="47.09771" lon="13.12235"><ele>1101</ele></trkpt>
    <trkpt lat="47.09713" lon="13.12160"><ele>1106</ele></trkpt>
    <trkpt lat="47.09663" lon="13.12064"><ele>1110</ele></trkpt>
    <trkpt lat="47.09617" lon="13.11957"><ele>1110</ele></trkpt>
    <trkpt lat="47.09483" lon="13.11834"><ele>1117</ele></trkpt>
    <trkpt lat="47.09405" lon="13.11796"><ele>1110</ele></trkpt>
    <trkpt lat="47.09331" lon="13.11774"><ele>1109</ele></trkpt>
    <trkpt lat="47.09260" lon="13.11743"><ele>1110</ele></trkpt>
    <trkpt lat="47.09200" lon="13.11720"><ele>1103</ele></trkpt>
    <trkpt lat="47.09137" lon="13.11656"><ele>1091</ele></trkpt>
    <trkpt lat="47.09073" lon="13.11570"><ele>1108</ele></trkpt>
    <trkpt lat="47.09006" lon="13.11498"><ele>1121</ele></trkpt>
    <trkpt lat="47.08941" lon="13.11443"><ele>1124</ele></trkpt>
    <trkpt lat="47.08869" lon="13.11423"><ele>1121</ele></trkpt>
    <trkpt lat="47.08797" lon="13.11380"><ele>1122</ele></trkpt>
    <trkpt lat="47.08734" lon="13.11347"><ele>1120</ele></trkpt>
    <trkpt lat="47.08691" lon="13.11223"><ele>1165</ele></trkpt>
    <trkpt lat="47.08676" lon="13.11172"><ele>1137</ele></trkpt>
    <trkpt lat="47.08659" lon="13.11124"><ele>1128</ele></trkpt>
    <trkpt lat="47.08633" lon="13.11082"><ele>1136</ele></trkpt>
    <trkpt lat="47.08615" lon="13.11030"><ele>1142</ele></trkpt>
    <trkpt lat="47.08579" lon="13.10961"><ele>1151</ele></trkpt>
    <trkpt lat="47.08545" lon="13.10899"><ele>1152</ele></trkpt>
    <trkpt lat="47.08503" lon="13.10745"><ele>1148</ele></trkpt>
    <trkpt lat="47.08527" lon="13.10607"><ele>1149</ele></trkpt>
    <trkpt lat="47.08502" lon="13.10513"><ele>1152</ele></trkpt>
    <trkpt lat="47.08492" lon="13.10419"><ele>1151</ele></trkpt>
    <trkpt lat="47.08487" lon="13.10315"><ele>1154</ele></trkpt>
    <trkpt lat="47.08483" lon="13.10208"><ele>1153</ele></trkpt>
    <trkpt lat="47.08466" lon="13.10103"><ele>1151</ele></trkpt>
    <trkpt lat="47.08464" lon="13.10015"><ele>1159</ele></trkpt>
    <trkpt lat="47.08438" lon="13.09971"><ele>1165</ele></trkpt>
    <trkpt lat="47.08430" lon="13.09914"><ele>1169</ele></trkpt>
    <trkpt lat="47.08427" lon="13.09852"><ele>1176</ele></trkpt>
    <trkpt lat="47.08424" lon="13.09805"><ele>1180</ele></trkpt>
    <trkpt lat="47.08417" lon="13.09749"><ele>1181</ele></trkpt>
    <trkpt lat="47.08406" lon="13.09700"><ele>1183</ele></trkpt>
    <trkpt lat="47.08387" lon="13.09649"><ele>1184</ele></trkpt>
    <trkpt lat="47.08348" lon="13.09592"><ele>1175</ele></trkpt>
    <trkpt lat="47.08288" lon="13.09551"><ele>1187</ele></trkpt>
    <trkpt lat="47.08231" lon="13.09502"><ele>1192</ele></trkpt>
    <trkpt lat="47.08189" lon="13.09483"><ele>1203</ele></trkpt>
    <trkpt lat="47.08117" lon="13.09462"><ele>1203</ele></trkpt>
    <trkpt lat="47.08050" lon="13.09437"><ele>1206</ele></trkpt>
    <trkpt lat="47.08012" lon="13.09390"><ele>1216</ele></trkpt>
    <trkpt lat="47.07990" lon="13.09308"><ele>1209</ele></trkpt>
    <trkpt lat="47.07958" lon="13.09252"><ele>1217</ele></trkpt>
    <trkpt lat="47.07933" lon="13.09213"><ele>1225</ele></trkpt>
    <trkpt lat="47.07916" lon="13.09170"><ele>1227</ele></trkpt>
    <trkpt lat="47.07912" lon="13.09156"><ele>1225</ele></trkpt>
    <trkpt lat="47.07886" lon="13.09094"><ele>1235</ele></trkpt>
    <trkpt lat="47.07891" lon="13.09025"><ele>1242</ele></trkpt>
    <trkpt lat="47.07904" lon="13.08992"><ele>1237</ele></trkpt>
    <trkpt lat="47.07912" lon="13.08950"><ele>1240</ele></trkpt>
    <trkpt lat="47.07898" lon="13.08920"><ele>1243</ele></trkpt>
    <trkpt lat="47.07888" lon="13.08879"><ele>1242</ele></trkpt>
    <trkpt lat="47.07877" lon="13.08841"><ele>1233</ele></trkpt>
    <trkpt lat="47.07860" lon="13.08798"><ele>1244</ele></trkpt>
    <trkpt lat="47.07845" lon="13.08766"><ele>1253</ele></trkpt>
    <trkpt lat="47.07826" lon="13.08723"><ele>1255</ele></trkpt>
    <trkpt lat="47.07790" lon="13.08669"><ele>1268</ele></trkpt>
    <trkpt lat="47.07766" lon="13.08612"><ele>1271</ele></trkpt>
    <trkpt lat="47.07746" lon="13.08559"><ele>1274</ele></trkpt>
    <trkpt lat="47.07744" lon="13.08502"><ele>1273</ele></trkpt>
    <trkpt lat="47.07757" lon="13.08448"><ele>1274</ele></trkpt>
    <trkpt lat="47.07754" lon="13.08413"><ele>1281</ele></trkpt>
    <trkpt lat="47.07751" lon="13.08397"><ele>1285</ele></trkpt>
    <trkpt lat="47.07744" lon="13.08356"><ele>1291</ele></trkpt>
    <trkpt lat="47.07739" lon="13.08324"><ele>1296</ele></trkpt>
    <trkpt lat="47.07728" lon="13.08292"><ele>1294</ele></trkpt>
    <trkpt lat="47.07725" lon="13.08257"><ele>1307</ele></trkpt>
    <trkpt lat="47.07716" lon="13.08210"><ele>1315</ele></trkpt>
    <trkpt lat="47.07718" lon="13.08180"><ele>1315</ele></trkpt>
    <trkpt lat="47.07701" lon="13.08123"><ele>1318</ele></trkpt>
    <trkpt lat="47.07701" lon="13.08100"><ele>1323</ele></trkpt>
    <trkpt lat="47.07711" lon="13.08046"><ele>1324</ele></trkpt>
    <trkpt lat="47.07714" lon="13.08019"><ele>1324</ele></trkpt>
    <trkpt lat="47.07727" lon="13.07953"><ele>1320</ele></trkpt>
    <trkpt lat="47.07734" lon="13.07902"><ele>1328</ele></trkpt>
    <trkpt lat="47.07723" lon="13.07870"><ele>1335</ele></trkpt>
    <trkpt lat="47.07717" lon="13.07843"><ele>1342</ele></trkpt>
    <trkpt lat="47.07697" lon="13.07823"><ele>1339</ele></trkpt>
    <trkpt lat="47.07683" lon="13.07832"><ele>1337</ele></trkpt>
    <trkpt lat="47.07672" lon="13.07829"><ele>1334</ele></trkpt>
    <trkpt lat="47.07649" lon="13.07800"><ele>1338</ele></trkpt>
    <trkpt lat="47.07631" lon="13.07778"><ele>1348</ele></trkpt>
    <trkpt lat="47.07612" lon="13.07749"><ele>1360</ele></trkpt>
    <trkpt lat="47.07586" lon="13.07729"><ele>1362</ele></trkpt>
    <trkpt lat="47.07563" lon="13.07734"><ele>1368</ele></trkpt>
    <trkpt lat="47.07540" lon="13.07683"><ele>1374</ele></trkpt>
    <trkpt lat="47.07514" lon="13.07684"><ele>1375</ele></trkpt>
    <trkpt lat="47.07485" lon="13.07692"><ele>1378</ele></trkpt>
    <trkpt lat="47.07461" lon="13.07656"><ele>1381</ele></trkpt>
    <trkpt lat="47.07440" lon="13.07630"><ele>1375</ele></trkpt>
    <trkpt lat="47.07412" lon="13.07610"><ele>1390</ele></trkpt>
    <trkpt lat="47.07387" lon="13.07594"><ele>1393</ele></trkpt>
    <trkpt lat="47.07362" lon="13.07569"><ele>1401</ele></trkpt>
    <trkpt lat="47.07342" lon="13.07540"><ele>1403</ele></trkpt>
    <trkpt lat="47.07324" lon="13.07499"><ele>1407</ele></trkpt>
    <trkpt lat="47.07314" lon="13.07463"><ele>1408</ele></trkpt>
    <trkpt lat="47.07302" lon="13.07429"><ele>1414</ele></trkpt>
    <trkpt lat="47.07278" lon="13.07409"><ele>1420</ele></trkpt>
    <trkpt lat="47.07250" lon="13.07418"><ele>1420</ele></trkpt>
    <trkpt lat="47.07232" lon="13.07378"><ele>1412</ele></trkpt>
    <trkpt lat="47.07217" lon="13.07329"><ele>1411</ele></trkpt>
    <trkpt lat="47.07199" lon="13.07295"><ele>1403</ele></trkpt>
    <trkpt lat="47.07176" lon="13.07272"><ele>1418</ele></trkpt>
    <trkpt lat="47.07166" lon="13.07233"><ele>1420</ele></trkpt>
    <trkpt lat="47.07159" lon="13.07201"><ele>1426</ele></trkpt>
    <trkpt lat="47.07139" lon="13.07099"><ele>1434</ele></trkpt>
    <trkpt lat="47.07135" lon="13.07050"><ele>1442</ele></trkpt>
    <trkpt lat="47.07142" lon="13.07005"><ele>1448</ele></trkpt>
    <trkpt lat="47.07139" lon="13.06985"><ele>1449</ele></trkpt>
    <trkpt lat="47.07125" lon="13.06949"><ele>1446</ele></trkpt>
    <trkpt lat="47.07101" lon="13.06928"><ele>1454</ele></trkpt>
    <trkpt lat="47.07086" lon="13.06890"><ele>1466</ele></trkpt>
    <trkpt lat="47.07071" lon="13.06854"><ele>1468</ele></trkpt>
    <trkpt lat="47.07057" lon="13.06839"><ele>1468</ele></trkpt>
    <trkpt lat="47.07054" lon="13.06827"><ele>1464</ele></trkpt>
    <trkpt lat="47.07039" lon="13.06789"><ele>1473</ele></trkpt>
    <trkpt lat="47.07023" lon="13.06772"><ele>1481</ele></trkpt>
    <trkpt lat="47.07010" lon="13.06746"><ele>1489</ele></trkpt>
    <trkpt lat="47.06991" lon="13.06703"><ele>1493</ele></trkpt>
    <trkpt lat="47.06976" lon="13.06685"><ele>1504</ele></trkpt>
    <trkpt lat="47.06957" lon="13.06657"><ele>1507</ele></trkpt>
    <trkpt lat="47.06943" lon="13.06634"><ele>1512</ele></trkpt>
    <trkpt lat="47.06921" lon="13.06610"><ele>1513</ele></trkpt>
    <trkpt lat="47.06908" lon="13.06575"><ele>1519</ele></trkpt>
    <trkpt lat="47.06885" lon="13.06548"><ele>1523</ele></trkpt>
    <trkpt lat="47.06871" lon="13.06523"><ele>1525</ele></trkpt>
    <trkpt lat="47.06851" lon="13.06505"><ele>1528</ele></trkpt>
    <trkpt lat="47.06833" lon="13.06486"><ele>1528</ele></trkpt>
    <trkpt lat="47.06825" lon="13.06478"><ele>1508</ele></trkpt>
    <trkpt lat="47.06782" lon="13.06453"><ele>1509</ele></trkpt>
    <trkpt lat="47.06766" lon="13.06401"><ele>1519</ele></trkpt>
    <trkpt lat="47.06750" lon="13.06368"><ele>1528</ele></trkpt>
    <trkpt lat="47.06734" lon="13.06344"><ele>1540</ele></trkpt>
    <trkpt lat="47.06718" lon="13.06322"><ele>1537</ele></trkpt>
    <trkpt lat="47.06703" lon="13.06299"><ele>1541</ele></trkpt>
    <trkpt lat="47.06687" lon="13.06283"><ele>1549</ele></trkpt>
    <trkpt lat="47.06692" lon="13.06259"><ele>1562</ele></trkpt>
    <trkpt lat="47.06684" lon="13.06239"><ele>1561</ele></trkpt>
    <trkpt lat="47.06663" lon="13.06229"><ele>1567</ele></trkpt>
    <trkpt lat="47.06623" lon="13.06149"><ele>1581</ele></trkpt>
    <trkpt lat="47.06597" lon="13.06080"><ele>1590</ele></trkpt>
    <trkpt lat="47.06536" lon="13.05997"><ele>1577</ele></trkpt>
    <trkpt lat="47.06444" lon="13.05954"><ele>1574</ele></trkpt>
    <trkpt lat="47.06354" lon="13.05886"><ele>1574</ele></trkpt>
    <trkpt lat="47.06264" lon="13.05835"><ele>1573</ele></trkpt>
    <trkpt lat="47.06169" lon="13.05817"><ele>1575</ele></trkpt>
    <trkpt lat="47.06100" lon="13.05777"><ele>1582</ele></trkpt>
    <trkpt lat="47.06071" lon="13.05774"><ele>1584</ele></trkpt>
    <trkpt lat="47.06061" lon="13.05774"><ele>1587</ele></trkpt>
    <trkpt lat="47.05927" lon="13.05717"><ele>1596</ele></trkpt>
    <trkpt lat="47.05879" lon="13.05636"><ele>1594</ele></trkpt>
    <trkpt lat="47.05758" lon="13.05629"><ele>1592</ele></trkpt>
    <trkpt lat="47.05668" lon="13.05577"><ele>1590</ele></trkpt>
    <trkpt lat="47.05602" lon="13.05498"><ele>1591</ele></trkpt>
    <trkpt lat="47.05526" lon="13.05487"><ele>1599</ele></trkpt>
    <trkpt lat="47.05456" lon="13.05487"><ele>1604</ele></trkpt>
    <trkpt lat="47.05409" lon="13.05534"><ele>1609</ele></trkpt>
    <trkpt lat="47.05360" lon="13.05554"><ele>1615</ele></trkpt>
    <trkpt lat="47.05313" lon="13.05600"><ele>1615</ele></trkpt>
    <trkpt lat="47.05224" lon="13.05696"><ele>1622</ele></trkpt>
    <trkpt lat="47.05166" lon="13.05698"><ele>1621</ele></trkpt>
    <trkpt lat="47.05112" lon="13.05733"><ele>1619</ele></trkpt>
    <trkpt lat="47.05043" lon="13.05730"><ele>1635</ele></trkpt>
    <trkpt lat="47.04941" lon="13.05790"><ele>1638</ele></trkpt>
    <trkpt lat="47.04864" lon="13.05856"><ele>1621</ele></trkpt>
    <trkpt lat="47.04796" lon="13.05914"><ele>1626</ele></trkpt>
    <trkpt lat="47.04723" lon="13.05975"><ele>1621</ele></trkpt>
    <trkpt lat="47.04679" lon="13.06018"><ele>1626</ele></trkpt>
    <trkpt lat="47.04620" lon="13.06095"><ele>1628</ele></trkpt>
    <trkpt lat="47.04556" lon="13.06188"><ele>1629</ele></trkpt>
    <trkpt lat="47.04510" lon="13.06249"><ele>1628</ele></trkpt>
    <trkpt lat="47.04418" lon="13.06326"><ele>1624</ele></trkpt>
    <trkpt lat="47.04362" lon="13.06355"><ele>1623</ele></trkpt>
    <trkpt lat="47.04308" lon="13.06370"><ele>1638</ele></trkpt>
    <trkpt lat="47.04275" lon="13.06407"><ele>1636</ele></trkpt>
    <trkpt lat="47.04195" lon="13.06463"><ele>1630</ele></trkpt>
    <trkpt lat="47.04147" lon="13.06494"><ele>1637</ele></trkpt>
    <trkpt lat="47.04110" lon="13.06547"><ele>1642</ele></trkpt>
    <trkpt lat="47.04082" lon="13.06582"><ele>1642</ele></trkpt>
    <trkpt lat="47.04046" lon="13.06628"><ele>1649</ele></trkpt>
    <trkpt lat="47.04036" lon="13.06632"><ele>1649</ele></trkpt>
    <trkpt lat="47.04119" lon="13.06527"><ele>1652</ele></trkpt>
    <trkpt lat="47.04238" lon="13.06427"><ele>1633</ele></trkpt>
    <trkpt lat="47.04321" lon="13.06363"><ele>1639</ele></trkpt>
    <trkpt lat="47.04437" lon="13.06315"><ele>1644</ele></trkpt>
    <trkpt lat="47.04530" lon="13.06230"><ele>1626</ele></trkpt>
    <trkpt lat="47.04609" lon="13.06129"><ele>1622</ele></trkpt>
    <trkpt lat="47.04692" lon="13.06018"><ele>1619</ele></trkpt>
    <trkpt lat="47.04803" lon="13.05910"><ele>1615</ele></trkpt>
    <trkpt lat="47.04892" lon="13.05823"><ele>1614</ele></trkpt>
    <trkpt lat="47.05007" lon="13.05763"><ele>1628</ele></trkpt>
    <trkpt lat="47.05096" lon="13.05736"><ele>1616</ele></trkpt>
    <trkpt lat="47.05189" lon="13.05705"><ele>1616</ele></trkpt>
    <trkpt lat="47.05282" lon="13.05643"><ele>1614</ele></trkpt>
    <trkpt lat="47.05387" lon="13.05540"><ele>1634</ele></trkpt>
    <trkpt lat="47.05507" lon="13.05477"><ele>1608</ele></trkpt>
    <trkpt lat="47.05587" lon="13.05493"><ele>1605</ele></trkpt>
    <trkpt lat="47.05783" lon="13.05625"><ele>1607</ele></trkpt>
    <trkpt lat="47.05879" lon="13.05639"><ele>1596</ele></trkpt>
    <trkpt lat="47.05935" lon="13.05727"><ele>1617</ele></trkpt>
    <trkpt lat="47.06018" lon="13.05761"><ele>1598</ele></trkpt>
    <trkpt lat="47.06120" lon="13.05791"><ele>1602</ele></trkpt>
    <trkpt lat="47.06230" lon="13.05849"><ele>1592</ele></trkpt>
    <trkpt lat="47.06349" lon="13.05901"><ele>1586</ele></trkpt>
    <trkpt lat="47.06442" lon="13.05967"><ele>1583</ele></trkpt>
    <trkpt lat="47.06531" lon="13.06002"><ele>1582</ele></trkpt>
    <trkpt lat="47.06614" lon="13.06060"><ele>1574</ele></trkpt>
    <trkpt lat="47.06640" lon="13.06195"><ele>1566</ele></trkpt>
    <trkpt lat="47.06690" lon="13.06266"><ele>1568</ele></trkpt>
    <trkpt lat="47.06734" lon="13.06333"><ele>1565</ele></trkpt>
    <trkpt lat="47.06796" lon="13.06413"><ele>1558</ele></trkpt>
    <trkpt lat="47.06865" lon="13.06492"><ele>1544</ele></trkpt>
    <trkpt lat="47.06926" lon="13.06581"><ele>1519</ele></trkpt>
    <trkpt lat="47.07033" lon="13.06777"><ele>1555</ele></trkpt>
    <trkpt lat="47.07082" lon="13.06864"><ele>1485</ele></trkpt>
    <trkpt lat="47.07125" lon="13.06928"><ele>1469</ele></trkpt>
    <trkpt lat="47.07188" lon="13.07138"><ele>1463</ele></trkpt>
    <trkpt lat="47.07207" lon="13.07274"><ele>1437</ele></trkpt>
    <trkpt lat="47.07275" lon="13.07377"><ele>1424</ele></trkpt>
    <trkpt lat="47.07334" lon="13.07455"><ele>1400</ele></trkpt>
    <trkpt lat="47.07417" lon="13.07563"><ele>1400</ele></trkpt>
    <trkpt lat="47.07604" lon="13.07717"><ele>1407</ele></trkpt>
    <trkpt lat="47.07662" lon="13.07807"><ele>1385</ele></trkpt>
    <trkpt lat="47.07720" lon="13.07826"><ele>1372</ele></trkpt>
    <trkpt lat="47.07745" lon="13.07976"><ele>1343</ele></trkpt>
    <trkpt lat="47.07735" lon="13.08129"><ele>1339</ele></trkpt>
    <trkpt lat="47.07749" lon="13.08264"><ele>1320</ele></trkpt>
    <trkpt lat="47.07772" lon="13.08405"><ele>1304</ele></trkpt>
    <trkpt lat="47.07768" lon="13.08562"><ele>1291</ele></trkpt>
    <trkpt lat="47.07829" lon="13.08711"><ele>1288</ele></trkpt>
    <trkpt lat="47.07900" lon="13.08864"><ele>1278</ele></trkpt>
    <trkpt lat="47.07933" lon="13.09057"><ele>1257</ele></trkpt>
    <trkpt lat="47.07973" lon="13.09233"><ele>1243</ele></trkpt>
    <trkpt lat="47.08058" lon="13.09423"><ele>1229</ele></trkpt>
    <trkpt lat="47.08318" lon="13.09548"><ele>1208</ele></trkpt>
    <trkpt lat="47.08416" lon="13.09699"><ele>1194</ele></trkpt>
    <trkpt lat="47.08449" lon="13.09944"><ele>1186</ele></trkpt>
    <trkpt lat="47.08470" lon="13.10206"><ele>1169</ele></trkpt>
    <trkpt lat="47.08500" lon="13.10499"><ele>1166</ele></trkpt>
    <trkpt lat="47.08506" lon="13.10742"><ele>1180</ele></trkpt>
    <trkpt lat="47.08570" lon="13.10917"><ele>1166</ele></trkpt>
    <trkpt lat="47.08646" lon="13.11083"><ele>1145</ele></trkpt>
    <trkpt lat="47.08723" lon="13.11307"><ele>1133</ele></trkpt>
    <trkpt lat="47.09003" lon="13.11493"><ele>1162</ele></trkpt>
    <trkpt lat="47.09118" lon="13.11638"><ele>1130</ele></trkpt>
    <trkpt lat="47.09237" lon="13.11739"><ele>1120</ele></trkpt>
    <trkpt lat="47.09323" lon="13.11799"><ele>1115</ele></trkpt>
    <trkpt lat="47.09476" lon="13.11857"><ele>1109</ele></trkpt>
    <trkpt lat="47.09691" lon="13.12170"><ele>1123</ele></trkpt>
    <trkpt lat="47.09785" lon="13.12338"><ele>1101</ele></trkpt>
    <trkpt lat="47.09901" lon="13.12483"><ele>1098</ele></trkpt>
    <trkpt lat="47.10014" lon="13.12638"><ele>1093</ele></trkpt>
    <trkpt lat="47.10143" lon="13.12675"><ele>1095</ele></trkpt>
    <trkpt lat="47.10162" lon="13.12800"><ele>1100</ele></trkpt>
    <trkpt lat="47.10180" lon="13.12720"><ele>1095</ele></trkpt>
    <trkpt lat="47.10177" lon="13.12735"><ele>1092</ele></trkpt>
    <trkpt lat="47.10193" lon="13.12776"><ele>1097</ele></trkpt>
    <trkpt lat="47.10198" lon="13.12787"><ele>1090</ele></trkpt>
    <trkpt lat="47.10242" lon="13.12794"><ele>1098</ele></trkpt>
  </trkseg>
</trk>
</gpx>