<?xml version="1.0" encoding="UTF-8"?>
<gpx version="1.1" creator="Gpx-Optimizer" xmlns="http://www.topografix.com/GPX/1/1">
<trk>
  <name>ZittauerTisch</name>
  <type>bicycle</type>
  <trkseg>
    <trkpt lat="47.10176" lon="13.12751"><ele>1062</ele></trkpt>
    <trkpt lat="47.10177" lon="13.12714"><ele>1071</ele></trkpt>
    <trkpt lat="47.10178" lon="13.12746"><ele>1077</ele></trkpt>
    <trkpt lat="47.10177" lon="13.12768"><ele>1082</ele></trkpt>
    <trkpt lat="47.10155" lon="13.12781"><ele>1088</ele></trkpt>
    <trkpt lat="47.10174" lon="13.12674"><ele>1084</ele></trkpt>
    <trkpt lat="47.10237" lon="13.12666"><ele>1084</ele></trkpt>
    <trkpt lat="47.10328" lon="13.12703"><ele>1090</ele></trkpt>
    <trkpt lat="47.10412" lon="13.12769"><ele>1084</ele></trkpt>
    <trkpt lat="47.10495" lon="13.12855"><ele>1081</ele></trkpt>
    <trkpt lat="47.10588" lon="13.12931"><ele>1075</ele></trkpt>
    <trkpt lat="47.10679" lon="13.12961"><ele>1061</ele></trkpt>
    <trkpt lat="47.10773" lon="13.13022"><ele>1071</ele></trkpt>
    <trkpt lat="47.10855" lon="13.13108"><ele>1067</ele></trkpt>
    <trkpt lat="47.10890" lon="13.13182"><ele>1067</ele></trkpt>
    <trkpt lat="47.10983" lon="13.13220"><ele>1065</ele></trkpt>
    <trkpt lat="47.11067" lon="13.13194"><ele>1069</ele></trkpt>
    <trkpt lat="47.11145" lon="13.13169"><ele>1074</ele></trkpt>
    <trkpt lat="47.11221" lon="13.13143"><ele>1086</ele></trkpt>
    <trkpt lat="47.11300" lon="13.13215"><ele>1092</ele></trkpt>
    <trkpt lat="47.11382" lon="13.13219"><ele>1084</ele></trkpt>
    <trkpt lat="47.11567" lon="13.13294"><ele>1074</ele></trkpt>
    <trkpt lat="47.11758" lon="13.13361"><ele>1046</ele></trkpt>
    <trkpt lat="47.11905" lon="13.13416"><ele>1039</ele></trkpt>
    <trkpt lat="47.12008" lon="13.13280"><ele>1031</ele></trkpt>
    <trkpt lat="47.12104" lon="13.13134"><ele>1022</ele></trkpt>
    <trkpt lat="47.12206" lon="13.13098"><ele>1020</ele></trkpt>
    <trkpt lat="47.12277" lon="13.13038"><ele>1043</ele></trkpt>
    <trkpt lat="47.12378" lon="13.13022"><ele>1019</ele></trkpt>
    <trkpt lat="47.12514" lon="13.13019"><ele>1029</ele></trkpt>
    <trkpt lat="47.12645" lon="13.12976"><ele>1022</ele></trkpt>
    <trkpt lat="47.12761" lon="13.12906"><ele>1013</ele></trkpt>
    <trkpt lat="47.12851" lon="13.12827"><ele>1023</ele></trkpt>
    <trkpt lat="47.12914" lon="13.12775"><ele>1115</ele></trkpt>
    <trkpt lat="47.12960" lon="13.12737"><ele>1033</ele></trkpt>
    <trkpt lat="47.12997" lon="13.12703"><ele>1000</ele></trkpt>
    <trkpt lat="47.13017" lon="13.12683"><ele>1030</ele></trkpt>
    <trkpt lat="47.13029" lon="13.12651"><ele>1084</ele></trkpt>
    <trkpt lat="47.13051" lon="13.12638"><ele>1039</ele></trkpt>
    <trkpt lat="47.13066" lon="13.12611"><ele>1039</ele></trkpt>
    <trkpt lat="47.13081" lon="13.12601"><ele>1042</ele></trkpt>
    <trkpt lat="47.13099" lon="13.12568"><ele>1029</ele></trkpt>
    <trkpt lat="47.13113" lon="13.12544"><ele>1035</ele></trkpt>
    <trkpt lat="47.13132" lon="13.12519"><ele>1044</ele></trkpt>
    <trkpt lat="47.13156" lon="13.12506"><ele>1064</ele></trkpt>
    <trkpt lat="47.13170" lon="13.12475"><ele>1064</ele></trkpt>
    <trkpt lat="47.13186" lon="13.12434"><ele>1049</ele></trkpt>
    <trkpt lat="47.13204" lon="13.12410"><ele>1072</ele></trkpt>
    <trkpt lat="47.13219" lon="13.12377"><ele>1078</ele></trkpt>
    <trkpt lat="47.13231" lon="13.12349"><ele>995</ele></trkpt>
    <trkpt lat="47.13253" lon="13.12314"><ele>1084</ele></trkpt>
    <trkpt lat="47.13258" lon="13.12275"><ele>1090</ele></trkpt>
    <trkpt lat="47.13263" lon="13.12239"><ele>1092</ele></trkpt>
    <trkpt lat="47.13280" lon="13.12214"><ele>1099</ele></trkpt>
    <trkpt lat="47.13307" lon="13.12177"><ele>1103</ele></trkpt>
    <trkpt lat="47.13349" lon="13.12149"><ele>1108</ele></trkpt>
    <trkpt lat="47.13382" lon="13.12102"><ele>1107</ele></trkpt>
    <trkpt lat="47.13484" lon="13.12042"><ele>1106</ele></trkpt>
    <trkpt lat="47.13624" lon="13.11888"><ele>1087</ele></trkpt>
    <trkpt lat="47.13738" lon="13.11682"><ele>1068</ele></trkpt>
    <trkpt lat="47.13858" lon="13.11544"><ele>1066</ele></trkpt>
    <trkpt lat="47.13972" lon="13.11360"><ele>1058</ele></trkpt>
    <trkpt lat="47.14122" lon="13.11217"><ele>1036</ele></trkpt>
    <trkpt lat="47.14257" lon="13.11053"><ele>1029</ele></trkpt>
    <trkpt lat="47.14332" lon="13.10887"><ele>1028</ele></trkpt>
    <trkpt lat="47.14389" lon="13.10724"><ele>1016</ele></trkpt>
    <trkpt lat="47.14391" lon="13.10656"><ele>1026</ele></trkpt>
    <trkpt lat="47.14395" lon="13.10609"><ele>1032</ele></trkpt>
    <trkpt lat="47.14405" lon="13.10561"><ele>1031</ele></trkpt>
    <trkpt lat="47.14405" lon="13.10521"><ele>1030</ele></trkpt>
    <trkpt lat="47.14410" lon="13.10482"><ele>1028</ele></trkpt>
    <trkpt lat="47.14421" lon="13.10443"><ele>1035</ele></trkpt>
    <trkpt lat="47.14429" lon="13.10406"><ele>1035</ele></trkpt>
    <trkpt lat="47.14441" lon="13.10375"><ele>1043</ele></trkpt>
    <trkpt lat="47.14449" lon="13.10335"><ele>1048</ele></trkpt>
    <trkpt lat="47.14451" lon="13.10301"><ele>1059</ele></trkpt>
    <trkpt lat="47.14442" lon="13.10257"><ele>1058</ele></trkpt>
    <trkpt lat="47.14433" lon="13.10225"><ele>1062</ele></trkpt>
    <trkpt lat="47.14426" lon="13.10181"><ele>1063</ele></trkpt>
    <trkpt lat="47.14422" lon="13.10141"><ele>1070</ele></trkpt>
    <trkpt lat="47.14408" lon="13.10110"><ele>1070</ele></trkpt>
    <trkpt lat="47.14411" lon="13.10155"><ele>1074</ele></trkpt>
    <trkpt lat="47.14394" lon="13.10118"><ele>1086</ele></trkpt>
    <trkpt lat="47.14393" lon="13.10072"><ele>1089</ele></trkpt>
    <trkpt lat="47.14382" lon="13.10024"><ele>1083</ele></trkpt>
    <trkpt lat="47.14377" lon="13.09979"><ele>1090</ele></trkpt>
    <trkpt lat="47.14370" lon="13.09899"><ele>1088</ele></trkpt>
    <trkpt lat="47.14355" lon="13.09810"><ele>1093</ele></trkpt>
    <trkpt lat="47.14316" lon="13.09795"><ele>1099</ele></trkpt>
    <trkpt lat="47.14279" lon="13.09786"><ele>1112</ele></trkpt>
    <trkpt lat="47.14250" lon="13.09764"><ele>1104</ele></trkpt>
    <trkpt lat="47.14226" lon="13.09724"><ele>1118</ele></trkpt>
    <trkpt lat="47.14210" lon="13.09679"><ele>1120</ele></trkpt>
    <trkpt lat="47.14198" lon="13.09633"><ele>1108</ele></trkpt>
    <trkpt lat="47.14180" lon="13.09591"><ele>1121</ele></trkpt>
    <trkpt lat="47.14154" lon="13.09555"><ele>1127</ele></trkpt>
    <trkpt lat="47.14115" lon="13.09511"><ele>1131</ele></trkpt>
    <trkpt lat="47.14057" lon="13.09457"><ele>1464</ele></trkpt>
    <trkpt lat="47.14045" lon="13.09373"><ele>1160</ele></trkpt>
    <trkpt lat="47.14042" lon="13.09269"><ele>1121</ele></trkpt>
    <trkpt lat="47.14013" lon="13.09249"><ele>1138</ele></trkpt>
    <trkpt lat="47.13982" lon="13.09212"><ele>1144</ele></trkpt>
    <trkpt lat="47.13949" lon="13.09178"><ele>1152</ele></trkpt>
    <trkpt lat="47.13919" lon="13.09139"><ele>1149</ele></trkpt>
    <trkpt lat="47.13889" lon="13.09093"><ele>1153</ele></trkpt>
    <trkpt lat="47.13858" lon="13.09057"><ele>1143</ele></trkpt>
    <trkpt lat="47.13846" lon="13.09046"><ele>1144</ele></trkpt>
    <trkpt lat="47.13811" lon="13.09033"><ele>1156</ele></trkpt>
    <trkpt lat="47.13774" lon="13.08997"><ele>1178</ele></trkpt>
    <trkpt lat="47.13751" lon="13.08935"><ele>1160</ele></trkpt>
    <trkpt lat="47.13728" lon="13.08890"><ele>1171</ele></trkpt>
    <trkpt lat="47.13694" lon="13.08844"><ele>1171</ele></trkpt>
    <trkpt lat="47.13669" lon="13.08808"><ele>1178</ele></trkpt>
    <trkpt lat="47.13648" lon="13.08768"><ele>1188</ele></trkpt>
    <trkpt lat="47.13613" lon="13.08724"><ele>1197</ele></trkpt>
    <trkpt lat="47.13570" lon="13.08672"><ele>1201</ele></trkpt>
    <trkpt lat="47.13527" lon="13.08620"><ele>1201</ele></trkpt>
    <trkpt lat="47.13515" lon="13.08600"><ele>1194</ele></trkpt>
    <trkpt lat="47.13482" lon="13.08580"><ele>1196</ele></trkpt>
    <trkpt lat="47.13449" lon="13.08559"><ele>1193</ele></trkpt>
    <trkpt lat="47.13425" lon="13.08539"><ele>1203</ele></trkpt>
    <trkpt lat="47.13451" lon="13.08572"><ele>1195</ele></trkpt>
    <trkpt lat="47.13465" lon="13.08606"><ele>1202</ele></trkpt>
    <trkpt lat="47.13482" lon="13.08642"><ele>1202</ele></trkpt>
    <trkpt lat="47.13499" lon="13.08682"><ele>1199</ele></trkpt>
    <trkpt lat="47.13512" lon="13.08717"><ele>1206</ele></trkpt>
    <trkpt lat="47.13527" lon="13.08757"><ele>1213</ele></trkpt>
    <trkpt lat="47.13540" lon="13.08792"><ele>1213</ele></trkpt>
    <trkpt lat="47.13560" lon="13.08831"><ele>1213</ele></trkpt>
    <trkpt lat="47.13577" lon="13.08868"><ele>1218</ele></trkpt>
    <trkpt lat="47.13597" lon="13.08903"><ele>1223</ele></trkpt>
    <trkpt lat="47.13615" lon="13.08944"><ele>1224</ele></trkpt>
    <trkpt lat="47.13637" lon="13.08988"><ele>1230</ele></trkpt>
    <trkpt lat="47.13654" lon="13.09018"><ele>1238</ele></trkpt>
    <trkpt lat="47.13664" lon="13.09064"><ele>1241</ele></trkpt>
    <trkpt lat="47.13681" lon="13.09104"><ele>1246</ele></trkpt>
    <trkpt lat="47.13699" lon="13.09144"><ele>1254</ele></trkpt>
    <trkpt lat="47.13712" lon="13.09179"><ele>1258</ele></trkpt>
    <trkpt lat="47.13719" lon="13.09235"><ele>1256</ele></trkpt>
    <trkpt lat="47.13737" lon="13.09274"><ele>1263</ele></trkpt>
    <trkpt lat="47.13754" lon="13.09317"><ele>1298</ele></trkpt>
    <trkpt lat="47.13773" lon="13.09352"><ele>1282</ele></trkpt>
    <trkpt lat="47.13795" lon="13.09393"><ele>1281</ele></trkpt>
    <trkpt lat="47.13808" lon="13.09431"><ele>1332</ele></trkpt>
    <trkpt lat="47.13824" lon="13.09472"><ele>1297</ele></trkpt>
    <trkpt lat="47.13831" lon="13.09512"><ele>1324</ele></trkpt>
    <trkpt lat="47.13834" lon="13.09563"><ele>1298</ele></trkpt>
    <trkpt lat="47.13842" lon="13.09608"><ele>1322</ele></trkpt>
    <trkpt lat="47.13851" lon="13.09651"><ele>1303</ele></trkpt>
    <trkpt lat="47.13848" lon="13.09698"><ele>1304</ele></trkpt>
    <trkpt lat="47.13842" lon="13.09737"><ele>1312</ele></trkpt>
    <trkpt lat="47.13836" lon="13.09778"><ele>1318</ele></trkpt>
    <trkpt lat="47.13819" lon="13.09827"><ele>1314</ele></trkpt>
    <trkpt lat="47.13797" lon="13.09860"><ele>1619</ele></trkpt>
    <trkpt lat="47.13779" lon="13.09895"><ele>1595</ele></trkpt>
    <trkpt lat="47.13770" lon="13.09938"><ele>1504</ele></trkpt>
    <trkpt lat="47.13779" lon="13.09990"><ele>1749</ele></trkpt>
    <trkpt lat="47.13769" lon="13.10038"><ele>1471</ele></trkpt>
    <trkpt lat="47.13763" lon="13.10085"><ele>1364</ele></trkpt>
    <trkpt lat="47.13747" lon="13.10134"><ele>1468</ele></trkpt>
    <trkpt lat="47.13741" lon="13.10175"><ele>1486</ele></trkpt>
    <trkpt lat="47.13736" lon="13.10215"><ele>1415</ele></trkpt>
    <trkpt lat="47.13716" lon="13.10265"><ele>1590</ele></trkpt>
    <trkpt lat="47.13695" lon="13.10301"><ele>1375</ele></trkpt>
    <trkpt lat="47.13671" lon="13.10350"><ele>1359</ele></trkpt>
    <trkpt lat="47.13648" lon="13.10375"><ele>1354</ele></trkpt>
    <trkpt lat="47.13621" lon="13.10406"><ele>1356</ele></trkpt>
    <trkpt lat="47.13608" lon="13.10445"><ele>1357</ele></trkpt>
    <trkpt lat="47.13588" lon="13.10480"><ele>1365</ele></trkpt>
    <trkpt lat="47.13584" lon="13.10445"><ele>1472</ele></trkpt>
    <trkpt lat="47.13583" lon="13.10405"><ele>1396</ele></trkpt>
    <trkpt lat="47.13588" lon="13.10365"><ele>1377</ele></trkpt>
    <trkpt lat="47.13592" lon="13.10326"><ele>1385</ele></trkpt>
    <trkpt lat="47.13594" lon="13.10288"><ele>1395</ele></trkpt>
    <trkpt lat="47.13592" lon="13.10253"><ele>1397</ele></trkpt>
    <trkpt lat="47.13586" lon="13.10218"><ele>1412</ele></trkpt>
    <trkpt lat="47.13582" lon="13.10177"><ele>1423</ele></trkpt>
    <trkpt lat="47.13569" lon="13.10119"><ele>1406</ele></trkpt>
    <trkpt lat="47.13561" lon="13.10071"><ele>1431</ele></trkpt>
    <trkpt lat="47.13545" lon="13.10013"><ele>1419</ele></trkpt>
    <trkpt lat="47.13534" lon="13.09962"><ele>1973</ele></trkpt>
    <trkpt lat="47.13520" lon="13.09915"><ele>1488</ele></trkpt>
    <trkpt lat="47.13507" lon="13.09873"><ele>1441</ele></trkpt>
    <trkpt lat="47.13494" lon="13.09834"><ele>1435</ele></trkpt>
    <trkpt lat="47.13480" lon="13.09807"><ele>1431</ele></trkpt>
    <trkpt lat="47.13464" lon="13.09787"><ele>1439</ele></trkpt>
    <trkpt lat="47.13448" lon="13.09762"><ele>1446</ele></trkpt>
    <trkpt lat="47.13428" lon="13.09737"><ele>1449</ele></trkpt>
    <trkpt lat="47.13407" lon="13.09711"><ele>1452</ele></trkpt>
    <trkpt lat="47.13391" lon="13.09679"><ele>1466</ele></trkpt>
    <trkpt lat="47.13383" lon="13.09638"><ele>1471</ele></trkpt>
    <trkpt lat="47.13367" lon="13.09603"><ele>1471</ele></trkpt>
    <trkpt lat="47.13356" lon="13.09565"><ele>1472</ele></trkpt>
    <trkpt lat="47.13343" lon="13.09524"><ele>1466</ele></trkpt>
    <trkpt lat="47.13333" lon="13.09486"><ele>1474</ele></trkpt>
    <trkpt lat="47.13310" lon="13.09457"><ele>1470</ele></trkpt>
    <trkpt lat="47.13293" lon="13.09418"><ele>1474</ele></trkpt>
    <trkpt lat="47.13286" lon="13.09385"><ele>1452</ele></trkpt>
    <trkpt lat="47.13278" lon="13.09333"><ele>1477</ele></trkpt>
    <trkpt lat="47.13262" lon="13.09299"><ele>1483</ele></trkpt>
    <trkpt lat="47.13239" lon="13.09237"><ele>1475</ele></trkpt>
    <trkpt lat="47.13202" lon="13.09182"><ele>1466</ele></trkpt>
    <trkpt lat="47.13168" lon="13.09144"><ele>1469</ele></trkpt>
    <trkpt lat="47.13148" lon="13.09101"><ele>1483</ele></trkpt>
    <trkpt lat="47.13120" lon="13.09063"><ele>1495</ele></trkpt>
    <trkpt lat="47.13085" lon="13.09033"><ele>1494</ele></trkpt>
    <trkpt lat="47.13052" lon="13.09008"><ele>1483</ele></trkpt>
    <trkpt lat="47.13019" lon="13.08995"><ele>1494</ele></trkpt>
    <trkpt lat="47.13032" lon="13.09010"><ele>1508</ele></trkpt>
    <trkpt lat="47.13050" lon="13.09025"><ele>1504</ele></trkpt>
    <trkpt lat="47.13069" lon="13.09041"><ele>1502</ele></trkpt>
    <trkpt lat="47.13084" lon="13.09057"><ele>1499</ele></trkpt>
    <trkpt lat="47.13100" lon="13.09077"><ele>1502</ele></trkpt>
    <trkpt lat="47.13113" lon="13.09097"><ele>1504</ele></trkpt>
    <trkpt lat="47.13122" lon="13.09117"><ele>1505</ele></trkpt>
    <trkpt lat="47.13131" lon="13.09142"><ele>1511</ele></trkpt>
    <trkpt lat="47.13139" lon="13.09164"><ele>1512</ele></trkpt>
    <trkpt lat="47.13141" lon="13.09192"><ele>1518</ele></trkpt>
    <trkpt lat="47.13135" lon="13.09221"><ele>1552</ele></trkpt>
    <trkpt lat="47.13134" lon="13.09245"><ele>1525</ele></trkpt>
    <trkpt lat="47.13128" lon="13.09271"><ele>1567</ele></trkpt>
    <trkpt lat="47.13118" lon="13.09294"><ele>1538</ele></trkpt>
    <trkpt lat="47.13104" lon="13.09314"><ele>1534</ele></trkpt>
    <trkpt lat="47.13100" lon="13.09340"><ele>1545</ele></trkpt>
    <trkpt lat="47.13103" lon="13.09365"><ele>1535</ele></trkpt>
    <trkpt lat="47.13101" lon="13.09393"><ele>1505</ele></trkpt>
    <trkpt lat="47.13098" lon="13.09417"><ele>1536</ele></trkpt>
    <trkpt lat="47.13100" lon="13.09456"><ele>1541</ele></trkpt>
    <trkpt lat="47.13091" lon="13.09491"><ele>1548</ele></trkpt>
    <trkpt lat="47.13086" lon="13.09542"><ele>1549</ele></trkpt>
    <trkpt lat="47.13080" lon="13.09592"><ele>1554</ele></trkpt>
    <trkpt lat="47.13081" lon="13.09637"><ele>1558</ele></trkpt>
    <trkpt lat="47.13081" lon="13.09676"><ele>1566</ele></trkpt>
    <trkpt lat="47.13077" lon="13.09719"><ele>1570</ele></trkpt>
    <trkpt lat="47.13078" lon="13.09763"><ele>1571</ele></trkpt>
    <trkpt lat="47.13076" lon="13.09806"><ele>1574</ele></trkpt>
    <trkpt lat="47.13068" lon="13.09849"><ele>1578</ele></trkpt>
    <trkpt lat="47.13080" lon="13.09891"><ele>1576</ele></trkpt>
    <trkpt lat="47.13089" lon="13.09936"><ele>1579</ele></trkpt>
    <trkpt lat="47.13083" lon="13.09987"><ele>1583</ele></trkpt>
    <trkpt lat="47.13073" lon="13.10032"><ele>1586</ele></trkpt>
    <trkpt lat="47.13069" lon="13.10075"><ele>1592</ele></trkpt>
    <trkpt lat="47.13066" lon="13.10122"><ele>1583</ele></trkpt>
    <trkpt lat="47.13055" lon="13.10159"><ele>1798</ele></trkpt>
    <trkpt lat="47.13046" lon="13.10197"><ele>1607</ele></trkpt>
    <trkpt lat="47.13035" lon="13.10247"><ele>1599</ele></trkpt>
    <trkpt lat="47.13018" lon="13.10297"><ele>1609</ele></trkpt>
    <trkpt lat="47.12991" lon="13.10356"><ele>1648</ele></trkpt>
    <trkpt lat="47.12963" lon="13.10412"><ele>1613</ele></trkpt>
    <trkpt lat="47.12915" lon="13.10471"><ele>1567</ele></trkpt>
    <trkpt lat="47.12878" lon="13.10536"><ele>1544</ele></trkpt>
    <trkpt lat="47.12833" lon="13.10620"><ele>1613</ele></trkpt>
    <trkpt lat="47.12760" lon="13.10641"><ele>1617</ele></trkpt>
    <trkpt lat="47.12685" lon="13.10694"><ele>1614</ele></trkpt>
    <trkpt lat="47.12670" lon="13.10819"><ele>1624</ele></trkpt>
    <trkpt lat="47.12597" lon="13.10905"><ele>1616</ele></trkpt>
    <trkpt lat="47.12564" lon="13.10990"><ele>1605</ele></trkpt>
    <trkpt lat="47.12535" lon="13.11016"><ele>1653</ele></trkpt>
    <trkpt lat="47.12513" lon="13.11030"><ele>1557</ele></trkpt>
    <trkpt lat="47.12489" lon="13.11061"><ele>1619</ele></trkpt>
    <trkpt lat="47.12467" lon="13.11089"><ele>1621</ele></trkpt>
    <trkpt lat="47.12448" lon="13.11116"><ele>1624</ele></trkpt>
    <trkpt lat="47.12442" lon="13.11139"><ele>1615</ele></trkpt>
    <trkpt lat="47.12425" lon="13.11161"><ele>1602</ele></trkpt>
    <trkpt lat="47.12399" lon="13.11191"><ele>1631</ele></trkpt>
    <trkpt lat="47.12376" lon="13.11216"><ele>1628</ele></trkpt>
    <trkpt lat="47.12351" lon="13.11237"><ele>1535</ele></trkpt>
    <trkpt lat="47.12336" lon="13.11255"><ele>1516</ele></trkpt>
    <trkpt lat="47.12318" lon="13.11275"><ele>1649</ele></trkpt>
    <trkpt lat="47.12290" lon="13.11295"><ele>1641</ele></trkpt>
    <trkpt lat="47.12259" lon="13.11323"><ele>1656</ele></trkpt>
    <trkpt lat="47.12242" lon="13.11358"><ele>1484</ele></trkpt>
    <trkpt lat="47.12228" lon="13.11388"><ele>1674</ele></trkpt>
    <trkpt lat="47.12206" lon="13.11420"><ele>1662</ele></trkpt>
    <trkpt lat="47.12188" lon="13.11447"><ele>1670</ele></trkpt>
    <trkpt lat="47.12175" lon="13.11474"><ele>1672</ele></trkpt>
    <trkpt lat="47.12148" lon="13.11486"><ele>1673</ele></trkpt>
    <trkpt lat="47.12126" lon="13.11495"><ele>1678</ele></trkpt>
    <trkpt lat="47.12106" lon="13.11521"><ele>1656</ele></trkpt>
    <trkpt lat="47.12075" lon="13.11526"><ele>1671</ele></trkpt>
    <trkpt lat="47.12044" lon="13.11524"><ele>1673</ele></trkpt>
    <trkpt lat="47.12018" lon="13.11527"><ele>1696</ele></trkpt>
    <trkpt lat="47.12005" lon="13.11545"><ele>1706</ele></trkpt>
    <trkpt lat="47.11982" lon="13.11558"><ele>1707</ele></trkpt>
    <trkpt lat="47.11952" lon="13.11563"><ele>1693</ele></trkpt>
    <trkpt lat="47.11926" lon="13.11568"><ele>1685</ele></trkpt>
    <trkpt lat="47.11898" lon="13.11566"><ele>1668</ele></trkpt>
    <trkpt lat="47.11874" lon="13.11568"><ele>1704</ele></trkpt>
    <trkpt lat="47.11850" lon="13.11560"><ele>1696</ele></trkpt>
    <trkpt lat="47.11830" lon="13.11558"><ele>1692</ele></trkpt>
    <trkpt lat="47.11817" lon="13.11550"><ele>1598</ele></trkpt>
    <trkpt lat="47.11798" lon="13.11539"><ele>1687</ele></trkpt>
    <trkpt lat="47.11777" lon="13.11533"><ele>1707</ele></trkpt>
    <trkpt lat="47.11761" lon="13.11527"><ele>1682</ele></trkpt>
    <trkpt lat="47.11743" lon="13.11519"><ele>1694</ele></trkpt>
    <trkpt lat="47.11726" lon="13.11517"><ele>1715</ele></trkpt>
    <trkpt lat="47.11705" lon="13.11505"><ele>1704</ele></trkpt>
    <trkpt lat="47.11687" lon="13.11489"><ele>1722</ele></trkpt>
    <trkpt lat="47.11671" lon="13.11491"><ele>1729</ele></trkpt>
    <trkpt lat="47.11648" lon="13.11501"><ele>1721</ele></trkpt>
    <trkpt lat="47.11630" lon="13.11497"><ele>1596</ele></trkpt>
    <trkpt lat="47.11610" lon="13.11488"><ele>1699</ele></trkpt>
    <trkpt lat="47.11594" lon="13.11478"><ele>1729</ele></trkpt>
    <trkpt lat="47.11581" lon="13.11464"><ele>1740</ele></trkpt>
    <trkpt lat="47.11572" lon="13.11436"><ele>1716</ele></trkpt>
    <trkpt lat="47.11562" lon="13.11413"><ele>1744</ele></trkpt>
    <trkpt lat="47.11549" lon="13.11394"><ele>1750</ele></trkpt>
    <trkpt lat="47.11527" lon="13.11392"><ele>1730</ele></trkpt>
    <trkpt lat="47.11509" lon="13.11390"><ele>1752</ele></trkpt>
    <trkpt lat="47.11493" lon="13.11382"><ele>1728</ele></trkpt>
    <trkpt lat="47.11478" lon="13.11366"><ele>1740</ele></trkpt>
    <trkpt lat="47.11469" lon="13.11372"><ele>1754</ele></trkpt>
    <trkpt lat="47.11453" lon="13.11353"><ele>1765</ele></trkpt>
    <trkpt lat="47.11412" lon="13.11326"><ele>1763</ele></trkpt>
    <trkpt lat="47.11378" lon="13.11306"><ele>1765</ele></trkpt>
    <trkpt lat="47.11347" lon="13.11282"><ele>1772</ele></trkpt>
    <trkpt lat="47.11307" lon="13.11268"><ele>1731</ele></trkpt>
    <trkpt lat="47.11271" lon="13.11249"><ele>1774</ele></trkpt>
    <trkpt lat="47.11241" lon="13.11245"><ele>1781</ele></trkpt>
    <trkpt lat="47.11210" lon="13.11242"><ele>1700</ele></trkpt>
    <trkpt lat="47.11188" lon="13.11248"><ele>1784</ele></trkpt>
    <trkpt lat="47.11154" lon="13.11246"><ele>1695</ele></trkpt>
    <trkpt lat="47.11122" lon="13.11231"><ele>1781</ele></trkpt>
    <trkpt lat="47.11105" lon="13.11208"><ele>1794</ele></trkpt>
    <trkpt lat="47.11084" lon="13.11193"><ele>1767</ele></trkpt>
    <trkpt lat="47.11059" lon="13.11179"><ele>1807</ele></trkpt>
    <trkpt lat="47.11033" lon="13.11151"><ele>1801</ele></trkpt>
    <trkpt lat="47.11008" lon="13.11143"><ele>1799</ele></trkpt>
    <trkpt lat="47.10976" lon="13.11122"><ele>1811</ele></trkpt>
    <trkpt lat="47.10953" lon="13.11104"><ele>1814</ele></trkpt>
    <trkpt lat="47.10931" lon="13.11095"><ele>1775</ele></trkpt>
    <trkpt lat="47.10911" lon="13.11087"><ele>1814</ele></trkpt>
    <trkpt lat="47.10880" lon="13.11060"><ele>1762</ele></trkpt>
    <trkpt lat="47.10864" lon="13.11037"><ele>1807</ele></trkpt>
    <trkpt lat="47.10846" lon="13.11017"><ele>1823</ele></trkpt>
    <trkpt lat="47.10826" lon="13.10999"><ele>1827</ele></trkpt>
    <trkpt lat="47.10827" lon="13.10975"><ele>1816</ele></trkpt>
    <trkpt lat="47.10855" lon="13.10975"><ele>1830</ele></trkpt>
    <trkpt lat="47.10884" lon="13.10970"><ele>1786</ele></trkpt>
    <trkpt lat="47.10913" lon="13.10968"><ele>1836</ele></trkpt>
    <trkpt lat="47.10937" lon="13.10969"><ele>1842</ele></trkpt>
    <trkpt lat="47.10961" lon="13.10967"><ele>1844</ele></trkpt>
    <trkpt lat="47.10982" lon="13.10964"><ele>1848</ele></trkpt>
    <trkpt lat="47.11003" lon="13.10963"><ele>1855</ele></trkpt>
    <trkpt lat="47.11025" lon="13.10959"><ele>1855</ele></trkpt>
    <trkpt lat="47.11047" lon="13.10964"><ele>1858</ele></trkpt>
    <trkpt lat="47.11070" lon="13.10964"><ele>1864</ele></trkpt>
    <trkpt lat="47.11090" lon="13.10955"><ele>1869</ele></trkpt>
    <trkpt lat="47.11109" lon="13.10948"><ele>1799</ele></trkpt>
    <trkpt lat="47.11130" lon="13.10939"><ele>1851</ele></trkpt>
    <trkpt lat="47.11151" lon="13.10936"><ele>1865</ele></trkpt>
    <trkpt lat="47.11174" lon="13.10935"><ele>1858</ele></trkpt>
    <trkpt lat="47.11194" lon="13.10932"><ele>1869</ele></trkpt>
    <trkpt lat="47.11215" lon="13.10934"><ele>1885</ele></trkpt>
    <trkpt lat="47.11235" lon="13.10928"><ele>1710</ele></trkpt>
    <trkpt lat="47.11254" lon="13.10927"><ele>1835</ele></trkpt>
    <trkpt lat="47.11275" lon="13.10935"><ele>1857</ele></trkpt>
    <trkpt lat="47.11305" lon="13.10935"><ele>1890</ele></trkpt>
    <trkpt lat="47.11330" lon="13.10928"><ele>1887</ele></trkpt>
    <trkpt lat="47.11353" lon="13.10912"><ele>1904</ele></trkpt>
    <trkpt lat="47.11385" lon="13.10893"><ele>1899</ele></trkpt>
    <trkpt lat="47.11416" lon="13.10866"><ele>1899</ele></trkpt>
    <trkpt lat="47.11447" lon="13.10862"><ele>1884</ele></trkpt>
    <trkpt lat="47.11481" lon="13.10856"><ele>1906</ele></trkpt>
    <trkpt lat="47.11519" lon="13.10856"><ele>1910</ele></trkpt>
    <trkpt lat="47.11552" lon="13.10856"><ele>1885</ele></trkpt>
    <trkpt lat="47.11585" lon="13.10849"><ele>1914</ele></trkpt>
    <trkpt lat="47.11619" lon="13.10833"><ele>1862</ele></trkpt>
    <trkpt lat="47.11643" lon="13.10815"><ele>1907</ele></trkpt>
    <trkpt lat="47.11668" lon="13.10798"><ele>1926</ele></trkpt>
    <trkpt lat="47.11700" lon="13.10797"><ele>1933</ele></trkpt>
    <trkpt lat="47.11726" lon="13.10800"><ele>1940</ele></trkpt>
    <trkpt lat="47.11746" lon="13.10784"><ele>1917</ele></trkpt>
    <trkpt lat="47.11765" lon="13.10766"><ele>1935</ele></trkpt>
    <trkpt lat="47.11788" lon="13.10757"><ele>1936</ele></trkpt>
    <trkpt lat="47.11807" lon="13.10747"><ele>1830</ele></trkpt>
    <trkpt lat="47.11830" lon="13.10717"><ele>1678</ele></trkpt>
    <trkpt lat="47.11837" lon="13.10694"><ele>1924</ele></trkpt>
    <trkpt lat="47.11846" lon="13.10663"><ele>1911</ele></trkpt>
    <trkpt lat="47.11852" lon="13.10628"><ele>1710</ele></trkpt>
    <trkpt lat="47.11850" lon="13.10596"><ele>1927</ele></trkpt>
    <trkpt lat="47.11852" lon="13.10544"><ele>1987</ele></trkpt>
    <trkpt lat="47.11852" lon="13.10501"><ele>1935</ele></trkpt>
    <trkpt lat="47.11859" lon="13.10459"><ele>1931</ele></trkpt>
    <trkpt lat="47.11872" lon="13.10425"><ele>1921</ele></trkpt>
    <trkpt lat="47.11871" lon="13.10384"><ele>1964</ele></trkpt>
    <trkpt lat="47.11870" lon="13.10338"><ele>1966</ele></trkpt>
    <trkpt lat="47.11865" lon="13.10296"><ele>1970</ele></trkpt>
    <trkpt lat="47.11846" lon="13.10257"><ele>1964</ele></trkpt>
    <trkpt lat="47.11836" lon="13.10310"><ele>1968</ele></trkpt>
    <trkpt lat="47.11835" lon="13.10344"><ele>1970</ele></trkpt>
    <trkpt lat="47.11829" lon="13.10365"><ele>1979</ele></trkpt>
    <trkpt lat="47.11815" lon="13.10388"><ele>1983</ele></trkpt>
    <trkpt lat="47.11800" lon="13.10415"><ele>1988</ele></trkpt>
    <trkpt lat="47.11793" lon="13.10448"><ele>1992</ele></trkpt>
    <trkpt lat="47.11788" lon="13.10484"><ele>1991</ele></trkpt>
    <trkpt lat="47.11782" lon="13.10515"><ele>1986</ele></trkpt>
    <trkpt lat="47.11773" lon="13.10546"><ele>1995</ele></trkpt>
    <trkpt lat="47.11750" lon="13.10583"><ele>1998</ele></trkpt>
    <trkpt lat="47.11725" lon="13.10601"><ele>1840</ele></trkpt>
    <trkpt lat="47.11708" lon="13.10605"><ele>1999</ele></trkpt>
    <trkpt lat="47.11676" lon="13.10587"><ele>2003</ele></trkpt>
    <trkpt lat="47.11650" lon="13.10572"><ele>2011</ele></trkpt>
    <trkpt lat="47.11621" lon="13.10554"><ele>2011</ele></trkpt>
    <trkpt lat="47.11598" lon="13.10544"><ele>2017</ele></trkpt>
    <trkpt lat="47.11577" lon="13.10532"><ele>2021</ele></trkpt>
    <trkpt lat="47.11557" lon="13.10520"><ele>2021</ele></trkpt>
    <trkpt lat="47.11534" lon="13.10510"><ele>2022</ele></trkpt>
    <trkpt lat="47.11514" lon="13.10492"><ele>2026</ele></trkpt>
    <trkpt lat="47.11488" lon="13.10480"><ele>2028</ele></trkpt>
    <trkpt lat="47.11462" lon="13.10466"><ele>2030</ele></trkpt>
    <trkpt lat="47.11431" lon="13.10441"><ele>1931</ele></trkpt>
    <trkpt lat="47.11405" lon="13.10424"><ele>2019</ele></trkpt>
    <trkpt lat="47.11382" lon="13.10422"><ele>2035</ele></trkpt>
    <trkpt lat="47.11362" lon="13.10413"><ele>2040</ele></trkpt>
    <trkpt lat="47.11343" lon="13.10406"><ele>2044</ele></trkpt>
    <trkpt lat="47.11323" lon="13.10394"><ele>2049</ele></trkpt>
    <trkpt lat="47.11302" lon="13.10385"><ele>2048</ele></trkpt>
    <trkpt lat="47.11280" lon="13.10374"><ele>1894</ele></trkpt>
    <trkpt lat="47.11259" lon="13.10367"><ele>2046</ele></trkpt>
    <trkpt lat="47.11239" lon="13.10366"><ele>2053</ele></trkpt>
    <trkpt lat="47.11217" lon="13.10363"><ele>1943</ele></trkpt>
    <trkpt lat="47.11197" lon="13.10363"><ele>2051</ele></trkpt>
    <trkpt lat="47.11176" lon="13.10363"><ele>2025</ele></trkpt>
    <trkpt lat="47.11158" lon="13.10363"><ele>2060</ele></trkpt>
    <trkpt lat="47.11137" lon="13.10353"><ele>2061</ele></trkpt>
    <trkpt lat="47.11114" lon="13.10344"><ele>2065</ele></trkpt>
    <trkpt lat="47.11094" lon="13.10348"><ele>2071</ele></trkpt>
    <trkpt lat="47.11070" lon="13.10351"><ele>2073</ele></trkpt>
    <trkpt lat="47.11054" lon="13.10351"><ele>2057</ele></trkpt>
    <trkpt lat="47.11084" lon="13.10330"><ele>1996</ele></trkpt>
    <trkpt lat="47.11108" lon="13.10322"><ele>1999</ele></trkpt>
    <trkpt lat="47.11127" lon="13.10301"><ele>2074</ele></trkpt>
    <trkpt lat="47.11142" lon="13.10289"><ele>2093</ele></trkpt>
    <trkpt lat="47.11155" lon="13.10274"><ele>2073</ele></trkpt>
    <trkpt lat="47.11170" lon="13.10248"><ele>2059</ele></trkpt>
    <trkpt lat="47.11163" lon="13.10228"><ele>2095</ele></trkpt>
    <trkpt lat="47.11144" lon="13.10222"><ele>2086</ele></trkpt>
    <trkpt lat="47.11126" lon="13.10225"><ele>2102</ele></trkpt>
    <trkpt lat="47.11107" lon="13.10224"><ele>2108</ele></trkpt>
    <trkpt lat="47.11084" lon="13.10219"><ele>2057</ele></trkpt>
    <trkpt lat="47.11063" lon="13.10220"><ele>2008</ele></trkpt>
    <trkpt lat="47.11042" lon="13.10219"><ele>2115</ele></trkpt>
    <trkpt lat="47.11018" lon="13.10213"><ele>2121</ele></trkpt>
    <trkpt lat="47.10995" lon="13.10203"><ele>2120</ele></trkpt>
    <trkpt lat="47.10976" lon="13.10193"><ele>2129</ele></trkpt>
    <trkpt lat="47.10961" lon="13.10185"><ele>2133</ele></trkpt>
    <trkpt lat="47.10941" lon="13.10179"><ele>2139</ele></trkpt>
    <trkpt lat="47.10924" lon="13.10172"><ele>2145</ele></trkpt>
    <trkpt lat="47.10901" lon="13.10159"><ele>2144</ele></trkpt>
    <trkpt lat="47.10884" lon="13.10146"><ele>2145</ele></trkpt>
    <trkpt lat="47.10864" lon="13.10135"><ele>2145</ele></trkpt>
    <trkpt lat="47.10848" lon="13.10113"><ele>2143</ele></trkpt>
    <trkpt lat="47.10834" lon="13.10106"><ele>2153</ele></trkpt>
    <trkpt lat="47.10815" lon="13.10099"><ele>2157</ele></trkpt>
    <trkpt lat="47.10796" lon="13.10088"><ele>2157</ele></trkpt>
    <trkpt lat="47.10772" lon="13.10080"><ele>2075</ele></trkpt>
    <trkpt lat="47.10758" lon="13.10059"><ele>2054</ele></trkpt>
    <trkpt lat="47.10783" lon="13.10063"><ele>2156</ele></trkpt>
    <trkpt lat="47.10801" lon="13.10053"><ele>2161</ele></trkpt>
    <trkpt lat="47.10821" lon="13.10041"><ele>2172</ele></trkpt>
    <trkpt lat="47.10842" lon="13.10030"><ele>1911</ele></trkpt>
    <trkpt lat="47.10865" lon="13.10016"><ele>2135</ele></trkpt>
    <trkpt lat="47.10888" lon="13.10011"><ele>2180</ele></trkpt>
    <trkpt lat="47.10912" lon="13.10010"><ele>2097</ele></trkpt>
    <trkpt lat="47.10933" lon="13.10012"><ele>1786</ele></trkpt>
    <trkpt lat="47.10956" lon="13.10013"><ele>2178</ele></trkpt>
    <trkpt lat="47.10973" lon="13.09994"><ele>2187</ele></trkpt>
    <trkpt lat="47.10993" lon="13.09982"><ele>2196</ele></trkpt>
    <trkpt lat="47.11013" lon="13.09975"><ele>2196</ele></trkpt>
    <trkpt lat="47.11032" lon="13.09973"><ele>2171</ele></trkpt>
    <trkpt lat="47.11050" lon="13.09971"><ele>2201</ele></trkpt>
    <trkpt lat="47.11074" lon="13.09963"><ele>2207</ele></trkpt>
    <trkpt lat="47.11090" lon="13.09965"><ele>2164</ele></trkpt>
    <trkpt lat="47.11112" lon="13.09959"><ele>2214</ele></trkpt>
    <trkpt lat="47.11123" lon="13.09960"><ele>2215</ele></trkpt>
    <trkpt lat="47.11140" lon="13.09962"><ele>2219</ele></trkpt>
    <trkpt lat="47.11158" lon="13.09958"><ele>2226</ele></trkpt>
    <trkpt lat="47.11145" lon="13.09939"><ele>2229</ele></trkpt>
    <trkpt lat="47.11134" lon="13.09929"><ele>2226</ele></trkpt>
    <trkpt lat="47.11151" lon="13.09928"><ele>2231</ele></trkpt>
    <trkpt lat="47.11137" lon="13.09927"><ele>2229</ele></trkpt>
    <trkpt lat="47.11154" lon="13.09923"><ele>2234</ele></trkpt>
    <trkpt lat="47.11137" lon="13.09930"><ele>2229</ele></trkpt>
    <trkpt lat="47.11114" lon="13.09927"><ele>2229</ele></trkpt>
    <trkpt lat="47.11097" lon="13.09923"><ele>2231</ele></trkpt>
    <trkpt lat="47.11080" lon="13.09915"><ele>2232</ele></trkpt>
    <trkpt lat="47.11059" lon="13.09909"><ele>2236</ele></trkpt>
    <trkpt lat="47.11041" lon="13.09904"><ele>2236</ele></trkpt>
    <trkpt lat="47.11022" lon="13.09897"><ele>2238</ele></trkpt>
    <trkpt lat="47.11004" lon="13.09906"><ele>2239</ele></trkpt>
    <trkpt lat="47.10989" lon="13.09896"><ele>2239</ele></trkpt>
    <trkpt lat="47.10974" lon="13.09889"><ele>2241</ele></trkpt>
    <trkpt lat="47.10962" lon="13.09879"><ele>2244</ele></trkpt>
    <trkpt lat="47.10950" lon="13.09872"><ele>2244</ele></trkpt>
    <trkpt lat="47.10958" lon="13.09879"><ele>2239</ele></trkpt>
    <trkpt lat="47.10983" lon="13.09882"><ele>2240</ele></trkpt>
    <trkpt lat="47.11005" lon="13.09891"><ele>2241</ele></trkpt>
    <trkpt lat="47.11023" lon="13.09900"><ele>2239</ele></trkpt>
    <trkpt lat="47.11050" lon="13.09911"><ele>2236</ele></trkpt>
    <trkpt lat="47.11071" lon="13.09914"><ele>2236</ele></trkpt>
    <trkpt lat="47.11095" lon="13.09928"><ele>2234</ele></trkpt>
    <trkpt lat="47.11117" lon="13.09935"><ele>2230</ele></trkpt>
    <trkpt lat="47.11136" lon="13.09932"><ele>2231</ele></trkpt>
    <trkpt lat="47.11127" lon="13.09940"><ele>2227</ele></trkpt>
    <trkpt lat="47.11057" lon="13.09925"><ele>2224</ele></trkpt>
    <trkpt lat="47.10949" lon="13.09940"><ele>2209</ele></trkpt>
    <trkpt lat="47.10840" lon="13.09912"><ele>2212</ele></trkpt>
    <trkpt lat="47.10752" lon="13.09876"><ele>2189</ele></trkpt>
    <trkpt lat="47.10683" lon="13.09813"><ele>2167</ele></trkpt>
    <trkpt lat="47.10649" lon="13.09762"><ele>2189</ele></trkpt>
    <trkpt lat="47.10623" lon="13.09701"><ele>2183</ele></trkpt>
    <trkpt lat="47.10595" lon="13.09636"><ele>2181</ele></trkpt>
    <trkpt lat="47.10559" lon="13.09554"><ele>2173</ele></trkpt>
    <trkpt lat="47.10550" lon="13.09531"><ele>2169</ele></trkpt>
    <trkpt lat="47.10544" lon="13.09520"><ele>2165</ele></trkpt>
    <trkpt lat="47.10536" lon="13.09509"><ele>2172</ele></trkpt>
    <trkpt lat="47.10526" lon="13.09498"><ele>2175</ele></trkpt>
    <trkpt lat="47.10514" lon="13.09482"><ele>2180</ele></trkpt>
    <trkpt lat="47.10500" lon="13.09465"><ele>2180</ele></trkpt>
    <trkpt lat="47.10494" lon="13.09450"><ele>2179</ele></trkpt>
    <trkpt lat="47.10486" lon="13.09425"><ele>2178</ele></trkpt>
    <trkpt lat="47.10475" lon="13.09410"><ele>2187</ele></trkpt>
    <trkpt lat="47.10469" lon="13.09379"><ele>2195</ele></trkpt>
    <trkpt lat="47.10462" lon="13.09362"><ele>2198</ele></trkpt>
    <trkpt lat="47.10456" lon="13.09348"><ele>2197</ele></trkpt>
    <trkpt lat="47.10446" lon="13.09326"><ele>2198</ele></trkpt>
    <trkpt lat="47.10436" lon="13.09308"><ele>2197</ele></trkpt>
    <trkpt lat="47.10425" lon="13.09288"><ele>2196</ele></trkpt>
    <trkpt lat="47.10424" lon="13.09268"><ele>2201</ele></trkpt>
    <trkpt lat="47.10419" lon="13.09255"><ele>2205</ele></trkpt>
    <trkpt lat="47.10409" lon="13.09241"><ele>2209</ele></trkpt>
    <trkpt lat="47.10402" lon="13.09227"><ele>2211</ele></trkpt>
    <trkpt lat="47.10398" lon="13.09208"><ele>2215</ele></trkpt>
    <trkpt lat="47.10387" lon="13.09203"><ele>2221</ele></trkpt>
    <trkpt lat="47.10379" lon="13.09194"><ele>2223</ele></trkpt>
    <trkpt lat="47.10370" lon="13.09187"><ele>2221</ele></trkpt>
    <trkpt lat="47.10365" lon="13.09176"><ele>2227</ele></trkpt>
    <trkpt lat="47.10365" lon="13.09162"><ele>2232</ele></trkpt>
    <trkpt lat="47.10363" lon="13.09142"><ele>2234</ele></trkpt>
    <trkpt lat="47.10347" lon="13.09146"><ele>2241</ele></trkpt>
    <trkpt lat="47.10333" lon="13.09132"><ele>2136</ele></trkpt>
    <trkpt lat="47.10325" lon="13.09111"><ele>2247</ele></trkpt>
    <trkpt lat="47.10308" lon="13.09102"><ele>2254</ele></trkpt>
    <trkpt lat="47.10295" lon="13.09088"><ele>2265</ele></trkpt>
    <trkpt lat="47.10285" lon="13.09078"><ele>2266</ele></trkpt>
    <trkpt lat="47.10267" lon="13.09069"><ele>2247</ele></trkpt>
    <trkpt lat="47.10256" lon="13.09067"><ele>2271</ele></trkpt>
    <trkpt lat="47.10245" lon="13.09058"><ele>2273</ele></trkpt>
    <trkpt lat="47.10231" lon="13.09052"><ele>2277</ele></trkpt>
    <trkpt lat="47.10222" lon="13.09042"><ele>2276</ele></trkpt>
    <trkpt lat="47.10202" lon="13.09033"><ele>2263</ele></trkpt>
    <trkpt lat="47.10193" lon="13.09026"><ele>2274</ele></trkpt>
    <trkpt lat="47.10181" lon="13.09024"><ele>2283</ele></trkpt>
    <trkpt lat="47.10171" lon="13.09023"><ele>2286</ele></trkpt>
    <trkpt lat="47.10158" lon="13.09011"><ele>2291</ele></trkpt>
    <trkpt lat="47.10164" lon="13.08991"><ele>2309</ele></trkpt>
    <trkpt lat="47.10148" lon="13.08983"><ele>2318</ele></trkpt>
    <trkpt lat="47.10133" lon="13.08968"><ele>2323</ele></trkpt>
    <trkpt lat="47.10116" lon="13.08966"><ele>2322</ele></trkpt>
    <trkpt lat="47.10099" lon="13.08952"><ele>2340</ele></trkpt>
    <trkpt lat="47.10090" lon="13.08948"><ele>2344</ele></trkpt>
    <trkpt lat="47.10085" lon="13.08971"><ele>2350</ele></trkpt>
    <trkpt lat="47.10070" lon="13.08980"><ele>2335</ele></trkpt>
    <trkpt lat="47.10055" lon="13.08984"><ele>2366</ele></trkpt>
    <trkpt lat="47.10040" lon="13.08975"><ele>2365</ele></trkpt>
    <trkpt lat="47.10025" lon="13.08965"><ele>2350</ele></trkpt>
    <trkpt lat="47.10010" lon="13.08961"><ele>2390</ele></trkpt>
    <trkpt lat="47.10009" lon="13.08986"><ele>2398</ele></trkpt>
    <trkpt lat="47.09993" lon="13.08985"><ele>2406</ele></trkpt>
    <trkpt lat="47.09974" lon="13.08958"><ele>2406</ele></trkpt>
    <trkpt lat="47.09965" lon="13.08944"><ele>2407</ele></trkpt>
    <trkpt lat="47.09955" lon="13.08919"><ele>2311</ele></trkpt>
    <trkpt lat="47.09950" lon="13.08904"><ele>2409</ele></trkpt>
    <trkpt lat="47.09940" lon="13.08872"><ele>2416</ele></trkpt>
    <trkpt lat="47.09932" lon="13.08851"><ele>2285</ele></trkpt>
    <trkpt lat="47.09925" lon="13.08829"><ele>2403</ele></trkpt>
    <trkpt lat="47.09916" lon="13.08810"><ele>2420</ele></trkpt>
    <trkpt lat="47.09905" lon="13.08795"><ele>2305</ele></trkpt>
    <trkpt lat="47.09896" lon="13.08779"><ele>2422</ele></trkpt>
    <trkpt lat="47.09887" lon="13.08768"><ele>2426</ele></trkpt>
    <trkpt lat="47.09878" lon="13.08747"><ele>2433</ele></trkpt>
    <trkpt lat="47.09873" lon="13.08736"><ele>2427</ele></trkpt>
    <trkpt lat="47.09858" lon="13.08715"><ele>2276</ele></trkpt>
    <trkpt lat="47.09856" lon="13.08701"><ele>2347</ele></trkpt>
    <trkpt lat="47.09854" lon="13.08686"><ele>2433</ele></trkpt>
    <trkpt lat="47.09850" lon="13.08663"><ele>2442</ele></trkpt>
    <trkpt lat="47.09843" lon="13.08647"><ele>2441</ele></trkpt>
    <trkpt lat="47.09841" lon="13.08633"><ele>2444</ele></trkpt>
    <trkpt lat="47.09834" lon="13.08619"><ele>2438</ele></trkpt>
    <trkpt lat="47.09831" lon="13.08605"><ele>2435</ele></trkpt>
    <trkpt lat="47.09819" lon="13.08588"><ele>2274</ele></trkpt>
    <trkpt lat="47.09813" lon="13.08577"><ele>2450</ele></trkpt>
    <trkpt lat="47.09803" lon="13.08574"><ele>2431</ele></trkpt>
    <trkpt lat="47.09788" lon="13.08564"><ele>2453</ele></trkpt>
    <trkpt lat="47.09780" lon="13.08548"><ele>2451</ele></trkpt>
    <trkpt lat="47.09770" lon="13.08543"><ele>2304</ele></trkpt>
    <trkpt lat="47.09750" lon="13.08541"><ele>2447</ele></trkpt>
    <trkpt lat="47.09741" lon="13.08546"><ele>2448</ele></trkpt>
    <trkpt lat="47.09730" lon="13.08532"><ele>2435</ele></trkpt>
    <trkpt lat="47.09707" lon="13.08530"><ele>2427</ele></trkpt>
    <trkpt lat="47.09695" lon="13.08522"><ele>2385</ele></trkpt>
    <trkpt lat="47.09680" lon="13.08516"><ele>2418</ele></trkpt>
    <trkpt lat="47.09671" lon="13.08511"><ele>2416</ele></trkpt>
    <trkpt lat="47.09661" lon="13.08503"><ele>2415</ele></trkpt>
    <trkpt lat="47.09652" lon="13.08489"><ele>2412</ele></trkpt>
    <trkpt lat="47.09641" lon="13.08471"><ele>2410</ele></trkpt>
    <trkpt lat="47.09629" lon="13.08463"><ele>2405</ele></trkpt>
    <trkpt lat="47.09614" lon="13.08467"><ele>2386</ele></trkpt>
    <trkpt lat="47.09608" lon="13.08454"><ele>2285</ele></trkpt>
    <trkpt lat="47.09591" lon="13.08447"><ele>2374</ele></trkpt>
    <trkpt lat="47.09582" lon="13.08443"><ele>2394</ele></trkpt>
    <trkpt lat="47.09569" lon="13.08434"><ele>2394</ele></trkpt>
    <trkpt lat="47.09550" lon="13.08417"><ele>2355</ele></trkpt>
    <trkpt lat="47.09536" lon="13.08417"><ele>2383</ele></trkpt>
    <trkpt lat="47.09526" lon="13.08414"><ele>2362</ele></trkpt>
    <trkpt lat="47.09516" lon="13.08404"><ele>2385</ele></trkpt>
    <trkpt lat="47.09501" lon="13.08390"><ele>2387</ele></trkpt>
    <trkpt lat="47.09480" lon="13.08378"><ele>2388</ele></trkpt>
    <trkpt lat="47.09474" lon="13.08364"><ele>2384</ele></trkpt>
    <trkpt lat="47.09462" lon="13.08357"><ele>2380</ele></trkpt>
    <trkpt lat="47.09446" lon="13.08340"><ele>2372</ele></trkpt>
    <trkpt lat="47.09438" lon="13.08324"><ele>2369</ele></trkpt>
    <trkpt lat="47.09429" lon="13.08310"><ele>2369</ele></trkpt>
    <trkpt lat="47.09420" lon="13.08280"><ele>2341</ele></trkpt>
    <trkpt lat="47.09418" lon="13.08265"><ele>2366</ele></trkpt>
    <trkpt lat="47.09404" lon="13.08246"><ele>2361</ele></trkpt>
    <trkpt lat="47.09392" lon="13.08226"><ele>2353</ele></trkpt>
    <trkpt lat="47.09386" lon="13.08214"><ele>2348</ele></trkpt>
    <trkpt lat="47.09379" lon="13.08202"><ele>2344</ele></trkpt>
    <trkpt lat="47.09372" lon="13.08185"><ele>2340</ele></trkpt>
    <trkpt lat="47.09361" lon="13.08171"><ele>2334</ele></trkpt>
    <trkpt lat="47.09354" lon="13.08149"><ele>2331</ele></trkpt>
    <trkpt lat="47.09346" lon="13.08131"><ele>2332</ele></trkpt>
    <trkpt lat="47.09336" lon="13.08114"><ele>2330</ele></trkpt>
    <trkpt lat="47.09326" lon="13.08098"><ele>2332</ele></trkpt>
    <trkpt lat="47.09316" lon="13.08078"><ele>2334</ele></trkpt>
    <trkpt lat="47.09305" lon="13.08059"><ele>2332</ele></trkpt>
    <trkpt lat="47.09292" lon="13.08045"><ele>2326</ele></trkpt>
    <trkpt lat="47.09285" lon="13.08026"><ele>2325</ele></trkpt>
    <trkpt lat="47.09275" lon="13.08008"><ele>2320</ele></trkpt>
    <trkpt lat="47.09267" lon="13.07995"><ele>2319</ele></trkpt>
    <trkpt lat="47.09260" lon="13.07981"><ele>2316</ele></trkpt>
    <trkpt lat="47.09258" lon="13.07963"><ele>2313</ele></trkpt>
    <trkpt lat="47.09249" lon="13.07958"><ele>2109</ele></trkpt>
    <trkpt lat="47.09236" lon="13.07927"><ele>2280</ele></trkpt>
    <trkpt lat="47.09230" lon="13.07914"><ele>2289</ele></trkpt>
    <trkpt lat="47.09220" lon="13.07894"><ele>2288</ele></trkpt>
    <trkpt lat="47.09210" lon="13.07881"><ele>2290</ele></trkpt>
    <trkpt lat="47.09202" lon="13.07874"><ele>2290</ele></trkpt>
    <trkpt lat="47.09191" lon="13.07856"><ele>2196</ele></trkpt>
    <trkpt lat="47.09180" lon="13.07836"><ele>2280</ele></trkpt>
    <trkpt lat="47.09165" lon="13.07833"><ele>2239</ele></trkpt>
    <trkpt lat="47.09157" lon="13.07821"><ele>2259</ele></trkpt>
    <trkpt lat="47.09146" lon="13.07804"><ele>2282</ele></trkpt>
    <trkpt lat="47.09136" lon="13.07793"><ele>2273</ele></trkpt>
    <trkpt lat="47.09124" lon="13.07791"><ele>2278</ele></trkpt>
    <trkpt lat="47.09113" lon="13.07770"><ele>2277</ele></trkpt>
    <trkpt lat="47.09095" lon="13.07768"><ele>2278</ele></trkpt>
    <trkpt lat="47.09082" lon="13.07772"><ele>2280</ele></trkpt>
    <trkpt lat="47.09069" lon="13.07771"><ele>2279</ele></trkpt>
    <trkpt lat="47.09064" lon="13.07760"><ele>2284</ele></trkpt>
    <trkpt lat="47.09053" lon="13.07742"><ele>2289</ele></trkpt>
    <trkpt lat="47.09036" lon="13.07740"><ele>2118</ele></trkpt>
    <trkpt lat="47.09019" lon="13.07735"><ele>2308</ele></trkpt>
    <trkpt lat="47.09007" lon="13.07721"><ele>2318</ele></trkpt>
    <trkpt lat="47.08990" lon="13.07723"><ele>2171</ele></trkpt>
    <trkpt lat="47.08974" lon="13.07719"><ele>2133</ele></trkpt>
    <trkpt lat="47.08964" lon="13.07735"><ele>2358</ele></trkpt>
    <trkpt lat="47.08947" lon="13.07729"><ele>2234</ele></trkpt>
    <trkpt lat="47.08932" lon="13.07738"><ele>2369</ele></trkpt>
    <trkpt lat="47.08931" lon="13.07754"><ele>2388</ele></trkpt>
    <trkpt lat="47.08930" lon="13.07776"><ele>2358</ele></trkpt>
    <trkpt lat="47.08923" lon="13.07798"><ele>2338</ele></trkpt>
    <trkpt lat="47.08938" lon="13.07799"><ele>2275</ele></trkpt>
    <trkpt lat="47.08953" lon="13.07793"><ele>2267</ele></trkpt>
    <trkpt lat="47.08965" lon="13.07783"><ele>2329</ele></trkpt>
    <trkpt lat="47.08978" lon="13.07767"><ele>2315</ele></trkpt>
    <trkpt lat="47.08986" lon="13.07753"><ele>2324</ele></trkpt>
    <trkpt lat="47.09000" lon="13.07749"><ele>2276</ele></trkpt>
    <trkpt lat="47.09011" lon="13.07747"><ele>2123</ele></trkpt>
    <trkpt lat="47.09020" lon="13.07739"><ele>2295</ele></trkpt>
    <trkpt lat="47.09037" lon="13.07741"><ele>2296</ele></trkpt>
    <trkpt lat="47.09050" lon="13.07727"><ele>2103</ele></trkpt>
    <trkpt lat="47.09065" lon="13.07721"><ele>2282</ele></trkpt>
    <trkpt lat="47.09081" lon="13.07740"><ele>2189</ele></trkpt>
    <trkpt lat="47.09096" lon="13.07759"><ele>2270</ele></trkpt>
    <trkpt lat="47.09115" lon="13.07767"><ele>2273</ele></trkpt>
    <trkpt lat="47.09133" lon="13.07772"><ele>2287</ele></trkpt>
    <trkpt lat="47.09150" lon="13.07786"><ele>2283</ele></trkpt>
    <trkpt lat="47.09155" lon="13.07806"><ele>2285</ele></trkpt>
    <trkpt lat="47.09161" lon="13.07832"><ele>2239</ele></trkpt>
    <trkpt lat="47.09176" lon="13.07841"><ele>2287</ele></trkpt>
    <trkpt lat="47.09186" lon="13.07854"><ele>2280</ele></trkpt>
    <trkpt lat="47.09195" lon="13.07870"><ele>2272</ele></trkpt>
    <trkpt lat="47.09204" lon="13.07881"><ele>2290</ele></trkpt>
    <trkpt lat="47.09216" lon="13.07894"><ele>2292</ele></trkpt>
    <trkpt lat="47.09223" lon="13.07904"><ele>2295</ele></trkpt>
    <trkpt lat="47.09233" lon="13.07912"><ele>2278</ele></trkpt>
    <trkpt lat="47.09246" lon="13.07923"><ele>2293</ele></trkpt>
    <trkpt lat="47.09256" lon="13.07937"><ele>2300</ele></trkpt>
    <trkpt lat="47.09267" lon="13.07959"><ele>2338</ele></trkpt>
    <trkpt lat="47.09276" lon="13.07971"><ele>2308</ele></trkpt>
    <trkpt lat="47.09286" lon="13.07987"><ele>2348</ele></trkpt>
    <trkpt lat="47.09300" lon="13.08000"><ele>2265</ele></trkpt>
    <trkpt lat="47.09313" lon="13.08014"><ele>2046</ele></trkpt>
    <trkpt lat="47.09325" lon="13.08027"><ele>2311</ele></trkpt>
    <trkpt lat="47.09336" lon="13.08042"><ele>2318</ele></trkpt>
    <trkpt lat="47.09342" lon="13.08055"><ele>2314</ele></trkpt>
    <trkpt lat="47.09352" lon="13.08071"><ele>2027</ele></trkpt>
    <trkpt lat="47.09362" lon="13.08090"><ele>2226</ele></trkpt>
    <trkpt lat="47.09373" lon="13.08107"><ele>2267</ele></trkpt>
    <trkpt lat="47.09387" lon="13.08123"><ele>2299</ele></trkpt>
    <trkpt lat="47.09404" lon="13.08132"><ele>2313</ele></trkpt>
    <trkpt lat="47.09414" lon="13.08152"><ele>2312</ele></trkpt>
    <trkpt lat="47.09427" lon="13.08161"><ele>2250</ele></trkpt>
    <trkpt lat="47.09444" lon="13.08168"><ele>2304</ele></trkpt>
    <trkpt lat="47.09454" lon="13.08165"><ele>2306</ele></trkpt>
    <trkpt lat="47.09467" lon="13.08174"><ele>2307</ele></trkpt>
    <trkpt lat="47.09483" lon="13.08186"><ele>2306</ele></trkpt>
    <trkpt lat="47.09494" lon="13.08199"><ele>2311</ele></trkpt>
    <trkpt lat="47.09509" lon="13.08214"><ele>2291</ele></trkpt>
    <trkpt lat="47.09526" lon="13.08223"><ele>2281</ele></trkpt>
    <trkpt lat="47.09539" lon="13.08235"><ele>2291</ele></trkpt>
    <trkpt lat="47.09549" lon="13.08241"><ele>2305</ele></trkpt>
    <trkpt lat="47.09559" lon="13.08257"><ele>2290</ele></trkpt>
    <trkpt lat="47.09576" lon="13.08263"><ele>2250</ele></trkpt>
    <trkpt lat="47.09595" lon="13.08272"><ele>2311</ele></trkpt>
    <trkpt lat="47.09607" lon="13.08283"><ele>2316</ele></trkpt>
    <trkpt lat="47.09623" lon="13.08296"><ele>2070</ele></trkpt>
    <trkpt lat="47.09635" lon="13.08304"><ele>2137</ele></trkpt>
    <trkpt lat="47.09649" lon="13.08318"><ele>2287</ele></trkpt>
    <trkpt lat="47.09671" lon="13.08319"><ele>2261</ele></trkpt>
    <trkpt lat="47.09682" lon="13.08323"><ele>2297</ele></trkpt>
    <trkpt lat="47.09696" lon="13.08326"><ele>2291</ele></trkpt>
    <trkpt lat="47.09714" lon="13.08330"><ele>2188</ele></trkpt>
    <trkpt lat="47.09732" lon="13.08318"><ele>2318</ele></trkpt>
    <trkpt lat="47.09750" lon="13.08310"><ele>2283</ele></trkpt>
    <trkpt lat="47.09763" lon="13.08294"><ele>2267</ele></trkpt>
    <trkpt lat="47.09781" lon="13.08277"><ele>2191</ele></trkpt>
    <trkpt lat="47.09792" lon="13.08275"><ele>2120</ele></trkpt>
    <trkpt lat="47.09808" lon="13.08277"><ele>2301</ele></trkpt>
    <trkpt lat="47.09826" lon="13.08283"><ele>2275</ele></trkpt>
    <trkpt lat="47.09844" lon="13.08282"><ele>2300</ele></trkpt>
    <trkpt lat="47.09866" lon="13.08279"><ele>2323</ele></trkpt>
    <trkpt lat="47.09880" lon="13.08294"><ele>2302</ele></trkpt>
    <trkpt lat="47.09894" lon="13.08306"><ele>2287</ele></trkpt>
    <trkpt lat="47.09911" lon="13.08305"><ele>2301</ele></trkpt>
    <trkpt lat="47.09926" lon="13.08318"><ele>2201</ele></trkpt>
    <trkpt lat="47.09940" lon="13.08332"><ele>2301</ele></trkpt>
    <trkpt lat="47.09954" lon="13.08343"><ele>2297</ele></trkpt>
    <trkpt lat="47.09966" lon="13.08358"><ele>2216</ele></trkpt>
    <trkpt lat="47.09975" lon="13.08365"><ele>2214</ele></trkpt>
    <trkpt lat="47.09987" lon="13.08376"><ele>2255</ele></trkpt>
    <trkpt lat="47.09996" lon="13.08368"><ele>2233</ele></trkpt>
    <trkpt lat="47.10010" lon="13.08372"><ele>2303</ele></trkpt>
    <trkpt lat="47.10019" lon="13.08387"><ele>2301</ele></trkpt>
    <trkpt lat="47.10025" lon="13.08370"><ele>2278</ele></trkpt>
    <trkpt lat="47.10039" lon="13.08376"><ele>2292</ele></trkpt>
    <trkpt lat="47.10057" lon="13.08384"><ele>2270</ele></trkpt>
    <trkpt lat="47.10068" lon="13.08384"><ele>2283</ele></trkpt>
    <trkpt lat="47.10076" lon="13.08378"><ele>2277</ele></trkpt>
    <trkpt lat="47.10084" lon="13.08383"><ele>2215</ele></trkpt>
    <trkpt lat="47.10076" lon="13.08400"><ele>2262</ele></trkpt>
    <trkpt lat="47.10058" lon="13.08418"><ele>2257</ele></trkpt>
    <trkpt lat="47.10046" lon="13.08448"><ele>2257</ele></trkpt>
    <trkpt lat="47.10051" lon="13.08474"><ele>2261</ele></trkpt>
    <trkpt lat="47.10055" lon="13.08500"><ele>2261</ele></trkpt>
    <trkpt lat="47.10066" lon="13.08526"><ele>2261</ele></trkpt>
    <trkpt lat="47.10073" lon="13.08553"><ele>2261</ele></trkpt>
    <trkpt lat="47.10072" lon="13.08579"><ele>2261</ele></trkpt>
    <trkpt lat="47.10074" lon="13.08597"><ele>2260</ele></trkpt>
    <trkpt lat="47.10078" lon="13.08620"><ele>2263</ele></trkpt>
    <trkpt lat="47.10084" lon="13.08647"><ele>2265</ele></trkpt>
    <trkpt lat="47.10093" lon="13.08676"><ele>2264</ele></trkpt>
    <trkpt lat="47.10098" lon="13.08700"><ele>2267</ele></trkpt>
    <trkpt lat="47.10106" lon="13.08724"><ele>2266</ele></trkpt>
    <trkpt lat="47.10113" lon="13.08750"><ele>2266</ele></trkpt>
    <trkpt lat="47.10120" lon="13.08770"><ele>2271</ele></trkpt>
    <trkpt lat="47.10134" lon="13.08787"><ele>2269</ele></trkpt>
    <trkpt lat="47.10143" lon="13.08810"><ele>2273</ele></trkpt>
    <trkpt lat="47.10149" lon="13.08828"><ele>2271</ele></trkpt>
    <trkpt lat="47.10160" lon="13.08844"><ele>2274</ele></trkpt>
    <trkpt lat="47.10160" lon="13.08866"><ele>2277</ele></trkpt>
    <trkpt lat="47.10154" lon="13.08882"><ele>2275</ele></trkpt>
    <trkpt lat="47.10156" lon="13.08905"><ele>2265</ele></trkpt>
    <trkpt lat="47.10165" lon="13.08921"><ele>2266</ele></trkpt>
    <trkpt lat="47.10174" lon="13.08945"><ele>2266</ele></trkpt>
    <trkpt lat="47.10186" lon="13.08967"><ele>2273</ele></trkpt>
    <trkpt lat="47.10196" lon="13.08987"><ele>2274</ele></trkpt>
    <trkpt lat="47.10210" lon="13.09001"><ele>2271</ele></trkpt>
    <trkpt lat="47.10221" lon="13.09017"><ele>2210</ele></trkpt>
    <trkpt lat="47.10239" lon="13.09039"><ele>2270</ele></trkpt>
    <trkpt lat="47.10252" lon="13.09048"><ele>2271</ele></trkpt>
    <trkpt lat="47.10273" lon="13.09062"><ele>2253</ele></trkpt>
    <trkpt lat="47.10290" lon="13.09078"><ele>2265</ele></trkpt>
    <trkpt lat="47.10299" lon="13.09096"><ele>2265</ele></trkpt>
    <trkpt lat="47.10318" lon="13.09111"><ele>2262</ele></trkpt>
    <trkpt lat="47.10331" lon="13.09121"><ele>2259</ele></trkpt>
    <trkpt lat="47.10340" lon="13.09142"><ele>2244</ele></trkpt>
    <trkpt lat="47.10354" lon="13.09139"><ele>2240</ele></trkpt>
    <trkpt lat="47.10360" lon="13.09150"><ele>2237</ele></trkpt>
    <trkpt lat="47.10360" lon="13.09176"><ele>2232</ele></trkpt>
    <trkpt lat="47.10375" lon="13.09190"><ele>2230</ele></trkpt>
    <trkpt lat="47.10386" lon="13.09206"><ele>2221</ele></trkpt>
    <trkpt lat="47.10397" lon="13.09219"><ele>2218</ele></trkpt>
    <trkpt lat="47.10409" lon="13.09240"><ele>2217</ele></trkpt>
    <trkpt lat="47.10420" lon="13.09261"><ele>2211</ele></trkpt>
    <trkpt lat="47.10421" lon="13.09286"><ele>2205</ele></trkpt>
    <trkpt lat="47.10438" lon="13.09317"><ele>2204</ele></trkpt>
    <trkpt lat="47.10460" lon="13.09355"><ele>2202</ele></trkpt>
    <trkpt lat="47.10469" lon="13.09367"><ele>2199</ele></trkpt>
    <trkpt lat="47.10473" lon="13.09382"><ele>2193</ele></trkpt>
    <trkpt lat="47.10474" lon="13.09406"><ele>2190</ele></trkpt>
    <trkpt lat="47.10485" lon="13.09423"><ele>2190</ele></trkpt>
    <trkpt lat="47.10495" lon="13.09453"><ele>2187</ele></trkpt>
    <trkpt lat="47.10515" lon="13.09479"><ele>2185</ele></trkpt>
    <trkpt lat="47.10528" lon="13.09500"><ele>2183</ele></trkpt>
    <trkpt lat="47.10539" lon="13.09517"><ele>2177</ele></trkpt>
    <trkpt lat="47.10547" lon="13.09525"><ele>2174</ele></trkpt>
    <trkpt lat="47.10567" lon="13.09557"><ele>2176</ele></trkpt>
    <trkpt lat="47.10585" lon="13.09594"><ele>2182</ele></trkpt>
    <trkpt lat="47.10601" lon="13.09625"><ele>2184</ele></trkpt>
    <trkpt lat="47.10620" lon="13.09654"><ele>2185</ele></trkpt>
    <trkpt lat="47.10635" lon="13.09688"><ele>2187</ele></trkpt>
    <trkpt lat="47.10645" lon="13.09722"><ele>2192</ele></trkpt>
    <trkpt lat="47.10657" lon="13.09752"><ele>2194</ele></trkpt>
    <trkpt lat="47.10670" lon="13.09782"><ele>2199</ele></trkpt>
    <trkpt lat="47.10687" lon="13.09813"><ele>2201</ele></trkpt>
    <trkpt lat="47.10709" lon="13.09844"><ele>2201</ele></trkpt>
    <trkpt lat="47.10731" lon="13.09872"><ele>2205</ele></trkpt>
    <trkpt lat="47.10757" lon="13.09885"><ele>2203</ele></trkpt>
    <trkpt lat="47.10778" lon="13.09902"><ele>2206</ele></trkpt>
    <trkpt lat="47.10808" lon="13.09916"><ele>2212</ele></trkpt>
    <trkpt lat="47.10835" lon="13.09917"><ele>2203</ele></trkpt>
    <trkpt lat="47.10873" lon="13.09931"><ele>2129</ele></trkpt>
    <trkpt lat="47.10913" lon="13.09939"><ele>2210</ele></trkpt>
    <trkpt lat="47.10954" lon="13.09940"><ele>2217</ele></trkpt>
    <trkpt lat="47.10989" lon="13.09931"><ele>2220</ele></trkpt>
    <trkpt lat="47.11033" lon="13.09930"><ele>2224</ele></trkpt>
    <trkpt lat="47.11074" lon="13.09925"><ele>2223</ele></trkpt>
    <trkpt lat="47.11117" lon="13.09941"><ele>2222</ele></trkpt>
    <trkpt lat="47.11107" lon="13.09963"><ele>2190</ele></trkpt>
    <trkpt lat="47.11073" lon="13.09959"><ele>2211</ele></trkpt>
    <trkpt lat="47.10936" lon="13.10002"><ele>2193</ele></trkpt>
    <trkpt lat="47.10773" lon="13.10066"><ele>2145</ele></trkpt>
    <trkpt lat="47.10837" lon="13.10120"><ele>2153</ele></trkpt>
    <trkpt lat="47.11013" lon="13.10212"><ele>2129</ele></trkpt>
    <trkpt lat="47.11144" lon="13.10227"><ele>2110</ele></trkpt>
    <trkpt lat="47.11127" lon="13.10299"><ele>2067</ele></trkpt>
    <trkpt lat="47.11075" lon="13.10354"><ele>2041</ele></trkpt>
    <trkpt lat="47.11238" lon="13.10354"><ele>2060</ele></trkpt>
    <trkpt lat="47.11423" lon="13.10425"><ele>2012</ele></trkpt>
    <trkpt lat="47.11592" lon="13.10527"><ele>2021</ele></trkpt>
    <trkpt lat="47.11705" lon="13.10603"><ele>1960</ele></trkpt>
    <trkpt lat="47.11716" lon="13.10601"><ele>2000</ele></trkpt>
    <trkpt lat="47.11776" lon="13.10543"><ele>1965</ele></trkpt>
    <trkpt lat="47.11822" lon="13.10362"><ele>1979</ele></trkpt>
    <trkpt lat="47.11870" lon="13.10309"><ele>1974</ele></trkpt>
    <trkpt lat="47.11847" lon="13.10517"><ele>1890</ele></trkpt>
    <trkpt lat="47.11805" lon="13.10749"><ele>1937</ele></trkpt>
    <trkpt lat="47.11728" lon="13.10799"><ele>1925</ele></trkpt>
    <trkpt lat="47.11719" lon="13.10798"><ele>1930</ele></trkpt>
    <trkpt lat="47.11586" lon="13.10844"><ele>1915</ele></trkpt>
    <trkpt lat="47.11413" lon="13.10874"><ele>1902</ele></trkpt>
    <trkpt lat="47.11262" lon="13.10932"><ele>1878</ele></trkpt>
    <trkpt lat="47.11107" lon="13.10954"><ele>1775</ele></trkpt>
    <trkpt lat="47.10939" lon="13.10979"><ele>1836</ele></trkpt>
    <trkpt lat="47.10831" lon="13.11014"><ele>1828</ele></trkpt>
    <trkpt lat="47.10959" lon="13.11109"><ele>1814</ele></trkpt>
    <trkpt lat="47.11019" lon="13.11144"><ele>1804</ele></trkpt>
    <trkpt lat="47.11132" lon="13.11231"><ele>1579</ele></trkpt>
    <trkpt lat="47.11199" lon="13.11229"><ele>1735</ele></trkpt>
    <trkpt lat="47.11342" lon="13.11291"><ele>1775</ele></trkpt>
    <trkpt lat="47.11493" lon="13.11387"><ele>1492</ele></trkpt>
    <trkpt lat="47.11631" lon="13.11493"><ele>1725</ele></trkpt>
    <trkpt lat="47.11796" lon="13.11535"><ele>1721</ele></trkpt>
    <trkpt lat="47.11996" lon="13.11528"><ele>1561</ele></trkpt>
    <trkpt lat="47.12152" lon="13.11477"><ele>1667</ele></trkpt>
    <trkpt lat="47.12281" lon="13.11282"><ele>1696</ele></trkpt>
    <trkpt lat="47.12442" lon="13.11109"><ele>1647</ele></trkpt>
    <trkpt lat="47.12563" lon="13.10968"><ele>1621</ele></trkpt>
    <trkpt lat="47.12647" lon="13.10782"><ele>1638</ele></trkpt>
    <trkpt lat="47.12689" lon="13.10664"><ele>1617</ele></trkpt>
    <trkpt lat="47.12721" lon="13.10671"><ele>1582</ele></trkpt>
    <trkpt lat="47.12779" lon="13.10632"><ele>1586</ele></trkpt>
    <trkpt lat="47.12853" lon="13.10553"><ele>1599</ele></trkpt>
    <trkpt lat="47.12935" lon="13.10433"><ele>1596</ele></trkpt>
    <trkpt lat="47.13016" lon="13.10290"><ele>1224</ele></trkpt>
    <trkpt lat="47.13068" lon="13.10078"><ele>1389</ele></trkpt>
    <trkpt lat="47.13069" lon="13.09831"><ele>1912</ele></trkpt>
    <trkpt lat="47.13077" lon="13.09575"><ele>1767</ele></trkpt>
    <trkpt lat="47.13101" lon="13.09367"><ele>1552</ele></trkpt>
    <trkpt lat="47.13145" lon="13.09179"><ele>1584</ele></trkpt>
    <trkpt lat="47.13022" lon="13.09000"><ele>1535</ele></trkpt>
    <trkpt lat="47.13085" lon="13.09014"><ele>1459</ele></trkpt>
    <trkpt lat="47.13216" lon="13.09190"><ele>1472</ele></trkpt>
    <trkpt lat="47.13294" lon="13.09399"><ele>1415</ele></trkpt>
    <trkpt lat="47.13388" lon="13.09601"><ele>1438</ele></trkpt>
    <trkpt lat="47.13497" lon="13.09803"><ele>1426</ele></trkpt>
    <trkpt lat="47.13571" lon="13.10062"><ele>1450</ele></trkpt>
    <trkpt lat="47.13609" lon="13.10307"><ele>1530</ele></trkpt>
    <trkpt lat="47.13591" lon="13.10475"><ele>1364</ele></trkpt>
    <trkpt lat="47.13670" lon="13.10335"><ele>1357</ele></trkpt>
    <trkpt lat="47.13740" lon="13.10142"><ele>1341</ele></trkpt>
    <trkpt lat="47.13779" lon="13.09885"><ele>1415</ele></trkpt>
    <trkpt lat="47.13832" lon="13.09664"><ele>1374</ele></trkpt>
    <trkpt lat="47.13786" lon="13.09438"><ele>1289</ele></trkpt>
    <trkpt lat="47.13700" lon="13.09200"><ele>1268</ele></trkpt>
    <trkpt lat="47.13591" lon="13.08924"><ele>1242</ele></trkpt>
    <trkpt lat="47.13472" lon="13.08650"><ele>1249</ele></trkpt>
    <trkpt lat="47.13418" lon="13.08516"><ele>1195</ele></trkpt>
    <trkpt lat="47.13539" lon="13.08591"><ele>1190</ele></trkpt>
    <trkpt lat="47.13629" lon="13.08711"><ele>1185</ele></trkpt>
    <trkpt lat="47.13732" lon="13.08876"><ele>1171</ele></trkpt>
    <trkpt lat="47.13815" lon="13.09000"><ele>1164</ele></trkpt>
    <trkpt lat="47.13953" lon="13.09146"><ele>1146</ele></trkpt>
    <trkpt lat="47.14047" lon="13.09300"><ele>1131</ele></trkpt>
    <trkpt lat="47.14103" lon="13.09456"><ele>1131</ele></trkpt>
    <trkpt lat="47.14190" lon="13.09588"><ele>1132</ele></trkpt>
    <trkpt lat="47.14260" lon="13.09761"><ele>1119</ele></trkpt>
    <trkpt lat="47.14367" lon="13.09860"><ele>1098</ele></trkpt>
    <trkpt lat="47.14386" lon="13.10021"><ele>1109</ele></trkpt>
    <trkpt lat="47.14416" lon="13.10191"><ele>1053</ele></trkpt>
    <trkpt lat="47.14425" lon="13.10163"><ele>1072</ele></trkpt>
    <trkpt lat="47.14442" lon="13.10390"><ele>1052</ele></trkpt>
    <trkpt lat="47.14407" lon="13.10602"><ele>1036</ele></trkpt>
    <trkpt lat="47.14400" lon="13.10774"><ele>1026</ele></trkpt>
    <trkpt lat="47.14350" lon="13.10848"><ele>1026</ele></trkpt>
    <trkpt lat="47.14309" lon="13.10946"><ele>1025</ele></trkpt>
    <trkpt lat="47.14275" lon="13.11014"><ele>1021</ele></trkpt>
    <trkpt lat="47.14230" lon="13.11078"><ele>1025</ele></trkpt>
    <trkpt lat="47.14184" lon="13.11145"><ele>1027</ele></trkpt>
    <trkpt lat="47.14133" lon="13.11192"><ele>1027</ele></trkpt>
    <trkpt lat="47.14097" lon="13.11240"><ele>1030</ele></trkpt>
    <trkpt lat="47.14069" lon="13.11272"><ele>1032</ele></trkpt>
    <trkpt lat="47.14028" lon="13.11287"><ele>1035</ele></trkpt>
    <trkpt lat="47.13994" lon="13.11332"><ele>1039</ele></trkpt>
    <trkpt lat="47.13962" lon="13.11383"><ele>1043</ele></trkpt>
    <trkpt lat="47.13931" lon="13.11441"><ele>1042</ele></trkpt>
    <trkpt lat="47.13898" lon="13.11496"><ele>1046</ele></trkpt>
    <trkpt lat="47.13866" lon="13.11547"><ele>1051</ele></trkpt>
    <trkpt lat="47.13849" lon="13.11618"><ele>1059</ele></trkpt>
    <trkpt lat="47.13814" lon="13.11663"><ele>1063</ele></trkpt>
    <trkpt lat="47.13754" lon="13.11667"><ele>1059</ele></trkpt>
    <trkpt lat="47.13718" lon="13.11711"><ele>1063</ele></trkpt>
    <trkpt lat="47.13695" lon="13.11753"><ele>1068</ele></trkpt>
    <trkpt lat="47.13665" lon="13.11777"><ele>1074</ele></trkpt>
    <trkpt lat="47.13649" lon="13.11824"><ele>1072</ele></trkpt>
    <trkpt lat="47.13639" lon="13.11869"><ele>1078</ele></trkpt>
    <trkpt lat="47.13619" lon="13.11897"><ele>1088</ele></trkpt>
    <trkpt lat="47.13600" lon="13.11920"><ele>1087</ele></trkpt>
    <trkpt lat="47.13574" lon="13.11929"><ele>1086</ele></trkpt>
    <trkpt lat="47.13548" lon="13.11943"><ele>1088</ele></trkpt>
    <trkpt lat="47.13537" lon="13.11982"><ele>1095</ele></trkpt>
    <trkpt lat="47.13516" lon="13.12016"><ele>1100</ele></trkpt>
    <trkpt lat="47.13494" lon="13.12035"><ele>1061</ele></trkpt>
    <trkpt lat="47.13468" lon="13.12039"><ele>1104</ele></trkpt>
    <trkpt lat="47.13441" lon="13.12061"><ele>1105</ele></trkpt>
    <trkpt lat="47.13422" lon="13.12088"><ele>1110</ele></trkpt>
    <trkpt lat="47.13401" lon="13.12110"><ele>1111</ele></trkpt>
    <trkpt lat="47.13327" lon="13.12170"><ele>1108</ele></trkpt>
    <trkpt lat="47.13263" lon="13.12260"><ele>1100</ele></trkpt>
    <trkpt lat="47.13225" lon="13.12399"><ele>1087</ele></trkpt>
    <trkpt lat="47.13159" lon="13.12514"><ele>1072</ele></trkpt>
    <trkpt lat="47.13081" lon="13.12608"><ele>1051</ele></trkpt>
    <trkpt lat="47.13024" lon="13.12691"><ele>1037</ele></trkpt>
    <trkpt lat="47.12974" lon="13.12756"><ele>1026</ele></trkpt>
    <trkpt lat="47.12906" lon="13.12826"><ele>1026</ele></trkpt>
    <trkpt lat="47.12825" lon="13.12902"><ele>1028</ele></trkpt>
    <trkpt lat="47.12755" lon="13.12946"><ele>1040</ele></trkpt>
    <trkpt lat="47.12679" lon="13.13004"><ele>1018</ele></trkpt>
    <trkpt lat="47.12610" lon="13.13022"><ele>1015</ele></trkpt>
    <trkpt lat="47.12535" lon="13.13041"><ele>1030</ele></trkpt>
    <trkpt lat="47.12462" lon="13.13033"><ele>1023</ele></trkpt>
    <trkpt lat="47.12386" lon="13.13046"><ele>1023</ele></trkpt>
    <trkpt lat="47.12306" lon="13.13067"><ele>1023</ele></trkpt>
    <trkpt lat="47.12231" lon="13.13108"><ele>1026</ele></trkpt>
    <trkpt lat="47.12141" lon="13.13137"><ele>1016</ele></trkpt>
    <trkpt lat="47.12070" lon="13.13187"><ele>1017</ele></trkpt>
    <trkpt lat="47.12019" lon="13.13263"><ele>1021</ele></trkpt>
    <trkpt lat="47.11971" lon="13.13354"><ele>1030</ele></trkpt>
    <trkpt lat="47.11926" lon="13.13408"><ele>1031</ele></trkpt>
    <trkpt lat="47.11858" lon="13.13393"><ele>1030</ele></trkpt>
    <trkpt lat="47.11815" lon="13.13363"><ele>1035</ele></trkpt>
    <trkpt lat="47.11769" lon="13.13362"><ele>1043</ele></trkpt>
    <trkpt lat="47.11727" lon="13.13388"><ele>1053</ele></trkpt>
    <trkpt lat="47.11688" lon="13.13390"><ele>1060</ele></trkpt>
    <trkpt lat="47.11654" lon="13.13364"><ele>1054</ele></trkpt>
    <trkpt lat="47.11620" lon="13.13344"><ele>1056</ele></trkpt>
    <trkpt lat="47.11588" lon="13.13311"><ele>1061</ele></trkpt>
    <trkpt lat="47.11551" lon="13.13271"><ele>1059</ele></trkpt>
    <trkpt lat="47.11505" lon="13.13240"><ele>1071</ele></trkpt>
    <trkpt lat="47.11462" lon="13.13224"><ele>1066</ele></trkpt>
    <trkpt lat="47.11425" lon="13.13218"><ele>1077</ele></trkpt>
    <trkpt lat="47.11393" lon="13.13224"><ele>1082</ele></trkpt>
    <trkpt lat="47.11353" lon="13.13223"><ele>1087</ele></trkpt>
    <trkpt lat="47.11316" lon="13.13234"><ele>1088</ele></trkpt>
    <trkpt lat="47.11298" lon="13.13184"><ele>1087</ele></trkpt>
    <trkpt lat="47.11281" lon="13.13156"><ele>1086</ele></trkpt>
    <trkpt lat="47.11247" lon="13.13156"><ele>1095</ele></trkpt>
    <trkpt lat="47.11214" lon="13.13163"><ele>1097</ele></trkpt>
    <trkpt lat="47.11160" lon="13.13170"><ele>1099</ele></trkpt>
    <trkpt lat="47.11101" lon="13.13184"><ele>1092</ele></trkpt>
    <trkpt lat="47.11013" lon="13.13201"><ele>1088</ele></trkpt>
    <trkpt lat="47.10943" lon="13.13211"><ele>1085</ele></trkpt>
    <trkpt lat="47.10882" lon="13.13195"><ele>1086</ele></trkpt>
    <trkpt lat="47.10824" lon="13.13115"><ele>1089</ele></trkpt>
    <trkpt lat="47.10747" lon="13.13032"><ele>1093</ele></trkpt>
    <trkpt lat="47.10666" lon="13.12984"><ele>1088</ele></trkpt>
    <trkpt lat="47.10584" lon="13.12954"><ele>1089</ele></trkpt>
    <trkpt lat="47.10515" lon="13.12885"><ele>1090</ele></trkpt>
    <trkpt lat="47.10454" lon="13.12826"><ele>1090</ele></trkpt>
    <trkpt lat="47.10384" lon="13.12753"><ele>1089</ele></trkpt>
    <trkpt lat="47.10316" lon="13.12702"><ele>1092</ele></trkpt>
    <trkpt lat="47.10235" lon="13.12671"><ele>1094</ele></trkpt>
    <trkpt lat="47.10174" lon="13.12688"><ele>1095</ele></trkpt>
    <trkpt lat="47.10164" lon="13.12802"><ele>1096</ele></trkpt>
    <trkpt lat="47.10175" lon="13.12736"><ele>1091</ele></trkpt>
    <trkpt lat="47.10185" lon="13.12738"><ele>1096</ele></trkpt>
    <trkpt lat="47.10191" lon="13.12791"><ele>1098</ele></trkpt>
    <trkpt lat="47.10241" lon="13.12795"><ele>1094</ele></trkpt>
    <trkpt lat="47.10250" lon="13.12773"><ele>1090</ele></trkpt>
  </trkseg>
</trk>
</gpx>