<?xml version="1.0" encoding="UTF-8"?>
<gpx version="1.1" creator="Gpx-Optimizer" xmlns="http://www.topografix.com/GPX/1/1">
<trk>
  <name>Golzentipp</name>
  <type>hike</type>
  <trkseg>
    <trkpt lat="46.71681" lon="12.54799"><ele>1551</ele></trkpt>
    <trkpt lat="46.71720" lon="12.54861"><ele>1529</ele></trkpt>
    <trkpt lat="46.71689" lon="12.54931"><ele>1533</ele></trkpt>
    <trkpt lat="46.71695" lon="12.54958"><ele>1534</ele></trkpt>
    <trkpt lat="46.71716" lon="12.54959"><ele>1531</ele></trkpt>
    <trkpt lat="46.71733" lon="12.54959"><ele>1538</ele></trkpt>
    <trkpt lat="46.71741" lon="12.54983"><ele>1543</ele></trkpt>
    <trkpt lat="46.71741" lon="12.55009"><ele>1544</ele></trkpt>
    <trkpt lat="46.71749" lon="12.55029"><ele>1545</ele></trkpt>
    <trkpt lat="46.71759" lon="12.55048"><ele>1545</ele></trkpt>
    <trkpt lat="46.71758" lon="12.55061"><ele>1548</ele></trkpt>
    <trkpt lat="46.71759" lon="12.55093"><ele>1546</ele></trkpt>
    <trkpt lat="46.71762" lon="12.55117"><ele>1543</ele></trkpt>
    <trkpt lat="46.71766" lon="12.55149"><ele>1550</ele></trkpt>
    <trkpt lat="46.71769" lon="12.55179"><ele>1549</ele></trkpt>
    <trkpt lat="46.71773" lon="12.55207"><ele>1545</ele></trkpt>
    <trkpt lat="46.71771" lon="12.55242"><ele>1558</ele></trkpt>
    <trkpt lat="46.71776" lon="12.55264"><ele>1556</ele></trkpt>
    <trkpt lat="46.71763" lon="12.55319"><ele>1553</ele></trkpt>
    <trkpt lat="46.71755" lon="12.55364"><ele>1551</ele></trkpt>
    <trkpt lat="46.71748" lon="12.55398"><ele>1551</ele></trkpt>
    <trkpt lat="46.71743" lon="12.55425"><ele>1557</ele></trkpt>
    <trkpt lat="46.71734" lon="12.55454"><ele>1551</ele></trkpt>
    <trkpt lat="46.71734" lon="12.55486"><ele>1547</ele></trkpt>
    <trkpt lat="46.71735" lon="12.55504"><ele>1547</ele></trkpt>
    <trkpt lat="46.71735" lon="12.55526"><ele>1554</ele></trkpt>
    <trkpt lat="46.71717" lon="12.55547"><ele>1549</ele></trkpt>
    <trkpt lat="46.71698" lon="12.55568"><ele>1549</ele></trkpt>
    <trkpt lat="46.71691" lon="12.55583"><ele>1550</ele></trkpt>
    <trkpt lat="46.71684" lon="12.55613"><ele>1538</ele></trkpt>
    <trkpt lat="46.71682" lon="12.55636"><ele>1535</ele></trkpt>
    <trkpt lat="46.71678" lon="12.55666"><ele>1529</ele></trkpt>
    <trkpt lat="46.71667" lon="12.55682"><ele>1523</ele></trkpt>
    <trkpt lat="46.71654" lon="12.55708"><ele>1515</ele></trkpt>
    <trkpt lat="46.71646" lon="12.55734"><ele>1523</ele></trkpt>
    <trkpt lat="46.71637" lon="12.55759"><ele>1506</ele></trkpt>
    <trkpt lat="46.71631" lon="12.55786"><ele>1503</ele></trkpt>
    <trkpt lat="46.71632" lon="12.55810"><ele>1508</ele></trkpt>
    <trkpt lat="46.71635" lon="12.55838"><ele>1511</ele></trkpt>
    <trkpt lat="46.71635" lon="12.55865"><ele>1512</ele></trkpt>
    <trkpt lat="46.71639" lon="12.55889"><ele>1513</ele></trkpt>
    <trkpt lat="46.71639" lon="12.55906"><ele>1509</ele></trkpt>
    <trkpt lat="46.71640" lon="12.55932"><ele>1516</ele></trkpt>
    <trkpt lat="46.71642" lon="12.55970"><ele>1521</ele></trkpt>
    <trkpt lat="46.71649" lon="12.55995"><ele>1523</ele></trkpt>
    <trkpt lat="46.71652" lon="12.56020"><ele>1523</ele></trkpt>
    <trkpt lat="46.71653" lon="12.56048"><ele>1521</ele></trkpt>
    <trkpt lat="46.71655" lon="12.56072"><ele>1519</ele></trkpt>
    <trkpt lat="46.71667" lon="12.56099"><ele>1533</ele></trkpt>
    <trkpt lat="46.71680" lon="12.56115"><ele>1533</ele></trkpt>
    <trkpt lat="46.71690" lon="12.56133"><ele>1534</ele></trkpt>
    <trkpt lat="46.71694" lon="12.56159"><ele>1537</ele></trkpt>
    <trkpt lat="46.71686" lon="12.56178"><ele>1537</ele></trkpt>
    <trkpt lat="46.71680" lon="12.56205"><ele>1542</ele></trkpt>
    <trkpt lat="46.71688" lon="12.56230"><ele>1545</ele></trkpt>
    <trkpt lat="46.71699" lon="12.56247"><ele>1550</ele></trkpt>
    <trkpt lat="46.71721" lon="12.56247"><ele>1550</ele></trkpt>
    <trkpt lat="46.71732" lon="12.56247"><ele>1550</ele></trkpt>
    <trkpt lat="46.71749" lon="12.56244"><ele>1553</ele></trkpt>
    <trkpt lat="46.71758" lon="12.56241"><ele>1559</ele></trkpt>
    <trkpt lat="46.71775" lon="12.56248"><ele>1569</ele></trkpt>
    <trkpt lat="46.71788" lon="12.56262"><ele>1568</ele></trkpt>
    <trkpt lat="46.71805" lon="12.56272"><ele>1581</ele></trkpt>
    <trkpt lat="46.71814" lon="12.56283"><ele>1564</ele></trkpt>
    <trkpt lat="46.71821" lon="12.56293"><ele>1529</ele></trkpt>
    <trkpt lat="46.71829" lon="12.56300"><ele>1585</ele></trkpt>
    <trkpt lat="46.71835" lon="12.56313"><ele>1590</ele></trkpt>
    <trkpt lat="46.71849" lon="12.56315"><ele>1592</ele></trkpt>
    <trkpt lat="46.71868" lon="12.56326"><ele>1603</ele></trkpt>
    <trkpt lat="46.71864" lon="12.56348"><ele>1605</ele></trkpt>
    <trkpt lat="46.71858" lon="12.56366"><ele>1609</ele></trkpt>
    <trkpt lat="46.71852" lon="12.56377"><ele>1614</ele></trkpt>
    <trkpt lat="46.71844" lon="12.56398"><ele>1623</ele></trkpt>
    <trkpt lat="46.71837" lon="12.56430"><ele>1630</ele></trkpt>
    <trkpt lat="46.71837" lon="12.56447"><ele>1629</ele></trkpt>
    <trkpt lat="46.71839" lon="12.56466"><ele>1626</ele></trkpt>
    <trkpt lat="46.71840" lon="12.56481"><ele>1629</ele></trkpt>
    <trkpt lat="46.71849" lon="12.56494"><ele>1627</ele></trkpt>
    <trkpt lat="46.71852" lon="12.56512"><ele>1628</ele></trkpt>
    <trkpt lat="46.71851" lon="12.56534"><ele>1634</ele></trkpt>
    <trkpt lat="46.71845" lon="12.56551"><ele>1635</ele></trkpt>
    <trkpt lat="46.71855" lon="12.56517"><ele>1643</ele></trkpt>
    <trkpt lat="46.71855" lon="12.56487"><ele>1647</ele></trkpt>
    <trkpt lat="46.71857" lon="12.56462"><ele>1649</ele></trkpt>
    <trkpt lat="46.71861" lon="12.56478"><ele>1649</ele></trkpt>
    <trkpt lat="46.71864" lon="12.56494"><ele>1650</ele></trkpt>
    <trkpt lat="46.71868" lon="12.56517"><ele>1651</ele></trkpt>
    <trkpt lat="46.71867" lon="12.56544"><ele>1653</ele></trkpt>
    <trkpt lat="46.71866" lon="12.56566"><ele>1656</ele></trkpt>
    <trkpt lat="46.71871" lon="12.56589"><ele>1657</ele></trkpt>
    <trkpt lat="46.71870" lon="12.56611"><ele>1662</ele></trkpt>
    <trkpt lat="46.71867" lon="12.56637"><ele>1666</ele></trkpt>
    <trkpt lat="46.71862" lon="12.56663"><ele>1663</ele></trkpt>
    <trkpt lat="46.71862" lon="12.56679"><ele>1667</ele></trkpt>
    <trkpt lat="46.71866" lon="12.56698"><ele>1669</ele></trkpt>
    <trkpt lat="46.71867" lon="12.56717"><ele>1674</ele></trkpt>
    <trkpt lat="46.71875" lon="12.56738"><ele>1680</ele></trkpt>
    <trkpt lat="46.71884" lon="12.56749"><ele>1677</ele></trkpt>
    <trkpt lat="46.71889" lon="12.56763"><ele>1674</ele></trkpt>
    <trkpt lat="46.71892" lon="12.56787"><ele>1688</ele></trkpt>
    <trkpt lat="46.71899" lon="12.56817"><ele>1690</ele></trkpt>
    <trkpt lat="46.71902" lon="12.56832"><ele>1694</ele></trkpt>
    <trkpt lat="46.71911" lon="12.56853"><ele>1700</ele></trkpt>
    <trkpt lat="46.71914" lon="12.56868"><ele>1700</ele></trkpt>
    <trkpt lat="46.71920" lon="12.56893"><ele>1710</ele></trkpt>
    <trkpt lat="46.71924" lon="12.56907"><ele>1713</ele></trkpt>
    <trkpt lat="46.71932" lon="12.56930"><ele>1714</ele></trkpt>
    <trkpt lat="46.71948" lon="12.56944"><ele>1715</ele></trkpt>
    <trkpt lat="46.71959" lon="12.56962"><ele>1719</ele></trkpt>
    <trkpt lat="46.71971" lon="12.56972"><ele>1725</ele></trkpt>
    <trkpt lat="46.71986" lon="12.56965"><ele>1727</ele></trkpt>
    <trkpt lat="46.72002" lon="12.56953"><ele>1738</ele></trkpt>
    <trkpt lat="46.72013" lon="12.56940"><ele>1736</ele></trkpt>
    <trkpt lat="46.72022" lon="12.56930"><ele>1745</ele></trkpt>
    <trkpt lat="46.72035" lon="12.56915"><ele>1751</ele></trkpt>
    <trkpt lat="46.72053" lon="12.56907"><ele>1762</ele></trkpt>
    <trkpt lat="46.72061" lon="12.56899"><ele>1761</ele></trkpt>
    <trkpt lat="46.72077" lon="12.56906"><ele>1772</ele></trkpt>
    <trkpt lat="46.72085" lon="12.56895"><ele>1768</ele></trkpt>
    <trkpt lat="46.72103" lon="12.56905"><ele>1777</ele></trkpt>
    <trkpt lat="46.72112" lon="12.56911"><ele>1781</ele></trkpt>
    <trkpt lat="46.72131" lon="12.56915"><ele>1790</ele></trkpt>
    <trkpt lat="46.72141" lon="12.56914"><ele>1793</ele></trkpt>
    <trkpt lat="46.72159" lon="12.56903"><ele>1798</ele></trkpt>
    <trkpt lat="46.72177" lon="12.56891"><ele>1759</ele></trkpt>
    <trkpt lat="46.72194" lon="12.56899"><ele>1814</ele></trkpt>
    <trkpt lat="46.72210" lon="12.56895"><ele>1822</ele></trkpt>
    <trkpt lat="46.72222" lon="12.56896"><ele>1822</ele></trkpt>
    <trkpt lat="46.72236" lon="12.56902"><ele>1825</ele></trkpt>
    <trkpt lat="46.72247" lon="12.56904"><ele>1829</ele></trkpt>
    <trkpt lat="46.72263" lon="12.56909"><ele>1836</ele></trkpt>
    <trkpt lat="46.72280" lon="12.56916"><ele>1848</ele></trkpt>
    <trkpt lat="46.72289" lon="12.56910"><ele>1847</ele></trkpt>
    <trkpt lat="46.72297" lon="12.56895"><ele>1848</ele></trkpt>
    <trkpt lat="46.72312" lon="12.56904"><ele>1851</ele></trkpt>
    <trkpt lat="46.72328" lon="12.56914"><ele>1862</ele></trkpt>
    <trkpt lat="46.72338" lon="12.56915"><ele>1864</ele></trkpt>
    <trkpt lat="46.72354" lon="12.56913"><ele>1868</ele></trkpt>
    <trkpt lat="46.72369" lon="12.56907"><ele>1867</ele></trkpt>
    <trkpt lat="46.72381" lon="12.56896"><ele>1873</ele></trkpt>
    <trkpt lat="46.72398" lon="12.56882"><ele>1884</ele></trkpt>
    <trkpt lat="46.72408" lon="12.56872"><ele>1890</ele></trkpt>
    <trkpt lat="46.72421" lon="12.56855"><ele>1886</ele></trkpt>
    <trkpt lat="46.72439" lon="12.56854"><ele>1897</ele></trkpt>
    <trkpt lat="46.72459" lon="12.56861"><ele>1900</ele></trkpt>
    <trkpt lat="46.72470" lon="12.56868"><ele>1901</ele></trkpt>
    <trkpt lat="46.72482" lon="12.56875"><ele>1900</ele></trkpt>
    <trkpt lat="46.72492" lon="12.56871"><ele>1898</ele></trkpt>
    <trkpt lat="46.72504" lon="12.56867"><ele>1908</ele></trkpt>
    <trkpt lat="46.72513" lon="12.56867"><ele>1911</ele></trkpt>
    <trkpt lat="46.72523" lon="12.56868"><ele>1916</ele></trkpt>
    <trkpt lat="46.72536" lon="12.56867"><ele>1919</ele></trkpt>
    <trkpt lat="46.72545" lon="12.56868"><ele>1885</ele></trkpt>
    <trkpt lat="46.72567" lon="12.56884"><ele>1920</ele></trkpt>
    <trkpt lat="46.72581" lon="12.56885"><ele>1922</ele></trkpt>
    <trkpt lat="46.72594" lon="12.56890"><ele>1922</ele></trkpt>
    <trkpt lat="46.72607" lon="12.56896"><ele>1922</ele></trkpt>
    <trkpt lat="46.72626" lon="12.56907"><ele>1926</ele></trkpt>
    <trkpt lat="46.72643" lon="12.56911"><ele>1934</ele></trkpt>
    <trkpt lat="46.72660" lon="12.56922"><ele>1939</ele></trkpt>
    <trkpt lat="46.72672" lon="12.56922"><ele>1769</ele></trkpt>
    <trkpt lat="46.72682" lon="12.56908"><ele>1942</ele></trkpt>
    <trkpt lat="46.72696" lon="12.56904"><ele>1945</ele></trkpt>
    <trkpt lat="46.72707" lon="12.56904"><ele>1949</ele></trkpt>
    <trkpt lat="46.72717" lon="12.56900"><ele>1952</ele></trkpt>
    <trkpt lat="46.72726" lon="12.56908"><ele>1953</ele></trkpt>
    <trkpt lat="46.72743" lon="12.56904"><ele>1960</ele></trkpt>
    <trkpt lat="46.72762" lon="12.56917"><ele>1959</ele></trkpt>
    <trkpt lat="46.72779" lon="12.56921"><ele>1968</ele></trkpt>
    <trkpt lat="46.72788" lon="12.56929"><ele>1972</ele></trkpt>
    <trkpt lat="46.72799" lon="12.56934"><ele>1975</ele></trkpt>
    <trkpt lat="46.72815" lon="12.56937"><ele>1973</ele></trkpt>
    <trkpt lat="46.72825" lon="12.56943"><ele>1975</ele></trkpt>
    <trkpt lat="46.72824" lon="12.56962"><ele>1968</ele></trkpt>
    <trkpt lat="46.72835" lon="12.56987"><ele>1969</ele></trkpt>
    <trkpt lat="46.72849" lon="12.56997"><ele>1987</ele></trkpt>
    <trkpt lat="46.72860" lon="12.57000"><ele>1989</ele></trkpt>
    <trkpt lat="46.72876" lon="12.57005"><ele>1996</ele></trkpt>
    <trkpt lat="46.72893" lon="12.57012"><ele>2006</ele></trkpt>
    <trkpt lat="46.72909" lon="12.57019"><ele>2012</ele></trkpt>
    <trkpt lat="46.72923" lon="12.57036"><ele>2016</ele></trkpt>
    <trkpt lat="46.72932" lon="12.57055"><ele>2020</ele></trkpt>
    <trkpt lat="46.72945" lon="12.57069"><ele>2027</ele></trkpt>
    <trkpt lat="46.72960" lon="12.57081"><ele>2036</ele></trkpt>
    <trkpt lat="46.72980" lon="12.57097"><ele>2041</ele></trkpt>
    <trkpt lat="46.72989" lon="12.57107"><ele>2044</ele></trkpt>
    <trkpt lat="46.72997" lon="12.57116"><ele>2047</ele></trkpt>
    <trkpt lat="46.73009" lon="12.57119"><ele>2047</ele></trkpt>
    <trkpt lat="46.73011" lon="12.57135"><ele>2027</ele></trkpt>
    <trkpt lat="46.73004" lon="12.57153"><ele>2050</ele></trkpt>
    <trkpt lat="46.72996" lon="12.57167"><ele>2053</ele></trkpt>
    <trkpt lat="46.72985" lon="12.57175"><ele>2050</ele></trkpt>
    <trkpt lat="46.72974" lon="12.57183"><ele>2053</ele></trkpt>
    <trkpt lat="46.72961" lon="12.57192"><ele>2058</ele></trkpt>
    <trkpt lat="46.72949" lon="12.57199"><ele>2063</ele></trkpt>
    <trkpt lat="46.72941" lon="12.57222"><ele>2063</ele></trkpt>
    <trkpt lat="46.72930" lon="12.57238"><ele>2059</ele></trkpt>
    <trkpt lat="46.72920" lon="12.57258"><ele>2065</ele></trkpt>
    <trkpt lat="46.72910" lon="12.57280"><ele>2068</ele></trkpt>
    <trkpt lat="46.72898" lon="12.57303"><ele>2048</ele></trkpt>
    <trkpt lat="46.72890" lon="12.57325"><ele>2069</ele></trkpt>
    <trkpt lat="46.72885" lon="12.57338"><ele>2047</ele></trkpt>
    <trkpt lat="46.72863" lon="12.57359"><ele>2071</ele></trkpt>
    <trkpt lat="46.72849" lon="12.57379"><ele>2071</ele></trkpt>
    <trkpt lat="46.72834" lon="12.57392"><ele>2074</ele></trkpt>
    <trkpt lat="46.72822" lon="12.57404"><ele>2076</ele></trkpt>
    <trkpt lat="46.72809" lon="12.57425"><ele>2070</ele></trkpt>
    <trkpt lat="46.72797" lon="12.57445"><ele>2075</ele></trkpt>
    <trkpt lat="46.72791" lon="12.57466"><ele>2075</ele></trkpt>
    <trkpt lat="46.72785" lon="12.57491"><ele>2062</ele></trkpt>
    <trkpt lat="46.72780" lon="12.57529"><ele>2083</ele></trkpt>
    <trkpt lat="46.72767" lon="12.57570"><ele>2081</ele></trkpt>
    <trkpt lat="46.72757" lon="12.57602"><ele>2088</ele></trkpt>
    <trkpt lat="46.72754" lon="12.57639"><ele>2090</ele></trkpt>
    <trkpt lat="46.72764" lon="12.57668"><ele>2086</ele></trkpt>
    <trkpt lat="46.72770" lon="12.57701"><ele>2093</ele></trkpt>
    <trkpt lat="46.72779" lon="12.57724"><ele>2085</ele></trkpt>
    <trkpt lat="46.72793" lon="12.57744"><ele>2084</ele></trkpt>
    <trkpt lat="46.72807" lon="12.57767"><ele>2080</ele></trkpt>
    <trkpt lat="46.72826" lon="12.57783"><ele>2079</ele></trkpt>
    <trkpt lat="46.72843" lon="12.57795"><ele>2070</ele></trkpt>
    <trkpt lat="46.72868" lon="12.57806"><ele>2072</ele></trkpt>
    <trkpt lat="46.72888" lon="12.57825"><ele>2069</ele></trkpt>
    <trkpt lat="46.72901" lon="12.57853"><ele>2068</ele></trkpt>
    <trkpt lat="46.72905" lon="12.57875"><ele>2071</ele></trkpt>
    <trkpt lat="46.72926" lon="12.57854"><ele>2071</ele></trkpt>
    <trkpt lat="46.72944" lon="12.57832"><ele>2072</ele></trkpt>
    <trkpt lat="46.72961" lon="12.57854"><ele>2076</ele></trkpt>
    <trkpt lat="46.72976" lon="12.57875"><ele>2078</ele></trkpt>
    <trkpt lat="46.72995" lon="12.57904"><ele>2077</ele></trkpt>
    <trkpt lat="46.73013" lon="12.57918"><ele>2057</ele></trkpt>
    <trkpt lat="46.73028" lon="12.57980"><ele>2075</ele></trkpt>
    <trkpt lat="46.73036" lon="12.58011"><ele>2073</ele></trkpt>
    <trkpt lat="46.73045" lon="12.58041"><ele>2070</ele></trkpt>
    <trkpt lat="46.73058" lon="12.58062"><ele>2077</ele></trkpt>
    <trkpt lat="46.73070" lon="12.58090"><ele>2074</ele></trkpt>
    <trkpt lat="46.73079" lon="12.58116"><ele>2075</ele></trkpt>
    <trkpt lat="46.73095" lon="12.58132"><ele>2082</ele></trkpt>
    <trkpt lat="46.73102" lon="12.58161"><ele>2080</ele></trkpt>
    <trkpt lat="46.73107" lon="12.58184"><ele>2080</ele></trkpt>
    <trkpt lat="46.73117" lon="12.58221"><ele>2087</ele></trkpt>
    <trkpt lat="46.73120" lon="12.58250"><ele>2083</ele></trkpt>
    <trkpt lat="46.73125" lon="12.58271"><ele>2089</ele></trkpt>
    <trkpt lat="46.73126" lon="12.58291"><ele>2083</ele></trkpt>
    <trkpt lat="46.73134" lon="12.58304"><ele>2091</ele></trkpt>
    <trkpt lat="46.73137" lon="12.58320"><ele>2076</ele></trkpt>
    <trkpt lat="46.73141" lon="12.58339"><ele>2098</ele></trkpt>
    <trkpt lat="46.73137" lon="12.58360"><ele>2099</ele></trkpt>
    <trkpt lat="46.73150" lon="12.58379"><ele>2103</ele></trkpt>
    <trkpt lat="46.73170" lon="12.58398"><ele>2106</ele></trkpt>
    <trkpt lat="46.73186" lon="12.58406"><ele>2109</ele></trkpt>
    <trkpt lat="46.73206" lon="12.58411"><ele>2115</ele></trkpt>
    <trkpt lat="46.73225" lon="12.58415"><ele>2115</ele></trkpt>
    <trkpt lat="46.73233" lon="12.58404"><ele>2112</ele></trkpt>
    <trkpt lat="46.73253" lon="12.58396"><ele>2116</ele></trkpt>
    <trkpt lat="46.73270" lon="12.58384"><ele>2117</ele></trkpt>
    <trkpt lat="46.73286" lon="12.58384"><ele>2116</ele></trkpt>
    <trkpt lat="46.73372" lon="12.58463"><ele>2094</ele></trkpt>
    <trkpt lat="46.73388" lon="12.58479"><ele>2113</ele></trkpt>
    <trkpt lat="46.73405" lon="12.58487"><ele>2062</ele></trkpt>
    <trkpt lat="46.73422" lon="12.58495"><ele>2101</ele></trkpt>
    <trkpt lat="46.73439" lon="12.58499"><ele>2118</ele></trkpt>
    <trkpt lat="46.73454" lon="12.58512"><ele>2091</ele></trkpt>
    <trkpt lat="46.73471" lon="12.58521"><ele>2115</ele></trkpt>
    <trkpt lat="46.73508" lon="12.58524"><ele>2100</ele></trkpt>
    <trkpt lat="46.73525" lon="12.58521"><ele>2116</ele></trkpt>
    <trkpt lat="46.73541" lon="12.58514"><ele>2119</ele></trkpt>
    <trkpt lat="46.73554" lon="12.58514"><ele>2125</ele></trkpt>
    <trkpt lat="46.73570" lon="12.58507"><ele>2123</ele></trkpt>
    <trkpt lat="46.73588" lon="12.58508"><ele>2126</ele></trkpt>
    <trkpt lat="46.73605" lon="12.58507"><ele>2126</ele></trkpt>
    <trkpt lat="46.73620" lon="12.58506"><ele>2133</ele></trkpt>
    <trkpt lat="46.73646" lon="12.58503"><ele>2127</ele></trkpt>
    <trkpt lat="46.73675" lon="12.58488"><ele>2127</ele></trkpt>
    <trkpt lat="46.73694" lon="12.58483"><ele>2128</ele></trkpt>
    <trkpt lat="46.73716" lon="12.58483"><ele>2124</ele></trkpt>
    <trkpt lat="46.73739" lon="12.58478"><ele>2121</ele></trkpt>
    <trkpt lat="46.73758" lon="12.58464"><ele>2116</ele></trkpt>
    <trkpt lat="46.73781" lon="12.58461"><ele>2115</ele></trkpt>
    <trkpt lat="46.73796" lon="12.58460"><ele>2120</ele></trkpt>
    <trkpt lat="46.73808" lon="12.58457"><ele>2097</ele></trkpt>
    <trkpt lat="46.73824" lon="12.58460"><ele>2134</ele></trkpt>
    <trkpt lat="46.73842" lon="12.58476"><ele>2136</ele></trkpt>
    <trkpt lat="46.73852" lon="12.58486"><ele>2140</ele></trkpt>
    <trkpt lat="46.73867" lon="12.58499"><ele>2142</ele></trkpt>
    <trkpt lat="46.73881" lon="12.58510"><ele>2144</ele></trkpt>
    <trkpt lat="46.73896" lon="12.58513"><ele>2144</ele></trkpt>
    <trkpt lat="46.73912" lon="12.58520"><ele>2146</ele></trkpt>
    <trkpt lat="46.73921" lon="12.58521"><ele>2150</ele></trkpt>
    <trkpt lat="46.73935" lon="12.58510"><ele>2151</ele></trkpt>
    <trkpt lat="46.73931" lon="12.58488"><ele>2165</ele></trkpt>
    <trkpt lat="46.73920" lon="12.58478"><ele>2163</ele></trkpt>
    <trkpt lat="46.73934" lon="12.58489"><ele>2177</ele></trkpt>
    <trkpt lat="46.73948" lon="12.58489"><ele>2193</ele></trkpt>
    <trkpt lat="46.73963" lon="12.58500"><ele>2212</ele></trkpt>
    <trkpt lat="46.73975" lon="12.58515"><ele>2224</ele></trkpt>
    <trkpt lat="46.73974" lon="12.58492"><ele>2249</ele></trkpt>
    <trkpt lat="46.73968" lon="12.58470"><ele>2264</ele></trkpt>
    <trkpt lat="46.73968" lon="12.58446"><ele>2275</ele></trkpt>
    <trkpt lat="46.73966" lon="12.58432"><ele>2279</ele></trkpt>
    <trkpt lat="46.73965" lon="12.58413"><ele>2280</ele></trkpt>
    <trkpt lat="46.73967" lon="12.58392"><ele>2280</ele></trkpt>
    <trkpt lat="46.73971" lon="12.58378"><ele>2282</ele></trkpt>
    <trkpt lat="46.73994" lon="12.58358"><ele>2276</ele></trkpt>
    <trkpt lat="46.74001" lon="12.58340"><ele>2279</ele></trkpt>
    <trkpt lat="46.74007" lon="12.58318"><ele>2278</ele></trkpt>
    <trkpt lat="46.74025" lon="12.58297"><ele>2272</ele></trkpt>
    <trkpt lat="46.74038" lon="12.58282"><ele>2260</ele></trkpt>
    <trkpt lat="46.74055" lon="12.58285"><ele>2265</ele></trkpt>
    <trkpt lat="46.74074" lon="12.58276"><ele>2277</ele></trkpt>
    <trkpt lat="46.74088" lon="12.58246"><ele>2268</ele></trkpt>
    <trkpt lat="46.74094" lon="12.58225"><ele>2272</ele></trkpt>
    <trkpt lat="46.74109" lon="12.58207"><ele>2262</ele></trkpt>
    <trkpt lat="46.74117" lon="12.58189"><ele>2269</ele></trkpt>
    <trkpt lat="46.74116" lon="12.58172"><ele>2255</ele></trkpt>
    <trkpt lat="46.74133" lon="12.58166"><ele>2240</ele></trkpt>
    <trkpt lat="46.74149" lon="12.58171"><ele>2262</ele></trkpt>
    <trkpt lat="46.74159" lon="12.58186"><ele>2269</ele></trkpt>
    <trkpt lat="46.74151" lon="12.58170"><ele>2268</ele></trkpt>
    <trkpt lat="46.74135" lon="12.58172"><ele>2247</ele></trkpt>
    <trkpt lat="46.74126" lon="12.58179"><ele>2253</ele></trkpt>
    <trkpt lat="46.74114" lon="12.58186"><ele>2261</ele></trkpt>
    <trkpt lat="46.74111" lon="12.58210"><ele>2274</ele></trkpt>
    <trkpt lat="46.74095" lon="12.58226"><ele>2236</ele></trkpt>
    <trkpt lat="46.74090" lon="12.58248"><ele>2277</ele></trkpt>
    <trkpt lat="46.74081" lon="12.58267"><ele>2250</ele></trkpt>
    <trkpt lat="46.74068" lon="12.58283"><ele>2259</ele></trkpt>
    <trkpt lat="46.74055" lon="12.58288"><ele>2231</ele></trkpt>
    <trkpt lat="46.74039" lon="12.58282"><ele>2259</ele></trkpt>
    <trkpt lat="46.74030" lon="12.58294"><ele>2274</ele></trkpt>
    <trkpt lat="46.74014" lon="12.58312"><ele>2234</ele></trkpt>
    <trkpt lat="46.74001" lon="12.58331"><ele>2283</ele></trkpt>
    <trkpt lat="46.73999" lon="12.58349"><ele>2277</ele></trkpt>
    <trkpt lat="46.73987" lon="12.58368"><ele>2278</ele></trkpt>
    <trkpt lat="46.73975" lon="12.58376"><ele>2281</ele></trkpt>
    <trkpt lat="46.73971" lon="12.58389"><ele>2281</ele></trkpt>
    <trkpt lat="46.73967" lon="12.58412"><ele>2282</ele></trkpt>
    <trkpt lat="46.73969" lon="12.58432"><ele>2280</ele></trkpt>
    <trkpt lat="46.73969" lon="12.58445"><ele>2276</ele></trkpt>
    <trkpt lat="46.73970" lon="12.58468"><ele>2264</ele></trkpt>
    <trkpt lat="46.73975" lon="12.58491"><ele>2252</ele></trkpt>
    <trkpt lat="46.73966" lon="12.58508"><ele>2228</ele></trkpt>
    <trkpt lat="46.73952" lon="12.58498"><ele>2211</ele></trkpt>
    <trkpt lat="46.73939" lon="12.58483"><ele>2194</ele></trkpt>
    <trkpt lat="46.73938" lon="12.58508"><ele>2168</ele></trkpt>
    <trkpt lat="46.73926" lon="12.58515"><ele>2161</ele></trkpt>
    <trkpt lat="46.73929" lon="12.58536"><ele>2164</ele></trkpt>
    <trkpt lat="46.73904" lon="12.58525"><ele>2152</ele></trkpt>
    <trkpt lat="46.73880" lon="12.58511"><ele>2143</ele></trkpt>
    <trkpt lat="46.73858" lon="12.58494"><ele>2143</ele></trkpt>
    <trkpt lat="46.73844" lon="12.58481"><ele>2141</ele></trkpt>
    <trkpt lat="46.73829" lon="12.58470"><ele>2135</ele></trkpt>
    <trkpt lat="46.73811" lon="12.58459"><ele>2129</ele></trkpt>
    <trkpt lat="46.73797" lon="12.58463"><ele>2123</ele></trkpt>
    <trkpt lat="46.73773" lon="12.58463"><ele>2117</ele></trkpt>
    <trkpt lat="46.73750" lon="12.58471"><ele>2119</ele></trkpt>
    <trkpt lat="46.73729" lon="12.58481"><ele>2123</ele></trkpt>
    <trkpt lat="46.73709" lon="12.58481"><ele>2129</ele></trkpt>
    <trkpt lat="46.73693" lon="12.58484"><ele>2132</ele></trkpt>
    <trkpt lat="46.73673" lon="12.58489"><ele>2131</ele></trkpt>
    <trkpt lat="46.73654" lon="12.58499"><ele>2128</ele></trkpt>
    <trkpt lat="46.73632" lon="12.58508"><ele>2108</ele></trkpt>
    <trkpt lat="46.73615" lon="12.58523"><ele>2137</ele></trkpt>
    <trkpt lat="46.73601" lon="12.58537"><ele>2131</ele></trkpt>
    <trkpt lat="46.73589" lon="12.58548"><ele>2145</ele></trkpt>
    <trkpt lat="46.73576" lon="12.58567"><ele>2148</ele></trkpt>
    <trkpt lat="46.73565" lon="12.58582"><ele>2151</ele></trkpt>
    <trkpt lat="46.73551" lon="12.58593"><ele>2149</ele></trkpt>
    <trkpt lat="46.73534" lon="12.58612"><ele>2154</ele></trkpt>
    <trkpt lat="46.73515" lon="12.58625"><ele>2147</ele></trkpt>
    <trkpt lat="46.73496" lon="12.58633"><ele>2154</ele></trkpt>
    <trkpt lat="46.73477" lon="12.58638"><ele>2150</ele></trkpt>
    <trkpt lat="46.73461" lon="12.58637"><ele>2161</ele></trkpt>
    <trkpt lat="46.73444" lon="12.58636"><ele>2163</ele></trkpt>
    <trkpt lat="46.73431" lon="12.58628"><ele>2165</ele></trkpt>
    <trkpt lat="46.73413" lon="12.58625"><ele>2172</ele></trkpt>
    <trkpt lat="46.73394" lon="12.58629"><ele>2164</ele></trkpt>
    <trkpt lat="46.73374" lon="12.58631"><ele>2172</ele></trkpt>
    <trkpt lat="46.73359" lon="12.58621"><ele>2161</ele></trkpt>
    <trkpt lat="46.73345" lon="12.58613"><ele>2177</ele></trkpt>
    <trkpt lat="46.73322" lon="12.58606"><ele>2185</ele></trkpt>
    <trkpt lat="46.73307" lon="12.58601"><ele>2191</ele></trkpt>
    <trkpt lat="46.73293" lon="12.58598"><ele>2188</ele></trkpt>
    <trkpt lat="46.73282" lon="12.58594"><ele>2191</ele></trkpt>
    <trkpt lat="46.73266" lon="12.58599"><ele>2207</ele></trkpt>
    <trkpt lat="46.73258" lon="12.58608"><ele>2202</ele></trkpt>
    <trkpt lat="46.73241" lon="12.58607"><ele>2218</ele></trkpt>
    <trkpt lat="46.73228" lon="12.58614"><ele>2222</ele></trkpt>
    <trkpt lat="46.73217" lon="12.58622"><ele>2223</ele></trkpt>
    <trkpt lat="46.73205" lon="12.58631"><ele>2214</ele></trkpt>
    <trkpt lat="46.73191" lon="12.58642"><ele>2119</ele></trkpt>
    <trkpt lat="46.73174" lon="12.58651"><ele>2231</ele></trkpt>
    <trkpt lat="46.73159" lon="12.58663"><ele>2233</ele></trkpt>
    <trkpt lat="46.73141" lon="12.58678"><ele>2234</ele></trkpt>
    <trkpt lat="46.73123" lon="12.58702"><ele>2225</ele></trkpt>
    <trkpt lat="46.73107" lon="12.58725"><ele>2235</ele></trkpt>
    <trkpt lat="46.73090" lon="12.58751"><ele>2232</ele></trkpt>
    <trkpt lat="46.73077" lon="12.58781"><ele>2231</ele></trkpt>
    <trkpt lat="46.73066" lon="12.58801"><ele>2232</ele></trkpt>
    <trkpt lat="46.73049" lon="12.58826"><ele>2231</ele></trkpt>
    <trkpt lat="46.73030" lon="12.58846"><ele>2229</ele></trkpt>
    <trkpt lat="46.73020" lon="12.58872"><ele>2231</ele></trkpt>
    <trkpt lat="46.73013" lon="12.58899"><ele>2231</ele></trkpt>
    <trkpt lat="46.73005" lon="12.58920"><ele>2234</ele></trkpt>
    <trkpt lat="46.72995" lon="12.58936"><ele>2238</ele></trkpt>
    <trkpt lat="46.72983" lon="12.58950"><ele>2241</ele></trkpt>
    <trkpt lat="46.72978" lon="12.58971"><ele>2244</ele></trkpt>
    <trkpt lat="46.72978" lon="12.58990"><ele>2247</ele></trkpt>
    <trkpt lat="46.72970" lon="12.59017"><ele>2232</ele></trkpt>
    <trkpt lat="46.72962" lon="12.59037"><ele>2248</ele></trkpt>
    <trkpt lat="46.72957" lon="12.59058"><ele>2251</ele></trkpt>
    <trkpt lat="46.72952" lon="12.59084"><ele>2253</ele></trkpt>
    <trkpt lat="46.72951" lon="12.59107"><ele>2253</ele></trkpt>
    <trkpt lat="46.72941" lon="12.59129"><ele>2259</ele></trkpt>
    <trkpt lat="46.72938" lon="12.59162"><ele>2257</ele></trkpt>
    <trkpt lat="46.72935" lon="12.59195"><ele>2256</ele></trkpt>
    <trkpt lat="46.72931" lon="12.59221"><ele>2254</ele></trkpt>
    <trkpt lat="46.72927" lon="12.59246"><ele>2250</ele></trkpt>
    <trkpt lat="46.72938" lon="12.59263"><ele>2245</ele></trkpt>
    <trkpt lat="46.72946" lon="12.59278"><ele>2241</ele></trkpt>
    <trkpt lat="46.72940" lon="12.59295"><ele>2235</ele></trkpt>
    <trkpt lat="46.72938" lon="12.59315"><ele>2232</ele></trkpt>
    <trkpt lat="46.72935" lon="12.59335"><ele>2226</ele></trkpt>
    <trkpt lat="46.72947" lon="12.59350"><ele>2215</ele></trkpt>
    <trkpt lat="46.72955" lon="12.59366"><ele>2208</ele></trkpt>
    <trkpt lat="46.72969" lon="12.59374"><ele>2200</ele></trkpt>
    <trkpt lat="46.72957" lon="12.59398"><ele>2195</ele></trkpt>
    <trkpt lat="46.72962" lon="12.59438"><ele>2190</ele></trkpt>
    <trkpt lat="46.72973" lon="12.59469"><ele>2172</ele></trkpt>
    <trkpt lat="46.72980" lon="12.59496"><ele>2188</ele></trkpt>
    <trkpt lat="46.72978" lon="12.59514"><ele>2195</ele></trkpt>
    <trkpt lat="46.72977" lon="12.59528"><ele>2195</ele></trkpt>
    <trkpt lat="46.72963" lon="12.59551"><ele>2202</ele></trkpt>
    <trkpt lat="46.72954" lon="12.59561"><ele>2201</ele></trkpt>
    <trkpt lat="46.72947" lon="12.59574"><ele>2207</ele></trkpt>
    <trkpt lat="46.72955" lon="12.59585"><ele>2211</ele></trkpt>
    <trkpt lat="46.72972" lon="12.59592"><ele>2216</ele></trkpt>
    <trkpt lat="46.72985" lon="12.59594"><ele>2220</ele></trkpt>
    <trkpt lat="46.72985" lon="12.59614"><ele>2223</ele></trkpt>
    <trkpt lat="46.72986" lon="12.59630"><ele>2231</ele></trkpt>
    <trkpt lat="46.72992" lon="12.59641"><ele>2235</ele></trkpt>
    <trkpt lat="46.73000" lon="12.59649"><ele>2239</ele></trkpt>
    <trkpt lat="46.73014" lon="12.59663"><ele>2247</ele></trkpt>
    <trkpt lat="46.73023" lon="12.59666"><ele>2249</ele></trkpt>
    <trkpt lat="46.73042" lon="12.59672"><ele>2258</ele></trkpt>
    <trkpt lat="46.73050" lon="12.59678"><ele>2262</ele></trkpt>
    <trkpt lat="46.73063" lon="12.59683"><ele>2264</ele></trkpt>
    <trkpt lat="46.73073" lon="12.59689"><ele>2269</ele></trkpt>
    <trkpt lat="46.73085" lon="12.59692"><ele>2270</ele></trkpt>
    <trkpt lat="46.73096" lon="12.59690"><ele>2272</ele></trkpt>
    <trkpt lat="46.73105" lon="12.59695"><ele>2275</ele></trkpt>
    <trkpt lat="46.73119" lon="12.59701"><ele>2278</ele></trkpt>
    <trkpt lat="46.73135" lon="12.59710"><ele>2276</ele></trkpt>
    <trkpt lat="46.73150" lon="12.59727"><ele>2272</ele></trkpt>
    <trkpt lat="46.73164" lon="12.59746"><ele>2275</ele></trkpt>
    <trkpt lat="46.73182" lon="12.59754"><ele>2273</ele></trkpt>
    <trkpt lat="46.73197" lon="12.59772"><ele>2267</ele></trkpt>
    <trkpt lat="46.73207" lon="12.59792"><ele>2263</ele></trkpt>
    <trkpt lat="46.73211" lon="12.59812"><ele>2260</ele></trkpt>
    <trkpt lat="46.73222" lon="12.59842"><ele>2255</ele></trkpt>
    <trkpt lat="46.73226" lon="12.59875"><ele>2255</ele></trkpt>
    <trkpt lat="46.73235" lon="12.59905"><ele>2251</ele></trkpt>
    <trkpt lat="46.73244" lon="12.59933"><ele>2249</ele></trkpt>
    <trkpt lat="46.73261" lon="12.59946"><ele>2247</ele></trkpt>
    <trkpt lat="46.73280" lon="12.59961"><ele>2245</ele></trkpt>
    <trkpt lat="46.73296" lon="12.59976"><ele>2244</ele></trkpt>
    <trkpt lat="46.73304" lon="12.60004"><ele>2243</ele></trkpt>
    <trkpt lat="46.73305" lon="12.60032"><ele>2239</ele></trkpt>
    <trkpt lat="46.73307" lon="12.60052"><ele>2244</ele></trkpt>
    <trkpt lat="46.73316" lon="12.60069"><ele>2251</ele></trkpt>
    <trkpt lat="46.73320" lon="12.60085"><ele>2257</ele></trkpt>
    <trkpt lat="46.73320" lon="12.60103"><ele>2249</ele></trkpt>
    <trkpt lat="46.73322" lon="12.60123"><ele>2259</ele></trkpt>
    <trkpt lat="46.73324" lon="12.60143"><ele>2261</ele></trkpt>
    <trkpt lat="46.73325" lon="12.60163"><ele>2268</ele></trkpt>
    <trkpt lat="46.73332" lon="12.60185"><ele>2268</ele></trkpt>
    <trkpt lat="46.73336" lon="12.60205"><ele>2265</ele></trkpt>
    <trkpt lat="46.73337" lon="12.60220"><ele>2268</ele></trkpt>
    <trkpt lat="46.73336" lon="12.60238"><ele>2274</ele></trkpt>
    <trkpt lat="46.73346" lon="12.60245"><ele>2192</ele></trkpt>
    <trkpt lat="46.73353" lon="12.60267"><ele>2236</ele></trkpt>
    <trkpt lat="46.73360" lon="12.60279"><ele>2285</ele></trkpt>
    <trkpt lat="46.73369" lon="12.60297"><ele>2212</ele></trkpt>
    <trkpt lat="46.73382" lon="12.60306"><ele>2305</ele></trkpt>
    <trkpt lat="46.73389" lon="12.60317"><ele>2311</ele></trkpt>
    <trkpt lat="46.73395" lon="12.60330"><ele>2313</ele></trkpt>
    <trkpt lat="46.73407" lon="12.60337"><ele>2316</ele></trkpt>
    <trkpt lat="46.73423" lon="12.60352"><ele>2321</ele></trkpt>
    <trkpt lat="46.73429" lon="12.60365"><ele>2324</ele></trkpt>
    <trkpt lat="46.73419" lon="12.60385"><ele>2322</ele></trkpt>
    <trkpt lat="46.73406" lon="12.60399"><ele>2317</ele></trkpt>
    <trkpt lat="46.73395" lon="12.60406"><ele>2315</ele></trkpt>
    <trkpt lat="46.73381" lon="12.60410"><ele>2301</ele></trkpt>
    <trkpt lat="46.73366" lon="12.60425"><ele>2302</ele></trkpt>
    <trkpt lat="46.73353" lon="12.60439"><ele>2300</ele></trkpt>
    <trkpt lat="46.73339" lon="12.60452"><ele>2295</ele></trkpt>
    <trkpt lat="46.73327" lon="12.60465"><ele>2294</ele></trkpt>
    <trkpt lat="46.73312" lon="12.60476"><ele>2286</ele></trkpt>
    <trkpt lat="46.73295" lon="12.60493"><ele>2282</ele></trkpt>
    <trkpt lat="46.73280" lon="12.60504"><ele>2275</ele></trkpt>
    <trkpt lat="46.73265" lon="12.60525"><ele>2192</ele></trkpt>
    <trkpt lat="46.73249" lon="12.60542"><ele>2251</ele></trkpt>
    <trkpt lat="46.73235" lon="12.60566"><ele>2266</ele></trkpt>
    <trkpt lat="46.73224" lon="12.60592"><ele>2272</ele></trkpt>
    <trkpt lat="46.73214" lon="12.60615"><ele>2269</ele></trkpt>
    <trkpt lat="46.73208" lon="12.60638"><ele>2257</ele></trkpt>
    <trkpt lat="46.73206" lon="12.60657"><ele>2262</ele></trkpt>
    <trkpt lat="46.73199" lon="12.60675"><ele>2258</ele></trkpt>
    <trkpt lat="46.73198" lon="12.60696"><ele>2257</ele></trkpt>
    <trkpt lat="46.73205" lon="12.60712"><ele>2252</ele></trkpt>
    <trkpt lat="46.73199" lon="12.60735"><ele>2247</ele></trkpt>
    <trkpt lat="46.73202" lon="12.60763"><ele>2246</ele></trkpt>
    <trkpt lat="46.73205" lon="12.60780"><ele>2243</ele></trkpt>
    <trkpt lat="46.73206" lon="12.60802"><ele>2239</ele></trkpt>
    <trkpt lat="46.73206" lon="12.60826"><ele>2235</ele></trkpt>
    <trkpt lat="46.73206" lon="12.60850"><ele>2231</ele></trkpt>
    <trkpt lat="46.73209" lon="12.60880"><ele>2229</ele></trkpt>
    <trkpt lat="46.73209" lon="12.60914"><ele>2228</ele></trkpt>
    <trkpt lat="46.73208" lon="12.60946"><ele>2223</ele></trkpt>
    <trkpt lat="46.73207" lon="12.60974"><ele>2222</ele></trkpt>
    <trkpt lat="46.73214" lon="12.61005"><ele>2220</ele></trkpt>
    <trkpt lat="46.73222" lon="12.61036"><ele>2179</ele></trkpt>
    <trkpt lat="46.73224" lon="12.61053"><ele>2220</ele></trkpt>
    <trkpt lat="46.73214" lon="12.61070"><ele>2224</ele></trkpt>
    <trkpt lat="46.73195" lon="12.61091"><ele>2225</ele></trkpt>
    <trkpt lat="46.73184" lon="12.61120"><ele>2225</ele></trkpt>
    <trkpt lat="46.73179" lon="12.61154"><ele>2226</ele></trkpt>
    <trkpt lat="46.73184" lon="12.61186"><ele>2213</ele></trkpt>
    <trkpt lat="46.73199" lon="12.61214"><ele>2219</ele></trkpt>
    <trkpt lat="46.73212" lon="12.61243"><ele>2219</ele></trkpt>
    <trkpt lat="46.73217" lon="12.61275"><ele>2219</ele></trkpt>
    <trkpt lat="46.73218" lon="12.61309"><ele>2218</ele></trkpt>
    <trkpt lat="46.73217" lon="12.61332"><ele>2175</ele></trkpt>
    <trkpt lat="46.73216" lon="12.61355"><ele>2214</ele></trkpt>
    <trkpt lat="46.73197" lon="12.61377"><ele>2214</ele></trkpt>
    <trkpt lat="46.73182" lon="12.61398"><ele>2214</ele></trkpt>
    <trkpt lat="46.73162" lon="12.61429"><ele>2215</ele></trkpt>
    <trkpt lat="46.73151" lon="12.61459"><ele>2213</ele></trkpt>
    <trkpt lat="46.73143" lon="12.61491"><ele>2213</ele></trkpt>
    <trkpt lat="46.73135" lon="12.61523"><ele>2213</ele></trkpt>
    <trkpt lat="46.73129" lon="12.61555"><ele>2206</ele></trkpt>
    <trkpt lat="46.73116" lon="12.61581"><ele>2211</ele></trkpt>
    <trkpt lat="46.73106" lon="12.61607"><ele>2212</ele></trkpt>
    <trkpt lat="46.73099" lon="12.61638"><ele>2206</ele></trkpt>
    <trkpt lat="46.73097" lon="12.61668"><ele>2209</ele></trkpt>
    <trkpt lat="46.73085" lon="12.61696"><ele>2211</ele></trkpt>
    <trkpt lat="46.73073" lon="12.61713"><ele>2213</ele></trkpt>
    <trkpt lat="46.73057" lon="12.61726"><ele>2214</ele></trkpt>
    <trkpt lat="46.73043" lon="12.61741"><ele>2217</ele></trkpt>
    <trkpt lat="46.73024" lon="12.61751"><ele>2220</ele></trkpt>
    <trkpt lat="46.73000" lon="12.61752"><ele>2221</ele></trkpt>
    <trkpt lat="46.72979" lon="12.61758"><ele>2220</ele></trkpt>
    <trkpt lat="46.72956" lon="12.61761"><ele>2219</ele></trkpt>
    <trkpt lat="46.72933" lon="12.61770"><ele>2169</ele></trkpt>
    <trkpt lat="46.72915" lon="12.61783"><ele>2197</ele></trkpt>
    <trkpt lat="46.72896" lon="12.61793"><ele>2211</ele></trkpt>
    <trkpt lat="46.72880" lon="12.61797"><ele>2210</ele></trkpt>
    <trkpt lat="46.72884" lon="12.61772"><ele>2207</ele></trkpt>
    <trkpt lat="46.72874" lon="12.61774"><ele>2203</ele></trkpt>
    <trkpt lat="46.72857" lon="12.61766"><ele>2180</ele></trkpt>
    <trkpt lat="46.72859" lon="12.61742"><ele>2190</ele></trkpt>
    <trkpt lat="46.72843" lon="12.61736"><ele>2193</ele></trkpt>
    <trkpt lat="46.72812" lon="12.61759"><ele>2170</ele></trkpt>
    <trkpt lat="46.72797" lon="12.61783"><ele>2170</ele></trkpt>
    <trkpt lat="46.72791" lon="12.61813"><ele>2183</ele></trkpt>
    <trkpt lat="46.72788" lon="12.61842"><ele>2183</ele></trkpt>
    <trkpt lat="46.72792" lon="12.61870"><ele>2178</ele></trkpt>
    <trkpt lat="46.72813" lon="12.61868"><ele>2177</ele></trkpt>
    <trkpt lat="46.72817" lon="12.61886"><ele>2174</ele></trkpt>
    <trkpt lat="46.72824" lon="12.61897"><ele>2170</ele></trkpt>
    <trkpt lat="46.72841" lon="12.61906"><ele>2163</ele></trkpt>
    <trkpt lat="46.72844" lon="12.61920"><ele>2160</ele></trkpt>
    <trkpt lat="46.72830" lon="12.61938"><ele>2162</ele></trkpt>
    <trkpt lat="46.72813" lon="12.61942"><ele>2159</ele></trkpt>
    <trkpt lat="46.72796" lon="12.61945"><ele>2155</ele></trkpt>
    <trkpt lat="46.72779" lon="12.61949"><ele>2149</ele></trkpt>
    <trkpt lat="46.72759" lon="12.61949"><ele>2148</ele></trkpt>
    <trkpt lat="46.72742" lon="12.61955"><ele>2147</ele></trkpt>
    <trkpt lat="46.72725" lon="12.61959"><ele>2144</ele></trkpt>
    <trkpt lat="46.72712" lon="12.61959"><ele>2141</ele></trkpt>
    <trkpt lat="46.72679" lon="12.61987"><ele>2131</ele></trkpt>
    <trkpt lat="46.72663" lon="12.62005"><ele>2131</ele></trkpt>
    <trkpt lat="46.72651" lon="12.62025"><ele>2126</ele></trkpt>
    <trkpt lat="46.72641" lon="12.62049"><ele>2123</ele></trkpt>
    <trkpt lat="46.72619" lon="12.62061"><ele>2117</ele></trkpt>
    <trkpt lat="46.72603" lon="12.62084"><ele>2105</ele></trkpt>
    <trkpt lat="46.72569" lon="12.62124"><ele>2115</ele></trkpt>
    <trkpt lat="46.72559" lon="12.62149"><ele>2115</ele></trkpt>
    <trkpt lat="46.72547" lon="12.62168"><ele>2050</ele></trkpt>
    <trkpt lat="46.72536" lon="12.62191"><ele>2109</ele></trkpt>
    <trkpt lat="46.72525" lon="12.62213"><ele>2101</ele></trkpt>
    <trkpt lat="46.72511" lon="12.62234"><ele>2107</ele></trkpt>
    <trkpt lat="46.72502" lon="12.62261"><ele>2090</ele></trkpt>
    <trkpt lat="46.72496" lon="12.62294"><ele>2093</ele></trkpt>
    <trkpt lat="46.72494" lon="12.62317"><ele>2096</ele></trkpt>
    <trkpt lat="46.72484" lon="12.62339"><ele>2094</ele></trkpt>
    <trkpt lat="46.72473" lon="12.62357"><ele>2073</ele></trkpt>
    <trkpt lat="46.72459" lon="12.62370"><ele>2092</ele></trkpt>
    <trkpt lat="46.72443" lon="12.62372"><ele>2092</ele></trkpt>
    <trkpt lat="46.72431" lon="12.62362"><ele>2092</ele></trkpt>
    <trkpt lat="46.72416" lon="12.62350"><ele>2090</ele></trkpt>
    <trkpt lat="46.72402" lon="12.62348"><ele>2091</ele></trkpt>
    <trkpt lat="46.72388" lon="12.62350"><ele>2090</ele></trkpt>
    <trkpt lat="46.72334" lon="12.62328"><ele>2085</ele></trkpt>
    <trkpt lat="46.72284" lon="12.62310"><ele>2081</ele></trkpt>
    <trkpt lat="46.72239" lon="12.62292"><ele>2032</ele></trkpt>
    <trkpt lat="46.72197" lon="12.62273"><ele>2033</ele></trkpt>
    <trkpt lat="46.72155" lon="12.62255"><ele>2012</ele></trkpt>
    <trkpt lat="46.72110" lon="12.62240"><ele>1989</ele></trkpt>
    <trkpt lat="46.72063" lon="12.62222"><ele>1971</ele></trkpt>
    <trkpt lat="46.72017" lon="12.62205"><ele>1961</ele></trkpt>
    <trkpt lat="46.71971" lon="12.62186"><ele>1950</ele></trkpt>
    <trkpt lat="46.71924" lon="12.62169"><ele>1942</ele></trkpt>
    <trkpt lat="46.71876" lon="12.62149"><ele>1928</ele></trkpt>
    <trkpt lat="46.71830" lon="12.62129"><ele>1921</ele></trkpt>
    <trkpt lat="46.71784" lon="12.62112"><ele>1893</ele></trkpt>
    <trkpt lat="46.71741" lon="12.62095"><ele>1886</ele></trkpt>
    <trkpt lat="46.71700" lon="12.62078"><ele>1866</ele></trkpt>
    <trkpt lat="46.71658" lon="12.62064"><ele>1840</ele></trkpt>
    <trkpt lat="46.71613" lon="12.62048"><ele>1815</ele></trkpt>
    <trkpt lat="46.71571" lon="12.62032"><ele>1788</ele></trkpt>
    <trkpt lat="46.71526" lon="12.62015"><ele>1765</ele></trkpt>
    <trkpt lat="46.71487" lon="12.61999"><ele>1739</ele></trkpt>
    <trkpt lat="46.71442" lon="12.61983"><ele>1709</ele></trkpt>
    <trkpt lat="46.71400" lon="12.61966"><ele>1683</ele></trkpt>
    <trkpt lat="46.71355" lon="12.61945"><ele>1661</ele></trkpt>
    <trkpt lat="46.71314" lon="12.61930"><ele>1632</ele></trkpt>
    <trkpt lat="46.71273" lon="12.61914"><ele>1602</ele></trkpt>
    <trkpt lat="46.71234" lon="12.61899"><ele>1692</ele></trkpt>
    <trkpt lat="46.71196" lon="12.61886"><ele>1538</ele></trkpt>
    <trkpt lat="46.71156" lon="12.61870"><ele>1507</ele></trkpt>
    <trkpt lat="46.71115" lon="12.61853"><ele>1488</ele></trkpt>
    <trkpt lat="46.71075" lon="12.61838"><ele>1448</ele></trkpt>
    <trkpt lat="46.71056" lon="12.61830"><ele>1450</ele></trkpt>
    <trkpt lat="46.71047" lon="12.61830"><ele>1438</ele></trkpt>
    <trkpt lat="46.71039" lon="12.61802"><ele>1440</ele></trkpt>
    <trkpt lat="46.71026" lon="12.61809"><ele>1437</ele></trkpt>
    <trkpt lat="46.71011" lon="12.61832"><ele>1538</ele></trkpt>
    <trkpt lat="46.70998" lon="12.61850"><ele>1429</ele></trkpt>
    <trkpt lat="46.70985" lon="12.61870"><ele>1425</ele></trkpt>
    <trkpt lat="46.70971" lon="12.61891"><ele>1425</ele></trkpt>
    <trkpt lat="46.70957" lon="12.61899"><ele>1423</ele></trkpt>
    <trkpt lat="46.70946" lon="12.61870"><ele>1426</ele></trkpt>
    <trkpt lat="46.70942" lon="12.61843"><ele>1471</ele></trkpt>
    <trkpt lat="46.70931" lon="12.61825"><ele>1430</ele></trkpt>
    <trkpt lat="46.70924" lon="12.61805"><ele>1424</ele></trkpt>
    <trkpt lat="46.70914" lon="12.61783"><ele>1427</ele></trkpt>
    <trkpt lat="46.70905" lon="12.61760"><ele>1432</ele></trkpt>
    <trkpt lat="46.70896" lon="12.61733"><ele>1432</ele></trkpt>
    <trkpt lat="46.70889" lon="12.61709"><ele>1433</ele></trkpt>
    <trkpt lat="46.70888" lon="12.61690"><ele>1435</ele></trkpt>
    <trkpt lat="46.70881" lon="12.61666"><ele>1436</ele></trkpt>
  </trkseg>
</trk>
</gpx>