<?xml version="1.0" encoding="UTF-8"?>
<gpx version="1.1" creator="Gpx-Optimizer" xmlns="http://www.topografix.com/GPX/1/1">
<trk>
  <name>Weiße Spitze</name>
  <trkseg>
    <trkpt lat="46.86227" lon="12.33091"><ele>1805</ele></trkpt>
    <trkpt lat="46.86216" lon="12.33081"><ele>1823</ele></trkpt>
    <trkpt lat="46.86196" lon="12.33109"><ele>1815</ele></trkpt>
    <trkpt lat="46.86187" lon="12.33136"><ele>1815</ele></trkpt>
    <trkpt lat="46.86186" lon="12.33156"><ele>1817</ele></trkpt>
    <trkpt lat="46.86179" lon="12.33181"><ele>1821</ele></trkpt>
    <trkpt lat="46.86181" lon="12.33203"><ele>1828</ele></trkpt>
    <trkpt lat="46.86185" lon="12.33231"><ele>1834</ele></trkpt>
    <trkpt lat="46.86182" lon="12.33254"><ele>1839</ele></trkpt>
    <trkpt lat="46.86181" lon="12.33278"><ele>1841</ele></trkpt>
    <trkpt lat="46.86184" lon="12.33305"><ele>1845</ele></trkpt>
    <trkpt lat="46.86190" lon="12.33326"><ele>1847</ele></trkpt>
    <trkpt lat="46.86192" lon="12.33353"><ele>1846</ele></trkpt>
    <trkpt lat="46.86191" lon="12.33368"><ele>1846</ele></trkpt>
    <trkpt lat="46.86191" lon="12.33389"><ele>1853</ele></trkpt>
    <trkpt lat="46.86193" lon="12.33410"><ele>1853</ele></trkpt>
    <trkpt lat="46.86200" lon="12.33432"><ele>1856</ele></trkpt>
    <trkpt lat="46.86200" lon="12.33457"><ele>1856</ele></trkpt>
    <trkpt lat="46.86195" lon="12.33484"><ele>1854</ele></trkpt>
    <trkpt lat="46.86197" lon="12.33498"><ele>1859</ele></trkpt>
    <trkpt lat="46.86196" lon="12.33532"><ele>1863</ele></trkpt>
    <trkpt lat="46.86189" lon="12.33557"><ele>1867</ele></trkpt>
    <trkpt lat="46.86189" lon="12.33579"><ele>1868</ele></trkpt>
    <trkpt lat="46.86194" lon="12.33604"><ele>1870</ele></trkpt>
    <trkpt lat="46.86191" lon="12.33636"><ele>1870</ele></trkpt>
    <trkpt lat="46.86180" lon="12.33664"><ele>1869</ele></trkpt>
    <trkpt lat="46.86171" lon="12.33693"><ele>1871</ele></trkpt>
    <trkpt lat="46.86168" lon="12.33726"><ele>1871</ele></trkpt>
    <trkpt lat="46.86169" lon="12.33762"><ele>1864</ele></trkpt>
    <trkpt lat="46.86172" lon="12.33793"><ele>1868</ele></trkpt>
    <trkpt lat="46.86172" lon="12.33830"><ele>1870</ele></trkpt>
    <trkpt lat="46.86174" lon="12.33862"><ele>1867</ele></trkpt>
    <trkpt lat="46.86182" lon="12.33893"><ele>1871</ele></trkpt>
    <trkpt lat="46.86187" lon="12.33929"><ele>1870</ele></trkpt>
    <trkpt lat="46.86188" lon="12.33963"><ele>1871</ele></trkpt>
    <trkpt lat="46.86195" lon="12.33992"><ele>1871</ele></trkpt>
    <trkpt lat="46.86211" lon="12.34020"><ele>1874</ele></trkpt>
    <trkpt lat="46.86230" lon="12.34032"><ele>1873</ele></trkpt>
    <trkpt lat="46.86239" lon="12.34034"><ele>1880</ele></trkpt>
    <trkpt lat="46.86250" lon="12.34046"><ele>1877</ele></trkpt>
    <trkpt lat="46.86265" lon="12.34064"><ele>1880</ele></trkpt>
    <trkpt lat="46.86281" lon="12.34078"><ele>1885</ele></trkpt>
    <trkpt lat="46.86295" lon="12.34087"><ele>1890</ele></trkpt>
    <trkpt lat="46.86311" lon="12.34102"><ele>1887</ele></trkpt>
    <trkpt lat="46.86318" lon="12.34114"><ele>1894</ele></trkpt>
    <trkpt lat="46.86327" lon="12.34114"><ele>1896</ele></trkpt>
    <trkpt lat="46.86346" lon="12.34112"><ele>1905</ele></trkpt>
    <trkpt lat="46.86355" lon="12.34128"><ele>1908</ele></trkpt>
    <trkpt lat="46.86374" lon="12.34135"><ele>1912</ele></trkpt>
    <trkpt lat="46.86386" lon="12.34152"><ele>1917</ele></trkpt>
    <trkpt lat="46.86386" lon="12.34168"><ele>1922</ele></trkpt>
    <trkpt lat="46.86384" lon="12.34185"><ele>1928</ele></trkpt>
    <trkpt lat="46.86386" lon="12.34199"><ele>1930</ele></trkpt>
    <trkpt lat="46.86403" lon="12.34181"><ele>1930</ele></trkpt>
    <trkpt lat="46.86413" lon="12.34190"><ele>1937</ele></trkpt>
    <trkpt lat="46.86424" lon="12.34186"><ele>1940</ele></trkpt>
    <trkpt lat="46.86440" lon="12.34194"><ele>1948</ele></trkpt>
    <trkpt lat="46.86443" lon="12.34213"><ele>1957</ele></trkpt>
    <trkpt lat="46.86446" lon="12.34237"><ele>1962</ele></trkpt>
    <trkpt lat="46.86455" lon="12.34254"><ele>1973</ele></trkpt>
    <trkpt lat="46.86468" lon="12.34255"><ele>1983</ele></trkpt>
    <trkpt lat="46.86479" lon="12.34269"><ele>1990</ele></trkpt>
    <trkpt lat="46.86490" lon="12.34265"><ele>2003</ele></trkpt>
    <trkpt lat="46.86479" lon="12.34270"><ele>2009</ele></trkpt>
    <trkpt lat="46.86477" lon="12.34294"><ele>2029</ele></trkpt>
    <trkpt lat="46.86479" lon="12.34315"><ele>2040</ele></trkpt>
    <trkpt lat="46.86488" lon="12.34321"><ele>2038</ele></trkpt>
    <trkpt lat="46.86498" lon="12.34341"><ele>2048</ele></trkpt>
    <trkpt lat="46.86509" lon="12.34351"><ele>2067</ele></trkpt>
    <trkpt lat="46.86524" lon="12.34356"><ele>2070</ele></trkpt>
    <trkpt lat="46.86537" lon="12.34368"><ele>2083</ele></trkpt>
    <trkpt lat="46.86553" lon="12.34375"><ele>2095</ele></trkpt>
    <trkpt lat="46.86570" lon="12.34372"><ele>2104</ele></trkpt>
    <trkpt lat="46.86584" lon="12.34375"><ele>2119</ele></trkpt>
    <trkpt lat="46.86601" lon="12.34379"><ele>2129</ele></trkpt>
    <trkpt lat="46.86616" lon="12.34390"><ele>2133</ele></trkpt>
    <trkpt lat="46.86632" lon="12.34391"><ele>2138</ele></trkpt>
    <trkpt lat="46.86642" lon="12.34410"><ele>2157</ele></trkpt>
    <trkpt lat="46.86635" lon="12.34431"><ele>2170</ele></trkpt>
    <trkpt lat="46.86629" lon="12.34451"><ele>2176</ele></trkpt>
    <trkpt lat="46.86637" lon="12.34471"><ele>2186</ele></trkpt>
    <trkpt lat="46.86654" lon="12.34471"><ele>2196</ele></trkpt>
    <trkpt lat="46.86663" lon="12.34475"><ele>2201</ele></trkpt>
    <trkpt lat="46.86662" lon="12.34498"><ele>2212</ele></trkpt>
    <trkpt lat="46.86660" lon="12.34513"><ele>2222</ele></trkpt>
    <trkpt lat="46.86674" lon="12.34526"><ele>2225</ele></trkpt>
    <trkpt lat="46.86689" lon="12.34535"><ele>2231</ele></trkpt>
    <trkpt lat="46.86705" lon="12.34538"><ele>2238</ele></trkpt>
    <trkpt lat="46.86720" lon="12.34528"><ele>2245</ele></trkpt>
    <trkpt lat="46.86734" lon="12.34536"><ele>2263</ele></trkpt>
    <trkpt lat="46.86750" lon="12.34537"><ele>2272</ele></trkpt>
    <trkpt lat="46.86764" lon="12.34527"><ele>2275</ele></trkpt>
    <trkpt lat="46.86779" lon="12.34532"><ele>2285</ele></trkpt>
    <trkpt lat="46.86790" lon="12.34548"><ele>2297</ele></trkpt>
    <trkpt lat="46.86788" lon="12.34572"><ele>2303</ele></trkpt>
    <trkpt lat="46.86794" lon="12.34594"><ele>2316</ele></trkpt>
    <trkpt lat="46.86782" lon="12.34612"><ele>2318</ele></trkpt>
    <trkpt lat="46.86775" lon="12.34633"><ele>2332</ele></trkpt>
    <trkpt lat="46.86763" lon="12.34648"><ele>2340</ele></trkpt>
    <trkpt lat="46.86771" lon="12.34669"><ele>2357</ele></trkpt>
    <trkpt lat="46.86758" lon="12.34682"><ele>2356</ele></trkpt>
    <trkpt lat="46.86751" lon="12.34704"><ele>2374</ele></trkpt>
    <trkpt lat="46.86755" lon="12.34717"><ele>2383</ele></trkpt>
    <trkpt lat="46.86770" lon="12.34730"><ele>2387</ele></trkpt>
    <trkpt lat="46.86789" lon="12.34740"><ele>2389</ele></trkpt>
    <trkpt lat="46.86803" lon="12.34739"><ele>2392</ele></trkpt>
    <trkpt lat="46.86813" lon="12.34742"><ele>2394</ele></trkpt>
    <trkpt lat="46.86830" lon="12.34750"><ele>2401</ele></trkpt>
    <trkpt lat="46.86840" lon="12.34750"><ele>2399</ele></trkpt>
    <trkpt lat="46.86859" lon="12.34733"><ele>2395</ele></trkpt>
    <trkpt lat="46.86868" lon="12.34709"><ele>2388</ele></trkpt>
    <trkpt lat="46.86878" lon="12.34690"><ele>2388</ele></trkpt>
    <trkpt lat="46.86885" lon="12.34679"><ele>2388</ele></trkpt>
    <trkpt lat="46.86899" lon="12.34674"><ele>2389</ele></trkpt>
    <trkpt lat="46.86915" lon="12.34662"><ele>2391</ele></trkpt>
    <trkpt lat="46.86928" lon="12.34640"><ele>2398</ele></trkpt>
    <trkpt lat="46.86935" lon="12.34615"><ele>2404</ele></trkpt>
    <trkpt lat="46.86950" lon="12.34617"><ele>2419</ele></trkpt>
    <trkpt lat="46.86966" lon="12.34623"><ele>2419</ele></trkpt>
    <trkpt lat="46.86982" lon="12.34624"><ele>2429</ele></trkpt>
    <trkpt lat="46.86999" lon="12.34626"><ele>2437</ele></trkpt>
    <trkpt lat="46.87014" lon="12.34630"><ele>2390</ele></trkpt>
    <trkpt lat="46.87029" lon="12.34639"><ele>2460</ele></trkpt>
    <trkpt lat="46.87043" lon="12.34652"><ele>2472</ele></trkpt>
    <trkpt lat="46.87059" lon="12.34653"><ele>2470</ele></trkpt>
    <trkpt lat="46.87074" lon="12.34664"><ele>2475</ele></trkpt>
    <trkpt lat="46.87090" lon="12.34673"><ele>2484</ele></trkpt>
    <trkpt lat="46.87104" lon="12.34683"><ele>2492</ele></trkpt>
    <trkpt lat="46.87123" lon="12.34683"><ele>2441</ele></trkpt>
    <trkpt lat="46.87143" lon="12.34682"><ele>2500</ele></trkpt>
    <trkpt lat="46.87160" lon="12.34683"><ele>2512</ele></trkpt>
    <trkpt lat="46.87175" lon="12.34692"><ele>2517</ele></trkpt>
    <trkpt lat="46.87188" lon="12.34705"><ele>2526</ele></trkpt>
    <trkpt lat="46.87204" lon="12.34715"><ele>2523</ele></trkpt>
    <trkpt lat="46.87219" lon="12.34722"><ele>2546</ele></trkpt>
    <trkpt lat="46.87230" lon="12.34741"><ele>2541</ele></trkpt>
    <trkpt lat="46.87233" lon="12.34755"><ele>2541</ele></trkpt>
    <trkpt lat="46.87235" lon="12.34768"><ele>2542</ele></trkpt>
    <trkpt lat="46.87242" lon="12.34789"><ele>2262</ele></trkpt>
    <trkpt lat="46.87250" lon="12.34796"><ele>2286</ele></trkpt>
    <trkpt lat="46.87260" lon="12.34816"><ele>2553</ele></trkpt>
    <trkpt lat="46.87271" lon="12.34832"><ele>2497</ele></trkpt>
    <trkpt lat="46.87286" lon="12.34840"><ele>2558</ele></trkpt>
    <trkpt lat="46.87296" lon="12.34859"><ele>2579</ele></trkpt>
    <trkpt lat="46.87312" lon="12.34856"><ele>2581</ele></trkpt>
    <trkpt lat="46.87327" lon="12.34864"><ele>2600</ele></trkpt>
    <trkpt lat="46.87339" lon="12.34869"><ele>2575</ele></trkpt>
    <trkpt lat="46.87353" lon="12.34873"><ele>2616</ele></trkpt>
    <trkpt lat="46.87368" lon="12.34882"><ele>2617</ele></trkpt>
    <trkpt lat="46.87373" lon="12.34901"><ele>2570</ele></trkpt>
    <trkpt lat="46.87389" lon="12.34906"><ele>2650</ele></trkpt>
    <trkpt lat="46.87396" lon="12.34929"><ele>2543</ele></trkpt>
    <trkpt lat="46.87396" lon="12.34954"><ele>2660</ele></trkpt>
    <trkpt lat="46.87393" lon="12.34977"><ele>2671</ele></trkpt>
    <trkpt lat="46.87402" lon="12.34982"><ele>2669</ele></trkpt>
    <trkpt lat="46.87417" lon="12.34971"><ele>2670</ele></trkpt>
    <trkpt lat="46.87429" lon="12.34961"><ele>2686</ele></trkpt>
    <trkpt lat="46.87438" lon="12.34981"><ele>2692</ele></trkpt>
    <trkpt lat="46.87439" lon="12.35004"><ele>2705</ele></trkpt>
    <trkpt lat="46.87442" lon="12.35023"><ele>2712</ele></trkpt>
    <trkpt lat="46.87441" lon="12.35047"><ele>2736</ele></trkpt>
    <trkpt lat="46.87440" lon="12.35062"><ele>2739</ele></trkpt>
    <trkpt lat="46.87432" lon="12.35083"><ele>2753</ele></trkpt>
    <trkpt lat="46.87421" lon="12.35107"><ele>2757</ele></trkpt>
    <trkpt lat="46.87420" lon="12.35132"><ele>2762</ele></trkpt>
    <trkpt lat="46.87413" lon="12.35155"><ele>2766</ele></trkpt>
    <trkpt lat="46.87410" lon="12.35169"><ele>2768</ele></trkpt>
    <trkpt lat="46.87407" lon="12.35183"><ele>2768</ele></trkpt>
    <trkpt lat="46.87404" lon="12.35202"><ele>2773</ele></trkpt>
    <trkpt lat="46.87390" lon="12.35219"><ele>2759</ele></trkpt>
    <trkpt lat="46.87386" lon="12.35232"><ele>2762</ele></trkpt>
    <trkpt lat="46.87380" lon="12.35247"><ele>2784</ele></trkpt>
    <trkpt lat="46.87381" lon="12.35271"><ele>2789</ele></trkpt>
    <trkpt lat="46.87383" lon="12.35294"><ele>2803</ele></trkpt>
    <trkpt lat="46.87375" lon="12.35314"><ele>2817</ele></trkpt>
    <trkpt lat="46.87361" lon="12.35330"><ele>2812</ele></trkpt>
    <trkpt lat="46.87360" lon="12.35354"><ele>2824</ele></trkpt>
    <trkpt lat="46.87361" lon="12.35378"><ele>2824</ele></trkpt>
    <trkpt lat="46.87356" lon="12.35400"><ele>2842</ele></trkpt>
    <trkpt lat="46.87359" lon="12.35423"><ele>2845</ele></trkpt>
    <trkpt lat="46.87360" lon="12.35449"><ele>2843</ele></trkpt>
    <trkpt lat="46.87348" lon="12.35465"><ele>2852</ele></trkpt>
    <trkpt lat="46.87345" lon="12.35489"><ele>2871</ele></trkpt>
    <trkpt lat="46.87335" lon="12.35507"><ele>2880</ele></trkpt>
    <trkpt lat="46.87321" lon="12.35521"><ele>2876</ele></trkpt>
    <trkpt lat="46.87311" lon="12.35540"><ele>2888</ele></trkpt>
    <trkpt lat="46.87311" lon="12.35564"><ele>2898</ele></trkpt>
    <trkpt lat="46.87307" lon="12.35586"><ele>2903</ele></trkpt>
    <trkpt lat="46.87308" lon="12.35599"><ele>2911</ele></trkpt>
    <trkpt lat="46.87301" lon="12.35610"><ele>2912</ele></trkpt>
    <trkpt lat="46.87289" lon="12.35627"><ele>2917</ele></trkpt>
    <trkpt lat="46.87282" lon="12.35647"><ele>2921</ele></trkpt>
    <trkpt lat="46.87273" lon="12.35668"><ele>2936</ele></trkpt>
    <trkpt lat="46.87255" lon="12.35674"><ele>2945</ele></trkpt>
    <trkpt lat="46.87239" lon="12.35689"><ele>2914</ele></trkpt>
    <trkpt lat="46.87226" lon="12.35704"><ele>2955</ele></trkpt>
    <trkpt lat="46.87219" lon="12.35727"><ele>2956</ele></trkpt>
    <trkpt lat="46.87212" lon="12.35741"><ele>2958</ele></trkpt>
    <trkpt lat="46.87204" lon="12.35762"><ele>2953</ele></trkpt>
    <trkpt lat="46.87191" lon="12.35788"><ele>2956</ele></trkpt>
    <trkpt lat="46.87184" lon="12.35808"><ele>2961</ele></trkpt>
    <trkpt lat="46.87183" lon="12.35795"><ele>2966</ele></trkpt>
    <trkpt lat="46.87197" lon="12.35785"><ele>2959</ele></trkpt>
    <trkpt lat="46.87207" lon="12.35769"><ele>2957</ele></trkpt>
    <trkpt lat="46.87212" lon="12.35755"><ele>2961</ele></trkpt>
    <trkpt lat="46.87221" lon="12.35731"><ele>2961</ele></trkpt>
    <trkpt lat="46.87234" lon="12.35707"><ele>2952</ele></trkpt>
    <trkpt lat="46.87245" lon="12.35696"><ele>2950</ele></trkpt>
    <trkpt lat="46.87255" lon="12.35688"><ele>2946</ele></trkpt>
    <trkpt lat="46.87269" lon="12.35683"><ele>2940</ele></trkpt>
    <trkpt lat="46.87279" lon="12.35671"><ele>2938</ele></trkpt>
    <trkpt lat="46.87288" lon="12.35658"><ele>2933</ele></trkpt>
    <trkpt lat="46.87281" lon="12.35645"><ele>2929</ele></trkpt>
    <trkpt lat="46.87293" lon="12.35625"><ele>2926</ele></trkpt>
    <trkpt lat="46.87303" lon="12.35617"><ele>2921</ele></trkpt>
    <trkpt lat="46.87310" lon="12.35597"><ele>2913</ele></trkpt>
    <trkpt lat="46.87306" lon="12.35582"><ele>2911</ele></trkpt>
    <trkpt lat="46.87319" lon="12.35563"><ele>2900</ele></trkpt>
    <trkpt lat="46.87322" lon="12.35537"><ele>2891</ele></trkpt>
    <trkpt lat="46.87332" lon="12.35518"><ele>2881</ele></trkpt>
    <trkpt lat="46.87343" lon="12.35501"><ele>2869</ele></trkpt>
    <trkpt lat="46.87346" lon="12.35484"><ele>2862</ele></trkpt>
    <trkpt lat="46.87350" lon="12.35471"><ele>2864</ele></trkpt>
    <trkpt lat="46.87355" lon="12.35449"><ele>2856</ele></trkpt>
    <trkpt lat="46.87359" lon="12.35434"><ele>2857</ele></trkpt>
    <trkpt lat="46.87356" lon="12.35409"><ele>2848</ele></trkpt>
    <trkpt lat="46.87359" lon="12.35397"><ele>2843</ele></trkpt>
    <trkpt lat="46.87359" lon="12.35377"><ele>2833</ele></trkpt>
    <trkpt lat="46.87357" lon="12.35353"><ele>2827</ele></trkpt>
    <trkpt lat="46.87363" lon="12.35342"><ele>2821</ele></trkpt>
    <trkpt lat="46.87376" lon="12.35326"><ele>2819</ele></trkpt>
    <trkpt lat="46.87379" lon="12.35303"><ele>2807</ele></trkpt>
    <trkpt lat="46.87379" lon="12.35279"><ele>2821</ele></trkpt>
    <trkpt lat="46.87368" lon="12.35264"><ele>2800</ele></trkpt>
    <trkpt lat="46.87376" lon="12.35246"><ele>2787</ele></trkpt>
    <trkpt lat="46.87396" lon="12.35233"><ele>2789</ele></trkpt>
    <trkpt lat="46.87405" lon="12.35221"><ele>2785</ele></trkpt>
    <trkpt lat="46.87413" lon="12.35190"><ele>2767</ele></trkpt>
    <trkpt lat="46.87415" lon="12.35164"><ele>2765</ele></trkpt>
    <trkpt lat="46.87420" lon="12.35151"><ele>2760</ele></trkpt>
    <trkpt lat="46.87423" lon="12.35123"><ele>2758</ele></trkpt>
    <trkpt lat="46.87428" lon="12.35106"><ele>2757</ele></trkpt>
    <trkpt lat="46.87435" lon="12.35089"><ele>2750</ele></trkpt>
    <trkpt lat="46.87441" lon="12.35074"><ele>2748</ele></trkpt>
    <trkpt lat="46.87447" lon="12.35049"><ele>2751</ele></trkpt>
    <trkpt lat="46.87447" lon="12.35029"><ele>2724</ele></trkpt>
    <trkpt lat="46.87441" lon="12.35010"><ele>2715</ele></trkpt>
    <trkpt lat="46.87437" lon="12.34994"><ele>2720</ele></trkpt>
    <trkpt lat="46.87431" lon="12.34973"><ele>2697</ele></trkpt>
    <trkpt lat="46.87425" lon="12.34951"><ele>2692</ele></trkpt>
    <trkpt lat="46.87410" lon="12.34942"><ele>2674</ele></trkpt>
    <trkpt lat="46.87398" lon="12.34934"><ele>2669</ele></trkpt>
    <trkpt lat="46.87396" lon="12.34907"><ele>2656</ele></trkpt>
    <trkpt lat="46.87388" lon="12.34896"><ele>2631</ele></trkpt>
    <trkpt lat="46.87377" lon="12.34883"><ele>2633</ele></trkpt>
    <trkpt lat="46.87372" lon="12.34870"><ele>2631</ele></trkpt>
    <trkpt lat="46.87357" lon="12.34862"><ele>2620</ele></trkpt>
    <trkpt lat="46.87343" lon="12.34851"><ele>2611</ele></trkpt>
    <trkpt lat="46.87329" lon="12.34844"><ele>2600</ele></trkpt>
    <trkpt lat="46.87313" lon="12.34836"><ele>2585</ele></trkpt>
    <trkpt lat="46.87303" lon="12.34838"><ele>2579</ele></trkpt>
    <trkpt lat="46.87289" lon="12.34831"><ele>2584</ele></trkpt>
    <trkpt lat="46.87278" lon="12.34818"><ele>2553</ele></trkpt>
    <trkpt lat="46.87269" lon="12.34801"><ele>2537</ele></trkpt>
    <trkpt lat="46.87262" lon="12.34792"><ele>2534</ele></trkpt>
    <trkpt lat="46.87247" lon="12.34780"><ele>2535</ele></trkpt>
    <trkpt lat="46.87238" lon="12.34763"><ele>2530</ele></trkpt>
    <trkpt lat="46.87235" lon="12.34745"><ele>2530</ele></trkpt>
    <trkpt lat="46.87228" lon="12.34724"><ele>2520</ele></trkpt>
    <trkpt lat="46.87214" lon="12.34717"><ele>2523</ele></trkpt>
    <trkpt lat="46.87205" lon="12.34706"><ele>2520</ele></trkpt>
    <trkpt lat="46.87195" lon="12.34700"><ele>2514</ele></trkpt>
    <trkpt lat="46.87182" lon="12.34687"><ele>2516</ele></trkpt>
    <trkpt lat="46.87170" lon="12.34680"><ele>2499</ele></trkpt>
    <trkpt lat="46.87153" lon="12.34679"><ele>2502</ele></trkpt>
    <trkpt lat="46.87136" lon="12.34674"><ele>2502</ele></trkpt>
    <trkpt lat="46.87120" lon="12.34672"><ele>2500</ele></trkpt>
    <trkpt lat="46.87104" lon="12.34678"><ele>2496</ele></trkpt>
    <trkpt lat="46.87096" lon="12.34670"><ele>2493</ele></trkpt>
    <trkpt lat="46.87087" lon="12.34663"><ele>2487</ele></trkpt>
    <trkpt lat="46.87077" lon="12.34657"><ele>2482</ele></trkpt>
    <trkpt lat="46.87068" lon="12.34652"><ele>2464</ele></trkpt>
    <trkpt lat="46.87061" lon="12.34645"><ele>2461</ele></trkpt>
    <trkpt lat="46.87043" lon="12.34638"><ele>2460</ele></trkpt>
    <trkpt lat="46.87030" lon="12.34622"><ele>2454</ele></trkpt>
    <trkpt lat="46.87013" lon="12.34617"><ele>2449</ele></trkpt>
    <trkpt lat="46.86991" lon="12.34617"><ele>2442</ele></trkpt>
    <trkpt lat="46.86982" lon="12.34612"><ele>2433</ele></trkpt>
    <trkpt lat="46.86959" lon="12.34611"><ele>2259</ele></trkpt>
    <trkpt lat="46.86942" lon="12.34607"><ele>2344</ele></trkpt>
    <trkpt lat="46.86928" lon="12.34604"><ele>2180</ele></trkpt>
    <trkpt lat="46.86919" lon="12.34629"><ele>2391</ele></trkpt>
    <trkpt lat="46.86910" lon="12.34644"><ele>2411</ele></trkpt>
    <trkpt lat="46.86894" lon="12.34654"><ele>2410</ele></trkpt>
    <trkpt lat="46.86882" lon="12.34660"><ele>2408</ele></trkpt>
    <trkpt lat="46.86874" lon="12.34668"><ele>2401</ele></trkpt>
    <trkpt lat="46.86864" lon="12.34692"><ele>2399</ele></trkpt>
    <trkpt lat="46.86857" lon="12.34715"><ele>2399</ele></trkpt>
    <trkpt lat="46.86846" lon="12.34729"><ele>2398</ele></trkpt>
    <trkpt lat="46.86837" lon="12.34728"><ele>2398</ele></trkpt>
    <trkpt lat="46.86824" lon="12.34730"><ele>2396</ele></trkpt>
    <trkpt lat="46.86805" lon="12.34730"><ele>2300</ele></trkpt>
    <trkpt lat="46.86790" lon="12.34732"><ele>2389</ele></trkpt>
    <trkpt lat="46.86777" lon="12.34730"><ele>2306</ele></trkpt>
    <trkpt lat="46.86762" lon="12.34715"><ele>2385</ele></trkpt>
    <trkpt lat="46.86750" lon="12.34710"><ele>2384</ele></trkpt>
    <trkpt lat="46.86748" lon="12.34686"><ele>2373</ele></trkpt>
    <trkpt lat="46.86767" lon="12.34687"><ele>2341</ele></trkpt>
    <trkpt lat="46.86775" lon="12.34679"><ele>2350</ele></trkpt>
    <trkpt lat="46.86764" lon="12.34654"><ele>2351</ele></trkpt>
    <trkpt lat="46.86766" lon="12.34640"><ele>2348</ele></trkpt>
    <trkpt lat="46.86768" lon="12.34625"><ele>2342</ele></trkpt>
    <trkpt lat="46.86784" lon="12.34620"><ele>2327</ele></trkpt>
    <trkpt lat="46.86775" lon="12.34608"><ele>2327</ele></trkpt>
    <trkpt lat="46.86785" lon="12.34602"><ele>2321</ele></trkpt>
    <trkpt lat="46.86794" lon="12.34591"><ele>2318</ele></trkpt>
    <trkpt lat="46.86782" lon="12.34576"><ele>2317</ele></trkpt>
    <trkpt lat="46.86787" lon="12.34542"><ele>2313</ele></trkpt>
    <trkpt lat="46.86779" lon="12.34521"><ele>2302</ele></trkpt>
    <trkpt lat="46.86766" lon="12.34513"><ele>2295</ele></trkpt>
    <trkpt lat="46.86752" lon="12.34519"><ele>2284</ele></trkpt>
    <trkpt lat="46.86737" lon="12.34520"><ele>2349</ele></trkpt>
    <trkpt lat="46.86721" lon="12.34512"><ele>2256</ele></trkpt>
    <trkpt lat="46.86707" lon="12.34532"><ele>2252</ele></trkpt>
    <trkpt lat="46.86690" lon="12.34527"><ele>2235</ele></trkpt>
    <trkpt lat="46.86671" lon="12.34519"><ele>2229</ele></trkpt>
    <trkpt lat="46.86668" lon="12.34505"><ele>2223</ele></trkpt>
    <trkpt lat="46.86668" lon="12.34479"><ele>2215</ele></trkpt>
    <trkpt lat="46.86653" lon="12.34462"><ele>2196</ele></trkpt>
    <trkpt lat="46.86633" lon="12.34463"><ele>2194</ele></trkpt>
    <trkpt lat="46.86631" lon="12.34442"><ele>2182</ele></trkpt>
    <trkpt lat="46.86638" lon="12.34417"><ele>2178</ele></trkpt>
    <trkpt lat="46.86635" lon="12.34404"><ele>2179</ele></trkpt>
    <trkpt lat="46.86628" lon="12.34383"><ele>2161</ele></trkpt>
    <trkpt lat="46.86611" lon="12.34377"><ele>2150</ele></trkpt>
    <trkpt lat="46.86599" lon="12.34362"><ele>2137</ele></trkpt>
    <trkpt lat="46.86589" lon="12.34365"><ele>2132</ele></trkpt>
    <trkpt lat="46.86573" lon="12.34360"><ele>2117</ele></trkpt>
    <trkpt lat="46.86554" lon="12.34359"><ele>2106</ele></trkpt>
    <trkpt lat="46.86538" lon="12.34353"><ele>2098</ele></trkpt>
    <trkpt lat="46.86522" lon="12.34344"><ele>2083</ele></trkpt>
    <trkpt lat="46.86511" lon="12.34341"><ele>2082</ele></trkpt>
    <trkpt lat="46.86499" lon="12.34345"><ele>2084</ele></trkpt>
    <trkpt lat="46.86490" lon="12.34330"><ele>2067</ele></trkpt>
    <trkpt lat="46.86494" lon="12.34305"><ele>2060</ele></trkpt>
    <trkpt lat="46.86481" lon="12.34293"><ele>2048</ele></trkpt>
    <trkpt lat="46.86476" lon="12.34270"><ele>2038</ele></trkpt>
    <trkpt lat="46.86491" lon="12.34254"><ele>2025</ele></trkpt>
    <trkpt lat="46.86489" lon="12.34241"><ele>2021</ele></trkpt>
    <trkpt lat="46.86474" lon="12.34250"><ele>2017</ele></trkpt>
    <trkpt lat="46.86465" lon="12.34241"><ele>2011</ele></trkpt>
    <trkpt lat="46.86451" lon="12.34243"><ele>1990</ele></trkpt>
    <trkpt lat="46.86445" lon="12.34218"><ele>1992</ele></trkpt>
    <trkpt lat="46.86447" lon="12.34197"><ele>1973</ele></trkpt>
    <trkpt lat="46.86446" lon="12.34184"><ele>1970</ele></trkpt>
    <trkpt lat="46.86436" lon="12.34179"><ele>1965</ele></trkpt>
    <trkpt lat="46.86419" lon="12.34172"><ele>1956</ele></trkpt>
    <trkpt lat="46.86405" lon="12.34168"><ele>1947</ele></trkpt>
    <trkpt lat="46.86394" lon="12.34181"><ele>1940</ele></trkpt>
    <trkpt lat="46.86384" lon="12.34200"><ele>1935</ele></trkpt>
    <trkpt lat="46.86378" lon="12.34172"><ele>1936</ele></trkpt>
    <trkpt lat="46.86374" lon="12.34157"><ele>1931</ele></trkpt>
    <trkpt lat="46.86371" lon="12.34139"><ele>1927</ele></trkpt>
    <trkpt lat="46.86362" lon="12.34129"><ele>1923</ele></trkpt>
    <trkpt lat="46.86352" lon="12.34121"><ele>1925</ele></trkpt>
    <trkpt lat="46.86344" lon="12.34114"><ele>1921</ele></trkpt>
    <trkpt lat="46.86333" lon="12.34106"><ele>1921</ele></trkpt>
    <trkpt lat="46.86322" lon="12.34096"><ele>1918</ele></trkpt>
    <trkpt lat="46.86313" lon="12.34095"><ele>1912</ele></trkpt>
    <trkpt lat="46.86301" lon="12.34086"><ele>1908</ele></trkpt>
    <trkpt lat="46.86281" lon="12.34078"><ele>1900</ele></trkpt>
    <trkpt lat="46.86270" lon="12.34092"><ele>1891</ele></trkpt>
    <trkpt lat="46.86248" lon="12.34102"><ele>1892</ele></trkpt>
    <trkpt lat="46.86229" lon="12.34101"><ele>1889</ele></trkpt>
    <trkpt lat="46.86222" lon="12.34066"><ele>1891</ele></trkpt>
    <trkpt lat="46.86220" lon="12.34042"><ele>1888</ele></trkpt>
    <trkpt lat="46.86211" lon="12.34020"><ele>1885</ele></trkpt>
    <trkpt lat="46.86199" lon="12.34000"><ele>1890</ele></trkpt>
    <trkpt lat="46.86191" lon="12.33982"><ele>1892</ele></trkpt>
    <trkpt lat="46.86191" lon="12.33969"><ele>1890</ele></trkpt>
    <trkpt lat="46.86184" lon="12.33938"><ele>1887</ele></trkpt>
    <trkpt lat="46.86179" lon="12.33909"><ele>1887</ele></trkpt>
    <trkpt lat="46.86173" lon="12.33876"><ele>1884</ele></trkpt>
    <trkpt lat="46.86173" lon="12.33852"><ele>1883</ele></trkpt>
    <trkpt lat="46.86175" lon="12.33824"><ele>1877</ele></trkpt>
    <trkpt lat="46.86175" lon="12.33789"><ele>1876</ele></trkpt>
    <trkpt lat="46.86172" lon="12.33756"><ele>1875</ele></trkpt>
    <trkpt lat="46.86169" lon="12.33731"><ele>1880</ele></trkpt>
    <trkpt lat="46.86168" lon="12.33703"><ele>1880</ele></trkpt>
    <trkpt lat="46.86173" lon="12.33678"><ele>1877</ele></trkpt>
    <trkpt lat="46.86183" lon="12.33654"><ele>1880</ele></trkpt>
    <trkpt lat="46.86194" lon="12.33637"><ele>1873</ele></trkpt>
    <trkpt lat="46.86203" lon="12.33620"><ele>1873</ele></trkpt>
    <trkpt lat="46.86199" lon="12.33597"><ele>1868</ele></trkpt>
    <trkpt lat="46.86204" lon="12.33575"><ele>1866</ele></trkpt>
    <trkpt lat="46.86217" lon="12.33557"><ele>1866</ele></trkpt>
    <trkpt lat="46.86224" lon="12.33535"><ele>1868</ele></trkpt>
    <trkpt lat="46.86213" lon="12.33522"><ele>1871</ele></trkpt>
    <trkpt lat="46.86200" lon="12.33497"><ele>1872</ele></trkpt>
    <trkpt lat="46.86201" lon="12.33460"><ele>1856</ele></trkpt>
    <trkpt lat="46.86189" lon="12.33441"><ele>1857</ele></trkpt>
    <trkpt lat="46.86192" lon="12.33399"><ele>1857</ele></trkpt>
    <trkpt lat="46.86195" lon="12.33369"><ele>1857</ele></trkpt>
    <trkpt lat="46.86207" lon="12.33348"><ele>1857</ele></trkpt>
    <trkpt lat="46.86219" lon="12.33331"><ele>1858</ele></trkpt>
    <trkpt lat="46.86223" lon="12.33307"><ele>1856</ele></trkpt>
    <trkpt lat="46.86222" lon="12.33292"><ele>1856</ele></trkpt>
    <trkpt lat="46.86229" lon="12.33279"><ele>1858</ele></trkpt>
    <trkpt lat="46.86224" lon="12.33265"><ele>1854</ele></trkpt>
    <trkpt lat="46.86212" lon="12.33252"><ele>1856</ele></trkpt>
    <trkpt lat="46.86225" lon="12.33231"><ele>1860</ele></trkpt>
    <trkpt lat="46.86223" lon="12.33214"><ele>1860</ele></trkpt>
    <trkpt lat="46.86230" lon="12.33189"><ele>1854</ele></trkpt>
    <trkpt lat="46.86228" lon="12.33165"><ele>1850</ele></trkpt>
    <trkpt lat="46.86225" lon="12.33145"><ele>1851</ele></trkpt>
    <trkpt lat="46.86229" lon="12.33126"><ele>1848</ele></trkpt>
    <trkpt lat="46.86213" lon="12.33101"><ele>1845</ele></trkpt>
    <trkpt lat="46.86212" lon="12.33089"><ele>1839</ele></trkpt>
  </trkseg>
</trk>
</gpx>