<?xml version="1.0" encoding="UTF-8"?>
<gpx version="1.1" creator="GPX-Pro" xmlns="http://www.topografix.com/GPX/1/1">
<trk>
  <name>Spielberg</name>
  <trkseg>
    <trkpt lat="47.84306" lon="13.62973"><ele>755</ele><time>2023-09-17T05:20:04Z</time></trkpt>
    <trkpt lat="47.84315" lon="13.62944"><ele>761</ele><time>2023-09-17T05:23:12Z</time></trkpt>
    <trkpt lat="47.84309" lon="13.62927"><ele>756</ele><time>2023-09-17T05:23:30Z</time></trkpt>
    <trkpt lat="47.84292" lon="13.62913"><ele>767</ele><time>2023-09-17T05:23:49Z</time></trkpt>
    <trkpt lat="47.84269" lon="13.62900"><ele>767</ele><time>2023-09-17T05:24:07Z</time></trkpt>
    <trkpt lat="47.84247" lon="13.62884"><ele>770</ele><time>2023-09-17T05:24:25Z</time></trkpt>
    <trkpt lat="47.84229" lon="13.62887"><ele>770</ele><time>2023-09-17T05:24:44Z</time></trkpt>
    <trkpt lat="47.84224" lon="13.62901"><ele>777</ele><time>2023-09-17T05:25:02Z</time></trkpt>
    <trkpt lat="47.84213" lon="13.62920"><ele>782</ele><time>2023-09-17T05:25:21Z</time></trkpt>
    <trkpt lat="47.84205" lon="13.62938"><ele>764</ele><time>2023-09-17T05:25:40Z</time></trkpt>
    <trkpt lat="47.84201" lon="13.62954"><ele>777</ele><time>2023-09-17T05:25:59Z</time></trkpt>
    <trkpt lat="47.84186" lon="13.62957"><ele>780</ele><time>2023-09-17T05:26:36Z</time></trkpt>
    <trkpt lat="47.84169" lon="13.62967"><ele>780</ele><time>2023-09-17T05:26:55Z</time></trkpt>
    <trkpt lat="47.84159" lon="13.62979"><ele>773</ele><time>2023-09-17T05:27:13Z</time></trkpt>
    <trkpt lat="47.84153" lon="13.62992"><ele>783</ele><time>2023-09-17T05:27:50Z</time></trkpt>
    <trkpt lat="47.84148" lon="13.63006"><ele>785</ele><time>2023-09-17T05:28:08Z</time></trkpt>
    <trkpt lat="47.84138" lon="13.63014"><ele>789</ele><time>2023-09-17T05:28:26Z</time></trkpt>
    <trkpt lat="47.84122" lon="13.63025"><ele>787</ele><time>2023-09-17T05:28:45Z</time></trkpt>
    <trkpt lat="47.84109" lon="13.63036"><ele>791</ele><time>2023-09-17T05:29:22Z</time></trkpt>
    <trkpt lat="47.84104" lon="13.63054"><ele>791</ele><time>2023-09-17T05:29:40Z</time></trkpt>
    <trkpt lat="47.84100" lon="13.63080"><ele>794</ele><time>2023-09-17T05:29:59Z</time></trkpt>
    <trkpt lat="47.84089" lon="13.63105"><ele>799</ele><time>2023-09-17T05:30:18Z</time></trkpt>
    <trkpt lat="47.84086" lon="13.63134"><ele>802</ele><time>2023-09-17T05:30:36Z</time></trkpt>
    <trkpt lat="47.84083" lon="13.63163"><ele>802</ele><time>2023-09-17T05:30:55Z</time></trkpt>
    <trkpt lat="47.84083" lon="13.63185"><ele>800</ele><time>2023-09-17T05:31:14Z</time></trkpt>
    <trkpt lat="47.84088" lon="13.63210"><ele>804</ele><time>2023-09-17T05:31:33Z</time></trkpt>
    <trkpt lat="47.84082" lon="13.63235"><ele>800</ele><time>2023-09-17T05:31:51Z</time></trkpt>
    <trkpt lat="47.84085" lon="13.63261"><ele>802</ele><time>2023-09-17T05:32:10Z</time></trkpt>
    <trkpt lat="47.84097" lon="13.63286"><ele>805</ele><time>2023-09-17T05:32:28Z</time></trkpt>
    <trkpt lat="47.84090" lon="13.63311"><ele>812</ele><time>2023-09-17T05:32:46Z</time></trkpt>
    <trkpt lat="47.84088" lon="13.63330"><ele>811</ele><time>2023-09-17T05:33:04Z</time></trkpt>
    <trkpt lat="47.84088" lon="13.63355"><ele>808</ele><time>2023-09-17T05:33:23Z</time></trkpt>
    <trkpt lat="47.84088" lon="13.63382"><ele>811</ele><time>2023-09-17T05:33:42Z</time></trkpt>
    <trkpt lat="47.84083" lon="13.63409"><ele>817</ele><time>2023-09-17T05:34:01Z</time></trkpt>
    <trkpt lat="47.84079" lon="13.63435"><ele>816</ele><time>2023-09-17T05:34:20Z</time></trkpt>
    <trkpt lat="47.84075" lon="13.63461"><ele>819</ele><time>2023-09-17T05:34:38Z</time></trkpt>
    <trkpt lat="47.84075" lon="13.63485"><ele>823</ele><time>2023-09-17T05:34:56Z</time></trkpt>
    <trkpt lat="47.84071" lon="13.63515"><ele>824</ele><time>2023-09-17T05:35:15Z</time></trkpt>
    <trkpt lat="47.84071" lon="13.63538"><ele>822</ele><time>2023-09-17T05:35:33Z</time></trkpt>
    <trkpt lat="47.84067" lon="13.63562"><ele>827</ele><time>2023-09-17T05:35:51Z</time></trkpt>
    <trkpt lat="47.84068" lon="13.63581"><ele>829</ele><time>2023-09-17T05:36:10Z</time></trkpt>
    <trkpt lat="47.84067" lon="13.63604"><ele>827</ele><time>2023-09-17T05:36:28Z</time></trkpt>
    <trkpt lat="47.84065" lon="13.63628"><ele>829</ele><time>2023-09-17T05:36:47Z</time></trkpt>
    <trkpt lat="47.84059" lon="13.63653"><ele>831</ele><time>2023-09-17T05:37:05Z</time></trkpt>
    <trkpt lat="47.84053" lon="13.63678"><ele>831</ele><time>2023-09-17T05:37:23Z</time></trkpt>
    <trkpt lat="47.84053" lon="13.63706"><ele>836</ele><time>2023-09-17T05:37:41Z</time></trkpt>
    <trkpt lat="47.84054" lon="13.63726"><ele>841</ele><time>2023-09-17T05:38:00Z</time></trkpt>
    <trkpt lat="47.84050" lon="13.63750"><ele>838</ele><time>2023-09-17T05:38:18Z</time></trkpt>
    <trkpt lat="47.84051" lon="13.63770"><ele>841</ele><time>2023-09-17T05:38:36Z</time></trkpt>
    <trkpt lat="47.84043" lon="13.63792"><ele>831</ele><time>2023-09-17T05:38:55Z</time></trkpt>
    <trkpt lat="47.84038" lon="13.63804"><ele>847</ele><time>2023-09-17T05:39:14Z</time></trkpt>
    <trkpt lat="47.84045" lon="13.63814"><ele>855</ele><time>2023-09-17T05:41:43Z</time></trkpt>
    <trkpt lat="47.84048" lon="13.63831"><ele>855</ele><time>2023-09-17T05:42:01Z</time></trkpt>
    <trkpt lat="47.84055" lon="13.63859"><ele>866</ele><time>2023-09-17T05:42:38Z</time></trkpt>
    <trkpt lat="47.84047" lon="13.63881"><ele>864</ele><time>2023-09-17T05:42:57Z</time></trkpt>
    <trkpt lat="47.84041" lon="13.63895"><ele>858</ele><time>2023-09-17T05:43:16Z</time></trkpt>
    <trkpt lat="47.84033" lon="13.63907"><ele>855</ele><time>2023-09-17T05:43:34Z</time></trkpt>
    <trkpt lat="47.84027" lon="13.63922"><ele>866</ele><time>2023-09-17T05:43:53Z</time></trkpt>
    <trkpt lat="47.84022" lon="13.63944"><ele>865</ele><time>2023-09-17T05:44:12Z</time></trkpt>
    <trkpt lat="47.84019" lon="13.63957"><ele>868</ele><time>2023-09-17T05:44:31Z</time></trkpt>
    <trkpt lat="47.84013" lon="13.63973"><ele>866</ele><time>2023-09-17T05:44:49Z</time></trkpt>
    <trkpt lat="47.84007" lon="13.63992"><ele>875</ele><time>2023-09-17T05:45:08Z</time></trkpt>
    <trkpt lat="47.83999" lon="13.64003"><ele>864</ele><time>2023-09-17T05:45:26Z</time></trkpt>
    <trkpt lat="47.83996" lon="13.64017"><ele>875</ele><time>2023-09-17T05:45:44Z</time></trkpt>
    <trkpt lat="47.83987" lon="13.64044"><ele>885</ele><time>2023-09-17T05:46:21Z</time></trkpt>
    <trkpt lat="47.83983" lon="13.64059"><ele>890</ele><time>2023-09-17T05:46:58Z</time></trkpt>
    <trkpt lat="47.83981" lon="13.64073"><ele>890</ele><time>2023-09-17T05:47:17Z</time></trkpt>
    <trkpt lat="47.83981" lon="13.64088"><ele>891</ele><time>2023-09-17T05:47:35Z</time></trkpt>
    <trkpt lat="47.83995" lon="13.64110"><ele>908</ele><time>2023-09-17T05:48:13Z</time></trkpt>
    <trkpt lat="47.83990" lon="13.64125"><ele>905</ele><time>2023-09-17T05:48:31Z</time></trkpt>
    <trkpt lat="47.83990" lon="13.64139"><ele>902</ele><time>2023-09-17T05:48:49Z</time></trkpt>
    <trkpt lat="47.83992" lon="13.64152"><ele>908</ele><time>2023-09-17T05:49:08Z</time></trkpt>
    <trkpt lat="47.84001" lon="13.64173"><ele>921</ele><time>2023-09-17T05:49:45Z</time></trkpt>
    <trkpt lat="47.84001" lon="13.64195"><ele>917</ele><time>2023-09-17T05:50:03Z</time></trkpt>
    <trkpt lat="47.83993" lon="13.64214"><ele>922</ele><time>2023-09-17T05:50:40Z</time></trkpt>
    <trkpt lat="47.83982" lon="13.64206"><ele>932</ele><time>2023-09-17T05:51:17Z</time></trkpt>
    <trkpt lat="47.83963" lon="13.64218"><ele>935</ele><time>2023-09-17T05:51:54Z</time></trkpt>
    <trkpt lat="47.83948" lon="13.64216"><ele>941</ele><time>2023-09-17T05:52:49Z</time></trkpt>
    <trkpt lat="47.83944" lon="13.64200"><ele>943</ele><time>2023-09-17T05:53:46Z</time></trkpt>
    <trkpt lat="47.83936" lon="13.64188"><ele>953</ele><time>2023-09-17T05:54:22Z</time></trkpt>
    <trkpt lat="47.83929" lon="13.64196"><ele>951</ele><time>2023-09-17T05:54:40Z</time></trkpt>
    <trkpt lat="47.83919" lon="13.64177"><ele>940</ele><time>2023-09-17T05:55:18Z</time></trkpt>
    <trkpt lat="47.83916" lon="13.64162"><ele>946</ele><time>2023-09-17T05:55:37Z</time></trkpt>
    <trkpt lat="47.83905" lon="13.64151"><ele>939</ele><time>2023-09-17T05:55:56Z</time></trkpt>
    <trkpt lat="47.83889" lon="13.64133"><ele>971</ele><time>2023-09-17T05:56:32Z</time></trkpt>
    <trkpt lat="47.83883" lon="13.64109"><ele>978</ele><time>2023-09-17T05:56:50Z</time></trkpt>
    <trkpt lat="47.83873" lon="13.64087"><ele>959</ele><time>2023-09-17T05:57:27Z</time></trkpt>
    <trkpt lat="47.83862" lon="13.64065"><ele>990</ele><time>2023-09-17T05:58:04Z</time></trkpt>
    <trkpt lat="47.83859" lon="13.64043"><ele>975</ele><time>2023-09-17T05:58:41Z</time></trkpt>
    <trkpt lat="47.83856" lon="13.64025"><ele>994</ele><time>2023-09-17T05:59:00Z</time></trkpt>
    <trkpt lat="47.83851" lon="13.64011"><ele>996</ele><time>2023-09-17T05:59:18Z</time></trkpt>
    <trkpt lat="47.83836" lon="13.64005"><ele>995</ele><time>2023-09-17T05:59:36Z</time></trkpt>
    <trkpt lat="47.83827" lon="13.64003"><ele>992</ele><time>2023-09-17T05:59:54Z</time></trkpt>
    <trkpt lat="47.83822" lon="13.64015"><ele>995</ele><time>2023-09-17T06:00:13Z</time></trkpt>
    <trkpt lat="47.83834" lon="13.64019"><ele>1007</ele><time>2023-09-17T06:01:09Z</time></trkpt>
    <trkpt lat="47.83826" lon="13.64042"><ele>1008</ele><time>2023-09-17T06:02:22Z</time></trkpt>
    <trkpt lat="47.83818" lon="13.64055"><ele>996</ele><time>2023-09-17T06:02:41Z</time></trkpt>
    <trkpt lat="47.83815" lon="13.64071"><ele>958</ele><time>2023-09-17T06:03:18Z</time></trkpt>
    <trkpt lat="47.83803" lon="13.64093"><ele>1021</ele><time>2023-09-17T06:03:56Z</time></trkpt>
    <trkpt lat="47.83792" lon="13.64108"><ele>1030</ele><time>2023-09-17T06:04:34Z</time></trkpt>
    <trkpt lat="47.83781" lon="13.64134"><ele>1035</ele><time>2023-09-17T06:05:12Z</time></trkpt>
    <trkpt lat="47.83770" lon="13.64151"><ele>1049</ele><time>2023-09-17T06:05:48Z</time></trkpt>
    <trkpt lat="47.83761" lon="13.64159"><ele>1050</ele><time>2023-09-17T06:06:07Z</time></trkpt>
    <trkpt lat="47.83748" lon="13.64176"><ele>1061</ele><time>2023-09-17T06:06:44Z</time></trkpt>
    <trkpt lat="47.83742" lon="13.64188"><ele>1065</ele><time>2023-09-17T06:07:03Z</time></trkpt>
    <trkpt lat="47.83736" lon="13.64198"><ele>1061</ele><time>2023-09-17T06:07:22Z</time></trkpt>
    <trkpt lat="47.83720" lon="13.64201"><ele>1069</ele><time>2023-09-17T06:07:59Z</time></trkpt>
    <trkpt lat="47.83707" lon="13.64217"><ele>1077</ele><time>2023-09-17T06:08:36Z</time></trkpt>
    <trkpt lat="47.83689" lon="13.64228"><ele>1084</ele><time>2023-09-17T06:09:12Z</time></trkpt>
    <trkpt lat="47.83677" lon="13.64253"><ele>1077</ele><time>2023-09-17T06:09:49Z</time></trkpt>
    <trkpt lat="47.83666" lon="13.64266"><ele>1043</ele><time>2023-09-17T06:10:08Z</time></trkpt>
    <trkpt lat="47.83660" lon="13.64276"><ele>1077</ele><time>2023-09-17T06:10:26Z</time></trkpt>
    <trkpt lat="47.83654" lon="13.64294"><ele>1083</ele><time>2023-09-17T06:10:45Z</time></trkpt>
    <trkpt lat="47.83647" lon="13.64307"><ele>1097</ele><time>2023-09-17T06:11:04Z</time></trkpt>
    <trkpt lat="47.83633" lon="13.64321"><ele>1107</ele><time>2023-09-17T06:11:41Z</time></trkpt>
    <trkpt lat="47.83623" lon="13.64328"><ele>1105</ele><time>2023-09-17T06:11:59Z</time></trkpt>
    <trkpt lat="47.83614" lon="13.64331"><ele>1113</ele><time>2023-09-17T06:12:17Z</time></trkpt>
    <trkpt lat="47.83605" lon="13.64323"><ele>1107</ele><time>2023-09-17T06:12:54Z</time></trkpt>
    <trkpt lat="47.83603" lon="13.64309"><ele>1103</ele><time>2023-09-17T06:13:12Z</time></trkpt>
    <trkpt lat="47.83611" lon="13.64300"><ele>1068</ele><time>2023-09-17T06:13:31Z</time></trkpt>
    <trkpt lat="47.83612" lon="13.64274"><ele>1055</ele><time>2023-09-17T06:14:08Z</time></trkpt>
    <trkpt lat="47.83607" lon="13.64258"><ele>1083</ele><time>2023-09-17T06:14:27Z</time></trkpt>
    <trkpt lat="47.83591" lon="13.64256"><ele>1048</ele><time>2023-09-17T06:15:03Z</time></trkpt>
    <trkpt lat="47.83585" lon="13.64268"><ele>1114</ele><time>2023-09-17T06:15:21Z</time></trkpt>
    <trkpt lat="47.83581" lon="13.64282"><ele>1132</ele><time>2023-09-17T06:15:39Z</time></trkpt>
    <trkpt lat="47.83570" lon="13.64268"><ele>960</ele><time>2023-09-17T06:16:15Z</time></trkpt>
    <trkpt lat="47.83572" lon="13.64251"><ele>1089</ele><time>2023-09-17T06:16:34Z</time></trkpt>
    <trkpt lat="47.83561" lon="13.64258"><ele>1126</ele><time>2023-09-17T06:16:53Z</time></trkpt>
    <trkpt lat="47.83542" lon="13.64266"><ele>1150</ele><time>2023-09-17T06:18:24Z</time></trkpt>
    <trkpt lat="47.83532" lon="13.64277"><ele>1146</ele><time>2023-09-17T06:19:02Z</time></trkpt>
    <trkpt lat="47.83529" lon="13.64257"><ele>1138</ele><time>2023-09-17T06:19:39Z</time></trkpt>
    <trkpt lat="47.83528" lon="13.64237"><ele>1030</ele><time>2023-09-17T06:20:16Z</time></trkpt>
    <trkpt lat="47.83519" lon="13.64222"><ele>1151</ele><time>2023-09-17T06:20:35Z</time></trkpt>
    <trkpt lat="47.83517" lon="13.64207"><ele>1162</ele><time>2023-09-17T06:21:12Z</time></trkpt>
    <trkpt lat="47.83513" lon="13.64194"><ele>1177</ele><time>2023-09-17T06:21:31Z</time></trkpt>
    <trkpt lat="47.83508" lon="13.64176"><ele>1070</ele><time>2023-09-17T06:21:49Z</time></trkpt>
    <trkpt lat="47.83510" lon="13.64153"><ele>1176</ele><time>2023-09-17T06:22:26Z</time></trkpt>
    <trkpt lat="47.83504" lon="13.64134"><ele>1185</ele><time>2023-09-17T06:23:03Z</time></trkpt>
    <trkpt lat="47.83497" lon="13.64118"><ele>1180</ele><time>2023-09-17T06:24:17Z</time></trkpt>
    <trkpt lat="47.83491" lon="13.64108"><ele>1156</ele><time>2023-09-17T06:24:54Z</time></trkpt>
    <trkpt lat="47.83485" lon="13.64091"><ele>1182</ele><time>2023-09-17T06:26:26Z</time></trkpt>
    <trkpt lat="47.83483" lon="13.64072"><ele>1205</ele><time>2023-09-17T06:27:03Z</time></trkpt>
    <trkpt lat="47.83480" lon="13.64056"><ele>1202</ele><time>2023-09-17T06:27:40Z</time></trkpt>
    <trkpt lat="47.83472" lon="13.64029"><ele>1195</ele><time>2023-09-17T06:28:16Z</time></trkpt>
    <trkpt lat="47.83468" lon="13.64008"><ele>1192</ele><time>2023-09-17T06:28:53Z</time></trkpt>
    <trkpt lat="47.83463" lon="13.63997"><ele>1283</ele><time>2023-09-17T06:29:12Z</time></trkpt>
    <trkpt lat="47.83453" lon="13.63986"><ele>1200</ele><time>2023-09-17T06:30:45Z</time></trkpt>
    <trkpt lat="47.83441" lon="13.63988"><ele>1217</ele><time>2023-09-17T06:31:41Z</time></trkpt>
    <trkpt lat="47.83430" lon="13.63991"><ele>1221</ele><time>2023-09-17T06:34:09Z</time></trkpt>
    <trkpt lat="47.83432" lon="13.64012"><ele>1286</ele><time>2023-09-17T06:35:05Z</time></trkpt>
    <trkpt lat="47.83431" lon="13.64028"><ele>1193</ele><time>2023-09-17T06:35:42Z</time></trkpt>
    <trkpt lat="47.83425" lon="13.64039"><ele>1476</ele><time>2023-09-17T06:36:01Z</time></trkpt>
    <trkpt lat="47.83430" lon="13.64053"><ele>1350</ele><time>2023-09-17T06:36:57Z</time></trkpt>
    <trkpt lat="47.83431" lon="13.64080"><ele>1767</ele><time>2023-09-17T06:37:51Z</time></trkpt>
    <trkpt lat="47.83440" lon="13.64082"><ele>1470</ele><time>2023-09-17T06:38:10Z</time></trkpt>
    <trkpt lat="47.83453" lon="13.64090"><ele>1269</ele><time>2023-09-17T06:39:24Z</time></trkpt>
    <trkpt lat="47.83443" lon="13.64092"><ele>1576</ele><time>2023-09-17T06:42:30Z</time></trkpt>
    <trkpt lat="47.83435" lon="13.64107"><ele>1277</ele><time>2023-09-17T06:43:26Z</time></trkpt>
    <trkpt lat="47.83423" lon="13.64114"><ele>1500</ele><time>2023-09-17T06:44:05Z</time></trkpt>
    <trkpt lat="47.83412" lon="13.64126"><ele>1513</ele><time>2023-09-17T06:44:41Z</time></trkpt>
    <trkpt lat="47.83411" lon="13.64145"><ele>1403</ele><time>2023-09-17T06:45:00Z</time></trkpt>
    <trkpt lat="47.83418" lon="13.64169"><ele>1338</ele><time>2023-09-17T06:45:19Z</time></trkpt>
    <trkpt lat="47.83422" lon="13.64186"><ele>1593</ele><time>2023-09-17T06:45:38Z</time></trkpt>
    <trkpt lat="47.83406" lon="13.64128"><ele>1307</ele><time>2023-09-17T06:50:00Z</time></trkpt>
    <trkpt lat="47.83391" lon="13.64125"><ele>1120</ele><time>2023-09-17T06:50:18Z</time></trkpt>
    <trkpt lat="47.83376" lon="13.64124"><ele>1285</ele><time>2023-09-17T06:50:54Z</time></trkpt>
    <trkpt lat="47.83366" lon="13.64132"><ele>1287</ele><time>2023-09-17T06:51:12Z</time></trkpt>
    <trkpt lat="47.83358" lon="13.64150"><ele>1284</ele><time>2023-09-17T06:51:49Z</time></trkpt>
    <trkpt lat="47.83348" lon="13.64154"><ele>1286</ele><time>2023-09-17T06:52:08Z</time></trkpt>
    <trkpt lat="47.83331" lon="13.64165"><ele>1261</ele><time>2023-09-17T06:53:03Z</time></trkpt>
    <trkpt lat="47.83322" lon="13.64169"><ele>1281</ele><time>2023-09-17T06:53:22Z</time></trkpt>
    <trkpt lat="47.83311" lon="13.64178"><ele>1286</ele><time>2023-09-17T06:53:59Z</time></trkpt>
    <trkpt lat="47.83301" lon="13.64174"><ele>1294</ele><time>2023-09-17T06:55:12Z</time></trkpt>
    <trkpt lat="47.83305" lon="13.64158"><ele>1296</ele><time>2023-09-17T06:56:09Z</time></trkpt>
    <trkpt lat="47.83296" lon="13.64151"><ele>1281</ele><time>2023-09-17T06:58:38Z</time></trkpt>
    <trkpt lat="47.83287" lon="13.64144"><ele>1300</ele><time>2023-09-17T06:59:34Z</time></trkpt>
    <trkpt lat="47.83275" lon="13.64153"><ele>1282</ele><time>2023-09-17T07:00:11Z</time></trkpt>
    <trkpt lat="47.83266" lon="13.64156"><ele>1271</ele><time>2023-09-17T07:01:07Z</time></trkpt>
    <trkpt lat="47.83264" lon="13.64140"><ele>1317</ele><time>2023-09-17T07:04:29Z</time></trkpt>
    <trkpt lat="47.83268" lon="13.64127"><ele>1316</ele><time>2023-09-17T07:05:07Z</time></trkpt>
    <trkpt lat="47.83260" lon="13.64133"><ele>1321</ele><time>2023-09-17T07:05:44Z</time></trkpt>
    <trkpt lat="47.83257" lon="13.64151"><ele>1309</ele><time>2023-09-17T07:06:39Z</time></trkpt>
    <trkpt lat="47.83260" lon="13.64164"><ele>1311</ele><time>2023-09-17T07:07:52Z</time></trkpt>
    <trkpt lat="47.83274" lon="13.64166"><ele>1309</ele><time>2023-09-17T07:08:47Z</time></trkpt>
    <trkpt lat="47.83265" lon="13.64173"><ele>1290</ele><time>2023-09-17T07:10:22Z</time></trkpt>
    <trkpt lat="47.83258" lon="13.64186"><ele>1290</ele><time>2023-09-17T07:10:59Z</time></trkpt>
    <trkpt lat="47.83250" lon="13.64177"><ele>1311</ele><time>2023-09-17T07:15:55Z</time></trkpt>
    <trkpt lat="47.83255" lon="13.64166"><ele>1295</ele><time>2023-09-17T07:17:10Z</time></trkpt>
    <trkpt lat="47.83265" lon="13.64157"><ele>1226</ele><time>2023-09-17T07:17:28Z</time></trkpt>
    <trkpt lat="47.83270" lon="13.64141"><ele>1326</ele><time>2023-09-17T07:18:24Z</time></trkpt>
    <trkpt lat="47.83267" lon="13.64126"><ele>1344</ele><time>2023-09-17T07:21:11Z</time></trkpt>
    <trkpt lat="47.83269" lon="13.64111"><ele>1346</ele><time>2023-09-17T07:22:24Z</time></trkpt>
    <trkpt lat="47.83280" lon="13.64116"><ele>1372</ele><time>2023-09-17T07:31:23Z</time></trkpt>
    <trkpt lat="47.83276" lon="13.64104"><ele>1362</ele><time>2023-09-17T07:40:02Z</time></trkpt>
    <trkpt lat="47.83264" lon="13.64095"><ele>1250</ele><time>2023-09-17T07:41:16Z</time></trkpt>
    <trkpt lat="47.83251" lon="13.64106"><ele>1281</ele><time>2023-09-17T07:42:12Z</time></trkpt>
    <trkpt lat="47.83239" lon="13.64099"><ele>1390</ele><time>2023-09-17T07:48:05Z</time></trkpt>
    <trkpt lat="47.83247" lon="13.64093"><ele>1398</ele><time>2023-09-17T07:48:43Z</time></trkpt>
    <trkpt lat="47.83241" lon="13.64079"><ele>1402</ele><time>2023-09-17T07:49:20Z</time></trkpt>
    <trkpt lat="47.83245" lon="13.64064"><ele>1387</ele><time>2023-09-17T07:50:15Z</time></trkpt>
    <trkpt lat="47.83235" lon="13.64063"><ele>1422</ele><time>2023-09-17T07:53:03Z</time></trkpt>
    <trkpt lat="47.83234" lon="13.64048"><ele>1425</ele><time>2023-09-17T07:54:17Z</time></trkpt>
    <trkpt lat="47.83228" lon="13.64036"><ele>1369</ele><time>2023-09-17T07:55:12Z</time></trkpt>
    <trkpt lat="47.83214" lon="13.64030"><ele>1276</ele><time>2023-09-17T07:55:49Z</time></trkpt>
    <trkpt lat="47.83203" lon="13.64026"><ele>1382</ele><time>2023-09-17T07:57:41Z</time></trkpt>
    <trkpt lat="47.83194" lon="13.64016"><ele>1469</ele><time>2023-09-17T07:58:19Z</time></trkpt>
    <trkpt lat="47.83189" lon="13.64003"><ele>1455</ele><time>2023-09-17T07:59:14Z</time></trkpt>
    <trkpt lat="47.83178" lon="13.64008"><ele>1475</ele><time>2023-09-17T08:00:26Z</time></trkpt>
    <trkpt lat="47.83166" lon="13.64018"><ele>1478</ele><time>2023-09-17T08:01:03Z</time></trkpt>
    <trkpt lat="47.83168" lon="13.64002"><ele>1485</ele><time>2023-09-17T08:03:32Z</time></trkpt>
    <trkpt lat="47.83166" lon="13.63985"><ele>1491</ele><time>2023-09-17T08:05:23Z</time></trkpt>
    <trkpt lat="47.83167" lon="13.63969"><ele>1492</ele><time>2023-09-17T08:06:38Z</time></trkpt>
    <trkpt lat="47.83177" lon="13.63950"><ele>1511</ele><time>2023-09-17T08:07:34Z</time></trkpt>
    <trkpt lat="47.83185" lon="13.63939"><ele>1503</ele><time>2023-09-17T08:07:52Z</time></trkpt>
    <trkpt lat="47.83190" lon="13.63923"><ele>1518</ele><time>2023-09-17T08:08:29Z</time></trkpt>
    <trkpt lat="47.83175" lon="13.63917"><ele>1523</ele><time>2023-09-17T08:09:43Z</time></trkpt>
    <trkpt lat="47.83181" lon="13.63907"><ele>1532</ele><time>2023-09-17T08:11:16Z</time></trkpt>
    <trkpt lat="47.83170" lon="13.63905"><ele>1537</ele><time>2023-09-17T08:55:25Z</time></trkpt>
    <trkpt lat="47.83162" lon="13.63897"><ele>1520</ele><time>2023-09-17T08:56:02Z</time></trkpt>
    <trkpt lat="47.83156" lon="13.63874"><ele>1504</ele><time>2023-09-17T08:56:40Z</time></trkpt>
    <trkpt lat="47.83149" lon="13.63862"><ele>1527</ele><time>2023-09-17T08:57:18Z</time></trkpt>
    <trkpt lat="47.83162" lon="13.63855"><ele>1490</ele><time>2023-09-17T08:59:07Z</time></trkpt>
    <trkpt lat="47.83172" lon="13.63850"><ele>1488</ele><time>2023-09-17T09:00:02Z</time></trkpt>
    <trkpt lat="47.83177" lon="13.63834"><ele>1488</ele><time>2023-09-17T09:01:36Z</time></trkpt>
    <trkpt lat="47.83186" lon="13.63828"><ele>1482</ele><time>2023-09-17T09:02:12Z</time></trkpt>
    <trkpt lat="47.83189" lon="13.63816"><ele>1469</ele><time>2023-09-17T09:04:22Z</time></trkpt>
    <trkpt lat="47.83197" lon="13.63807"><ele>1469</ele><time>2023-09-17T09:05:54Z</time></trkpt>
    <trkpt lat="47.83200" lon="13.63789"><ele>1476</ele><time>2023-09-17T09:06:50Z</time></trkpt>
    <trkpt lat="47.83205" lon="13.63772"><ele>1465</ele><time>2023-09-17T09:08:41Z</time></trkpt>
    <trkpt lat="47.83207" lon="13.63758"><ele>1403</ele><time>2023-09-17T09:09:36Z</time></trkpt>
    <trkpt lat="47.83211" lon="13.63745"><ele>1441</ele><time>2023-09-17T09:11:08Z</time></trkpt>
    <trkpt lat="47.83216" lon="13.63734"><ele>1438</ele><time>2023-09-17T09:11:46Z</time></trkpt>
    <trkpt lat="47.83226" lon="13.63721"><ele>1440</ele><time>2023-09-17T09:12:42Z</time></trkpt>
    <trkpt lat="47.83233" lon="13.63700"><ele>1442</ele><time>2023-09-17T09:13:19Z</time></trkpt>
    <trkpt lat="47.83246" lon="13.63690"><ele>1427</ele><time>2023-09-17T09:14:14Z</time></trkpt>
    <trkpt lat="47.83258" lon="13.63690"><ele>1420</ele><time>2023-09-17T09:14:33Z</time></trkpt>
    <trkpt lat="47.83260" lon="13.63705"><ele>1415</ele><time>2023-09-17T09:15:46Z</time></trkpt>
    <trkpt lat="47.83259" lon="13.63725"><ele>1422</ele><time>2023-09-17T09:18:14Z</time></trkpt>
    <trkpt lat="47.83268" lon="13.63727"><ele>1406</ele><time>2023-09-17T09:21:19Z</time></trkpt>
    <trkpt lat="47.83278" lon="13.63731"><ele>1392</ele><time>2023-09-17T09:22:34Z</time></trkpt>
    <trkpt lat="47.83286" lon="13.63744"><ele>1397</ele><time>2023-09-17T09:25:21Z</time></trkpt>
    <trkpt lat="47.83295" lon="13.63744"><ele>1419</ele><time>2023-09-17T09:27:32Z</time></trkpt>
    <trkpt lat="47.83299" lon="13.63758"><ele>1350</ele><time>2023-09-17T09:30:00Z</time></trkpt>
    <trkpt lat="47.83309" lon="13.63766"><ele>1348</ele><time>2023-09-17T09:30:19Z</time></trkpt>
    <trkpt lat="47.83328" lon="13.63774"><ele>1333</ele><time>2023-09-17T09:34:55Z</time></trkpt>
    <trkpt lat="47.83337" lon="13.63777"><ele>1349</ele><time>2023-09-17T09:35:13Z</time></trkpt>
    <trkpt lat="47.83346" lon="13.63783"><ele>1333</ele><time>2023-09-17T09:37:07Z</time></trkpt>
    <trkpt lat="47.83354" lon="13.63772"><ele>1274</ele><time>2023-09-17T09:37:45Z</time></trkpt>
    <trkpt lat="47.83358" lon="13.63789"><ele>1265</ele><time>2023-09-17T09:38:22Z</time></trkpt>
    <trkpt lat="47.83361" lon="13.63803"><ele>1335</ele><time>2023-09-17T09:38:59Z</time></trkpt>
    <trkpt lat="47.83367" lon="13.63829"><ele>1297</ele><time>2023-09-17T09:39:36Z</time></trkpt>
    <trkpt lat="47.83372" lon="13.63846"><ele>1272</ele><time>2023-09-17T09:39:54Z</time></trkpt>
    <trkpt lat="47.83384" lon="13.63858"><ele>1303</ele><time>2023-09-17T09:40:13Z</time></trkpt>
    <trkpt lat="47.83394" lon="13.63866"><ele>1265</ele><time>2023-09-17T09:40:50Z</time></trkpt>
    <trkpt lat="47.83391" lon="13.63881"><ele>1260</ele><time>2023-09-17T09:41:08Z</time></trkpt>
    <trkpt lat="47.83398" lon="13.63895"><ele>1252</ele><time>2023-09-17T09:41:27Z</time></trkpt>
    <trkpt lat="47.83401" lon="13.63913"><ele>1220</ele><time>2023-09-17T09:43:55Z</time></trkpt>
    <trkpt lat="47.83415" lon="13.63919"><ele>1233</ele><time>2023-09-17T09:44:14Z</time></trkpt>
    <trkpt lat="47.83421" lon="13.63938"><ele>1217</ele><time>2023-09-17T09:44:33Z</time></trkpt>
    <trkpt lat="47.83426" lon="13.63951"><ele>1256</ele><time>2023-09-17T09:44:51Z</time></trkpt>
    <trkpt lat="47.83426" lon="13.63965"><ele>1323</ele><time>2023-09-17T09:45:09Z</time></trkpt>
    <trkpt lat="47.83433" lon="13.63974"><ele>1220</ele><time>2023-09-17T09:45:47Z</time></trkpt>
    <trkpt lat="47.83449" lon="13.63970"><ele>1220</ele><time>2023-09-17T09:46:42Z</time></trkpt>
    <trkpt lat="47.83465" lon="13.63968"><ele>1320</ele><time>2023-09-17T09:47:57Z</time></trkpt>
    <trkpt lat="47.83471" lon="13.63983"><ele>1343</ele><time>2023-09-17T09:48:34Z</time></trkpt>
    <trkpt lat="47.83481" lon="13.64002"><ele>1271</ele><time>2023-09-17T09:49:49Z</time></trkpt>
    <trkpt lat="47.83482" lon="13.64026"><ele>1196</ele><time>2023-09-17T09:50:25Z</time></trkpt>
    <trkpt lat="47.83486" lon="13.64041"><ele>1199</ele><time>2023-09-17T09:51:03Z</time></trkpt>
    <trkpt lat="47.83487" lon="13.64060"><ele>1244</ele><time>2023-09-17T09:51:41Z</time></trkpt>
    <trkpt lat="47.83494" lon="13.64077"><ele>1354</ele><time>2023-09-17T09:52:00Z</time></trkpt>
    <trkpt lat="47.83492" lon="13.64099"><ele>1199</ele><time>2023-09-17T09:52:18Z</time></trkpt>
    <trkpt lat="47.83503" lon="13.64116"><ele>1187</ele><time>2023-09-17T09:52:36Z</time></trkpt>
    <trkpt lat="47.83505" lon="13.64140"><ele>1186</ele><time>2023-09-17T09:55:05Z</time></trkpt>
    <trkpt lat="47.83512" lon="13.64159"><ele>1179</ele><time>2023-09-17T09:55:24Z</time></trkpt>
    <trkpt lat="47.83514" lon="13.64178"><ele>1328</ele><time>2023-09-17T09:55:42Z</time></trkpt>
    <trkpt lat="47.83515" lon="13.64200"><ele>1176</ele><time>2023-09-17T09:56:00Z</time></trkpt>
    <trkpt lat="47.83516" lon="13.64217"><ele>1173</ele><time>2023-09-17T09:56:18Z</time></trkpt>
    <trkpt lat="47.83525" lon="13.64235"><ele>1183</ele><time>2023-09-17T09:56:37Z</time></trkpt>
    <trkpt lat="47.83533" lon="13.64243"><ele>1180</ele><time>2023-09-17T09:56:56Z</time></trkpt>
    <trkpt lat="47.83530" lon="13.64264"><ele>958</ele><time>2023-09-17T09:57:15Z</time></trkpt>
    <trkpt lat="47.83539" lon="13.64277"><ele>1148</ele><time>2023-09-17T09:57:51Z</time></trkpt>
    <trkpt lat="47.83553" lon="13.64258"><ele>1156</ele><time>2023-09-17T09:58:29Z</time></trkpt>
    <trkpt lat="47.83564" lon="13.64252"><ele>1151</ele><time>2023-09-17T09:58:47Z</time></trkpt>
    <trkpt lat="47.83574" lon="13.64260"><ele>1140</ele><time>2023-09-17T09:59:06Z</time></trkpt>
    <trkpt lat="47.83575" lon="13.64281"><ele>1122</ele><time>2023-09-17T09:59:43Z</time></trkpt>
    <trkpt lat="47.83589" lon="13.64272"><ele>1130</ele><time>2023-09-17T10:00:02Z</time></trkpt>
    <trkpt lat="47.83594" lon="13.64258"><ele>1130</ele><time>2023-09-17T10:00:21Z</time></trkpt>
    <trkpt lat="47.83603" lon="13.64254"><ele>1126</ele><time>2023-09-17T10:00:39Z</time></trkpt>
    <trkpt lat="47.83610" lon="13.64269"><ele>1093</ele><time>2023-09-17T10:00:58Z</time></trkpt>
    <trkpt lat="47.83610" lon="13.64290"><ele>1114</ele><time>2023-09-17T10:01:17Z</time></trkpt>
    <trkpt lat="47.83606" lon="13.64316"><ele>1092</ele><time>2023-09-17T10:01:35Z</time></trkpt>
    <trkpt lat="47.83610" lon="13.64335"><ele>1099</ele><time>2023-09-17T10:01:53Z</time></trkpt>
    <trkpt lat="47.83630" lon="13.64323"><ele>1098</ele><time>2023-09-17T10:02:29Z</time></trkpt>
    <trkpt lat="47.83639" lon="13.64316"><ele>1094</ele><time>2023-09-17T10:02:47Z</time></trkpt>
    <trkpt lat="47.83651" lon="13.64303"><ele>1095</ele><time>2023-09-17T10:03:06Z</time></trkpt>
    <trkpt lat="47.83664" lon="13.64285"><ele>1102</ele><time>2023-09-17T10:03:25Z</time></trkpt>
    <trkpt lat="47.83674" lon="13.64270"><ele>1100</ele><time>2023-09-17T10:03:44Z</time></trkpt>
    <trkpt lat="47.83689" lon="13.64248"><ele>1068</ele><time>2023-09-17T10:04:03Z</time></trkpt>
    <trkpt lat="47.83698" lon="13.64231"><ele>1086</ele><time>2023-09-17T10:04:22Z</time></trkpt>
    <trkpt lat="47.83710" lon="13.64213"><ele>1080</ele><time>2023-09-17T10:04:40Z</time></trkpt>
    <trkpt lat="47.83719" lon="13.64208"><ele>1078</ele><time>2023-09-17T10:04:58Z</time></trkpt>
    <trkpt lat="47.83736" lon="13.64192"><ele>1068</ele><time>2023-09-17T10:05:35Z</time></trkpt>
    <trkpt lat="47.83743" lon="13.64182"><ele>1060</ele><time>2023-09-17T10:05:54Z</time></trkpt>
    <trkpt lat="47.83761" lon="13.64165"><ele>1061</ele><time>2023-09-17T10:06:13Z</time></trkpt>
    <trkpt lat="47.83769" lon="13.64159"><ele>1049</ele><time>2023-09-17T10:06:32Z</time></trkpt>
    <trkpt lat="47.83778" lon="13.64144"><ele>1048</ele><time>2023-09-17T10:06:51Z</time></trkpt>
    <trkpt lat="47.83786" lon="13.64124"><ele>1049</ele><time>2023-09-17T10:07:09Z</time></trkpt>
    <trkpt lat="47.83797" lon="13.64107"><ele>1049</ele><time>2023-09-17T10:07:28Z</time></trkpt>
    <trkpt lat="47.83804" lon="13.64095"><ele>1048</ele><time>2023-09-17T10:07:46Z</time></trkpt>
    <trkpt lat="47.83816" lon="13.64076"><ele>1037</ele><time>2023-09-17T10:08:23Z</time></trkpt>
    <trkpt lat="47.83827" lon="13.64054"><ele>1023</ele><time>2023-09-17T10:27:51Z</time></trkpt>
    <trkpt lat="47.83834" lon="13.64033"><ele>1020</ele><time>2023-09-17T10:28:10Z</time></trkpt>
    <trkpt lat="47.83828" lon="13.64021"><ele>1014</ele><time>2023-09-17T10:28:29Z</time></trkpt>
    <trkpt lat="47.83826" lon="13.64003"><ele>1014</ele><time>2023-09-17T10:28:47Z</time></trkpt>
    <trkpt lat="47.83843" lon="13.64010"><ele>978</ele><time>2023-09-17T10:29:43Z</time></trkpt>
    <trkpt lat="47.83850" lon="13.64028"><ele>957</ele><time>2023-09-17T10:30:01Z</time></trkpt>
    <trkpt lat="47.83855" lon="13.64053"><ele>985</ele><time>2023-09-17T10:30:20Z</time></trkpt>
    <trkpt lat="47.83853" lon="13.64080"><ele>966</ele><time>2023-09-17T10:30:39Z</time></trkpt>
    <trkpt lat="47.83867" lon="13.64093"><ele>981</ele><time>2023-09-17T10:30:57Z</time></trkpt>
    <trkpt lat="47.83876" lon="13.64114"><ele>982</ele><time>2023-09-17T10:31:15Z</time></trkpt>
    <trkpt lat="47.83885" lon="13.64130"><ele>974</ele><time>2023-09-17T10:31:34Z</time></trkpt>
    <trkpt lat="47.83891" lon="13.64142"><ele>977</ele><time>2023-09-17T10:31:52Z</time></trkpt>
    <trkpt lat="47.83906" lon="13.64154"><ele>976</ele><time>2023-09-17T10:32:10Z</time></trkpt>
    <trkpt lat="47.83920" lon="13.64176"><ele>978</ele><time>2023-09-17T10:32:29Z</time></trkpt>
    <trkpt lat="47.83937" lon="13.64189"><ele>978</ele><time>2023-09-17T10:32:48Z</time></trkpt>
    <trkpt lat="47.83947" lon="13.64202"><ele>947</ele><time>2023-09-17T10:33:43Z</time></trkpt>
    <trkpt lat="47.83954" lon="13.64214"><ele>940</ele><time>2023-09-17T10:34:19Z</time></trkpt>
    <trkpt lat="47.83968" lon="13.64214"><ele>940</ele><time>2023-09-17T10:34:37Z</time></trkpt>
    <trkpt lat="47.83989" lon="13.64212"><ele>943</ele><time>2023-09-17T10:35:13Z</time></trkpt>
    <trkpt lat="47.84006" lon="13.64202"><ele>922</ele><time>2023-09-17T10:35:32Z</time></trkpt>
    <trkpt lat="47.84001" lon="13.64177"><ele>922</ele><time>2023-09-17T10:35:50Z</time></trkpt>
    <trkpt lat="47.83995" lon="13.64157"><ele>922</ele><time>2023-09-17T10:36:09Z</time></trkpt>
    <trkpt lat="47.83994" lon="13.64131"><ele>915</ele><time>2023-09-17T10:36:28Z</time></trkpt>
    <trkpt lat="47.83987" lon="13.64112"><ele>912</ele><time>2023-09-17T10:36:46Z</time></trkpt>
    <trkpt lat="47.83982" lon="13.64096"><ele>905</ele><time>2023-09-17T10:37:04Z</time></trkpt>
    <trkpt lat="47.83980" lon="13.64073"><ele>910</ele><time>2023-09-17T10:37:23Z</time></trkpt>
    <trkpt lat="47.83986" lon="13.64051"><ele>899</ele><time>2023-09-17T10:37:41Z</time></trkpt>
    <trkpt lat="47.83994" lon="13.64036"><ele>904</ele><time>2023-09-17T10:38:00Z</time></trkpt>
    <trkpt lat="47.84002" lon="13.64021"><ele>897</ele><time>2023-09-17T10:38:19Z</time></trkpt>
    <trkpt lat="47.84010" lon="13.64001"><ele>889</ele><time>2023-09-17T10:38:37Z</time></trkpt>
    <trkpt lat="47.84017" lon="13.63976"><ele>882</ele><time>2023-09-17T10:38:56Z</time></trkpt>
    <trkpt lat="47.84024" lon="13.63951"><ele>879</ele><time>2023-09-17T10:39:14Z</time></trkpt>
    <trkpt lat="47.84032" lon="13.63931"><ele>873</ele><time>2023-09-17T10:39:33Z</time></trkpt>
    <trkpt lat="47.84043" lon="13.63906"><ele>874</ele><time>2023-09-17T10:39:51Z</time></trkpt>
    <trkpt lat="47.84051" lon="13.63878"><ele>874</ele><time>2023-09-17T10:40:10Z</time></trkpt>
    <trkpt lat="47.84055" lon="13.63848"><ele>867</ele><time>2023-09-17T10:40:28Z</time></trkpt>
    <trkpt lat="47.84045" lon="13.63825"><ele>860</ele><time>2023-09-17T10:40:47Z</time></trkpt>
    <trkpt lat="47.84043" lon="13.63801"><ele>855</ele><time>2023-09-17T10:41:06Z</time></trkpt>
    <trkpt lat="47.84053" lon="13.63776"><ele>850</ele><time>2023-09-17T10:41:23Z</time></trkpt>
    <trkpt lat="47.84056" lon="13.63747"><ele>851</ele><time>2023-09-17T10:41:43Z</time></trkpt>
    <trkpt lat="47.84056" lon="13.63722"><ele>841</ele><time>2023-09-17T10:42:01Z</time></trkpt>
    <trkpt lat="47.84059" lon="13.63690"><ele>837</ele><time>2023-09-17T10:42:19Z</time></trkpt>
    <trkpt lat="47.84062" lon="13.63645"><ele>839</ele><time>2023-09-17T10:42:38Z</time></trkpt>
    <trkpt lat="47.84062" lon="13.63605"><ele>842</ele><time>2023-09-17T10:42:57Z</time></trkpt>
    <trkpt lat="47.84066" lon="13.63573"><ele>842</ele><time>2023-09-17T10:43:15Z</time></trkpt>
    <trkpt lat="47.84069" lon="13.63537"><ele>842</ele><time>2023-09-17T10:43:34Z</time></trkpt>
    <trkpt lat="47.84071" lon="13.63504"><ele>835</ele><time>2023-09-17T10:43:53Z</time></trkpt>
    <trkpt lat="47.84075" lon="13.63476"><ele>839</ele><time>2023-09-17T10:44:12Z</time></trkpt>
    <trkpt lat="47.84081" lon="13.63444"><ele>834</ele><time>2023-09-17T10:44:30Z</time></trkpt>
    <trkpt lat="47.84086" lon="13.63403"><ele>828</ele><time>2023-09-17T10:44:48Z</time></trkpt>
    <trkpt lat="47.84088" lon="13.63372"><ele>818</ele><time>2023-09-17T10:45:06Z</time></trkpt>
    <trkpt lat="47.84091" lon="13.63342"><ele>817</ele><time>2023-09-17T10:45:25Z</time></trkpt>
    <trkpt lat="47.84087" lon="13.63315"><ele>812</ele><time>2023-09-17T10:45:44Z</time></trkpt>
    <trkpt lat="47.84084" lon="13.63276"><ele>813</ele><time>2023-09-17T10:46:03Z</time></trkpt>
    <trkpt lat="47.84082" lon="13.63248"><ele>807</ele><time>2023-09-17T10:46:21Z</time></trkpt>
    <trkpt lat="47.84082" lon="13.63207"><ele>805</ele><time>2023-09-17T10:46:40Z</time></trkpt>
    <trkpt lat="47.84082" lon="13.63173"><ele>809</ele><time>2023-09-17T10:46:58Z</time></trkpt>
    <trkpt lat="47.84084" lon="13.63141"><ele>804</ele><time>2023-09-17T10:47:17Z</time></trkpt>
    <trkpt lat="47.84089" lon="13.63108"><ele>934</ele><time>2023-09-17T10:47:35Z</time></trkpt>
    <trkpt lat="47.84096" lon="13.63081"><ele>814</ele><time>2023-09-17T10:47:53Z</time></trkpt>
    <trkpt lat="47.84103" lon="13.63044"><ele>815</ele><time>2023-09-17T10:48:12Z</time></trkpt>
    <trkpt lat="47.84113" lon="13.63014"><ele>801</ele><time>2023-09-17T10:48:30Z</time></trkpt>
    <trkpt lat="47.84115" lon="13.62978"><ele>797</ele><time>2023-09-17T10:48:48Z</time></trkpt>
    <trkpt lat="47.84115" lon="13.62944"><ele>794</ele><time>2023-09-17T10:49:07Z</time></trkpt>
    <trkpt lat="47.84102" lon="13.62917"><ele>795</ele><time>2023-09-17T10:49:25Z</time></trkpt>
    <trkpt lat="47.84096" lon="13.62900"><ele>772</ele><time>2023-09-17T10:49:44Z</time></trkpt>
    <trkpt lat="47.84092" lon="13.62868"><ele>766</ele><time>2023-09-17T10:50:02Z</time></trkpt>
    <trkpt lat="47.84101" lon="13.62829"><ele>777</ele><time>2023-09-17T10:50:21Z</time></trkpt>
    <trkpt lat="47.84120" lon="13.62812"><ele>789</ele><time>2023-09-17T10:50:40Z</time></trkpt>
    <trkpt lat="47.84138" lon="13.62807"><ele>785</ele><time>2023-09-17T10:50:58Z</time></trkpt>
    <trkpt lat="47.84160" lon="13.62814"><ele>782</ele><time>2023-09-17T10:51:16Z</time></trkpt>
    <trkpt lat="47.84183" lon="13.62824"><ele>784</ele><time>2023-09-17T10:51:35Z</time></trkpt>
    <trkpt lat="47.84205" lon="13.62837"><ele>779</ele><time>2023-09-17T10:51:53Z</time></trkpt>
    <trkpt lat="47.84232" lon="13.62858"><ele>785</ele><time>2023-09-17T10:52:11Z</time></trkpt>
    <trkpt lat="47.84255" lon="13.62875"><ele>781</ele><time>2023-09-17T10:52:30Z</time></trkpt>
    <trkpt lat="47.84277" lon="13.62888"><ele>777</ele><time>2023-09-17T10:52:48Z</time></trkpt>
    <trkpt lat="47.84296" lon="13.62902"><ele>775</ele><time>2023-09-17T10:53:06Z</time></trkpt>
    <trkpt lat="47.84317" lon="13.62923"><ele>777</ele><time>2023-09-17T10:53:25Z</time></trkpt>
    <trkpt lat="47.84338" lon="13.62938"><ele>779</ele><time>2023-09-17T10:53:43Z</time></trkpt>
    <trkpt lat="47.84325" lon="13.62966"><ele>766</ele><time>2023-09-17T10:54:01Z</time></trkpt>
    <trkpt lat="47.84317" lon="13.62972"><ele>767</ele><time>2023-09-17T10:56:49Z</time></trkpt>
  </trkseg>
</trk>
</gpx>