<?xml version="1.0" encoding="UTF-8"?>
<gpx version="1.1" creator="GPX-Pro" xmlns="http://www.topografix.com/GPX/1/1">
<trk>
  <name>Mtb_Pregarten-Enns</name>
  <trkseg>
    <trkpt lat="48.35583" lon="14.52283"><ele>403</ele><time>2023-09-06T13:19:23Z</time></trkpt>
    <trkpt lat="48.35579" lon="14.52258"><ele>418</ele><time>2023-09-06T13:20:01Z</time></trkpt>
    <trkpt lat="48.35548" lon="14.52225"><ele>418</ele><time>2023-09-06T13:20:19Z</time></trkpt>
    <trkpt lat="48.35534" lon="14.52226"><ele>416</ele><time>2023-09-06T13:20:56Z</time></trkpt>
    <trkpt lat="48.35530" lon="14.52397"><ele>404</ele><time>2023-09-06T13:21:15Z</time></trkpt>
    <trkpt lat="48.35524" lon="14.52643"><ele>395</ele><time>2023-09-06T13:21:33Z</time></trkpt>
    <trkpt lat="48.35479" lon="14.52755"><ele>399</ele><time>2023-09-06T13:21:51Z</time></trkpt>
    <trkpt lat="48.35460" lon="14.52850"><ele>402</ele><time>2023-09-06T13:22:10Z</time></trkpt>
    <trkpt lat="48.35448" lon="14.52931"><ele>412</ele><time>2023-09-06T13:22:29Z</time></trkpt>
    <trkpt lat="48.35443" lon="14.53009"><ele>410</ele><time>2023-09-06T13:22:48Z</time></trkpt>
    <trkpt lat="48.35448" lon="14.53074"><ele>416</ele><time>2023-09-06T13:23:06Z</time></trkpt>
    <trkpt lat="48.35462" lon="14.53141"><ele>416</ele><time>2023-09-06T13:23:25Z</time></trkpt>
    <trkpt lat="48.35466" lon="14.53205"><ele>411</ele><time>2023-09-06T13:23:43Z</time></trkpt>
    <trkpt lat="48.35458" lon="14.53300"><ele>413</ele><time>2023-09-06T13:24:02Z</time></trkpt>
    <trkpt lat="48.35418" lon="14.53370"><ele>419</ele><time>2023-09-06T13:24:20Z</time></trkpt>
    <trkpt lat="48.35369" lon="14.53462"><ele>420</ele><time>2023-09-06T13:24:39Z</time></trkpt>
    <trkpt lat="48.35329" lon="14.53560"><ele>419</ele><time>2023-09-06T13:24:57Z</time></trkpt>
    <trkpt lat="48.35284" lon="14.53643"><ele>421</ele><time>2023-09-06T13:25:15Z</time></trkpt>
    <trkpt lat="48.35252" lon="14.53706"><ele>422</ele><time>2023-09-06T13:25:34Z</time></trkpt>
    <trkpt lat="48.35229" lon="14.53786"><ele>423</ele><time>2023-09-06T13:25:53Z</time></trkpt>
    <trkpt lat="48.35223" lon="14.53838"><ele>424</ele><time>2023-09-06T13:26:11Z</time></trkpt>
    <trkpt lat="48.35247" lon="14.53744"><ele>426</ele><time>2023-09-06T13:26:30Z</time></trkpt>
    <trkpt lat="48.35271" lon="14.53793"><ele>416</ele><time>2023-09-06T13:26:49Z</time></trkpt>
    <trkpt lat="48.35261" lon="14.53933"><ele>399</ele><time>2023-09-06T13:27:07Z</time></trkpt>
    <trkpt lat="48.35227" lon="14.54026"><ele>396</ele><time>2023-09-06T13:27:26Z</time></trkpt>
    <trkpt lat="48.35216" lon="14.54062"><ele>394</ele><time>2023-09-06T13:27:45Z</time></trkpt>
    <trkpt lat="48.35220" lon="14.54096"><ele>381</ele><time>2023-09-06T13:28:21Z</time></trkpt>
    <trkpt lat="48.35208" lon="14.54153"><ele>379</ele><time>2023-09-06T13:28:39Z</time></trkpt>
    <trkpt lat="48.35202" lon="14.54234"><ele>375</ele><time>2023-09-06T13:28:58Z</time></trkpt>
    <trkpt lat="48.35129" lon="14.54383"><ele>369</ele><time>2023-09-06T13:29:17Z</time></trkpt>
    <trkpt lat="48.35068" lon="14.54433"><ele>372</ele><time>2023-09-06T13:29:35Z</time></trkpt>
    <trkpt lat="48.35025" lon="14.54556"><ele>365</ele><time>2023-09-06T13:29:53Z</time></trkpt>
    <trkpt lat="48.34966" lon="14.54620"><ele>373</ele><time>2023-09-06T13:30:12Z</time></trkpt>
    <trkpt lat="48.34914" lon="14.54693"><ele>371</ele><time>2023-09-06T13:30:30Z</time></trkpt>
    <trkpt lat="48.34864" lon="14.54753"><ele>373</ele><time>2023-09-06T13:30:49Z</time></trkpt>
    <trkpt lat="48.34813" lon="14.54800"><ele>373</ele><time>2023-09-06T13:31:07Z</time></trkpt>
    <trkpt lat="48.34768" lon="14.54846"><ele>375</ele><time>2023-09-06T13:31:26Z</time></trkpt>
    <trkpt lat="48.34738" lon="14.54889"><ele>374</ele><time>2023-09-06T13:31:44Z</time></trkpt>
    <trkpt lat="48.34824" lon="14.54959"><ele>364</ele><time>2023-09-06T13:32:03Z</time></trkpt>
    <trkpt lat="48.34894" lon="14.55060"><ele>349</ele><time>2023-09-06T13:32:21Z</time></trkpt>
    <trkpt lat="48.34941" lon="14.55175"><ele>351</ele><time>2023-09-06T13:32:39Z</time></trkpt>
    <trkpt lat="48.34951" lon="14.55238"><ele>356</ele><time>2023-09-06T13:32:58Z</time></trkpt>
    <trkpt lat="48.34981" lon="14.55266"><ele>359</ele><time>2023-09-06T13:33:16Z</time></trkpt>
    <trkpt lat="48.35017" lon="14.55271"><ele>362</ele><time>2023-09-06T13:33:34Z</time></trkpt>
    <trkpt lat="48.35034" lon="14.55273"><ele>363</ele><time>2023-09-06T13:33:53Z</time></trkpt>
    <trkpt lat="48.35028" lon="14.55289"><ele>361</ele><time>2023-09-06T13:34:11Z</time></trkpt>
    <trkpt lat="48.34977" lon="14.55456"><ele>353</ele><time>2023-09-06T13:34:30Z</time></trkpt>
    <trkpt lat="48.34933" lon="14.55502"><ele>355</ele><time>2023-09-06T13:34:49Z</time></trkpt>
    <trkpt lat="48.34896" lon="14.55545"><ele>360</ele><time>2023-09-06T13:35:07Z</time></trkpt>
    <trkpt lat="48.34862" lon="14.55591"><ele>366</ele><time>2023-09-06T13:35:26Z</time></trkpt>
    <trkpt lat="48.34853" lon="14.55648"><ele>370</ele><time>2023-09-06T13:35:44Z</time></trkpt>
    <trkpt lat="48.34853" lon="14.55713"><ele>372</ele><time>2023-09-06T13:36:03Z</time></trkpt>
    <trkpt lat="48.34843" lon="14.55772"><ele>376</ele><time>2023-09-06T13:36:22Z</time></trkpt>
    <trkpt lat="48.34815" lon="14.55804"><ele>380</ele><time>2023-09-06T13:36:40Z</time></trkpt>
    <trkpt lat="48.34783" lon="14.55840"><ele>383</ele><time>2023-09-06T13:36:59Z</time></trkpt>
    <trkpt lat="48.34750" lon="14.55881"><ele>385</ele><time>2023-09-06T13:37:18Z</time></trkpt>
    <trkpt lat="48.34691" lon="14.55906"><ele>383</ele><time>2023-09-06T13:37:36Z</time></trkpt>
    <trkpt lat="48.34612" lon="14.56033"><ele>375</ele><time>2023-09-06T13:37:55Z</time></trkpt>
    <trkpt lat="48.34591" lon="14.56174"><ele>376</ele><time>2023-09-06T13:38:13Z</time></trkpt>
    <trkpt lat="48.34541" lon="14.56218"><ele>375</ele><time>2023-09-06T13:38:32Z</time></trkpt>
    <trkpt lat="48.34505" lon="14.56283"><ele>377</ele><time>2023-09-06T13:38:51Z</time></trkpt>
    <trkpt lat="48.34461" lon="14.56321"><ele>378</ele><time>2023-09-06T13:39:09Z</time></trkpt>
    <trkpt lat="48.34415" lon="14.56357"><ele>384</ele><time>2023-09-06T13:39:28Z</time></trkpt>
    <trkpt lat="48.34368" lon="14.56402"><ele>387</ele><time>2023-09-06T13:39:47Z</time></trkpt>
    <trkpt lat="48.34316" lon="14.56435"><ele>391</ele><time>2023-09-06T13:40:05Z</time></trkpt>
    <trkpt lat="48.34274" lon="14.56490"><ele>391</ele><time>2023-09-06T13:40:24Z</time></trkpt>
    <trkpt lat="48.34228" lon="14.56532"><ele>384</ele><time>2023-09-06T13:40:42Z</time></trkpt>
    <trkpt lat="48.34121" lon="14.56644"><ele>367</ele><time>2023-09-06T13:41:00Z</time></trkpt>
    <trkpt lat="48.34175" lon="14.56677"><ele>368</ele><time>2023-09-06T13:41:19Z</time></trkpt>
    <trkpt lat="48.34159" lon="14.56716"><ele>368</ele><time>2023-09-06T13:41:37Z</time></trkpt>
    <trkpt lat="48.34056" lon="14.56794"><ele>360</ele><time>2023-09-06T13:41:56Z</time></trkpt>
    <trkpt lat="48.33910" lon="14.56928"><ele>329</ele><time>2023-09-06T13:42:14Z</time></trkpt>
    <trkpt lat="48.33834" lon="14.56912"><ele>347</ele><time>2023-09-06T13:42:33Z</time></trkpt>
    <trkpt lat="48.33777" lon="14.56803"><ele>332</ele><time>2023-09-06T13:42:52Z</time></trkpt>
    <trkpt lat="48.33766" lon="14.56771"><ele>329</ele><time>2023-09-06T13:43:10Z</time></trkpt>
    <trkpt lat="48.33742" lon="14.56811"><ele>336</ele><time>2023-09-06T13:43:29Z</time></trkpt>
    <trkpt lat="48.33687" lon="14.56884"><ele>331</ele><time>2023-09-06T13:43:48Z</time></trkpt>
    <trkpt lat="48.33635" lon="14.56964"><ele>330</ele><time>2023-09-06T13:44:07Z</time></trkpt>
    <trkpt lat="48.33613" lon="14.56977"><ele>329</ele><time>2023-09-06T13:44:25Z</time></trkpt>
    <trkpt lat="48.33561" lon="14.57048"><ele>330</ele><time>2023-09-06T13:44:43Z</time></trkpt>
    <trkpt lat="48.33504" lon="14.57133"><ele>329</ele><time>2023-09-06T13:45:01Z</time></trkpt>
    <trkpt lat="48.33442" lon="14.57223"><ele>330</ele><time>2023-09-06T13:45:20Z</time></trkpt>
    <trkpt lat="48.33422" lon="14.57328"><ele>335</ele><time>2023-09-06T13:45:39Z</time></trkpt>
    <trkpt lat="48.33423" lon="14.57403"><ele>340</ele><time>2023-09-06T13:45:58Z</time></trkpt>
    <trkpt lat="48.33462" lon="14.57386"><ele>342</ele><time>2023-09-06T13:46:16Z</time></trkpt>
    <trkpt lat="48.33478" lon="14.57370"><ele>345</ele><time>2023-09-06T13:46:35Z</time></trkpt>
    <trkpt lat="48.33478" lon="14.57413"><ele>349</ele><time>2023-09-06T13:46:54Z</time></trkpt>
    <trkpt lat="48.33481" lon="14.57444"><ele>352</ele><time>2023-09-06T13:47:12Z</time></trkpt>
    <trkpt lat="48.33483" lon="14.57473"><ele>357</ele><time>2023-09-06T13:47:30Z</time></trkpt>
    <trkpt lat="48.33485" lon="14.57507"><ele>365</ele><time>2023-09-06T13:47:48Z</time></trkpt>
    <trkpt lat="48.33490" lon="14.57535"><ele>369</ele><time>2023-09-06T13:48:07Z</time></trkpt>
    <trkpt lat="48.33493" lon="14.57565"><ele>368</ele><time>2023-09-06T13:48:25Z</time></trkpt>
    <trkpt lat="48.33497" lon="14.57600"><ele>369</ele><time>2023-09-06T13:48:44Z</time></trkpt>
    <trkpt lat="48.33494" lon="14.57641"><ele>366</ele><time>2023-09-06T13:49:02Z</time></trkpt>
    <trkpt lat="48.33421" lon="14.57790"><ele>353</ele><time>2023-09-06T13:49:21Z</time></trkpt>
    <trkpt lat="48.33411" lon="14.57849"><ele>347</ele><time>2023-09-06T13:49:40Z</time></trkpt>
    <trkpt lat="48.33436" lon="14.57870"><ele>348</ele><time>2023-09-06T13:49:58Z</time></trkpt>
    <trkpt lat="48.33466" lon="14.57878"><ele>352</ele><time>2023-09-06T13:50:16Z</time></trkpt>
    <trkpt lat="48.33503" lon="14.57873"><ele>353</ele><time>2023-09-06T13:50:35Z</time></trkpt>
    <trkpt lat="48.33536" lon="14.57890"><ele>355</ele><time>2023-09-06T13:50:53Z</time></trkpt>
    <trkpt lat="48.33561" lon="14.57917"><ele>354</ele><time>2023-09-06T13:51:11Z</time></trkpt>
    <trkpt lat="48.33570" lon="14.57911"><ele>360</ele><time>2023-09-06T13:51:30Z</time></trkpt>
    <trkpt lat="48.33595" lon="14.57911"><ele>362</ele><time>2023-09-06T13:52:07Z</time></trkpt>
    <trkpt lat="48.33618" lon="14.57925"><ele>349</ele><time>2023-09-06T13:52:26Z</time></trkpt>
    <trkpt lat="48.33637" lon="14.57939"><ele>364</ele><time>2023-09-06T13:52:44Z</time></trkpt>
    <trkpt lat="48.33660" lon="14.57958"><ele>359</ele><time>2023-09-06T13:53:02Z</time></trkpt>
    <trkpt lat="48.33682" lon="14.57972"><ele>355</ele><time>2023-09-06T13:53:20Z</time></trkpt>
    <trkpt lat="48.33696" lon="14.57999"><ele>363</ele><time>2023-09-06T13:53:39Z</time></trkpt>
    <trkpt lat="48.33707" lon="14.58027"><ele>369</ele><time>2023-09-06T13:53:58Z</time></trkpt>
    <trkpt lat="48.33712" lon="14.58058"><ele>377</ele><time>2023-09-06T13:54:16Z</time></trkpt>
    <trkpt lat="48.33715" lon="14.58084"><ele>385</ele><time>2023-09-06T13:54:35Z</time></trkpt>
    <trkpt lat="48.33719" lon="14.58117"><ele>396</ele><time>2023-09-06T13:54:53Z</time></trkpt>
    <trkpt lat="48.33726" lon="14.58146"><ele>403</ele><time>2023-09-06T13:55:12Z</time></trkpt>
    <trkpt lat="48.33729" lon="14.58174"><ele>409</ele><time>2023-09-06T13:55:30Z</time></trkpt>
    <trkpt lat="48.33735" lon="14.58202"><ele>412</ele><time>2023-09-06T13:55:48Z</time></trkpt>
    <trkpt lat="48.33754" lon="14.58218"><ele>417</ele><time>2023-09-06T13:56:07Z</time></trkpt>
    <trkpt lat="48.33773" lon="14.58254"><ele>407</ele><time>2023-09-06T13:56:25Z</time></trkpt>
    <trkpt lat="48.33757" lon="14.58306"><ele>417</ele><time>2023-09-06T13:56:44Z</time></trkpt>
    <trkpt lat="48.33742" lon="14.58355"><ele>422</ele><time>2023-09-06T13:57:02Z</time></trkpt>
    <trkpt lat="48.33719" lon="14.58405"><ele>421</ele><time>2023-09-06T13:57:20Z</time></trkpt>
    <trkpt lat="48.33691" lon="14.58480"><ele>420</ele><time>2023-09-06T13:57:39Z</time></trkpt>
    <trkpt lat="48.33636" lon="14.58606"><ele>415</ele><time>2023-09-06T13:57:57Z</time></trkpt>
    <trkpt lat="48.33564" lon="14.58736"><ele>411</ele><time>2023-09-06T13:58:15Z</time></trkpt>
    <trkpt lat="48.33575" lon="14.58813"><ele>414</ele><time>2023-09-06T13:58:34Z</time></trkpt>
    <trkpt lat="48.33595" lon="14.58876"><ele>419</ele><time>2023-09-06T13:58:52Z</time></trkpt>
    <trkpt lat="48.33614" lon="14.58922"><ele>426</ele><time>2023-09-06T13:59:10Z</time></trkpt>
    <trkpt lat="48.33638" lon="14.58949"><ele>427</ele><time>2023-09-06T13:59:29Z</time></trkpt>
    <trkpt lat="48.33654" lon="14.58975"><ele>430</ele><time>2023-09-06T13:59:47Z</time></trkpt>
    <trkpt lat="48.33666" lon="14.59009"><ele>437</ele><time>2023-09-06T14:00:06Z</time></trkpt>
    <trkpt lat="48.33670" lon="14.59049"><ele>442</ele><time>2023-09-06T14:00:25Z</time></trkpt>
    <trkpt lat="48.33673" lon="14.59093"><ele>441</ele><time>2023-09-06T14:00:44Z</time></trkpt>
    <trkpt lat="48.33679" lon="14.59134"><ele>442</ele><time>2023-09-06T14:01:02Z</time></trkpt>
    <trkpt lat="48.33683" lon="14.59177"><ele>446</ele><time>2023-09-06T14:01:20Z</time></trkpt>
    <trkpt lat="48.33681" lon="14.59221"><ele>447</ele><time>2023-09-06T14:01:39Z</time></trkpt>
    <trkpt lat="48.33654" lon="14.59227"><ele>451</ele><time>2023-09-06T14:01:58Z</time></trkpt>
    <trkpt lat="48.33631" lon="14.59262"><ele>454</ele><time>2023-09-06T14:02:17Z</time></trkpt>
    <trkpt lat="48.33617" lon="14.59325"><ele>447</ele><time>2023-09-06T14:02:36Z</time></trkpt>
    <trkpt lat="48.33628" lon="14.59381"><ele>456</ele><time>2023-09-06T14:02:54Z</time></trkpt>
    <trkpt lat="48.33675" lon="14.59386"><ele>455</ele><time>2023-09-06T14:03:13Z</time></trkpt>
    <trkpt lat="48.33720" lon="14.59391"><ele>459</ele><time>2023-09-06T14:03:32Z</time></trkpt>
    <trkpt lat="48.33754" lon="14.59407"><ele>462</ele><time>2023-09-06T14:03:50Z</time></trkpt>
    <trkpt lat="48.33772" lon="14.59453"><ele>452</ele><time>2023-09-06T14:04:08Z</time></trkpt>
    <trkpt lat="48.33801" lon="14.59452"><ele>470</ele><time>2023-09-06T14:04:26Z</time></trkpt>
    <trkpt lat="48.33808" lon="14.59398"><ele>476</ele><time>2023-09-06T14:04:45Z</time></trkpt>
    <trkpt lat="48.33829" lon="14.59391"><ele>472</ele><time>2023-09-06T14:05:04Z</time></trkpt>
    <trkpt lat="48.33843" lon="14.59433"><ele>481</ele><time>2023-09-06T14:05:22Z</time></trkpt>
    <trkpt lat="48.33860" lon="14.59467"><ele>479</ele><time>2023-09-06T14:05:40Z</time></trkpt>
    <trkpt lat="48.33884" lon="14.59502"><ele>487</ele><time>2023-09-06T14:05:59Z</time></trkpt>
    <trkpt lat="48.33908" lon="14.59533"><ele>490</ele><time>2023-09-06T14:06:18Z</time></trkpt>
    <trkpt lat="48.33931" lon="14.59553"><ele>492</ele><time>2023-09-06T14:06:36Z</time></trkpt>
    <trkpt lat="48.33961" lon="14.59549"><ele>497</ele><time>2023-09-06T14:06:55Z</time></trkpt>
    <trkpt lat="48.33988" lon="14.59535"><ele>502</ele><time>2023-09-06T14:07:13Z</time></trkpt>
    <trkpt lat="48.34016" lon="14.59498"><ele>505</ele><time>2023-09-06T14:07:32Z</time></trkpt>
    <trkpt lat="48.34085" lon="14.59440"><ele>501</ele><time>2023-09-06T14:07:51Z</time></trkpt>
    <trkpt lat="48.34184" lon="14.59441"><ele>499</ele><time>2023-09-06T14:08:09Z</time></trkpt>
    <trkpt lat="48.34227" lon="14.59440"><ele>504</ele><time>2023-09-06T14:08:27Z</time></trkpt>
    <trkpt lat="48.34267" lon="14.59440"><ele>506</ele><time>2023-09-06T14:08:46Z</time></trkpt>
    <trkpt lat="48.34309" lon="14.59440"><ele>507</ele><time>2023-09-06T14:09:04Z</time></trkpt>
    <trkpt lat="48.34383" lon="14.59467"><ele>505</ele><time>2023-09-06T14:09:23Z</time></trkpt>
    <trkpt lat="48.34412" lon="14.59598"><ele>506</ele><time>2023-09-06T14:09:41Z</time></trkpt>
    <trkpt lat="48.34417" lon="14.59698"><ele>508</ele><time>2023-09-06T14:10:00Z</time></trkpt>
    <trkpt lat="48.34423" lon="14.59770"><ele>510</ele><time>2023-09-06T14:10:18Z</time></trkpt>
    <trkpt lat="48.34428" lon="14.59840"><ele>512</ele><time>2023-09-06T14:10:37Z</time></trkpt>
    <trkpt lat="48.34427" lon="14.59904"><ele>515</ele><time>2023-09-06T14:10:56Z</time></trkpt>
    <trkpt lat="48.34404" lon="14.60003"><ele>513</ele><time>2023-09-06T14:11:15Z</time></trkpt>
    <trkpt lat="48.34380" lon="14.60109"><ele>514</ele><time>2023-09-06T14:11:33Z</time></trkpt>
    <trkpt lat="48.34370" lon="14.60200"><ele>516</ele><time>2023-09-06T14:11:52Z</time></trkpt>
    <trkpt lat="48.34379" lon="14.60276"><ele>516</ele><time>2023-09-06T14:12:11Z</time></trkpt>
    <trkpt lat="48.34407" lon="14.60247"><ele>520</ele><time>2023-09-06T14:12:29Z</time></trkpt>
    <trkpt lat="48.34431" lon="14.60225"><ele>524</ele><time>2023-09-06T14:12:47Z</time></trkpt>
    <trkpt lat="48.34456" lon="14.60211"><ele>526</ele><time>2023-09-06T14:13:06Z</time></trkpt>
    <trkpt lat="48.34462" lon="14.60255"><ele>527</ele><time>2023-09-06T14:13:25Z</time></trkpt>
    <trkpt lat="48.34469" lon="14.60299"><ele>532</ele><time>2023-09-06T14:13:43Z</time></trkpt>
    <trkpt lat="48.34465" lon="14.60350"><ele>534</ele><time>2023-09-06T14:14:01Z</time></trkpt>
    <trkpt lat="48.34470" lon="14.60399"><ele>537</ele><time>2023-09-06T14:14:20Z</time></trkpt>
    <trkpt lat="48.34477" lon="14.60445"><ele>542</ele><time>2023-09-06T14:14:38Z</time></trkpt>
    <trkpt lat="48.34490" lon="14.60487"><ele>544</ele><time>2023-09-06T14:14:56Z</time></trkpt>
    <trkpt lat="48.34506" lon="14.60504"><ele>541</ele><time>2023-09-06T14:15:15Z</time></trkpt>
    <trkpt lat="48.34523" lon="14.60515"><ele>550</ele><time>2023-09-06T14:15:33Z</time></trkpt>
    <trkpt lat="48.34556" lon="14.60536"><ele>572</ele><time>2023-09-06T14:15:52Z</time></trkpt>
    <trkpt lat="48.34574" lon="14.60574"><ele>552</ele><time>2023-09-06T14:16:11Z</time></trkpt>
    <trkpt lat="48.34581" lon="14.60619"><ele>554</ele><time>2023-09-06T14:18:19Z</time></trkpt>
    <trkpt lat="48.34586" lon="14.60681"><ele>550</ele><time>2023-09-06T14:18:38Z</time></trkpt>
    <trkpt lat="48.34587" lon="14.60749"><ele>551</ele><time>2023-09-06T14:18:57Z</time></trkpt>
    <trkpt lat="48.34598" lon="14.60818"><ele>552</ele><time>2023-09-06T14:19:16Z</time></trkpt>
    <trkpt lat="48.34610" lon="14.60868"><ele>569</ele><time>2023-09-06T14:19:34Z</time></trkpt>
    <trkpt lat="48.34668" lon="14.60840"><ele>592</ele><time>2023-09-06T14:19:53Z</time></trkpt>
    <trkpt lat="48.34735" lon="14.60803"><ele>579</ele><time>2023-09-06T14:20:12Z</time></trkpt>
    <trkpt lat="48.34781" lon="14.60820"><ele>555</ele><time>2023-09-06T14:20:31Z</time></trkpt>
    <trkpt lat="48.34807" lon="14.60845"><ele>549</ele><time>2023-09-06T14:20:49Z</time></trkpt>
    <trkpt lat="48.34825" lon="14.60904"><ele>559</ele><time>2023-09-06T14:21:08Z</time></trkpt>
    <trkpt lat="48.34818" lon="14.60959"><ele>565</ele><time>2023-09-06T14:21:27Z</time></trkpt>
    <trkpt lat="48.34799" lon="14.61003"><ele>560</ele><time>2023-09-06T14:21:45Z</time></trkpt>
    <trkpt lat="48.34786" lon="14.61050"><ele>574</ele><time>2023-09-06T14:22:04Z</time></trkpt>
    <trkpt lat="48.34784" lon="14.61123"><ele>571</ele><time>2023-09-06T14:22:22Z</time></trkpt>
    <trkpt lat="48.34789" lon="14.61216"><ele>564</ele><time>2023-09-06T14:22:41Z</time></trkpt>
    <trkpt lat="48.34785" lon="14.61288"><ele>576</ele><time>2023-09-06T14:22:59Z</time></trkpt>
    <trkpt lat="48.34772" lon="14.61366"><ele>566</ele><time>2023-09-06T14:23:18Z</time></trkpt>
    <trkpt lat="48.34737" lon="14.61434"><ele>572</ele><time>2023-09-06T14:23:37Z</time></trkpt>
    <trkpt lat="48.34663" lon="14.61473"><ele>569</ele><time>2023-09-06T14:23:55Z</time></trkpt>
    <trkpt lat="48.34549" lon="14.61612"><ele>555</ele><time>2023-09-06T14:24:14Z</time></trkpt>
    <trkpt lat="48.34479" lon="14.61802"><ele>549</ele><time>2023-09-06T14:24:33Z</time></trkpt>
    <trkpt lat="48.34449" lon="14.61952"><ele>544</ele><time>2023-09-06T14:24:52Z</time></trkpt>
    <trkpt lat="48.34383" lon="14.62015"><ele>524</ele><time>2023-09-06T14:25:11Z</time></trkpt>
    <trkpt lat="48.34229" lon="14.62102"><ele>517</ele><time>2023-09-06T14:25:30Z</time></trkpt>
    <trkpt lat="48.34084" lon="14.62129"><ele>511</ele><time>2023-09-06T14:25:49Z</time></trkpt>
    <trkpt lat="48.33959" lon="14.62155"><ele>507</ele><time>2023-09-06T14:26:07Z</time></trkpt>
    <trkpt lat="48.33947" lon="14.62215"><ele>502</ele><time>2023-09-06T14:26:26Z</time></trkpt>
    <trkpt lat="48.33950" lon="14.62247"><ele>496</ele><time>2023-09-06T14:27:03Z</time></trkpt>
    <trkpt lat="48.33952" lon="14.62385"><ele>492</ele><time>2023-09-06T14:27:22Z</time></trkpt>
    <trkpt lat="48.33916" lon="14.62519"><ele>481</ele><time>2023-09-06T14:27:40Z</time></trkpt>
    <trkpt lat="48.33851" lon="14.62631"><ele>532</ele><time>2023-09-06T14:27:58Z</time></trkpt>
    <trkpt lat="48.33809" lon="14.62770"><ele>478</ele><time>2023-09-06T14:28:16Z</time></trkpt>
    <trkpt lat="48.33796" lon="14.62806"><ele>469</ele><time>2023-09-06T14:28:35Z</time></trkpt>
    <trkpt lat="48.33733" lon="14.62874"><ele>455</ele><time>2023-09-06T14:28:54Z</time></trkpt>
    <trkpt lat="48.33695" lon="14.62929"><ele>465</ele><time>2023-09-06T14:29:13Z</time></trkpt>
    <trkpt lat="48.33669" lon="14.62938"><ele>464</ele><time>2023-09-06T14:29:31Z</time></trkpt>
    <trkpt lat="48.33706" lon="14.62902"><ele>455</ele><time>2023-09-06T14:29:49Z</time></trkpt>
    <trkpt lat="48.33746" lon="14.62832"><ele>457</ele><time>2023-09-06T14:30:08Z</time></trkpt>
    <trkpt lat="48.33793" lon="14.62806"><ele>488</ele><time>2023-09-06T14:30:27Z</time></trkpt>
    <trkpt lat="48.33768" lon="14.62837"><ele>454</ele><time>2023-09-06T14:30:45Z</time></trkpt>
    <trkpt lat="48.33735" lon="14.62951"><ele>445</ele><time>2023-09-06T14:31:03Z</time></trkpt>
    <trkpt lat="48.33656" lon="14.63072"><ele>460</ele><time>2023-09-06T14:31:21Z</time></trkpt>
    <trkpt lat="48.33618" lon="14.63237"><ele>428</ele><time>2023-09-06T14:31:39Z</time></trkpt>
    <trkpt lat="48.33631" lon="14.63158"><ele>421</ele><time>2023-09-06T14:32:17Z</time></trkpt>
    <trkpt lat="48.33644" lon="14.63092"><ele>426</ele><time>2023-09-06T14:32:35Z</time></trkpt>
    <trkpt lat="48.33675" lon="14.63053"><ele>430</ele><time>2023-09-06T14:32:54Z</time></trkpt>
    <trkpt lat="48.33716" lon="14.63054"><ele>419</ele><time>2023-09-06T14:33:13Z</time></trkpt>
    <trkpt lat="48.33743" lon="14.63050"><ele>430</ele><time>2023-09-06T14:33:32Z</time></trkpt>
    <trkpt lat="48.33767" lon="14.63044"><ele>439</ele><time>2023-09-06T14:33:50Z</time></trkpt>
    <trkpt lat="48.33787" lon="14.63030"><ele>436</ele><time>2023-09-06T14:34:09Z</time></trkpt>
    <trkpt lat="48.33802" lon="14.63015"><ele>444</ele><time>2023-09-06T14:34:27Z</time></trkpt>
    <trkpt lat="48.33821" lon="14.63015"><ele>443</ele><time>2023-09-06T14:34:45Z</time></trkpt>
    <trkpt lat="48.33838" lon="14.63016"><ele>449</ele><time>2023-09-06T14:35:03Z</time></trkpt>
    <trkpt lat="48.33859" lon="14.63011"><ele>486</ele><time>2023-09-06T14:35:22Z</time></trkpt>
    <trkpt lat="48.33876" lon="14.63019"><ele>459</ele><time>2023-09-06T14:35:40Z</time></trkpt>
    <trkpt lat="48.33903" lon="14.63031"><ele>461</ele><time>2023-09-06T14:35:59Z</time></trkpt>
    <trkpt lat="48.33922" lon="14.63051"><ele>464</ele><time>2023-09-06T14:36:18Z</time></trkpt>
    <trkpt lat="48.33941" lon="14.63078"><ele>470</ele><time>2023-09-06T14:36:36Z</time></trkpt>
    <trkpt lat="48.33948" lon="14.63104"><ele>474</ele><time>2023-09-06T14:36:54Z</time></trkpt>
    <trkpt lat="48.33943" lon="14.63133"><ele>478</ele><time>2023-09-06T14:37:12Z</time></trkpt>
    <trkpt lat="48.33940" lon="14.63170"><ele>482</ele><time>2023-09-06T14:37:31Z</time></trkpt>
    <trkpt lat="48.33943" lon="14.63216"><ele>477</ele><time>2023-09-06T14:37:50Z</time></trkpt>
    <trkpt lat="48.33968" lon="14.63274"><ele>480</ele><time>2023-09-06T14:38:09Z</time></trkpt>
    <trkpt lat="48.34021" lon="14.63381"><ele>477</ele><time>2023-09-06T14:38:28Z</time></trkpt>
    <trkpt lat="48.33982" lon="14.63396"><ele>472</ele><time>2023-09-06T14:38:46Z</time></trkpt>
    <trkpt lat="48.34018" lon="14.63423"><ele>467</ele><time>2023-09-06T14:39:24Z</time></trkpt>
    <trkpt lat="48.34046" lon="14.63436"><ele>473</ele><time>2023-09-06T14:39:42Z</time></trkpt>
    <trkpt lat="48.34078" lon="14.63445"><ele>489</ele><time>2023-09-06T14:40:01Z</time></trkpt>
    <trkpt lat="48.34069" lon="14.63453"><ele>487</ele><time>2023-09-06T14:40:20Z</time></trkpt>
    <trkpt lat="48.34023" lon="14.63444"><ele>484</ele><time>2023-09-06T14:40:39Z</time></trkpt>
    <trkpt lat="48.33973" lon="14.63450"><ele>482</ele><time>2023-09-06T14:40:58Z</time></trkpt>
    <trkpt lat="48.33918" lon="14.63454"><ele>480</ele><time>2023-09-06T14:41:17Z</time></trkpt>
    <trkpt lat="48.33905" lon="14.63511"><ele>482</ele><time>2023-09-06T14:41:35Z</time></trkpt>
    <trkpt lat="48.33918" lon="14.63578"><ele>481</ele><time>2023-09-06T14:41:54Z</time></trkpt>
    <trkpt lat="48.33972" lon="14.63709"><ele>462</ele><time>2023-09-06T14:42:12Z</time></trkpt>
    <trkpt lat="48.34015" lon="14.63863"><ele>460</ele><time>2023-09-06T14:42:31Z</time></trkpt>
    <trkpt lat="48.33996" lon="14.63864"><ele>461</ele><time>2023-09-06T14:43:45Z</time></trkpt>
    <trkpt lat="48.33978" lon="14.63836"><ele>460</ele><time>2023-09-06T14:44:22Z</time></trkpt>
    <trkpt lat="48.33980" lon="14.63856"><ele>457</ele><time>2023-09-06T14:44:40Z</time></trkpt>
    <trkpt lat="48.33997" lon="14.63895"><ele>462</ele><time>2023-09-06T14:44:59Z</time></trkpt>
    <trkpt lat="48.34030" lon="14.63939"><ele>466</ele><time>2023-09-06T14:45:18Z</time></trkpt>
    <trkpt lat="48.34051" lon="14.63989"><ele>467</ele><time>2023-09-06T14:45:36Z</time></trkpt>
    <trkpt lat="48.34054" lon="14.64037"><ele>471</ele><time>2023-09-06T14:45:54Z</time></trkpt>
    <trkpt lat="48.34056" lon="14.64087"><ele>477</ele><time>2023-09-06T14:46:12Z</time></trkpt>
    <trkpt lat="48.34055" lon="14.64125"><ele>484</ele><time>2023-09-06T14:46:31Z</time></trkpt>
    <trkpt lat="48.34056" lon="14.64161"><ele>485</ele><time>2023-09-06T14:46:50Z</time></trkpt>
    <trkpt lat="48.34058" lon="14.64188"><ele>484</ele><time>2023-09-06T14:47:09Z</time></trkpt>
    <trkpt lat="48.34057" lon="14.64218"><ele>495</ele><time>2023-09-06T14:47:27Z</time></trkpt>
    <trkpt lat="48.34063" lon="14.64258"><ele>478</ele><time>2023-09-06T14:47:46Z</time></trkpt>
    <trkpt lat="48.34061" lon="14.64295"><ele>498</ele><time>2023-09-06T14:48:05Z</time></trkpt>
    <trkpt lat="48.34066" lon="14.64323"><ele>499</ele><time>2023-09-06T14:48:23Z</time></trkpt>
    <trkpt lat="48.34077" lon="14.64313"><ele>508</ele><time>2023-09-06T14:49:19Z</time></trkpt>
    <trkpt lat="48.34090" lon="14.64287"><ele>511</ele><time>2023-09-06T14:49:38Z</time></trkpt>
    <trkpt lat="48.34113" lon="14.64279"><ele>518</ele><time>2023-09-06T14:49:56Z</time></trkpt>
    <trkpt lat="48.34135" lon="14.64293"><ele>514</ele><time>2023-09-06T14:50:14Z</time></trkpt>
    <trkpt lat="48.34180" lon="14.64322"><ele>513</ele><time>2023-09-06T14:50:33Z</time></trkpt>
    <trkpt lat="48.34227" lon="14.64351"><ele>515</ele><time>2023-09-06T14:50:51Z</time></trkpt>
    <trkpt lat="48.34268" lon="14.64366"><ele>518</ele><time>2023-09-06T14:51:10Z</time></trkpt>
    <trkpt lat="48.34296" lon="14.64378"><ele>521</ele><time>2023-09-06T14:51:28Z</time></trkpt>
    <trkpt lat="48.34322" lon="14.64395"><ele>527</ele><time>2023-09-06T14:51:46Z</time></trkpt>
    <trkpt lat="48.34348" lon="14.64418"><ele>528</ele><time>2023-09-06T14:52:04Z</time></trkpt>
    <trkpt lat="48.34371" lon="14.64447"><ele>528</ele><time>2023-09-06T14:52:22Z</time></trkpt>
    <trkpt lat="48.34391" lon="14.64474"><ele>531</ele><time>2023-09-06T14:52:41Z</time></trkpt>
    <trkpt lat="48.34409" lon="14.64505"><ele>541</ele><time>2023-09-06T14:53:00Z</time></trkpt>
    <trkpt lat="48.34431" lon="14.64540"><ele>533</ele><time>2023-09-06T14:53:18Z</time></trkpt>
    <trkpt lat="48.34458" lon="14.64565"><ele>540</ele><time>2023-09-06T14:53:37Z</time></trkpt>
    <trkpt lat="48.34463" lon="14.64619"><ele>543</ele><time>2023-09-06T14:53:55Z</time></trkpt>
    <trkpt lat="48.34466" lon="14.64676"><ele>545</ele><time>2023-09-06T14:54:13Z</time></trkpt>
    <trkpt lat="48.34471" lon="14.64731"><ele>551</ele><time>2023-09-06T14:54:31Z</time></trkpt>
    <trkpt lat="48.34474" lon="14.64783"><ele>553</ele><time>2023-09-06T14:54:49Z</time></trkpt>
    <trkpt lat="48.34481" lon="14.64834"><ele>557</ele><time>2023-09-06T14:55:07Z</time></trkpt>
    <trkpt lat="48.34504" lon="14.64876"><ele>556</ele><time>2023-09-06T14:55:26Z</time></trkpt>
    <trkpt lat="48.34535" lon="14.64913"><ele>548</ele><time>2023-09-06T14:55:45Z</time></trkpt>
    <trkpt lat="48.34562" lon="14.64980"><ele>561</ele><time>2023-09-06T14:56:03Z</time></trkpt>
    <trkpt lat="48.34602" lon="14.64969"><ele>559</ele><time>2023-09-06T14:56:21Z</time></trkpt>
    <trkpt lat="48.34715" lon="14.64788"><ele>547</ele><time>2023-09-06T14:56:39Z</time></trkpt>
    <trkpt lat="48.34796" lon="14.64790"><ele>543</ele><time>2023-09-06T14:56:57Z</time></trkpt>
    <trkpt lat="48.34846" lon="14.64788"><ele>536</ele><time>2023-09-06T14:57:15Z</time></trkpt>
    <trkpt lat="48.34828" lon="14.64804"><ele>536</ele><time>2023-09-06T14:57:53Z</time></trkpt>
    <trkpt lat="48.34813" lon="14.64810"><ele>540</ele><time>2023-09-06T14:58:12Z</time></trkpt>
    <trkpt lat="48.34856" lon="14.64871"><ele>540</ele><time>2023-09-06T14:58:31Z</time></trkpt>
    <trkpt lat="48.34874" lon="14.64909"><ele>545</ele><time>2023-09-06T14:58:49Z</time></trkpt>
    <trkpt lat="48.34876" lon="14.64977"><ele>547</ele><time>2023-09-06T14:59:08Z</time></trkpt>
    <trkpt lat="48.34878" lon="14.65063"><ele>545</ele><time>2023-09-06T14:59:27Z</time></trkpt>
    <trkpt lat="48.34948" lon="14.65127"><ele>531</ele><time>2023-09-06T14:59:45Z</time></trkpt>
    <trkpt lat="48.34976" lon="14.65286"><ele>538</ele><time>2023-09-06T15:00:04Z</time></trkpt>
    <trkpt lat="48.34950" lon="14.65437"><ele>530</ele><time>2023-09-06T15:00:23Z</time></trkpt>
    <trkpt lat="48.34930" lon="14.65477"><ele>532</ele><time>2023-09-06T15:00:41Z</time></trkpt>
    <trkpt lat="48.34916" lon="14.65518"><ele>534</ele><time>2023-09-06T15:01:00Z</time></trkpt>
    <trkpt lat="48.34902" lon="14.65564"><ele>534</ele><time>2023-09-06T15:01:18Z</time></trkpt>
    <trkpt lat="48.34885" lon="14.65597"><ele>537</ele><time>2023-09-06T15:01:36Z</time></trkpt>
    <trkpt lat="48.34869" lon="14.65632"><ele>542</ele><time>2023-09-06T15:01:55Z</time></trkpt>
    <trkpt lat="48.34848" lon="14.65664"><ele>543</ele><time>2023-09-06T15:02:14Z</time></trkpt>
    <trkpt lat="48.34830" lon="14.65680"><ele>540</ele><time>2023-09-06T15:02:32Z</time></trkpt>
    <trkpt lat="48.34807" lon="14.65729"><ele>543</ele><time>2023-09-06T15:02:51Z</time></trkpt>
    <trkpt lat="48.34834" lon="14.65813"><ele>543</ele><time>2023-09-06T15:03:10Z</time></trkpt>
    <trkpt lat="48.34848" lon="14.65893"><ele>544</ele><time>2023-09-06T15:03:28Z</time></trkpt>
    <trkpt lat="48.34859" lon="14.65964"><ele>545</ele><time>2023-09-06T15:03:47Z</time></trkpt>
    <trkpt lat="48.34866" lon="14.66016"><ele>547</ele><time>2023-09-06T15:04:05Z</time></trkpt>
    <trkpt lat="48.34874" lon="14.66096"><ele>546</ele><time>2023-09-06T15:04:24Z</time></trkpt>
    <trkpt lat="48.34894" lon="14.66163"><ele>550</ele><time>2023-09-06T15:04:43Z</time></trkpt>
    <trkpt lat="48.34921" lon="14.66220"><ele>553</ele><time>2023-09-06T15:05:02Z</time></trkpt>
    <trkpt lat="48.34957" lon="14.66277"><ele>553</ele><time>2023-09-06T15:05:21Z</time></trkpt>
    <trkpt lat="48.35021" lon="14.66308"><ele>549</ele><time>2023-09-06T15:05:39Z</time></trkpt>
    <trkpt lat="48.35066" lon="14.66376"><ele>544</ele><time>2023-09-06T15:05:58Z</time></trkpt>
    <trkpt lat="48.35049" lon="14.66568"><ele>538</ele><time>2023-09-06T15:06:17Z</time></trkpt>
    <trkpt lat="48.35007" lon="14.66651"><ele>536</ele><time>2023-09-06T15:06:35Z</time></trkpt>
    <trkpt lat="48.34942" lon="14.66729"><ele>529</ele><time>2023-09-06T15:06:53Z</time></trkpt>
    <trkpt lat="48.34910" lon="14.66826"><ele>523</ele><time>2023-09-06T15:07:12Z</time></trkpt>
    <trkpt lat="48.34898" lon="14.66847"><ele>519</ele><time>2023-09-06T15:07:30Z</time></trkpt>
    <trkpt lat="48.34882" lon="14.66894"><ele>518</ele><time>2023-09-06T15:08:08Z</time></trkpt>
    <trkpt lat="48.34834" lon="14.67005"><ele>512</ele><time>2023-09-06T15:08:27Z</time></trkpt>
    <trkpt lat="48.34815" lon="14.67051"><ele>514</ele><time>2023-09-06T15:08:45Z</time></trkpt>
    <trkpt lat="48.34795" lon="14.67083"><ele>513</ele><time>2023-09-06T15:09:04Z</time></trkpt>
    <trkpt lat="48.34740" lon="14.67128"><ele>517</ele><time>2023-09-06T15:09:23Z</time></trkpt>
    <trkpt lat="48.34708" lon="14.67187"><ele>516</ele><time>2023-09-06T15:09:42Z</time></trkpt>
    <trkpt lat="48.34674" lon="14.67247"><ele>524</ele><time>2023-09-06T15:10:01Z</time></trkpt>
    <trkpt lat="48.34638" lon="14.67305"><ele>520</ele><time>2023-09-06T15:10:19Z</time></trkpt>
    <trkpt lat="48.34600" lon="14.67359"><ele>519</ele><time>2023-09-06T15:10:38Z</time></trkpt>
    <trkpt lat="48.34560" lon="14.67395"><ele>523</ele><time>2023-09-06T15:10:56Z</time></trkpt>
    <trkpt lat="48.34524" lon="14.67414"><ele>523</ele><time>2023-09-06T15:11:14Z</time></trkpt>
    <trkpt lat="48.34494" lon="14.67445"><ele>530</ele><time>2023-09-06T15:11:33Z</time></trkpt>
    <trkpt lat="48.34466" lon="14.67481"><ele>529</ele><time>2023-09-06T15:11:51Z</time></trkpt>
    <trkpt lat="48.34438" lon="14.67519"><ele>535</ele><time>2023-09-06T15:12:10Z</time></trkpt>
    <trkpt lat="48.34418" lon="14.67559"><ele>536</ele><time>2023-09-06T15:12:28Z</time></trkpt>
    <trkpt lat="48.34451" lon="14.67576"><ele>539</ele><time>2023-09-06T15:12:46Z</time></trkpt>
    <trkpt lat="48.34488" lon="14.67578"><ele>545</ele><time>2023-09-06T15:13:05Z</time></trkpt>
    <trkpt lat="48.34487" lon="14.67628"><ele>548</ele><time>2023-09-06T15:13:24Z</time></trkpt>
    <trkpt lat="48.34459" lon="14.67667"><ele>548</ele><time>2023-09-06T15:13:43Z</time></trkpt>
    <trkpt lat="48.34420" lon="14.67690"><ele>552</ele><time>2023-09-06T15:14:01Z</time></trkpt>
    <trkpt lat="48.34388" lon="14.67723"><ele>554</ele><time>2023-09-06T15:14:20Z</time></trkpt>
    <trkpt lat="48.34361" lon="14.67766"><ele>557</ele><time>2023-09-06T15:14:38Z</time></trkpt>
    <trkpt lat="48.34334" lon="14.67818"><ele>556</ele><time>2023-09-06T15:14:57Z</time></trkpt>
    <trkpt lat="48.34308" lon="14.67860"><ele>559</ele><time>2023-09-06T15:15:15Z</time></trkpt>
    <trkpt lat="48.34283" lon="14.67894"><ele>560</ele><time>2023-09-06T15:15:33Z</time></trkpt>
    <trkpt lat="48.34262" lon="14.67933"><ele>566</ele><time>2023-09-06T15:15:52Z</time></trkpt>
    <trkpt lat="48.34239" lon="14.67965"><ele>570</ele><time>2023-09-06T15:16:11Z</time></trkpt>
    <trkpt lat="48.34218" lon="14.67992"><ele>572</ele><time>2023-09-06T15:16:29Z</time></trkpt>
    <trkpt lat="48.34196" lon="14.68027"><ele>575</ele><time>2023-09-06T15:16:48Z</time></trkpt>
    <trkpt lat="48.34179" lon="14.68072"><ele>577</ele><time>2023-09-06T15:17:06Z</time></trkpt>
    <trkpt lat="48.34158" lon="14.68112"><ele>577</ele><time>2023-09-06T15:17:25Z</time></trkpt>
    <trkpt lat="48.34130" lon="14.68138"><ele>569</ele><time>2023-09-06T15:17:43Z</time></trkpt>
    <trkpt lat="48.34106" lon="14.68170"><ele>570</ele><time>2023-09-06T15:18:01Z</time></trkpt>
    <trkpt lat="48.34102" lon="14.68185"><ele>578</ele><time>2023-09-06T15:18:20Z</time></trkpt>
    <trkpt lat="48.34094" lon="14.68216"><ele>584</ele><time>2023-09-06T15:20:11Z</time></trkpt>
    <trkpt lat="48.34067" lon="14.68234"><ele>581</ele><time>2023-09-06T15:20:30Z</time></trkpt>
    <trkpt lat="48.34043" lon="14.68246"><ele>587</ele><time>2023-09-06T15:20:49Z</time></trkpt>
    <trkpt lat="48.34020" lon="14.68255"><ele>586</ele><time>2023-09-06T15:21:07Z</time></trkpt>
    <trkpt lat="48.33994" lon="14.68270"><ele>599</ele><time>2023-09-06T15:21:26Z</time></trkpt>
    <trkpt lat="48.33999" lon="14.68338"><ele>603</ele><time>2023-09-06T15:21:45Z</time></trkpt>
    <trkpt lat="48.34021" lon="14.68375"><ele>583</ele><time>2023-09-06T15:22:03Z</time></trkpt>
    <trkpt lat="48.34023" lon="14.68416"><ele>607</ele><time>2023-09-06T15:22:21Z</time></trkpt>
    <trkpt lat="48.34016" lon="14.68460"><ele>605</ele><time>2023-09-06T15:22:40Z</time></trkpt>
    <trkpt lat="48.34030" lon="14.68498"><ele>608</ele><time>2023-09-06T15:22:59Z</time></trkpt>
    <trkpt lat="48.34045" lon="14.68503"><ele>611</ele><time>2023-09-06T15:23:18Z</time></trkpt>
    <trkpt lat="48.34064" lon="14.68588"><ele>608</ele><time>2023-09-06T15:24:14Z</time></trkpt>
    <trkpt lat="48.34079" lon="14.68667"><ele>608</ele><time>2023-09-06T15:24:32Z</time></trkpt>
    <trkpt lat="48.34119" lon="14.68796"><ele>604</ele><time>2023-09-06T15:24:50Z</time></trkpt>
    <trkpt lat="48.34142" lon="14.68919"><ele>597</ele><time>2023-09-06T15:25:08Z</time></trkpt>
    <trkpt lat="48.34216" lon="14.68997"><ele>590</ele><time>2023-09-06T15:25:26Z</time></trkpt>
    <trkpt lat="48.34231" lon="14.69034"><ele>590</ele><time>2023-09-06T15:25:44Z</time></trkpt>
    <trkpt lat="48.34236" lon="14.69078"><ele>590</ele><time>2023-09-06T15:26:02Z</time></trkpt>
    <trkpt lat="48.34253" lon="14.69122"><ele>601</ele><time>2023-09-06T15:26:21Z</time></trkpt>
    <trkpt lat="48.34266" lon="14.69164"><ele>599</ele><time>2023-09-06T15:26:39Z</time></trkpt>
    <trkpt lat="48.34270" lon="14.69207"><ele>599</ele><time>2023-09-06T15:26:58Z</time></trkpt>
    <trkpt lat="48.34274" lon="14.69250"><ele>594</ele><time>2023-09-06T15:27:16Z</time></trkpt>
    <trkpt lat="48.34277" lon="14.69304"><ele>611</ele><time>2023-09-06T15:27:35Z</time></trkpt>
    <trkpt lat="48.34283" lon="14.69350"><ele>608</ele><time>2023-09-06T15:27:54Z</time></trkpt>
    <trkpt lat="48.34259" lon="14.69378"><ele>613</ele><time>2023-09-06T15:28:12Z</time></trkpt>
    <trkpt lat="48.34217" lon="14.69418"><ele>614</ele><time>2023-09-06T15:28:31Z</time></trkpt>
    <trkpt lat="48.34184" lon="14.69463"><ele>615</ele><time>2023-09-06T15:28:50Z</time></trkpt>
    <trkpt lat="48.34166" lon="14.69512"><ele>618</ele><time>2023-09-06T15:29:09Z</time></trkpt>
    <trkpt lat="48.34156" lon="14.69572"><ele>618</ele><time>2023-09-06T15:29:27Z</time></trkpt>
    <trkpt lat="48.34166" lon="14.69680"><ele>618</ele><time>2023-09-06T15:29:46Z</time></trkpt>
    <trkpt lat="48.34208" lon="14.69769"><ele>620</ele><time>2023-09-06T15:30:05Z</time></trkpt>
    <trkpt lat="48.34219" lon="14.69838"><ele>624</ele><time>2023-09-06T15:30:23Z</time></trkpt>
    <trkpt lat="48.34219" lon="14.69864"><ele>623</ele><time>2023-09-06T15:31:37Z</time></trkpt>
    <trkpt lat="48.34191" lon="14.70005"><ele>618</ele><time>2023-09-06T15:31:56Z</time></trkpt>
    <trkpt lat="48.34114" lon="14.70011"><ele>599</ele><time>2023-09-06T15:32:15Z</time></trkpt>
    <trkpt lat="48.34019" lon="14.70007"><ele>603</ele><time>2023-09-06T15:33:12Z</time></trkpt>
    <trkpt lat="48.33863" lon="14.69949"><ele>595</ele><time>2023-09-06T15:33:30Z</time></trkpt>
    <trkpt lat="48.33793" lon="14.69894"><ele>594</ele><time>2023-09-06T15:33:48Z</time></trkpt>
    <trkpt lat="48.33714" lon="14.69868"><ele>592</ele><time>2023-09-06T15:34:07Z</time></trkpt>
    <trkpt lat="48.33650" lon="14.69840"><ele>595</ele><time>2023-09-06T15:34:26Z</time></trkpt>
    <trkpt lat="48.33598" lon="14.69836"><ele>597</ele><time>2023-09-06T15:34:44Z</time></trkpt>
    <trkpt lat="48.33523" lon="14.69839"><ele>594</ele><time>2023-09-06T15:35:02Z</time></trkpt>
    <trkpt lat="48.33444" lon="14.69749"><ele>584</ele><time>2023-09-06T15:35:20Z</time></trkpt>
    <trkpt lat="48.33374" lon="14.69605"><ele>573</ele><time>2023-09-06T15:35:39Z</time></trkpt>
    <trkpt lat="48.33257" lon="14.69388"><ele>557</ele><time>2023-09-06T15:35:58Z</time></trkpt>
    <trkpt lat="48.33362" lon="14.69397"><ele>558</ele><time>2023-09-06T15:36:17Z</time></trkpt>
    <trkpt lat="48.33339" lon="14.69347"><ele>554</ele><time>2023-09-06T15:36:35Z</time></trkpt>
    <trkpt lat="48.33328" lon="14.69338"><ele>554</ele><time>2023-09-06T15:36:54Z</time></trkpt>
    <trkpt lat="48.33310" lon="14.69332"><ele>555</ele><time>2023-09-06T15:37:30Z</time></trkpt>
    <trkpt lat="48.33347" lon="14.69368"><ele>553</ele><time>2023-09-06T15:42:43Z</time></trkpt>
    <trkpt lat="48.33370" lon="14.69403"><ele>559</ele><time>2023-09-06T15:43:02Z</time></trkpt>
    <trkpt lat="48.33400" lon="14.69411"><ele>561</ele><time>2023-09-06T15:43:21Z</time></trkpt>
    <trkpt lat="48.33427" lon="14.69411"><ele>566</ele><time>2023-09-06T15:43:39Z</time></trkpt>
    <trkpt lat="48.33446" lon="14.69373"><ele>569</ele><time>2023-09-06T15:43:57Z</time></trkpt>
    <trkpt lat="48.33462" lon="14.69329"><ele>569</ele><time>2023-09-06T15:44:16Z</time></trkpt>
    <trkpt lat="48.33478" lon="14.69284"><ele>576</ele><time>2023-09-06T15:44:35Z</time></trkpt>
    <trkpt lat="48.33496" lon="14.69245"><ele>580</ele><time>2023-09-06T15:44:54Z</time></trkpt>
    <trkpt lat="48.33516" lon="14.69210"><ele>584</ele><time>2023-09-06T15:45:12Z</time></trkpt>
    <trkpt lat="48.33538" lon="14.69171"><ele>588</ele><time>2023-09-06T15:45:31Z</time></trkpt>
    <trkpt lat="48.33571" lon="14.69155"><ele>583</ele><time>2023-09-06T15:45:49Z</time></trkpt>
    <trkpt lat="48.33586" lon="14.69093"><ele>588</ele><time>2023-09-06T15:46:07Z</time></trkpt>
    <trkpt lat="48.33648" lon="14.69038"><ele>587</ele><time>2023-09-06T15:46:26Z</time></trkpt>
    <trkpt lat="48.33711" lon="14.69011"><ele>589</ele><time>2023-09-06T15:46:44Z</time></trkpt>
    <trkpt lat="48.33722" lon="14.68927"><ele>582</ele><time>2023-09-06T15:47:02Z</time></trkpt>
    <trkpt lat="48.33765" lon="14.68734"><ele>573</ele><time>2023-09-06T15:47:21Z</time></trkpt>
    <trkpt lat="48.33783" lon="14.68476"><ele>563</ele><time>2023-09-06T15:47:39Z</time></trkpt>
    <trkpt lat="48.33730" lon="14.68330"><ele>563</ele><time>2023-09-06T15:47:57Z</time></trkpt>
    <trkpt lat="48.33729" lon="14.68239"><ele>558</ele><time>2023-09-06T15:48:16Z</time></trkpt>
    <trkpt lat="48.33684" lon="14.68204"><ele>566</ele><time>2023-09-06T15:48:34Z</time></trkpt>
    <trkpt lat="48.33628" lon="14.68151"><ele>567</ele><time>2023-09-06T15:48:52Z</time></trkpt>
    <trkpt lat="48.33589" lon="14.68058"><ele>570</ele><time>2023-09-06T15:49:10Z</time></trkpt>
    <trkpt lat="48.33565" lon="14.67981"><ele>576</ele><time>2023-09-06T15:49:29Z</time></trkpt>
    <trkpt lat="48.33550" lon="14.67909"><ele>580</ele><time>2023-09-06T15:49:48Z</time></trkpt>
    <trkpt lat="48.33550" lon="14.67821"><ele>581</ele><time>2023-09-06T15:50:07Z</time></trkpt>
    <trkpt lat="48.33552" lon="14.67717"><ele>577</ele><time>2023-09-06T15:50:26Z</time></trkpt>
    <trkpt lat="48.33568" lon="14.67583"><ele>598</ele><time>2023-09-06T15:50:44Z</time></trkpt>
    <trkpt lat="48.33572" lon="14.67479"><ele>584</ele><time>2023-09-06T15:51:03Z</time></trkpt>
    <trkpt lat="48.33621" lon="14.67455"><ele>585</ele><time>2023-09-06T15:51:21Z</time></trkpt>
    <trkpt lat="48.33679" lon="14.67454"><ele>574</ele><time>2023-09-06T15:51:39Z</time></trkpt>
    <trkpt lat="48.33745" lon="14.67453"><ele>618</ele><time>2023-09-06T15:51:58Z</time></trkpt>
    <trkpt lat="48.33794" lon="14.67396"><ele>588</ele><time>2023-09-06T15:52:17Z</time></trkpt>
    <trkpt lat="48.33821" lon="14.67291"><ele>592</ele><time>2023-09-06T15:52:36Z</time></trkpt>
    <trkpt lat="48.33854" lon="14.67130"><ele>581</ele><time>2023-09-06T15:52:55Z</time></trkpt>
    <trkpt lat="48.33939" lon="14.66974"><ele>576</ele><time>2023-09-06T15:53:14Z</time></trkpt>
    <trkpt lat="48.33924" lon="14.66731"><ele>572</ele><time>2023-09-06T15:53:32Z</time></trkpt>
    <trkpt lat="48.33920" lon="14.66544"><ele>567</ele><time>2023-09-06T15:53:50Z</time></trkpt>
    <trkpt lat="48.33924" lon="14.66439"><ele>573</ele><time>2023-09-06T15:54:08Z</time></trkpt>
    <trkpt lat="48.33904" lon="14.66341"><ele>575</ele><time>2023-09-06T15:54:27Z</time></trkpt>
    <trkpt lat="48.33889" lon="14.66284"><ele>572</ele><time>2023-09-06T15:54:46Z</time></trkpt>
    <trkpt lat="48.33879" lon="14.66298"><ele>573</ele><time>2023-09-06T15:55:04Z</time></trkpt>
    <trkpt lat="48.33797" lon="14.66319"><ele>554</ele><time>2023-09-06T15:55:22Z</time></trkpt>
    <trkpt lat="48.33695" lon="14.66318"><ele>548</ele><time>2023-09-06T15:55:41Z</time></trkpt>
    <trkpt lat="48.33628" lon="14.66215"><ele>543</ele><time>2023-09-06T15:56:00Z</time></trkpt>
    <trkpt lat="48.33614" lon="14.66204"><ele>540</ele><time>2023-09-06T15:56:19Z</time></trkpt>
    <trkpt lat="48.33622" lon="14.66212"><ele>544</ele><time>2023-09-06T15:57:15Z</time></trkpt>
    <trkpt lat="48.33632" lon="14.66221"><ele>544</ele><time>2023-09-06T15:57:33Z</time></trkpt>
    <trkpt lat="48.33647" lon="14.66244"><ele>543</ele><time>2023-09-06T15:58:10Z</time></trkpt>
    <trkpt lat="48.33660" lon="14.66278"><ele>544</ele><time>2023-09-06T15:58:29Z</time></trkpt>
    <trkpt lat="48.33684" lon="14.66313"><ele>548</ele><time>2023-09-06T15:58:47Z</time></trkpt>
    <trkpt lat="48.33715" lon="14.66324"><ele>541</ele><time>2023-09-06T15:59:05Z</time></trkpt>
    <trkpt lat="48.33743" lon="14.66319"><ele>546</ele><time>2023-09-06T15:59:24Z</time></trkpt>
    <trkpt lat="48.33772" lon="14.66317"><ele>549</ele><time>2023-09-06T15:59:43Z</time></trkpt>
    <trkpt lat="48.33798" lon="14.66321"><ele>554</ele><time>2023-09-06T16:00:01Z</time></trkpt>
    <trkpt lat="48.33824" lon="14.66325"><ele>552</ele><time>2023-09-06T16:00:20Z</time></trkpt>
    <trkpt lat="48.33845" lon="14.66320"><ele>557</ele><time>2023-09-06T16:00:38Z</time></trkpt>
    <trkpt lat="48.33865" lon="14.66308"><ele>569</ele><time>2023-09-06T16:00:57Z</time></trkpt>
    <trkpt lat="48.33887" lon="14.66283"><ele>579</ele><time>2023-09-06T16:01:16Z</time></trkpt>
    <trkpt lat="48.33870" lon="14.66236"><ele>575</ele><time>2023-09-06T16:01:34Z</time></trkpt>
    <trkpt lat="48.33842" lon="14.66212"><ele>584</ele><time>2023-09-06T16:01:53Z</time></trkpt>
    <trkpt lat="48.33883" lon="14.66224"><ele>574</ele><time>2023-09-06T16:02:12Z</time></trkpt>
    <trkpt lat="48.33876" lon="14.66146"><ele>585</ele><time>2023-09-06T16:02:31Z</time></trkpt>
    <trkpt lat="48.33862" lon="14.66104"><ele>582</ele><time>2023-09-06T16:02:50Z</time></trkpt>
    <trkpt lat="48.33858" lon="14.66064"><ele>591</ele><time>2023-09-06T16:03:08Z</time></trkpt>
    <trkpt lat="48.33854" lon="14.66025"><ele>589</ele><time>2023-09-06T16:03:26Z</time></trkpt>
    <trkpt lat="48.33847" lon="14.65986"><ele>595</ele><time>2023-09-06T16:03:44Z</time></trkpt>
    <trkpt lat="48.33838" lon="14.65947"><ele>595</ele><time>2023-09-06T16:04:03Z</time></trkpt>
    <trkpt lat="48.33825" lon="14.65893"><ele>594</ele><time>2023-09-06T16:04:21Z</time></trkpt>
    <trkpt lat="48.33814" lon="14.65734"><ele>584</ele><time>2023-09-06T16:04:39Z</time></trkpt>
    <trkpt lat="48.33802" lon="14.65514"><ele>578</ele><time>2023-09-06T16:04:58Z</time></trkpt>
    <trkpt lat="48.33801" lon="14.65387"><ele>570</ele><time>2023-09-06T16:05:17Z</time></trkpt>
    <trkpt lat="48.33800" lon="14.65314"><ele>559</ele><time>2023-09-06T16:05:35Z</time></trkpt>
    <trkpt lat="48.33827" lon="14.65267"><ele>560</ele><time>2023-09-06T16:05:53Z</time></trkpt>
    <trkpt lat="48.33868" lon="14.65142"><ele>552</ele><time>2023-09-06T16:06:11Z</time></trkpt>
    <trkpt lat="48.33894" lon="14.64917"><ele>537</ele><time>2023-09-06T16:06:30Z</time></trkpt>
    <trkpt lat="48.33932" lon="14.64772"><ele>522</ele><time>2023-09-06T16:06:48Z</time></trkpt>
    <trkpt lat="48.33967" lon="14.64714"><ele>510</ele><time>2023-09-06T16:07:07Z</time></trkpt>
    <trkpt lat="48.33968" lon="14.64674"><ele>499</ele><time>2023-09-06T16:07:45Z</time></trkpt>
    <trkpt lat="48.34012" lon="14.64673"><ele>499</ele><time>2023-09-06T16:08:03Z</time></trkpt>
    <trkpt lat="48.33985" lon="14.64671"><ele>499</ele><time>2023-09-06T16:08:21Z</time></trkpt>
    <trkpt lat="48.33953" lon="14.64677"><ele>497</ele><time>2023-09-06T16:08:39Z</time></trkpt>
    <trkpt lat="48.33921" lon="14.64671"><ele>507</ele><time>2023-09-06T16:08:58Z</time></trkpt>
    <trkpt lat="48.33910" lon="14.64632"><ele>505</ele><time>2023-09-06T16:09:17Z</time></trkpt>
    <trkpt lat="48.33861" lon="14.64567"><ele>489</ele><time>2023-09-06T16:09:36Z</time></trkpt>
    <trkpt lat="48.33775" lon="14.64615"><ele>481</ele><time>2023-09-06T16:09:55Z</time></trkpt>
    <trkpt lat="48.33736" lon="14.64617"><ele>474</ele><time>2023-09-06T16:10:14Z</time></trkpt>
    <trkpt lat="48.33807" lon="14.64519"><ele>475</ele><time>2023-09-06T16:10:33Z</time></trkpt>
    <trkpt lat="48.33890" lon="14.64424"><ele>468</ele><time>2023-09-06T16:10:52Z</time></trkpt>
    <trkpt lat="48.33900" lon="14.64402"><ele>469</ele><time>2023-09-06T16:11:11Z</time></trkpt>
    <trkpt lat="48.33886" lon="14.64290"><ele>469</ele><time>2023-09-06T16:11:30Z</time></trkpt>
    <trkpt lat="48.33890" lon="14.64164"><ele>468</ele><time>2023-09-06T16:11:48Z</time></trkpt>
    <trkpt lat="48.33864" lon="14.64007"><ele>473</ele><time>2023-09-06T16:12:07Z</time></trkpt>
    <trkpt lat="48.33862" lon="14.63752"><ele>461</ele><time>2023-09-06T16:12:26Z</time></trkpt>
    <trkpt lat="48.33777" lon="14.63467"><ele>439</ele><time>2023-09-06T16:12:45Z</time></trkpt>
    <trkpt lat="48.33621" lon="14.63251"><ele>428</ele><time>2023-09-06T16:13:04Z</time></trkpt>
    <trkpt lat="48.33521" lon="14.63229"><ele>437</ele><time>2023-09-06T16:13:23Z</time></trkpt>
    <trkpt lat="48.33470" lon="14.63209"><ele>439</ele><time>2023-09-06T16:13:42Z</time></trkpt>
    <trkpt lat="48.33429" lon="14.63186"><ele>444</ele><time>2023-09-06T16:14:00Z</time></trkpt>
    <trkpt lat="48.33387" lon="14.63173"><ele>447</ele><time>2023-09-06T16:14:19Z</time></trkpt>
    <trkpt lat="48.33358" lon="14.63161"><ele>446</ele><time>2023-09-06T16:14:37Z</time></trkpt>
    <trkpt lat="48.33340" lon="14.63170"><ele>448</ele><time>2023-09-06T16:14:56Z</time></trkpt>
    <trkpt lat="48.33306" lon="14.63141"><ele>452</ele><time>2023-09-06T16:15:14Z</time></trkpt>
    <trkpt lat="48.33267" lon="14.63107"><ele>457</ele><time>2023-09-06T16:15:33Z</time></trkpt>
    <trkpt lat="48.33235" lon="14.63069"><ele>454</ele><time>2023-09-06T16:15:51Z</time></trkpt>
    <trkpt lat="48.33216" lon="14.63018"><ele>457</ele><time>2023-09-06T16:16:10Z</time></trkpt>
    <trkpt lat="48.33214" lon="14.62958"><ele>462</ele><time>2023-09-06T16:16:28Z</time></trkpt>
    <trkpt lat="48.33227" lon="14.62908"><ele>466</ele><time>2023-09-06T16:16:46Z</time></trkpt>
    <trkpt lat="48.33249" lon="14.62866"><ele>471</ele><time>2023-09-06T16:17:04Z</time></trkpt>
    <trkpt lat="48.33234" lon="14.62863"><ele>466</ele><time>2023-09-06T16:17:23Z</time></trkpt>
    <trkpt lat="48.33267" lon="14.62827"><ele>468</ele><time>2023-09-06T16:18:00Z</time></trkpt>
    <trkpt lat="48.33286" lon="14.62770"><ele>473</ele><time>2023-09-06T16:18:19Z</time></trkpt>
    <trkpt lat="48.33299" lon="14.62711"><ele>475</ele><time>2023-09-06T16:18:37Z</time></trkpt>
    <trkpt lat="48.33305" lon="14.62649"><ele>478</ele><time>2023-09-06T16:18:55Z</time></trkpt>
    <trkpt lat="48.33305" lon="14.62569"><ele>478</ele><time>2023-09-06T16:19:14Z</time></trkpt>
    <trkpt lat="48.33300" lon="14.62478"><ele>480</ele><time>2023-09-06T16:19:33Z</time></trkpt>
    <trkpt lat="48.33302" lon="14.62395"><ele>482</ele><time>2023-09-06T16:19:51Z</time></trkpt>
    <trkpt lat="48.33307" lon="14.62314"><ele>486</ele><time>2023-09-06T16:20:09Z</time></trkpt>
    <trkpt lat="48.33312" lon="14.62235"><ele>488</ele><time>2023-09-06T16:20:28Z</time></trkpt>
    <trkpt lat="48.33312" lon="14.62159"><ele>488</ele><time>2023-09-06T16:20:46Z</time></trkpt>
    <trkpt lat="48.33359" lon="14.62139"><ele>490</ele><time>2023-09-06T16:21:04Z</time></trkpt>
    <trkpt lat="48.33444" lon="14.62045"><ele>473</ele><time>2023-09-06T16:21:23Z</time></trkpt>
    <trkpt lat="48.33505" lon="14.61950"><ele>475</ele><time>2023-09-06T16:21:42Z</time></trkpt>
    <trkpt lat="48.33528" lon="14.61920"><ele>482</ele><time>2023-09-06T16:22:01Z</time></trkpt>
    <trkpt lat="48.33548" lon="14.61889"><ele>486</ele><time>2023-09-06T16:22:19Z</time></trkpt>
    <trkpt lat="48.33573" lon="14.61852"><ele>485</ele><time>2023-09-06T16:22:38Z</time></trkpt>
    <trkpt lat="48.33575" lon="14.61809"><ele>488</ele><time>2023-09-06T16:22:56Z</time></trkpt>
    <trkpt lat="48.33556" lon="14.61746"><ele>482</ele><time>2023-09-06T16:23:15Z</time></trkpt>
    <trkpt lat="48.33546" lon="14.61672"><ele>490</ele><time>2023-09-06T16:23:34Z</time></trkpt>
    <trkpt lat="48.33538" lon="14.61580"><ele>490</ele><time>2023-09-06T16:23:52Z</time></trkpt>
    <trkpt lat="48.33539" lon="14.61442"><ele>487</ele><time>2023-09-06T16:24:10Z</time></trkpt>
    <trkpt lat="48.33559" lon="14.61255"><ele>480</ele><time>2023-09-06T16:24:28Z</time></trkpt>
    <trkpt lat="48.33555" lon="14.61057"><ele>467</ele><time>2023-09-06T16:24:46Z</time></trkpt>
    <trkpt lat="48.33558" lon="14.60984"><ele>452</ele><time>2023-09-06T16:25:04Z</time></trkpt>
    <trkpt lat="48.33567" lon="14.60892"><ele>441</ele><time>2023-09-06T16:25:23Z</time></trkpt>
    <trkpt lat="48.33611" lon="14.60993"><ele>439</ele><time>2023-09-06T16:25:42Z</time></trkpt>
    <trkpt lat="48.33623" lon="14.60981"><ele>436</ele><time>2023-09-06T16:26:01Z</time></trkpt>
    <trkpt lat="48.33653" lon="14.60887"><ele>437</ele><time>2023-09-06T16:26:19Z</time></trkpt>
    <trkpt lat="48.33617" lon="14.60797"><ele>429</ele><time>2023-09-06T16:26:37Z</time></trkpt>
    <trkpt lat="48.33552" lon="14.60728"><ele>424</ele><time>2023-09-06T16:26:56Z</time></trkpt>
    <trkpt lat="48.33505" lon="14.60572"><ele>411</ele><time>2023-09-06T16:27:14Z</time></trkpt>
    <trkpt lat="48.33447" lon="14.60481"><ele>406</ele><time>2023-09-06T16:27:32Z</time></trkpt>
    <trkpt lat="48.33418" lon="14.60389"><ele>409</ele><time>2023-09-06T16:27:50Z</time></trkpt>
    <trkpt lat="48.33374" lon="14.60299"><ele>383</ele><time>2023-09-06T16:28:08Z</time></trkpt>
    <trkpt lat="48.33286" lon="14.60233"><ele>444</ele><time>2023-09-06T16:28:27Z</time></trkpt>
    <trkpt lat="48.33211" lon="14.60104"><ele>387</ele><time>2023-09-06T16:28:46Z</time></trkpt>
    <trkpt lat="48.33187" lon="14.59988"><ele>387</ele><time>2023-09-06T16:29:04Z</time></trkpt>
    <trkpt lat="48.33147" lon="14.59865"><ele>374</ele><time>2023-09-06T16:29:22Z</time></trkpt>
    <trkpt lat="48.33126" lon="14.59775"><ele>372</ele><time>2023-09-06T16:29:41Z</time></trkpt>
    <trkpt lat="48.33160" lon="14.59731"><ele>376</ele><time>2023-09-06T16:29:59Z</time></trkpt>
    <trkpt lat="48.33188" lon="14.59696"><ele>390</ele><time>2023-09-06T16:30:18Z</time></trkpt>
    <trkpt lat="48.33211" lon="14.59674"><ele>398</ele><time>2023-09-06T16:30:36Z</time></trkpt>
    <trkpt lat="48.33232" lon="14.59654"><ele>400</ele><time>2023-09-06T16:30:55Z</time></trkpt>
    <trkpt lat="48.33254" lon="14.59638"><ele>407</ele><time>2023-09-06T16:31:14Z</time></trkpt>
    <trkpt lat="48.33275" lon="14.59611"><ele>404</ele><time>2023-09-06T16:31:33Z</time></trkpt>
    <trkpt lat="48.33280" lon="14.59585"><ele>402</ele><time>2023-09-06T16:31:51Z</time></trkpt>
    <trkpt lat="48.33274" lon="14.59552"><ele>403</ele><time>2023-09-06T16:32:10Z</time></trkpt>
    <trkpt lat="48.33272" lon="14.59508"><ele>410</ele><time>2023-09-06T16:32:29Z</time></trkpt>
    <trkpt lat="48.33265" lon="14.59447"><ele>410</ele><time>2023-09-06T16:32:47Z</time></trkpt>
    <trkpt lat="48.33259" lon="14.59323"><ele>403</ele><time>2023-09-06T16:33:05Z</time></trkpt>
    <trkpt lat="48.33289" lon="14.59214"><ele>396</ele><time>2023-09-06T16:33:24Z</time></trkpt>
    <trkpt lat="48.33293" lon="14.59139"><ele>395</ele><time>2023-09-06T16:34:02Z</time></trkpt>
    <trkpt lat="48.33306" lon="14.59087"><ele>399</ele><time>2023-09-06T16:34:20Z</time></trkpt>
    <trkpt lat="48.33323" lon="14.59066"><ele>404</ele><time>2023-09-06T16:34:38Z</time></trkpt>
    <trkpt lat="48.33346" lon="14.59054"><ele>411</ele><time>2023-09-06T16:34:57Z</time></trkpt>
    <trkpt lat="48.33369" lon="14.59040"><ele>414</ele><time>2023-09-06T16:35:15Z</time></trkpt>
    <trkpt lat="48.33398" lon="14.59023"><ele>412</ele><time>2023-09-06T16:35:34Z</time></trkpt>
    <trkpt lat="48.33429" lon="14.58982"><ele>411</ele><time>2023-09-06T16:35:53Z</time></trkpt>
    <trkpt lat="48.33457" lon="14.58920"><ele>410</ele><time>2023-09-06T16:36:11Z</time></trkpt>
    <trkpt lat="48.33475" lon="14.58865"><ele>415</ele><time>2023-09-06T16:36:30Z</time></trkpt>
    <trkpt lat="48.33469" lon="14.58831"><ele>412</ele><time>2023-09-06T16:36:48Z</time></trkpt>
    <trkpt lat="48.33358" lon="14.58820"><ele>409</ele><time>2023-09-06T16:37:07Z</time></trkpt>
    <trkpt lat="48.33202" lon="14.58747"><ele>404</ele><time>2023-09-06T16:37:26Z</time></trkpt>
    <trkpt lat="48.33146" lon="14.58657"><ele>395</ele><time>2023-09-06T16:37:45Z</time></trkpt>
    <trkpt lat="48.33102" lon="14.58687"><ele>387</ele><time>2023-09-06T16:38:03Z</time></trkpt>
    <trkpt lat="48.33082" lon="14.58785"><ele>379</ele><time>2023-09-06T16:38:21Z</time></trkpt>
    <trkpt lat="48.32985" lon="14.58777"><ele>372</ele><time>2023-09-06T16:38:40Z</time></trkpt>
    <trkpt lat="48.32845" lon="14.58805"><ele>357</ele><time>2023-09-06T16:38:58Z</time></trkpt>
    <trkpt lat="48.32737" lon="14.58845"><ele>359</ele><time>2023-09-06T16:39:17Z</time></trkpt>
    <trkpt lat="48.32687" lon="14.58801"><ele>358</ele><time>2023-09-06T16:39:35Z</time></trkpt>
    <trkpt lat="48.32691" lon="14.58726"><ele>362</ele><time>2023-09-06T16:39:53Z</time></trkpt>
    <trkpt lat="48.32704" lon="14.58657"><ele>363</ele><time>2023-09-06T16:40:12Z</time></trkpt>
    <trkpt lat="48.32714" lon="14.58604"><ele>366</ele><time>2023-09-06T16:40:31Z</time></trkpt>
    <trkpt lat="48.32719" lon="14.58558"><ele>368</ele><time>2023-09-06T16:40:50Z</time></trkpt>
    <trkpt lat="48.32736" lon="14.58523"><ele>372</ele><time>2023-09-06T16:41:08Z</time></trkpt>
    <trkpt lat="48.32753" lon="14.58465"><ele>374</ele><time>2023-09-06T16:41:27Z</time></trkpt>
    <trkpt lat="48.32759" lon="14.58398"><ele>374</ele><time>2023-09-06T16:41:45Z</time></trkpt>
    <trkpt lat="48.32760" lon="14.58315"><ele>378</ele><time>2023-09-06T16:42:04Z</time></trkpt>
    <trkpt lat="48.32768" lon="14.58216"><ele>377</ele><time>2023-09-06T16:42:23Z</time></trkpt>
    <trkpt lat="48.32779" lon="14.58105"><ele>375</ele><time>2023-09-06T16:42:41Z</time></trkpt>
    <trkpt lat="48.32779" lon="14.57989"><ele>373</ele><time>2023-09-06T16:43:00Z</time></trkpt>
    <trkpt lat="48.32640" lon="14.57977"><ele>370</ele><time>2023-09-06T16:43:18Z</time></trkpt>
    <trkpt lat="48.32639" lon="14.57879"><ele>362</ele><time>2023-09-06T16:43:36Z</time></trkpt>
    <trkpt lat="48.32669" lon="14.57702"><ele>361</ele><time>2023-09-06T16:43:55Z</time></trkpt>
    <trkpt lat="48.32696" lon="14.57558"><ele>359</ele><time>2023-09-06T16:44:13Z</time></trkpt>
    <trkpt lat="48.32707" lon="14.57429"><ele>359</ele><time>2023-09-06T16:44:32Z</time></trkpt>
    <trkpt lat="48.32700" lon="14.57353"><ele>368</ele><time>2023-09-06T16:44:50Z</time></trkpt>
    <trkpt lat="48.32633" lon="14.57276"><ele>368</ele><time>2023-09-06T16:45:09Z</time></trkpt>
    <trkpt lat="48.32521" lon="14.57170"><ele>337</ele><time>2023-09-06T16:45:28Z</time></trkpt>
    <trkpt lat="48.32421" lon="14.57176"><ele>346</ele><time>2023-09-06T16:45:46Z</time></trkpt>
    <trkpt lat="48.32368" lon="14.57161"><ele>338</ele><time>2023-09-06T16:46:05Z</time></trkpt>
    <trkpt lat="48.32336" lon="14.57021"><ele>332</ele><time>2023-09-06T16:46:24Z</time></trkpt>
    <trkpt lat="48.32324" lon="14.56941"><ele>325</ele><time>2023-09-06T16:46:43Z</time></trkpt>
    <trkpt lat="48.32294" lon="14.56878"><ele>336</ele><time>2023-09-06T16:47:01Z</time></trkpt>
    <trkpt lat="48.32293" lon="14.56898"><ele>326</ele><time>2023-09-06T16:47:20Z</time></trkpt>
    <trkpt lat="48.32262" lon="14.56839"><ele>331</ele><time>2023-09-06T16:47:38Z</time></trkpt>
    <trkpt lat="48.32187" lon="14.56671"><ele>316</ele><time>2023-09-06T16:47:57Z</time></trkpt>
    <trkpt lat="48.32126" lon="14.56651"><ele>315</ele><time>2023-09-06T16:48:15Z</time></trkpt>
    <trkpt lat="48.32116" lon="14.56641"><ele>314</ele><time>2023-09-06T16:48:33Z</time></trkpt>
    <trkpt lat="48.32131" lon="14.56625"><ele>320</ele><time>2023-09-06T16:48:51Z</time></trkpt>
    <trkpt lat="48.32141" lon="14.56564"><ele>311</ele><time>2023-09-06T16:49:10Z</time></trkpt>
    <trkpt lat="48.32098" lon="14.56483"><ele>310</ele><time>2023-09-06T16:49:28Z</time></trkpt>
    <trkpt lat="48.32091" lon="14.56356"><ele>311</ele><time>2023-09-06T16:49:47Z</time></trkpt>
    <trkpt lat="48.32096" lon="14.56336"><ele>310</ele><time>2023-09-06T16:50:06Z</time></trkpt>
    <trkpt lat="48.32112" lon="14.56317"><ele>335</ele><time>2023-09-06T16:50:24Z</time></trkpt>
    <trkpt lat="48.32128" lon="14.56329"><ele>313</ele><time>2023-09-06T16:51:01Z</time></trkpt>
    <trkpt lat="48.32164" lon="14.56368"><ele>330</ele><time>2023-09-06T16:51:20Z</time></trkpt>
    <trkpt lat="48.32203" lon="14.56392"><ele>323</ele><time>2023-09-06T16:51:38Z</time></trkpt>
    <trkpt lat="48.32252" lon="14.56407"><ele>325</ele><time>2023-09-06T16:51:57Z</time></trkpt>
    <trkpt lat="48.32302" lon="14.56423"><ele>329</ele><time>2023-09-06T16:52:15Z</time></trkpt>
    <trkpt lat="48.32345" lon="14.56430"><ele>331</ele><time>2023-09-06T16:52:33Z</time></trkpt>
    <trkpt lat="48.32382" lon="14.56430"><ele>335</ele><time>2023-09-06T16:52:51Z</time></trkpt>
    <trkpt lat="48.32421" lon="14.56426"><ele>337</ele><time>2023-09-06T16:53:10Z</time></trkpt>
    <trkpt lat="48.32460" lon="14.56420"><ele>341</ele><time>2023-09-06T16:53:29Z</time></trkpt>
    <trkpt lat="48.32479" lon="14.56351"><ele>343</ele><time>2023-09-06T16:53:47Z</time></trkpt>
    <trkpt lat="48.32484" lon="14.56129"><ele>322</ele><time>2023-09-06T16:54:06Z</time></trkpt>
    <trkpt lat="48.32484" lon="14.55898"><ele>309</ele><time>2023-09-06T16:54:25Z</time></trkpt>
    <trkpt lat="48.32496" lon="14.55744"><ele>309</ele><time>2023-09-06T16:54:44Z</time></trkpt>
    <trkpt lat="48.32489" lon="14.55654"><ele>311</ele><time>2023-09-06T16:55:03Z</time></trkpt>
    <trkpt lat="48.32502" lon="14.55562"><ele>314</ele><time>2023-09-06T16:55:22Z</time></trkpt>
    <trkpt lat="48.32485" lon="14.55485"><ele>319</ele><time>2023-09-06T16:55:40Z</time></trkpt>
    <trkpt lat="48.32474" lon="14.55402"><ele>323</ele><time>2023-09-06T16:55:59Z</time></trkpt>
    <trkpt lat="48.32447" lon="14.55359"><ele>341</ele><time>2023-09-06T16:56:18Z</time></trkpt>
    <trkpt lat="48.32407" lon="14.55310"><ele>315</ele><time>2023-09-06T16:56:37Z</time></trkpt>
    <trkpt lat="48.32369" lon="14.55270"><ele>323</ele><time>2023-09-06T16:56:56Z</time></trkpt>
    <trkpt lat="48.32331" lon="14.55217"><ele>318</ele><time>2023-09-06T16:57:14Z</time></trkpt>
    <trkpt lat="48.32283" lon="14.55209"><ele>321</ele><time>2023-09-06T16:57:33Z</time></trkpt>
    <trkpt lat="48.32234" lon="14.55180"><ele>319</ele><time>2023-09-06T16:57:52Z</time></trkpt>
    <trkpt lat="48.32183" lon="14.55148"><ele>339</ele><time>2023-09-06T16:58:11Z</time></trkpt>
    <trkpt lat="48.32138" lon="14.55107"><ele>322</ele><time>2023-09-06T16:58:30Z</time></trkpt>
    <trkpt lat="48.32107" lon="14.55061"><ele>325</ele><time>2023-09-06T16:58:48Z</time></trkpt>
    <trkpt lat="48.32077" lon="14.55017"><ele>328</ele><time>2023-09-06T16:59:06Z</time></trkpt>
    <trkpt lat="48.32058" lon="14.54964"><ele>329</ele><time>2023-09-06T16:59:25Z</time></trkpt>
    <trkpt lat="48.32055" lon="14.54908"><ele>334</ele><time>2023-09-06T16:59:43Z</time></trkpt>
    <trkpt lat="48.32052" lon="14.54853"><ele>336</ele><time>2023-09-06T17:00:01Z</time></trkpt>
    <trkpt lat="48.32051" lon="14.54797"><ele>343</ele><time>2023-09-06T17:00:20Z</time></trkpt>
    <trkpt lat="48.32048" lon="14.54741"><ele>340</ele><time>2023-09-06T17:00:39Z</time></trkpt>
    <trkpt lat="48.32042" lon="14.54689"><ele>345</ele><time>2023-09-06T17:00:58Z</time></trkpt>
    <trkpt lat="48.32034" lon="14.54639"><ele>347</ele><time>2023-09-06T17:01:17Z</time></trkpt>
    <trkpt lat="48.32009" lon="14.54595"><ele>352</ele><time>2023-09-06T17:01:36Z</time></trkpt>
    <trkpt lat="48.31977" lon="14.54554"><ele>353</ele><time>2023-09-06T17:01:55Z</time></trkpt>
    <trkpt lat="48.31947" lon="14.54490"><ele>356</ele><time>2023-09-06T17:02:14Z</time></trkpt>
    <trkpt lat="48.31936" lon="14.54430"><ele>356</ele><time>2023-09-06T17:02:32Z</time></trkpt>
    <trkpt lat="48.31901" lon="14.54392"><ele>359</ele><time>2023-09-06T17:02:50Z</time></trkpt>
    <trkpt lat="48.31877" lon="14.54335"><ele>361</ele><time>2023-09-06T17:03:08Z</time></trkpt>
    <trkpt lat="48.31859" lon="14.54264"><ele>363</ele><time>2023-09-06T17:03:27Z</time></trkpt>
    <trkpt lat="48.31838" lon="14.54174"><ele>366</ele><time>2023-09-06T17:03:46Z</time></trkpt>
    <trkpt lat="48.31809" lon="14.54080"><ele>391</ele><time>2023-09-06T17:04:04Z</time></trkpt>
    <trkpt lat="48.31762" lon="14.54029"><ele>369</ele><time>2023-09-06T17:04:22Z</time></trkpt>
    <trkpt lat="48.31709" lon="14.54036"><ele>374</ele><time>2023-09-06T17:04:41Z</time></trkpt>
    <trkpt lat="48.31668" lon="14.54059"><ele>375</ele><time>2023-09-06T17:04:59Z</time></trkpt>
    <trkpt lat="48.31628" lon="14.54093"><ele>377</ele><time>2023-09-06T17:05:18Z</time></trkpt>
    <trkpt lat="48.31583" lon="14.54126"><ele>381</ele><time>2023-09-06T17:05:37Z</time></trkpt>
    <trkpt lat="48.31542" lon="14.54169"><ele>380</ele><time>2023-09-06T17:05:55Z</time></trkpt>
    <trkpt lat="48.31516" lon="14.54248"><ele>383</ele><time>2023-09-06T17:06:14Z</time></trkpt>
    <trkpt lat="48.31491" lon="14.54320"><ele>377</ele><time>2023-09-06T17:06:32Z</time></trkpt>
    <trkpt lat="48.31468" lon="14.54357"><ele>382</ele><time>2023-09-06T17:06:51Z</time></trkpt>
    <trkpt lat="48.31449" lon="14.54388"><ele>386</ele><time>2023-09-06T17:07:09Z</time></trkpt>
    <trkpt lat="48.31429" lon="14.54422"><ele>393</ele><time>2023-09-06T17:07:28Z</time></trkpt>
    <trkpt lat="48.31404" lon="14.54423"><ele>399</ele><time>2023-09-06T17:07:46Z</time></trkpt>
    <trkpt lat="48.31404" lon="14.54461"><ele>395</ele><time>2023-09-06T17:08:05Z</time></trkpt>
    <trkpt lat="48.31406" lon="14.54508"><ele>404</ele><time>2023-09-06T17:09:20Z</time></trkpt>
    <trkpt lat="48.31381" lon="14.54509"><ele>406</ele><time>2023-09-06T17:09:39Z</time></trkpt>
    <trkpt lat="48.31361" lon="14.54492"><ele>444</ele><time>2023-09-06T17:09:57Z</time></trkpt>
    <trkpt lat="48.31340" lon="14.54473"><ele>416</ele><time>2023-09-06T17:10:16Z</time></trkpt>
    <trkpt lat="48.31331" lon="14.54444"><ele>410</ele><time>2023-09-06T17:10:34Z</time></trkpt>
    <trkpt lat="48.31322" lon="14.54408"><ele>414</ele><time>2023-09-06T17:10:52Z</time></trkpt>
    <trkpt lat="48.31309" lon="14.54375"><ele>415</ele><time>2023-09-06T17:11:10Z</time></trkpt>
    <trkpt lat="48.31285" lon="14.54361"><ele>423</ele><time>2023-09-06T17:11:29Z</time></trkpt>
    <trkpt lat="48.31262" lon="14.54371"><ele>425</ele><time>2023-09-06T17:11:48Z</time></trkpt>
    <trkpt lat="48.31239" lon="14.54381"><ele>432</ele><time>2023-09-06T17:12:07Z</time></trkpt>
    <trkpt lat="48.31216" lon="14.54388"><ele>471</ele><time>2023-09-06T17:12:26Z</time></trkpt>
    <trkpt lat="48.31197" lon="14.54371"><ele>446</ele><time>2023-09-06T17:12:45Z</time></trkpt>
    <trkpt lat="48.31184" lon="14.54351"><ele>444</ele><time>2023-09-06T17:13:03Z</time></trkpt>
    <trkpt lat="48.31191" lon="14.54315"><ele>445</ele><time>2023-09-06T17:13:22Z</time></trkpt>
    <trkpt lat="48.31220" lon="14.54256"><ele>445</ele><time>2023-09-06T17:13:40Z</time></trkpt>
    <trkpt lat="48.31253" lon="14.54164"><ele>440</ele><time>2023-09-06T17:13:59Z</time></trkpt>
    <trkpt lat="48.31314" lon="14.54139"><ele>447</ele><time>2023-09-06T17:14:18Z</time></trkpt>
    <trkpt lat="48.31339" lon="14.54078"><ele>459</ele><time>2023-09-06T17:14:37Z</time></trkpt>
    <trkpt lat="48.31315" lon="14.54028"><ele>464</ele><time>2023-09-06T17:14:55Z</time></trkpt>
    <trkpt lat="48.31280" lon="14.54003"><ele>453</ele><time>2023-09-06T17:15:13Z</time></trkpt>
    <trkpt lat="48.31301" lon="14.53935"><ele>457</ele><time>2023-09-06T17:15:50Z</time></trkpt>
    <trkpt lat="48.31298" lon="14.53855"><ele>462</ele><time>2023-09-06T17:16:08Z</time></trkpt>
    <trkpt lat="48.31281" lon="14.53739"><ele>455</ele><time>2023-09-06T17:16:27Z</time></trkpt>
    <trkpt lat="48.31301" lon="14.53653"><ele>456</ele><time>2023-09-06T17:16:46Z</time></trkpt>
    <trkpt lat="48.31333" lon="14.53561"><ele>460</ele><time>2023-09-06T17:17:05Z</time></trkpt>
    <trkpt lat="48.31369" lon="14.53455"><ele>455</ele><time>2023-09-06T17:17:23Z</time></trkpt>
    <trkpt lat="48.31419" lon="14.53280"><ele>441</ele><time>2023-09-06T17:17:42Z</time></trkpt>
    <trkpt lat="48.31472" lon="14.53153"><ele>428</ele><time>2023-09-06T17:18:01Z</time></trkpt>
    <trkpt lat="48.31485" lon="14.53097"><ele>429</ele><time>2023-09-06T17:18:20Z</time></trkpt>
    <trkpt lat="48.31552" lon="14.53095"><ele>417</ele><time>2023-09-06T17:18:39Z</time></trkpt>
    <trkpt lat="48.31601" lon="14.53001"><ele>416</ele><time>2023-09-06T17:18:58Z</time></trkpt>
    <trkpt lat="48.31505" lon="14.52933"><ele>402</ele><time>2023-09-06T17:19:17Z</time></trkpt>
    <trkpt lat="48.31392" lon="14.52798"><ele>387</ele><time>2023-09-06T17:19:36Z</time></trkpt>
    <trkpt lat="48.31278" lon="14.52788"><ele>394</ele><time>2023-09-06T17:19:55Z</time></trkpt>
    <trkpt lat="48.31225" lon="14.52795"><ele>385</ele><time>2023-09-06T17:20:13Z</time></trkpt>
    <trkpt lat="48.31204" lon="14.52761"><ele>382</ele><time>2023-09-06T17:20:32Z</time></trkpt>
    <trkpt lat="48.31164" lon="14.52627"><ele>381</ele><time>2023-09-06T17:20:50Z</time></trkpt>
    <trkpt lat="48.31137" lon="14.52482"><ele>371</ele><time>2023-09-06T17:21:09Z</time></trkpt>
    <trkpt lat="48.31065" lon="14.52422"><ele>374</ele><time>2023-09-06T17:21:27Z</time></trkpt>
    <trkpt lat="48.31041" lon="14.52388"><ele>361</ele><time>2023-09-06T17:21:46Z</time></trkpt>
    <trkpt lat="48.31027" lon="14.52384"><ele>361</ele><time>2023-09-06T17:22:22Z</time></trkpt>
    <trkpt lat="48.31017" lon="14.52379"><ele>362</ele><time>2023-09-06T17:22:41Z</time></trkpt>
    <trkpt lat="48.30993" lon="14.52411"><ele>353</ele><time>2023-09-06T17:23:00Z</time></trkpt>
    <trkpt lat="48.30961" lon="14.52473"><ele>344</ele><time>2023-09-06T17:23:19Z</time></trkpt>
    <trkpt lat="48.30875" lon="14.52597"><ele>336</ele><time>2023-09-06T17:23:37Z</time></trkpt>
    <trkpt lat="48.30831" lon="14.52698"><ele>462</ele><time>2023-09-06T17:23:55Z</time></trkpt>
    <trkpt lat="48.30803" lon="14.52766"><ele>348</ele><time>2023-09-06T17:24:14Z</time></trkpt>
    <trkpt lat="48.30712" lon="14.52814"><ele>413</ele><time>2023-09-06T17:24:32Z</time></trkpt>
    <trkpt lat="48.30591" lon="14.52864"><ele>347</ele><time>2023-09-06T17:24:51Z</time></trkpt>
    <trkpt lat="48.30499" lon="14.52908"><ele>346</ele><time>2023-09-06T17:25:09Z</time></trkpt>
    <trkpt lat="48.30400" lon="14.52925"><ele>333</ele><time>2023-09-06T17:25:28Z</time></trkpt>
    <trkpt lat="48.30276" lon="14.52940"><ele>330</ele><time>2023-09-06T17:25:47Z</time></trkpt>
    <trkpt lat="48.30164" lon="14.53026"><ele>326</ele><time>2023-09-06T17:26:06Z</time></trkpt>
    <trkpt lat="48.30044" lon="14.53100"><ele>326</ele><time>2023-09-06T17:26:25Z</time></trkpt>
    <trkpt lat="48.29930" lon="14.53168"><ele>327</ele><time>2023-09-06T17:26:44Z</time></trkpt>
    <trkpt lat="48.29852" lon="14.53180"><ele>329</ele><time>2023-09-06T17:27:02Z</time></trkpt>
    <trkpt lat="48.29794" lon="14.53237"><ele>332</ele><time>2023-09-06T17:27:21Z</time></trkpt>
    <trkpt lat="48.29759" lon="14.53325"><ele>333</ele><time>2023-09-06T17:27:40Z</time></trkpt>
    <trkpt lat="48.29743" lon="14.53365"><ele>335</ele><time>2023-09-06T17:27:59Z</time></trkpt>
    <trkpt lat="48.29632" lon="14.53362"><ele>327</ele><time>2023-09-06T17:28:18Z</time></trkpt>
    <trkpt lat="48.29473" lon="14.53310"><ele>320</ele><time>2023-09-06T17:28:36Z</time></trkpt>
    <trkpt lat="48.29354" lon="14.53220"><ele>321</ele><time>2023-09-06T17:28:55Z</time></trkpt>
    <trkpt lat="48.29280" lon="14.53154"><ele>326</ele><time>2023-09-06T17:29:13Z</time></trkpt>
    <trkpt lat="48.29223" lon="14.53103"><ele>331</ele><time>2023-09-06T17:29:31Z</time></trkpt>
    <trkpt lat="48.29166" lon="14.53054"><ele>332</ele><time>2023-09-06T17:29:50Z</time></trkpt>
    <trkpt lat="48.29107" lon="14.53013"><ele>335</ele><time>2023-09-06T17:30:09Z</time></trkpt>
    <trkpt lat="48.29053" lon="14.52979"><ele>337</ele><time>2023-09-06T17:30:27Z</time></trkpt>
    <trkpt lat="48.29007" lon="14.52930"><ele>340</ele><time>2023-09-06T17:30:45Z</time></trkpt>
    <trkpt lat="48.28951" lon="14.52870"><ele>342</ele><time>2023-09-06T17:31:04Z</time></trkpt>
    <trkpt lat="48.28889" lon="14.52815"><ele>343</ele><time>2023-09-06T17:31:23Z</time></trkpt>
    <trkpt lat="48.28840" lon="14.52778"><ele>356</ele><time>2023-09-06T17:31:41Z</time></trkpt>
    <trkpt lat="48.28791" lon="14.52748"><ele>351</ele><time>2023-09-06T17:31:59Z</time></trkpt>
    <trkpt lat="48.28736" lon="14.52731"><ele>351</ele><time>2023-09-06T17:32:18Z</time></trkpt>
    <trkpt lat="48.28673" lon="14.52711"><ele>351</ele><time>2023-09-06T17:32:37Z</time></trkpt>
    <trkpt lat="48.28601" lon="14.52677"><ele>354</ele><time>2023-09-06T17:32:56Z</time></trkpt>
    <trkpt lat="48.28557" lon="14.52643"><ele>356</ele><time>2023-09-06T17:33:14Z</time></trkpt>
    <trkpt lat="48.28484" lon="14.52562"><ele>354</ele><time>2023-09-06T17:33:33Z</time></trkpt>
    <trkpt lat="48.28417" lon="14.52585"><ele>350</ele><time>2023-09-06T17:33:52Z</time></trkpt>
    <trkpt lat="48.28329" lon="14.52640"><ele>350</ele><time>2023-09-06T17:34:10Z</time></trkpt>
    <trkpt lat="48.28265" lon="14.52607"><ele>343</ele><time>2023-09-06T17:34:28Z</time></trkpt>
    <trkpt lat="48.28163" lon="14.52616"><ele>342</ele><time>2023-09-06T17:34:47Z</time></trkpt>
    <trkpt lat="48.28091" lon="14.52703"><ele>338</ele><time>2023-09-06T17:35:05Z</time></trkpt>
    <trkpt lat="48.28008" lon="14.52788"><ele>334</ele><time>2023-09-06T17:35:23Z</time></trkpt>
    <trkpt lat="48.27901" lon="14.52766"><ele>334</ele><time>2023-09-06T17:35:42Z</time></trkpt>
    <trkpt lat="48.27815" lon="14.52768"><ele>339</ele><time>2023-09-06T17:36:01Z</time></trkpt>
    <trkpt lat="48.27739" lon="14.52783"><ele>342</ele><time>2023-09-06T17:36:19Z</time></trkpt>
    <trkpt lat="48.27630" lon="14.52843"><ele>337</ele><time>2023-09-06T17:36:37Z</time></trkpt>
    <trkpt lat="48.27489" lon="14.52870"><ele>331</ele><time>2023-09-06T17:36:56Z</time></trkpt>
    <trkpt lat="48.27383" lon="14.52772"><ele>321</ele><time>2023-09-06T17:37:14Z</time></trkpt>
    <trkpt lat="48.27304" lon="14.52763"><ele>318</ele><time>2023-09-06T17:37:33Z</time></trkpt>
    <trkpt lat="48.27210" lon="14.52869"><ele>311</ele><time>2023-09-06T17:37:51Z</time></trkpt>
    <trkpt lat="48.27152" lon="14.52853"><ele>314</ele><time>2023-09-06T17:38:09Z</time></trkpt>
    <trkpt lat="48.27094" lon="14.52811"><ele>310</ele><time>2023-09-06T17:38:28Z</time></trkpt>
    <trkpt lat="48.27084" lon="14.52818"><ele>312</ele><time>2023-09-06T17:40:21Z</time></trkpt>
    <trkpt lat="48.26984" lon="14.52915"><ele>304</ele><time>2023-09-06T17:40:40Z</time></trkpt>
    <trkpt lat="48.26973" lon="14.52981"><ele>305</ele><time>2023-09-06T17:40:59Z</time></trkpt>
    <trkpt lat="48.26986" lon="14.52974"><ele>305</ele><time>2023-09-06T17:41:36Z</time></trkpt>
    <trkpt lat="48.26993" lon="14.52852"><ele>303</ele><time>2023-09-06T17:41:55Z</time></trkpt>
    <trkpt lat="48.26979" lon="14.52729"><ele>303</ele><time>2023-09-06T17:42:14Z</time></trkpt>
    <trkpt lat="48.26968" lon="14.52611"><ele>304</ele><time>2023-09-06T17:42:32Z</time></trkpt>
    <trkpt lat="48.26944" lon="14.52487"><ele>302</ele><time>2023-09-06T17:42:51Z</time></trkpt>
    <trkpt lat="48.26917" lon="14.52370"><ele>302</ele><time>2023-09-06T17:43:10Z</time></trkpt>
    <trkpt lat="48.26901" lon="14.52241"><ele>304</ele><time>2023-09-06T17:43:29Z</time></trkpt>
    <trkpt lat="48.26841" lon="14.52242"><ele>304</ele><time>2023-09-06T17:43:47Z</time></trkpt>
    <trkpt lat="48.26800" lon="14.52260"><ele>306</ele><time>2023-09-06T17:44:05Z</time></trkpt>
    <trkpt lat="48.26758" lon="14.52276"><ele>309</ele><time>2023-09-06T17:44:24Z</time></trkpt>
    <trkpt lat="48.26719" lon="14.52291"><ele>311</ele><time>2023-09-06T17:44:42Z</time></trkpt>
    <trkpt lat="48.26683" lon="14.52305"><ele>313</ele><time>2023-09-06T17:45:00Z</time></trkpt>
    <trkpt lat="48.26654" lon="14.52317"><ele>319</ele><time>2023-09-06T17:45:18Z</time></trkpt>
    <trkpt lat="48.26618" lon="14.52333"><ele>321</ele><time>2023-09-06T17:45:37Z</time></trkpt>
    <trkpt lat="48.26579" lon="14.52316"><ele>321</ele><time>2023-09-06T17:45:55Z</time></trkpt>
    <trkpt lat="48.26553" lon="14.52252"><ele>322</ele><time>2023-09-06T17:46:14Z</time></trkpt>
    <trkpt lat="48.26539" lon="14.52189"><ele>325</ele><time>2023-09-06T17:46:32Z</time></trkpt>
    <trkpt lat="48.26505" lon="14.52147"><ele>325</ele><time>2023-09-06T17:46:50Z</time></trkpt>
    <trkpt lat="48.26448" lon="14.52200"><ele>329</ele><time>2023-09-06T17:47:09Z</time></trkpt>
    <trkpt lat="48.26393" lon="14.52231"><ele>331</ele><time>2023-09-06T17:47:28Z</time></trkpt>
    <trkpt lat="48.26339" lon="14.52243"><ele>334</ele><time>2023-09-06T17:47:46Z</time></trkpt>
    <trkpt lat="48.26281" lon="14.52252"><ele>337</ele><time>2023-09-06T17:48:04Z</time></trkpt>
    <trkpt lat="48.26220" lon="14.52235"><ele>337</ele><time>2023-09-06T17:48:23Z</time></trkpt>
    <trkpt lat="48.26171" lon="14.52203"><ele>341</ele><time>2023-09-06T17:48:42Z</time></trkpt>
    <trkpt lat="48.26107" lon="14.52177"><ele>344</ele><time>2023-09-06T17:49:01Z</time></trkpt>
    <trkpt lat="48.26048" lon="14.52163"><ele>345</ele><time>2023-09-06T17:49:20Z</time></trkpt>
    <trkpt lat="48.26021" lon="14.52108"><ele>346</ele><time>2023-09-06T17:49:38Z</time></trkpt>
    <trkpt lat="48.26001" lon="14.52000"><ele>346</ele><time>2023-09-06T17:49:56Z</time></trkpt>
    <trkpt lat="48.25986" lon="14.51850"><ele>339</ele><time>2023-09-06T17:50:15Z</time></trkpt>
    <trkpt lat="48.25975" lon="14.51754"><ele>339</ele><time>2023-09-06T17:50:34Z</time></trkpt>
    <trkpt lat="48.25959" lon="14.51771"><ele>343</ele><time>2023-09-06T17:50:53Z</time></trkpt>
    <trkpt lat="48.25903" lon="14.51800"><ele>344</ele><time>2023-09-06T17:51:11Z</time></trkpt>
    <trkpt lat="48.25859" lon="14.51830"><ele>345</ele><time>2023-09-06T17:51:30Z</time></trkpt>
    <trkpt lat="48.25826" lon="14.51848"><ele>349</ele><time>2023-09-06T17:51:49Z</time></trkpt>
    <trkpt lat="48.25806" lon="14.51865"><ele>351</ele><time>2023-09-06T17:52:08Z</time></trkpt>
    <trkpt lat="48.25772" lon="14.51903"><ele>349</ele><time>2023-09-06T17:52:27Z</time></trkpt>
    <trkpt lat="48.25717" lon="14.51923"><ele>352</ele><time>2023-09-06T17:52:46Z</time></trkpt>
    <trkpt lat="48.25667" lon="14.51940"><ele>358</ele><time>2023-09-06T17:53:05Z</time></trkpt>
    <trkpt lat="48.25625" lon="14.51967"><ele>357</ele><time>2023-09-06T17:53:23Z</time></trkpt>
    <trkpt lat="48.25574" lon="14.51989"><ele>351</ele><time>2023-09-06T17:53:42Z</time></trkpt>
    <trkpt lat="48.25521" lon="14.51999"><ele>349</ele><time>2023-09-06T17:54:01Z</time></trkpt>
    <trkpt lat="48.25467" lon="14.51996"><ele>349</ele><time>2023-09-06T17:54:20Z</time></trkpt>
    <trkpt lat="48.25388" lon="14.51989"><ele>343</ele><time>2023-09-06T17:54:38Z</time></trkpt>
    <trkpt lat="48.25260" lon="14.51958"><ele>342</ele><time>2023-09-06T17:54:57Z</time></trkpt>
    <trkpt lat="48.25182" lon="14.51957"><ele>339</ele><time>2023-09-06T17:55:16Z</time></trkpt>
    <trkpt lat="48.25152" lon="14.51928"><ele>337</ele><time>2023-09-06T17:55:53Z</time></trkpt>
    <trkpt lat="48.25110" lon="14.51862"><ele>335</ele><time>2023-09-06T17:56:11Z</time></trkpt>
    <trkpt lat="48.25073" lon="14.51748"><ele>330</ele><time>2023-09-06T17:56:29Z</time></trkpt>
    <trkpt lat="48.24995" lon="14.51653"><ele>326</ele><time>2023-09-06T17:56:47Z</time></trkpt>
    <trkpt lat="48.24912" lon="14.51596"><ele>326</ele><time>2023-09-06T17:57:06Z</time></trkpt>
    <trkpt lat="48.24821" lon="14.51597"><ele>319</ele><time>2023-09-06T17:57:25Z</time></trkpt>
    <trkpt lat="48.24769" lon="14.51597"><ele>314</ele><time>2023-09-06T17:57:44Z</time></trkpt>
    <trkpt lat="48.24701" lon="14.51625"><ele>308</ele><time>2023-09-06T17:58:02Z</time></trkpt>
    <trkpt lat="48.24630" lon="14.51628"><ele>311</ele><time>2023-09-06T17:58:20Z</time></trkpt>
    <trkpt lat="48.24587" lon="14.51629"><ele>312</ele><time>2023-09-06T17:58:39Z</time></trkpt>
    <trkpt lat="48.24524" lon="14.51640"><ele>308</ele><time>2023-09-06T17:58:57Z</time></trkpt>
    <trkpt lat="48.24466" lon="14.51595"><ele>302</ele><time>2023-09-06T17:59:15Z</time></trkpt>
    <trkpt lat="48.24461" lon="14.51523"><ele>306</ele><time>2023-09-06T17:59:33Z</time></trkpt>
    <trkpt lat="48.24467" lon="14.51450"><ele>308</ele><time>2023-09-06T17:59:51Z</time></trkpt>
    <trkpt lat="48.24474" lon="14.51358"><ele>308</ele><time>2023-09-06T18:00:10Z</time></trkpt>
    <trkpt lat="48.24448" lon="14.51282"><ele>303</ele><time>2023-09-06T18:00:29Z</time></trkpt>
    <trkpt lat="48.24390" lon="14.51368"><ele>289</ele><time>2023-09-06T18:00:48Z</time></trkpt>
    <trkpt lat="48.24346" lon="14.51364"><ele>284</ele><time>2023-09-06T18:01:06Z</time></trkpt>
    <trkpt lat="48.24355" lon="14.51445"><ele>279</ele><time>2023-09-06T18:01:24Z</time></trkpt>
    <trkpt lat="48.24334" lon="14.51524"><ele>274</ele><time>2023-09-06T18:01:43Z</time></trkpt>
    <trkpt lat="48.24267" lon="14.51556"><ele>267</ele><time>2023-09-06T18:02:02Z</time></trkpt>
    <trkpt lat="48.24191" lon="14.51554"><ele>254</ele><time>2023-09-06T18:02:20Z</time></trkpt>
    <trkpt lat="48.24124" lon="14.51598"><ele>248</ele><time>2023-09-06T18:02:39Z</time></trkpt>
    <trkpt lat="48.24094" lon="14.51696"><ele>238</ele><time>2023-09-06T18:02:57Z</time></trkpt>
    <trkpt lat="48.24039" lon="14.51816"><ele>244</ele><time>2023-09-06T18:03:16Z</time></trkpt>
    <trkpt lat="48.23976" lon="14.51933"><ele>246</ele><time>2023-09-06T18:03:35Z</time></trkpt>
    <trkpt lat="48.23945" lon="14.52066"><ele>249</ele><time>2023-09-06T18:03:54Z</time></trkpt>
    <trkpt lat="48.23957" lon="14.52193"><ele>247</ele><time>2023-09-06T18:04:12Z</time></trkpt>
    <trkpt lat="48.23985" lon="14.52305"><ele>249</ele><time>2023-09-06T18:04:31Z</time></trkpt>
    <trkpt lat="48.24013" lon="14.52414"><ele>249</ele><time>2023-09-06T18:04:49Z</time></trkpt>
    <trkpt lat="48.24046" lon="14.52516"><ele>253</ele><time>2023-09-06T18:05:08Z</time></trkpt>
    <trkpt lat="48.24078" lon="14.52636"><ele>253</ele><time>2023-09-06T18:05:27Z</time></trkpt>
    <trkpt lat="48.24104" lon="14.52765"><ele>250</ele><time>2023-09-06T18:05:45Z</time></trkpt>
    <trkpt lat="48.24125" lon="14.52859"><ele>250</ele><time>2023-09-06T18:06:04Z</time></trkpt>
    <trkpt lat="48.24149" lon="14.52974"><ele>249</ele><time>2023-09-06T18:06:23Z</time></trkpt>
    <trkpt lat="48.24155" lon="14.53070"><ele>246</ele><time>2023-09-06T18:06:42Z</time></trkpt>
    <trkpt lat="48.24086" lon="14.53125"><ele>251</ele><time>2023-09-06T18:07:00Z</time></trkpt>
    <trkpt lat="48.24012" lon="14.53147"><ele>248</ele><time>2023-09-06T18:07:18Z</time></trkpt>
    <trkpt lat="48.23955" lon="14.53174"><ele>251</ele><time>2023-09-06T18:07:37Z</time></trkpt>
    <trkpt lat="48.23879" lon="14.53148"><ele>255</ele><time>2023-09-06T18:07:56Z</time></trkpt>
    <trkpt lat="48.23788" lon="14.53128"><ele>252</ele><time>2023-09-06T18:08:15Z</time></trkpt>
    <trkpt lat="48.23692" lon="14.53102"><ele>252</ele><time>2023-09-06T18:08:34Z</time></trkpt>
    <trkpt lat="48.23598" lon="14.53075"><ele>251</ele><time>2023-09-06T18:08:53Z</time></trkpt>
    <trkpt lat="48.23508" lon="14.53051"><ele>250</ele><time>2023-09-06T18:09:12Z</time></trkpt>
    <trkpt lat="48.23476" lon="14.53040"><ele>253</ele><time>2023-09-06T18:09:31Z</time></trkpt>
    <trkpt lat="48.23454" lon="14.52922"><ele>243</ele><time>2023-09-06T18:10:08Z</time></trkpt>
    <trkpt lat="48.23455" lon="14.52738"><ele>242</ele><time>2023-09-06T18:10:27Z</time></trkpt>
    <trkpt lat="48.23443" lon="14.52603"><ele>245</ele><time>2023-09-06T18:10:46Z</time></trkpt>
    <trkpt lat="48.23418" lon="14.52487"><ele>246</ele><time>2023-09-06T18:11:04Z</time></trkpt>
    <trkpt lat="48.23388" lon="14.52349"><ele>243</ele><time>2023-09-06T18:11:23Z</time></trkpt>
    <trkpt lat="48.23351" lon="14.52233"><ele>269</ele><time>2023-09-06T18:11:42Z</time></trkpt>
    <trkpt lat="48.23310" lon="14.52103"><ele>244</ele><time>2023-09-06T18:12:01Z</time></trkpt>
    <trkpt lat="48.23264" lon="14.51972"><ele>245</ele><time>2023-09-06T18:12:20Z</time></trkpt>
    <trkpt lat="48.23209" lon="14.51842"><ele>246</ele><time>2023-09-06T18:12:39Z</time></trkpt>
    <trkpt lat="48.23145" lon="14.51705"><ele>246</ele><time>2023-09-06T18:12:58Z</time></trkpt>
    <trkpt lat="48.23084" lon="14.51595"><ele>245</ele><time>2023-09-06T18:13:16Z</time></trkpt>
    <trkpt lat="48.23013" lon="14.51502"><ele>254</ele><time>2023-09-06T18:13:34Z</time></trkpt>
    <trkpt lat="48.22923" lon="14.51422"><ele>252</ele><time>2023-09-06T18:13:53Z</time></trkpt>
    <trkpt lat="48.22830" lon="14.51378"><ele>250</ele><time>2023-09-06T18:14:12Z</time></trkpt>
    <trkpt lat="48.22734" lon="14.51360"><ele>249</ele><time>2023-09-06T18:14:30Z</time></trkpt>
    <trkpt lat="48.22620" lon="14.51346"><ele>248</ele><time>2023-09-06T18:14:48Z</time></trkpt>
    <trkpt lat="48.22513" lon="14.51309"><ele>248</ele><time>2023-09-06T18:15:07Z</time></trkpt>
    <trkpt lat="48.22431" lon="14.51229"><ele>245</ele><time>2023-09-06T18:15:26Z</time></trkpt>
    <trkpt lat="48.22400" lon="14.51096"><ele>247</ele><time>2023-09-06T18:15:44Z</time></trkpt>
    <trkpt lat="48.22388" lon="14.50982"><ele>248</ele><time>2023-09-06T18:16:03Z</time></trkpt>
    <trkpt lat="48.22318" lon="14.51027"><ele>248</ele><time>2023-09-06T18:16:22Z</time></trkpt>
    <trkpt lat="48.22272" lon="14.50947"><ele>249</ele><time>2023-09-06T18:16:40Z</time></trkpt>
    <trkpt lat="48.22232" lon="14.50818"><ele>258</ele><time>2023-09-06T18:16:59Z</time></trkpt>
    <trkpt lat="48.22187" lon="14.50691"><ele>254</ele><time>2023-09-06T18:17:18Z</time></trkpt>
    <trkpt lat="48.22143" lon="14.50574"><ele>253</ele><time>2023-09-06T18:17:36Z</time></trkpt>
    <trkpt lat="48.22103" lon="14.50455"><ele>251</ele><time>2023-09-06T18:17:54Z</time></trkpt>
    <trkpt lat="48.22057" lon="14.50327"><ele>255</ele><time>2023-09-06T18:18:13Z</time></trkpt>
    <trkpt lat="48.22015" lon="14.50204"><ele>257</ele><time>2023-09-06T18:18:31Z</time></trkpt>
    <trkpt lat="48.22013" lon="14.50173"><ele>254</ele><time>2023-09-06T18:18:49Z</time></trkpt>
    <trkpt lat="48.22052" lon="14.50135"><ele>250</ele><time>2023-09-06T18:19:45Z</time></trkpt>
    <trkpt lat="48.22138" lon="14.50068"><ele>246</ele><time>2023-09-06T18:20:04Z</time></trkpt>
    <trkpt lat="48.22226" lon="14.49990"><ele>249</ele><time>2023-09-06T18:20:23Z</time></trkpt>
    <trkpt lat="48.22304" lon="14.49918"><ele>246</ele><time>2023-09-06T18:20:41Z</time></trkpt>
    <trkpt lat="48.22394" lon="14.49843"><ele>245</ele><time>2023-09-06T18:21:00Z</time></trkpt>
    <trkpt lat="48.22483" lon="14.49769"><ele>248</ele><time>2023-09-06T18:21:19Z</time></trkpt>
    <trkpt lat="48.22494" lon="14.49752"><ele>249</ele><time>2023-09-06T18:21:37Z</time></trkpt>
    <trkpt lat="48.22439" lon="14.49799"><ele>248</ele><time>2023-09-06T18:21:56Z</time></trkpt>
    <trkpt lat="48.22361" lon="14.49868"><ele>248</ele><time>2023-09-06T18:22:15Z</time></trkpt>
    <trkpt lat="48.22312" lon="14.49906"><ele>249</ele><time>2023-09-06T18:22:34Z</time></trkpt>
    <trkpt lat="48.22234" lon="14.49969"><ele>248</ele><time>2023-09-06T18:22:52Z</time></trkpt>
    <trkpt lat="48.22166" lon="14.50025"><ele>248</ele><time>2023-09-06T18:23:10Z</time></trkpt>
    <trkpt lat="48.22096" lon="14.50089"><ele>247</ele><time>2023-09-06T18:23:29Z</time></trkpt>
    <trkpt lat="48.22021" lon="14.50146"><ele>248</ele><time>2023-09-06T18:23:48Z</time></trkpt>
    <trkpt lat="48.21951" lon="14.50206"><ele>250</ele><time>2023-09-06T18:24:07Z</time></trkpt>
    <trkpt lat="48.21907" lon="14.50195"><ele>248</ele><time>2023-09-06T18:24:26Z</time></trkpt>
    <trkpt lat="48.21975" lon="14.50106"><ele>249</ele><time>2023-09-06T18:24:44Z</time></trkpt>
    <trkpt lat="48.22049" lon="14.49990"><ele>250</ele><time>2023-09-06T18:25:03Z</time></trkpt>
    <trkpt lat="48.22120" lon="14.49880"><ele>250</ele><time>2023-09-06T18:25:21Z</time></trkpt>
    <trkpt lat="48.22193" lon="14.49768"><ele>250</ele><time>2023-09-06T18:25:39Z</time></trkpt>
    <trkpt lat="48.22264" lon="14.49649"><ele>251</ele><time>2023-09-06T18:25:58Z</time></trkpt>
    <trkpt lat="48.22326" lon="14.49539"><ele>254</ele><time>2023-09-06T18:26:16Z</time></trkpt>
    <trkpt lat="48.22388" lon="14.49420"><ele>255</ele><time>2023-09-06T18:26:35Z</time></trkpt>
    <trkpt lat="48.22449" lon="14.49292"><ele>255</ele><time>2023-09-06T18:26:54Z</time></trkpt>
    <trkpt lat="48.22507" lon="14.49161"><ele>258</ele><time>2023-09-06T18:27:13Z</time></trkpt>
    <trkpt lat="48.22563" lon="14.49025"><ele>257</ele><time>2023-09-06T18:27:32Z</time></trkpt>
    <trkpt lat="48.22618" lon="14.48874"><ele>255</ele><time>2023-09-06T18:27:50Z</time></trkpt>
    <trkpt lat="48.22681" lon="14.48686"><ele>253</ele><time>2023-09-06T18:28:09Z</time></trkpt>
    <trkpt lat="48.22739" lon="14.48491"><ele>250</ele><time>2023-09-06T18:28:28Z</time></trkpt>
    <trkpt lat="48.22782" lon="14.48312"><ele>252</ele><time>2023-09-06T18:28:46Z</time></trkpt>
    <trkpt lat="48.22851" lon="14.48226"><ele>251</ele><time>2023-09-06T18:29:04Z</time></trkpt>
    <trkpt lat="48.22860" lon="14.48067"><ele>249</ele><time>2023-09-06T18:29:23Z</time></trkpt>
    <trkpt lat="48.22760" lon="14.47958"><ele>247</ele><time>2023-09-06T18:29:41Z</time></trkpt>
    <trkpt lat="48.22681" lon="14.47909"><ele>248</ele><time>2023-09-06T18:29:59Z</time></trkpt>
    <trkpt lat="48.22601" lon="14.47888"><ele>250</ele><time>2023-09-06T18:30:18Z</time></trkpt>
    <trkpt lat="48.22538" lon="14.47814"><ele>251</ele><time>2023-09-06T18:30:37Z</time></trkpt>
    <trkpt lat="48.22484" lon="14.47714"><ele>253</ele><time>2023-09-06T18:30:56Z</time></trkpt>
    <trkpt lat="48.22433" lon="14.47620"><ele>251</ele><time>2023-09-06T18:31:14Z</time></trkpt>
    <trkpt lat="48.22372" lon="14.47585"><ele>253</ele><time>2023-09-06T18:31:32Z</time></trkpt>
    <trkpt lat="48.22303" lon="14.47604"><ele>253</ele><time>2023-09-06T18:31:50Z</time></trkpt>
    <trkpt lat="48.22231" lon="14.47641"><ele>256</ele><time>2023-09-06T18:32:09Z</time></trkpt>
    <trkpt lat="48.22169" lon="14.47695"><ele>257</ele><time>2023-09-06T18:32:27Z</time></trkpt>
    <trkpt lat="48.22119" lon="14.47719"><ele>258</ele><time>2023-09-06T18:32:45Z</time></trkpt>
    <trkpt lat="48.22063" lon="14.47739"><ele>257</ele><time>2023-09-06T18:33:03Z</time></trkpt>
    <trkpt lat="48.21974" lon="14.47795"><ele>256</ele><time>2023-09-06T18:33:22Z</time></trkpt>
    <trkpt lat="48.21897" lon="14.47851"><ele>259</ele><time>2023-09-06T18:33:41Z</time></trkpt>
    <trkpt lat="48.21825" lon="14.47915"><ele>260</ele><time>2023-09-06T18:33:59Z</time></trkpt>
    <trkpt lat="48.21752" lon="14.47982"><ele>260</ele><time>2023-09-06T18:34:18Z</time></trkpt>
    <trkpt lat="48.21719" lon="14.47987"><ele>260</ele><time>2023-09-06T18:34:36Z</time></trkpt>
    <trkpt lat="48.21708" lon="14.47996"><ele>261</ele><time>2023-09-06T18:35:13Z</time></trkpt>
    <trkpt lat="48.21702" lon="14.48059"><ele>261</ele><time>2023-09-06T18:35:31Z</time></trkpt>
    <trkpt lat="48.21645" lon="14.48068"><ele>267</ele><time>2023-09-06T18:35:50Z</time></trkpt>
    <trkpt lat="48.21602" lon="14.48047"><ele>268</ele><time>2023-09-06T18:36:09Z</time></trkpt>
    <trkpt lat="48.21564" lon="14.48018"><ele>272</ele><time>2023-09-06T18:36:27Z</time></trkpt>
    <trkpt lat="48.21523" lon="14.47991"><ele>277</ele><time>2023-09-06T18:36:46Z</time></trkpt>
    <trkpt lat="48.21476" lon="14.47965"><ele>279</ele><time>2023-09-06T18:37:05Z</time></trkpt>
    <trkpt lat="48.21423" lon="14.47928"><ele>279</ele><time>2023-09-06T18:37:24Z</time></trkpt>
    <trkpt lat="48.21374" lon="14.47919"><ele>287</ele><time>2023-09-06T18:37:43Z</time></trkpt>
    <trkpt lat="48.21316" lon="14.47914"><ele>282</ele><time>2023-09-06T18:38:01Z</time></trkpt>
    <trkpt lat="48.21235" lon="14.47909"><ele>277</ele><time>2023-09-06T18:38:19Z</time></trkpt>
    <trkpt lat="48.21169" lon="14.47861"><ele>273</ele><time>2023-09-06T18:38:38Z</time></trkpt>
    <trkpt lat="48.21111" lon="14.47820"><ele>271</ele><time>2023-09-06T18:38:57Z</time></trkpt>
    <trkpt lat="48.21143" lon="14.47738"><ele>272</ele><time>2023-09-06T18:39:15Z</time></trkpt>
    <trkpt lat="48.21206" lon="14.47644"><ele>269</ele><time>2023-09-06T18:39:34Z</time></trkpt>
    <trkpt lat="48.21300" lon="14.47531"><ele>267</ele><time>2023-09-06T18:39:52Z</time></trkpt>
    <trkpt lat="48.21406" lon="14.47431"><ele>261</ele><time>2023-09-06T18:40:10Z</time></trkpt>
    <trkpt lat="48.21511" lon="14.47326"><ele>258</ele><time>2023-09-06T18:40:29Z</time></trkpt>
    <trkpt lat="48.21562" lon="14.47176"><ele>258</ele><time>2023-09-06T18:40:47Z</time></trkpt>
    <trkpt lat="48.21587" lon="14.46987"><ele>259</ele><time>2023-09-06T18:41:06Z</time></trkpt>
    <trkpt lat="48.21636" lon="14.46872"><ele>259</ele><time>2023-09-06T18:41:24Z</time></trkpt>
    <trkpt lat="48.21746" lon="14.46871"><ele>257</ele><time>2023-09-06T18:41:43Z</time></trkpt>
    <trkpt lat="48.21853" lon="14.46788"><ele>257</ele><time>2023-09-06T18:42:02Z</time></trkpt>
    <trkpt lat="48.21956" lon="14.46661"><ele>251</ele><time>2023-09-06T18:42:21Z</time></trkpt>
    <trkpt lat="48.22060" lon="14.46602"><ele>246</ele><time>2023-09-06T18:42:40Z</time></trkpt>
    <trkpt lat="48.22092" lon="14.46668"><ele>248</ele><time>2023-09-06T18:42:59Z</time></trkpt>
    <trkpt lat="48.22128" lon="14.46691"><ele>252</ele><time>2023-09-06T18:44:55Z</time></trkpt>
    <trkpt lat="48.22125" lon="14.46702"><ele>249</ele><time>2023-09-06T18:45:14Z</time></trkpt>
  </trkseg>
</trk>
</gpx>