<?xml version="1.0" encoding="UTF-8"?>
<gpx version="1.1" creator="GPX-Pro" xmlns="http://www.topografix.com/GPX/1/1">
<rte>
  <name>BlaueKöpfe</name>
    <rtept lat="47.25588" lon="10.67702"></rtept>
    <rtept lat="47.25601" lon="10.67790"></rtept>
    <rtept lat="47.25691" lon="10.67773"></rtept>
    <rtept lat="47.25712" lon="10.67715"></rtept>
    <rtept lat="47.25731" lon="10.67689"></rtept>
    <rtept lat="47.25728" lon="10.67662"></rtept>
    <rtept lat="47.25747" lon="10.67600"></rtept>
    <rtept lat="47.25765" lon="10.67585"></rtept>
    <rtept lat="47.25787" lon="10.67553"></rtept>
    <rtept lat="47.25793" lon="10.67530"></rtept>
    <rtept lat="47.25829" lon="10.67507"></rtept>
    <rtept lat="47.25839" lon="10.67472"></rtept>
    <rtept lat="47.25845" lon="10.67408"></rtept>
    <rtept lat="47.25866" lon="10.67362"></rtept>
    <rtept lat="47.25862" lon="10.67341"></rtept>
    <rtept lat="47.25863" lon="10.67313"></rtept>
    <rtept lat="47.25879" lon="10.67299"></rtept>
    <rtept lat="47.25884" lon="10.67279"></rtept>
    <rtept lat="47.25884" lon="10.67249"></rtept>
    <rtept lat="47.25896" lon="10.67242"></rtept>
    <rtept lat="47.25920" lon="10.67202"></rtept>
    <rtept lat="47.25935" lon="10.67165"></rtept>
    <rtept lat="47.25956" lon="10.67164"></rtept>
    <rtept lat="47.25972" lon="10.67131"></rtept>
    <rtept lat="47.26056" lon="10.67006"></rtept>
    <rtept lat="47.26068" lon="10.66975"></rtept>
    <rtept lat="47.26093" lon="10.66960"></rtept>
    <rtept lat="47.26115" lon="10.66967"></rtept>
    <rtept lat="47.26148" lon="10.66947"></rtept>
    <rtept lat="47.26158" lon="10.66955"></rtept>
    <rtept lat="47.26226" lon="10.66964"></rtept>
    <rtept lat="47.26126" lon="10.66859"></rtept>
    <rtept lat="47.26104" lon="10.66854"></rtept>
    <rtept lat="47.26113" lon="10.66803"></rtept>
    <rtept lat="47.26090" lon="10.66766"></rtept>
    <rtept lat="47.26087" lon="10.66716"></rtept>
    <rtept lat="47.26094" lon="10.66664"></rtept>
    <rtept lat="47.26102" lon="10.66647"></rtept>
    <rtept lat="47.26100" lon="10.66613"></rtept>
    <rtept lat="47.26082" lon="10.66568"></rtept>
    <rtept lat="47.26056" lon="10.66554"></rtept>
    <rtept lat="47.26045" lon="10.66469"></rtept>
    <rtept lat="47.26059" lon="10.66339"></rtept>
    <rtept lat="47.26076" lon="10.66277"></rtept>
    <rtept lat="47.26080" lon="10.66238"></rtept>
    <rtept lat="47.26100" lon="10.66187"></rtept>
    <rtept lat="47.26088" lon="10.66093"></rtept>
    <rtept lat="47.26052" lon="10.65997"></rtept>
    <rtept lat="47.26068" lon="10.65966"></rtept>
    <rtept lat="47.26054" lon="10.65754"></rtept>
    <rtept lat="47.26049" lon="10.65674"></rtept>
    <rtept lat="47.26153" lon="10.65513"></rtept>
    <rtept lat="47.26156" lon="10.65439"></rtept>
    <rtept lat="47.26176" lon="10.65385"></rtept>
    <rtept lat="47.26211" lon="10.65389"></rtept>
    <rtept lat="47.26266" lon="10.65462"></rtept>
</rte>
</gpx>