<?xml version="1.0" encoding="UTF-8"?>
<gpx version="1.1" creator="GPX-Pro" xmlns="http://www.topografix.com/GPX/1/1">
<trk>
  <name>Mtb_Peuerbach-Kopfing</name>
  <trkseg>
    <trkpt lat="48.33822" lon="13.77018"><ele>391</ele><time>2023-09-10T06:12:13Z</time></trkpt>
    <trkpt lat="48.33812" lon="13.77018"><ele>391</ele><time>2023-09-10T06:12:16Z</time></trkpt>
    <trkpt lat="48.33784" lon="13.77054"><ele>395</ele><time>2023-09-10T06:12:34Z</time></trkpt>
    <trkpt lat="48.33727" lon="13.77119"><ele>384</ele><time>2023-09-10T06:12:53Z</time></trkpt>
    <trkpt lat="48.33675" lon="13.77194"><ele>382</ele><time>2023-09-10T06:13:11Z</time></trkpt>
    <trkpt lat="48.33657" lon="13.77241"><ele>384</ele><time>2023-09-10T06:13:29Z</time></trkpt>
    <trkpt lat="48.33597" lon="13.77295"><ele>383</ele><time>2023-09-10T06:13:48Z</time></trkpt>
    <trkpt lat="48.33510" lon="13.77338"><ele>377</ele><time>2023-09-10T06:14:07Z</time></trkpt>
    <trkpt lat="48.33486" lon="13.77457"><ele>378</ele><time>2023-09-10T06:14:25Z</time></trkpt>
    <trkpt lat="48.33552" lon="13.77420"><ele>376</ele><time>2023-09-10T06:14:43Z</time></trkpt>
    <trkpt lat="48.33637" lon="13.77448"><ele>375</ele><time>2023-09-10T06:15:02Z</time></trkpt>
    <trkpt lat="48.33709" lon="13.77522"><ele>376</ele><time>2023-09-10T06:15:21Z</time></trkpt>
    <trkpt lat="48.33739" lon="13.77631"><ele>378</ele><time>2023-09-10T06:15:39Z</time></trkpt>
    <trkpt lat="48.33752" lon="13.77736"><ele>379</ele><time>2023-09-10T06:15:58Z</time></trkpt>
    <trkpt lat="48.33794" lon="13.77811"><ele>381</ele><time>2023-09-10T06:16:16Z</time></trkpt>
    <trkpt lat="48.33860" lon="13.77808"><ele>381</ele><time>2023-09-10T06:16:35Z</time></trkpt>
    <trkpt lat="48.33921" lon="13.77758"><ele>377</ele><time>2023-09-10T06:16:53Z</time></trkpt>
    <trkpt lat="48.33989" lon="13.77703"><ele>375</ele><time>2023-09-10T06:17:12Z</time></trkpt>
    <trkpt lat="48.34053" lon="13.77633"><ele>377</ele><time>2023-09-10T06:17:31Z</time></trkpt>
    <trkpt lat="48.34112" lon="13.77560"><ele>380</ele><time>2023-09-10T06:17:50Z</time></trkpt>
    <trkpt lat="48.34161" lon="13.77492"><ele>382</ele><time>2023-09-10T06:18:08Z</time></trkpt>
    <trkpt lat="48.34217" lon="13.77429"><ele>379</ele><time>2023-09-10T06:18:27Z</time></trkpt>
    <trkpt lat="48.34279" lon="13.77364"><ele>380</ele><time>2023-09-10T06:18:46Z</time></trkpt>
    <trkpt lat="48.34331" lon="13.77392"><ele>382</ele><time>2023-09-10T06:19:04Z</time></trkpt>
    <trkpt lat="48.34353" lon="13.77434"><ele>391</ele><time>2023-09-10T06:19:23Z</time></trkpt>
    <trkpt lat="48.34446" lon="13.77373"><ele>383</ele><time>2023-09-10T06:19:42Z</time></trkpt>
    <trkpt lat="48.34487" lon="13.77403"><ele>385</ele><time>2023-09-10T06:20:00Z</time></trkpt>
    <trkpt lat="48.34499" lon="13.77453"><ele>391</ele><time>2023-09-10T06:20:18Z</time></trkpt>
    <trkpt lat="48.34497" lon="13.77493"><ele>397</ele><time>2023-09-10T06:20:37Z</time></trkpt>
    <trkpt lat="48.34497" lon="13.77535"><ele>397</ele><time>2023-09-10T06:20:56Z</time></trkpt>
    <trkpt lat="48.34509" lon="13.77570"><ele>400</ele><time>2023-09-10T06:21:14Z</time></trkpt>
    <trkpt lat="48.34521" lon="13.77607"><ele>406</ele><time>2023-09-10T06:21:32Z</time></trkpt>
    <trkpt lat="48.34531" lon="13.77639"><ele>410</ele><time>2023-09-10T06:21:51Z</time></trkpt>
    <trkpt lat="48.34541" lon="13.77668"><ele>414</ele><time>2023-09-10T06:22:09Z</time></trkpt>
    <trkpt lat="48.34554" lon="13.77698"><ele>414</ele><time>2023-09-10T06:22:28Z</time></trkpt>
    <trkpt lat="48.34563" lon="13.77724"><ele>421</ele><time>2023-09-10T06:22:46Z</time></trkpt>
    <trkpt lat="48.34573" lon="13.77746"><ele>422</ele><time>2023-09-10T06:23:04Z</time></trkpt>
    <trkpt lat="48.34584" lon="13.77760"><ele>424</ele><time>2023-09-10T06:23:23Z</time></trkpt>
    <trkpt lat="48.34596" lon="13.77776"><ele>425</ele><time>2023-09-10T06:23:42Z</time></trkpt>
    <trkpt lat="48.34609" lon="13.77794"><ele>431</ele><time>2023-09-10T06:24:00Z</time></trkpt>
    <trkpt lat="48.34623" lon="13.77812"><ele>434</ele><time>2023-09-10T06:24:19Z</time></trkpt>
    <trkpt lat="48.34633" lon="13.77840"><ele>434</ele><time>2023-09-10T06:24:38Z</time></trkpt>
    <trkpt lat="48.34651" lon="13.77853"><ele>436</ele><time>2023-09-10T06:24:56Z</time></trkpt>
    <trkpt lat="48.34675" lon="13.77862"><ele>439</ele><time>2023-09-10T06:25:14Z</time></trkpt>
    <trkpt lat="48.34696" lon="13.77893"><ele>443</ele><time>2023-09-10T06:25:33Z</time></trkpt>
    <trkpt lat="48.34725" lon="13.77910"><ele>445</ele><time>2023-09-10T06:25:52Z</time></trkpt>
    <trkpt lat="48.34747" lon="13.77940"><ele>445</ele><time>2023-09-10T06:26:10Z</time></trkpt>
    <trkpt lat="48.34768" lon="13.77983"><ele>449</ele><time>2023-09-10T06:26:28Z</time></trkpt>
    <trkpt lat="48.34780" lon="13.78026"><ele>454</ele><time>2023-09-10T06:26:47Z</time></trkpt>
    <trkpt lat="48.34771" lon="13.78129"><ele>453</ele><time>2023-09-10T06:27:05Z</time></trkpt>
    <trkpt lat="48.34771" lon="13.78240"><ele>453</ele><time>2023-09-10T06:27:24Z</time></trkpt>
    <trkpt lat="48.34793" lon="13.78322"><ele>456</ele><time>2023-09-10T06:27:42Z</time></trkpt>
    <trkpt lat="48.34807" lon="13.78403"><ele>459</ele><time>2023-09-10T06:28:01Z</time></trkpt>
    <trkpt lat="48.34817" lon="13.78483"><ele>459</ele><time>2023-09-10T06:28:19Z</time></trkpt>
    <trkpt lat="48.34815" lon="13.78547"><ele>462</ele><time>2023-09-10T06:28:37Z</time></trkpt>
    <trkpt lat="48.34860" lon="13.78571"><ele>459</ele><time>2023-09-10T06:29:51Z</time></trkpt>
    <trkpt lat="48.34905" lon="13.78603"><ele>463</ele><time>2023-09-10T06:30:10Z</time></trkpt>
    <trkpt lat="48.34939" lon="13.78550"><ele>465</ele><time>2023-09-10T06:30:28Z</time></trkpt>
    <trkpt lat="48.34989" lon="13.78534"><ele>466</ele><time>2023-09-10T06:30:46Z</time></trkpt>
    <trkpt lat="48.35019" lon="13.78544"><ele>470</ele><time>2023-09-10T06:31:05Z</time></trkpt>
    <trkpt lat="48.35063" lon="13.78546"><ele>472</ele><time>2023-09-10T06:31:23Z</time></trkpt>
    <trkpt lat="48.35108" lon="13.78542"><ele>474</ele><time>2023-09-10T06:31:42Z</time></trkpt>
    <trkpt lat="48.35122" lon="13.78572"><ele>476</ele><time>2023-09-10T06:32:01Z</time></trkpt>
    <trkpt lat="48.35101" lon="13.78612"><ele>473</ele><time>2023-09-10T06:32:20Z</time></trkpt>
    <trkpt lat="48.35084" lon="13.78664"><ele>479</ele><time>2023-09-10T06:32:38Z</time></trkpt>
    <trkpt lat="48.35085" lon="13.78705"><ele>480</ele><time>2023-09-10T06:32:56Z</time></trkpt>
    <trkpt lat="48.35086" lon="13.78754"><ele>487</ele><time>2023-09-10T06:33:14Z</time></trkpt>
    <trkpt lat="48.35111" lon="13.78803"><ele>487</ele><time>2023-09-10T06:33:33Z</time></trkpt>
    <trkpt lat="48.35158" lon="13.78844"><ele>479</ele><time>2023-09-10T06:33:52Z</time></trkpt>
    <trkpt lat="48.35202" lon="13.78890"><ele>477</ele><time>2023-09-10T06:34:11Z</time></trkpt>
    <trkpt lat="48.35213" lon="13.78948"><ele>477</ele><time>2023-09-10T06:34:29Z</time></trkpt>
    <trkpt lat="48.35234" lon="13.78996"><ele>480</ele><time>2023-09-10T06:34:48Z</time></trkpt>
    <trkpt lat="48.35316" lon="13.79019"><ele>477</ele><time>2023-09-10T06:35:07Z</time></trkpt>
    <trkpt lat="48.35466" lon="13.79162"><ele>464</ele><time>2023-09-10T06:35:26Z</time></trkpt>
    <trkpt lat="48.35649" lon="13.79305"><ele>444</ele><time>2023-09-10T06:35:45Z</time></trkpt>
    <trkpt lat="48.35715" lon="13.79311"><ele>440</ele><time>2023-09-10T06:36:04Z</time></trkpt>
    <trkpt lat="48.35735" lon="13.79286"><ele>441</ele><time>2023-09-10T06:36:22Z</time></trkpt>
    <trkpt lat="48.35758" lon="13.79248"><ele>440</ele><time>2023-09-10T06:36:41Z</time></trkpt>
    <trkpt lat="48.35784" lon="13.79229"><ele>436</ele><time>2023-09-10T06:36:59Z</time></trkpt>
    <trkpt lat="48.35831" lon="13.79179"><ele>427</ele><time>2023-09-10T06:37:17Z</time></trkpt>
    <trkpt lat="48.35845" lon="13.79135"><ele>428</ele><time>2023-09-10T06:37:35Z</time></trkpt>
    <trkpt lat="48.35852" lon="13.79095"><ele>422</ele><time>2023-09-10T06:38:13Z</time></trkpt>
    <trkpt lat="48.35865" lon="13.79074"><ele>417</ele><time>2023-09-10T06:38:31Z</time></trkpt>
    <trkpt lat="48.35885" lon="13.79062"><ele>421</ele><time>2023-09-10T06:38:50Z</time></trkpt>
    <trkpt lat="48.35900" lon="13.79076"><ele>418</ele><time>2023-09-10T06:39:08Z</time></trkpt>
    <trkpt lat="48.35937" lon="13.79084"><ele>401</ele><time>2023-09-10T06:40:41Z</time></trkpt>
    <trkpt lat="48.35999" lon="13.79103"><ele>398</ele><time>2023-09-10T06:40:59Z</time></trkpt>
    <trkpt lat="48.36004" lon="13.79154"><ele>393</ele><time>2023-09-10T06:41:18Z</time></trkpt>
    <trkpt lat="48.36008" lon="13.79199"><ele>389</ele><time>2023-09-10T06:41:37Z</time></trkpt>
    <trkpt lat="48.36065" lon="13.79287"><ele>391</ele><time>2023-09-10T06:41:56Z</time></trkpt>
    <trkpt lat="48.36093" lon="13.79387"><ele>387</ele><time>2023-09-10T06:42:14Z</time></trkpt>
    <trkpt lat="48.36131" lon="13.79459"><ele>374</ele><time>2023-09-10T06:42:33Z</time></trkpt>
    <trkpt lat="48.36146" lon="13.79484"><ele>372</ele><time>2023-09-10T06:42:52Z</time></trkpt>
    <trkpt lat="48.36155" lon="13.79480"><ele>376</ele><time>2023-09-10T06:43:10Z</time></trkpt>
    <trkpt lat="48.36210" lon="13.79455"><ele>371</ele><time>2023-09-10T06:43:29Z</time></trkpt>
    <trkpt lat="48.36272" lon="13.79419"><ele>372</ele><time>2023-09-10T06:43:48Z</time></trkpt>
    <trkpt lat="48.36320" lon="13.79341"><ele>370</ele><time>2023-09-10T06:44:06Z</time></trkpt>
    <trkpt lat="48.36396" lon="13.79236"><ele>368</ele><time>2023-09-10T06:44:25Z</time></trkpt>
    <trkpt lat="48.36467" lon="13.79145"><ele>373</ele><time>2023-09-10T06:44:44Z</time></trkpt>
    <trkpt lat="48.36501" lon="13.79068"><ele>375</ele><time>2023-09-10T06:45:02Z</time></trkpt>
    <trkpt lat="48.36539" lon="13.78999"><ele>376</ele><time>2023-09-10T06:45:20Z</time></trkpt>
    <trkpt lat="48.36568" lon="13.78931"><ele>377</ele><time>2023-09-10T06:45:38Z</time></trkpt>
    <trkpt lat="48.36665" lon="13.79035"><ele>368</ele><time>2023-09-10T06:45:57Z</time></trkpt>
    <trkpt lat="48.36714" lon="13.79029"><ele>369</ele><time>2023-09-10T06:46:15Z</time></trkpt>
    <trkpt lat="48.36751" lon="13.78976"><ele>369</ele><time>2023-09-10T06:46:34Z</time></trkpt>
    <trkpt lat="48.36779" lon="13.78902"><ele>369</ele><time>2023-09-10T06:46:52Z</time></trkpt>
    <trkpt lat="48.36809" lon="13.78831"><ele>374</ele><time>2023-09-10T06:47:11Z</time></trkpt>
    <trkpt lat="48.36855" lon="13.78806"><ele>400</ele><time>2023-09-10T06:47:30Z</time></trkpt>
    <trkpt lat="48.36886" lon="13.78786"><ele>406</ele><time>2023-09-10T06:47:49Z</time></trkpt>
    <trkpt lat="48.36911" lon="13.78750"><ele>378</ele><time>2023-09-10T06:48:08Z</time></trkpt>
    <trkpt lat="48.36927" lon="13.78725"><ele>379</ele><time>2023-09-10T06:48:27Z</time></trkpt>
    <trkpt lat="48.36944" lon="13.78684"><ele>389</ele><time>2023-09-10T06:48:46Z</time></trkpt>
    <trkpt lat="48.36964" lon="13.78658"><ele>391</ele><time>2023-09-10T06:49:05Z</time></trkpt>
    <trkpt lat="48.36983" lon="13.78648"><ele>393</ele><time>2023-09-10T06:49:24Z</time></trkpt>
    <trkpt lat="48.36991" lon="13.78663"><ele>394</ele><time>2023-09-10T06:50:39Z</time></trkpt>
    <trkpt lat="48.36982" lon="13.78694"><ele>406</ele><time>2023-09-10T06:50:57Z</time></trkpt>
    <trkpt lat="48.36981" lon="13.78721"><ele>404</ele><time>2023-09-10T06:51:16Z</time></trkpt>
    <trkpt lat="48.36977" lon="13.78749"><ele>414</ele><time>2023-09-10T06:51:35Z</time></trkpt>
    <trkpt lat="48.36972" lon="13.78772"><ele>415</ele><time>2023-09-10T06:52:49Z</time></trkpt>
    <trkpt lat="48.36966" lon="13.78804"><ele>417</ele><time>2023-09-10T06:53:07Z</time></trkpt>
    <trkpt lat="48.36959" lon="13.78833"><ele>419</ele><time>2023-09-10T06:53:25Z</time></trkpt>
    <trkpt lat="48.36958" lon="13.78866"><ele>421</ele><time>2023-09-10T06:53:44Z</time></trkpt>
    <trkpt lat="48.36953" lon="13.78898"><ele>426</ele><time>2023-09-10T06:54:03Z</time></trkpt>
    <trkpt lat="48.36962" lon="13.78929"><ele>435</ele><time>2023-09-10T06:54:21Z</time></trkpt>
    <trkpt lat="48.36977" lon="13.78949"><ele>436</ele><time>2023-09-10T06:54:40Z</time></trkpt>
    <trkpt lat="48.36996" lon="13.78965"><ele>438</ele><time>2023-09-10T06:54:58Z</time></trkpt>
    <trkpt lat="48.37016" lon="13.78956"><ele>440</ele><time>2023-09-10T06:55:17Z</time></trkpt>
    <trkpt lat="48.37033" lon="13.78941"><ele>442</ele><time>2023-09-10T06:55:35Z</time></trkpt>
    <trkpt lat="48.37053" lon="13.78930"><ele>446</ele><time>2023-09-10T06:55:53Z</time></trkpt>
    <trkpt lat="48.37073" lon="13.78931"><ele>449</ele><time>2023-09-10T06:56:12Z</time></trkpt>
    <trkpt lat="48.37089" lon="13.78946"><ele>454</ele><time>2023-09-10T06:56:31Z</time></trkpt>
    <trkpt lat="48.37106" lon="13.78964"><ele>454</ele><time>2023-09-10T06:56:50Z</time></trkpt>
    <trkpt lat="48.37124" lon="13.78994"><ele>459</ele><time>2023-09-10T06:58:40Z</time></trkpt>
    <trkpt lat="48.37155" lon="13.79000"><ele>462</ele><time>2023-09-10T06:58:58Z</time></trkpt>
    <trkpt lat="48.37187" lon="13.79011"><ele>464</ele><time>2023-09-10T06:59:17Z</time></trkpt>
    <trkpt lat="48.37224" lon="13.79016"><ele>463</ele><time>2023-09-10T06:59:35Z</time></trkpt>
    <trkpt lat="48.37264" lon="13.78982"><ele>463</ele><time>2023-09-10T06:59:54Z</time></trkpt>
    <trkpt lat="48.37309" lon="13.78962"><ele>464</ele><time>2023-09-10T07:00:12Z</time></trkpt>
    <trkpt lat="48.37330" lon="13.78920"><ele>468</ele><time>2023-09-10T07:00:30Z</time></trkpt>
    <trkpt lat="48.37356" lon="13.78869"><ele>466</ele><time>2023-09-10T07:00:49Z</time></trkpt>
    <trkpt lat="48.37331" lon="13.78817"><ele>470</ele><time>2023-09-10T07:01:08Z</time></trkpt>
    <trkpt lat="48.37294" lon="13.78795"><ele>472</ele><time>2023-09-10T07:01:26Z</time></trkpt>
    <trkpt lat="48.37290" lon="13.78747"><ele>478</ele><time>2023-09-10T07:01:45Z</time></trkpt>
    <trkpt lat="48.37306" lon="13.78689"><ele>467</ele><time>2023-09-10T07:02:03Z</time></trkpt>
    <trkpt lat="48.37332" lon="13.78623"><ele>479</ele><time>2023-09-10T07:02:21Z</time></trkpt>
    <trkpt lat="48.37379" lon="13.78528"><ele>454</ele><time>2023-09-10T07:02:39Z</time></trkpt>
    <trkpt lat="48.37430" lon="13.78437"><ele>468</ele><time>2023-09-10T07:02:58Z</time></trkpt>
    <trkpt lat="48.37436" lon="13.78387"><ele>464</ele><time>2023-09-10T07:03:17Z</time></trkpt>
    <trkpt lat="48.37441" lon="13.78360"><ele>471</ele><time>2023-09-10T07:03:35Z</time></trkpt>
    <trkpt lat="48.37462" lon="13.78340"><ele>424</ele><time>2023-09-10T07:03:53Z</time></trkpt>
    <trkpt lat="48.37479" lon="13.78317"><ele>478</ele><time>2023-09-10T07:04:12Z</time></trkpt>
    <trkpt lat="48.37495" lon="13.78307"><ele>486</ele><time>2023-09-10T07:04:30Z</time></trkpt>
    <trkpt lat="48.37516" lon="13.78294"><ele>483</ele><time>2023-09-10T07:04:49Z</time></trkpt>
    <trkpt lat="48.37532" lon="13.78271"><ele>464</ele><time>2023-09-10T07:05:08Z</time></trkpt>
    <trkpt lat="48.37545" lon="13.78260"><ele>486</ele><time>2023-09-10T07:05:26Z</time></trkpt>
    <trkpt lat="48.37560" lon="13.78220"><ele>491</ele><time>2023-09-10T07:06:21Z</time></trkpt>
    <trkpt lat="48.37580" lon="13.78194"><ele>492</ele><time>2023-09-10T07:06:39Z</time></trkpt>
    <trkpt lat="48.37597" lon="13.78163"><ele>497</ele><time>2023-09-10T07:06:58Z</time></trkpt>
    <trkpt lat="48.37615" lon="13.78142"><ele>509</ele><time>2023-09-10T07:07:17Z</time></trkpt>
    <trkpt lat="48.37637" lon="13.78126"><ele>506</ele><time>2023-09-10T07:07:36Z</time></trkpt>
    <trkpt lat="48.37658" lon="13.78107"><ele>513</ele><time>2023-09-10T07:07:54Z</time></trkpt>
    <trkpt lat="48.37674" lon="13.78084"><ele>508</ele><time>2023-09-10T07:08:12Z</time></trkpt>
    <trkpt lat="48.37711" lon="13.78045"><ele>507</ele><time>2023-09-10T07:08:31Z</time></trkpt>
    <trkpt lat="48.37784" lon="13.77890"><ele>499</ele><time>2023-09-10T07:09:45Z</time></trkpt>
    <trkpt lat="48.37873" lon="13.77722"><ele>491</ele><time>2023-09-10T07:10:04Z</time></trkpt>
    <trkpt lat="48.37966" lon="13.77543"><ele>481</ele><time>2023-09-10T07:10:22Z</time></trkpt>
    <trkpt lat="48.37986" lon="13.77516"><ele>479</ele><time>2023-09-10T07:10:41Z</time></trkpt>
    <trkpt lat="48.37996" lon="13.77504"><ele>480</ele><time>2023-09-10T07:11:00Z</time></trkpt>
    <trkpt lat="48.38007" lon="13.77484"><ele>483</ele><time>2023-09-10T07:12:34Z</time></trkpt>
    <trkpt lat="48.38034" lon="13.77453"><ele>483</ele><time>2023-09-10T07:12:53Z</time></trkpt>
    <trkpt lat="48.38083" lon="13.77465"><ele>481</ele><time>2023-09-10T07:13:12Z</time></trkpt>
    <trkpt lat="48.38142" lon="13.77494"><ele>480</ele><time>2023-09-10T07:13:31Z</time></trkpt>
    <trkpt lat="48.38212" lon="13.77521"><ele>481</ele><time>2023-09-10T07:13:49Z</time></trkpt>
    <trkpt lat="48.38249" lon="13.77487"><ele>488</ele><time>2023-09-10T07:14:07Z</time></trkpt>
    <trkpt lat="48.38264" lon="13.77438"><ele>491</ele><time>2023-09-10T07:14:25Z</time></trkpt>
    <trkpt lat="48.38282" lon="13.77377"><ele>493</ele><time>2023-09-10T07:14:44Z</time></trkpt>
    <trkpt lat="48.38321" lon="13.77314"><ele>491</ele><time>2023-09-10T07:15:02Z</time></trkpt>
    <trkpt lat="48.38369" lon="13.77271"><ele>493</ele><time>2023-09-10T07:15:21Z</time></trkpt>
    <trkpt lat="48.38398" lon="13.77225"><ele>497</ele><time>2023-09-10T07:15:40Z</time></trkpt>
    <trkpt lat="48.38419" lon="13.77185"><ele>503</ele><time>2023-09-10T07:15:58Z</time></trkpt>
    <trkpt lat="48.38437" lon="13.77145"><ele>506</ele><time>2023-09-10T07:16:17Z</time></trkpt>
    <trkpt lat="48.38451" lon="13.77096"><ele>507</ele><time>2023-09-10T07:16:35Z</time></trkpt>
    <trkpt lat="48.38472" lon="13.77022"><ele>506</ele><time>2023-09-10T07:16:54Z</time></trkpt>
    <trkpt lat="48.38510" lon="13.76913"><ele>500</ele><time>2023-09-10T07:17:12Z</time></trkpt>
    <trkpt lat="48.38559" lon="13.76882"><ele>503</ele><time>2023-09-10T07:17:31Z</time></trkpt>
    <trkpt lat="48.38592" lon="13.76893"><ele>496</ele><time>2023-09-10T07:17:49Z</time></trkpt>
    <trkpt lat="48.38641" lon="13.76883"><ele>505</ele><time>2023-09-10T07:18:08Z</time></trkpt>
    <trkpt lat="48.38680" lon="13.76795"><ele>500</ele><time>2023-09-10T07:18:27Z</time></trkpt>
    <trkpt lat="48.38761" lon="13.76680"><ele>489</ele><time>2023-09-10T07:18:45Z</time></trkpt>
    <trkpt lat="48.38854" lon="13.76612"><ele>485</ele><time>2023-09-10T07:19:04Z</time></trkpt>
    <trkpt lat="48.38865" lon="13.76598"><ele>487</ele><time>2023-09-10T07:19:22Z</time></trkpt>
    <trkpt lat="48.38878" lon="13.76584"><ele>487</ele><time>2023-09-10T07:19:59Z</time></trkpt>
    <trkpt lat="48.38918" lon="13.76529"><ele>491</ele><time>2023-09-10T07:20:18Z</time></trkpt>
    <trkpt lat="48.38952" lon="13.76461"><ele>491</ele><time>2023-09-10T07:20:37Z</time></trkpt>
    <trkpt lat="48.39003" lon="13.76384"><ele>482</ele><time>2023-09-10T07:20:56Z</time></trkpt>
    <trkpt lat="48.39050" lon="13.76341"><ele>483</ele><time>2023-09-10T07:21:15Z</time></trkpt>
    <trkpt lat="48.39093" lon="13.76311"><ele>483</ele><time>2023-09-10T07:21:33Z</time></trkpt>
    <trkpt lat="48.39131" lon="13.76283"><ele>480</ele><time>2023-09-10T07:21:52Z</time></trkpt>
    <trkpt lat="48.39157" lon="13.76235"><ele>473</ele><time>2023-09-10T07:22:11Z</time></trkpt>
    <trkpt lat="48.39208" lon="13.76174"><ele>470</ele><time>2023-09-10T07:22:29Z</time></trkpt>
    <trkpt lat="48.39240" lon="13.76145"><ele>472</ele><time>2023-09-10T07:22:48Z</time></trkpt>
    <trkpt lat="48.39288" lon="13.76105"><ele>472</ele><time>2023-09-10T07:23:06Z</time></trkpt>
    <trkpt lat="48.39323" lon="13.76012"><ele>469</ele><time>2023-09-10T07:23:24Z</time></trkpt>
    <trkpt lat="48.39350" lon="13.75919"><ele>468</ele><time>2023-09-10T07:23:43Z</time></trkpt>
    <trkpt lat="48.39407" lon="13.75864"><ele>471</ele><time>2023-09-10T07:24:02Z</time></trkpt>
    <trkpt lat="48.39433" lon="13.75850"><ele>469</ele><time>2023-09-10T07:24:21Z</time></trkpt>
    <trkpt lat="48.39452" lon="13.75816"><ele>476</ele><time>2023-09-10T07:25:17Z</time></trkpt>
    <trkpt lat="48.39483" lon="13.75820"><ele>474</ele><time>2023-09-10T07:26:31Z</time></trkpt>
    <trkpt lat="48.39522" lon="13.75771"><ele>476</ele><time>2023-09-10T07:26:49Z</time></trkpt>
    <trkpt lat="48.39548" lon="13.75764"><ele>484</ele><time>2023-09-10T07:27:08Z</time></trkpt>
    <trkpt lat="48.39543" lon="13.75734"><ele>478</ele><time>2023-09-10T07:27:26Z</time></trkpt>
    <trkpt lat="48.39590" lon="13.75638"><ele>470</ele><time>2023-09-10T07:27:44Z</time></trkpt>
    <trkpt lat="48.39659" lon="13.75622"><ele>474</ele><time>2023-09-10T07:28:03Z</time></trkpt>
    <trkpt lat="48.39700" lon="13.75637"><ele>480</ele><time>2023-09-10T07:28:21Z</time></trkpt>
    <trkpt lat="48.39714" lon="13.75627"><ele>478</ele><time>2023-09-10T07:28:40Z</time></trkpt>
    <trkpt lat="48.39774" lon="13.75567"><ele>468</ele><time>2023-09-10T07:28:58Z</time></trkpt>
    <trkpt lat="48.39866" lon="13.75396"><ele>460</ele><time>2023-09-10T07:29:17Z</time></trkpt>
    <trkpt lat="48.39927" lon="13.75210"><ele>446</ele><time>2023-09-10T07:29:35Z</time></trkpt>
    <trkpt lat="48.39898" lon="13.75124"><ele>443</ele><time>2023-09-10T07:29:54Z</time></trkpt>
    <trkpt lat="48.39907" lon="13.75128"><ele>439</ele><time>2023-09-10T07:30:13Z</time></trkpt>
    <trkpt lat="48.39939" lon="13.75155"><ele>451</ele><time>2023-09-10T07:30:31Z</time></trkpt>
    <trkpt lat="48.39971" lon="13.75181"><ele>454</ele><time>2023-09-10T07:30:49Z</time></trkpt>
    <trkpt lat="48.40000" lon="13.75208"><ele>455</ele><time>2023-09-10T07:31:07Z</time></trkpt>
    <trkpt lat="48.40031" lon="13.75235"><ele>455</ele><time>2023-09-10T07:31:26Z</time></trkpt>
    <trkpt lat="48.40061" lon="13.75265"><ele>461</ele><time>2023-09-10T07:31:45Z</time></trkpt>
    <trkpt lat="48.40083" lon="13.75248"><ele>463</ele><time>2023-09-10T07:32:03Z</time></trkpt>
    <trkpt lat="48.40102" lon="13.75200"><ele>466</ele><time>2023-09-10T07:32:22Z</time></trkpt>
    <trkpt lat="48.40121" lon="13.75152"><ele>468</ele><time>2023-09-10T07:32:40Z</time></trkpt>
    <trkpt lat="48.40132" lon="13.75112"><ele>474</ele><time>2023-09-10T07:32:59Z</time></trkpt>
    <trkpt lat="48.40154" lon="13.75154"><ele>471</ele><time>2023-09-10T07:33:54Z</time></trkpt>
    <trkpt lat="48.40180" lon="13.75195"><ele>476</ele><time>2023-09-10T07:34:12Z</time></trkpt>
    <trkpt lat="48.40204" lon="13.75214"><ele>479</ele><time>2023-09-10T07:34:31Z</time></trkpt>
    <trkpt lat="48.40214" lon="13.75210"><ele>471</ele><time>2023-09-10T07:35:08Z</time></trkpt>
    <trkpt lat="48.40305" lon="13.75207"><ele>478</ele><time>2023-09-10T07:35:27Z</time></trkpt>
    <trkpt lat="48.40353" lon="13.75189"><ele>473</ele><time>2023-09-10T07:35:46Z</time></trkpt>
    <trkpt lat="48.40382" lon="13.75171"><ele>477</ele><time>2023-09-10T07:36:04Z</time></trkpt>
    <trkpt lat="48.40412" lon="13.75158"><ele>482</ele><time>2023-09-10T07:36:23Z</time></trkpt>
    <trkpt lat="48.40439" lon="13.75151"><ele>487</ele><time>2023-09-10T07:36:41Z</time></trkpt>
    <trkpt lat="48.40465" lon="13.75157"><ele>492</ele><time>2023-09-10T07:37:00Z</time></trkpt>
    <trkpt lat="48.40490" lon="13.75165"><ele>493</ele><time>2023-09-10T07:37:18Z</time></trkpt>
    <trkpt lat="48.40515" lon="13.75165"><ele>501</ele><time>2023-09-10T07:37:36Z</time></trkpt>
    <trkpt lat="48.40533" lon="13.75149"><ele>502</ele><time>2023-09-10T07:37:55Z</time></trkpt>
    <trkpt lat="48.40536" lon="13.75128"><ele>504</ele><time>2023-09-10T07:38:14Z</time></trkpt>
    <trkpt lat="48.40546" lon="13.75033"><ele>502</ele><time>2023-09-10T07:38:32Z</time></trkpt>
    <trkpt lat="48.40548" lon="13.74996"><ele>506</ele><time>2023-09-10T07:38:50Z</time></trkpt>
    <trkpt lat="48.40554" lon="13.74959"><ele>504</ele><time>2023-09-10T07:39:45Z</time></trkpt>
    <trkpt lat="48.40601" lon="13.74859"><ele>499</ele><time>2023-09-10T07:40:03Z</time></trkpt>
    <trkpt lat="48.40656" lon="13.74719"><ele>491</ele><time>2023-09-10T07:40:21Z</time></trkpt>
    <trkpt lat="48.40671" lon="13.74625"><ele>476</ele><time>2023-09-10T07:40:40Z</time></trkpt>
    <trkpt lat="48.40700" lon="13.74641"><ele>499</ele><time>2023-09-10T07:40:58Z</time></trkpt>
    <trkpt lat="48.40738" lon="13.74613"><ele>501</ele><time>2023-09-10T07:41:17Z</time></trkpt>
    <trkpt lat="48.40767" lon="13.74584"><ele>484</ele><time>2023-09-10T07:41:35Z</time></trkpt>
    <trkpt lat="48.40796" lon="13.74543"><ele>505</ele><time>2023-09-10T07:41:54Z</time></trkpt>
    <trkpt lat="48.40848" lon="13.74502"><ele>504</ele><time>2023-09-10T07:42:13Z</time></trkpt>
    <trkpt lat="48.40910" lon="13.74499"><ele>508</ele><time>2023-09-10T07:42:32Z</time></trkpt>
    <trkpt lat="48.41011" lon="13.74512"><ele>505</ele><time>2023-09-10T07:42:51Z</time></trkpt>
    <trkpt lat="48.41087" lon="13.74499"><ele>488</ele><time>2023-09-10T07:43:09Z</time></trkpt>
    <trkpt lat="48.41122" lon="13.74508"><ele>522</ele><time>2023-09-10T07:43:27Z</time></trkpt>
    <trkpt lat="48.41150" lon="13.74537"><ele>525</ele><time>2023-09-10T07:43:46Z</time></trkpt>
    <trkpt lat="48.41177" lon="13.74560"><ele>528</ele><time>2023-09-10T07:44:04Z</time></trkpt>
    <trkpt lat="48.41202" lon="13.74584"><ele>533</ele><time>2023-09-10T07:44:23Z</time></trkpt>
    <trkpt lat="48.41228" lon="13.74598"><ele>533</ele><time>2023-09-10T07:44:42Z</time></trkpt>
    <trkpt lat="48.41249" lon="13.74566"><ele>486</ele><time>2023-09-10T07:45:00Z</time></trkpt>
    <trkpt lat="48.41276" lon="13.74548"><ele>532</ele><time>2023-09-10T07:45:19Z</time></trkpt>
    <trkpt lat="48.41301" lon="13.74537"><ele>544</ele><time>2023-09-10T07:45:37Z</time></trkpt>
    <trkpt lat="48.41327" lon="13.74524"><ele>547</ele><time>2023-09-10T07:45:55Z</time></trkpt>
    <trkpt lat="48.41353" lon="13.74509"><ele>548</ele><time>2023-09-10T07:46:14Z</time></trkpt>
    <trkpt lat="48.41377" lon="13.74493"><ele>548</ele><time>2023-09-10T07:46:33Z</time></trkpt>
    <trkpt lat="48.41398" lon="13.74481"><ele>536</ele><time>2023-09-10T07:46:51Z</time></trkpt>
    <trkpt lat="48.41425" lon="13.74468"><ele>555</ele><time>2023-09-10T07:47:10Z</time></trkpt>
    <trkpt lat="48.41451" lon="13.74474"><ele>551</ele><time>2023-09-10T07:47:29Z</time></trkpt>
    <trkpt lat="48.41466" lon="13.74487"><ele>554</ele><time>2023-09-10T07:47:47Z</time></trkpt>
    <trkpt lat="48.41502" lon="13.74364"><ele>543</ele><time>2023-09-10T07:49:56Z</time></trkpt>
    <trkpt lat="48.41559" lon="13.74181"><ele>535</ele><time>2023-09-10T07:50:15Z</time></trkpt>
    <trkpt lat="48.41555" lon="13.74144"><ele>523</ele><time>2023-09-10T07:50:33Z</time></trkpt>
    <trkpt lat="48.41569" lon="13.74105"><ele>540</ele><time>2023-09-10T07:51:11Z</time></trkpt>
    <trkpt lat="48.41583" lon="13.74071"><ele>525</ele><time>2023-09-10T07:51:29Z</time></trkpt>
    <trkpt lat="48.41609" lon="13.74023"><ele>538</ele><time>2023-09-10T07:51:47Z</time></trkpt>
    <trkpt lat="48.41642" lon="13.73969"><ele>505</ele><time>2023-09-10T07:52:06Z</time></trkpt>
    <trkpt lat="48.41668" lon="13.73920"><ele>534</ele><time>2023-09-10T07:52:25Z</time></trkpt>
    <trkpt lat="48.41678" lon="13.73842"><ele>534</ele><time>2023-09-10T07:52:43Z</time></trkpt>
    <trkpt lat="48.41700" lon="13.73793"><ele>538</ele><time>2023-09-10T07:53:02Z</time></trkpt>
    <trkpt lat="48.41731" lon="13.73764"><ele>544</ele><time>2023-09-10T07:53:21Z</time></trkpt>
    <trkpt lat="48.41758" lon="13.73747"><ele>545</ele><time>2023-09-10T07:53:40Z</time></trkpt>
    <trkpt lat="48.41774" lon="13.73720"><ele>540</ele><time>2023-09-10T07:53:59Z</time></trkpt>
    <trkpt lat="48.41781" lon="13.73702"><ele>544</ele><time>2023-09-10T07:54:35Z</time></trkpt>
    <trkpt lat="48.41791" lon="13.73650"><ele>544</ele><time>2023-09-10T07:54:54Z</time></trkpt>
    <trkpt lat="48.41797" lon="13.73597"><ele>543</ele><time>2023-09-10T07:55:13Z</time></trkpt>
    <trkpt lat="48.41814" lon="13.73549"><ele>544</ele><time>2023-09-10T07:55:31Z</time></trkpt>
    <trkpt lat="48.41828" lon="13.73509"><ele>550</ele><time>2023-09-10T07:55:49Z</time></trkpt>
    <trkpt lat="48.41841" lon="13.73465"><ele>550</ele><time>2023-09-10T07:56:08Z</time></trkpt>
    <trkpt lat="48.41849" lon="13.73428"><ele>533</ele><time>2023-09-10T07:56:26Z</time></trkpt>
    <trkpt lat="48.41884" lon="13.73389"><ele>556</ele><time>2023-09-10T07:56:44Z</time></trkpt>
    <trkpt lat="48.41927" lon="13.73346"><ele>556</ele><time>2023-09-10T07:57:03Z</time></trkpt>
    <trkpt lat="48.41965" lon="13.73306"><ele>564</ele><time>2023-09-10T07:57:21Z</time></trkpt>
    <trkpt lat="48.42011" lon="13.73257"><ele>545</ele><time>2023-09-10T07:57:40Z</time></trkpt>
    <trkpt lat="48.42053" lon="13.73214"><ele>567</ele><time>2023-09-10T07:57:58Z</time></trkpt>
    <trkpt lat="48.42099" lon="13.73195"><ele>564</ele><time>2023-09-10T07:58:17Z</time></trkpt>
    <trkpt lat="48.42114" lon="13.73189"><ele>563</ele><time>2023-09-10T07:58:35Z</time></trkpt>
    <trkpt lat="48.42097" lon="13.73254"><ele>564</ele><time>2023-09-10T07:58:54Z</time></trkpt>
    <trkpt lat="48.42124" lon="13.73331"><ele>542</ele><time>2023-09-10T07:59:13Z</time></trkpt>
    <trkpt lat="48.42165" lon="13.73386"><ele>558</ele><time>2023-09-10T07:59:31Z</time></trkpt>
    <trkpt lat="48.42216" lon="13.73397"><ele>528</ele><time>2023-09-10T07:59:50Z</time></trkpt>
    <trkpt lat="48.42229" lon="13.73386"><ele>566</ele><time>2023-09-10T08:00:09Z</time></trkpt>
    <trkpt lat="48.42216" lon="13.73436"><ele>561</ele><time>2023-09-10T08:00:27Z</time></trkpt>
    <trkpt lat="48.42233" lon="13.73503"><ele>550</ele><time>2023-09-10T08:00:45Z</time></trkpt>
    <trkpt lat="48.42237" lon="13.73555"><ele>562</ele><time>2023-09-10T08:01:03Z</time></trkpt>
    <trkpt lat="48.42275" lon="13.73577"><ele>565</ele><time>2023-09-10T08:01:22Z</time></trkpt>
    <trkpt lat="48.42306" lon="13.73612"><ele>560</ele><time>2023-09-10T08:01:41Z</time></trkpt>
    <trkpt lat="48.42339" lon="13.73678"><ele>557</ele><time>2023-09-10T08:02:00Z</time></trkpt>
    <trkpt lat="48.42360" lon="13.73718"><ele>564</ele><time>2023-09-10T08:02:18Z</time></trkpt>
    <trkpt lat="48.42413" lon="13.73771"><ele>567</ele><time>2023-09-10T08:02:37Z</time></trkpt>
    <trkpt lat="48.42442" lon="13.73798"><ele>559</ele><time>2023-09-10T08:02:56Z</time></trkpt>
    <trkpt lat="48.42462" lon="13.73848"><ele>557</ele><time>2023-09-10T08:03:51Z</time></trkpt>
    <trkpt lat="48.42513" lon="13.73922"><ele>558</ele><time>2023-09-10T08:04:10Z</time></trkpt>
    <trkpt lat="48.42556" lon="13.73980"><ele>561</ele><time>2023-09-10T08:04:29Z</time></trkpt>
    <trkpt lat="48.42603" lon="13.74028"><ele>563</ele><time>2023-09-10T08:04:48Z</time></trkpt>
    <trkpt lat="48.42644" lon="13.74104"><ele>558</ele><time>2023-09-10T08:05:07Z</time></trkpt>
    <trkpt lat="48.42698" lon="13.74188"><ele>550</ele><time>2023-09-10T08:05:26Z</time></trkpt>
    <trkpt lat="48.42718" lon="13.74242"><ele>552</ele><time>2023-09-10T08:05:45Z</time></trkpt>
    <trkpt lat="48.42771" lon="13.74203"><ele>559</ele><time>2023-09-10T08:06:41Z</time></trkpt>
    <trkpt lat="48.42816" lon="13.74147"><ele>556</ele><time>2023-09-10T08:06:59Z</time></trkpt>
    <trkpt lat="48.42846" lon="13.74144"><ele>557</ele><time>2023-09-10T08:07:17Z</time></trkpt>
    <trkpt lat="48.42880" lon="13.74141"><ele>546</ele><time>2023-09-10T08:07:35Z</time></trkpt>
    <trkpt lat="48.42920" lon="13.74114"><ele>544</ele><time>2023-09-10T08:07:54Z</time></trkpt>
    <trkpt lat="48.42931" lon="13.74066"><ele>547</ele><time>2023-09-10T08:08:12Z</time></trkpt>
    <trkpt lat="48.42941" lon="13.74037"><ele>553</ele><time>2023-09-10T08:08:31Z</time></trkpt>
    <trkpt lat="48.42951" lon="13.74010"><ele>553</ele><time>2023-09-10T08:08:49Z</time></trkpt>
    <trkpt lat="48.42964" lon="13.73978"><ele>554</ele><time>2023-09-10T08:09:08Z</time></trkpt>
    <trkpt lat="48.42976" lon="13.73938"><ele>554</ele><time>2023-09-10T08:09:26Z</time></trkpt>
    <trkpt lat="48.42991" lon="13.73901"><ele>553</ele><time>2023-09-10T08:09:45Z</time></trkpt>
    <trkpt lat="48.43024" lon="13.73918"><ele>554</ele><time>2023-09-10T08:10:40Z</time></trkpt>
    <trkpt lat="48.43105" lon="13.73941"><ele>550</ele><time>2023-09-10T08:10:59Z</time></trkpt>
    <trkpt lat="48.43151" lon="13.73810"><ele>542</ele><time>2023-09-10T08:11:17Z</time></trkpt>
    <trkpt lat="48.43224" lon="13.73682"><ele>538</ele><time>2023-09-10T08:11:36Z</time></trkpt>
    <trkpt lat="48.43269" lon="13.73569"><ele>538</ele><time>2023-09-10T08:11:54Z</time></trkpt>
    <trkpt lat="48.43280" lon="13.73523"><ele>539</ele><time>2023-09-10T08:12:13Z</time></trkpt>
    <trkpt lat="48.43277" lon="13.73507"><ele>545</ele><time>2023-09-10T08:12:32Z</time></trkpt>
    <trkpt lat="48.43260" lon="13.73466"><ele>549</ele><time>2023-09-10T08:12:51Z</time></trkpt>
    <trkpt lat="48.43248" lon="13.73410"><ele>551</ele><time>2023-09-10T08:13:10Z</time></trkpt>
    <trkpt lat="48.43242" lon="13.73360"><ele>545</ele><time>2023-09-10T08:13:28Z</time></trkpt>
    <trkpt lat="48.43232" lon="13.73304"><ele>544</ele><time>2023-09-10T08:13:46Z</time></trkpt>
    <trkpt lat="48.43223" lon="13.73247"><ele>544</ele><time>2023-09-10T08:14:04Z</time></trkpt>
    <trkpt lat="48.43214" lon="13.73185"><ele>545</ele><time>2023-09-10T08:14:23Z</time></trkpt>
    <trkpt lat="48.43202" lon="13.73123"><ele>533</ele><time>2023-09-10T08:14:41Z</time></trkpt>
    <trkpt lat="48.43192" lon="13.73065"><ele>548</ele><time>2023-09-10T08:14:59Z</time></trkpt>
    <trkpt lat="48.43184" lon="13.73018"><ele>554</ele><time>2023-09-10T08:15:18Z</time></trkpt>
    <trkpt lat="48.43176" lon="13.72973"><ele>554</ele><time>2023-09-10T08:15:37Z</time></trkpt>
    <trkpt lat="48.43166" lon="13.72930"><ele>557</ele><time>2023-09-10T08:15:56Z</time></trkpt>
    <trkpt lat="48.43157" lon="13.72888"><ele>558</ele><time>2023-09-10T08:16:14Z</time></trkpt>
    <trkpt lat="48.43148" lon="13.72847"><ele>559</ele><time>2023-09-10T08:16:33Z</time></trkpt>
    <trkpt lat="48.43141" lon="13.72808"><ele>565</ele><time>2023-09-10T08:16:51Z</time></trkpt>
    <trkpt lat="48.43159" lon="13.72785"><ele>565</ele><time>2023-09-10T08:17:10Z</time></trkpt>
    <trkpt lat="48.43182" lon="13.72780"><ele>571</ele><time>2023-09-10T08:17:28Z</time></trkpt>
    <trkpt lat="48.43195" lon="13.72752"><ele>574</ele><time>2023-09-10T08:17:47Z</time></trkpt>
    <trkpt lat="48.43194" lon="13.72733"><ele>579</ele><time>2023-09-10T08:19:01Z</time></trkpt>
    <trkpt lat="48.43192" lon="13.72678"><ele>581</ele><time>2023-09-10T08:19:20Z</time></trkpt>
    <trkpt lat="48.43186" lon="13.72592"><ele>570</ele><time>2023-09-10T08:19:38Z</time></trkpt>
    <trkpt lat="48.43167" lon="13.72495"><ele>576</ele><time>2023-09-10T08:19:57Z</time></trkpt>
    <trkpt lat="48.43170" lon="13.72419"><ele>575</ele><time>2023-09-10T08:20:15Z</time></trkpt>
    <trkpt lat="48.43227" lon="13.72318"><ele>573</ele><time>2023-09-10T08:20:34Z</time></trkpt>
    <trkpt lat="48.43263" lon="13.72191"><ele>572</ele><time>2023-09-10T08:20:52Z</time></trkpt>
    <trkpt lat="48.43264" lon="13.72132"><ele>562</ele><time>2023-09-10T08:21:11Z</time></trkpt>
    <trkpt lat="48.43288" lon="13.72109"><ele>574</ele><time>2023-09-10T08:21:30Z</time></trkpt>
    <trkpt lat="48.43309" lon="13.72116"><ele>570</ele><time>2023-09-10T08:21:48Z</time></trkpt>
    <trkpt lat="48.43329" lon="13.72122"><ele>569</ele><time>2023-09-10T08:22:06Z</time></trkpt>
    <trkpt lat="48.43350" lon="13.72098"><ele>575</ele><time>2023-09-10T08:22:43Z</time></trkpt>
    <trkpt lat="48.43373" lon="13.72033"><ele>574</ele><time>2023-09-10T08:23:02Z</time></trkpt>
    <trkpt lat="48.43370" lon="13.71961"><ele>578</ele><time>2023-09-10T08:23:20Z</time></trkpt>
    <trkpt lat="48.43365" lon="13.71868"><ele>578</ele><time>2023-09-10T08:23:38Z</time></trkpt>
    <trkpt lat="48.43356" lon="13.71758"><ele>578</ele><time>2023-09-10T08:23:57Z</time></trkpt>
    <trkpt lat="48.43348" lon="13.71686"><ele>578</ele><time>2023-09-10T08:24:15Z</time></trkpt>
    <trkpt lat="48.43330" lon="13.71616"><ele>576</ele><time>2023-09-10T08:24:34Z</time></trkpt>
    <trkpt lat="48.43315" lon="13.71562"><ele>580</ele><time>2023-09-10T08:24:53Z</time></trkpt>
    <trkpt lat="48.43299" lon="13.71516"><ele>586</ele><time>2023-09-10T08:25:11Z</time></trkpt>
    <trkpt lat="48.43299" lon="13.71500"><ele>596</ele><time>2023-09-10T08:25:30Z</time></trkpt>
    <trkpt lat="48.43282" lon="13.71473"><ele>593</ele><time>2023-09-10T08:25:48Z</time></trkpt>
    <trkpt lat="48.43275" lon="13.71435"><ele>587</ele><time>2023-09-10T08:26:06Z</time></trkpt>
    <trkpt lat="48.43298" lon="13.71371"><ele>586</ele><time>2023-09-10T08:26:24Z</time></trkpt>
    <trkpt lat="48.43303" lon="13.71287"><ele>578</ele><time>2023-09-10T08:26:42Z</time></trkpt>
    <trkpt lat="48.43302" lon="13.71194"><ele>586</ele><time>2023-09-10T08:27:01Z</time></trkpt>
    <trkpt lat="48.43318" lon="13.71076"><ele>563</ele><time>2023-09-10T08:27:19Z</time></trkpt>
    <trkpt lat="48.43312" lon="13.71054"><ele>588</ele><time>2023-09-10T08:27:37Z</time></trkpt>
    <trkpt lat="48.43311" lon="13.70989"><ele>593</ele><time>2023-09-10T08:28:14Z</time></trkpt>
    <trkpt lat="48.43320" lon="13.70932"><ele>584</ele><time>2023-09-10T08:28:33Z</time></trkpt>
    <trkpt lat="48.43338" lon="13.70888"><ele>592</ele><time>2023-09-10T08:28:51Z</time></trkpt>
    <trkpt lat="48.43349" lon="13.70846"><ele>598</ele><time>2023-09-10T08:29:09Z</time></trkpt>
    <trkpt lat="48.43365" lon="13.70816"><ele>605</ele><time>2023-09-10T08:29:27Z</time></trkpt>
    <trkpt lat="48.43364" lon="13.70783"><ele>583</ele><time>2023-09-10T08:29:45Z</time></trkpt>
    <trkpt lat="48.43356" lon="13.70753"><ele>579</ele><time>2023-09-10T08:30:04Z</time></trkpt>
    <trkpt lat="48.43343" lon="13.70750"><ele>609</ele><time>2023-09-10T08:30:23Z</time></trkpt>
    <trkpt lat="48.43315" lon="13.70723"><ele>617</ele><time>2023-09-10T08:32:16Z</time></trkpt>
    <trkpt lat="48.43301" lon="13.70705"><ele>605</ele><time>2023-09-10T08:32:34Z</time></trkpt>
    <trkpt lat="48.43287" lon="13.70670"><ele>607</ele><time>2023-09-10T08:33:12Z</time></trkpt>
    <trkpt lat="48.43294" lon="13.70645"><ele>609</ele><time>2023-09-10T08:33:31Z</time></trkpt>
    <trkpt lat="48.43298" lon="13.70611"><ele>602</ele><time>2023-09-10T08:33:49Z</time></trkpt>
    <trkpt lat="48.43293" lon="13.70569"><ele>616</ele><time>2023-09-10T08:34:08Z</time></trkpt>
    <trkpt lat="48.43290" lon="13.70521"><ele>595</ele><time>2023-09-10T08:34:27Z</time></trkpt>
    <trkpt lat="48.43285" lon="13.70482"><ele>620</ele><time>2023-09-10T08:34:46Z</time></trkpt>
    <trkpt lat="48.43292" lon="13.70445"><ele>613</ele><time>2023-09-10T08:35:04Z</time></trkpt>
    <trkpt lat="48.43296" lon="13.70410"><ele>625</ele><time>2023-09-10T08:35:22Z</time></trkpt>
    <trkpt lat="48.43302" lon="13.70378"><ele>630</ele><time>2023-09-10T08:35:40Z</time></trkpt>
    <trkpt lat="48.43306" lon="13.70358"><ele>584</ele><time>2023-09-10T08:35:58Z</time></trkpt>
    <trkpt lat="48.43322" lon="13.70297"><ele>611</ele><time>2023-09-10T08:36:34Z</time></trkpt>
    <trkpt lat="48.43333" lon="13.70219"><ele>621</ele><time>2023-09-10T08:36:53Z</time></trkpt>
    <trkpt lat="48.43342" lon="13.70142"><ele>578</ele><time>2023-09-10T08:37:11Z</time></trkpt>
    <trkpt lat="48.43344" lon="13.70074"><ele>587</ele><time>2023-09-10T08:37:29Z</time></trkpt>
    <trkpt lat="48.43343" lon="13.69994"><ele>631</ele><time>2023-09-10T08:37:48Z</time></trkpt>
    <trkpt lat="48.43358" lon="13.69924"><ele>631</ele><time>2023-09-10T08:38:07Z</time></trkpt>
    <trkpt lat="48.43369" lon="13.69856"><ele>631</ele><time>2023-09-10T08:38:26Z</time></trkpt>
    <trkpt lat="48.43386" lon="13.69792"><ele>629</ele><time>2023-09-10T08:38:45Z</time></trkpt>
    <trkpt lat="48.43424" lon="13.69754"><ele>641</ele><time>2023-09-10T08:39:03Z</time></trkpt>
    <trkpt lat="48.43450" lon="13.69721"><ele>632</ele><time>2023-09-10T08:39:21Z</time></trkpt>
    <trkpt lat="48.43455" lon="13.69690"><ele>633</ele><time>2023-09-10T08:39:58Z</time></trkpt>
    <trkpt lat="48.43499" lon="13.69703"><ele>637</ele><time>2023-09-10T08:40:52Z</time></trkpt>
    <trkpt lat="48.43576" lon="13.69639"><ele>625</ele><time>2023-09-10T08:41:11Z</time></trkpt>
    <trkpt lat="48.43639" lon="13.69615"><ele>620</ele><time>2023-09-10T08:41:29Z</time></trkpt>
    <trkpt lat="48.43700" lon="13.69606"><ele>622</ele><time>2023-09-10T08:41:47Z</time></trkpt>
    <trkpt lat="48.43749" lon="13.69599"><ele>626</ele><time>2023-09-10T08:42:06Z</time></trkpt>
    <trkpt lat="48.43762" lon="13.69600"><ele>627</ele><time>2023-09-10T08:42:25Z</time></trkpt>
    <trkpt lat="48.43771" lon="13.69602"><ele>628</ele><time>2023-09-10T08:42:43Z</time></trkpt>
    <trkpt lat="48.43819" lon="13.69544"><ele>622</ele><time>2023-09-10T08:43:01Z</time></trkpt>
    <trkpt lat="48.43870" lon="13.69418"><ele>608</ele><time>2023-09-10T08:43:19Z</time></trkpt>
    <trkpt lat="48.43897" lon="13.69240"><ele>605</ele><time>2023-09-10T08:43:38Z</time></trkpt>
    <trkpt lat="48.43921" lon="13.69096"><ele>609</ele><time>2023-09-10T08:43:57Z</time></trkpt>
    <trkpt lat="48.43953" lon="13.69038"><ele>614</ele><time>2023-09-10T08:44:35Z</time></trkpt>
    <trkpt lat="48.44008" lon="13.68970"><ele>614</ele><time>2023-09-10T08:44:53Z</time></trkpt>
    <trkpt lat="48.44076" lon="13.68900"><ele>618</ele><time>2023-09-10T08:45:12Z</time></trkpt>
    <trkpt lat="48.44130" lon="13.68848"><ele>615</ele><time>2023-09-10T08:45:30Z</time></trkpt>
    <trkpt lat="48.44199" lon="13.68766"><ele>611</ele><time>2023-09-10T08:45:49Z</time></trkpt>
    <trkpt lat="48.44207" lon="13.68759"><ele>609</ele><time>2023-09-10T08:46:08Z</time></trkpt>
    <trkpt lat="48.44273" lon="13.68725"><ele>611</ele><time>2023-09-10T08:47:03Z</time></trkpt>
    <trkpt lat="48.44358" lon="13.68680"><ele>609</ele><time>2023-09-10T08:47:21Z</time></trkpt>
    <trkpt lat="48.44449" lon="13.68614"><ele>608</ele><time>2023-09-10T08:47:39Z</time></trkpt>
    <trkpt lat="48.44519" lon="13.68537"><ele>612</ele><time>2023-09-10T08:47:58Z</time></trkpt>
    <trkpt lat="48.44583" lon="13.68469"><ele>613</ele><time>2023-09-10T08:48:17Z</time></trkpt>
    <trkpt lat="48.44669" lon="13.68410"><ele>608</ele><time>2023-09-10T08:48:35Z</time></trkpt>
    <trkpt lat="48.44747" lon="13.68367"><ele>604</ele><time>2023-09-10T08:48:54Z</time></trkpt>
    <trkpt lat="48.44758" lon="13.68360"><ele>609</ele><time>2023-09-10T08:49:12Z</time></trkpt>
    <trkpt lat="48.44818" lon="13.68311"><ele>603</ele><time>2023-09-10T08:49:31Z</time></trkpt>
    <trkpt lat="48.44879" lon="13.68219"><ele>613</ele><time>2023-09-10T08:49:50Z</time></trkpt>
    <trkpt lat="48.44946" lon="13.68090"><ele>611</ele><time>2023-09-10T08:50:08Z</time></trkpt>
    <trkpt lat="48.44979" lon="13.67962"><ele>609</ele><time>2023-09-10T08:50:27Z</time></trkpt>
    <trkpt lat="48.44981" lon="13.67943"><ele>607</ele><time>2023-09-10T08:50:45Z</time></trkpt>
    <trkpt lat="48.44992" lon="13.67859"><ele>604</ele><time>2023-09-10T08:51:03Z</time></trkpt>
    <trkpt lat="48.45009" lon="13.67705"><ele>600</ele><time>2023-09-10T08:51:22Z</time></trkpt>
    <trkpt lat="48.45032" lon="13.67652"><ele>593</ele><time>2023-09-10T08:51:41Z</time></trkpt>
    <trkpt lat="48.45039" lon="13.67616"><ele>595</ele><time>2023-09-10T08:52:18Z</time></trkpt>
    <trkpt lat="48.45057" lon="13.67517"><ele>597</ele><time>2023-09-10T08:52:37Z</time></trkpt>
    <trkpt lat="48.45088" lon="13.67405"><ele>596</ele><time>2023-09-10T08:52:55Z</time></trkpt>
    <trkpt lat="48.45103" lon="13.67304"><ele>603</ele><time>2023-09-10T08:53:13Z</time></trkpt>
    <trkpt lat="48.45108" lon="13.67225"><ele>604</ele><time>2023-09-10T08:53:31Z</time></trkpt>
    <trkpt lat="48.45114" lon="13.67155"><ele>614</ele><time>2023-09-10T08:53:49Z</time></trkpt>
    <trkpt lat="48.45112" lon="13.67088"><ele>609</ele><time>2023-09-10T08:54:07Z</time></trkpt>
    <trkpt lat="48.45102" lon="13.67012"><ele>611</ele><time>2023-09-10T08:54:25Z</time></trkpt>
    <trkpt lat="48.45093" lon="13.66930"><ele>612</ele><time>2023-09-10T08:54:44Z</time></trkpt>
    <trkpt lat="48.45061" lon="13.66846"><ele>602</ele><time>2023-09-10T08:55:03Z</time></trkpt>
    <trkpt lat="48.45010" lon="13.66802"><ele>608</ele><time>2023-09-10T08:55:22Z</time></trkpt>
    <trkpt lat="48.44967" lon="13.66776"><ele>609</ele><time>2023-09-10T08:55:40Z</time></trkpt>
    <trkpt lat="48.44904" lon="13.66683"><ele>603</ele><time>2023-09-10T08:55:59Z</time></trkpt>
    <trkpt lat="48.44873" lon="13.66657"><ele>602</ele><time>2023-09-10T08:56:17Z</time></trkpt>
    <trkpt lat="48.44871" lon="13.66701"><ele>607</ele><time>2023-09-10T08:56:35Z</time></trkpt>
    <trkpt lat="48.44867" lon="13.66744"><ele>612</ele><time>2023-09-10T08:56:54Z</time></trkpt>
    <trkpt lat="48.44861" lon="13.66779"><ele>612</ele><time>2023-09-10T08:57:12Z</time></trkpt>
    <trkpt lat="48.44851" lon="13.66784"><ele>617</ele><time>2023-09-10T08:57:31Z</time></trkpt>
    <trkpt lat="48.44854" lon="13.66769"><ele>620</ele><time>2023-09-10T09:00:18Z</time></trkpt>
    <trkpt lat="48.44866" lon="13.66771"><ele>620</ele><time>2023-09-10T09:00:36Z</time></trkpt>
    <trkpt lat="48.44861" lon="13.66789"><ele>617</ele><time>2023-09-10T09:00:54Z</time></trkpt>
    <trkpt lat="48.44876" lon="13.66806"><ele>620</ele><time>2023-09-10T09:02:28Z</time></trkpt>
    <trkpt lat="48.44857" lon="13.66802"><ele>622</ele><time>2023-09-10T09:02:39Z</time></trkpt>
    <trkpt lat="48.44849" lon="13.66796"><ele>626</ele><time>2023-09-10T09:02:44Z</time></trkpt>
    <trkpt lat="48.44858" lon="13.66787"><ele>629</ele><time>2023-09-10T09:03:39Z</time></trkpt>
    <trkpt lat="48.44853" lon="13.66808"><ele>638</ele><time>2023-09-10T09:06:43Z</time></trkpt>
    <trkpt lat="48.44857" lon="13.66826"><ele>640</ele><time>2023-09-10T09:07:01Z</time></trkpt>
    <trkpt lat="48.44848" lon="13.66844"><ele>639</ele><time>2023-09-10T09:07:19Z</time></trkpt>
    <trkpt lat="48.44845" lon="13.66859"><ele>645</ele><time>2023-09-10T09:07:38Z</time></trkpt>
    <trkpt lat="48.44843" lon="13.66883"><ele>654</ele><time>2023-09-10T09:08:14Z</time></trkpt>
    <trkpt lat="48.44850" lon="13.66896"><ele>660</ele><time>2023-09-10T09:08:33Z</time></trkpt>
    <trkpt lat="48.44851" lon="13.66922"><ele>661</ele><time>2023-09-10T09:09:09Z</time></trkpt>
    <trkpt lat="48.44844" lon="13.66960"><ele>658</ele><time>2023-09-10T09:09:47Z</time></trkpt>
    <trkpt lat="48.44842" lon="13.66980"><ele>652</ele><time>2023-09-10T09:10:05Z</time></trkpt>
    <trkpt lat="48.44844" lon="13.66994"><ele>659</ele><time>2023-09-10T09:10:24Z</time></trkpt>
    <trkpt lat="48.44842" lon="13.67008"><ele>617</ele><time>2023-09-10T09:10:43Z</time></trkpt>
    <trkpt lat="48.44842" lon="13.67023"><ele>665</ele><time>2023-09-10T09:11:02Z</time></trkpt>
    <trkpt lat="48.44834" lon="13.67034"><ele>661</ele><time>2023-09-10T09:11:20Z</time></trkpt>
    <trkpt lat="48.44828" lon="13.67039"><ele>675</ele><time>2023-09-10T09:15:56Z</time></trkpt>
  </trkseg>
  <trkseg>
    <trkpt lat="48.44876" lon="13.66646"><ele>583</ele><time>2023-09-10T10:53:19Z</time></trkpt>
    <trkpt lat="48.44964" lon="13.66360"><ele>586</ele><time>2023-09-10T10:53:37Z</time></trkpt>
    <trkpt lat="48.44367" lon="13.66215"><ele>573</ele><time>2023-09-10T10:53:56Z</time></trkpt>
    <trkpt lat="48.44253" lon="13.66273"><ele>568</ele><time>2023-09-10T10:54:14Z</time></trkpt>
    <trkpt lat="48.44172" lon="13.66206"><ele>564</ele><time>2023-09-10T10:54:32Z</time></trkpt>
    <trkpt lat="48.44058" lon="13.66254"><ele>556</ele><time>2023-09-10T10:54:50Z</time></trkpt>
    <trkpt lat="48.43802" lon="13.66228"><ele>552</ele><time>2023-09-10T10:55:09Z</time></trkpt>
    <trkpt lat="48.43885" lon="13.65918"><ele>555</ele><time>2023-09-10T10:55:28Z</time></trkpt>
    <trkpt lat="48.43859" lon="13.65913"><ele>551</ele><time>2023-09-10T10:55:46Z</time></trkpt>
    <trkpt lat="48.43844" lon="13.65921"><ele>550</ele><time>2023-09-10T10:56:05Z</time></trkpt>
    <trkpt lat="48.43831" lon="13.65930"><ele>549</ele><time>2023-09-10T10:56:23Z</time></trkpt>
    <trkpt lat="48.43819" lon="13.65943"><ele>550</ele><time>2023-09-10T10:56:42Z</time></trkpt>
    <trkpt lat="48.43808" lon="13.65960"><ele>550</ele><time>2023-09-10T10:57:00Z</time></trkpt>
    <trkpt lat="48.43761" lon="13.65974"><ele>553</ele><time>2023-09-10T10:57:18Z</time></trkpt>
    <trkpt lat="48.43685" lon="13.65983"><ele>543</ele><time>2023-09-10T10:57:37Z</time></trkpt>
    <trkpt lat="48.43608" lon="13.65904"><ele>531</ele><time>2023-09-10T10:57:56Z</time></trkpt>
    <trkpt lat="48.43547" lon="13.65971"><ele>524</ele><time>2023-09-10T10:58:14Z</time></trkpt>
    <trkpt lat="48.43496" lon="13.66017"><ele>516</ele><time>2023-09-10T10:58:33Z</time></trkpt>
    <trkpt lat="48.43465" lon="13.66061"><ele>524</ele><time>2023-09-10T10:58:52Z</time></trkpt>
    <trkpt lat="48.43438" lon="13.66090"><ele>529</ele><time>2023-09-10T10:59:11Z</time></trkpt>
    <trkpt lat="48.43417" lon="13.66100"><ele>535</ele><time>2023-09-10T10:59:30Z</time></trkpt>
    <trkpt lat="48.43396" lon="13.66099"><ele>533</ele><time>2023-09-10T10:59:49Z</time></trkpt>
    <trkpt lat="48.43372" lon="13.66102"><ele>534</ele><time>2023-09-10T11:00:07Z</time></trkpt>
    <trkpt lat="48.43347" lon="13.66100"><ele>542</ele><time>2023-09-10T11:00:25Z</time></trkpt>
    <trkpt lat="48.43326" lon="13.66106"><ele>543</ele><time>2023-09-10T11:00:43Z</time></trkpt>
    <trkpt lat="48.43279" lon="13.66106"><ele>538</ele><time>2023-09-10T11:02:16Z</time></trkpt>
    <trkpt lat="48.43221" lon="13.66133"><ele>538</ele><time>2023-09-10T11:02:34Z</time></trkpt>
    <trkpt lat="48.43182" lon="13.66192"><ele>537</ele><time>2023-09-10T11:02:52Z</time></trkpt>
    <trkpt lat="48.43161" lon="13.66248"><ele>540</ele><time>2023-09-10T11:03:11Z</time></trkpt>
    <trkpt lat="48.43135" lon="13.66304"><ele>539</ele><time>2023-09-10T11:03:29Z</time></trkpt>
    <trkpt lat="48.43105" lon="13.66384"><ele>537</ele><time>2023-09-10T11:03:48Z</time></trkpt>
    <trkpt lat="48.43057" lon="13.66485"><ele>536</ele><time>2023-09-10T11:04:07Z</time></trkpt>
    <trkpt lat="48.43042" lon="13.66517"><ele>537</ele><time>2023-09-10T11:04:26Z</time></trkpt>
    <trkpt lat="48.43029" lon="13.66546"><ele>540</ele><time>2023-09-10T11:04:44Z</time></trkpt>
    <trkpt lat="48.43015" lon="13.66574"><ele>542</ele><time>2023-09-10T11:05:03Z</time></trkpt>
    <trkpt lat="48.43001" lon="13.66596"><ele>546</ele><time>2023-09-10T11:05:21Z</time></trkpt>
    <trkpt lat="48.42988" lon="13.66617"><ele>548</ele><time>2023-09-10T11:05:40Z</time></trkpt>
    <trkpt lat="48.42973" lon="13.66643"><ele>552</ele><time>2023-09-10T11:05:58Z</time></trkpt>
    <trkpt lat="48.42961" lon="13.66666"><ele>556</ele><time>2023-09-10T11:06:16Z</time></trkpt>
    <trkpt lat="48.42951" lon="13.66696"><ele>558</ele><time>2023-09-10T11:06:35Z</time></trkpt>
    <trkpt lat="48.42951" lon="13.66710"><ele>556</ele><time>2023-09-10T11:07:12Z</time></trkpt>
    <trkpt lat="48.42951" lon="13.66762"><ele>559</ele><time>2023-09-10T11:07:31Z</time></trkpt>
    <trkpt lat="48.42952" lon="13.66834"><ele>560</ele><time>2023-09-10T11:07:50Z</time></trkpt>
    <trkpt lat="48.42949" lon="13.66909"><ele>559</ele><time>2023-09-10T11:08:08Z</time></trkpt>
    <trkpt lat="48.42865" lon="13.66899"><ele>553</ele><time>2023-09-10T11:08:26Z</time></trkpt>
    <trkpt lat="48.42816" lon="13.66962"><ele>546</ele><time>2023-09-10T11:08:45Z</time></trkpt>
    <trkpt lat="48.42798" lon="13.67090"><ele>543</ele><time>2023-09-10T11:09:03Z</time></trkpt>
    <trkpt lat="48.42764" lon="13.67129"><ele>540</ele><time>2023-09-10T11:09:21Z</time></trkpt>
    <trkpt lat="48.42740" lon="13.67141"><ele>538</ele><time>2023-09-10T11:09:39Z</time></trkpt>
    <trkpt lat="48.42700" lon="13.67278"><ele>538</ele><time>2023-09-10T11:09:58Z</time></trkpt>
    <trkpt lat="48.42623" lon="13.67307"><ele>542</ele><time>2023-09-10T11:10:17Z</time></trkpt>
    <trkpt lat="48.42587" lon="13.67310"><ele>543</ele><time>2023-09-10T11:10:36Z</time></trkpt>
    <trkpt lat="48.42554" lon="13.67311"><ele>544</ele><time>2023-09-10T11:10:54Z</time></trkpt>
    <trkpt lat="48.42511" lon="13.67302"><ele>545</ele><time>2023-09-10T11:11:13Z</time></trkpt>
    <trkpt lat="48.42476" lon="13.67272"><ele>545</ele><time>2023-09-10T11:11:32Z</time></trkpt>
    <trkpt lat="48.42453" lon="13.67223"><ele>544</ele><time>2023-09-10T11:11:51Z</time></trkpt>
    <trkpt lat="48.42429" lon="13.67178"><ele>547</ele><time>2023-09-10T11:12:10Z</time></trkpt>
    <trkpt lat="48.42408" lon="13.67138"><ele>552</ele><time>2023-09-10T11:12:28Z</time></trkpt>
    <trkpt lat="48.42366" lon="13.67132"><ele>554</ele><time>2023-09-10T11:12:47Z</time></trkpt>
    <trkpt lat="48.42303" lon="13.67138"><ele>552</ele><time>2023-09-10T11:13:05Z</time></trkpt>
    <trkpt lat="48.42214" lon="13.67151"><ele>549</ele><time>2023-09-10T11:13:24Z</time></trkpt>
    <trkpt lat="48.42197" lon="13.67099"><ele>544</ele><time>2023-09-10T11:13:42Z</time></trkpt>
    <trkpt lat="48.42219" lon="13.67025"><ele>541</ele><time>2023-09-10T11:14:00Z</time></trkpt>
    <trkpt lat="48.42264" lon="13.66970"><ele>544</ele><time>2023-09-10T11:14:19Z</time></trkpt>
    <trkpt lat="48.42291" lon="13.66900"><ele>545</ele><time>2023-09-10T11:14:38Z</time></trkpt>
    <trkpt lat="48.42286" lon="13.66840"><ele>553</ele><time>2023-09-10T11:14:56Z</time></trkpt>
    <trkpt lat="48.42272" lon="13.66776"><ele>556</ele><time>2023-09-10T11:15:14Z</time></trkpt>
    <trkpt lat="48.42223" lon="13.66630"><ele>546</ele><time>2023-09-10T11:15:33Z</time></trkpt>
    <trkpt lat="48.42173" lon="13.66540"><ele>538</ele><time>2023-09-10T11:15:52Z</time></trkpt>
    <trkpt lat="48.42117" lon="13.66470"><ele>532</ele><time>2023-09-10T11:16:10Z</time></trkpt>
    <trkpt lat="48.42015" lon="13.66366"><ele>526</ele><time>2023-09-10T11:16:29Z</time></trkpt>
    <trkpt lat="48.41951" lon="13.66299"><ele>526</ele><time>2023-09-10T11:16:47Z</time></trkpt>
    <trkpt lat="48.41897" lon="13.66245"><ele>528</ele><time>2023-09-10T11:17:05Z</time></trkpt>
    <trkpt lat="48.41818" lon="13.66169"><ele>520</ele><time>2023-09-10T11:17:23Z</time></trkpt>
    <trkpt lat="48.41759" lon="13.66133"><ele>513</ele><time>2023-09-10T11:17:42Z</time></trkpt>
    <trkpt lat="48.41717" lon="13.66208"><ele>511</ele><time>2023-09-10T11:18:00Z</time></trkpt>
    <trkpt lat="48.41667" lon="13.66258"><ele>501</ele><time>2023-09-10T11:18:19Z</time></trkpt>
    <trkpt lat="48.41665" lon="13.66274"><ele>502</ele><time>2023-09-10T11:18:37Z</time></trkpt>
    <trkpt lat="48.41658" lon="13.66368"><ele>499</ele><time>2023-09-10T11:18:55Z</time></trkpt>
    <trkpt lat="48.41665" lon="13.66498"><ele>494</ele><time>2023-09-10T11:19:14Z</time></trkpt>
    <trkpt lat="48.41596" lon="13.66546"><ele>488</ele><time>2023-09-10T11:19:33Z</time></trkpt>
    <trkpt lat="48.41574" lon="13.66568"><ele>516</ele><time>2023-09-10T11:19:52Z</time></trkpt>
    <trkpt lat="48.41546" lon="13.66588"><ele>510</ele><time>2023-09-10T11:20:11Z</time></trkpt>
    <trkpt lat="48.41462" lon="13.66618"><ele>471</ele><time>2023-09-10T11:20:29Z</time></trkpt>
    <trkpt lat="48.41431" lon="13.66577"><ele>468</ele><time>2023-09-10T11:20:48Z</time></trkpt>
    <trkpt lat="48.41434" lon="13.66721"><ele>456</ele><time>2023-09-10T11:21:25Z</time></trkpt>
    <trkpt lat="48.41381" lon="13.66710"><ele>455</ele><time>2023-09-10T11:21:43Z</time></trkpt>
    <trkpt lat="48.41344" lon="13.66687"><ele>461</ele><time>2023-09-10T11:22:02Z</time></trkpt>
    <trkpt lat="48.41317" lon="13.66666"><ele>469</ele><time>2023-09-10T11:22:21Z</time></trkpt>
    <trkpt lat="48.41287" lon="13.66648"><ele>469</ele><time>2023-09-10T11:22:39Z</time></trkpt>
    <trkpt lat="48.41263" lon="13.66636"><ele>473</ele><time>2023-09-10T11:22:58Z</time></trkpt>
    <trkpt lat="48.41235" lon="13.66624"><ele>482</ele><time>2023-09-10T11:23:16Z</time></trkpt>
    <trkpt lat="48.41200" lon="13.66612"><ele>483</ele><time>2023-09-10T11:23:34Z</time></trkpt>
    <trkpt lat="48.41189" lon="13.66646"><ele>488</ele><time>2023-09-10T11:23:52Z</time></trkpt>
    <trkpt lat="48.41183" lon="13.66683"><ele>493</ele><time>2023-09-10T11:24:11Z</time></trkpt>
    <trkpt lat="48.41177" lon="13.66720"><ele>497</ele><time>2023-09-10T11:24:30Z</time></trkpt>
    <trkpt lat="48.41170" lon="13.66758"><ele>503</ele><time>2023-09-10T11:24:48Z</time></trkpt>
    <trkpt lat="48.41160" lon="13.66802"><ele>500</ele><time>2023-09-10T11:25:07Z</time></trkpt>
    <trkpt lat="48.41151" lon="13.66840"><ele>505</ele><time>2023-09-10T11:25:25Z</time></trkpt>
    <trkpt lat="48.41138" lon="13.66881"><ele>509</ele><time>2023-09-10T11:25:43Z</time></trkpt>
    <trkpt lat="48.41123" lon="13.66918"><ele>516</ele><time>2023-09-10T11:26:01Z</time></trkpt>
    <trkpt lat="48.41107" lon="13.66963"><ele>516</ele><time>2023-09-10T11:26:20Z</time></trkpt>
    <trkpt lat="48.41088" lon="13.67009"><ele>516</ele><time>2023-09-10T11:26:38Z</time></trkpt>
    <trkpt lat="48.41061" lon="13.67043"><ele>525</ele><time>2023-09-10T11:26:56Z</time></trkpt>
    <trkpt lat="48.41010" lon="13.67076"><ele>520</ele><time>2023-09-10T11:27:15Z</time></trkpt>
    <trkpt lat="48.40936" lon="13.66971"><ele>514</ele><time>2023-09-10T11:27:33Z</time></trkpt>
    <trkpt lat="48.40882" lon="13.66970"><ele>514</ele><time>2023-09-10T11:27:52Z</time></trkpt>
    <trkpt lat="48.40891" lon="13.67032"><ele>515</ele><time>2023-09-10T11:28:10Z</time></trkpt>
    <trkpt lat="48.40885" lon="13.67098"><ele>518</ele><time>2023-09-10T11:28:28Z</time></trkpt>
    <trkpt lat="48.40868" lon="13.67159"><ele>520</ele><time>2023-09-10T11:28:47Z</time></trkpt>
    <trkpt lat="48.40857" lon="13.67231"><ele>524</ele><time>2023-09-10T11:29:06Z</time></trkpt>
    <trkpt lat="48.40845" lon="13.67304"><ele>524</ele><time>2023-09-10T11:29:25Z</time></trkpt>
    <trkpt lat="48.40831" lon="13.67372"><ele>525</ele><time>2023-09-10T11:29:44Z</time></trkpt>
    <trkpt lat="48.40807" lon="13.67424"><ele>538</ele><time>2023-09-10T11:30:03Z</time></trkpt>
    <trkpt lat="48.40779" lon="13.67453"><ele>538</ele><time>2023-09-10T11:30:22Z</time></trkpt>
    <trkpt lat="48.40761" lon="13.67469"><ele>540</ele><time>2023-09-10T11:30:41Z</time></trkpt>
    <trkpt lat="48.40744" lon="13.67494"><ele>545</ele><time>2023-09-10T11:31:00Z</time></trkpt>
    <trkpt lat="48.40712" lon="13.67512"><ele>543</ele><time>2023-09-10T11:31:19Z</time></trkpt>
    <trkpt lat="48.40696" lon="13.67513"><ele>543</ele><time>2023-09-10T11:31:37Z</time></trkpt>
    <trkpt lat="48.40683" lon="13.67515"><ele>534</ele><time>2023-09-10T11:31:56Z</time></trkpt>
    <trkpt lat="48.40658" lon="13.67526"><ele>540</ele><time>2023-09-10T11:32:15Z</time></trkpt>
    <trkpt lat="48.40638" lon="13.67537"><ele>545</ele><time>2023-09-10T11:32:33Z</time></trkpt>
    <trkpt lat="48.40623" lon="13.67557"><ele>542</ele><time>2023-09-10T11:32:51Z</time></trkpt>
    <trkpt lat="48.40601" lon="13.67619"><ele>537</ele><time>2023-09-10T11:33:47Z</time></trkpt>
    <trkpt lat="48.40579" lon="13.67711"><ele>552</ele><time>2023-09-10T11:34:05Z</time></trkpt>
    <trkpt lat="48.40559" lon="13.67810"><ele>562</ele><time>2023-09-10T11:34:24Z</time></trkpt>
    <trkpt lat="48.40539" lon="13.67899"><ele>572</ele><time>2023-09-10T11:34:43Z</time></trkpt>
    <trkpt lat="48.40520" lon="13.67977"><ele>566</ele><time>2023-09-10T11:35:01Z</time></trkpt>
    <trkpt lat="48.40500" lon="13.68046"><ele>566</ele><time>2023-09-10T11:35:19Z</time></trkpt>
    <trkpt lat="48.40489" lon="13.68105"><ele>567</ele><time>2023-09-10T11:35:38Z</time></trkpt>
    <trkpt lat="48.40472" lon="13.68120"><ele>568</ele><time>2023-09-10T11:35:57Z</time></trkpt>
    <trkpt lat="48.40510" lon="13.68110"><ele>569</ele><time>2023-09-10T11:36:34Z</time></trkpt>
    <trkpt lat="48.40578" lon="13.68112"><ele>569</ele><time>2023-09-10T11:36:52Z</time></trkpt>
    <trkpt lat="48.40657" lon="13.68204"><ele>564</ele><time>2023-09-10T11:37:11Z</time></trkpt>
    <trkpt lat="48.40687" lon="13.68492"><ele>546</ele><time>2023-09-10T11:37:30Z</time></trkpt>
    <trkpt lat="48.40668" lon="13.68579"><ele>544</ele><time>2023-09-10T11:37:49Z</time></trkpt>
    <trkpt lat="48.40626" lon="13.68697"><ele>542</ele><time>2023-09-10T11:38:07Z</time></trkpt>
    <trkpt lat="48.40571" lon="13.68838"><ele>531</ele><time>2023-09-10T11:38:26Z</time></trkpt>
    <trkpt lat="48.40515" lon="13.68988"><ele>509</ele><time>2023-09-10T11:38:44Z</time></trkpt>
    <trkpt lat="48.40436" lon="13.69107"><ele>532</ele><time>2023-09-10T11:39:02Z</time></trkpt>
    <trkpt lat="48.40349" lon="13.69205"><ele>534</ele><time>2023-09-10T11:39:20Z</time></trkpt>
    <trkpt lat="48.40286" lon="13.69330"><ele>533</ele><time>2023-09-10T11:39:39Z</time></trkpt>
    <trkpt lat="48.40218" lon="13.69479"><ele>530</ele><time>2023-09-10T11:39:58Z</time></trkpt>
    <trkpt lat="48.40128" lon="13.69601"><ele>519</ele><time>2023-09-10T11:40:17Z</time></trkpt>
    <trkpt lat="48.40023" lon="13.69652"><ele>520</ele><time>2023-09-10T11:40:35Z</time></trkpt>
    <trkpt lat="48.39940" lon="13.69688"><ele>520</ele><time>2023-09-10T11:40:54Z</time></trkpt>
    <trkpt lat="48.39873" lon="13.69716"><ele>526</ele><time>2023-09-10T11:41:12Z</time></trkpt>
    <trkpt lat="48.39799" lon="13.69749"><ele>518</ele><time>2023-09-10T11:41:31Z</time></trkpt>
    <trkpt lat="48.39720" lon="13.69844"><ele>514</ele><time>2023-09-10T11:41:49Z</time></trkpt>
    <trkpt lat="48.39598" lon="13.69927"><ele>511</ele><time>2023-09-10T11:42:08Z</time></trkpt>
    <trkpt lat="48.39542" lon="13.69977"><ele>518</ele><time>2023-09-10T11:42:27Z</time></trkpt>
    <trkpt lat="48.39516" lon="13.70010"><ele>521</ele><time>2023-09-10T11:42:45Z</time></trkpt>
    <trkpt lat="48.39493" lon="13.70037"><ele>525</ele><time>2023-09-10T11:43:03Z</time></trkpt>
    <trkpt lat="48.39468" lon="13.70068"><ele>527</ele><time>2023-09-10T11:43:22Z</time></trkpt>
    <trkpt lat="48.39456" lon="13.70080"><ele>530</ele><time>2023-09-10T11:44:35Z</time></trkpt>
    <trkpt lat="48.39422" lon="13.70092"><ele>530</ele><time>2023-09-10T11:44:53Z</time></trkpt>
    <trkpt lat="48.39409" lon="13.70099"><ele>527</ele><time>2023-09-10T11:45:11Z</time></trkpt>
    <trkpt lat="48.39397" lon="13.70105"><ele>529</ele><time>2023-09-10T11:45:29Z</time></trkpt>
    <trkpt lat="48.39304" lon="13.70095"><ele>526</ele><time>2023-09-10T11:45:48Z</time></trkpt>
    <trkpt lat="48.39264" lon="13.70095"><ele>529</ele><time>2023-09-10T11:46:06Z</time></trkpt>
    <trkpt lat="48.39209" lon="13.70052"><ele>527</ele><time>2023-09-10T11:46:24Z</time></trkpt>
    <trkpt lat="48.39174" lon="13.70043"><ele>525</ele><time>2023-09-10T11:46:43Z</time></trkpt>
    <trkpt lat="48.39081" lon="13.70046"><ele>521</ele><time>2023-09-10T11:47:02Z</time></trkpt>
    <trkpt lat="48.39009" lon="13.70063"><ele>527</ele><time>2023-09-10T11:47:21Z</time></trkpt>
    <trkpt lat="48.38974" lon="13.70067"><ele>526</ele><time>2023-09-10T11:47:39Z</time></trkpt>
    <trkpt lat="48.38942" lon="13.70081"><ele>531</ele><time>2023-09-10T11:47:57Z</time></trkpt>
    <trkpt lat="48.38920" lon="13.70095"><ele>532</ele><time>2023-09-10T11:48:16Z</time></trkpt>
    <trkpt lat="48.38887" lon="13.70142"><ele>534</ele><time>2023-09-10T11:49:30Z</time></trkpt>
    <trkpt lat="48.38863" lon="13.70187"><ele>538</ele><time>2023-09-10T11:49:48Z</time></trkpt>
    <trkpt lat="48.38835" lon="13.70220"><ele>541</ele><time>2023-09-10T11:50:06Z</time></trkpt>
    <trkpt lat="48.38791" lon="13.70248"><ele>542</ele><time>2023-09-10T11:50:25Z</time></trkpt>
    <trkpt lat="48.38752" lon="13.70283"><ele>543</ele><time>2023-09-10T11:50:43Z</time></trkpt>
    <trkpt lat="48.38721" lon="13.70312"><ele>541</ele><time>2023-09-10T11:51:01Z</time></trkpt>
    <trkpt lat="48.38674" lon="13.70346"><ele>542</ele><time>2023-09-10T11:51:19Z</time></trkpt>
    <trkpt lat="48.38634" lon="13.70381"><ele>548</ele><time>2023-09-10T11:51:38Z</time></trkpt>
    <trkpt lat="48.38593" lon="13.70435"><ele>539</ele><time>2023-09-10T11:51:56Z</time></trkpt>
    <trkpt lat="48.38550" lon="13.70483"><ele>543</ele><time>2023-09-10T11:52:14Z</time></trkpt>
    <trkpt lat="48.38518" lon="13.70556"><ele>541</ele><time>2023-09-10T11:52:33Z</time></trkpt>
    <trkpt lat="48.38478" lon="13.70651"><ele>533</ele><time>2023-09-10T11:52:51Z</time></trkpt>
    <trkpt lat="48.38457" lon="13.70681"><ele>532</ele><time>2023-09-10T11:53:09Z</time></trkpt>
    <trkpt lat="48.38441" lon="13.70740"><ele>527</ele><time>2023-09-10T11:53:27Z</time></trkpt>
    <trkpt lat="48.38401" lon="13.70815"><ele>518</ele><time>2023-09-10T11:53:46Z</time></trkpt>
    <trkpt lat="48.38356" lon="13.70870"><ele>509</ele><time>2023-09-10T11:55:01Z</time></trkpt>
    <trkpt lat="48.38318" lon="13.70947"><ele>503</ele><time>2023-09-10T11:55:20Z</time></trkpt>
    <trkpt lat="48.38257" lon="13.71030"><ele>521</ele><time>2023-09-10T11:55:38Z</time></trkpt>
    <trkpt lat="48.38209" lon="13.71080"><ele>516</ele><time>2023-09-10T11:55:57Z</time></trkpt>
    <trkpt lat="48.38172" lon="13.71119"><ele>514</ele><time>2023-09-10T11:56:15Z</time></trkpt>
    <trkpt lat="48.38132" lon="13.71149"><ele>514</ele><time>2023-09-10T11:56:33Z</time></trkpt>
    <trkpt lat="48.38068" lon="13.71177"><ele>509</ele><time>2023-09-10T11:56:51Z</time></trkpt>
    <trkpt lat="48.37984" lon="13.71236"><ele>511</ele><time>2023-09-10T11:57:09Z</time></trkpt>
    <trkpt lat="48.37960" lon="13.71267"><ele>508</ele><time>2023-09-10T11:57:28Z</time></trkpt>
    <trkpt lat="48.37928" lon="13.71322"><ele>510</ele><time>2023-09-10T11:57:47Z</time></trkpt>
    <trkpt lat="48.37898" lon="13.71381"><ele>512</ele><time>2023-09-10T11:58:05Z</time></trkpt>
    <trkpt lat="48.37871" lon="13.71431"><ele>513</ele><time>2023-09-10T11:58:23Z</time></trkpt>
    <trkpt lat="48.37858" lon="13.71468"><ele>506</ele><time>2023-09-10T11:58:41Z</time></trkpt>
    <trkpt lat="48.37796" lon="13.71569"><ele>492</ele><time>2023-09-10T11:59:00Z</time></trkpt>
    <trkpt lat="48.37699" lon="13.71613"><ele>489</ele><time>2023-09-10T11:59:18Z</time></trkpt>
    <trkpt lat="48.37627" lon="13.71640"><ele>468</ele><time>2023-09-10T11:59:37Z</time></trkpt>
    <trkpt lat="48.37602" lon="13.71660"><ele>480</ele><time>2023-09-10T11:59:56Z</time></trkpt>
    <trkpt lat="48.37567" lon="13.71748"><ele>472</ele><time>2023-09-10T12:01:27Z</time></trkpt>
    <trkpt lat="48.37504" lon="13.71786"><ele>475</ele><time>2023-09-10T12:01:46Z</time></trkpt>
    <trkpt lat="48.37447" lon="13.71893"><ele>473</ele><time>2023-09-10T12:02:04Z</time></trkpt>
    <trkpt lat="48.37377" lon="13.72009"><ele>472</ele><time>2023-09-10T12:02:22Z</time></trkpt>
    <trkpt lat="48.37369" lon="13.72066"><ele>476</ele><time>2023-09-10T12:02:40Z</time></trkpt>
    <trkpt lat="48.37357" lon="13.72124"><ele>480</ele><time>2023-09-10T12:02:59Z</time></trkpt>
    <trkpt lat="48.37357" lon="13.72183"><ele>484</ele><time>2023-09-10T12:03:17Z</time></trkpt>
    <trkpt lat="48.37352" lon="13.72242"><ele>485</ele><time>2023-09-10T12:03:35Z</time></trkpt>
    <trkpt lat="48.37355" lon="13.72300"><ele>488</ele><time>2023-09-10T12:03:53Z</time></trkpt>
    <trkpt lat="48.37366" lon="13.72368"><ele>490</ele><time>2023-09-10T12:04:12Z</time></trkpt>
    <trkpt lat="48.37376" lon="13.72439"><ele>491</ele><time>2023-09-10T12:04:31Z</time></trkpt>
    <trkpt lat="48.37389" lon="13.72522"><ele>492</ele><time>2023-09-10T12:04:49Z</time></trkpt>
    <trkpt lat="48.37400" lon="13.72592"><ele>496</ele><time>2023-09-10T12:05:07Z</time></trkpt>
    <trkpt lat="48.37423" lon="13.72738"><ele>482</ele><time>2023-09-10T12:05:44Z</time></trkpt>
    <trkpt lat="48.37378" lon="13.72914"><ele>500</ele><time>2023-09-10T12:06:02Z</time></trkpt>
    <trkpt lat="48.37336" lon="13.72930"><ele>468</ele><time>2023-09-10T12:06:21Z</time></trkpt>
    <trkpt lat="48.37324" lon="13.73052"><ele>451</ele><time>2023-09-10T12:06:40Z</time></trkpt>
    <trkpt lat="48.37211" lon="13.73100"><ele>442</ele><time>2023-09-10T12:06:58Z</time></trkpt>
    <trkpt lat="48.37093" lon="13.73181"><ele>437</ele><time>2023-09-10T12:07:17Z</time></trkpt>
    <trkpt lat="48.37102" lon="13.73258"><ele>441</ele><time>2023-09-10T12:07:36Z</time></trkpt>
    <trkpt lat="48.37116" lon="13.73345"><ele>440</ele><time>2023-09-10T12:07:54Z</time></trkpt>
    <trkpt lat="48.37132" lon="13.73441"><ele>441</ele><time>2023-09-10T12:08:13Z</time></trkpt>
    <trkpt lat="48.37149" lon="13.73550"><ele>438</ele><time>2023-09-10T12:08:32Z</time></trkpt>
    <trkpt lat="48.37092" lon="13.73604"><ele>448</ele><time>2023-09-10T12:08:50Z</time></trkpt>
    <trkpt lat="48.37003" lon="13.73660"><ele>433</ele><time>2023-09-10T12:09:08Z</time></trkpt>
    <trkpt lat="48.36919" lon="13.73734"><ele>451</ele><time>2023-09-10T12:09:26Z</time></trkpt>
    <trkpt lat="48.36845" lon="13.73839"><ele>432</ele><time>2023-09-10T12:09:45Z</time></trkpt>
    <trkpt lat="48.36788" lon="13.73954"><ele>428</ele><time>2023-09-10T12:10:03Z</time></trkpt>
    <trkpt lat="48.36701" lon="13.73916"><ele>428</ele><time>2023-09-10T12:10:21Z</time></trkpt>
    <trkpt lat="48.36630" lon="13.73955"><ele>430</ele><time>2023-09-10T12:10:40Z</time></trkpt>
    <trkpt lat="48.36567" lon="13.73980"><ele>431</ele><time>2023-09-10T12:10:58Z</time></trkpt>
    <trkpt lat="48.36495" lon="13.74038"><ele>430</ele><time>2023-09-10T12:11:17Z</time></trkpt>
    <trkpt lat="48.36435" lon="13.74069"><ele>433</ele><time>2023-09-10T12:11:35Z</time></trkpt>
    <trkpt lat="48.36400" lon="13.74124"><ele>448</ele><time>2023-09-10T12:11:54Z</time></trkpt>
    <trkpt lat="48.36371" lon="13.74184"><ele>445</ele><time>2023-09-10T12:12:12Z</time></trkpt>
    <trkpt lat="48.36343" lon="13.74242"><ele>440</ele><time>2023-09-10T12:12:30Z</time></trkpt>
    <trkpt lat="48.36314" lon="13.74303"><ele>441</ele><time>2023-09-10T12:12:49Z</time></trkpt>
    <trkpt lat="48.36289" lon="13.74373"><ele>448</ele><time>2023-09-10T12:13:08Z</time></trkpt>
    <trkpt lat="48.36265" lon="13.74436"><ele>450</ele><time>2023-09-10T12:13:26Z</time></trkpt>
    <trkpt lat="48.36236" lon="13.74506"><ele>451</ele><time>2023-09-10T12:13:45Z</time></trkpt>
    <trkpt lat="48.36207" lon="13.74571"><ele>453</ele><time>2023-09-10T12:14:03Z</time></trkpt>
    <trkpt lat="48.36168" lon="13.74612"><ele>454</ele><time>2023-09-10T12:14:21Z</time></trkpt>
    <trkpt lat="48.36124" lon="13.74618"><ele>456</ele><time>2023-09-10T12:15:34Z</time></trkpt>
    <trkpt lat="48.36041" lon="13.74616"><ele>452</ele><time>2023-09-10T12:15:53Z</time></trkpt>
    <trkpt lat="48.35958" lon="13.74537"><ele>447</ele><time>2023-09-10T12:16:11Z</time></trkpt>
    <trkpt lat="48.35802" lon="13.74378"><ele>431</ele><time>2023-09-10T12:16:29Z</time></trkpt>
    <trkpt lat="48.35634" lon="13.74222"><ele>412</ele><time>2023-09-10T12:16:48Z</time></trkpt>
    <trkpt lat="48.35612" lon="13.74232"><ele>410</ele><time>2023-09-10T12:17:06Z</time></trkpt>
    <trkpt lat="48.35542" lon="13.74295"><ele>405</ele><time>2023-09-10T12:17:24Z</time></trkpt>
    <trkpt lat="48.35469" lon="13.74205"><ele>401</ele><time>2023-09-10T12:17:43Z</time></trkpt>
    <trkpt lat="48.35361" lon="13.74142"><ele>402</ele><time>2023-09-10T12:18:01Z</time></trkpt>
    <trkpt lat="48.35244" lon="13.74106"><ele>396</ele><time>2023-09-10T12:18:20Z</time></trkpt>
    <trkpt lat="48.35209" lon="13.74185"><ele>396</ele><time>2023-09-10T12:18:38Z</time></trkpt>
    <trkpt lat="48.35148" lon="13.74303"><ele>396</ele><time>2023-09-10T12:18:57Z</time></trkpt>
    <trkpt lat="48.35040" lon="13.74431"><ele>394</ele><time>2023-09-10T12:19:16Z</time></trkpt>
    <trkpt lat="48.34977" lon="13.74567"><ele>392</ele><time>2023-09-10T12:19:35Z</time></trkpt>
    <trkpt lat="48.34932" lon="13.74707"><ele>395</ele><time>2023-09-10T12:19:53Z</time></trkpt>
    <trkpt lat="48.34910" lon="13.74842"><ele>394</ele><time>2023-09-10T12:20:11Z</time></trkpt>
    <trkpt lat="48.34895" lon="13.74973"><ele>388</ele><time>2023-09-10T12:20:29Z</time></trkpt>
    <trkpt lat="48.34821" lon="13.74981"><ele>387</ele><time>2023-09-10T12:20:48Z</time></trkpt>
    <trkpt lat="48.34741" lon="13.75098"><ele>385</ele><time>2023-09-10T12:21:06Z</time></trkpt>
    <trkpt lat="48.34668" lon="13.75202"><ele>384</ele><time>2023-09-10T12:21:24Z</time></trkpt>
    <trkpt lat="48.34664" lon="13.75336"><ele>405</ele><time>2023-09-10T12:21:42Z</time></trkpt>
    <trkpt lat="48.34670" lon="13.75477"><ele>387</ele><time>2023-09-10T12:22:01Z</time></trkpt>
    <trkpt lat="48.34653" lon="13.75618"><ele>389</ele><time>2023-09-10T12:22:19Z</time></trkpt>
    <trkpt lat="48.34589" lon="13.75724"><ele>386</ele><time>2023-09-10T12:22:38Z</time></trkpt>
    <trkpt lat="48.34539" lon="13.75864"><ele>387</ele><time>2023-09-10T12:22:57Z</time></trkpt>
    <trkpt lat="48.34517" lon="13.75980"><ele>387</ele><time>2023-09-10T12:23:16Z</time></trkpt>
    <trkpt lat="48.34468" lon="13.76029"><ele>390</ele><time>2023-09-10T12:23:34Z</time></trkpt>
    <trkpt lat="48.34395" lon="13.76058"><ele>414</ele><time>2023-09-10T12:23:53Z</time></trkpt>
    <trkpt lat="48.34304" lon="13.76188"><ele>385</ele><time>2023-09-10T12:24:12Z</time></trkpt>
    <trkpt lat="48.34232" lon="13.76326"><ele>387</ele><time>2023-09-10T12:24:30Z</time></trkpt>
    <trkpt lat="48.34154" lon="13.76492"><ele>381</ele><time>2023-09-10T12:24:48Z</time></trkpt>
    <trkpt lat="48.34145" lon="13.76606"><ele>386</ele><time>2023-09-10T12:25:07Z</time></trkpt>
    <trkpt lat="48.34095" lon="13.76732"><ele>380</ele><time>2023-09-10T12:25:26Z</time></trkpt>
    <trkpt lat="48.34029" lon="13.76809"><ele>379</ele><time>2023-09-10T12:25:45Z</time></trkpt>
    <trkpt lat="48.34043" lon="13.76911"><ele>382</ele><time>2023-09-10T12:26:03Z</time></trkpt>
    <trkpt lat="48.34053" lon="13.77002"><ele>388</ele><time>2023-09-10T12:26:22Z</time></trkpt>
    <trkpt lat="48.34059" lon="13.77059"><ele>391</ele><time>2023-09-10T12:26:40Z</time></trkpt>
    <trkpt lat="48.34062" lon="13.77084"><ele>395</ele><time>2023-09-10T12:26:59Z</time></trkpt>
    <trkpt lat="48.34054" lon="13.77135"><ele>398</ele><time>2023-09-10T12:27:17Z</time></trkpt>
    <trkpt lat="48.34049" lon="13.77154"><ele>400</ele><time>2023-09-10T12:27:35Z</time></trkpt>
    <trkpt lat="48.33975" lon="13.77150"><ele>396</ele><time>2023-09-10T12:28:49Z</time></trkpt>
    <trkpt lat="48.33817" lon="13.77126"><ele>390</ele><time>2023-09-10T12:29:08Z</time></trkpt>
    <trkpt lat="48.33760" lon="13.77106"><ele>387</ele><time>2023-09-10T12:29:27Z</time></trkpt>
    <trkpt lat="48.33801" lon="13.77055"><ele>387</ele><time>2023-09-10T12:30:03Z</time></trkpt>
    <trkpt lat="48.33808" lon="13.77018"><ele>391</ele><time>2023-09-10T12:30:22Z</time></trkpt>
  </trkseg>
</trk>
</gpx>