<?xml version="1.0" encoding="UTF-8"?>
<gpx version="1.1" creator="GPX-Pro" xmlns="http://www.topografix.com/GPX/1/1">
<trk>
  <name>Kl.Priel-Nordwand</name>
  <trkseg>
    <trkpt lat="47.74513" lon="14.16588"><ele>535</ele><time>2023-10-14T04:54:19Z</time></trkpt>
    <trkpt lat="47.74583" lon="14.16621"><ele>492</ele><time>2023-10-14T04:54:58Z</time></trkpt>
    <trkpt lat="47.74613" lon="14.16580"><ele>551</ele><time>2023-10-14T04:55:29Z</time></trkpt>
    <trkpt lat="47.74595" lon="14.16545"><ele>539</ele><time>2023-10-14T04:55:59Z</time></trkpt>
    <trkpt lat="47.74583" lon="14.16518"><ele>527</ele><time>2023-10-14T04:56:29Z</time></trkpt>
    <trkpt lat="47.74562" lon="14.16501"><ele>533</ele><time>2023-10-14T04:56:59Z</time></trkpt>
    <trkpt lat="47.74556" lon="14.16471"><ele>534</ele><time>2023-10-14T04:57:29Z</time></trkpt>
    <trkpt lat="47.74565" lon="14.16446"><ele>542</ele><time>2023-10-14T04:57:59Z</time></trkpt>
    <trkpt lat="47.74580" lon="14.16465"><ele>542</ele><time>2023-10-14T04:58:29Z</time></trkpt>
    <trkpt lat="47.74602" lon="14.16479"><ele>547</ele><time>2023-10-14T04:58:59Z</time></trkpt>
    <trkpt lat="47.74621" lon="14.16458"><ele>551</ele><time>2023-10-14T04:59:29Z</time></trkpt>
    <trkpt lat="47.74636" lon="14.16425"><ele>546</ele><time>2023-10-14T04:59:59Z</time></trkpt>
    <trkpt lat="47.74643" lon="14.16376"><ele>551</ele><time>2023-10-14T05:00:29Z</time></trkpt>
    <trkpt lat="47.74639" lon="14.16313"><ele>561</ele><time>2023-10-14T05:01:00Z</time></trkpt>
    <trkpt lat="47.74637" lon="14.16272"><ele>562</ele><time>2023-10-14T05:01:30Z</time></trkpt>
    <trkpt lat="47.74631" lon="14.16211"><ele>561</ele><time>2023-10-14T05:02:10Z</time></trkpt>
    <trkpt lat="47.74615" lon="14.16187"><ele>578</ele><time>2023-10-14T05:02:40Z</time></trkpt>
    <trkpt lat="47.74618" lon="14.16117"><ele>570</ele><time>2023-10-14T05:03:16Z</time></trkpt>
    <trkpt lat="47.74650" lon="14.16075"><ele>556</ele><time>2023-10-14T05:03:46Z</time></trkpt>
    <trkpt lat="47.74661" lon="14.16074"><ele>547</ele><time>2023-10-14T05:04:17Z</time></trkpt>
    <trkpt lat="47.74712" lon="14.16043"><ele>591</ele><time>2023-10-14T05:05:15Z</time></trkpt>
    <trkpt lat="47.74699" lon="14.15996"><ele>598</ele><time>2023-10-14T05:05:46Z</time></trkpt>
    <trkpt lat="47.74720" lon="14.15965"><ele>592</ele><time>2023-10-14T05:06:16Z</time></trkpt>
    <trkpt lat="47.74679" lon="14.15880"><ele>573</ele><time>2023-10-14T05:06:46Z</time></trkpt>
    <trkpt lat="47.74691" lon="14.15898"><ele>568</ele><time>2023-10-14T05:07:17Z</time></trkpt>
    <trkpt lat="47.74697" lon="14.15878"><ele>606</ele><time>2023-10-14T05:08:16Z</time></trkpt>
    <trkpt lat="47.74709" lon="14.15862"><ele>628</ele><time>2023-10-14T05:09:27Z</time></trkpt>
    <trkpt lat="47.74700" lon="14.15853"><ele>622</ele><time>2023-10-14T05:09:57Z</time></trkpt>
    <trkpt lat="47.74690" lon="14.15868"><ele>633</ele><time>2023-10-14T05:10:51Z</time></trkpt>
    <trkpt lat="47.74690" lon="14.15854"><ele>631</ele><time>2023-10-14T05:11:21Z</time></trkpt>
    <trkpt lat="47.74646" lon="14.15804"><ele>631</ele><time>2023-10-14T05:12:20Z</time></trkpt>
    <trkpt lat="47.74657" lon="14.15793"><ele>657</ele><time>2023-10-14T05:12:50Z</time></trkpt>
    <trkpt lat="47.74647" lon="14.15745"><ele>641</ele><time>2023-10-14T05:13:21Z</time></trkpt>
    <trkpt lat="47.74620" lon="14.15773"><ele>657</ele><time>2023-10-14T05:14:20Z</time></trkpt>
    <trkpt lat="47.74608" lon="14.15689"><ele>688</ele><time>2023-10-14T05:15:20Z</time></trkpt>
    <trkpt lat="47.74596" lon="14.15627"><ele>622</ele><time>2023-10-14T05:16:19Z</time></trkpt>
    <trkpt lat="47.74610" lon="14.15604"><ele>618</ele><time>2023-10-14T05:16:50Z</time></trkpt>
    <trkpt lat="47.74581" lon="14.15584"><ele>664</ele><time>2023-10-14T05:19:20Z</time></trkpt>
    <trkpt lat="47.74588" lon="14.15535"><ele>683</ele><time>2023-10-14T05:20:16Z</time></trkpt>
    <trkpt lat="47.74573" lon="14.15532"><ele>700</ele><time>2023-10-14T05:20:47Z</time></trkpt>
    <trkpt lat="47.74569" lon="14.15491"><ele>735</ele><time>2023-10-14T05:21:47Z</time></trkpt>
    <trkpt lat="47.74557" lon="14.15411"><ele>778</ele><time>2023-10-14T05:23:18Z</time></trkpt>
    <trkpt lat="47.74537" lon="14.15407"><ele>685</ele><time>2023-10-14T05:24:46Z</time></trkpt>
    <trkpt lat="47.74523" lon="14.15411"><ele>752</ele><time>2023-10-14T05:25:47Z</time></trkpt>
    <trkpt lat="47.74513" lon="14.15405"><ele>645</ele><time>2023-10-14T05:28:00Z</time></trkpt>
    <trkpt lat="47.74491" lon="14.15433"><ele>756</ele><time>2023-10-14T05:30:28Z</time></trkpt>
    <trkpt lat="47.74484" lon="14.15470"><ele>673</ele><time>2023-10-14T05:30:59Z</time></trkpt>
    <trkpt lat="47.74473" lon="14.15493"><ele>709</ele><time>2023-10-14T05:31:29Z</time></trkpt>
    <trkpt lat="47.74449" lon="14.15557"><ele>741</ele><time>2023-10-14T05:31:59Z</time></trkpt>
    <trkpt lat="47.74411" lon="14.15665"><ele>720</ele><time>2023-10-14T05:32:58Z</time></trkpt>
    <trkpt lat="47.74391" lon="14.15696"><ele>739</ele><time>2023-10-14T05:33:28Z</time></trkpt>
    <trkpt lat="47.74375" lon="14.15681"><ele>755</ele><time>2023-10-14T05:33:58Z</time></trkpt>
    <trkpt lat="47.74336" lon="14.15646"><ele>743</ele><time>2023-10-14T05:34:29Z</time></trkpt>
    <trkpt lat="47.74320" lon="14.15615"><ele>744</ele><time>2023-10-14T05:34:59Z</time></trkpt>
    <trkpt lat="47.74267" lon="14.15603"><ele>747</ele><time>2023-10-14T05:35:29Z</time></trkpt>
    <trkpt lat="47.74218" lon="14.15537"><ele>736</ele><time>2023-10-14T05:36:59Z</time></trkpt>
    <trkpt lat="47.74214" lon="14.15551"><ele>759</ele><time>2023-10-14T05:38:00Z</time></trkpt>
    <trkpt lat="47.74216" lon="14.15488"><ele>758</ele><time>2023-10-14T05:38:59Z</time></trkpt>
    <trkpt lat="47.74176" lon="14.15432"><ele>769</ele><time>2023-10-14T05:39:58Z</time></trkpt>
    <trkpt lat="47.74174" lon="14.15408"><ele>789</ele><time>2023-10-14T05:40:28Z</time></trkpt>
    <trkpt lat="47.74156" lon="14.15377"><ele>783</ele><time>2023-10-14T05:40:59Z</time></trkpt>
    <trkpt lat="47.74131" lon="14.15346"><ele>789</ele><time>2023-10-14T05:41:29Z</time></trkpt>
    <trkpt lat="47.74123" lon="14.15332"><ele>832</ele><time>2023-10-14T05:42:29Z</time></trkpt>
    <trkpt lat="47.74093" lon="14.15309"><ele>823</ele><time>2023-10-14T05:42:59Z</time></trkpt>
    <trkpt lat="47.74057" lon="14.15261"><ele>789</ele><time>2023-10-14T05:43:29Z</time></trkpt>
    <trkpt lat="47.74008" lon="14.15223"><ele>623</ele><time>2023-10-14T05:43:59Z</time></trkpt>
    <trkpt lat="47.74048" lon="14.15247"><ele>786</ele><time>2023-10-14T05:44:29Z</time></trkpt>
    <trkpt lat="47.74021" lon="14.15224"><ele>582</ele><time>2023-10-14T05:44:59Z</time></trkpt>
    <trkpt lat="47.74009" lon="14.15210"><ele>811</ele><time>2023-10-14T05:45:59Z</time></trkpt>
    <trkpt lat="47.73984" lon="14.15209"><ele>549</ele><time>2023-10-14T05:46:29Z</time></trkpt>
    <trkpt lat="47.74000" lon="14.15155"><ele>794</ele><time>2023-10-14T05:48:29Z</time></trkpt>
    <trkpt lat="47.73983" lon="14.15164"><ele>812</ele><time>2023-10-14T05:49:29Z</time></trkpt>
    <trkpt lat="47.73986" lon="14.15140"><ele>575</ele><time>2023-10-14T05:49:59Z</time></trkpt>
    <trkpt lat="47.73994" lon="14.15114"><ele>686</ele><time>2023-10-14T05:51:29Z</time></trkpt>
    <trkpt lat="47.73991" lon="14.15088"><ele>605</ele><time>2023-10-14T05:52:29Z</time></trkpt>
    <trkpt lat="47.74016" lon="14.15064"><ele>852</ele><time>2023-10-14T05:52:59Z</time></trkpt>
    <trkpt lat="47.73983" lon="14.15046"><ele>720</ele><time>2023-10-14T05:54:29Z</time></trkpt>
    <trkpt lat="47.73963" lon="14.15032"><ele>849</ele><time>2023-10-14T05:54:59Z</time></trkpt>
    <trkpt lat="47.73965" lon="14.15018"><ele>866</ele><time>2023-10-14T05:55:59Z</time></trkpt>
    <trkpt lat="47.73977" lon="14.15013"><ele>591</ele><time>2023-10-14T05:56:39Z</time></trkpt>
    <trkpt lat="47.73971" lon="14.14995"><ele>873</ele><time>2023-10-14T05:57:39Z</time></trkpt>
    <trkpt lat="47.73983" lon="14.14978"><ele>684</ele><time>2023-10-14T05:58:39Z</time></trkpt>
    <trkpt lat="47.73963" lon="14.14981"><ele>892</ele><time>2023-10-14T05:59:09Z</time></trkpt>
    <trkpt lat="47.73953" lon="14.14991"><ele>914</ele><time>2023-10-14T05:59:49Z</time></trkpt>
    <trkpt lat="47.73978" lon="14.14930"><ele>901</ele><time>2023-10-14T06:00:20Z</time></trkpt>
    <trkpt lat="47.73966" lon="14.14921"><ele>936</ele><time>2023-10-14T06:00:51Z</time></trkpt>
    <trkpt lat="47.73984" lon="14.14898"><ele>962</ele><time>2023-10-14T06:01:51Z</time></trkpt>
    <trkpt lat="47.73949" lon="14.14878"><ele>718</ele><time>2023-10-14T06:02:51Z</time></trkpt>
    <trkpt lat="47.73975" lon="14.14853"><ele>944</ele><time>2023-10-14T06:03:21Z</time></trkpt>
    <trkpt lat="47.73951" lon="14.14819"><ele>939</ele><time>2023-10-14T06:05:20Z</time></trkpt>
    <trkpt lat="47.73958" lon="14.14802"><ele>987</ele><time>2023-10-14T06:08:05Z</time></trkpt>
    <trkpt lat="47.73918" lon="14.14740"><ele>1022</ele><time>2023-10-14T06:11:56Z</time></trkpt>
    <trkpt lat="47.73914" lon="14.14755"><ele>783</ele><time>2023-10-14T06:12:55Z</time></trkpt>
    <trkpt lat="47.73900" lon="14.14740"><ele>951</ele><time>2023-10-14T06:13:26Z</time></trkpt>
    <trkpt lat="47.73874" lon="14.14723"><ele>888</ele><time>2023-10-14T06:15:20Z</time></trkpt>
    <trkpt lat="47.73856" lon="14.14666"><ele>905</ele><time>2023-10-14T06:17:51Z</time></trkpt>
    <trkpt lat="47.73814" lon="14.14634"><ele>831</ele><time>2023-10-14T06:21:31Z</time></trkpt>
    <trkpt lat="47.73798" lon="14.14611"><ele>1046</ele><time>2023-10-14T06:22:31Z</time></trkpt>
    <trkpt lat="47.73804" lon="14.14594"><ele>1106</ele><time>2023-10-14T06:23:01Z</time></trkpt>
    <trkpt lat="47.73806" lon="14.14568"><ele>1083</ele><time>2023-10-14T06:24:01Z</time></trkpt>
    <trkpt lat="47.73787" lon="14.14549"><ele>1122</ele><time>2023-10-14T06:25:01Z</time></trkpt>
    <trkpt lat="47.73789" lon="14.14534"><ele>1123</ele><time>2023-10-14T06:25:31Z</time></trkpt>
    <trkpt lat="47.73792" lon="14.14507"><ele>1132</ele><time>2023-10-14T06:26:01Z</time></trkpt>
    <trkpt lat="47.73778" lon="14.14497"><ele>1123</ele><time>2023-10-14T06:26:31Z</time></trkpt>
    <trkpt lat="47.73771" lon="14.14481"><ele>1133</ele><time>2023-10-14T06:27:01Z</time></trkpt>
    <trkpt lat="47.73778" lon="14.14464"><ele>1150</ele><time>2023-10-14T06:28:31Z</time></trkpt>
    <trkpt lat="47.73778" lon="14.14439"><ele>1156</ele><time>2023-10-14T06:29:31Z</time></trkpt>
    <trkpt lat="47.73784" lon="14.14405"><ele>1144</ele><time>2023-10-14T06:30:31Z</time></trkpt>
    <trkpt lat="47.73762" lon="14.14355"><ele>1164</ele><time>2023-10-14T06:32:02Z</time></trkpt>
    <trkpt lat="47.73753" lon="14.14341"><ele>889</ele><time>2023-10-14T06:33:04Z</time></trkpt>
    <trkpt lat="47.73751" lon="14.14355"><ele>1023</ele><time>2023-10-14T06:34:06Z</time></trkpt>
    <trkpt lat="47.73701" lon="14.14364"><ele>959</ele><time>2023-10-14T06:35:05Z</time></trkpt>
    <trkpt lat="47.73681" lon="14.14342"><ele>1095</ele><time>2023-10-14T06:36:42Z</time></trkpt>
    <trkpt lat="47.73670" lon="14.14350"><ele>1102</ele><time>2023-10-14T06:37:43Z</time></trkpt>
    <trkpt lat="47.73654" lon="14.14335"><ele>1016</ele><time>2023-10-14T06:38:13Z</time></trkpt>
    <trkpt lat="47.73633" lon="14.14345"><ele>967</ele><time>2023-10-14T06:38:43Z</time></trkpt>
    <trkpt lat="47.73623" lon="14.14341"><ele>1095</ele><time>2023-10-14T06:42:07Z</time></trkpt>
    <trkpt lat="47.73580" lon="14.14307"><ele>948</ele><time>2023-10-14T06:43:38Z</time></trkpt>
    <trkpt lat="47.73590" lon="14.14295"><ele>1110</ele><time>2023-10-14T06:45:08Z</time></trkpt>
    <trkpt lat="47.73568" lon="14.14273"><ele>1227</ele><time>2023-10-14T06:45:38Z</time></trkpt>
    <trkpt lat="47.73585" lon="14.14242"><ele>1278</ele><time>2023-10-14T06:46:43Z</time></trkpt>
    <trkpt lat="47.73572" lon="14.14237"><ele>976</ele><time>2023-10-14T06:47:14Z</time></trkpt>
    <trkpt lat="47.73572" lon="14.14198"><ele>1297</ele><time>2023-10-14T06:48:09Z</time></trkpt>
    <trkpt lat="47.73546" lon="14.14179"><ele>1257</ele><time>2023-10-14T06:50:08Z</time></trkpt>
    <trkpt lat="47.73540" lon="14.14144"><ele>985</ele><time>2023-10-14T06:50:38Z</time></trkpt>
    <trkpt lat="47.73552" lon="14.14114"><ele>1296</ele><time>2023-10-14T06:52:09Z</time></trkpt>
    <trkpt lat="47.73543" lon="14.14070"><ele>1353</ele><time>2023-10-14T06:55:16Z</time></trkpt>
    <trkpt lat="47.73536" lon="14.14048"><ele>1321</ele><time>2023-10-14T06:56:16Z</time></trkpt>
    <trkpt lat="47.73547" lon="14.14052"><ele>1360</ele><time>2023-10-14T06:57:06Z</time></trkpt>
    <trkpt lat="47.73538" lon="14.14023"><ele>1370</ele><time>2023-10-14T06:58:52Z</time></trkpt>
    <trkpt lat="47.73534" lon="14.14008"><ele>1381</ele><time>2023-10-14T07:01:51Z</time></trkpt>
    <trkpt lat="47.73543" lon="14.13992"><ele>1368</ele><time>2023-10-14T07:04:21Z</time></trkpt>
    <trkpt lat="47.73557" lon="14.14013"><ele>1379</ele><time>2023-10-14T07:05:19Z</time></trkpt>
    <trkpt lat="47.73558" lon="14.13998"><ele>1366</ele><time>2023-10-14T07:05:49Z</time></trkpt>
    <trkpt lat="47.73571" lon="14.13982"><ele>1381</ele><time>2023-10-14T07:07:08Z</time></trkpt>
    <trkpt lat="47.73584" lon="14.13977"><ele>1409</ele><time>2023-10-14T07:07:38Z</time></trkpt>
    <trkpt lat="47.73592" lon="14.13988"><ele>1416</ele><time>2023-10-14T07:08:28Z</time></trkpt>
    <trkpt lat="47.73595" lon="14.13949"><ele>1444</ele><time>2023-10-14T07:10:56Z</time></trkpt>
    <trkpt lat="47.73591" lon="14.13919"><ele>1460</ele><time>2023-10-14T07:12:28Z</time></trkpt>
    <trkpt lat="47.73598" lon="14.13899"><ele>1441</ele><time>2023-10-14T07:13:36Z</time></trkpt>
    <trkpt lat="47.73600" lon="14.13884"><ele>1372</ele><time>2023-10-14T07:16:35Z</time></trkpt>
    <trkpt lat="47.73599" lon="14.13817"><ele>1477</ele><time>2023-10-14T07:18:34Z</time></trkpt>
    <trkpt lat="47.73589" lon="14.13815"><ele>1485</ele><time>2023-10-14T07:19:04Z</time></trkpt>
    <trkpt lat="47.73565" lon="14.13820"><ele>1488</ele><time>2023-10-14T07:20:10Z</time></trkpt>
    <trkpt lat="47.73550" lon="14.13818"><ele>1495</ele><time>2023-10-14T07:22:48Z</time></trkpt>
    <trkpt lat="47.73543" lon="14.13807"><ele>1340</ele><time>2023-10-14T07:25:52Z</time></trkpt>
    <trkpt lat="47.73477" lon="14.13771"><ele>1499</ele><time>2023-10-14T07:26:51Z</time></trkpt>
    <trkpt lat="47.73487" lon="14.13767"><ele>1374</ele><time>2023-10-14T07:27:51Z</time></trkpt>
    <trkpt lat="47.73481" lon="14.13744"><ele>1423</ele><time>2023-10-14T07:28:52Z</time></trkpt>
    <trkpt lat="47.73466" lon="14.13733"><ele>1503</ele><time>2023-10-14T07:30:21Z</time></trkpt>
    <trkpt lat="47.73452" lon="14.13726"><ele>1496</ele><time>2023-10-14T07:31:52Z</time></trkpt>
    <trkpt lat="47.73435" lon="14.13717"><ele>1442</ele><time>2023-10-14T07:32:42Z</time></trkpt>
    <trkpt lat="47.73429" lon="14.13705"><ele>1337</ele><time>2023-10-14T07:43:07Z</time></trkpt>
    <trkpt lat="47.73432" lon="14.13675"><ele>1617</ele><time>2023-10-14T07:44:07Z</time></trkpt>
    <trkpt lat="47.73442" lon="14.13634"><ele>1483</ele><time>2023-10-14T07:44:38Z</time></trkpt>
    <trkpt lat="47.73456" lon="14.13617"><ele>1616</ele><time>2023-10-14T07:46:36Z</time></trkpt>
    <trkpt lat="47.73492" lon="14.13567"><ele>1634</ele><time>2023-10-14T07:49:07Z</time></trkpt>
    <trkpt lat="47.73497" lon="14.13552"><ele>1626</ele><time>2023-10-14T07:51:06Z</time></trkpt>
    <trkpt lat="47.73526" lon="14.13526"><ele>1645</ele><time>2023-10-14T07:51:55Z</time></trkpt>
    <trkpt lat="47.73519" lon="14.13512"><ele>1675</ele><time>2023-10-14T07:52:55Z</time></trkpt>
    <trkpt lat="47.73520" lon="14.13526"><ele>1665</ele><time>2023-10-14T08:08:01Z</time></trkpt>
    <trkpt lat="47.73500" lon="14.13466"><ele>1669</ele><time>2023-10-14T08:28:29Z</time></trkpt>
    <trkpt lat="47.73508" lon="14.13431"><ele>1684</ele><time>2023-10-14T08:29:28Z</time></trkpt>
    <trkpt lat="47.73477" lon="14.13416"><ele>1674</ele><time>2023-10-14T08:30:28Z</time></trkpt>
    <trkpt lat="47.73466" lon="14.13420"><ele>1687</ele><time>2023-10-14T08:40:25Z</time></trkpt>
    <trkpt lat="47.73452" lon="14.13391"><ele>1733</ele><time>2023-10-14T08:43:25Z</time></trkpt>
    <trkpt lat="47.73448" lon="14.13370"><ele>1696</ele><time>2023-10-14T08:43:57Z</time></trkpt>
    <trkpt lat="47.73440" lon="14.13379"><ele>1685</ele><time>2023-10-14T08:45:26Z</time></trkpt>
    <trkpt lat="47.73448" lon="14.13329"><ele>1751</ele><time>2023-10-14T09:06:52Z</time></trkpt>
    <trkpt lat="47.73439" lon="14.13325"><ele>1785</ele><time>2023-10-14T09:13:43Z</time></trkpt>
    <trkpt lat="47.73434" lon="14.13288"><ele>1739</ele><time>2023-10-14T09:36:47Z</time></trkpt>
    <trkpt lat="47.73421" lon="14.13264"><ele>1714</ele><time>2023-10-14T09:42:17Z</time></trkpt>
    <trkpt lat="47.73426" lon="14.13250"><ele>1859</ele><time>2023-10-14T09:43:16Z</time></trkpt>
    <trkpt lat="47.73414" lon="14.13235"><ele>1860</ele><time>2023-10-14T09:48:46Z</time></trkpt>
    <trkpt lat="47.73420" lon="14.13215"><ele>1748</ele><time>2023-10-14T09:49:48Z</time></trkpt>
    <trkpt lat="47.73401" lon="14.13205"><ele>1841</ele><time>2023-10-14T09:53:46Z</time></trkpt>
    <trkpt lat="47.73398" lon="14.13163"><ele>1902</ele><time>2023-10-14T10:00:16Z</time></trkpt>
    <trkpt lat="47.73391" lon="14.13140"><ele>1910</ele><time>2023-10-14T10:03:16Z</time></trkpt>
    <trkpt lat="47.73388" lon="14.13118"><ele>1975</ele><time>2023-10-14T10:06:47Z</time></trkpt>
    <trkpt lat="47.73364" lon="14.13094"><ele>1857</ele><time>2023-10-14T10:08:16Z</time></trkpt>
    <trkpt lat="47.73351" lon="14.13067"><ele>1966</ele><time>2023-10-14T10:20:16Z</time></trkpt>
    <trkpt lat="47.73342" lon="14.13070"><ele>1961</ele><time>2023-10-14T10:20:46Z</time></trkpt>
    <trkpt lat="47.73342" lon="14.13055"><ele>2028</ele><time>2023-10-14T10:21:17Z</time></trkpt>
    <trkpt lat="47.73334" lon="14.13068"><ele>2019</ele><time>2023-10-14T10:21:47Z</time></trkpt>
    <trkpt lat="47.73299" lon="14.13084"><ele>2028</ele><time>2023-10-14T10:25:47Z</time></trkpt>
    <trkpt lat="47.73321" lon="14.13009"><ele>1998</ele><time>2023-10-14T10:29:51Z</time></trkpt>
    <trkpt lat="47.73332" lon="14.12970"><ele>2051</ele><time>2023-10-14T10:30:50Z</time></trkpt>
    <trkpt lat="47.73321" lon="14.12964"><ele>2035</ele><time>2023-10-14T10:32:20Z</time></trkpt>
    <trkpt lat="47.73319" lon="14.12948"><ele>2122</ele><time>2023-10-14T10:33:50Z</time></trkpt>
    <trkpt lat="47.73305" lon="14.12937"><ele>2133</ele><time>2023-10-14T10:34:22Z</time></trkpt>
    <trkpt lat="47.73289" lon="14.12922"><ele>2134</ele><time>2023-10-14T10:35:19Z</time></trkpt>
    <trkpt lat="47.73287" lon="14.12899"><ele>2139</ele><time>2023-10-14T10:35:49Z</time></trkpt>
    <trkpt lat="47.73297" lon="14.12892"><ele>2094</ele><time>2023-10-14T10:36:50Z</time></trkpt>
    <trkpt lat="47.73291" lon="14.12902"><ele>2131</ele><time>2023-10-14T10:54:50Z</time></trkpt>
    <trkpt lat="47.73281" lon="14.12882"><ele>2133</ele><time>2023-10-14T10:56:50Z</time></trkpt>
    <trkpt lat="47.73249" lon="14.12872"><ele>2119</ele><time>2023-10-14T10:58:20Z</time></trkpt>
    <trkpt lat="47.73233" lon="14.12882"><ele>2105</ele><time>2023-10-14T10:59:19Z</time></trkpt>
    <trkpt lat="47.73231" lon="14.12868"><ele>2114</ele><time>2023-10-14T10:59:50Z</time></trkpt>
    <trkpt lat="47.73223" lon="14.12837"><ele>2097</ele><time>2023-10-14T11:00:20Z</time></trkpt>
    <trkpt lat="47.73193" lon="14.12821"><ele>2068</ele><time>2023-10-14T11:02:49Z</time></trkpt>
    <trkpt lat="47.73183" lon="14.12811"><ele>2049</ele><time>2023-10-14T11:04:19Z</time></trkpt>
    <trkpt lat="47.73163" lon="14.12841"><ele>2054</ele><time>2023-10-14T11:04:50Z</time></trkpt>
    <trkpt lat="47.73142" lon="14.12845"><ele>2068</ele><time>2023-10-14T11:05:20Z</time></trkpt>
    <trkpt lat="47.73146" lon="14.12865"><ele>2044</ele><time>2023-10-14T11:05:50Z</time></trkpt>
    <trkpt lat="47.73128" lon="14.12875"><ele>2021</ele><time>2023-10-14T11:06:49Z</time></trkpt>
    <trkpt lat="47.73090" lon="14.12914"><ele>2051</ele><time>2023-10-14T11:07:49Z</time></trkpt>
    <trkpt lat="47.73082" lon="14.12933"><ele>1994</ele><time>2023-10-14T11:09:50Z</time></trkpt>
    <trkpt lat="47.73078" lon="14.12909"><ele>1988</ele><time>2023-10-14T11:10:20Z</time></trkpt>
    <trkpt lat="47.73063" lon="14.12927"><ele>1982</ele><time>2023-10-14T11:11:20Z</time></trkpt>
    <trkpt lat="47.73063" lon="14.12897"><ele>1967</ele><time>2023-10-14T11:11:50Z</time></trkpt>
    <trkpt lat="47.73053" lon="14.12909"><ele>1958</ele><time>2023-10-14T11:12:20Z</time></trkpt>
    <trkpt lat="47.73042" lon="14.12925"><ele>1963</ele><time>2023-10-14T11:12:50Z</time></trkpt>
    <trkpt lat="47.73020" lon="14.12934"><ele>1968</ele><time>2023-10-14T11:13:20Z</time></trkpt>
    <trkpt lat="47.73019" lon="14.12902"><ele>1936</ele><time>2023-10-14T11:13:50Z</time></trkpt>
    <trkpt lat="47.73000" lon="14.12840"><ele>1929</ele><time>2023-10-14T11:14:50Z</time></trkpt>
    <trkpt lat="47.72984" lon="14.12817"><ele>1923</ele><time>2023-10-14T11:15:20Z</time></trkpt>
    <trkpt lat="47.72971" lon="14.12835"><ele>1910</ele><time>2023-10-14T11:16:19Z</time></trkpt>
    <trkpt lat="47.72966" lon="14.12822"><ele>1897</ele><time>2023-10-14T11:16:50Z</time></trkpt>
    <trkpt lat="47.72935" lon="14.12803"><ele>1901</ele><time>2023-10-14T11:17:20Z</time></trkpt>
    <trkpt lat="47.72917" lon="14.12794"><ele>1901</ele><time>2023-10-14T11:17:50Z</time></trkpt>
    <trkpt lat="47.72899" lon="14.12771"><ele>1878</ele><time>2023-10-14T11:18:50Z</time></trkpt>
    <trkpt lat="47.72874" lon="14.12770"><ele>1889</ele><time>2023-10-14T11:19:49Z</time></trkpt>
    <trkpt lat="47.72864" lon="14.12763"><ele>1881</ele><time>2023-10-14T11:20:19Z</time></trkpt>
    <trkpt lat="47.72852" lon="14.12756"><ele>1873</ele><time>2023-10-14T11:20:50Z</time></trkpt>
    <trkpt lat="47.72813" lon="14.12775"><ele>1903</ele><time>2023-10-14T11:21:50Z</time></trkpt>
    <trkpt lat="47.72801" lon="14.12775"><ele>1822</ele><time>2023-10-14T11:22:20Z</time></trkpt>
    <trkpt lat="47.72782" lon="14.12759"><ele>1874</ele><time>2023-10-14T11:23:19Z</time></trkpt>
    <trkpt lat="47.72772" lon="14.12761"><ele>1843</ele><time>2023-10-14T11:23:49Z</time></trkpt>
    <trkpt lat="47.72756" lon="14.12751"><ele>1862</ele><time>2023-10-14T11:24:19Z</time></trkpt>
    <trkpt lat="47.72743" lon="14.12746"><ele>1855</ele><time>2023-10-14T11:24:49Z</time></trkpt>
    <trkpt lat="47.72734" lon="14.12742"><ele>1847</ele><time>2023-10-14T11:26:49Z</time></trkpt>
    <trkpt lat="47.72720" lon="14.12721"><ele>1834</ele><time>2023-10-14T11:27:49Z</time></trkpt>
    <trkpt lat="47.72708" lon="14.12718"><ele>1830</ele><time>2023-10-14T11:28:19Z</time></trkpt>
    <trkpt lat="47.72691" lon="14.12707"><ele>1831</ele><time>2023-10-14T11:28:49Z</time></trkpt>
    <trkpt lat="47.72678" lon="14.12702"><ele>1833</ele><time>2023-10-14T11:29:19Z</time></trkpt>
    <trkpt lat="47.72669" lon="14.12716"><ele>1806</ele><time>2023-10-14T11:29:53Z</time></trkpt>
    <trkpt lat="47.72662" lon="14.12698"><ele>1809</ele><time>2023-10-14T11:30:23Z</time></trkpt>
    <trkpt lat="47.72648" lon="14.12705"><ele>1846</ele><time>2023-10-14T11:30:53Z</time></trkpt>
    <trkpt lat="47.72616" lon="14.12704"><ele>1808</ele><time>2023-10-14T11:32:22Z</time></trkpt>
    <trkpt lat="47.72603" lon="14.12713"><ele>1786</ele><time>2023-10-14T11:32:52Z</time></trkpt>
    <trkpt lat="47.72580" lon="14.12703"><ele>1789</ele><time>2023-10-14T11:33:22Z</time></trkpt>
    <trkpt lat="47.72544" lon="14.12641"><ele>1818</ele><time>2023-10-14T11:34:24Z</time></trkpt>
    <trkpt lat="47.72556" lon="14.12688"><ele>1760</ele><time>2023-10-14T11:35:23Z</time></trkpt>
    <trkpt lat="47.72521" lon="14.12719"><ele>1788</ele><time>2023-10-14T11:35:53Z</time></trkpt>
    <trkpt lat="47.72517" lon="14.12733"><ele>1805</ele><time>2023-10-14T11:36:23Z</time></trkpt>
    <trkpt lat="47.72484" lon="14.12755"><ele>1821</ele><time>2023-10-14T11:36:53Z</time></trkpt>
    <trkpt lat="47.72489" lon="14.12781"><ele>1792</ele><time>2023-10-14T11:37:23Z</time></trkpt>
    <trkpt lat="47.72472" lon="14.12768"><ele>1813</ele><time>2023-10-14T11:37:54Z</time></trkpt>
    <trkpt lat="47.72478" lon="14.12800"><ele>1784</ele><time>2023-10-14T11:38:52Z</time></trkpt>
    <trkpt lat="47.72487" lon="14.12833"><ele>1774</ele><time>2023-10-14T11:39:23Z</time></trkpt>
    <trkpt lat="47.72467" lon="14.12860"><ele>1515</ele><time>2023-10-14T11:41:13Z</time></trkpt>
    <trkpt lat="47.72496" lon="14.12877"><ele>1786</ele><time>2023-10-14T11:42:12Z</time></trkpt>
    <trkpt lat="47.72494" lon="14.12898"><ele>1739</ele><time>2023-10-14T11:43:10Z</time></trkpt>
    <trkpt lat="47.72491" lon="14.12932"><ele>1701</ele><time>2023-10-14T11:44:11Z</time></trkpt>
    <trkpt lat="47.72479" lon="14.12954"><ele>1691</ele><time>2023-10-14T11:44:41Z</time></trkpt>
    <trkpt lat="47.72473" lon="14.12971"><ele>1681</ele><time>2023-10-14T11:45:11Z</time></trkpt>
    <trkpt lat="47.72474" lon="14.13030"><ele>1679</ele><time>2023-10-14T11:46:11Z</time></trkpt>
    <trkpt lat="47.72462" lon="14.13055"><ele>1688</ele><time>2023-10-14T11:46:42Z</time></trkpt>
    <trkpt lat="47.72463" lon="14.13076"><ele>1669</ele><time>2023-10-14T11:47:12Z</time></trkpt>
    <trkpt lat="47.72441" lon="14.13110"><ele>1639</ele><time>2023-10-14T11:48:11Z</time></trkpt>
    <trkpt lat="47.72420" lon="14.13055"><ele>1666</ele><time>2023-10-14T11:48:41Z</time></trkpt>
    <trkpt lat="47.72401" lon="14.13038"><ele>1640</ele><time>2023-10-14T11:54:43Z</time></trkpt>
    <trkpt lat="47.72375" lon="14.13039"><ele>1639</ele><time>2023-10-14T11:55:43Z</time></trkpt>
    <trkpt lat="47.72353" lon="14.13021"><ele>1619</ele><time>2023-10-14T11:56:43Z</time></trkpt>
    <trkpt lat="47.72314" lon="14.13050"><ele>1607</ele><time>2023-10-14T11:58:14Z</time></trkpt>
    <trkpt lat="47.72249" lon="14.13065"><ele>1557</ele><time>2023-10-14T12:01:13Z</time></trkpt>
    <trkpt lat="47.72201" lon="14.13114"><ele>1540</ele><time>2023-10-14T12:03:12Z</time></trkpt>
    <trkpt lat="47.72150" lon="14.13129"><ele>1531</ele><time>2023-10-14T12:05:43Z</time></trkpt>
    <trkpt lat="47.72126" lon="14.13145"><ele>1496</ele><time>2023-10-14T12:06:44Z</time></trkpt>
    <trkpt lat="47.72081" lon="14.13128"><ele>1468</ele><time>2023-10-14T12:08:07Z</time></trkpt>
    <trkpt lat="47.72047" lon="14.13117"><ele>1436</ele><time>2023-10-14T12:10:07Z</time></trkpt>
    <trkpt lat="47.72014" lon="14.13104"><ele>1432</ele><time>2023-10-14T12:11:07Z</time></trkpt>
    <trkpt lat="47.72007" lon="14.13116"><ele>1428</ele><time>2023-10-14T12:11:37Z</time></trkpt>
    <trkpt lat="47.71983" lon="14.13110"><ele>1423</ele><time>2023-10-14T12:12:07Z</time></trkpt>
    <trkpt lat="47.71973" lon="14.13115"><ele>1408</ele><time>2023-10-14T12:12:37Z</time></trkpt>
    <trkpt lat="47.71932" lon="14.13106"><ele>1396</ele><time>2023-10-14T12:13:53Z</time></trkpt>
    <trkpt lat="47.71901" lon="14.13131"><ele>1381</ele><time>2023-10-14T12:14:53Z</time></trkpt>
    <trkpt lat="47.71889" lon="14.13091"><ele>1366</ele><time>2023-10-14T12:15:53Z</time></trkpt>
    <trkpt lat="47.71862" lon="14.13114"><ele>1406</ele><time>2023-10-14T12:16:24Z</time></trkpt>
    <trkpt lat="47.71849" lon="14.13100"><ele>1330</ele><time>2023-10-14T12:17:53Z</time></trkpt>
    <trkpt lat="47.71827" lon="14.13139"><ele>1334</ele><time>2023-10-14T12:18:23Z</time></trkpt>
    <trkpt lat="47.71811" lon="14.13141"><ele>1298</ele><time>2023-10-14T12:19:53Z</time></trkpt>
    <trkpt lat="47.71789" lon="14.13137"><ele>1292</ele><time>2023-10-14T12:20:23Z</time></trkpt>
    <trkpt lat="47.71755" lon="14.13162"><ele>1299</ele><time>2023-10-14T12:20:53Z</time></trkpt>
    <trkpt lat="47.71745" lon="14.13172"><ele>1277</ele><time>2023-10-14T12:21:53Z</time></trkpt>
    <trkpt lat="47.71709" lon="14.13192"><ele>1272</ele><time>2023-10-14T12:22:23Z</time></trkpt>
    <trkpt lat="47.71704" lon="14.13244"><ele>1266</ele><time>2023-10-14T12:23:23Z</time></trkpt>
    <trkpt lat="47.71643" lon="14.13262"><ele>1258</ele><time>2023-10-14T12:25:00Z</time></trkpt>
    <trkpt lat="47.71636" lon="14.13275"><ele>1252</ele><time>2023-10-14T12:25:30Z</time></trkpt>
    <trkpt lat="47.71614" lon="14.13302"><ele>1238</ele><time>2023-10-14T12:26:31Z</time></trkpt>
    <trkpt lat="47.71595" lon="14.13301"><ele>1247</ele><time>2023-10-14T12:27:02Z</time></trkpt>
    <trkpt lat="47.71581" lon="14.13306"><ele>1232</ele><time>2023-10-14T12:28:01Z</time></trkpt>
    <trkpt lat="47.71565" lon="14.13298"><ele>1204</ele><time>2023-10-14T12:29:01Z</time></trkpt>
    <trkpt lat="47.71556" lon="14.13325"><ele>1189</ele><time>2023-10-14T12:30:02Z</time></trkpt>
    <trkpt lat="47.71523" lon="14.13358"><ele>1227</ele><time>2023-10-14T12:31:01Z</time></trkpt>
    <trkpt lat="47.71525" lon="14.13378"><ele>1184</ele><time>2023-10-14T12:31:35Z</time></trkpt>
    <trkpt lat="47.71514" lon="14.13416"><ele>1181</ele><time>2023-10-14T12:32:05Z</time></trkpt>
    <trkpt lat="47.71508" lon="14.13435"><ele>1173</ele><time>2023-10-14T12:32:35Z</time></trkpt>
    <trkpt lat="47.71497" lon="14.13445"><ele>1172</ele><time>2023-10-14T12:33:05Z</time></trkpt>
    <trkpt lat="47.71496" lon="14.13423"><ele>1164</ele><time>2023-10-14T12:33:35Z</time></trkpt>
    <trkpt lat="47.71496" lon="14.13406"><ele>1156</ele><time>2023-10-14T12:34:05Z</time></trkpt>
    <trkpt lat="47.71478" lon="14.13413"><ele>1147</ele><time>2023-10-14T12:35:02Z</time></trkpt>
    <trkpt lat="47.71446" lon="14.13429"><ele>1156</ele><time>2023-10-14T12:35:33Z</time></trkpt>
    <trkpt lat="47.71422" lon="14.13513"><ele>1120</ele><time>2023-10-14T12:36:51Z</time></trkpt>
    <trkpt lat="47.71393" lon="14.13537"><ele>1113</ele><time>2023-10-14T12:37:42Z</time></trkpt>
    <trkpt lat="47.71385" lon="14.13460"><ele>1093</ele><time>2023-10-14T12:38:42Z</time></trkpt>
    <trkpt lat="47.71375" lon="14.13482"><ele>1090</ele><time>2023-10-14T12:39:12Z</time></trkpt>
    <trkpt lat="47.71363" lon="14.13477"><ele>1088</ele><time>2023-10-14T12:39:42Z</time></trkpt>
    <trkpt lat="47.71344" lon="14.13458"><ele>1106</ele><time>2023-10-14T12:40:14Z</time></trkpt>
    <trkpt lat="47.71327" lon="14.13472"><ele>1077</ele><time>2023-10-14T12:41:13Z</time></trkpt>
    <trkpt lat="47.71307" lon="14.13512"><ele>1060</ele><time>2023-10-14T12:42:12Z</time></trkpt>
    <trkpt lat="47.71301" lon="14.13493"><ele>1064</ele><time>2023-10-14T12:42:42Z</time></trkpt>
    <trkpt lat="47.71278" lon="14.13456"><ele>1070</ele><time>2023-10-14T12:43:12Z</time></trkpt>
    <trkpt lat="47.71270" lon="14.13486"><ele>1108</ele><time>2023-10-14T12:44:42Z</time></trkpt>
    <trkpt lat="47.71247" lon="14.13510"><ele>1180</ele><time>2023-10-14T12:45:12Z</time></trkpt>
    <trkpt lat="47.71251" lon="14.13538"><ele>1160</ele><time>2023-10-14T12:45:43Z</time></trkpt>
    <trkpt lat="47.71236" lon="14.13608"><ele>1005</ele><time>2023-10-14T12:46:42Z</time></trkpt>
    <trkpt lat="47.71224" lon="14.13644"><ele>1065</ele><time>2023-10-14T12:47:12Z</time></trkpt>
    <trkpt lat="47.71207" lon="14.13701"><ele>985</ele><time>2023-10-14T12:48:04Z</time></trkpt>
    <trkpt lat="47.71209" lon="14.13729"><ele>1001</ele><time>2023-10-14T12:48:35Z</time></trkpt>
    <trkpt lat="47.71196" lon="14.13815"><ele>982</ele><time>2023-10-14T12:49:33Z</time></trkpt>
    <trkpt lat="47.71158" lon="14.13843"><ele>1114</ele><time>2023-10-14T12:50:04Z</time></trkpt>
    <trkpt lat="47.71157" lon="14.13902"><ele>1251</ele><time>2023-10-14T12:51:05Z</time></trkpt>
    <trkpt lat="47.71145" lon="14.13969"><ele>1086</ele><time>2023-10-14T12:51:35Z</time></trkpt>
    <trkpt lat="47.71132" lon="14.13963"><ele>976</ele><time>2023-10-14T12:52:05Z</time></trkpt>
    <trkpt lat="47.71114" lon="14.14034"><ele>1007</ele><time>2023-10-14T12:52:53Z</time></trkpt>
    <trkpt lat="47.71122" lon="14.14051"><ele>930</ele><time>2023-10-14T12:53:24Z</time></trkpt>
    <trkpt lat="47.71110" lon="14.14109"><ele>913</ele><time>2023-10-14T12:53:57Z</time></trkpt>
    <trkpt lat="47.71092" lon="14.14151"><ele>907</ele><time>2023-10-14T12:54:38Z</time></trkpt>
    <trkpt lat="47.71092" lon="14.14204"><ele>914</ele><time>2023-10-14T12:55:08Z</time></trkpt>
    <trkpt lat="47.71014" lon="14.14139"><ele>926</ele><time>2023-10-14T12:56:39Z</time></trkpt>
    <trkpt lat="47.71016" lon="14.14167"><ele>860</ele><time>2023-10-14T12:57:09Z</time></trkpt>
    <trkpt lat="47.70985" lon="14.14158"><ele>868</ele><time>2023-10-14T12:57:39Z</time></trkpt>
    <trkpt lat="47.70964" lon="14.14153"><ele>855</ele><time>2023-10-14T12:58:09Z</time></trkpt>
    <trkpt lat="47.70945" lon="14.14150"><ele>838</ele><time>2023-10-14T12:58:39Z</time></trkpt>
    <trkpt lat="47.70914" lon="14.14162"><ele>842</ele><time>2023-10-14T12:59:11Z</time></trkpt>
    <trkpt lat="47.70897" lon="14.14192"><ele>835</ele><time>2023-10-14T12:59:41Z</time></trkpt>
    <trkpt lat="47.70918" lon="14.14227"><ele>828</ele><time>2023-10-14T13:00:11Z</time></trkpt>
    <trkpt lat="47.70979" lon="14.14317"><ele>829</ele><time>2023-10-14T13:01:10Z</time></trkpt>
    <trkpt lat="47.70995" lon="14.14355"><ele>852</ele><time>2023-10-14T13:01:40Z</time></trkpt>
    <trkpt lat="47.71005" lon="14.14429"><ele>805</ele><time>2023-10-14T13:02:25Z</time></trkpt>
    <trkpt lat="47.70993" lon="14.14477"><ele>773</ele><time>2023-10-14T13:03:18Z</time></trkpt>
    <trkpt lat="47.70944" lon="14.14482"><ele>780</ele><time>2023-10-14T13:04:09Z</time></trkpt>
    <trkpt lat="47.70928" lon="14.14485"><ele>782</ele><time>2023-10-14T13:05:11Z</time></trkpt>
    <trkpt lat="47.70884" lon="14.14550"><ele>760</ele><time>2023-10-14T13:05:41Z</time></trkpt>
    <trkpt lat="47.70876" lon="14.14586"><ele>734</ele><time>2023-10-14T13:06:11Z</time></trkpt>
    <trkpt lat="47.70834" lon="14.14635"><ele>749</ele><time>2023-10-14T13:07:07Z</time></trkpt>
    <trkpt lat="47.70838" lon="14.14649"><ele>735</ele><time>2023-10-14T13:07:37Z</time></trkpt>
    <trkpt lat="47.70854" lon="14.14738"><ele>711</ele><time>2023-10-14T13:08:07Z</time></trkpt>
    <trkpt lat="47.70872" lon="14.14794"><ele>711</ele><time>2023-10-14T13:09:07Z</time></trkpt>
    <trkpt lat="47.70884" lon="14.14860"><ele>738</ele><time>2023-10-14T13:09:37Z</time></trkpt>
    <trkpt lat="47.70855" lon="14.14928"><ele>704</ele><time>2023-10-14T13:10:23Z</time></trkpt>
    <trkpt lat="47.70850" lon="14.14941"><ele>701</ele><time>2023-10-14T13:10:54Z</time></trkpt>
    <trkpt lat="47.70818" lon="14.14925"><ele>683</ele><time>2023-10-14T13:11:24Z</time></trkpt>
    <trkpt lat="47.70778" lon="14.14949"><ele>691</ele><time>2023-10-14T13:11:54Z</time></trkpt>
    <trkpt lat="47.70760" lon="14.14995"><ele>682</ele><time>2023-10-14T13:12:24Z</time></trkpt>
    <trkpt lat="47.70725" lon="14.14962"><ele>667</ele><time>2023-10-14T13:12:54Z</time></trkpt>
    <trkpt lat="47.70685" lon="14.14991"><ele>692</ele><time>2023-10-14T13:13:24Z</time></trkpt>
    <trkpt lat="47.70651" lon="14.15028"><ele>679</ele><time>2023-10-14T13:13:54Z</time></trkpt>
    <trkpt lat="47.70637" lon="14.15047"><ele>666</ele><time>2023-10-14T13:14:24Z</time></trkpt>
    <trkpt lat="47.70615" lon="14.15087"><ele>654</ele><time>2023-10-14T13:14:54Z</time></trkpt>
    <trkpt lat="47.70560" lon="14.15091"><ele>673</ele><time>2023-10-14T13:15:30Z</time></trkpt>
    <trkpt lat="47.70526" lon="14.15129"><ele>645</ele><time>2023-10-14T13:16:00Z</time></trkpt>
    <trkpt lat="47.70467" lon="14.15185"><ele>638</ele><time>2023-10-14T13:16:54Z</time></trkpt>
    <trkpt lat="47.70421" lon="14.15247"><ele>630</ele><time>2023-10-14T13:17:54Z</time></trkpt>
    <trkpt lat="47.70393" lon="14.15284"><ele>633</ele><time>2023-10-14T13:18:24Z</time></trkpt>
    <trkpt lat="47.70360" lon="14.15250"><ele>628</ele><time>2023-10-14T13:18:56Z</time></trkpt>
    <trkpt lat="47.70353" lon="14.15195"><ele>620</ele><time>2023-10-14T13:19:26Z</time></trkpt>
    <trkpt lat="47.70361" lon="14.15121"><ele>603</ele><time>2023-10-14T13:20:06Z</time></trkpt>
    <trkpt lat="47.70327" lon="14.15124"><ele>604</ele><time>2023-10-14T13:20:36Z</time></trkpt>
    <trkpt lat="47.70302" lon="14.15188"><ele>602</ele><time>2023-10-14T13:21:06Z</time></trkpt>
    <trkpt lat="47.70282" lon="14.15213"><ele>638</ele><time>2023-10-14T13:21:36Z</time></trkpt>
    <trkpt lat="47.70250" lon="14.15247"><ele>602</ele><time>2023-10-14T13:22:06Z</time></trkpt>
    <trkpt lat="47.70204" lon="14.15210"><ele>592</ele><time>2023-10-14T13:22:46Z</time></trkpt>
    <trkpt lat="47.70173" lon="14.15196"><ele>608</ele><time>2023-10-14T13:23:16Z</time></trkpt>
    <trkpt lat="47.70130" lon="14.15229"><ele>599</ele><time>2023-10-14T13:23:46Z</time></trkpt>
    <trkpt lat="47.70098" lon="14.15250"><ele>590</ele><time>2023-10-14T13:24:29Z</time></trkpt>
    <trkpt lat="47.70060" lon="14.15281"><ele>580</ele><time>2023-10-14T13:25:00Z</time></trkpt>
    <trkpt lat="47.70016" lon="14.15400"><ele>623</ele><time>2023-10-14T13:25:59Z</time></trkpt>
    <trkpt lat="47.70028" lon="14.15425"><ele>554</ele><time>2023-10-14T13:26:29Z</time></trkpt>
    <trkpt lat="47.69971" lon="14.15431"><ele>610</ele><time>2023-10-14T13:27:00Z</time></trkpt>
    <trkpt lat="47.69958" lon="14.15505"><ele>612</ele><time>2023-10-14T13:28:00Z</time></trkpt>
    <trkpt lat="47.69978" lon="14.15530"><ele>608</ele><time>2023-10-14T13:28:30Z</time></trkpt>
    <trkpt lat="47.70010" lon="14.15575"><ele>584</ele><time>2023-10-14T13:29:00Z</time></trkpt>
    <trkpt lat="47.70007" lon="14.15642"><ele>591</ele><time>2023-10-14T13:29:34Z</time></trkpt>
    <trkpt lat="47.70035" lon="14.15717"><ele>578</ele><time>2023-10-14T13:30:10Z</time></trkpt>
    <trkpt lat="47.70048" lon="14.15802"><ele>607</ele><time>2023-10-14T13:31:10Z</time></trkpt>
    <trkpt lat="47.70038" lon="14.15873"><ele>589</ele><time>2023-10-14T13:31:41Z</time></trkpt>
    <trkpt lat="47.70033" lon="14.15862"><ele>588</ele><time>2023-10-14T13:32:44Z</time></trkpt>
  </trkseg>
</trk>
</gpx>