<?xml version="1.0" encoding="UTF-8"?>
<gpx version="1.1" creator="Gpx-Optimizer" xmlns="http://www.topografix.com/GPX/1/1">
<trk>
  <name>LottawandZustieg</name>
  <trkseg>
    <trkpt lat="48.37211" lon="14.17763"></trkpt>
    <trkpt lat="48.37220" lon="14.17714"></trkpt>
    <trkpt lat="48.37198" lon="14.17621"></trkpt>
    <trkpt lat="48.37214" lon="14.17450"></trkpt>
    <trkpt lat="48.37228" lon="14.17393"></trkpt>
    <trkpt lat="48.37232" lon="14.17380"></trkpt>
    <trkpt lat="48.37201" lon="14.17289"></trkpt>
    <trkpt lat="48.37215" lon="14.17198"></trkpt>
    <trkpt lat="48.37215" lon="14.17095"></trkpt>
    <trkpt lat="48.37235" lon="14.17055"></trkpt>
    <trkpt lat="48.37250" lon="14.17005"></trkpt>
    <trkpt lat="48.37289" lon="14.16999"></trkpt>
    <trkpt lat="48.37332" lon="14.16984"></trkpt>
    <trkpt lat="48.37345" lon="14.16968"></trkpt>
    <trkpt lat="48.37366" lon="14.16931"></trkpt>
    <trkpt lat="48.37369" lon="14.16929"></trkpt>
    <trkpt lat="48.37374" lon="14.16915"></trkpt>
    <trkpt lat="48.37366" lon="14.16915"></trkpt>
    <trkpt lat="48.37365" lon="14.16905"></trkpt>
    <trkpt lat="48.37369" lon="14.16903"></trkpt>
  </trkseg>
</trk>
</gpx>