<?xml version="1.0" encoding="UTF-8"?>
<gpx version="1.1" creator="Gpx-Optimizer" xmlns="http://www.topografix.com/GPX/1/1">
<trk>
  <name>Ski_Gamskogel-Kaminrinne</name>
  <type>skimo</type>
  <trkseg>
    <trkpt lat="47.39914" lon="14.57195"><ele>1197</ele></trkpt>
    <trkpt lat="47.39877" lon="14.57167"><ele>1202</ele></trkpt>
    <trkpt lat="47.39846" lon="14.57181"><ele>1205</ele></trkpt>
    <trkpt lat="47.39818" lon="14.57183"><ele>1205</ele></trkpt>
    <trkpt lat="47.39803" lon="14.57201"><ele>1205</ele></trkpt>
    <trkpt lat="47.39783" lon="14.57202"><ele>1207</ele></trkpt>
    <trkpt lat="47.39754" lon="14.57201"><ele>1209</ele></trkpt>
    <trkpt lat="47.39723" lon="14.57206"><ele>1213</ele></trkpt>
    <trkpt lat="47.39697" lon="14.57209"><ele>1215</ele></trkpt>
    <trkpt lat="47.39685" lon="14.57205"><ele>1217</ele></trkpt>
    <trkpt lat="47.39664" lon="14.57183"><ele>1221</ele></trkpt>
    <trkpt lat="47.39638" lon="14.57161"><ele>1221</ele></trkpt>
    <trkpt lat="47.39613" lon="14.57138"><ele>1225</ele></trkpt>
    <trkpt lat="47.39587" lon="14.57117"><ele>1226</ele></trkpt>
    <trkpt lat="47.39562" lon="14.57101"><ele>1230</ele></trkpt>
    <trkpt lat="47.39541" lon="14.57074"><ele>1231</ele></trkpt>
    <trkpt lat="47.39520" lon="14.57069"><ele>1232</ele></trkpt>
    <trkpt lat="47.39494" lon="14.57062"><ele>1232</ele></trkpt>
    <trkpt lat="47.39471" lon="14.57068"><ele>1234</ele></trkpt>
    <trkpt lat="47.39450" lon="14.57082"><ele>1236</ele></trkpt>
    <trkpt lat="47.39422" lon="14.57083"><ele>1238</ele></trkpt>
    <trkpt lat="47.39399" lon="14.57074"><ele>1241</ele></trkpt>
    <trkpt lat="47.39380" lon="14.57068"><ele>1243</ele></trkpt>
    <trkpt lat="47.39350" lon="14.57059"><ele>1246</ele></trkpt>
    <trkpt lat="47.39327" lon="14.57034"><ele>1246</ele></trkpt>
    <trkpt lat="47.39300" lon="14.57030"><ele>1248</ele></trkpt>
    <trkpt lat="47.39276" lon="14.57024"><ele>1249</ele></trkpt>
    <trkpt lat="47.39253" lon="14.57021"><ele>1254</ele></trkpt>
    <trkpt lat="47.39233" lon="14.57013"><ele>1259</ele></trkpt>
    <trkpt lat="47.39210" lon="14.56996"><ele>1263</ele></trkpt>
    <trkpt lat="47.39189" lon="14.57006"><ele>1267</ele></trkpt>
    <trkpt lat="47.39163" lon="14.57006"><ele>1272</ele></trkpt>
    <trkpt lat="47.39140" lon="14.56992"><ele>1274</ele></trkpt>
    <trkpt lat="47.39124" lon="14.56959"><ele>1280</ele></trkpt>
    <trkpt lat="47.39100" lon="14.56939"><ele>1275</ele></trkpt>
    <trkpt lat="47.39072" lon="14.56957"><ele>1277</ele></trkpt>
    <trkpt lat="47.39048" lon="14.56979"><ele>1283</ele></trkpt>
    <trkpt lat="47.39020" lon="14.56974"><ele>1286</ele></trkpt>
    <trkpt lat="47.38993" lon="14.56976"><ele>1290</ele></trkpt>
    <trkpt lat="47.38971" lon="14.56974"><ele>1290</ele></trkpt>
    <trkpt lat="47.38940" lon="14.56979"><ele>1292</ele></trkpt>
    <trkpt lat="47.38909" lon="14.56974"><ele>1292</ele></trkpt>
    <trkpt lat="47.38876" lon="14.56978"><ele>1295</ele></trkpt>
    <trkpt lat="47.38846" lon="14.56990"><ele>1297</ele></trkpt>
    <trkpt lat="47.38815" lon="14.56996"><ele>1295</ele></trkpt>
    <trkpt lat="47.38782" lon="14.57003"><ele>1297</ele></trkpt>
    <trkpt lat="47.38756" lon="14.56992"><ele>1298</ele></trkpt>
    <trkpt lat="47.38740" lon="14.56969"><ele>1297</ele></trkpt>
    <trkpt lat="47.38720" lon="14.56941"><ele>1298</ele></trkpt>
    <trkpt lat="47.38708" lon="14.56917"><ele>1304</ele></trkpt>
    <trkpt lat="47.38692" lon="14.56902"><ele>1308</ele></trkpt>
    <trkpt lat="47.38680" lon="14.56883"><ele>1313</ele></trkpt>
    <trkpt lat="47.38657" lon="14.56870"><ele>1317</ele></trkpt>
    <trkpt lat="47.38636" lon="14.56881"><ele>1321</ele></trkpt>
    <trkpt lat="47.38616" lon="14.56879"><ele>1322</ele></trkpt>
    <trkpt lat="47.38601" lon="14.56856"><ele>1326</ele></trkpt>
    <trkpt lat="47.38587" lon="14.56830"><ele>1331</ele></trkpt>
    <trkpt lat="47.38580" lon="14.56821"><ele>1331</ele></trkpt>
    <trkpt lat="47.38566" lon="14.56813"><ele>1335</ele></trkpt>
    <trkpt lat="47.38541" lon="14.56796"><ele>1336</ele></trkpt>
    <trkpt lat="47.38539" lon="14.56763"><ele>1338</ele></trkpt>
    <trkpt lat="47.38539" lon="14.56727"><ele>1340</ele></trkpt>
    <trkpt lat="47.38541" lon="14.56699"><ele>1344</ele></trkpt>
    <trkpt lat="47.38537" lon="14.56665"><ele>1348</ele></trkpt>
    <trkpt lat="47.38517" lon="14.56650"><ele>1353</ele></trkpt>
    <trkpt lat="47.38502" lon="14.56629"><ele>1352</ele></trkpt>
    <trkpt lat="47.38482" lon="14.56606"><ele>1354</ele></trkpt>
    <trkpt lat="47.38457" lon="14.56587"><ele>1357</ele></trkpt>
    <trkpt lat="47.38440" lon="14.56563"><ele>1360</ele></trkpt>
    <trkpt lat="47.38419" lon="14.56534"><ele>1360</ele></trkpt>
    <trkpt lat="47.38402" lon="14.56514"><ele>1363</ele></trkpt>
    <trkpt lat="47.38387" lon="14.56490"><ele>1369</ele></trkpt>
    <trkpt lat="47.38370" lon="14.56464"><ele>1371</ele></trkpt>
    <trkpt lat="47.38356" lon="14.56430"><ele>1370</ele></trkpt>
    <trkpt lat="47.38343" lon="14.56400"><ele>1375</ele></trkpt>
    <trkpt lat="47.38325" lon="14.56370"><ele>1375</ele></trkpt>
    <trkpt lat="47.38314" lon="14.56339"><ele>1378</ele></trkpt>
    <trkpt lat="47.38304" lon="14.56305"><ele>1382</ele></trkpt>
    <trkpt lat="47.38288" lon="14.56286"><ele>1386</ele></trkpt>
    <trkpt lat="47.38269" lon="14.56270"><ele>1387</ele></trkpt>
    <trkpt lat="47.38245" lon="14.56252"><ele>1390</ele></trkpt>
    <trkpt lat="47.38227" lon="14.56241"><ele>1396</ele></trkpt>
    <trkpt lat="47.38204" lon="14.56216"><ele>1401</ele></trkpt>
    <trkpt lat="47.38185" lon="14.56195"><ele>1404</ele></trkpt>
    <trkpt lat="47.38167" lon="14.56179"><ele>1408</ele></trkpt>
    <trkpt lat="47.38151" lon="14.56159"><ele>1412</ele></trkpt>
    <trkpt lat="47.38138" lon="14.56145"><ele>1417</ele></trkpt>
    <trkpt lat="47.38132" lon="14.56123"><ele>1420</ele></trkpt>
    <trkpt lat="47.38122" lon="14.56106"><ele>1425</ele></trkpt>
    <trkpt lat="47.38103" lon="14.56096"><ele>1427</ele></trkpt>
    <trkpt lat="47.38085" lon="14.56089"><ele>1431</ele></trkpt>
    <trkpt lat="47.38063" lon="14.56088"><ele>1432</ele></trkpt>
    <trkpt lat="47.38063" lon="14.56123"><ele>1433</ele></trkpt>
    <trkpt lat="47.38072" lon="14.56165"><ele>1435</ele></trkpt>
    <trkpt lat="47.38052" lon="14.56198"><ele>1439</ele></trkpt>
    <trkpt lat="47.38027" lon="14.56222"><ele>1441</ele></trkpt>
    <trkpt lat="47.38008" lon="14.56236"><ele>1446</ele></trkpt>
    <trkpt lat="47.37980" lon="14.56246"><ele>1454</ele></trkpt>
    <trkpt lat="47.37965" lon="14.56226"><ele>1453</ele></trkpt>
    <trkpt lat="47.37954" lon="14.56196"><ele>1456</ele></trkpt>
    <trkpt lat="47.37930" lon="14.56187"><ele>1461</ele></trkpt>
    <trkpt lat="47.37910" lon="14.56194"><ele>1464</ele></trkpt>
    <trkpt lat="47.37889" lon="14.56204"><ele>1465</ele></trkpt>
    <trkpt lat="47.37869" lon="14.56197"><ele>1470</ele></trkpt>
    <trkpt lat="47.37848" lon="14.56184"><ele>1475</ele></trkpt>
    <trkpt lat="47.37829" lon="14.56173"><ele>1479</ele></trkpt>
    <trkpt lat="47.37811" lon="14.56168"><ele>1484</ele></trkpt>
    <trkpt lat="47.37788" lon="14.56167"><ele>1488</ele></trkpt>
    <trkpt lat="47.37772" lon="14.56159"><ele>1492</ele></trkpt>
    <trkpt lat="47.37753" lon="14.56164"><ele>1495</ele></trkpt>
    <trkpt lat="47.37741" lon="14.56189"><ele>1498</ele></trkpt>
    <trkpt lat="47.37727" lon="14.56199"><ele>1507</ele></trkpt>
    <trkpt lat="47.37711" lon="14.56188"><ele>1510</ele></trkpt>
    <trkpt lat="47.37700" lon="14.56165"><ele>1513</ele></trkpt>
    <trkpt lat="47.37690" lon="14.56148"><ele>1521</ele></trkpt>
    <trkpt lat="47.37670" lon="14.56123"><ele>1525</ele></trkpt>
    <trkpt lat="47.37658" lon="14.56112"><ele>1528</ele></trkpt>
    <trkpt lat="47.37643" lon="14.56118"><ele>1530</ele></trkpt>
    <trkpt lat="47.37628" lon="14.56128"><ele>1535</ele></trkpt>
    <trkpt lat="47.37615" lon="14.56118"><ele>1539</ele></trkpt>
    <trkpt lat="47.37597" lon="14.56117"><ele>1541</ele></trkpt>
    <trkpt lat="47.37580" lon="14.56112"><ele>1542</ele></trkpt>
    <trkpt lat="47.37566" lon="14.56104"><ele>1548</ele></trkpt>
    <trkpt lat="47.37548" lon="14.56095"><ele>1551</ele></trkpt>
    <trkpt lat="47.37528" lon="14.56091"><ele>1553</ele></trkpt>
    <trkpt lat="47.37513" lon="14.56079"><ele>1560</ele></trkpt>
    <trkpt lat="47.37501" lon="14.56084"><ele>1565</ele></trkpt>
    <trkpt lat="47.37493" lon="14.56071"><ele>1570</ele></trkpt>
    <trkpt lat="47.37485" lon="14.56052"><ele>1572</ele></trkpt>
    <trkpt lat="47.37463" lon="14.56050"><ele>1575</ele></trkpt>
    <trkpt lat="47.37458" lon="14.56030"><ele>1578</ele></trkpt>
    <trkpt lat="47.37443" lon="14.56018"><ele>1584</ele></trkpt>
    <trkpt lat="47.37434" lon="14.56009"><ele>1591</ele></trkpt>
    <trkpt lat="47.37428" lon="14.55989"><ele>1596</ele></trkpt>
    <trkpt lat="47.37409" lon="14.55983"><ele>1597</ele></trkpt>
    <trkpt lat="47.37393" lon="14.55986"><ele>1602</ele></trkpt>
    <trkpt lat="47.37382" lon="14.55993"><ele>1613</ele></trkpt>
    <trkpt lat="47.37371" lon="14.55977"><ele>1610</ele></trkpt>
    <trkpt lat="47.37360" lon="14.55966"><ele>1614</ele></trkpt>
    <trkpt lat="47.37351" lon="14.55966"><ele>1624</ele></trkpt>
    <trkpt lat="47.37335" lon="14.55955"><ele>1630</ele></trkpt>
    <trkpt lat="47.37318" lon="14.55950"><ele>1634</ele></trkpt>
    <trkpt lat="47.37306" lon="14.55941"><ele>1640</ele></trkpt>
    <trkpt lat="47.37290" lon="14.55931"><ele>1645</ele></trkpt>
    <trkpt lat="47.37274" lon="14.55926"><ele>1651</ele></trkpt>
    <trkpt lat="47.37269" lon="14.55911"><ele>1655</ele></trkpt>
    <trkpt lat="47.37255" lon="14.55899"><ele>1658</ele></trkpt>
    <trkpt lat="47.37250" lon="14.55880"><ele>1660</ele></trkpt>
    <trkpt lat="47.37238" lon="14.55863"><ele>1663</ele></trkpt>
    <trkpt lat="47.37222" lon="14.55857"><ele>1669</ele></trkpt>
    <trkpt lat="47.37212" lon="14.55845"><ele>1676</ele></trkpt>
    <trkpt lat="47.37199" lon="14.55834"><ele>1678</ele></trkpt>
    <trkpt lat="47.37191" lon="14.55824"><ele>1680</ele></trkpt>
    <trkpt lat="47.37178" lon="14.55833"><ele>1687</ele></trkpt>
    <trkpt lat="47.37168" lon="14.55832"><ele>1695</ele></trkpt>
    <trkpt lat="47.37153" lon="14.55835"><ele>1699</ele></trkpt>
    <trkpt lat="47.37147" lon="14.55825"><ele>1702</ele></trkpt>
    <trkpt lat="47.37143" lon="14.55804"><ele>1704</ele></trkpt>
    <trkpt lat="47.37134" lon="14.55789"><ele>1708</ele></trkpt>
    <trkpt lat="47.37134" lon="14.55771"><ele>1714</ele></trkpt>
    <trkpt lat="47.37132" lon="14.55751"><ele>1717</ele></trkpt>
    <trkpt lat="47.37133" lon="14.55726"><ele>1724</ele></trkpt>
    <trkpt lat="47.37136" lon="14.55702"><ele>1726</ele></trkpt>
    <trkpt lat="47.37136" lon="14.55683"><ele>1728</ele></trkpt>
    <trkpt lat="47.37139" lon="14.55658"><ele>1733</ele></trkpt>
    <trkpt lat="47.37140" lon="14.55627"><ele>1735</ele></trkpt>
    <trkpt lat="47.37147" lon="14.55602"><ele>1739</ele></trkpt>
    <trkpt lat="47.37159" lon="14.55570"><ele>1739</ele></trkpt>
    <trkpt lat="47.37162" lon="14.55544"><ele>1741</ele></trkpt>
    <trkpt lat="47.37148" lon="14.55542"><ele>1745</ele></trkpt>
    <trkpt lat="47.37152" lon="14.55519"><ele>1749</ele></trkpt>
    <trkpt lat="47.37158" lon="14.55490"><ele>1753</ele></trkpt>
    <trkpt lat="47.37164" lon="14.55466"><ele>1756</ele></trkpt>
    <trkpt lat="47.37169" lon="14.55444"><ele>1758</ele></trkpt>
    <trkpt lat="47.37174" lon="14.55418"><ele>1762</ele></trkpt>
    <trkpt lat="47.37179" lon="14.55392"><ele>1766</ele></trkpt>
    <trkpt lat="47.37170" lon="14.55374"><ele>1768</ele></trkpt>
    <trkpt lat="47.37166" lon="14.55350"><ele>1774</ele></trkpt>
    <trkpt lat="47.37169" lon="14.55328"><ele>1780</ele></trkpt>
    <trkpt lat="47.37175" lon="14.55303"><ele>1780</ele></trkpt>
    <trkpt lat="47.37173" lon="14.55266"><ele>1786</ele></trkpt>
    <trkpt lat="47.37179" lon="14.55246"><ele>1789</ele></trkpt>
    <trkpt lat="47.37174" lon="14.55225"><ele>1792</ele></trkpt>
    <trkpt lat="47.37165" lon="14.55211"><ele>1796</ele></trkpt>
    <trkpt lat="47.37166" lon="14.55190"><ele>1802</ele></trkpt>
    <trkpt lat="47.37173" lon="14.55168"><ele>1805</ele></trkpt>
    <trkpt lat="47.37182" lon="14.55148"><ele>1810</ele></trkpt>
    <trkpt lat="47.37184" lon="14.55124"><ele>1815</ele></trkpt>
    <trkpt lat="47.37181" lon="14.55100"><ele>1817</ele></trkpt>
    <trkpt lat="47.37186" lon="14.55077"><ele>1820</ele></trkpt>
    <trkpt lat="47.37189" lon="14.55053"><ele>1823</ele></trkpt>
    <trkpt lat="47.37182" lon="14.55029"><ele>1826</ele></trkpt>
    <trkpt lat="47.37176" lon="14.55000"><ele>1829</ele></trkpt>
    <trkpt lat="47.37171" lon="14.54979"><ele>1833</ele></trkpt>
    <trkpt lat="47.37157" lon="14.54957"><ele>1838</ele></trkpt>
    <trkpt lat="47.37152" lon="14.54937"><ele>1842</ele></trkpt>
    <trkpt lat="47.37134" lon="14.54927"><ele>1848</ele></trkpt>
    <trkpt lat="47.37123" lon="14.54930"><ele>1850</ele></trkpt>
    <trkpt lat="47.37108" lon="14.54930"><ele>1861</ele></trkpt>
    <trkpt lat="47.37101" lon="14.54919"><ele>1867</ele></trkpt>
    <trkpt lat="47.37091" lon="14.54921"><ele>1871</ele></trkpt>
    <trkpt lat="47.37086" lon="14.54908"><ele>1872</ele></trkpt>
    <trkpt lat="47.37080" lon="14.54887"><ele>1882</ele></trkpt>
    <trkpt lat="47.37086" lon="14.54869"><ele>1890</ele></trkpt>
    <trkpt lat="47.37090" lon="14.54853"><ele>1893</ele></trkpt>
    <trkpt lat="47.37089" lon="14.54835"><ele>1894</ele></trkpt>
    <trkpt lat="47.37094" lon="14.54813"><ele>1896</ele></trkpt>
    <trkpt lat="47.37080" lon="14.54802"><ele>1904</ele></trkpt>
    <trkpt lat="47.37080" lon="14.54784"><ele>1911</ele></trkpt>
    <trkpt lat="47.37082" lon="14.54765"><ele>1914</ele></trkpt>
    <trkpt lat="47.37083" lon="14.54742"><ele>1920</ele></trkpt>
    <trkpt lat="47.37084" lon="14.54724"><ele>1922</ele></trkpt>
    <trkpt lat="47.37089" lon="14.54705"><ele>1927</ele></trkpt>
    <trkpt lat="47.37094" lon="14.54685"><ele>1933</ele></trkpt>
    <trkpt lat="47.37084" lon="14.54678"><ele>1936</ele></trkpt>
    <trkpt lat="47.37086" lon="14.54657"><ele>1940</ele></trkpt>
    <trkpt lat="47.37089" lon="14.54635"><ele>1945</ele></trkpt>
    <trkpt lat="47.37091" lon="14.54622"><ele>1946</ele></trkpt>
    <trkpt lat="47.37087" lon="14.54609"><ele>1948</ele></trkpt>
    <trkpt lat="47.37078" lon="14.54594"><ele>1951</ele></trkpt>
    <trkpt lat="47.37063" lon="14.54580"><ele>1954</ele></trkpt>
    <trkpt lat="47.37053" lon="14.54554"><ele>1958</ele></trkpt>
    <trkpt lat="47.37048" lon="14.54531"><ele>1963</ele></trkpt>
    <trkpt lat="47.37044" lon="14.54510"><ele>1967</ele></trkpt>
    <trkpt lat="47.37039" lon="14.54488"><ele>1968</ele></trkpt>
    <trkpt lat="47.37036" lon="14.54467"><ele>1974</ele></trkpt>
    <trkpt lat="47.37024" lon="14.54453"><ele>1982</ele></trkpt>
    <trkpt lat="47.37009" lon="14.54446"><ele>1986</ele></trkpt>
    <trkpt lat="47.36994" lon="14.54440"><ele>1986</ele></trkpt>
    <trkpt lat="47.36978" lon="14.54431"><ele>1991</ele></trkpt>
    <trkpt lat="47.36963" lon="14.54430"><ele>1996</ele></trkpt>
    <trkpt lat="47.36952" lon="14.54422"><ele>2001</ele></trkpt>
    <trkpt lat="47.36936" lon="14.54416"><ele>2005</ele></trkpt>
    <trkpt lat="47.36926" lon="14.54404"><ele>2007</ele></trkpt>
    <trkpt lat="47.36911" lon="14.54398"><ele>2010</ele></trkpt>
    <trkpt lat="47.36899" lon="14.54394"><ele>2014</ele></trkpt>
    <trkpt lat="47.36891" lon="14.54387"><ele>2018</ele></trkpt>
    <trkpt lat="47.36877" lon="14.54374"><ele>2020</ele></trkpt>
    <trkpt lat="47.36863" lon="14.54363"><ele>2026</ele></trkpt>
    <trkpt lat="47.36852" lon="14.54353"><ele>2030</ele></trkpt>
    <trkpt lat="47.36844" lon="14.54341"><ele>2032</ele></trkpt>
    <trkpt lat="47.36835" lon="14.54337"><ele>2035</ele></trkpt>
    <trkpt lat="47.36827" lon="14.54346"><ele>2041</ele></trkpt>
    <trkpt lat="47.36814" lon="14.54361"><ele>2038</ele></trkpt>
    <trkpt lat="47.36813" lon="14.54383"><ele>2041</ele></trkpt>
    <trkpt lat="47.36813" lon="14.54402"><ele>2043</ele></trkpt>
    <trkpt lat="47.36811" lon="14.54420"><ele>2052</ele></trkpt>
    <trkpt lat="47.36807" lon="14.54437"><ele>2058</ele></trkpt>
    <trkpt lat="47.36798" lon="14.54429"><ele>2065</ele></trkpt>
    <trkpt lat="47.36787" lon="14.54417"><ele>2068</ele></trkpt>
    <trkpt lat="47.36779" lon="14.54434"><ele>2072</ele></trkpt>
    <trkpt lat="47.36777" lon="14.54456"><ele>2074</ele></trkpt>
    <trkpt lat="47.36776" lon="14.54476"><ele>2082</ele></trkpt>
    <trkpt lat="47.36761" lon="14.54466"><ele>2094</ele></trkpt>
    <trkpt lat="47.36750" lon="14.54457"><ele>2098</ele></trkpt>
    <trkpt lat="47.36741" lon="14.54447"><ele>2099</ele></trkpt>
    <trkpt lat="47.36742" lon="14.54461"><ele>2102</ele></trkpt>
    <trkpt lat="47.36737" lon="14.54476"><ele>2105</ele></trkpt>
    <trkpt lat="47.36726" lon="14.54462"><ele>2109</ele></trkpt>
    <trkpt lat="47.36710" lon="14.54470"><ele>2119</ele></trkpt>
    <trkpt lat="47.36705" lon="14.54490"><ele>2129</ele></trkpt>
    <trkpt lat="47.36694" lon="14.54481"><ele>2134</ele></trkpt>
    <trkpt lat="47.36687" lon="14.54469"><ele>2138</ele></trkpt>
    <trkpt lat="47.36676" lon="14.54485"><ele>2139</ele></trkpt>
    <trkpt lat="47.36677" lon="14.54499"><ele>2146</ele></trkpt>
    <trkpt lat="47.36668" lon="14.54488"><ele>2155</ele></trkpt>
    <trkpt lat="47.36661" lon="14.54477"><ele>2159</ele></trkpt>
    <trkpt lat="47.36651" lon="14.54486"><ele>2162</ele></trkpt>
    <trkpt lat="47.36648" lon="14.54501"><ele>2164</ele></trkpt>
    <trkpt lat="47.36646" lon="14.54517"><ele>2169</ele></trkpt>
    <trkpt lat="47.36638" lon="14.54539"><ele>2180</ele></trkpt>
    <trkpt lat="47.36624" lon="14.54529"><ele>2189</ele></trkpt>
    <trkpt lat="47.36626" lon="14.54552"><ele>2193</ele></trkpt>
    <trkpt lat="47.36615" lon="14.54544"><ele>2196</ele></trkpt>
    <trkpt lat="47.36606" lon="14.54550"><ele>2205</ele></trkpt>
    <trkpt lat="47.36595" lon="14.54552"><ele>2217</ele></trkpt>
    <trkpt lat="47.36585" lon="14.54551"><ele>2227</ele></trkpt>
    <trkpt lat="47.36575" lon="14.54557"><ele>2231</ele></trkpt>
    <trkpt lat="47.36575" lon="14.54577"><ele>2234</ele></trkpt>
    <trkpt lat="47.36566" lon="14.54568"><ele>2238</ele></trkpt>
    <trkpt lat="47.36554" lon="14.54571"><ele>2254</ele></trkpt>
    <trkpt lat="47.36548" lon="14.54561"><ele>2254</ele></trkpt>
    <trkpt lat="47.36541" lon="14.54570"><ele>2261</ele></trkpt>
    <trkpt lat="47.36532" lon="14.54569"><ele>2267</ele></trkpt>
    <trkpt lat="47.36521" lon="14.54572"><ele>2281</ele></trkpt>
    <trkpt lat="47.36512" lon="14.54577"><ele>2287</ele></trkpt>
    <trkpt lat="47.36501" lon="14.54580"><ele>2299</ele></trkpt>
    <trkpt lat="47.36491" lon="14.54592"><ele>2307</ele></trkpt>
    <trkpt lat="47.36480" lon="14.54604"><ele>2317</ele></trkpt>
    <trkpt lat="47.36479" lon="14.54618"><ele>2320</ele></trkpt>
    <trkpt lat="47.36483" lon="14.54635"><ele>2324</ele></trkpt>
    <trkpt lat="47.36491" lon="14.54660"><ele>2330</ele></trkpt>
    <trkpt lat="47.36495" lon="14.54680"><ele>2334</ele></trkpt>
    <trkpt lat="47.36493" lon="14.54693"><ele>2335</ele></trkpt>
    <trkpt lat="47.36493" lon="14.54709"><ele>2337</ele></trkpt>
    <trkpt lat="47.36503" lon="14.54723"><ele>2344</ele></trkpt>
    <trkpt lat="47.36517" lon="14.54733"><ele>2355</ele></trkpt>
    <trkpt lat="47.36530" lon="14.54751"><ele>2361</ele></trkpt>
    <trkpt lat="47.36538" lon="14.54764"><ele>2364</ele></trkpt>
    <trkpt lat="47.36542" lon="14.54779"><ele>2365</ele></trkpt>
    <trkpt lat="47.36548" lon="14.54790"><ele>2366</ele></trkpt>
    <trkpt lat="47.36554" lon="14.54802"><ele>2370</ele></trkpt>
    <trkpt lat="47.36562" lon="14.54820"><ele>2372</ele></trkpt>
    <trkpt lat="47.36563" lon="14.54841"><ele>2376</ele></trkpt>
    <trkpt lat="47.36566" lon="14.54859"><ele>2382</ele></trkpt>
    <trkpt lat="47.36576" lon="14.54869"><ele>2386</ele></trkpt>
    <trkpt lat="47.36568" lon="14.54877"><ele>2384</ele></trkpt>
    <trkpt lat="47.36558" lon="14.54887"><ele>2377</ele></trkpt>
    <trkpt lat="47.36546" lon="14.54888"><ele>2374</ele></trkpt>
    <trkpt lat="47.36559" lon="14.54879"><ele>2381</ele></trkpt>
    <trkpt lat="47.36575" lon="14.54870"><ele>2386</ele></trkpt>
    <trkpt lat="47.36563" lon="14.54882"><ele>2380</ele></trkpt>
    <trkpt lat="47.36576" lon="14.54870"><ele>2387</ele></trkpt>
    <trkpt lat="47.36561" lon="14.54884"><ele>2379</ele></trkpt>
    <trkpt lat="47.36552" lon="14.54896"><ele>2374</ele></trkpt>
    <trkpt lat="47.36543" lon="14.54891"><ele>2370</ele></trkpt>
    <trkpt lat="47.36548" lon="14.54910"><ele>2360</ele></trkpt>
    <trkpt lat="47.36567" lon="14.54906"><ele>2357</ele></trkpt>
    <trkpt lat="47.36562" lon="14.54924"><ele>2324</ele></trkpt>
    <trkpt lat="47.36573" lon="14.54910"><ele>2313</ele></trkpt>
    <trkpt lat="47.36568" lon="14.54924"><ele>2309</ele></trkpt>
    <trkpt lat="47.36576" lon="14.54930"><ele>2303</ele></trkpt>
    <trkpt lat="47.36573" lon="14.54943"><ele>2290</ele></trkpt>
    <trkpt lat="47.36580" lon="14.54955"><ele>2287</ele></trkpt>
    <trkpt lat="47.36592" lon="14.54950"><ele>2273</ele></trkpt>
    <trkpt lat="47.36607" lon="14.54974"><ele>2245</ele></trkpt>
    <trkpt lat="47.36616" lon="14.54976"><ele>2240</ele></trkpt>
    <trkpt lat="47.36629" lon="14.54991"><ele>2226</ele></trkpt>
    <trkpt lat="47.36625" lon="14.55008"><ele>2214</ele></trkpt>
    <trkpt lat="47.36646" lon="14.55035"><ele>2199</ele></trkpt>
    <trkpt lat="47.36670" lon="14.55056"><ele>2181</ele></trkpt>
    <trkpt lat="47.36699" lon="14.55090"><ele>2159</ele></trkpt>
    <trkpt lat="47.36735" lon="14.55076"><ele>2105</ele></trkpt>
    <trkpt lat="47.36750" lon="14.55058"><ele>2099</ele></trkpt>
    <trkpt lat="47.36778" lon="14.55096"><ele>2084</ele></trkpt>
    <trkpt lat="47.36801" lon="14.55096"><ele>2065</ele></trkpt>
    <trkpt lat="47.36818" lon="14.55132"><ele>2043</ele></trkpt>
    <trkpt lat="47.36842" lon="14.55172"><ele>2024</ele></trkpt>
    <trkpt lat="47.36867" lon="14.55206"><ele>2001</ele></trkpt>
    <trkpt lat="47.36880" lon="14.55201"><ele>1984</ele></trkpt>
    <trkpt lat="47.36896" lon="14.55217"><ele>1971</ele></trkpt>
    <trkpt lat="47.36906" lon="14.55242"><ele>1959</ele></trkpt>
    <trkpt lat="47.36934" lon="14.55294"><ele>1934</ele></trkpt>
    <trkpt lat="47.36976" lon="14.55356"><ele>1893</ele></trkpt>
    <trkpt lat="47.37026" lon="14.55428"><ele>1844</ele></trkpt>
    <trkpt lat="47.37039" lon="14.55436"><ele>1826</ele></trkpt>
    <trkpt lat="47.37058" lon="14.55483"><ele>1813</ele></trkpt>
    <trkpt lat="47.37154" lon="14.55589"><ele>1751</ele></trkpt>
    <trkpt lat="47.37164" lon="14.55604"><ele>1741</ele></trkpt>
    <trkpt lat="47.37261" lon="14.55754"><ele>1700</ele></trkpt>
    <trkpt lat="47.37292" lon="14.55792"><ele>1682</ele></trkpt>
    <trkpt lat="47.37289" lon="14.55840"><ele>1673</ele></trkpt>
    <trkpt lat="47.37293" lon="14.55908"><ele>1663</ele></trkpt>
    <trkpt lat="47.37313" lon="14.55971"><ele>1653</ele></trkpt>
    <trkpt lat="47.37315" lon="14.55990"><ele>1646</ele></trkpt>
    <trkpt lat="47.37353" lon="14.56041"><ele>1635</ele></trkpt>
    <trkpt lat="47.37393" lon="14.56096"><ele>1616</ele></trkpt>
    <trkpt lat="47.37471" lon="14.56135"><ele>1584</ele></trkpt>
    <trkpt lat="47.37549" lon="14.56156"><ele>1557</ele></trkpt>
    <trkpt lat="47.37668" lon="14.56190"><ele>1534</ele></trkpt>
    <trkpt lat="47.37687" lon="14.56180"><ele>1529</ele></trkpt>
    <trkpt lat="47.37756" lon="14.56171"><ele>1517</ele></trkpt>
    <trkpt lat="47.37873" lon="14.56167"><ele>1485</ele></trkpt>
    <trkpt lat="47.37982" lon="14.56257"><ele>1460</ele></trkpt>
    <trkpt lat="47.38072" lon="14.56164"><ele>1446</ele></trkpt>
    <trkpt lat="47.38073" lon="14.56091"><ele>1441</ele></trkpt>
    <trkpt lat="47.38136" lon="14.56097"><ele>1432</ele></trkpt>
    <trkpt lat="47.38237" lon="14.56198"><ele>1417</ele></trkpt>
    <trkpt lat="47.38341" lon="14.56269"><ele>1407</ele></trkpt>
    <trkpt lat="47.38438" lon="14.56461"><ele>1381</ele></trkpt>
    <trkpt lat="47.38548" lon="14.56617"><ele>1361</ele></trkpt>
    <trkpt lat="47.38540" lon="14.56736"><ele>1347</ele></trkpt>
    <trkpt lat="47.38584" lon="14.56823"><ele>1335</ele></trkpt>
    <trkpt lat="47.38660" lon="14.56863"><ele>1321</ele></trkpt>
    <trkpt lat="47.38739" lon="14.56968"><ele>1303</ele></trkpt>
    <trkpt lat="47.38757" lon="14.56993"><ele>1299</ele></trkpt>
    <trkpt lat="47.38815" lon="14.56994"><ele>1296</ele></trkpt>
    <trkpt lat="47.38871" lon="14.56979"><ele>1295</ele></trkpt>
    <trkpt lat="47.38911" lon="14.56976"><ele>1295</ele></trkpt>
    <trkpt lat="47.38961" lon="14.56983"><ele>1291</ele></trkpt>
    <trkpt lat="47.39034" lon="14.56981"><ele>1290</ele></trkpt>
    <trkpt lat="47.39087" lon="14.56947"><ele>1288</ele></trkpt>
    <trkpt lat="47.39152" lon="14.57010"><ele>1282</ele></trkpt>
    <trkpt lat="47.39208" lon="14.56995"><ele>1274</ele></trkpt>
    <trkpt lat="47.39300" lon="14.57039"><ele>1262</ele></trkpt>
    <trkpt lat="47.39372" lon="14.57077"><ele>1257</ele></trkpt>
    <trkpt lat="47.39446" lon="14.57094"><ele>1250</ele></trkpt>
    <trkpt lat="47.39504" lon="14.57068"><ele>1242</ele></trkpt>
    <trkpt lat="47.39560" lon="14.57096"><ele>1233</ele></trkpt>
    <trkpt lat="47.39625" lon="14.57138"><ele>1227</ele></trkpt>
    <trkpt lat="47.39680" lon="14.57192"><ele>1220</ele></trkpt>
    <trkpt lat="47.39718" lon="14.57236"><ele>1216</ele></trkpt>
    <trkpt lat="47.39765" lon="14.57261"><ele>1213</ele></trkpt>
    <trkpt lat="47.39814" lon="14.57261"><ele>1210</ele></trkpt>
    <trkpt lat="47.39838" lon="14.57253"><ele>1208</ele></trkpt>
    <trkpt lat="47.39874" lon="14.57225"><ele>1207</ele></trkpt>
    <trkpt lat="47.39898" lon="14.57203"><ele>1207</ele></trkpt>
    <trkpt lat="47.39912" lon="14.57188"><ele>1206</ele></trkpt>
    <trkpt lat="47.39914" lon="14.57189"><ele>1204</ele></trkpt>
  </trkseg>
</trk>
</gpx>