<?xml version="1.0" encoding="UTF-8"?>
<gpx version="1.1" creator="Gpx-Optimizer" xmlns="http://www.topografix.com/GPX/1/1">
<trk>
  <name>Ski_Almerhorn</name>
  <type>skimo</type>
  <trkseg>
    <trkpt lat="46.89759" lon="12.21861"><ele>1983</ele></trkpt>
    <trkpt lat="46.89752" lon="12.21844"><ele>1988</ele></trkpt>
    <trkpt lat="46.89759" lon="12.21833"><ele>1988</ele></trkpt>
    <trkpt lat="46.89785" lon="12.21841"><ele>1989</ele></trkpt>
    <trkpt lat="46.89799" lon="12.21832"><ele>1993</ele></trkpt>
    <trkpt lat="46.89802" lon="12.21815"><ele>1994</ele></trkpt>
    <trkpt lat="46.89811" lon="12.21794"><ele>1997</ele></trkpt>
    <trkpt lat="46.89814" lon="12.21767"><ele>1997</ele></trkpt>
    <trkpt lat="46.89808" lon="12.21745"><ele>2002</ele></trkpt>
    <trkpt lat="46.89801" lon="12.21728"><ele>2008</ele></trkpt>
    <trkpt lat="46.89801" lon="12.21715"><ele>2014</ele></trkpt>
    <trkpt lat="46.89810" lon="12.21698"><ele>2018</ele></trkpt>
    <trkpt lat="46.89823" lon="12.21694"><ele>2019</ele></trkpt>
    <trkpt lat="46.89833" lon="12.21681"><ele>2020</ele></trkpt>
    <trkpt lat="46.89845" lon="12.21670"><ele>2022</ele></trkpt>
    <trkpt lat="46.89855" lon="12.21654"><ele>2026</ele></trkpt>
    <trkpt lat="46.89857" lon="12.21636"><ele>2035</ele></trkpt>
    <trkpt lat="46.89866" lon="12.21623"><ele>2038</ele></trkpt>
    <trkpt lat="46.89877" lon="12.21601"><ele>2042</ele></trkpt>
    <trkpt lat="46.89873" lon="12.21585"><ele>2047</ele></trkpt>
    <trkpt lat="46.89862" lon="12.21578"><ele>2051</ele></trkpt>
    <trkpt lat="46.89853" lon="12.21569"><ele>2056</ele></trkpt>
    <trkpt lat="46.89846" lon="12.21554"><ele>2061</ele></trkpt>
    <trkpt lat="46.89834" lon="12.21545"><ele>2067</ele></trkpt>
    <trkpt lat="46.89826" lon="12.21532"><ele>2070</ele></trkpt>
    <trkpt lat="46.89818" lon="12.21515"><ele>2074</ele></trkpt>
    <trkpt lat="46.89829" lon="12.21508"><ele>2072</ele></trkpt>
    <trkpt lat="46.89841" lon="12.21494"><ele>2073</ele></trkpt>
    <trkpt lat="46.89851" lon="12.21483"><ele>2073</ele></trkpt>
    <trkpt lat="46.89843" lon="12.21463"><ele>2085</ele></trkpt>
    <trkpt lat="46.89840" lon="12.21450"><ele>2087</ele></trkpt>
    <trkpt lat="46.89837" lon="12.21432"><ele>2090</ele></trkpt>
    <trkpt lat="46.89843" lon="12.21417"><ele>2090</ele></trkpt>
    <trkpt lat="46.89848" lon="12.21404"><ele>2095</ele></trkpt>
    <trkpt lat="46.89852" lon="12.21391"><ele>2100</ele></trkpt>
    <trkpt lat="46.89857" lon="12.21376"><ele>2100</ele></trkpt>
    <trkpt lat="46.89861" lon="12.21345"><ele>2105</ele></trkpt>
    <trkpt lat="46.89855" lon="12.21330"><ele>2109</ele></trkpt>
    <trkpt lat="46.89841" lon="12.21330"><ele>2115</ele></trkpt>
    <trkpt lat="46.89836" lon="12.21318"><ele>2117</ele></trkpt>
    <trkpt lat="46.89844" lon="12.21300"><ele>2118</ele></trkpt>
    <trkpt lat="46.89851" lon="12.21285"><ele>2120</ele></trkpt>
    <trkpt lat="46.89858" lon="12.21267"><ele>2122</ele></trkpt>
    <trkpt lat="46.89858" lon="12.21250"><ele>2130</ele></trkpt>
    <trkpt lat="46.89856" lon="12.21236"><ele>2134</ele></trkpt>
    <trkpt lat="46.89860" lon="12.21217"><ele>2135</ele></trkpt>
    <trkpt lat="46.89857" lon="12.21198"><ele>2142</ele></trkpt>
    <trkpt lat="46.89850" lon="12.21177"><ele>2145</ele></trkpt>
    <trkpt lat="46.89841" lon="12.21157"><ele>2146</ele></trkpt>
    <trkpt lat="46.89832" lon="12.21141"><ele>2150</ele></trkpt>
    <trkpt lat="46.89824" lon="12.21123"><ele>2152</ele></trkpt>
    <trkpt lat="46.89811" lon="12.21099"><ele>2153</ele></trkpt>
    <trkpt lat="46.89804" lon="12.21077"><ele>2153</ele></trkpt>
    <trkpt lat="46.89803" lon="12.21055"><ele>2157</ele></trkpt>
    <trkpt lat="46.89802" lon="12.21039"><ele>2158</ele></trkpt>
    <trkpt lat="46.89800" lon="12.21026"><ele>2162</ele></trkpt>
    <trkpt lat="46.89799" lon="12.21009"><ele>2163</ele></trkpt>
    <trkpt lat="46.89795" lon="12.20986"><ele>2168</ele></trkpt>
    <trkpt lat="46.89791" lon="12.20966"><ele>2173</ele></trkpt>
    <trkpt lat="46.89791" lon="12.20944"><ele>2175</ele></trkpt>
    <trkpt lat="46.89786" lon="12.20922"><ele>2178</ele></trkpt>
    <trkpt lat="46.89780" lon="12.20900"><ele>2182</ele></trkpt>
    <trkpt lat="46.89773" lon="12.20884"><ele>2188</ele></trkpt>
    <trkpt lat="46.89772" lon="12.20860"><ele>2188</ele></trkpt>
    <trkpt lat="46.89772" lon="12.20837"><ele>2192</ele></trkpt>
    <trkpt lat="46.89769" lon="12.20809"><ele>2194</ele></trkpt>
    <trkpt lat="46.89768" lon="12.20784"><ele>2195</ele></trkpt>
    <trkpt lat="46.89778" lon="12.20781"><ele>2192</ele></trkpt>
    <trkpt lat="46.89783" lon="12.20769"><ele>2192</ele></trkpt>
    <trkpt lat="46.89791" lon="12.20779"><ele>2190</ele></trkpt>
    <trkpt lat="46.89800" lon="12.20771"><ele>2196</ele></trkpt>
    <trkpt lat="46.89813" lon="12.20778"><ele>2198</ele></trkpt>
    <trkpt lat="46.89822" lon="12.20792"><ele>2202</ele></trkpt>
    <trkpt lat="46.89834" lon="12.20810"><ele>2204</ele></trkpt>
    <trkpt lat="46.89846" lon="12.20831"><ele>2205</ele></trkpt>
    <trkpt lat="46.89858" lon="12.20851"><ele>2208</ele></trkpt>
    <trkpt lat="46.89867" lon="12.20873"><ele>2211</ele></trkpt>
    <trkpt lat="46.89877" lon="12.20897"><ele>2214</ele></trkpt>
    <trkpt lat="46.89889" lon="12.20909"><ele>2216</ele></trkpt>
    <trkpt lat="46.89902" lon="12.20914"><ele>2219</ele></trkpt>
    <trkpt lat="46.89904" lon="12.20894"><ele>2223</ele></trkpt>
    <trkpt lat="46.89908" lon="12.20878"><ele>2228</ele></trkpt>
    <trkpt lat="46.89904" lon="12.20856"><ele>2232</ele></trkpt>
    <trkpt lat="46.89897" lon="12.20822"><ele>2236</ele></trkpt>
    <trkpt lat="46.89888" lon="12.20784"><ele>2240</ele></trkpt>
    <trkpt lat="46.89883" lon="12.20749"><ele>2243</ele></trkpt>
    <trkpt lat="46.89882" lon="12.20711"><ele>2247</ele></trkpt>
    <trkpt lat="46.89885" lon="12.20690"><ele>2250</ele></trkpt>
    <trkpt lat="46.89892" lon="12.20699"><ele>2253</ele></trkpt>
    <trkpt lat="46.89911" lon="12.20718"><ele>2260</ele></trkpt>
    <trkpt lat="46.89922" lon="12.20736"><ele>2265</ele></trkpt>
    <trkpt lat="46.89933" lon="12.20754"><ele>2268</ele></trkpt>
    <trkpt lat="46.89956" lon="12.20755"><ele>2269</ele></trkpt>
    <trkpt lat="46.89977" lon="12.20750"><ele>2271</ele></trkpt>
    <trkpt lat="46.89990" lon="12.20730"><ele>2276</ele></trkpt>
    <trkpt lat="46.89988" lon="12.20697"><ele>2281</ele></trkpt>
    <trkpt lat="46.89985" lon="12.20667"><ele>2284</ele></trkpt>
    <trkpt lat="46.89989" lon="12.20645"><ele>2289</ele></trkpt>
    <trkpt lat="46.89994" lon="12.20624"><ele>2293</ele></trkpt>
    <trkpt lat="46.89999" lon="12.20603"><ele>2297</ele></trkpt>
    <trkpt lat="46.90001" lon="12.20583"><ele>2301</ele></trkpt>
    <trkpt lat="46.90016" lon="12.20573"><ele>2302</ele></trkpt>
    <trkpt lat="46.90020" lon="12.20591"><ele>2303</ele></trkpt>
    <trkpt lat="46.90026" lon="12.20607"><ele>2310</ele></trkpt>
    <trkpt lat="46.90035" lon="12.20616"><ele>2314</ele></trkpt>
    <trkpt lat="46.90045" lon="12.20599"><ele>2317</ele></trkpt>
    <trkpt lat="46.90055" lon="12.20602"><ele>2324</ele></trkpt>
    <trkpt lat="46.90063" lon="12.20609"><ele>2327</ele></trkpt>
    <trkpt lat="46.90072" lon="12.20620"><ele>2331</ele></trkpt>
    <trkpt lat="46.90087" lon="12.20630"><ele>2334</ele></trkpt>
    <trkpt lat="46.90104" lon="12.20639"><ele>2339</ele></trkpt>
    <trkpt lat="46.90109" lon="12.20625"><ele>2344</ele></trkpt>
    <trkpt lat="46.90109" lon="12.20600"><ele>2346</ele></trkpt>
    <trkpt lat="46.90109" lon="12.20579"><ele>2352</ele></trkpt>
    <trkpt lat="46.90110" lon="12.20559"><ele>2355</ele></trkpt>
    <trkpt lat="46.90113" lon="12.20536"><ele>2365</ele></trkpt>
    <trkpt lat="46.90110" lon="12.20521"><ele>2370</ele></trkpt>
    <trkpt lat="46.90113" lon="12.20499"><ele>2370</ele></trkpt>
    <trkpt lat="46.90119" lon="12.20482"><ele>2374</ele></trkpt>
    <trkpt lat="46.90128" lon="12.20481"><ele>2380</ele></trkpt>
    <trkpt lat="46.90140" lon="12.20494"><ele>2378</ele></trkpt>
    <trkpt lat="46.90155" lon="12.20511"><ele>2380</ele></trkpt>
    <trkpt lat="46.90172" lon="12.20534"><ele>2383</ele></trkpt>
    <trkpt lat="46.90186" lon="12.20522"><ele>2388</ele></trkpt>
    <trkpt lat="46.90199" lon="12.20524"><ele>2394</ele></trkpt>
    <trkpt lat="46.90217" lon="12.20519"><ele>2398</ele></trkpt>
    <trkpt lat="46.90218" lon="12.20490"><ele>2402</ele></trkpt>
    <trkpt lat="46.90221" lon="12.20466"><ele>2405</ele></trkpt>
    <trkpt lat="46.90215" lon="12.20440"><ele>2411</ele></trkpt>
    <trkpt lat="46.90215" lon="12.20417"><ele>2415</ele></trkpt>
    <trkpt lat="46.90217" lon="12.20387"><ele>2419</ele></trkpt>
    <trkpt lat="46.90224" lon="12.20352"><ele>2417</ele></trkpt>
    <trkpt lat="46.90230" lon="12.20324"><ele>2418</ele></trkpt>
    <trkpt lat="46.90232" lon="12.20306"><ele>2420</ele></trkpt>
    <trkpt lat="46.90229" lon="12.20271"><ele>2423</ele></trkpt>
    <trkpt lat="46.90222" lon="12.20244"><ele>2424</ele></trkpt>
    <trkpt lat="46.90209" lon="12.20224"><ele>2428</ele></trkpt>
    <trkpt lat="46.90205" lon="12.20201"><ele>2428</ele></trkpt>
    <trkpt lat="46.90213" lon="12.20179"><ele>2435</ele></trkpt>
    <trkpt lat="46.90223" lon="12.20164"><ele>2444</ele></trkpt>
    <trkpt lat="46.90219" lon="12.20143"><ele>2448</ele></trkpt>
    <trkpt lat="46.90216" lon="12.20128"><ele>2452</ele></trkpt>
    <trkpt lat="46.90218" lon="12.20112"><ele>2453</ele></trkpt>
    <trkpt lat="46.90218" lon="12.20097"><ele>2456</ele></trkpt>
    <trkpt lat="46.90213" lon="12.20081"><ele>2461</ele></trkpt>
    <trkpt lat="46.90210" lon="12.20067"><ele>2463</ele></trkpt>
    <trkpt lat="46.90206" lon="12.20051"><ele>2466</ele></trkpt>
    <trkpt lat="46.90217" lon="12.20051"><ele>2467</ele></trkpt>
    <trkpt lat="46.90210" lon="12.20030"><ele>2473</ele></trkpt>
    <trkpt lat="46.90202" lon="12.20020"><ele>2477</ele></trkpt>
    <trkpt lat="46.90191" lon="12.20011"><ele>2479</ele></trkpt>
    <trkpt lat="46.90180" lon="12.20004"><ele>2482</ele></trkpt>
    <trkpt lat="46.90169" lon="12.19992"><ele>2483</ele></trkpt>
    <trkpt lat="46.90162" lon="12.19977"><ele>2486</ele></trkpt>
    <trkpt lat="46.90157" lon="12.19962"><ele>2491</ele></trkpt>
    <trkpt lat="46.90167" lon="12.19962"><ele>2495</ele></trkpt>
    <trkpt lat="46.90178" lon="12.19967"><ele>2498</ele></trkpt>
    <trkpt lat="46.90183" lon="12.19950"><ele>2502</ele></trkpt>
    <trkpt lat="46.90180" lon="12.19932"><ele>2506</ele></trkpt>
    <trkpt lat="46.90191" lon="12.19938"><ele>2507</ele></trkpt>
    <trkpt lat="46.90204" lon="12.19944"><ele>2506</ele></trkpt>
    <trkpt lat="46.90218" lon="12.19948"><ele>2509</ele></trkpt>
    <trkpt lat="46.90214" lon="12.19926"><ele>2518</ele></trkpt>
    <trkpt lat="46.90209" lon="12.19910"><ele>2520</ele></trkpt>
    <trkpt lat="46.90224" lon="12.19915"><ele>2526</ele></trkpt>
    <trkpt lat="46.90239" lon="12.19919"><ele>2525</ele></trkpt>
    <trkpt lat="46.90234" lon="12.19899"><ele>2531</ele></trkpt>
    <trkpt lat="46.90229" lon="12.19880"><ele>2533</ele></trkpt>
    <trkpt lat="46.90245" lon="12.19892"><ele>2543</ele></trkpt>
    <trkpt lat="46.90257" lon="12.19896"><ele>2548</ele></trkpt>
    <trkpt lat="46.90268" lon="12.19900"><ele>2550</ele></trkpt>
    <trkpt lat="46.90276" lon="12.19887"><ele>2556</ele></trkpt>
    <trkpt lat="46.90272" lon="12.19867"><ele>2560</ele></trkpt>
    <trkpt lat="46.90285" lon="12.19873"><ele>2566</ele></trkpt>
    <trkpt lat="46.90283" lon="12.19851"><ele>2568</ele></trkpt>
    <trkpt lat="46.90296" lon="12.19849"><ele>2577</ele></trkpt>
    <trkpt lat="46.90307" lon="12.19838"><ele>2583</ele></trkpt>
    <trkpt lat="46.90306" lon="12.19819"><ele>2588</ele></trkpt>
    <trkpt lat="46.90317" lon="12.19815"><ele>2593</ele></trkpt>
    <trkpt lat="46.90314" lon="12.19786"><ele>2602</ele></trkpt>
    <trkpt lat="46.90302" lon="12.19777"><ele>2602</ele></trkpt>
    <trkpt lat="46.90294" lon="12.19771"><ele>2607</ele></trkpt>
    <trkpt lat="46.90304" lon="12.19776"><ele>2608</ele></trkpt>
    <trkpt lat="46.90314" lon="12.19774"><ele>2608</ele></trkpt>
    <trkpt lat="46.90330" lon="12.19775"><ele>2613</ele></trkpt>
    <trkpt lat="46.90340" lon="12.19779"><ele>2613</ele></trkpt>
    <trkpt lat="46.90354" lon="12.19770"><ele>2623</ele></trkpt>
    <trkpt lat="46.90358" lon="12.19758"><ele>2628</ele></trkpt>
    <trkpt lat="46.90360" lon="12.19731"><ele>2632</ele></trkpt>
    <trkpt lat="46.90360" lon="12.19705"><ele>2636</ele></trkpt>
    <trkpt lat="46.90361" lon="12.19679"><ele>2639</ele></trkpt>
    <trkpt lat="46.90361" lon="12.19653"><ele>2639</ele></trkpt>
    <trkpt lat="46.90375" lon="12.19662"><ele>2643</ele></trkpt>
    <trkpt lat="46.90388" lon="12.19668"><ele>2648</ele></trkpt>
    <trkpt lat="46.90403" lon="12.19668"><ele>2650</ele></trkpt>
    <trkpt lat="46.90417" lon="12.19677"><ele>2655</ele></trkpt>
    <trkpt lat="46.90430" lon="12.19680"><ele>2659</ele></trkpt>
    <trkpt lat="46.90446" lon="12.19672"><ele>2664</ele></trkpt>
    <trkpt lat="46.90458" lon="12.19655"><ele>2670</ele></trkpt>
    <trkpt lat="46.90469" lon="12.19639"><ele>2674</ele></trkpt>
    <trkpt lat="46.90481" lon="12.19628"><ele>2676</ele></trkpt>
    <trkpt lat="46.90489" lon="12.19603"><ele>2681</ele></trkpt>
    <trkpt lat="46.90488" lon="12.19588"><ele>2689</ele></trkpt>
    <trkpt lat="46.90495" lon="12.19578"><ele>2694</ele></trkpt>
    <trkpt lat="46.90504" lon="12.19583"><ele>2694</ele></trkpt>
    <trkpt lat="46.90515" lon="12.19597"><ele>2697</ele></trkpt>
    <trkpt lat="46.90525" lon="12.19591"><ele>2704</ele></trkpt>
    <trkpt lat="46.90535" lon="12.19593"><ele>2713</ele></trkpt>
    <trkpt lat="46.90544" lon="12.19599"><ele>2717</ele></trkpt>
    <trkpt lat="46.90549" lon="12.19574"><ele>2722</ele></trkpt>
    <trkpt lat="46.90551" lon="12.19552"><ele>2727</ele></trkpt>
    <trkpt lat="46.90555" lon="12.19532"><ele>2729</ele></trkpt>
    <trkpt lat="46.90556" lon="12.19508"><ele>2735</ele></trkpt>
    <trkpt lat="46.90563" lon="12.19491"><ele>2736</ele></trkpt>
    <trkpt lat="46.90573" lon="12.19463"><ele>2738</ele></trkpt>
    <trkpt lat="46.90577" lon="12.19438"><ele>2742</ele></trkpt>
    <trkpt lat="46.90580" lon="12.19411"><ele>2746</ele></trkpt>
    <trkpt lat="46.90580" lon="12.19390"><ele>2750</ele></trkpt>
    <trkpt lat="46.90587" lon="12.19374"><ele>2752</ele></trkpt>
    <trkpt lat="46.90592" lon="12.19356"><ele>2754</ele></trkpt>
    <trkpt lat="46.90598" lon="12.19339"><ele>2759</ele></trkpt>
    <trkpt lat="46.90605" lon="12.19322"><ele>2764</ele></trkpt>
    <trkpt lat="46.90613" lon="12.19288"><ele>2772</ele></trkpt>
    <trkpt lat="46.90624" lon="12.19299"><ele>2775</ele></trkpt>
    <trkpt lat="46.90629" lon="12.19321"><ele>2778</ele></trkpt>
    <trkpt lat="46.90642" lon="12.19313"><ele>2793</ele></trkpt>
    <trkpt lat="46.90644" lon="12.19295"><ele>2794</ele></trkpt>
    <trkpt lat="46.90645" lon="12.19279"><ele>2797</ele></trkpt>
    <trkpt lat="46.90653" lon="12.19288"><ele>2799</ele></trkpt>
    <trkpt lat="46.90659" lon="12.19302"><ele>2802</ele></trkpt>
    <trkpt lat="46.90665" lon="12.19285"><ele>2813</ele></trkpt>
    <trkpt lat="46.90666" lon="12.19271"><ele>2817</ele></trkpt>
    <trkpt lat="46.90674" lon="12.19255"><ele>2825</ele></trkpt>
    <trkpt lat="46.90682" lon="12.19244"><ele>2833</ele></trkpt>
    <trkpt lat="46.90679" lon="12.19223"><ele>2837</ele></trkpt>
    <trkpt lat="46.90670" lon="12.19205"><ele>2845</ele></trkpt>
    <trkpt lat="46.90679" lon="12.19200"><ele>2845</ele></trkpt>
    <trkpt lat="46.90684" lon="12.19211"><ele>2849</ele></trkpt>
    <trkpt lat="46.90696" lon="12.19216"><ele>2858</ele></trkpt>
    <trkpt lat="46.90693" lon="12.19203"><ele>2862</ele></trkpt>
    <trkpt lat="46.90703" lon="12.19211"><ele>2873</ele></trkpt>
    <trkpt lat="46.90721" lon="12.19217"><ele>2874</ele></trkpt>
    <trkpt lat="46.90729" lon="12.19233"><ele>2883</ele></trkpt>
    <trkpt lat="46.90738" lon="12.19249"><ele>2891</ele></trkpt>
    <trkpt lat="46.90742" lon="12.19269"><ele>2906</ele></trkpt>
    <trkpt lat="46.90753" lon="12.19281"><ele>2912</ele></trkpt>
    <trkpt lat="46.90763" lon="12.19282"><ele>2910</ele></trkpt>
    <trkpt lat="46.90775" lon="12.19288"><ele>2911</ele></trkpt>
    <trkpt lat="46.90779" lon="12.19301"><ele>2914</ele></trkpt>
    <trkpt lat="46.90783" lon="12.19315"><ele>2917</ele></trkpt>
    <trkpt lat="46.90788" lon="12.19327"><ele>2921</ele></trkpt>
    <trkpt lat="46.90784" lon="12.19340"><ele>2932</ele></trkpt>
    <trkpt lat="46.90778" lon="12.19351"><ele>2940</ele></trkpt>
    <trkpt lat="46.90786" lon="12.19370"><ele>2948</ele></trkpt>
    <trkpt lat="46.90778" lon="12.19376"><ele>2954</ele></trkpt>
    <trkpt lat="46.90779" lon="12.19397"><ele>2960</ele></trkpt>
    <trkpt lat="46.90783" lon="12.19415"><ele>2969</ele></trkpt>
    <trkpt lat="46.90784" lon="12.19435"><ele>2978</ele></trkpt>
    <trkpt lat="46.90788" lon="12.19454"><ele>2985</ele></trkpt>
    <trkpt lat="46.90782" lon="12.19472"><ele>2987</ele></trkpt>
    <trkpt lat="46.90789" lon="12.19455"><ele>2987</ele></trkpt>
    <trkpt lat="46.90785" lon="12.19435"><ele>2979</ele></trkpt>
    <trkpt lat="46.90785" lon="12.19416"><ele>2972</ele></trkpt>
    <trkpt lat="46.90781" lon="12.19397"><ele>2967</ele></trkpt>
    <trkpt lat="46.90777" lon="12.19385"><ele>2963</ele></trkpt>
    <trkpt lat="46.90786" lon="12.19373"><ele>2954</ele></trkpt>
    <trkpt lat="46.90778" lon="12.19359"><ele>2949</ele></trkpt>
    <trkpt lat="46.90784" lon="12.19346"><ele>2941</ele></trkpt>
    <trkpt lat="46.90792" lon="12.19339"><ele>2935</ele></trkpt>
    <trkpt lat="46.90790" lon="12.19321"><ele>2929</ele></trkpt>
    <trkpt lat="46.90783" lon="12.19304"><ele>2923</ele></trkpt>
    <trkpt lat="46.90772" lon="12.19284"><ele>2916</ele></trkpt>
    <trkpt lat="46.90764" lon="12.19276"><ele>2910</ele></trkpt>
    <trkpt lat="46.90752" lon="12.19256"><ele>2902</ele></trkpt>
    <trkpt lat="46.90744" lon="12.19246"><ele>2895</ele></trkpt>
    <trkpt lat="46.90734" lon="12.19228"><ele>2890</ele></trkpt>
    <trkpt lat="46.90726" lon="12.19216"><ele>2881</ele></trkpt>
    <trkpt lat="46.90711" lon="12.19211"><ele>2876</ele></trkpt>
    <trkpt lat="46.90698" lon="12.19207"><ele>2871</ele></trkpt>
    <trkpt lat="46.90689" lon="12.19198"><ele>2868</ele></trkpt>
    <trkpt lat="46.90695" lon="12.19210"><ele>2864</ele></trkpt>
    <trkpt lat="46.90679" lon="12.19293"><ele>2841</ele></trkpt>
    <trkpt lat="46.90675" lon="12.19327"><ele>2833</ele></trkpt>
    <trkpt lat="46.90621" lon="12.19306"><ele>2812</ele></trkpt>
    <trkpt lat="46.90489" lon="12.19311"><ele>2734</ele></trkpt>
    <trkpt lat="46.90446" lon="12.19389"><ele>2702</ele></trkpt>
    <trkpt lat="46.90427" lon="12.19596"><ele>2674</ele></trkpt>
    <trkpt lat="46.90405" lon="12.19594"><ele>2671</ele></trkpt>
    <trkpt lat="46.90393" lon="12.19601"><ele>2668</ele></trkpt>
    <trkpt lat="46.90378" lon="12.19609"><ele>2666</ele></trkpt>
    <trkpt lat="46.90372" lon="12.19597"><ele>2668</ele></trkpt>
    <trkpt lat="46.90355" lon="12.19597"><ele>2666</ele></trkpt>
    <trkpt lat="46.90326" lon="12.19739"><ele>2634</ele></trkpt>
    <trkpt lat="46.90306" lon="12.19847"><ele>2606</ele></trkpt>
    <trkpt lat="46.90285" lon="12.19891"><ele>2576</ele></trkpt>
    <trkpt lat="46.90240" lon="12.19967"><ele>2541</ele></trkpt>
    <trkpt lat="46.90232" lon="12.19978"><ele>2520</ele></trkpt>
    <trkpt lat="46.90220" lon="12.20044"><ele>2496</ele></trkpt>
    <trkpt lat="46.90232" lon="12.20115"><ele>2469</ele></trkpt>
    <trkpt lat="46.90121" lon="12.20185"><ele>2425</ele></trkpt>
    <trkpt lat="46.90059" lon="12.20151"><ele>2409</ele></trkpt>
    <trkpt lat="46.89984" lon="12.20159"><ele>2384</ele></trkpt>
    <trkpt lat="46.89858" lon="12.20052"><ele>2336</ele></trkpt>
    <trkpt lat="46.89776" lon="12.20030"><ele>2310</ele></trkpt>
    <trkpt lat="46.89673" lon="12.19961"><ele>2285</ele></trkpt>
    <trkpt lat="46.89657" lon="12.19970"><ele>2273</ele></trkpt>
    <trkpt lat="46.89637" lon="12.19965"><ele>2266</ele></trkpt>
    <trkpt lat="46.89603" lon="12.20012"><ele>2250</ele></trkpt>
    <trkpt lat="46.89605" lon="12.20200"><ele>2208</ele></trkpt>
    <trkpt lat="46.89660" lon="12.20377"><ele>2182</ele></trkpt>
    <trkpt lat="46.89659" lon="12.20476"><ele>2180</ele></trkpt>
    <trkpt lat="46.89687" lon="12.20537"><ele>2179</ele></trkpt>
    <trkpt lat="46.89692" lon="12.20557"><ele>2177</ele></trkpt>
    <trkpt lat="46.89697" lon="12.20579"><ele>2175</ele></trkpt>
    <trkpt lat="46.89697" lon="12.20603"><ele>2179</ele></trkpt>
    <trkpt lat="46.89700" lon="12.20633"><ele>2178</ele></trkpt>
    <trkpt lat="46.89708" lon="12.20660"><ele>2179</ele></trkpt>
    <trkpt lat="46.89708" lon="12.20691"><ele>2183</ele></trkpt>
    <trkpt lat="46.89713" lon="12.20708"><ele>2186</ele></trkpt>
    <trkpt lat="46.89718" lon="12.20734"><ele>2187</ele></trkpt>
    <trkpt lat="46.89729" lon="12.20775"><ele>2189</ele></trkpt>
    <trkpt lat="46.89758" lon="12.20844"><ele>2183</ele></trkpt>
    <trkpt lat="46.89761" lon="12.20996"><ele>2172</ele></trkpt>
    <trkpt lat="46.89778" lon="12.21215"><ele>2151</ele></trkpt>
    <trkpt lat="46.89804" lon="12.21311"><ele>2128</ele></trkpt>
    <trkpt lat="46.89818" lon="12.21404"><ele>2103</ele></trkpt>
    <trkpt lat="46.89820" lon="12.21544"><ele>2074</ele></trkpt>
    <trkpt lat="46.89813" lon="12.21606"><ele>2053</ele></trkpt>
    <trkpt lat="46.89810" lon="12.21662"><ele>2037</ele></trkpt>
    <trkpt lat="46.89807" lon="12.21817"><ele>2007</ele></trkpt>
    <trkpt lat="46.89803" lon="12.21899"><ele>1990</ele></trkpt>
    <trkpt lat="46.89791" lon="12.21892"><ele>1988</ele></trkpt>
    <trkpt lat="46.89777" lon="12.21884"><ele>1986</ele></trkpt>
    <trkpt lat="46.89764" lon="12.21870"><ele>1987</ele></trkpt>
    <trkpt lat="46.89758" lon="12.21872"><ele>1986</ele></trkpt>
  </trkseg>
</trk>
</gpx>