<?xml version="1.0" encoding="UTF-8"?>
<gpx version="1.1" creator="GPX-Pro" xmlns="http://www.topografix.com/GPX/1/1">
<trk>
  <name>Linz-Obergeng-Brunnwald-Schenkenfelden-Linz</name>
  <trkseg>
    <trkpt lat="48.33275" lon="14.28799"><ele>283</ele><time>2026-05-27T04:29:41Z</time></trkpt>
    <trkpt lat="48.33287" lon="14.28706"><ele>275</ele><time>2026-05-27T04:30:38Z</time></trkpt>
    <trkpt lat="48.33365" lon="14.28648"><ele>281</ele><time>2026-05-27T04:31:06Z</time></trkpt>
    <trkpt lat="48.33429" lon="14.28532"><ele>279</ele><time>2026-05-27T04:31:34Z</time></trkpt>
    <trkpt lat="48.33440" lon="14.28454"><ele>285</ele><time>2026-05-27T04:32:02Z</time></trkpt>
    <trkpt lat="48.33453" lon="14.28385"><ele>288</ele><time>2026-05-27T04:32:30Z</time></trkpt>
    <trkpt lat="48.33489" lon="14.28324"><ele>293</ele><time>2026-05-27T04:32:58Z</time></trkpt>
    <trkpt lat="48.33525" lon="14.28268"><ele>295</ele><time>2026-05-27T04:33:26Z</time></trkpt>
    <trkpt lat="48.33559" lon="14.28205"><ele>300</ele><time>2026-05-27T04:33:54Z</time></trkpt>
    <trkpt lat="48.33618" lon="14.28142"><ele>301</ele><time>2026-05-27T04:34:22Z</time></trkpt>
    <trkpt lat="48.33647" lon="14.28114"><ele>305</ele><time>2026-05-27T04:34:50Z</time></trkpt>
    <trkpt lat="48.33667" lon="14.28077"><ele>305</ele><time>2026-05-27T04:35:18Z</time></trkpt>
    <trkpt lat="48.33700" lon="14.28023"><ele>312</ele><time>2026-05-27T04:35:46Z</time></trkpt>
    <trkpt lat="48.33741" lon="14.27981"><ele>316</ele><time>2026-05-27T04:36:14Z</time></trkpt>
    <trkpt lat="48.33776" lon="14.27971"><ele>320</ele><time>2026-05-27T04:36:42Z</time></trkpt>
    <trkpt lat="48.33801" lon="14.27938"><ele>329</ele><time>2026-05-27T04:37:10Z</time></trkpt>
    <trkpt lat="48.33824" lon="14.27895"><ele>332</ele><time>2026-05-27T04:37:38Z</time></trkpt>
    <trkpt lat="48.33857" lon="14.27846"><ele>336</ele><time>2026-05-27T04:38:06Z</time></trkpt>
    <trkpt lat="48.33903" lon="14.27770"><ele>337</ele><time>2026-05-27T04:38:34Z</time></trkpt>
    <trkpt lat="48.33948" lon="14.27715"><ele>338</ele><time>2026-05-27T04:39:02Z</time></trkpt>
    <trkpt lat="48.33953" lon="14.27701"><ele>340</ele><time>2026-05-27T04:40:14Z</time></trkpt>
    <trkpt lat="48.34018" lon="14.27701"><ele>340</ele><time>2026-05-27T04:40:42Z</time></trkpt>
    <trkpt lat="48.34042" lon="14.27738"><ele>331</ele><time>2026-05-27T04:41:10Z</time></trkpt>
    <trkpt lat="48.34041" lon="14.27773"><ele>329</ele><time>2026-05-27T04:41:38Z</time></trkpt>
    <trkpt lat="48.34088" lon="14.27792"><ele>328</ele><time>2026-05-27T04:42:06Z</time></trkpt>
    <trkpt lat="48.34134" lon="14.27774"><ele>336</ele><time>2026-05-27T04:42:34Z</time></trkpt>
    <trkpt lat="48.34190" lon="14.27761"><ele>340</ele><time>2026-05-27T04:43:02Z</time></trkpt>
    <trkpt lat="48.34238" lon="14.27739"><ele>339</ele><time>2026-05-27T04:43:30Z</time></trkpt>
    <trkpt lat="48.34281" lon="14.27720"><ele>344</ele><time>2026-05-27T04:43:58Z</time></trkpt>
    <trkpt lat="48.34319" lon="14.27705"><ele>348</ele><time>2026-05-27T04:44:26Z</time></trkpt>
    <trkpt lat="48.34350" lon="14.27726"><ele>351</ele><time>2026-05-27T04:44:54Z</time></trkpt>
    <trkpt lat="48.34374" lon="14.27760"><ele>357</ele><time>2026-05-27T04:45:22Z</time></trkpt>
    <trkpt lat="48.34447" lon="14.27823"><ele>360</ele><time>2026-05-27T04:45:50Z</time></trkpt>
    <trkpt lat="48.34498" lon="14.27819"><ele>367</ele><time>2026-05-27T04:46:18Z</time></trkpt>
    <trkpt lat="48.34542" lon="14.27819"><ele>373</ele><time>2026-05-27T04:46:46Z</time></trkpt>
    <trkpt lat="48.34590" lon="14.27821"><ele>377</ele><time>2026-05-27T04:47:14Z</time></trkpt>
    <trkpt lat="48.34630" lon="14.27777"><ele>378</ele><time>2026-05-27T04:47:42Z</time></trkpt>
    <trkpt lat="48.34665" lon="14.27739"><ele>381</ele><time>2026-05-27T04:48:10Z</time></trkpt>
    <trkpt lat="48.34704" lon="14.27709"><ele>386</ele><time>2026-05-27T04:48:38Z</time></trkpt>
    <trkpt lat="48.34737" lon="14.27676"><ele>387</ele><time>2026-05-27T04:49:06Z</time></trkpt>
    <trkpt lat="48.34777" lon="14.27671"><ele>391</ele><time>2026-05-27T04:49:34Z</time></trkpt>
    <trkpt lat="48.34815" lon="14.27670"><ele>397</ele><time>2026-05-27T04:50:02Z</time></trkpt>
    <trkpt lat="48.34851" lon="14.27691"><ele>399</ele><time>2026-05-27T04:50:30Z</time></trkpt>
    <trkpt lat="48.34888" lon="14.27715"><ele>402</ele><time>2026-05-27T04:50:58Z</time></trkpt>
    <trkpt lat="48.34920" lon="14.27730"><ele>407</ele><time>2026-05-27T04:51:26Z</time></trkpt>
    <trkpt lat="48.34953" lon="14.27759"><ele>409</ele><time>2026-05-27T04:51:54Z</time></trkpt>
    <trkpt lat="48.34989" lon="14.27797"><ele>412</ele><time>2026-05-27T04:52:22Z</time></trkpt>
    <trkpt lat="48.35027" lon="14.27812"><ele>417</ele><time>2026-05-27T04:52:50Z</time></trkpt>
    <trkpt lat="48.35066" lon="14.27833"><ele>421</ele><time>2026-05-27T04:53:18Z</time></trkpt>
    <trkpt lat="48.35072" lon="14.27866"><ele>420</ele><time>2026-05-27T04:54:14Z</time></trkpt>
    <trkpt lat="48.35098" lon="14.27925"><ele>425</ele><time>2026-05-27T04:54:42Z</time></trkpt>
    <trkpt lat="48.35123" lon="14.27961"><ele>434</ele><time>2026-05-27T04:55:10Z</time></trkpt>
    <trkpt lat="48.35153" lon="14.27976"><ele>443</ele><time>2026-05-27T04:55:38Z</time></trkpt>
    <trkpt lat="48.35187" lon="14.27987"><ele>452</ele><time>2026-05-27T04:56:06Z</time></trkpt>
    <trkpt lat="48.35222" lon="14.27969"><ele>456</ele><time>2026-05-27T04:56:34Z</time></trkpt>
    <trkpt lat="48.35253" lon="14.27995"><ele>459</ele><time>2026-05-27T04:57:02Z</time></trkpt>
    <trkpt lat="48.35289" lon="14.28015"><ele>463</ele><time>2026-05-27T04:57:30Z</time></trkpt>
    <trkpt lat="48.35300" lon="14.28066"><ele>468</ele><time>2026-05-27T04:57:58Z</time></trkpt>
    <trkpt lat="48.35334" lon="14.28102"><ele>473</ele><time>2026-05-27T04:58:26Z</time></trkpt>
    <trkpt lat="48.35436" lon="14.28156"><ele>473</ele><time>2026-05-27T04:58:54Z</time></trkpt>
    <trkpt lat="48.35496" lon="14.28191"><ele>472</ele><time>2026-05-27T04:59:22Z</time></trkpt>
    <trkpt lat="48.35514" lon="14.28225"><ele>472</ele><time>2026-05-27T04:59:50Z</time></trkpt>
    <trkpt lat="48.35479" lon="14.28242"><ele>475</ele><time>2026-05-27T05:00:18Z</time></trkpt>
    <trkpt lat="48.35445" lon="14.28251"><ele>478</ele><time>2026-05-27T05:00:46Z</time></trkpt>
    <trkpt lat="48.35412" lon="14.28271"><ele>483</ele><time>2026-05-27T05:01:14Z</time></trkpt>
    <trkpt lat="48.35431" lon="14.28272"><ele>488</ele><time>2026-05-27T05:03:34Z</time></trkpt>
    <trkpt lat="48.35530" lon="14.28300"><ele>489</ele><time>2026-05-27T05:04:02Z</time></trkpt>
    <trkpt lat="48.35610" lon="14.28350"><ele>492</ele><time>2026-05-27T05:04:30Z</time></trkpt>
    <trkpt lat="48.35686" lon="14.28360"><ele>494</ele><time>2026-05-27T05:04:58Z</time></trkpt>
    <trkpt lat="48.35752" lon="14.28423"><ele>499</ele><time>2026-05-27T05:05:26Z</time></trkpt>
    <trkpt lat="48.35847" lon="14.28448"><ele>501</ele><time>2026-05-27T05:05:54Z</time></trkpt>
    <trkpt lat="48.35908" lon="14.28344"><ele>505</ele><time>2026-05-27T05:06:22Z</time></trkpt>
    <trkpt lat="48.35959" lon="14.28247"><ele>506</ele><time>2026-05-27T05:06:50Z</time></trkpt>
    <trkpt lat="48.35992" lon="14.28191"><ele>511</ele><time>2026-05-27T05:07:18Z</time></trkpt>
    <trkpt lat="48.36015" lon="14.28129"><ele>514</ele><time>2026-05-27T05:07:46Z</time></trkpt>
    <trkpt lat="48.36025" lon="14.28074"><ele>514</ele><time>2026-05-27T05:08:14Z</time></trkpt>
    <trkpt lat="48.36036" lon="14.28028"><ele>521</ele><time>2026-05-27T05:08:42Z</time></trkpt>
    <trkpt lat="48.36051" lon="14.27983"><ele>523</ele><time>2026-05-27T05:09:10Z</time></trkpt>
    <trkpt lat="48.36072" lon="14.27945"><ele>530</ele><time>2026-05-27T05:09:38Z</time></trkpt>
    <trkpt lat="48.36099" lon="14.27934"><ele>537</ele><time>2026-05-27T05:10:06Z</time></trkpt>
    <trkpt lat="48.36143" lon="14.27934"><ele>539</ele><time>2026-05-27T05:10:34Z</time></trkpt>
    <trkpt lat="48.36165" lon="14.27894"><ele>544</ele><time>2026-05-27T05:11:02Z</time></trkpt>
    <trkpt lat="48.36185" lon="14.27856"><ele>544</ele><time>2026-05-27T05:11:30Z</time></trkpt>
    <trkpt lat="48.36211" lon="14.27828"><ele>551</ele><time>2026-05-27T05:11:58Z</time></trkpt>
    <trkpt lat="48.36244" lon="14.27805"><ele>555</ele><time>2026-05-27T05:12:26Z</time></trkpt>
    <trkpt lat="48.36276" lon="14.27796"><ele>559</ele><time>2026-05-27T05:12:54Z</time></trkpt>
    <trkpt lat="48.36299" lon="14.27856"><ele>563</ele><time>2026-05-27T05:13:22Z</time></trkpt>
    <trkpt lat="48.36303" lon="14.27907"><ele>571</ele><time>2026-05-27T05:13:50Z</time></trkpt>
    <trkpt lat="48.36309" lon="14.27959"><ele>575</ele><time>2026-05-27T05:14:18Z</time></trkpt>
    <trkpt lat="48.36336" lon="14.27982"><ele>579</ele><time>2026-05-27T05:14:46Z</time></trkpt>
    <trkpt lat="48.36383" lon="14.27989"><ele>582</ele><time>2026-05-27T05:15:14Z</time></trkpt>
    <trkpt lat="48.36435" lon="14.28003"><ele>584</ele><time>2026-05-27T05:15:42Z</time></trkpt>
    <trkpt lat="48.36475" lon="14.28012"><ele>589</ele><time>2026-05-27T05:16:10Z</time></trkpt>
    <trkpt lat="48.36500" lon="14.28021"><ele>589</ele><time>2026-05-27T05:16:38Z</time></trkpt>
    <trkpt lat="48.36517" lon="14.27973"><ele>594</ele><time>2026-05-27T05:17:34Z</time></trkpt>
    <trkpt lat="48.36531" lon="14.27941"><ele>596</ele><time>2026-05-27T05:18:02Z</time></trkpt>
    <trkpt lat="48.36551" lon="14.27894"><ele>599</ele><time>2026-05-27T05:18:58Z</time></trkpt>
    <trkpt lat="48.36589" lon="14.27851"><ele>604</ele><time>2026-05-27T05:19:26Z</time></trkpt>
    <trkpt lat="48.36628" lon="14.27808"><ele>607</ele><time>2026-05-27T05:19:54Z</time></trkpt>
    <trkpt lat="48.36672" lon="14.27763"><ele>611</ele><time>2026-05-27T05:20:22Z</time></trkpt>
    <trkpt lat="48.36713" lon="14.27720"><ele>615</ele><time>2026-05-27T05:20:50Z</time></trkpt>
    <trkpt lat="48.36749" lon="14.27681"><ele>617</ele><time>2026-05-27T05:21:18Z</time></trkpt>
    <trkpt lat="48.36783" lon="14.27644"><ele>622</ele><time>2026-05-27T05:21:46Z</time></trkpt>
    <trkpt lat="48.36815" lon="14.27603"><ele>626</ele><time>2026-05-27T05:22:14Z</time></trkpt>
    <trkpt lat="48.36843" lon="14.27557"><ele>630</ele><time>2026-05-27T05:22:42Z</time></trkpt>
    <trkpt lat="48.36866" lon="14.27507"><ele>636</ele><time>2026-05-27T05:23:10Z</time></trkpt>
    <trkpt lat="48.36889" lon="14.27455"><ele>638</ele><time>2026-05-27T05:23:38Z</time></trkpt>
    <trkpt lat="48.36914" lon="14.27403"><ele>641</ele><time>2026-05-27T05:24:06Z</time></trkpt>
    <trkpt lat="48.36941" lon="14.27356"><ele>647</ele><time>2026-05-27T05:24:34Z</time></trkpt>
    <trkpt lat="48.36975" lon="14.27316"><ele>649</ele><time>2026-05-27T05:25:02Z</time></trkpt>
    <trkpt lat="48.37018" lon="14.27294"><ele>653</ele><time>2026-05-27T05:25:30Z</time></trkpt>
    <trkpt lat="48.37065" lon="14.27281"><ele>657</ele><time>2026-05-27T05:25:58Z</time></trkpt>
    <trkpt lat="48.37104" lon="14.27261"><ele>660</ele><time>2026-05-27T05:26:26Z</time></trkpt>
    <trkpt lat="48.37144" lon="14.27238"><ele>662</ele><time>2026-05-27T05:26:54Z</time></trkpt>
    <trkpt lat="48.37183" lon="14.27225"><ele>666</ele><time>2026-05-27T05:27:22Z</time></trkpt>
    <trkpt lat="48.37220" lon="14.27228"><ele>673</ele><time>2026-05-27T05:27:50Z</time></trkpt>
    <trkpt lat="48.37256" lon="14.27241"><ele>678</ele><time>2026-05-27T05:28:18Z</time></trkpt>
    <trkpt lat="48.37290" lon="14.27251"><ele>683</ele><time>2026-05-27T05:28:46Z</time></trkpt>
    <trkpt lat="48.37327" lon="14.27256"><ele>687</ele><time>2026-05-27T05:29:14Z</time></trkpt>
    <trkpt lat="48.37361" lon="14.27250"><ele>691</ele><time>2026-05-27T05:29:42Z</time></trkpt>
    <trkpt lat="48.37401" lon="14.27234"><ele>695</ele><time>2026-05-27T05:30:10Z</time></trkpt>
    <trkpt lat="48.37438" lon="14.27207"><ele>697</ele><time>2026-05-27T05:30:38Z</time></trkpt>
    <trkpt lat="48.37442" lon="14.27132"><ele>699</ele><time>2026-05-27T05:31:06Z</time></trkpt>
    <trkpt lat="48.37446" lon="14.27043"><ele>704</ele><time>2026-05-27T05:31:34Z</time></trkpt>
    <trkpt lat="48.37475" lon="14.26988"><ele>707</ele><time>2026-05-27T05:32:02Z</time></trkpt>
    <trkpt lat="48.37503" lon="14.26939"><ele>711</ele><time>2026-05-27T05:32:30Z</time></trkpt>
    <trkpt lat="48.37539" lon="14.26905"><ele>715</ele><time>2026-05-27T05:32:58Z</time></trkpt>
    <trkpt lat="48.37575" lon="14.26880"><ele>719</ele><time>2026-05-27T05:33:26Z</time></trkpt>
    <trkpt lat="48.37615" lon="14.26857"><ele>728</ele><time>2026-05-27T05:33:54Z</time></trkpt>
    <trkpt lat="48.37656" lon="14.26863"><ele>737</ele><time>2026-05-27T05:34:22Z</time></trkpt>
    <trkpt lat="48.37694" lon="14.26847"><ele>740</ele><time>2026-05-27T05:34:50Z</time></trkpt>
    <trkpt lat="48.37736" lon="14.26847"><ele>741</ele><time>2026-05-27T05:35:18Z</time></trkpt>
    <trkpt lat="48.37783" lon="14.26827"><ele>745</ele><time>2026-05-27T05:35:46Z</time></trkpt>
    <trkpt lat="48.37820" lon="14.26769"><ele>746</ele><time>2026-05-27T05:36:14Z</time></trkpt>
    <trkpt lat="48.37860" lon="14.26711"><ele>748</ele><time>2026-05-27T05:36:42Z</time></trkpt>
    <trkpt lat="48.37895" lon="14.26659"><ele>753</ele><time>2026-05-27T05:37:10Z</time></trkpt>
    <trkpt lat="48.37903" lon="14.26598"><ele>759</ele><time>2026-05-27T05:37:38Z</time></trkpt>
    <trkpt lat="48.37892" lon="14.26546"><ele>763</ele><time>2026-05-27T05:38:06Z</time></trkpt>
    <trkpt lat="48.37880" lon="14.26528"><ele>766</ele><time>2026-05-27T05:38:34Z</time></trkpt>
    <trkpt lat="48.37875" lon="14.26503"><ele>769</ele><time>2026-05-27T05:39:02Z</time></trkpt>
    <trkpt lat="48.37879" lon="14.26485"><ele>769</ele><time>2026-05-27T05:39:30Z</time></trkpt>
    <trkpt lat="48.37880" lon="14.26448"><ele>773</ele><time>2026-05-27T05:39:58Z</time></trkpt>
    <trkpt lat="48.37885" lon="14.26405"><ele>779</ele><time>2026-05-27T05:40:26Z</time></trkpt>
    <trkpt lat="48.37878" lon="14.26357"><ele>782</ele><time>2026-05-27T05:40:54Z</time></trkpt>
    <trkpt lat="48.37874" lon="14.26307"><ele>789</ele><time>2026-05-27T05:41:22Z</time></trkpt>
    <trkpt lat="48.37883" lon="14.26278"><ele>792</ele><time>2026-05-27T05:41:50Z</time></trkpt>
    <trkpt lat="48.37896" lon="14.26247"><ele>793</ele><time>2026-05-27T05:42:18Z</time></trkpt>
    <trkpt lat="48.37901" lon="14.26232"><ele>794</ele><time>2026-05-27T05:42:46Z</time></trkpt>
    <trkpt lat="48.37912" lon="14.26200"><ele>802</ele><time>2026-05-27T05:43:42Z</time></trkpt>
    <trkpt lat="48.37937" lon="14.26154"><ele>806</ele><time>2026-05-27T05:44:10Z</time></trkpt>
    <trkpt lat="48.37967" lon="14.26126"><ele>813</ele><time>2026-05-27T05:44:38Z</time></trkpt>
    <trkpt lat="48.38013" lon="14.26111"><ele>812</ele><time>2026-05-27T05:45:06Z</time></trkpt>
    <trkpt lat="48.38062" lon="14.26098"><ele>813</ele><time>2026-05-27T05:45:34Z</time></trkpt>
    <trkpt lat="48.38132" lon="14.26120"><ele>813</ele><time>2026-05-27T05:46:02Z</time></trkpt>
    <trkpt lat="48.38177" lon="14.26156"><ele>818</ele><time>2026-05-27T05:46:30Z</time></trkpt>
    <trkpt lat="48.38214" lon="14.26207"><ele>822</ele><time>2026-05-27T05:46:58Z</time></trkpt>
    <trkpt lat="48.38255" lon="14.26229"><ele>825</ele><time>2026-05-27T05:47:26Z</time></trkpt>
    <trkpt lat="48.38306" lon="14.26251"><ele>827</ele><time>2026-05-27T05:47:54Z</time></trkpt>
    <trkpt lat="48.38358" lon="14.26260"><ele>831</ele><time>2026-05-27T05:48:22Z</time></trkpt>
    <trkpt lat="48.38399" lon="14.26261"><ele>833</ele><time>2026-05-27T05:48:50Z</time></trkpt>
    <trkpt lat="48.38444" lon="14.26258"><ele>837</ele><time>2026-05-27T05:49:18Z</time></trkpt>
    <trkpt lat="48.38481" lon="14.26240"><ele>840</ele><time>2026-05-27T05:49:46Z</time></trkpt>
    <trkpt lat="48.38517" lon="14.26226"><ele>842</ele><time>2026-05-27T05:50:14Z</time></trkpt>
    <trkpt lat="48.38552" lon="14.26208"><ele>844</ele><time>2026-05-27T05:50:42Z</time></trkpt>
    <trkpt lat="48.38603" lon="14.26177"><ele>844</ele><time>2026-05-27T05:51:10Z</time></trkpt>
    <trkpt lat="48.38653" lon="14.26120"><ele>845</ele><time>2026-05-27T05:52:34Z</time></trkpt>
    <trkpt lat="48.38735" lon="14.26036"><ele>848</ele><time>2026-05-27T05:53:02Z</time></trkpt>
    <trkpt lat="48.38798" lon="14.25943"><ele>847</ele><time>2026-05-27T05:53:30Z</time></trkpt>
    <trkpt lat="48.38825" lon="14.25905"><ele>846</ele><time>2026-05-27T05:53:58Z</time></trkpt>
    <trkpt lat="48.38817" lon="14.25924"><ele>844</ele><time>2026-05-27T05:54:26Z</time></trkpt>
    <trkpt lat="48.38827" lon="14.25906"><ele>845</ele><time>2026-05-27T05:54:54Z</time></trkpt>
    <trkpt lat="48.38858" lon="14.25858"><ele>846</ele><time>2026-05-27T05:57:14Z</time></trkpt>
    <trkpt lat="48.38911" lon="14.25756"><ele>848</ele><time>2026-05-27T05:57:42Z</time></trkpt>
    <trkpt lat="48.38960" lon="14.25658"><ele>851</ele><time>2026-05-27T05:58:10Z</time></trkpt>
    <trkpt lat="48.39009" lon="14.25562"><ele>852</ele><time>2026-05-27T05:58:38Z</time></trkpt>
    <trkpt lat="48.39059" lon="14.25481"><ele>858</ele><time>2026-05-27T05:59:06Z</time></trkpt>
    <trkpt lat="48.39113" lon="14.25410"><ele>862</ele><time>2026-05-27T05:59:34Z</time></trkpt>
    <trkpt lat="48.39148" lon="14.25344"><ele>864</ele><time>2026-05-27T06:00:02Z</time></trkpt>
    <trkpt lat="48.39164" lon="14.25260"><ele>865</ele><time>2026-05-27T06:00:30Z</time></trkpt>
    <trkpt lat="48.39190" lon="14.25181"><ele>867</ele><time>2026-05-27T06:00:58Z</time></trkpt>
    <trkpt lat="48.39210" lon="14.25151"><ele>872</ele><time>2026-05-27T06:01:26Z</time></trkpt>
    <trkpt lat="48.39309" lon="14.25103"><ele>880</ele><time>2026-05-27T06:01:54Z</time></trkpt>
    <trkpt lat="48.39399" lon="14.25033"><ele>880</ele><time>2026-05-27T06:02:22Z</time></trkpt>
    <trkpt lat="48.39455" lon="14.25065"><ele>882</ele><time>2026-05-27T06:02:50Z</time></trkpt>
    <trkpt lat="48.39520" lon="14.25102"><ele>884</ele><time>2026-05-27T06:03:18Z</time></trkpt>
    <trkpt lat="48.39587" lon="14.25114"><ele>887</ele><time>2026-05-27T06:03:46Z</time></trkpt>
    <trkpt lat="48.39674" lon="14.25088"><ele>889</ele><time>2026-05-27T06:04:14Z</time></trkpt>
    <trkpt lat="48.39757" lon="14.25028"><ele>893</ele><time>2026-05-27T06:04:42Z</time></trkpt>
    <trkpt lat="48.39808" lon="14.25024"><ele>895</ele><time>2026-05-27T06:05:10Z</time></trkpt>
    <trkpt lat="48.39793" lon="14.25014"><ele>896</ele><time>2026-05-27T06:06:34Z</time></trkpt>
    <trkpt lat="48.39804" lon="14.25022"><ele>896</ele><time>2026-05-27T06:07:02Z</time></trkpt>
    <trkpt lat="48.39833" lon="14.25018"><ele>897</ele><time>2026-05-27T06:07:30Z</time></trkpt>
    <trkpt lat="48.39881" lon="14.24994"><ele>899</ele><time>2026-05-27T06:07:58Z</time></trkpt>
    <trkpt lat="48.39997" lon="14.24818"><ele>893</ele><time>2026-05-27T06:08:26Z</time></trkpt>
    <trkpt lat="48.40138" lon="14.24782"><ele>875</ele><time>2026-05-27T06:08:54Z</time></trkpt>
    <trkpt lat="48.40126" lon="14.24766"><ele>873</ele><time>2026-05-27T06:09:22Z</time></trkpt>
    <trkpt lat="48.40140" lon="14.24769"><ele>869</ele><time>2026-05-27T06:09:50Z</time></trkpt>
    <trkpt lat="48.40216" lon="14.24781"><ele>866</ele><time>2026-05-27T06:10:46Z</time></trkpt>
    <trkpt lat="48.40329" lon="14.24804"><ele>868</ele><time>2026-05-27T06:11:14Z</time></trkpt>
    <trkpt lat="48.40425" lon="14.24844"><ele>863</ele><time>2026-05-27T06:11:42Z</time></trkpt>
    <trkpt lat="48.40561" lon="14.24856"><ele>864</ele><time>2026-05-27T06:12:10Z</time></trkpt>
    <trkpt lat="48.40590" lon="14.24847"><ele>863</ele><time>2026-05-27T06:12:38Z</time></trkpt>
    <trkpt lat="48.40594" lon="14.24860"><ele>865</ele><time>2026-05-27T06:13:06Z</time></trkpt>
    <trkpt lat="48.40716" lon="14.24887"><ele>860</ele><time>2026-05-27T06:13:34Z</time></trkpt>
    <trkpt lat="48.40823" lon="14.24932"><ele>848</ele><time>2026-05-27T06:14:02Z</time></trkpt>
    <trkpt lat="48.40836" lon="14.24922"><ele>847</ele><time>2026-05-27T06:14:30Z</time></trkpt>
    <trkpt lat="48.40863" lon="14.24843"><ele>843</ele><time>2026-05-27T06:14:58Z</time></trkpt>
    <trkpt lat="48.40915" lon="14.24708"><ele>835</ele><time>2026-05-27T06:15:26Z</time></trkpt>
    <trkpt lat="48.40969" lon="14.24570"><ele>831</ele><time>2026-05-27T06:15:54Z</time></trkpt>
    <trkpt lat="48.41008" lon="14.24407"><ele>830</ele><time>2026-05-27T06:16:22Z</time></trkpt>
    <trkpt lat="48.41024" lon="14.24281"><ele>831</ele><time>2026-05-27T06:16:50Z</time></trkpt>
    <trkpt lat="48.41037" lon="14.24220"><ele>830</ele><time>2026-05-27T06:17:18Z</time></trkpt>
    <trkpt lat="48.41154" lon="14.24284"><ele>824</ele><time>2026-05-27T06:17:46Z</time></trkpt>
    <trkpt lat="48.41275" lon="14.24273"><ele>813</ele><time>2026-05-27T06:18:14Z</time></trkpt>
    <trkpt lat="48.41368" lon="14.24200"><ele>791</ele><time>2026-05-27T06:18:42Z</time></trkpt>
    <trkpt lat="48.41382" lon="14.24233"><ele>784</ele><time>2026-05-27T06:19:10Z</time></trkpt>
    <trkpt lat="48.41491" lon="14.24283"><ele>765</ele><time>2026-05-27T06:19:38Z</time></trkpt>
    <trkpt lat="48.41655" lon="14.24204"><ele>744</ele><time>2026-05-27T06:20:06Z</time></trkpt>
    <trkpt lat="48.41679" lon="14.24246"><ele>742</ele><time>2026-05-27T06:20:34Z</time></trkpt>
    <trkpt lat="48.41678" lon="14.24230"><ele>740</ele><time>2026-05-27T06:21:02Z</time></trkpt>
    <trkpt lat="48.41643" lon="14.24191"><ele>743</ele><time>2026-05-27T06:21:30Z</time></trkpt>
    <trkpt lat="48.41670" lon="14.24116"><ele>742</ele><time>2026-05-27T06:21:58Z</time></trkpt>
    <trkpt lat="48.41879" lon="14.23874"><ele>718</ele><time>2026-05-27T06:22:26Z</time></trkpt>
    <trkpt lat="48.41898" lon="14.23880"><ele>715</ele><time>2026-05-27T06:22:54Z</time></trkpt>
    <trkpt lat="48.41850" lon="14.23949"><ele>716</ele><time>2026-05-27T06:23:22Z</time></trkpt>
    <trkpt lat="48.41810" lon="14.24053"><ele>718</ele><time>2026-05-27T06:23:50Z</time></trkpt>
    <trkpt lat="48.41808" lon="14.24172"><ele>719</ele><time>2026-05-27T06:24:18Z</time></trkpt>
    <trkpt lat="48.41833" lon="14.24246"><ele>719</ele><time>2026-05-27T06:24:46Z</time></trkpt>
    <trkpt lat="48.41915" lon="14.24228"><ele>702</ele><time>2026-05-27T06:25:14Z</time></trkpt>
    <trkpt lat="48.41956" lon="14.24209"><ele>698</ele><time>2026-05-27T06:25:42Z</time></trkpt>
    <trkpt lat="48.41972" lon="14.24193"><ele>689</ele><time>2026-05-27T06:26:10Z</time></trkpt>
    <trkpt lat="48.42024" lon="14.24304"><ele>673</ele><time>2026-05-27T06:30:50Z</time></trkpt>
    <trkpt lat="48.42046" lon="14.24157"><ele>666</ele><time>2026-05-27T06:31:18Z</time></trkpt>
    <trkpt lat="48.42106" lon="14.24114"><ele>664</ele><time>2026-05-27T06:31:46Z</time></trkpt>
    <trkpt lat="48.42183" lon="14.24030"><ele>660</ele><time>2026-05-27T06:32:14Z</time></trkpt>
    <trkpt lat="48.42268" lon="14.23899"><ele>656</ele><time>2026-05-27T06:32:42Z</time></trkpt>
    <trkpt lat="48.42330" lon="14.23833"><ele>651</ele><time>2026-05-27T06:33:10Z</time></trkpt>
    <trkpt lat="48.42413" lon="14.23774"><ele>635</ele><time>2026-05-27T06:33:38Z</time></trkpt>
    <trkpt lat="48.42486" lon="14.23695"><ele>609</ele><time>2026-05-27T06:34:06Z</time></trkpt>
    <trkpt lat="48.42521" lon="14.23710"><ele>594</ele><time>2026-05-27T06:35:30Z</time></trkpt>
    <trkpt lat="48.42706" lon="14.23763"><ele>578</ele><time>2026-05-27T06:35:58Z</time></trkpt>
    <trkpt lat="48.42839" lon="14.23745"><ele>577</ele><time>2026-05-27T06:36:26Z</time></trkpt>
    <trkpt lat="48.42928" lon="14.23782"><ele>578</ele><time>2026-05-27T06:36:54Z</time></trkpt>
    <trkpt lat="48.42996" lon="14.23829"><ele>584</ele><time>2026-05-27T06:37:22Z</time></trkpt>
    <trkpt lat="48.43045" lon="14.23863"><ele>588</ele><time>2026-05-27T06:37:50Z</time></trkpt>
    <trkpt lat="48.43089" lon="14.23909"><ele>593</ele><time>2026-05-27T06:38:18Z</time></trkpt>
    <trkpt lat="48.43115" lon="14.23984"><ele>599</ele><time>2026-05-27T06:38:46Z</time></trkpt>
    <trkpt lat="48.43149" lon="14.24057"><ele>603</ele><time>2026-05-27T06:39:14Z</time></trkpt>
    <trkpt lat="48.43206" lon="14.24119"><ele>607</ele><time>2026-05-27T06:39:42Z</time></trkpt>
    <trkpt lat="48.43263" lon="14.24176"><ele>612</ele><time>2026-05-27T06:40:10Z</time></trkpt>
    <trkpt lat="48.43322" lon="14.24241"><ele>615</ele><time>2026-05-27T06:40:38Z</time></trkpt>
    <trkpt lat="48.43368" lon="14.24355"><ele>618</ele><time>2026-05-27T06:41:06Z</time></trkpt>
    <trkpt lat="48.43411" lon="14.24396"><ele>617</ele><time>2026-05-27T06:41:34Z</time></trkpt>
    <trkpt lat="48.43541" lon="14.24535"><ele>599</ele><time>2026-05-27T06:42:02Z</time></trkpt>
    <trkpt lat="48.43637" lon="14.24514"><ele>596</ele><time>2026-05-27T06:42:30Z</time></trkpt>
    <trkpt lat="48.43721" lon="14.24506"><ele>597</ele><time>2026-05-27T06:42:58Z</time></trkpt>
    <trkpt lat="48.43845" lon="14.24512"><ele>596</ele><time>2026-05-27T06:43:26Z</time></trkpt>
    <trkpt lat="48.43954" lon="14.24542"><ele>594</ele><time>2026-05-27T06:43:54Z</time></trkpt>
    <trkpt lat="48.44047" lon="14.24601"><ele>594</ele><time>2026-05-27T06:44:22Z</time></trkpt>
    <trkpt lat="48.44117" lon="14.24637"><ele>597</ele><time>2026-05-27T06:44:50Z</time></trkpt>
    <trkpt lat="48.44139" lon="14.24729"><ele>598</ele><time>2026-05-27T06:45:18Z</time></trkpt>
    <trkpt lat="48.44131" lon="14.24875"><ele>599</ele><time>2026-05-27T06:45:46Z</time></trkpt>
    <trkpt lat="48.44119" lon="14.24915"><ele>599</ele><time>2026-05-27T06:46:14Z</time></trkpt>
    <trkpt lat="48.44145" lon="14.24844"><ele>603</ele><time>2026-05-27T06:46:42Z</time></trkpt>
    <trkpt lat="48.44178" lon="14.24857"><ele>609</ele><time>2026-05-27T06:47:10Z</time></trkpt>
    <trkpt lat="48.44197" lon="14.24902"><ele>615</ele><time>2026-05-27T06:47:38Z</time></trkpt>
    <trkpt lat="48.44217" lon="14.24952"><ele>618</ele><time>2026-05-27T06:48:06Z</time></trkpt>
    <trkpt lat="48.44244" lon="14.25010"><ele>622</ele><time>2026-05-27T06:48:34Z</time></trkpt>
    <trkpt lat="48.44297" lon="14.25059"><ele>620</ele><time>2026-05-27T06:49:02Z</time></trkpt>
    <trkpt lat="48.44330" lon="14.25068"><ele>615</ele><time>2026-05-27T06:49:30Z</time></trkpt>
    <trkpt lat="48.44352" lon="14.25064"><ele>612</ele><time>2026-05-27T06:49:58Z</time></trkpt>
    <trkpt lat="48.44398" lon="14.25083"><ele>610</ele><time>2026-05-27T06:50:54Z</time></trkpt>
    <trkpt lat="48.44449" lon="14.25081"><ele>612</ele><time>2026-05-27T06:51:22Z</time></trkpt>
    <trkpt lat="48.44521" lon="14.25124"><ele>606</ele><time>2026-05-27T06:51:50Z</time></trkpt>
    <trkpt lat="48.44566" lon="14.25136"><ele>603</ele><time>2026-05-27T06:52:18Z</time></trkpt>
    <trkpt lat="48.44619" lon="14.25257"><ele>600</ele><time>2026-05-27T06:52:46Z</time></trkpt>
    <trkpt lat="48.44612" lon="14.25381"><ele>599</ele><time>2026-05-27T06:53:14Z</time></trkpt>
    <trkpt lat="48.44621" lon="14.25519"><ele>600</ele><time>2026-05-27T06:53:42Z</time></trkpt>
    <trkpt lat="48.44673" lon="14.25634"><ele>602</ele><time>2026-05-27T06:54:10Z</time></trkpt>
    <trkpt lat="48.44711" lon="14.25733"><ele>604</ele><time>2026-05-27T06:54:38Z</time></trkpt>
    <trkpt lat="48.44735" lon="14.25817"><ele>606</ele><time>2026-05-27T06:55:06Z</time></trkpt>
    <trkpt lat="48.44741" lon="14.25846"><ele>603</ele><time>2026-05-27T06:55:34Z</time></trkpt>
    <trkpt lat="48.44740" lon="14.25816"><ele>606</ele><time>2026-05-27T06:56:02Z</time></trkpt>
    <trkpt lat="48.44788" lon="14.25800"><ele>611</ele><time>2026-05-27T06:56:30Z</time></trkpt>
    <trkpt lat="48.44827" lon="14.25791"><ele>616</ele><time>2026-05-27T06:56:58Z</time></trkpt>
    <trkpt lat="48.44869" lon="14.25763"><ele>618</ele><time>2026-05-27T06:57:26Z</time></trkpt>
    <trkpt lat="48.44902" lon="14.25721"><ele>624</ele><time>2026-05-27T06:57:54Z</time></trkpt>
    <trkpt lat="48.44968" lon="14.25681"><ele>628</ele><time>2026-05-27T06:58:22Z</time></trkpt>
    <trkpt lat="48.45017" lon="14.25684"><ele>630</ele><time>2026-05-27T06:58:50Z</time></trkpt>
    <trkpt lat="48.45134" lon="14.25772"><ele>618</ele><time>2026-05-27T07:01:38Z</time></trkpt>
    <trkpt lat="48.45226" lon="14.25860"><ele>619</ele><time>2026-05-27T07:02:06Z</time></trkpt>
    <trkpt lat="48.45303" lon="14.25887"><ele>616</ele><time>2026-05-27T07:02:34Z</time></trkpt>
    <trkpt lat="48.45315" lon="14.25905"><ele>616</ele><time>2026-05-27T07:03:02Z</time></trkpt>
    <trkpt lat="48.45393" lon="14.25881"><ele>610</ele><time>2026-05-27T07:03:30Z</time></trkpt>
    <trkpt lat="48.45440" lon="14.25777"><ele>612</ele><time>2026-05-27T07:03:58Z</time></trkpt>
    <trkpt lat="48.45459" lon="14.25673"><ele>615</ele><time>2026-05-27T07:04:26Z</time></trkpt>
    <trkpt lat="48.45489" lon="14.25594"><ele>617</ele><time>2026-05-27T07:04:54Z</time></trkpt>
    <trkpt lat="48.45514" lon="14.25535"><ele>619</ele><time>2026-05-27T07:05:50Z</time></trkpt>
    <trkpt lat="48.45546" lon="14.25514"><ele>620</ele><time>2026-05-27T07:06:18Z</time></trkpt>
    <trkpt lat="48.45604" lon="14.25500"><ele>624</ele><time>2026-05-27T07:06:46Z</time></trkpt>
    <trkpt lat="48.45638" lon="14.25468"><ele>634</ele><time>2026-05-27T07:07:14Z</time></trkpt>
    <trkpt lat="48.45639" lon="14.25431"><ele>640</ele><time>2026-05-27T07:07:42Z</time></trkpt>
    <trkpt lat="48.45680" lon="14.25420"><ele>641</ele><time>2026-05-27T07:09:06Z</time></trkpt>
    <trkpt lat="48.45801" lon="14.25460"><ele>643</ele><time>2026-05-27T07:09:34Z</time></trkpt>
    <trkpt lat="48.45890" lon="14.25601"><ele>647</ele><time>2026-05-27T07:10:02Z</time></trkpt>
    <trkpt lat="48.45895" lon="14.25711"><ele>653</ele><time>2026-05-27T07:10:30Z</time></trkpt>
    <trkpt lat="48.45906" lon="14.25856"><ele>652</ele><time>2026-05-27T07:10:58Z</time></trkpt>
    <trkpt lat="48.45960" lon="14.26004"><ele>657</ele><time>2026-05-27T07:11:26Z</time></trkpt>
    <trkpt lat="48.46093" lon="14.26141"><ele>651</ele><time>2026-05-27T07:11:54Z</time></trkpt>
    <trkpt lat="48.46179" lon="14.26358"><ele>653</ele><time>2026-05-27T07:12:22Z</time></trkpt>
    <trkpt lat="48.46318" lon="14.26551"><ele>640</ele><time>2026-05-27T07:12:50Z</time></trkpt>
    <trkpt lat="48.46431" lon="14.26716"><ele>626</ele><time>2026-05-27T07:13:18Z</time></trkpt>
    <trkpt lat="48.46506" lon="14.26821"><ele>620</ele><time>2026-05-27T07:13:46Z</time></trkpt>
    <trkpt lat="48.46545" lon="14.26710"><ele>623</ele><time>2026-05-27T07:14:14Z</time></trkpt>
    <trkpt lat="48.46585" lon="14.26560"><ele>625</ele><time>2026-05-27T07:14:42Z</time></trkpt>
    <trkpt lat="48.46623" lon="14.26450"><ele>629</ele><time>2026-05-27T07:15:10Z</time></trkpt>
    <trkpt lat="48.46653" lon="14.26355"><ele>634</ele><time>2026-05-27T07:15:38Z</time></trkpt>
    <trkpt lat="48.46712" lon="14.26204"><ele>633</ele><time>2026-05-27T07:16:06Z</time></trkpt>
    <trkpt lat="48.46729" lon="14.26041"><ele>636</ele><time>2026-05-27T07:16:34Z</time></trkpt>
    <trkpt lat="48.46725" lon="14.25919"><ele>643</ele><time>2026-05-27T07:17:02Z</time></trkpt>
    <trkpt lat="48.46750" lon="14.25848"><ele>646</ele><time>2026-05-27T07:17:30Z</time></trkpt>
    <trkpt lat="48.46780" lon="14.25811"><ele>652</ele><time>2026-05-27T07:17:58Z</time></trkpt>
    <trkpt lat="48.46817" lon="14.25759"><ele>656</ele><time>2026-05-27T07:18:26Z</time></trkpt>
    <trkpt lat="48.46868" lon="14.25694"><ele>657</ele><time>2026-05-27T07:18:54Z</time></trkpt>
    <trkpt lat="48.46906" lon="14.25609"><ele>660</ele><time>2026-05-27T07:19:22Z</time></trkpt>
    <trkpt lat="48.46928" lon="14.25458"><ele>661</ele><time>2026-05-27T07:19:50Z</time></trkpt>
    <trkpt lat="48.46953" lon="14.25408"><ele>665</ele><time>2026-05-27T07:20:18Z</time></trkpt>
    <trkpt lat="48.46976" lon="14.25364"><ele>672</ele><time>2026-05-27T07:20:46Z</time></trkpt>
    <trkpt lat="48.47008" lon="14.25325"><ele>675</ele><time>2026-05-27T07:21:14Z</time></trkpt>
    <trkpt lat="48.47034" lon="14.25270"><ele>678</ele><time>2026-05-27T07:21:42Z</time></trkpt>
    <trkpt lat="48.47033" lon="14.25206"><ele>686</ele><time>2026-05-27T07:22:10Z</time></trkpt>
    <trkpt lat="48.47022" lon="14.25100"><ele>687</ele><time>2026-05-27T07:22:38Z</time></trkpt>
    <trkpt lat="48.46995" lon="14.24963"><ele>689</ele><time>2026-05-27T07:23:06Z</time></trkpt>
    <trkpt lat="48.47003" lon="14.24900"><ele>694</ele><time>2026-05-27T07:23:34Z</time></trkpt>
    <trkpt lat="48.47006" lon="14.24829"><ele>697</ele><time>2026-05-27T07:24:02Z</time></trkpt>
    <trkpt lat="48.46985" lon="14.24712"><ele>700</ele><time>2026-05-27T07:24:30Z</time></trkpt>
    <trkpt lat="48.46971" lon="14.24596"><ele>698</ele><time>2026-05-27T07:24:58Z</time></trkpt>
    <trkpt lat="48.46995" lon="14.24452"><ele>698</ele><time>2026-05-27T07:25:26Z</time></trkpt>
    <trkpt lat="48.47041" lon="14.24229"><ele>683</ele><time>2026-05-27T07:25:54Z</time></trkpt>
    <trkpt lat="48.47063" lon="14.24227"><ele>683</ele><time>2026-05-27T07:33:50Z</time></trkpt>
    <trkpt lat="48.47142" lon="14.24280"><ele>686</ele><time>2026-05-27T07:34:18Z</time></trkpt>
    <trkpt lat="48.47221" lon="14.24268"><ele>689</ele><time>2026-05-27T07:34:46Z</time></trkpt>
    <trkpt lat="48.47237" lon="14.24153"><ele>693</ele><time>2026-05-27T07:35:14Z</time></trkpt>
    <trkpt lat="48.47245" lon="14.24074"><ele>698</ele><time>2026-05-27T07:35:42Z</time></trkpt>
    <trkpt lat="48.47265" lon="14.23998"><ele>702</ele><time>2026-05-27T07:36:10Z</time></trkpt>
    <trkpt lat="48.47289" lon="14.23915"><ele>706</ele><time>2026-05-27T07:36:38Z</time></trkpt>
    <trkpt lat="48.47328" lon="14.23780"><ele>705</ele><time>2026-05-27T07:37:06Z</time></trkpt>
    <trkpt lat="48.47402" lon="14.23770"><ele>708</ele><time>2026-05-27T07:37:34Z</time></trkpt>
    <trkpt lat="48.47454" lon="14.23670"><ele>709</ele><time>2026-05-27T07:38:02Z</time></trkpt>
    <trkpt lat="48.47501" lon="14.23567"><ele>711</ele><time>2026-05-27T07:38:30Z</time></trkpt>
    <trkpt lat="48.47548" lon="14.23486"><ele>713</ele><time>2026-05-27T07:38:58Z</time></trkpt>
    <trkpt lat="48.47604" lon="14.23397"><ele>713</ele><time>2026-05-27T07:39:26Z</time></trkpt>
    <trkpt lat="48.47657" lon="14.23325"><ele>714</ele><time>2026-05-27T07:39:54Z</time></trkpt>
    <trkpt lat="48.47691" lon="14.23252"><ele>718</ele><time>2026-05-27T07:40:22Z</time></trkpt>
    <trkpt lat="48.47717" lon="14.23157"><ele>722</ele><time>2026-05-27T07:40:50Z</time></trkpt>
    <trkpt lat="48.47782" lon="14.23119"><ele>726</ele><time>2026-05-27T07:41:18Z</time></trkpt>
    <trkpt lat="48.47871" lon="14.23107"><ele>729</ele><time>2026-05-27T07:41:46Z</time></trkpt>
    <trkpt lat="48.47940" lon="14.23122"><ele>734</ele><time>2026-05-27T07:42:14Z</time></trkpt>
    <trkpt lat="48.47982" lon="14.23054"><ele>738</ele><time>2026-05-27T07:42:42Z</time></trkpt>
    <trkpt lat="48.48001" lon="14.22977"><ele>741</ele><time>2026-05-27T07:43:10Z</time></trkpt>
    <trkpt lat="48.48050" lon="14.22884"><ele>742</ele><time>2026-05-27T07:43:38Z</time></trkpt>
    <trkpt lat="48.48118" lon="14.22828"><ele>744</ele><time>2026-05-27T07:44:06Z</time></trkpt>
    <trkpt lat="48.48167" lon="14.22776"><ele>747</ele><time>2026-05-27T07:44:34Z</time></trkpt>
    <trkpt lat="48.48155" lon="14.22675"><ele>752</ele><time>2026-05-27T07:45:02Z</time></trkpt>
    <trkpt lat="48.48161" lon="14.22585"><ele>757</ele><time>2026-05-27T07:45:30Z</time></trkpt>
    <trkpt lat="48.48168" lon="14.22497"><ele>760</ele><time>2026-05-27T07:45:58Z</time></trkpt>
    <trkpt lat="48.48157" lon="14.22436"><ele>764</ele><time>2026-05-27T07:46:26Z</time></trkpt>
    <trkpt lat="48.48147" lon="14.22383"><ele>770</ele><time>2026-05-27T07:46:54Z</time></trkpt>
    <trkpt lat="48.48133" lon="14.22329"><ele>774</ele><time>2026-05-27T07:47:22Z</time></trkpt>
    <trkpt lat="48.48112" lon="14.22278"><ele>778</ele><time>2026-05-27T07:47:50Z</time></trkpt>
    <trkpt lat="48.48084" lon="14.22217"><ele>780</ele><time>2026-05-27T07:48:18Z</time></trkpt>
    <trkpt lat="48.48081" lon="14.22129"><ele>782</ele><time>2026-05-27T07:48:46Z</time></trkpt>
    <trkpt lat="48.48077" lon="14.21974"><ele>785</ele><time>2026-05-27T07:49:14Z</time></trkpt>
    <trkpt lat="48.48133" lon="14.21876"><ele>784</ele><time>2026-05-27T07:49:42Z</time></trkpt>
    <trkpt lat="48.48218" lon="14.21921"><ele>788</ele><time>2026-05-27T07:50:10Z</time></trkpt>
    <trkpt lat="48.48347" lon="14.21966"><ele>789</ele><time>2026-05-27T07:50:38Z</time></trkpt>
    <trkpt lat="48.48407" lon="14.21876"><ele>792</ele><time>2026-05-27T07:51:06Z</time></trkpt>
    <trkpt lat="48.48477" lon="14.21816"><ele>793</ele><time>2026-05-27T07:51:34Z</time></trkpt>
    <trkpt lat="48.48579" lon="14.21731"><ele>795</ele><time>2026-05-27T07:52:02Z</time></trkpt>
    <trkpt lat="48.48641" lon="14.21654"><ele>796</ele><time>2026-05-27T07:52:30Z</time></trkpt>
    <trkpt lat="48.48707" lon="14.21601"><ele>798</ele><time>2026-05-27T07:52:58Z</time></trkpt>
    <trkpt lat="48.48762" lon="14.21541"><ele>801</ele><time>2026-05-27T07:53:26Z</time></trkpt>
    <trkpt lat="48.48832" lon="14.21472"><ele>801</ele><time>2026-05-27T07:53:54Z</time></trkpt>
    <trkpt lat="48.48874" lon="14.21430"><ele>800</ele><time>2026-05-27T07:54:22Z</time></trkpt>
    <trkpt lat="48.48884" lon="14.21449"><ele>801</ele><time>2026-05-27T07:54:50Z</time></trkpt>
    <trkpt lat="48.48941" lon="14.21544"><ele>801</ele><time>2026-05-27T07:55:18Z</time></trkpt>
    <trkpt lat="48.48973" lon="14.21697"><ele>797</ele><time>2026-05-27T07:55:46Z</time></trkpt>
    <trkpt lat="48.49024" lon="14.21828"><ele>786</ele><time>2026-05-27T07:56:14Z</time></trkpt>
    <trkpt lat="48.49099" lon="14.21999"><ele>769</ele><time>2026-05-27T07:59:30Z</time></trkpt>
    <trkpt lat="48.49149" lon="14.22149"><ele>764</ele><time>2026-05-27T07:59:58Z</time></trkpt>
    <trkpt lat="48.49145" lon="14.22347"><ele>763</ele><time>2026-05-27T08:00:26Z</time></trkpt>
    <trkpt lat="48.49160" lon="14.22581"><ele>760</ele><time>2026-05-27T08:00:54Z</time></trkpt>
    <trkpt lat="48.49227" lon="14.22729"><ele>749</ele><time>2026-05-27T08:01:22Z</time></trkpt>
    <trkpt lat="48.49269" lon="14.22839"><ele>747</ele><time>2026-05-27T08:01:50Z</time></trkpt>
    <trkpt lat="48.49317" lon="14.22950"><ele>752</ele><time>2026-05-27T08:02:18Z</time></trkpt>
    <trkpt lat="48.49359" lon="14.23049"><ele>754</ele><time>2026-05-27T08:02:46Z</time></trkpt>
    <trkpt lat="48.49420" lon="14.23114"><ele>758</ele><time>2026-05-27T08:03:14Z</time></trkpt>
    <trkpt lat="48.49482" lon="14.23069"><ele>760</ele><time>2026-05-27T08:03:42Z</time></trkpt>
    <trkpt lat="48.49498" lon="14.22988"><ele>760</ele><time>2026-05-27T08:04:10Z</time></trkpt>
    <trkpt lat="48.49505" lon="14.22945"><ele>761</ele><time>2026-05-27T08:04:38Z</time></trkpt>
    <trkpt lat="48.49536" lon="14.22809"><ele>765</ele><time>2026-05-27T08:05:06Z</time></trkpt>
    <trkpt lat="48.49560" lon="14.22645"><ele>766</ele><time>2026-05-27T08:05:34Z</time></trkpt>
    <trkpt lat="48.49688" lon="14.22633"><ele>764</ele><time>2026-05-27T08:06:02Z</time></trkpt>
    <trkpt lat="48.49862" lon="14.22622"><ele>759</ele><time>2026-05-27T08:06:30Z</time></trkpt>
    <trkpt lat="48.50078" lon="14.22650"><ele>742</ele><time>2026-05-27T08:06:58Z</time></trkpt>
    <trkpt lat="48.50172" lon="14.22674"><ele>742</ele><time>2026-05-27T08:07:26Z</time></trkpt>
    <trkpt lat="48.50234" lon="14.22634"><ele>748</ele><time>2026-05-27T08:07:54Z</time></trkpt>
    <trkpt lat="48.50331" lon="14.22622"><ele>749</ele><time>2026-05-27T08:08:22Z</time></trkpt>
    <trkpt lat="48.50363" lon="14.22633"><ele>750</ele><time>2026-05-27T08:08:50Z</time></trkpt>
    <trkpt lat="48.50416" lon="14.22697"><ele>753</ele><time>2026-05-27T08:09:18Z</time></trkpt>
    <trkpt lat="48.50477" lon="14.22780"><ele>760</ele><time>2026-05-27T08:09:46Z</time></trkpt>
    <trkpt lat="48.50533" lon="14.22922"><ele>750</ele><time>2026-05-27T08:10:14Z</time></trkpt>
    <trkpt lat="48.50590" lon="14.22861"><ele>740</ele><time>2026-05-27T08:10:42Z</time></trkpt>
    <trkpt lat="48.50640" lon="14.22747"><ele>736</ele><time>2026-05-27T08:11:10Z</time></trkpt>
    <trkpt lat="48.50688" lon="14.22737"><ele>738</ele><time>2026-05-27T08:11:38Z</time></trkpt>
    <trkpt lat="48.50754" lon="14.22694"><ele>736</ele><time>2026-05-27T08:12:06Z</time></trkpt>
    <trkpt lat="48.50820" lon="14.22651"><ele>738</ele><time>2026-05-27T08:12:34Z</time></trkpt>
    <trkpt lat="48.50893" lon="14.22558"><ele>737</ele><time>2026-05-27T08:13:02Z</time></trkpt>
    <trkpt lat="48.50996" lon="14.22540"><ele>736</ele><time>2026-05-27T08:13:30Z</time></trkpt>
    <trkpt lat="48.51043" lon="14.22494"><ele>736</ele><time>2026-05-27T08:13:58Z</time></trkpt>
    <trkpt lat="48.51085" lon="14.22438"><ele>739</ele><time>2026-05-27T08:14:26Z</time></trkpt>
    <trkpt lat="48.51110" lon="14.22390"><ele>741</ele><time>2026-05-27T08:14:54Z</time></trkpt>
    <trkpt lat="48.51139" lon="14.22349"><ele>744</ele><time>2026-05-27T08:15:22Z</time></trkpt>
    <trkpt lat="48.51170" lon="14.22326"><ele>753</ele><time>2026-05-27T08:15:50Z</time></trkpt>
    <trkpt lat="48.51201" lon="14.22286"><ele>757</ele><time>2026-05-27T08:16:18Z</time></trkpt>
    <trkpt lat="48.51219" lon="14.22211"><ele>758</ele><time>2026-05-27T08:16:46Z</time></trkpt>
    <trkpt lat="48.51264" lon="14.22159"><ele>759</ele><time>2026-05-27T08:17:14Z</time></trkpt>
    <trkpt lat="48.51269" lon="14.22134"><ele>760</ele><time>2026-05-27T08:17:42Z</time></trkpt>
    <trkpt lat="48.51287" lon="14.22109"><ele>762</ele><time>2026-05-27T08:22:22Z</time></trkpt>
    <trkpt lat="48.51318" lon="14.22064"><ele>765</ele><time>2026-05-27T08:22:50Z</time></trkpt>
    <trkpt lat="48.51350" lon="14.22011"><ele>773</ele><time>2026-05-27T08:23:18Z</time></trkpt>
    <trkpt lat="48.51391" lon="14.21964"><ele>776</ele><time>2026-05-27T08:23:46Z</time></trkpt>
    <trkpt lat="48.51428" lon="14.21919"><ele>777</ele><time>2026-05-27T08:24:14Z</time></trkpt>
    <trkpt lat="48.51494" lon="14.21875"><ele>780</ele><time>2026-05-27T08:24:42Z</time></trkpt>
    <trkpt lat="48.51539" lon="14.21811"><ele>780</ele><time>2026-05-27T08:25:10Z</time></trkpt>
    <trkpt lat="48.51585" lon="14.21732"><ele>781</ele><time>2026-05-27T08:25:38Z</time></trkpt>
    <trkpt lat="48.51694" lon="14.21643"><ele>781</ele><time>2026-05-27T08:26:06Z</time></trkpt>
    <trkpt lat="48.51780" lon="14.21689"><ele>781</ele><time>2026-05-27T08:26:34Z</time></trkpt>
    <trkpt lat="48.51792" lon="14.21806"><ele>781</ele><time>2026-05-27T08:27:02Z</time></trkpt>
    <trkpt lat="48.51840" lon="14.21962"><ele>770</ele><time>2026-05-27T08:27:30Z</time></trkpt>
    <trkpt lat="48.51890" lon="14.22003"><ele>774</ele><time>2026-05-27T08:27:58Z</time></trkpt>
    <trkpt lat="48.51873" lon="14.22064"><ele>777</ele><time>2026-05-27T08:29:22Z</time></trkpt>
    <trkpt lat="48.51885" lon="14.22131"><ele>782</ele><time>2026-05-27T08:29:50Z</time></trkpt>
    <trkpt lat="48.51890" lon="14.22196"><ele>787</ele><time>2026-05-27T08:30:18Z</time></trkpt>
    <trkpt lat="48.51902" lon="14.22258"><ele>790</ele><time>2026-05-27T08:30:46Z</time></trkpt>
    <trkpt lat="48.51919" lon="14.22319"><ele>795</ele><time>2026-05-27T08:31:14Z</time></trkpt>
    <trkpt lat="48.51924" lon="14.22375"><ele>799</ele><time>2026-05-27T08:31:42Z</time></trkpt>
    <trkpt lat="48.51917" lon="14.22408"><ele>798</ele><time>2026-05-27T08:32:10Z</time></trkpt>
    <trkpt lat="48.51898" lon="14.22434"><ele>801</ele><time>2026-05-27T08:32:38Z</time></trkpt>
    <trkpt lat="48.51902" lon="14.22467"><ele>804</ele><time>2026-05-27T08:33:06Z</time></trkpt>
    <trkpt lat="48.51914" lon="14.22552"><ele>805</ele><time>2026-05-27T08:33:34Z</time></trkpt>
    <trkpt lat="48.51915" lon="14.22661"><ele>805</ele><time>2026-05-27T08:34:02Z</time></trkpt>
    <trkpt lat="48.51926" lon="14.22770"><ele>808</ele><time>2026-05-27T08:34:30Z</time></trkpt>
    <trkpt lat="48.51957" lon="14.22865"><ele>811</ele><time>2026-05-27T08:34:58Z</time></trkpt>
    <trkpt lat="48.51980" lon="14.22986"><ele>814</ele><time>2026-05-27T08:35:26Z</time></trkpt>
    <trkpt lat="48.52007" lon="14.23078"><ele>815</ele><time>2026-05-27T08:35:54Z</time></trkpt>
    <trkpt lat="48.52023" lon="14.23236"><ele>811</ele><time>2026-05-27T08:36:22Z</time></trkpt>
    <trkpt lat="48.52050" lon="14.23423"><ele>805</ele><time>2026-05-27T08:36:50Z</time></trkpt>
    <trkpt lat="48.52135" lon="14.23507"><ele>801</ele><time>2026-05-27T08:37:18Z</time></trkpt>
    <trkpt lat="48.52195" lon="14.23548"><ele>803</ele><time>2026-05-27T08:37:46Z</time></trkpt>
    <trkpt lat="48.52259" lon="14.23590"><ele>806</ele><time>2026-05-27T08:38:14Z</time></trkpt>
    <trkpt lat="48.52316" lon="14.23599"><ele>811</ele><time>2026-05-27T08:38:42Z</time></trkpt>
    <trkpt lat="48.52360" lon="14.23618"><ele>814</ele><time>2026-05-27T08:39:10Z</time></trkpt>
    <trkpt lat="48.52376" lon="14.23709"><ele>816</ele><time>2026-05-27T08:39:38Z</time></trkpt>
    <trkpt lat="48.52367" lon="14.23838"><ele>816</ele><time>2026-05-27T08:40:06Z</time></trkpt>
    <trkpt lat="48.52350" lon="14.23970"><ele>816</ele><time>2026-05-27T08:40:34Z</time></trkpt>
    <trkpt lat="48.52302" lon="14.24116"><ele>817</ele><time>2026-05-27T08:41:02Z</time></trkpt>
    <trkpt lat="48.52268" lon="14.24236"><ele>814</ele><time>2026-05-27T08:41:30Z</time></trkpt>
    <trkpt lat="48.52268" lon="14.24367"><ele>815</ele><time>2026-05-27T08:41:58Z</time></trkpt>
    <trkpt lat="48.52189" lon="14.24410"><ele>819</ele><time>2026-05-27T08:42:26Z</time></trkpt>
    <trkpt lat="48.52139" lon="14.24517"><ele>821</ele><time>2026-05-27T08:42:54Z</time></trkpt>
    <trkpt lat="48.52109" lon="14.24648"><ele>821</ele><time>2026-05-27T08:43:22Z</time></trkpt>
    <trkpt lat="48.52090" lon="14.24779"><ele>822</ele><time>2026-05-27T08:43:50Z</time></trkpt>
    <trkpt lat="48.52090" lon="14.24899"><ele>823</ele><time>2026-05-27T08:44:18Z</time></trkpt>
    <trkpt lat="48.52083" lon="14.25012"><ele>825</ele><time>2026-05-27T08:44:46Z</time></trkpt>
    <trkpt lat="48.52073" lon="14.25056"><ele>827</ele><time>2026-05-27T08:45:14Z</time></trkpt>
    <trkpt lat="48.52044" lon="14.25130"><ele>827</ele><time>2026-05-27T08:45:42Z</time></trkpt>
    <trkpt lat="48.52057" lon="14.25100"><ele>826</ele><time>2026-05-27T08:46:10Z</time></trkpt>
    <trkpt lat="48.52057" lon="14.25155"><ele>833</ele><time>2026-05-27T08:46:38Z</time></trkpt>
    <trkpt lat="48.52043" lon="14.25228"><ele>836</ele><time>2026-05-27T08:47:06Z</time></trkpt>
    <trkpt lat="48.52028" lon="14.25300"><ele>841</ele><time>2026-05-27T08:47:34Z</time></trkpt>
    <trkpt lat="48.52016" lon="14.25379"><ele>845</ele><time>2026-05-27T08:48:02Z</time></trkpt>
    <trkpt lat="48.52001" lon="14.25462"><ele>846</ele><time>2026-05-27T08:48:30Z</time></trkpt>
    <trkpt lat="48.51985" lon="14.25553"><ele>845</ele><time>2026-05-27T08:48:58Z</time></trkpt>
    <trkpt lat="48.51964" lon="14.25649"><ele>844</ele><time>2026-05-27T08:49:26Z</time></trkpt>
    <trkpt lat="48.51948" lon="14.25757"><ele>841</ele><time>2026-05-27T08:49:54Z</time></trkpt>
    <trkpt lat="48.51932" lon="14.25823"><ele>840</ele><time>2026-05-27T08:50:22Z</time></trkpt>
    <trkpt lat="48.51923" lon="14.25827"><ele>836</ele><time>2026-05-27T08:52:14Z</time></trkpt>
    <trkpt lat="48.51889" lon="14.25817"><ele>837</ele><time>2026-05-27T08:52:42Z</time></trkpt>
    <trkpt lat="48.51877" lon="14.25852"><ele>842</ele><time>2026-05-27T09:10:54Z</time></trkpt>
    <trkpt lat="48.51899" lon="14.25991"><ele>837</ele><time>2026-05-27T09:11:22Z</time></trkpt>
    <trkpt lat="48.51912" lon="14.26214"><ele>816</ele><time>2026-05-27T09:11:50Z</time></trkpt>
    <trkpt lat="48.51923" lon="14.26292"><ele>813</ele><time>2026-05-27T09:12:18Z</time></trkpt>
    <trkpt lat="48.51996" lon="14.26421"><ele>812</ele><time>2026-05-27T09:12:46Z</time></trkpt>
    <trkpt lat="48.52000" lon="14.26455"><ele>810</ele><time>2026-05-27T09:13:14Z</time></trkpt>
    <trkpt lat="48.51928" lon="14.26573"><ele>804</ele><time>2026-05-27T09:13:42Z</time></trkpt>
    <trkpt lat="48.51921" lon="14.26817"><ele>790</ele><time>2026-05-27T09:14:10Z</time></trkpt>
    <trkpt lat="48.51927" lon="14.27113"><ele>767</ele><time>2026-05-27T09:14:38Z</time></trkpt>
    <trkpt lat="48.51942" lon="14.27490"><ele>744</ele><time>2026-05-27T09:15:06Z</time></trkpt>
    <trkpt lat="48.52113" lon="14.27795"><ele>718</ele><time>2026-05-27T09:15:34Z</time></trkpt>
    <trkpt lat="48.52233" lon="14.27975"><ele>723</ele><time>2026-05-27T09:16:02Z</time></trkpt>
    <trkpt lat="48.52288" lon="14.28034"><ele>726</ele><time>2026-05-27T09:16:30Z</time></trkpt>
    <trkpt lat="48.52345" lon="14.28086"><ele>730</ele><time>2026-05-27T09:16:58Z</time></trkpt>
    <trkpt lat="48.52332" lon="14.28223"><ele>732</ele><time>2026-05-27T09:17:26Z</time></trkpt>
    <trkpt lat="48.52318" lon="14.28355"><ele>729</ele><time>2026-05-27T09:17:54Z</time></trkpt>
    <trkpt lat="48.52325" lon="14.28389"><ele>728</ele><time>2026-05-27T09:19:46Z</time></trkpt>
    <trkpt lat="48.52377" lon="14.28586"><ele>720</ele><time>2026-05-27T09:20:14Z</time></trkpt>
    <trkpt lat="48.52372" lon="14.28763"><ele>714</ele><time>2026-05-27T09:20:42Z</time></trkpt>
    <trkpt lat="48.52400" lon="14.28834"><ele>719</ele><time>2026-05-27T09:21:10Z</time></trkpt>
    <trkpt lat="48.52416" lon="14.28894"><ele>723</ele><time>2026-05-27T09:21:38Z</time></trkpt>
    <trkpt lat="48.52410" lon="14.28948"><ele>728</ele><time>2026-05-27T09:22:06Z</time></trkpt>
    <trkpt lat="48.52433" lon="14.29002"><ele>731</ele><time>2026-05-27T09:22:34Z</time></trkpt>
    <trkpt lat="48.52476" lon="14.29052"><ele>737</ele><time>2026-05-27T09:23:02Z</time></trkpt>
    <trkpt lat="48.52455" lon="14.29113"><ele>740</ele><time>2026-05-27T09:23:30Z</time></trkpt>
    <trkpt lat="48.52440" lon="14.29139"><ele>742</ele><time>2026-05-27T09:23:58Z</time></trkpt>
    <trkpt lat="48.52407" lon="14.29188"><ele>743</ele><time>2026-05-27T09:24:26Z</time></trkpt>
    <trkpt lat="48.52338" lon="14.29232"><ele>749</ele><time>2026-05-27T09:24:54Z</time></trkpt>
    <trkpt lat="48.52277" lon="14.29308"><ele>753</ele><time>2026-05-27T09:25:22Z</time></trkpt>
    <trkpt lat="48.52249" lon="14.29339"><ele>751</ele><time>2026-05-27T09:25:50Z</time></trkpt>
    <trkpt lat="48.52230" lon="14.29399"><ele>753</ele><time>2026-05-27T09:30:02Z</time></trkpt>
    <trkpt lat="48.52229" lon="14.29465"><ele>754</ele><time>2026-05-27T09:30:30Z</time></trkpt>
    <trkpt lat="48.52321" lon="14.29534"><ele>753</ele><time>2026-05-27T09:30:58Z</time></trkpt>
    <trkpt lat="48.52433" lon="14.29630"><ele>756</ele><time>2026-05-27T09:31:26Z</time></trkpt>
    <trkpt lat="48.52505" lon="14.29687"><ele>758</ele><time>2026-05-27T09:31:54Z</time></trkpt>
    <trkpt lat="48.52578" lon="14.29791"><ele>759</ele><time>2026-05-27T09:32:22Z</time></trkpt>
    <trkpt lat="48.52615" lon="14.30030"><ele>751</ele><time>2026-05-27T09:32:50Z</time></trkpt>
    <trkpt lat="48.52639" lon="14.30106"><ele>750</ele><time>2026-05-27T09:33:18Z</time></trkpt>
    <trkpt lat="48.52665" lon="14.30160"><ele>754</ele><time>2026-05-27T09:33:46Z</time></trkpt>
    <trkpt lat="48.52661" lon="14.30205"><ele>755</ele><time>2026-05-27T09:34:14Z</time></trkpt>
    <trkpt lat="48.52691" lon="14.30290"><ele>760</ele><time>2026-05-27T09:34:42Z</time></trkpt>
    <trkpt lat="48.52731" lon="14.30366"><ele>764</ele><time>2026-05-27T09:35:10Z</time></trkpt>
    <trkpt lat="48.52781" lon="14.30480"><ele>766</ele><time>2026-05-27T09:35:38Z</time></trkpt>
    <trkpt lat="48.52933" lon="14.30687"><ele>753</ele><time>2026-05-27T09:36:06Z</time></trkpt>
    <trkpt lat="48.53153" lon="14.30841"><ele>733</ele><time>2026-05-27T09:36:34Z</time></trkpt>
    <trkpt lat="48.53209" lon="14.30864"><ele>730</ele><time>2026-05-27T09:37:02Z</time></trkpt>
    <trkpt lat="48.53175" lon="14.30886"><ele>729</ele><time>2026-05-27T09:37:30Z</time></trkpt>
    <trkpt lat="48.53075" lon="14.30953"><ele>728</ele><time>2026-05-27T09:37:58Z</time></trkpt>
    <trkpt lat="48.52992" lon="14.31013"><ele>731</ele><time>2026-05-27T09:38:26Z</time></trkpt>
    <trkpt lat="48.52920" lon="14.30989"><ele>732</ele><time>2026-05-27T09:38:54Z</time></trkpt>
    <trkpt lat="48.52896" lon="14.30962"><ele>731</ele><time>2026-05-27T09:39:22Z</time></trkpt>
    <trkpt lat="48.52833" lon="14.30981"><ele>727</ele><time>2026-05-27T09:39:50Z</time></trkpt>
    <trkpt lat="48.52701" lon="14.31036"><ele>721</ele><time>2026-05-27T09:40:18Z</time></trkpt>
    <trkpt lat="48.52659" lon="14.31080"><ele>718</ele><time>2026-05-27T09:40:46Z</time></trkpt>
    <trkpt lat="48.52683" lon="14.31136"><ele>717</ele><time>2026-05-27T09:43:34Z</time></trkpt>
    <trkpt lat="48.52653" lon="14.31256"><ele>719</ele><time>2026-05-27T09:44:02Z</time></trkpt>
    <trkpt lat="48.52612" lon="14.31339"><ele>725</ele><time>2026-05-27T09:44:30Z</time></trkpt>
    <trkpt lat="48.52584" lon="14.31417"><ele>727</ele><time>2026-05-27T09:44:58Z</time></trkpt>
    <trkpt lat="48.52541" lon="14.31517"><ele>728</ele><time>2026-05-27T09:45:26Z</time></trkpt>
    <trkpt lat="48.52489" lon="14.31639"><ele>728</ele><time>2026-05-27T09:45:54Z</time></trkpt>
    <trkpt lat="48.52464" lon="14.31709"><ele>728</ele><time>2026-05-27T09:46:22Z</time></trkpt>
    <trkpt lat="48.52434" lon="14.31762"><ele>728</ele><time>2026-05-27T09:46:50Z</time></trkpt>
    <trkpt lat="48.52385" lon="14.31962"><ele>722</ele><time>2026-05-27T09:47:18Z</time></trkpt>
    <trkpt lat="48.52364" lon="14.32233"><ele>722</ele><time>2026-05-27T09:47:46Z</time></trkpt>
    <trkpt lat="48.52352" lon="14.32362"><ele>727</ele><time>2026-05-27T09:48:14Z</time></trkpt>
    <trkpt lat="48.52345" lon="14.32438"><ele>730</ele><time>2026-05-27T09:48:42Z</time></trkpt>
    <trkpt lat="48.52335" lon="14.32516"><ele>736</ele><time>2026-05-27T09:49:10Z</time></trkpt>
    <trkpt lat="48.52325" lon="14.32585"><ele>741</ele><time>2026-05-27T09:49:38Z</time></trkpt>
    <trkpt lat="48.52318" lon="14.32652"><ele>746</ele><time>2026-05-27T09:50:06Z</time></trkpt>
    <trkpt lat="48.52309" lon="14.32728"><ele>750</ele><time>2026-05-27T09:50:34Z</time></trkpt>
    <trkpt lat="48.52304" lon="14.32810"><ele>752</ele><time>2026-05-27T09:51:02Z</time></trkpt>
    <trkpt lat="48.52292" lon="14.32979"><ele>754</ele><time>2026-05-27T09:51:30Z</time></trkpt>
    <trkpt lat="48.52275" lon="14.33174"><ele>756</ele><time>2026-05-27T09:51:58Z</time></trkpt>
    <trkpt lat="48.52215" lon="14.33277"><ele>756</ele><time>2026-05-27T09:52:26Z</time></trkpt>
    <trkpt lat="48.52147" lon="14.33356"><ele>760</ele><time>2026-05-27T09:52:54Z</time></trkpt>
    <trkpt lat="48.52098" lon="14.33407"><ele>763</ele><time>2026-05-27T09:53:22Z</time></trkpt>
    <trkpt lat="48.52056" lon="14.33484"><ele>766</ele><time>2026-05-27T09:53:50Z</time></trkpt>
    <trkpt lat="48.51963" lon="14.33615"><ele>769</ele><time>2026-05-27T09:54:18Z</time></trkpt>
    <trkpt lat="48.51896" lon="14.33782"><ele>767</ele><time>2026-05-27T09:54:46Z</time></trkpt>
    <trkpt lat="48.51824" lon="14.33930"><ele>765</ele><time>2026-05-27T09:55:14Z</time></trkpt>
    <trkpt lat="48.51791" lon="14.33951"><ele>762</ele><time>2026-05-27T09:55:42Z</time></trkpt>
    <trkpt lat="48.51769" lon="14.33973"><ele>762</ele><time>2026-05-27T09:56:10Z</time></trkpt>
    <trkpt lat="48.51663" lon="14.34063"><ele>761</ele><time>2026-05-27T09:56:38Z</time></trkpt>
    <trkpt lat="48.51544" lon="14.34156"><ele>765</ele><time>2026-05-27T09:57:06Z</time></trkpt>
    <trkpt lat="48.51510" lon="14.34132"><ele>760</ele><time>2026-05-27T09:57:34Z</time></trkpt>
    <trkpt lat="48.51466" lon="14.34273"><ele>762</ele><time>2026-05-27T09:58:02Z</time></trkpt>
    <trkpt lat="48.51390" lon="14.34477"><ele>762</ele><time>2026-05-27T09:58:30Z</time></trkpt>
    <trkpt lat="48.51322" lon="14.34466"><ele>762</ele><time>2026-05-27T09:58:58Z</time></trkpt>
    <trkpt lat="48.51309" lon="14.34450"><ele>761</ele><time>2026-05-27T09:59:26Z</time></trkpt>
    <trkpt lat="48.51344" lon="14.34565"><ele>761</ele><time>2026-05-27T09:59:54Z</time></trkpt>
    <trkpt lat="48.51255" lon="14.34530"><ele>761</ele><time>2026-05-27T10:00:22Z</time></trkpt>
    <trkpt lat="48.51107" lon="14.34503"><ele>760</ele><time>2026-05-27T10:00:50Z</time></trkpt>
    <trkpt lat="48.50965" lon="14.34390"><ele>757</ele><time>2026-05-27T10:01:18Z</time></trkpt>
    <trkpt lat="48.50838" lon="14.34238"><ele>755</ele><time>2026-05-27T10:01:46Z</time></trkpt>
    <trkpt lat="48.50728" lon="14.34095"><ele>756</ele><time>2026-05-27T10:02:14Z</time></trkpt>
    <trkpt lat="48.50622" lon="14.33949"><ele>755</ele><time>2026-05-27T10:02:42Z</time></trkpt>
    <trkpt lat="48.50588" lon="14.33900"><ele>750</ele><time>2026-05-27T10:03:10Z</time></trkpt>
    <trkpt lat="48.50530" lon="14.33770"><ele>748</ele><time>2026-05-27T10:03:38Z</time></trkpt>
    <trkpt lat="48.50445" lon="14.33734"><ele>751</ele><time>2026-05-27T10:04:06Z</time></trkpt>
    <trkpt lat="48.50374" lon="14.33770"><ele>753</ele><time>2026-05-27T10:04:34Z</time></trkpt>
    <trkpt lat="48.50332" lon="14.33824"><ele>754</ele><time>2026-05-27T10:05:02Z</time></trkpt>
    <trkpt lat="48.50298" lon="14.33900"><ele>758</ele><time>2026-05-27T10:05:30Z</time></trkpt>
    <trkpt lat="48.50263" lon="14.33991"><ele>760</ele><time>2026-05-27T10:05:58Z</time></trkpt>
    <trkpt lat="48.50218" lon="14.34089"><ele>762</ele><time>2026-05-27T10:06:26Z</time></trkpt>
    <trkpt lat="48.50153" lon="14.34102"><ele>763</ele><time>2026-05-27T10:06:54Z</time></trkpt>
    <trkpt lat="48.50070" lon="14.34116"><ele>762</ele><time>2026-05-27T10:07:22Z</time></trkpt>
    <trkpt lat="48.50007" lon="14.34221"><ele>762</ele><time>2026-05-27T10:07:50Z</time></trkpt>
    <trkpt lat="48.49930" lon="14.34390"><ele>763</ele><time>2026-05-27T10:08:18Z</time></trkpt>
    <trkpt lat="48.49856" lon="14.34418"><ele>762</ele><time>2026-05-27T10:08:46Z</time></trkpt>
    <trkpt lat="48.49856" lon="14.34195"><ele>756</ele><time>2026-05-27T10:09:14Z</time></trkpt>
    <trkpt lat="48.49761" lon="14.34191"><ele>755</ele><time>2026-05-27T10:09:42Z</time></trkpt>
    <trkpt lat="48.49708" lon="14.34229"><ele>759</ele><time>2026-05-27T10:10:10Z</time></trkpt>
    <trkpt lat="48.49670" lon="14.34239"><ele>764</ele><time>2026-05-27T10:10:38Z</time></trkpt>
    <trkpt lat="48.49629" lon="14.34240"><ele>767</ele><time>2026-05-27T10:11:06Z</time></trkpt>
    <trkpt lat="48.49517" lon="14.34288"><ele>768</ele><time>2026-05-27T10:11:34Z</time></trkpt>
    <trkpt lat="48.49452" lon="14.34218"><ele>763</ele><time>2026-05-27T10:12:02Z</time></trkpt>
    <trkpt lat="48.49429" lon="14.34053"><ele>761</ele><time>2026-05-27T10:12:30Z</time></trkpt>
    <trkpt lat="48.49245" lon="14.34139"><ele>750</ele><time>2026-05-27T10:12:58Z</time></trkpt>
    <trkpt lat="48.49077" lon="14.34167"><ele>750</ele><time>2026-05-27T10:13:26Z</time></trkpt>
    <trkpt lat="48.48982" lon="14.34204"><ele>753</ele><time>2026-05-27T10:13:54Z</time></trkpt>
    <trkpt lat="48.48840" lon="14.34225"><ele>750</ele><time>2026-05-27T10:14:22Z</time></trkpt>
    <trkpt lat="48.48759" lon="14.34260"><ele>753</ele><time>2026-05-27T10:14:50Z</time></trkpt>
    <trkpt lat="48.48696" lon="14.34289"><ele>757</ele><time>2026-05-27T10:15:18Z</time></trkpt>
    <trkpt lat="48.48617" lon="14.34327"><ele>760</ele><time>2026-05-27T10:15:46Z</time></trkpt>
    <trkpt lat="48.48489" lon="14.34364"><ele>754</ele><time>2026-05-27T10:16:14Z</time></trkpt>
    <trkpt lat="48.48385" lon="14.34234"><ele>755</ele><time>2026-05-27T10:16:42Z</time></trkpt>
    <trkpt lat="48.48286" lon="14.34118"><ele>757</ele><time>2026-05-27T10:17:10Z</time></trkpt>
    <trkpt lat="48.48197" lon="14.33964"><ele>757</ele><time>2026-05-27T10:17:38Z</time></trkpt>
    <trkpt lat="48.48126" lon="14.33828"><ele>760</ele><time>2026-05-27T10:18:06Z</time></trkpt>
    <trkpt lat="48.48061" lon="14.33701"><ele>762</ele><time>2026-05-27T10:18:34Z</time></trkpt>
    <trkpt lat="48.48042" lon="14.33527"><ele>765</ele><time>2026-05-27T10:19:02Z</time></trkpt>
    <trkpt lat="48.48043" lon="14.33298"><ele>763</ele><time>2026-05-27T10:19:30Z</time></trkpt>
    <trkpt lat="48.47964" lon="14.33184"><ele>764</ele><time>2026-05-27T10:19:58Z</time></trkpt>
    <trkpt lat="48.47950" lon="14.33061"><ele>766</ele><time>2026-05-27T10:20:26Z</time></trkpt>
    <trkpt lat="48.47937" lon="14.32960"><ele>768</ele><time>2026-05-27T10:20:54Z</time></trkpt>
    <trkpt lat="48.47920" lon="14.32860"><ele>772</ele><time>2026-05-27T10:21:22Z</time></trkpt>
    <trkpt lat="48.47892" lon="14.32759"><ele>774</ele><time>2026-05-27T10:21:50Z</time></trkpt>
    <trkpt lat="48.47868" lon="14.32659"><ele>778</ele><time>2026-05-27T10:22:18Z</time></trkpt>
    <trkpt lat="48.47847" lon="14.32554"><ele>779</ele><time>2026-05-27T10:22:46Z</time></trkpt>
    <trkpt lat="48.47829" lon="14.32377"><ele>776</ele><time>2026-05-27T10:23:14Z</time></trkpt>
    <trkpt lat="48.47798" lon="14.32157"><ele>775</ele><time>2026-05-27T10:23:42Z</time></trkpt>
    <trkpt lat="48.47734" lon="14.31945"><ele>770</ele><time>2026-05-27T10:24:10Z</time></trkpt>
    <trkpt lat="48.47646" lon="14.31807"><ele>762</ele><time>2026-05-27T10:24:38Z</time></trkpt>
    <trkpt lat="48.47596" lon="14.31820"><ele>768</ele><time>2026-05-27T10:25:06Z</time></trkpt>
    <trkpt lat="48.47549" lon="14.31811"><ele>772</ele><time>2026-05-27T10:25:34Z</time></trkpt>
    <trkpt lat="48.47589" lon="14.31706"><ele>765</ele><time>2026-05-27T10:26:02Z</time></trkpt>
    <trkpt lat="48.47585" lon="14.31582"><ele>765</ele><time>2026-05-27T10:26:30Z</time></trkpt>
    <trkpt lat="48.47576" lon="14.31494"><ele>770</ele><time>2026-05-27T10:26:58Z</time></trkpt>
    <trkpt lat="48.47560" lon="14.31411"><ele>773</ele><time>2026-05-27T10:27:26Z</time></trkpt>
    <trkpt lat="48.47540" lon="14.31328"><ele>774</ele><time>2026-05-27T10:27:54Z</time></trkpt>
    <trkpt lat="48.47519" lon="14.31327"><ele>780</ele><time>2026-05-27T10:28:22Z</time></trkpt>
    <trkpt lat="48.47497" lon="14.31407"><ele>787</ele><time>2026-05-27T10:28:50Z</time></trkpt>
    <trkpt lat="48.47430" lon="14.31492"><ele>790</ele><time>2026-05-27T10:29:18Z</time></trkpt>
    <trkpt lat="48.47339" lon="14.31535"><ele>793</ele><time>2026-05-27T10:29:46Z</time></trkpt>
    <trkpt lat="48.47272" lon="14.31532"><ele>796</ele><time>2026-05-27T10:30:14Z</time></trkpt>
    <trkpt lat="48.47213" lon="14.31411"><ele>795</ele><time>2026-05-27T10:30:42Z</time></trkpt>
    <trkpt lat="48.47083" lon="14.31372"><ele>792</ele><time>2026-05-27T10:31:10Z</time></trkpt>
    <trkpt lat="48.46993" lon="14.31384"><ele>794</ele><time>2026-05-27T10:31:38Z</time></trkpt>
    <trkpt lat="48.46930" lon="14.31326"><ele>795</ele><time>2026-05-27T10:32:06Z</time></trkpt>
    <trkpt lat="48.46848" lon="14.31248"><ele>793</ele><time>2026-05-27T10:32:34Z</time></trkpt>
    <trkpt lat="48.46722" lon="14.31119"><ele>788</ele><time>2026-05-27T10:33:02Z</time></trkpt>
    <trkpt lat="48.46655" lon="14.31063"><ele>789</ele><time>2026-05-27T10:33:30Z</time></trkpt>
    <trkpt lat="48.46621" lon="14.30981"><ele>791</ele><time>2026-05-27T10:33:58Z</time></trkpt>
    <trkpt lat="48.46566" lon="14.30918"><ele>792</ele><time>2026-05-27T10:34:26Z</time></trkpt>
    <trkpt lat="48.46513" lon="14.30854"><ele>796</ele><time>2026-05-27T10:34:54Z</time></trkpt>
    <trkpt lat="48.46442" lon="14.30832"><ele>801</ele><time>2026-05-27T10:35:22Z</time></trkpt>
    <trkpt lat="48.46382" lon="14.30833"><ele>807</ele><time>2026-05-27T10:35:50Z</time></trkpt>
    <trkpt lat="48.46315" lon="14.30832"><ele>810</ele><time>2026-05-27T10:36:18Z</time></trkpt>
    <trkpt lat="48.46246" lon="14.30814"><ele>811</ele><time>2026-05-27T10:36:46Z</time></trkpt>
    <trkpt lat="48.46190" lon="14.30828"><ele>815</ele><time>2026-05-27T10:37:14Z</time></trkpt>
    <trkpt lat="48.46141" lon="14.30856"><ele>819</ele><time>2026-05-27T10:37:42Z</time></trkpt>
    <trkpt lat="48.46092" lon="14.30870"><ele>821</ele><time>2026-05-27T10:38:10Z</time></trkpt>
    <trkpt lat="48.46009" lon="14.30865"><ele>819</ele><time>2026-05-27T10:40:02Z</time></trkpt>
    <trkpt lat="48.45971" lon="14.30808"><ele>810</ele><time>2026-05-27T10:40:30Z</time></trkpt>
    <trkpt lat="48.45859" lon="14.30829"><ele>806</ele><time>2026-05-27T10:41:54Z</time></trkpt>
    <trkpt lat="48.45800" lon="14.30839"><ele>807</ele><time>2026-05-27T10:42:22Z</time></trkpt>
    <trkpt lat="48.45753" lon="14.30845"><ele>811</ele><time>2026-05-27T10:54:30Z</time></trkpt>
    <trkpt lat="48.45706" lon="14.30834"><ele>819</ele><time>2026-05-27T10:54:58Z</time></trkpt>
    <trkpt lat="48.45661" lon="14.30828"><ele>822</ele><time>2026-05-27T10:55:26Z</time></trkpt>
    <trkpt lat="48.45607" lon="14.30822"><ele>824</ele><time>2026-05-27T10:55:54Z</time></trkpt>
    <trkpt lat="48.45554" lon="14.30838"><ele>827</ele><time>2026-05-27T10:56:22Z</time></trkpt>
    <trkpt lat="48.45507" lon="14.30865"><ele>829</ele><time>2026-05-27T10:56:50Z</time></trkpt>
    <trkpt lat="48.45455" lon="14.30888"><ele>829</ele><time>2026-05-27T10:57:18Z</time></trkpt>
    <trkpt lat="48.45405" lon="14.30889"><ele>833</ele><time>2026-05-27T10:57:46Z</time></trkpt>
    <trkpt lat="48.45344" lon="14.30862"><ele>837</ele><time>2026-05-27T10:58:14Z</time></trkpt>
    <trkpt lat="48.45283" lon="14.30812"><ele>844</ele><time>2026-05-27T10:58:42Z</time></trkpt>
    <trkpt lat="48.45225" lon="14.30773"><ele>844</ele><time>2026-05-27T10:59:10Z</time></trkpt>
    <trkpt lat="48.45174" lon="14.30738"><ele>843</ele><time>2026-05-27T10:59:38Z</time></trkpt>
    <trkpt lat="48.45109" lon="14.30753"><ele>841</ele><time>2026-05-27T11:00:06Z</time></trkpt>
    <trkpt lat="48.45059" lon="14.30780"><ele>843</ele><time>2026-05-27T11:00:34Z</time></trkpt>
    <trkpt lat="48.45047" lon="14.30959"><ele>846</ele><time>2026-05-27T11:01:02Z</time></trkpt>
    <trkpt lat="48.44939" lon="14.31011"><ele>848</ele><time>2026-05-27T11:01:30Z</time></trkpt>
    <trkpt lat="48.44841" lon="14.30996"><ele>847</ele><time>2026-05-27T11:01:58Z</time></trkpt>
    <trkpt lat="48.44740" lon="14.31065"><ele>847</ele><time>2026-05-27T11:02:26Z</time></trkpt>
    <trkpt lat="48.44632" lon="14.31209"><ele>849</ele><time>2026-05-27T11:02:54Z</time></trkpt>
    <trkpt lat="48.44514" lon="14.31391"><ele>847</ele><time>2026-05-27T11:03:22Z</time></trkpt>
    <trkpt lat="48.44430" lon="14.31551"><ele>850</ele><time>2026-05-27T11:03:50Z</time></trkpt>
    <trkpt lat="48.44329" lon="14.31660"><ele>852</ele><time>2026-05-27T11:04:18Z</time></trkpt>
    <trkpt lat="48.44246" lon="14.31794"><ele>854</ele><time>2026-05-27T11:04:46Z</time></trkpt>
    <trkpt lat="48.44179" lon="14.31760"><ele>857</ele><time>2026-05-27T11:05:14Z</time></trkpt>
    <trkpt lat="48.44099" lon="14.31716"><ele>859</ele><time>2026-05-27T11:05:42Z</time></trkpt>
    <trkpt lat="48.44022" lon="14.31682"><ele>862</ele><time>2026-05-27T11:06:10Z</time></trkpt>
    <trkpt lat="48.43949" lon="14.31651"><ele>866</ele><time>2026-05-27T11:06:38Z</time></trkpt>
    <trkpt lat="48.43880" lon="14.31640"><ele>869</ele><time>2026-05-27T11:07:06Z</time></trkpt>
    <trkpt lat="48.43797" lon="14.31649"><ele>870</ele><time>2026-05-27T11:07:34Z</time></trkpt>
    <trkpt lat="48.43650" lon="14.31599"><ele>866</ele><time>2026-05-27T11:08:02Z</time></trkpt>
    <trkpt lat="48.43561" lon="14.31518"><ele>866</ele><time>2026-05-27T11:08:30Z</time></trkpt>
    <trkpt lat="48.43506" lon="14.31433"><ele>868</ele><time>2026-05-27T11:08:58Z</time></trkpt>
    <trkpt lat="48.43428" lon="14.31297"><ele>867</ele><time>2026-05-27T11:09:26Z</time></trkpt>
    <trkpt lat="48.43323" lon="14.31221"><ele>864</ele><time>2026-05-27T11:09:54Z</time></trkpt>
    <trkpt lat="48.43214" lon="14.31110"><ele>855</ele><time>2026-05-27T11:10:22Z</time></trkpt>
    <trkpt lat="48.43031" lon="14.30952"><ele>842</ele><time>2026-05-27T11:10:50Z</time></trkpt>
    <trkpt lat="48.42893" lon="14.30870"><ele>829</ele><time>2026-05-27T11:11:18Z</time></trkpt>
    <trkpt lat="48.42817" lon="14.31127"><ele>820</ele><time>2026-05-27T11:11:46Z</time></trkpt>
    <trkpt lat="48.42680" lon="14.31187"><ele>820</ele><time>2026-05-27T11:12:14Z</time></trkpt>
    <trkpt lat="48.42653" lon="14.30935"><ele>812</ele><time>2026-05-27T11:12:42Z</time></trkpt>
    <trkpt lat="48.42485" lon="14.30837"><ele>806</ele><time>2026-05-27T11:13:10Z</time></trkpt>
    <trkpt lat="48.42439" lon="14.30793"><ele>814</ele><time>2026-05-27T11:13:38Z</time></trkpt>
    <trkpt lat="48.42399" lon="14.30753"><ele>815</ele><time>2026-05-27T11:14:06Z</time></trkpt>
    <trkpt lat="48.42365" lon="14.30699"><ele>817</ele><time>2026-05-27T11:14:34Z</time></trkpt>
    <trkpt lat="48.42281" lon="14.30620"><ele>818</ele><time>2026-05-27T11:15:02Z</time></trkpt>
    <trkpt lat="48.42162" lon="14.30577"><ele>817</ele><time>2026-05-27T11:15:30Z</time></trkpt>
    <trkpt lat="48.42060" lon="14.30574"><ele>814</ele><time>2026-05-27T11:15:58Z</time></trkpt>
    <trkpt lat="48.41959" lon="14.30640"><ele>813</ele><time>2026-05-27T11:16:26Z</time></trkpt>
    <trkpt lat="48.41790" lon="14.30639"><ele>810</ele><time>2026-05-27T11:16:54Z</time></trkpt>
    <trkpt lat="48.41674" lon="14.30632"><ele>812</ele><time>2026-05-27T11:17:22Z</time></trkpt>
    <trkpt lat="48.41598" lon="14.30622"><ele>815</ele><time>2026-05-27T11:17:50Z</time></trkpt>
    <trkpt lat="48.41549" lon="14.30704"><ele>819</ele><time>2026-05-27T11:18:18Z</time></trkpt>
    <trkpt lat="48.41505" lon="14.30801"><ele>823</ele><time>2026-05-27T11:18:46Z</time></trkpt>
    <trkpt lat="48.41444" lon="14.30924"><ele>825</ele><time>2026-05-27T11:19:14Z</time></trkpt>
    <trkpt lat="48.41350" lon="14.31034"><ele>829</ele><time>2026-05-27T11:19:42Z</time></trkpt>
    <trkpt lat="48.41219" lon="14.31238"><ele>823</ele><time>2026-05-27T11:20:10Z</time></trkpt>
    <trkpt lat="48.41156" lon="14.31372"><ele>827</ele><time>2026-05-27T11:20:38Z</time></trkpt>
    <trkpt lat="48.41082" lon="14.31510"><ele>826</ele><time>2026-05-27T11:21:06Z</time></trkpt>
    <trkpt lat="48.41021" lon="14.31713"><ele>820</ele><time>2026-05-27T11:21:34Z</time></trkpt>
    <trkpt lat="48.40950" lon="14.31830"><ele>820</ele><time>2026-05-27T11:22:02Z</time></trkpt>
    <trkpt lat="48.40877" lon="14.31925"><ele>819</ele><time>2026-05-27T11:22:30Z</time></trkpt>
    <trkpt lat="48.40871" lon="14.32007"><ele>811</ele><time>2026-05-27T11:22:58Z</time></trkpt>
    <trkpt lat="48.40887" lon="14.32013"><ele>811</ele><time>2026-05-27T11:23:26Z</time></trkpt>
    <trkpt lat="48.40878" lon="14.32002"><ele>809</ele><time>2026-05-27T11:25:18Z</time></trkpt>
    <trkpt lat="48.40874" lon="14.31981"><ele>813</ele><time>2026-05-27T11:25:49Z</time></trkpt>
    <trkpt lat="48.40893" lon="14.31910"><ele>810</ele><time>2026-05-27T12:13:27Z</time></trkpt>
    <trkpt lat="48.40881" lon="14.31924"><ele>828</ele><time>2026-05-27T12:13:55Z</time></trkpt>
    <trkpt lat="48.40881" lon="14.31964"><ele>824</ele><time>2026-05-27T12:14:23Z</time></trkpt>
    <trkpt lat="48.40873" lon="14.31981"><ele>806</ele><time>2026-05-27T12:24:39Z</time></trkpt>
    <trkpt lat="48.40870" lon="14.31996"><ele>806</ele><time>2026-05-27T12:25:35Z</time></trkpt>
    <trkpt lat="48.40885" lon="14.32000"><ele>810</ele><time>2026-05-27T12:44:41Z</time></trkpt>
    <trkpt lat="48.40883" lon="14.32030"><ele>833</ele><time>2026-05-27T12:46:01Z</time></trkpt>
    <trkpt lat="48.40882" lon="14.32006"><ele>809</ele><time>2026-05-27T12:46:06Z</time></trkpt>
    <trkpt lat="48.40866" lon="14.32001"><ele>809</ele><time>2026-05-27T12:48:01Z</time></trkpt>
    <trkpt lat="48.40845" lon="14.31995"><ele>806</ele><time>2026-05-27T12:55:57Z</time></trkpt>
    <trkpt lat="48.40760" lon="14.31889"><ele>810</ele><time>2026-05-27T12:56:25Z</time></trkpt>
    <trkpt lat="48.40704" lon="14.31823"><ele>812</ele><time>2026-05-27T12:56:53Z</time></trkpt>
    <trkpt lat="48.40658" lon="14.31740"><ele>813</ele><time>2026-05-27T12:57:21Z</time></trkpt>
    <trkpt lat="48.40625" lon="14.31601"><ele>813</ele><time>2026-05-27T12:57:49Z</time></trkpt>
    <trkpt lat="48.40548" lon="14.31353"><ele>809</ele><time>2026-05-27T12:58:17Z</time></trkpt>
    <trkpt lat="48.40496" lon="14.31133"><ele>799</ele><time>2026-05-27T12:58:45Z</time></trkpt>
    <trkpt lat="48.40310" lon="14.31213"><ele>792</ele><time>2026-05-27T12:59:13Z</time></trkpt>
    <trkpt lat="48.40251" lon="14.31261"><ele>787</ele><time>2026-05-27T12:59:24Z</time></trkpt>
    <trkpt lat="48.40076" lon="14.31437"><ele>775</ele><time>2026-05-27T12:59:51Z</time></trkpt>
    <trkpt lat="48.39849" lon="14.31550"><ele>768</ele><time>2026-05-27T13:00:18Z</time></trkpt>
    <trkpt lat="48.39671" lon="14.31658"><ele>764</ele><time>2026-05-27T13:00:45Z</time></trkpt>
    <trkpt lat="48.39440" lon="14.31781"><ele>751</ele><time>2026-05-27T13:01:13Z</time></trkpt>
    <trkpt lat="48.39146" lon="14.31908"><ele>735</ele><time>2026-05-27T13:01:41Z</time></trkpt>
    <trkpt lat="48.38962" lon="14.32027"><ele>733</ele><time>2026-05-27T13:02:09Z</time></trkpt>
    <trkpt lat="48.38818" lon="14.32011"><ele>733</ele><time>2026-05-27T13:02:37Z</time></trkpt>
    <trkpt lat="48.38666" lon="14.31874"><ele>721</ele><time>2026-05-27T13:03:05Z</time></trkpt>
    <trkpt lat="48.38523" lon="14.31785"><ele>706</ele><time>2026-05-27T13:03:33Z</time></trkpt>
    <trkpt lat="48.38328" lon="14.31909"><ele>701</ele><time>2026-05-27T13:04:01Z</time></trkpt>
    <trkpt lat="48.38123" lon="14.31768"><ele>691</ele><time>2026-05-27T13:04:29Z</time></trkpt>
    <trkpt lat="48.37909" lon="14.31743"><ele>682</ele><time>2026-05-27T13:04:57Z</time></trkpt>
    <trkpt lat="48.37801" lon="14.31715"><ele>683</ele><time>2026-05-27T13:05:25Z</time></trkpt>
    <trkpt lat="48.37702" lon="14.31604"><ele>686</ele><time>2026-05-27T13:05:53Z</time></trkpt>
    <trkpt lat="48.37569" lon="14.31531"><ele>684</ele><time>2026-05-27T13:06:21Z</time></trkpt>
    <trkpt lat="48.37433" lon="14.31543"><ele>680</ele><time>2026-05-27T13:06:49Z</time></trkpt>
    <trkpt lat="48.37137" lon="14.31551"><ele>658</ele><time>2026-05-27T13:07:17Z</time></trkpt>
    <trkpt lat="48.36979" lon="14.31335"><ele>655</ele><time>2026-05-27T13:07:45Z</time></trkpt>
    <trkpt lat="48.36789" lon="14.31304"><ele>652</ele><time>2026-05-27T13:08:13Z</time></trkpt>
    <trkpt lat="48.36618" lon="14.31147"><ele>642</ele><time>2026-05-27T13:08:41Z</time></trkpt>
    <trkpt lat="48.36573" lon="14.31011"><ele>645</ele><time>2026-05-27T13:09:09Z</time></trkpt>
    <trkpt lat="48.36554" lon="14.30902"><ele>646</ele><time>2026-05-27T13:09:37Z</time></trkpt>
    <trkpt lat="48.36486" lon="14.30719"><ele>644</ele><time>2026-05-27T13:10:05Z</time></trkpt>
    <trkpt lat="48.36338" lon="14.30642"><ele>642</ele><time>2026-05-27T13:10:33Z</time></trkpt>
    <trkpt lat="48.36193" lon="14.30497"><ele>640</ele><time>2026-05-27T13:11:01Z</time></trkpt>
    <trkpt lat="48.36026" lon="14.30458"><ele>626</ele><time>2026-05-27T13:11:29Z</time></trkpt>
    <trkpt lat="48.35876" lon="14.30686"><ele>623</ele><time>2026-05-27T13:11:57Z</time></trkpt>
    <trkpt lat="48.35757" lon="14.30899"><ele>619</ele><time>2026-05-27T13:12:25Z</time></trkpt>
    <trkpt lat="48.35599" lon="14.31007"><ele>594</ele><time>2026-05-27T13:12:53Z</time></trkpt>
    <trkpt lat="48.35361" lon="14.31040"><ele>582</ele><time>2026-05-27T13:13:21Z</time></trkpt>
    <trkpt lat="48.35229" lon="14.30981"><ele>582</ele><time>2026-05-27T13:13:49Z</time></trkpt>
    <trkpt lat="48.35081" lon="14.31008"><ele>580</ele><time>2026-05-27T13:14:17Z</time></trkpt>
    <trkpt lat="48.34932" lon="14.31025"><ele>574</ele><time>2026-05-27T13:14:45Z</time></trkpt>
    <trkpt lat="48.34776" lon="14.31059"><ele>556</ele><time>2026-05-27T13:15:09Z</time></trkpt>
    <trkpt lat="48.34700" lon="14.31012"><ele>539</ele><time>2026-05-27T13:15:37Z</time></trkpt>
    <trkpt lat="48.34701" lon="14.31090"><ele>528</ele><time>2026-05-27T13:16:47Z</time></trkpt>
    <trkpt lat="48.34685" lon="14.31254"><ele>519</ele><time>2026-05-27T13:17:14Z</time></trkpt>
    <trkpt lat="48.34615" lon="14.31445"><ele>497</ele><time>2026-05-27T13:17:41Z</time></trkpt>
    <trkpt lat="48.34603" lon="14.31561"><ele>480</ele><time>2026-05-27T13:18:09Z</time></trkpt>
    <trkpt lat="48.34619" lon="14.31608"><ele>460</ele><time>2026-05-27T13:20:29Z</time></trkpt>
    <trkpt lat="48.34577" lon="14.31838"><ele>447</ele><time>2026-05-27T13:20:57Z</time></trkpt>
    <trkpt lat="48.34518" lon="14.32235"><ele>423</ele><time>2026-05-27T13:21:25Z</time></trkpt>
    <trkpt lat="48.34492" lon="14.32384"><ele>413</ele><time>2026-05-27T13:21:53Z</time></trkpt>
    <trkpt lat="48.34435" lon="14.32536"><ele>398</ele><time>2026-05-27T13:22:21Z</time></trkpt>
    <trkpt lat="48.34403" lon="14.32551"><ele>388</ele><time>2026-05-27T13:22:29Z</time></trkpt>
    <trkpt lat="48.34309" lon="14.32670"><ele>362</ele><time>2026-05-27T13:22:57Z</time></trkpt>
    <trkpt lat="48.34240" lon="14.32595"><ele>349</ele><time>2026-05-27T13:23:25Z</time></trkpt>
    <trkpt lat="48.34207" lon="14.32546"><ele>340</ele><time>2026-05-27T13:24:49Z</time></trkpt>
    <trkpt lat="48.34236" lon="14.32357"><ele>336</ele><time>2026-05-27T13:25:17Z</time></trkpt>
    <trkpt lat="48.34266" lon="14.32206"><ele>335</ele><time>2026-05-27T13:25:45Z</time></trkpt>
    <trkpt lat="48.34159" lon="14.32165"><ele>334</ele><time>2026-05-27T13:26:13Z</time></trkpt>
    <trkpt lat="48.34139" lon="14.31979"><ele>331</ele><time>2026-05-27T13:26:41Z</time></trkpt>
    <trkpt lat="48.34179" lon="14.31794"><ele>331</ele><time>2026-05-27T13:27:09Z</time></trkpt>
    <trkpt lat="48.34074" lon="14.31690"><ele>324</ele><time>2026-05-27T13:27:37Z</time></trkpt>
    <trkpt lat="48.34084" lon="14.31460"><ele>324</ele><time>2026-05-27T13:28:05Z</time></trkpt>
    <trkpt lat="48.33988" lon="14.31357"><ele>321</ele><time>2026-05-27T13:28:33Z</time></trkpt>
    <trkpt lat="48.33932" lon="14.31134"><ele>321</ele><time>2026-05-27T13:29:01Z</time></trkpt>
    <trkpt lat="48.33875" lon="14.30920"><ele>319</ele><time>2026-05-27T13:29:29Z</time></trkpt>
    <trkpt lat="48.33840" lon="14.30867"><ele>320</ele><time>2026-05-27T13:29:38Z</time></trkpt>
    <trkpt lat="48.33726" lon="14.30819"><ele>315</ele><time>2026-05-27T13:30:05Z</time></trkpt>
    <trkpt lat="48.33674" lon="14.30609"><ele>315</ele><time>2026-05-27T13:30:33Z</time></trkpt>
    <trkpt lat="48.33604" lon="14.30404"><ele>315</ele><time>2026-05-27T13:31:01Z</time></trkpt>
    <trkpt lat="48.33640" lon="14.30231"><ele>309</ele><time>2026-05-27T13:31:29Z</time></trkpt>
    <trkpt lat="48.33755" lon="14.30116"><ele>306</ele><time>2026-05-27T13:31:57Z</time></trkpt>
    <trkpt lat="48.33775" lon="14.30036"><ele>301</ele><time>2026-05-27T13:32:25Z</time></trkpt>
    <trkpt lat="48.33473" lon="14.30058"><ele>272</ele><time>2026-05-27T13:32:53Z</time></trkpt>
    <trkpt lat="48.33347" lon="14.29951"><ele>275</ele><time>2026-05-27T13:33:21Z</time></trkpt>
    <trkpt lat="48.33162" lon="14.29932"><ele>269</ele><time>2026-05-27T13:33:49Z</time></trkpt>
    <trkpt lat="48.32967" lon="14.29967"><ele>262</ele><time>2026-05-27T13:34:17Z</time></trkpt>
    <trkpt lat="48.32802" lon="14.29957"><ele>263</ele><time>2026-05-27T13:34:45Z</time></trkpt>
    <trkpt lat="48.32668" lon="14.29847"><ele>261</ele><time>2026-05-27T13:35:13Z</time></trkpt>
    <trkpt lat="48.32535" lon="14.29761"><ele>259</ele><time>2026-05-27T13:35:41Z</time></trkpt>
    <trkpt lat="48.32403" lon="14.29825"><ele>260</ele><time>2026-05-27T13:36:09Z</time></trkpt>
    <trkpt lat="48.32397" lon="14.29840"><ele>260</ele><time>2026-05-27T13:36:11Z</time></trkpt>
    <trkpt lat="48.32361" lon="14.30012"><ele>292</ele><time>2026-05-27T13:36:38Z</time></trkpt>
    <trkpt lat="48.32339" lon="14.30003"><ele>261</ele><time>2026-05-27T13:36:43Z</time></trkpt>
    <trkpt lat="48.32281" lon="14.29892"><ele>263</ele><time>2026-05-27T13:37:10Z</time></trkpt>
    <trkpt lat="48.32186" lon="14.29766"><ele>264</ele><time>2026-05-27T13:37:38Z</time></trkpt>
    <trkpt lat="48.32100" lon="14.29651"><ele>264</ele><time>2026-05-27T13:38:06Z</time></trkpt>
    <trkpt lat="48.32051" lon="14.29596"><ele>262</ele><time>2026-05-27T13:38:19Z</time></trkpt>
    <trkpt lat="48.31956" lon="14.29469"><ele>260</ele><time>2026-05-27T13:38:46Z</time></trkpt>
    <trkpt lat="48.31880" lon="14.29336"><ele>262</ele><time>2026-05-27T13:39:14Z</time></trkpt>
    <trkpt lat="48.31855" lon="14.29278"><ele>265</ele><time>2026-05-27T13:39:42Z</time></trkpt>
    <trkpt lat="48.31756" lon="14.29171"><ele>268</ele><time>2026-05-27T13:40:10Z</time></trkpt>
    <trkpt lat="48.31666" lon="14.29039"><ele>268</ele><time>2026-05-27T13:40:38Z</time></trkpt>
    <trkpt lat="48.31598" lon="14.28947"><ele>273</ele><time>2026-05-27T13:41:06Z</time></trkpt>
    <trkpt lat="48.31459" lon="14.28839"><ele>269</ele><time>2026-05-27T13:41:34Z</time></trkpt>
    <trkpt lat="48.31356" lon="14.28736"><ele>266</ele><time>2026-05-27T13:42:02Z</time></trkpt>
    <trkpt lat="48.31326" lon="14.28693"><ele>264</ele><time>2026-05-27T13:42:30Z</time></trkpt>
    <trkpt lat="48.31310" lon="14.28655"><ele>265</ele><time>2026-05-27T13:43:26Z</time></trkpt>
    <trkpt lat="48.31226" lon="14.28491"><ele>267</ele><time>2026-05-27T13:43:54Z</time></trkpt>
    <trkpt lat="48.31171" lon="14.28324"><ele>266</ele><time>2026-05-27T13:44:22Z</time></trkpt>
    <trkpt lat="48.31094" lon="14.28272"><ele>272</ele><time>2026-05-27T13:44:50Z</time></trkpt>
    <trkpt lat="48.30962" lon="14.28371"><ele>268</ele><time>2026-05-27T13:45:18Z</time></trkpt>
    <trkpt lat="48.30860" lon="14.28440"><ele>269</ele><time>2026-05-27T13:45:46Z</time></trkpt>
    <trkpt lat="48.30742" lon="14.28527"><ele>268</ele><time>2026-05-27T13:46:14Z</time></trkpt>
    <trkpt lat="48.30699" lon="14.28558"><ele>265</ele><time>2026-05-27T13:46:42Z</time></trkpt>
    <trkpt lat="48.30602" lon="14.28599"><ele>266</ele><time>2026-05-27T13:47:38Z</time></trkpt>
    <trkpt lat="48.30572" lon="14.28476"><ele>267</ele><time>2026-05-27T13:48:06Z</time></trkpt>
    <trkpt lat="48.30522" lon="14.28432"><ele>267</ele><time>2026-05-27T13:48:22Z</time></trkpt>
    <trkpt lat="48.30428" lon="14.28504"><ele>264</ele><time>2026-05-27T13:48:50Z</time></trkpt>
    <trkpt lat="48.30364" lon="14.28553"><ele>271</ele><time>2026-05-27T13:49:18Z</time></trkpt>
    <trkpt lat="48.30288" lon="14.28548"><ele>277</ele><time>2026-05-27T13:49:46Z</time></trkpt>
    <trkpt lat="48.30266" lon="14.28595"><ele>269</ele><time>2026-05-27T13:50:06Z</time></trkpt>
    <trkpt lat="48.30177" lon="14.28672"><ele>270</ele><time>2026-05-27T13:50:33Z</time></trkpt>
    <trkpt lat="48.30076" lon="14.28720"><ele>266</ele><time>2026-05-27T13:51:00Z</time></trkpt>
    <trkpt lat="48.30003" lon="14.28724"><ele>261</ele><time>2026-05-27T13:51:27Z</time></trkpt>
    <trkpt lat="48.29823" lon="14.28754"><ele>263</ele><time>2026-05-27T13:51:55Z</time></trkpt>
    <trkpt lat="48.29752" lon="14.28745"><ele>265</ele><time>2026-05-27T13:52:10Z</time></trkpt>
    <trkpt lat="48.29700" lon="14.28726"><ele>271</ele><time>2026-05-27T13:52:38Z</time></trkpt>
    <trkpt lat="48.29569" lon="14.28670"><ele>272</ele><time>2026-05-27T13:53:06Z</time></trkpt>
    <trkpt lat="48.29521" lon="14.28664"><ele>273</ele><time>2026-05-27T13:53:33Z</time></trkpt>
    <trkpt lat="48.29487" lon="14.28630"><ele>283</ele><time>2026-05-27T13:54:28Z</time></trkpt>
    <trkpt lat="48.29380" lon="14.28561"><ele>281</ele><time>2026-05-27T13:54:55Z</time></trkpt>
    <trkpt lat="48.29360" lon="14.28529"><ele>278</ele><time>2026-05-27T13:55:05Z</time></trkpt>
    <trkpt lat="48.29353" lon="14.28496"><ele>271</ele><time>2026-05-27T13:55:59Z</time></trkpt>
    <trkpt lat="48.29304" lon="14.28463"><ele>272</ele><time>2026-05-27T13:56:27Z</time></trkpt>
    <trkpt lat="48.29227" lon="14.28521"><ele>274</ele><time>2026-05-27T13:56:55Z</time></trkpt>
    <trkpt lat="48.29184" lon="14.28520"><ele>279</ele><time>2026-05-27T13:57:23Z</time></trkpt>
    <trkpt lat="48.29142" lon="14.28535"><ele>283</ele><time>2026-05-27T13:57:51Z</time></trkpt>
    <trkpt lat="48.29110" lon="14.28516"><ele>286</ele><time>2026-05-27T13:58:19Z</time></trkpt>
    <trkpt lat="48.29076" lon="14.28484"><ele>286</ele><time>2026-05-27T13:58:47Z</time></trkpt>
    <trkpt lat="48.29024" lon="14.28427"><ele>288</ele><time>2026-05-27T13:59:15Z</time></trkpt>
    <trkpt lat="48.29038" lon="14.28350"><ele>291</ele><time>2026-05-27T13:59:43Z</time></trkpt>
    <trkpt lat="48.29051" lon="14.28263"><ele>295</ele><time>2026-05-27T14:00:11Z</time></trkpt>
    <trkpt lat="48.28985" lon="14.28206"><ele>299</ele><time>2026-05-27T14:00:39Z</time></trkpt>
    <trkpt lat="48.28889" lon="14.28166"><ele>301</ele><time>2026-05-27T14:01:07Z</time></trkpt>
    <trkpt lat="48.28827" lon="14.28131"><ele>305</ele><time>2026-05-27T14:01:35Z</time></trkpt>
    <trkpt lat="48.28741" lon="14.28140"><ele>309</ele><time>2026-05-27T14:02:03Z</time></trkpt>
    <trkpt lat="48.28668" lon="14.28000"><ele>309</ele><time>2026-05-27T14:02:31Z</time></trkpt>
    <trkpt lat="48.28654" lon="14.27861"><ele>305</ele><time>2026-05-27T14:02:59Z</time></trkpt>
    <trkpt lat="48.28572" lon="14.27778"><ele>309</ele><time>2026-05-27T14:03:27Z</time></trkpt>
    <trkpt lat="48.28565" lon="14.27729"><ele>315</ele><time>2026-05-27T14:03:55Z</time></trkpt>
    <trkpt lat="48.28570" lon="14.27630"><ele>315</ele><time>2026-05-27T14:04:23Z</time></trkpt>
    <trkpt lat="48.28566" lon="14.27504"><ele>316</ele><time>2026-05-27T14:04:51Z</time></trkpt>
    <trkpt lat="48.28518" lon="14.27508"><ele>315</ele><time>2026-05-27T14:05:19Z</time></trkpt>
    <trkpt lat="48.28532" lon="14.27520"><ele>327</ele><time>2026-05-27T14:13:42Z</time></trkpt>
    <trkpt lat="48.28528" lon="14.27510"><ele>320</ele><time>2026-05-27T14:23:18Z</time></trkpt>
  </trkseg>
</trk>
</gpx>