<?xml version="1.0" encoding="UTF-8"?>
<gpx version="1.1" creator="Gpx-Optimizer" xmlns="http://www.topografix.com/GPX/1/1">
<trk>
  <name>Mtb_PE-Kulm-Mirellental-Rrliedegg-Gusental-Pulgarn-zHaus</name>
  <type>bicycle</type>
  <trkseg>
    <trkpt lat="48.33842" lon="14.31460"><ele>316</ele></trkpt>
    <trkpt lat="48.33868" lon="14.31966"><ele>294</ele></trkpt>
    <trkpt lat="48.33983" lon="14.31804"><ele>294</ele></trkpt>
    <trkpt lat="48.34013" lon="14.31800"><ele>295</ele></trkpt>
    <trkpt lat="48.34021" lon="14.31791"><ele>299</ele></trkpt>
    <trkpt lat="48.34036" lon="14.31780"><ele>302</ele></trkpt>
    <trkpt lat="48.34046" lon="14.31768"><ele>305</ele></trkpt>
    <trkpt lat="48.34053" lon="14.31743"><ele>308</ele></trkpt>
    <trkpt lat="48.34069" lon="14.31717"><ele>314</ele></trkpt>
    <trkpt lat="48.34082" lon="14.31731"><ele>319</ele></trkpt>
    <trkpt lat="48.34139" lon="14.31749"><ele>325</ele></trkpt>
    <trkpt lat="48.34191" lon="14.31833"><ele>327</ele></trkpt>
    <trkpt lat="48.34148" lon="14.31938"><ele>329</ele></trkpt>
    <trkpt lat="48.34143" lon="14.32065"><ele>332</ele></trkpt>
    <trkpt lat="48.34172" lon="14.32175"><ele>333</ele></trkpt>
    <trkpt lat="48.34253" lon="14.32181"><ele>339</ele></trkpt>
    <trkpt lat="48.34240" lon="14.32325"><ele>333</ele></trkpt>
    <trkpt lat="48.34245" lon="14.32438"><ele>336</ele></trkpt>
    <trkpt lat="48.34212" lon="14.32559"><ele>336</ele></trkpt>
    <trkpt lat="48.34241" lon="14.32601"><ele>340</ele></trkpt>
    <trkpt lat="48.34267" lon="14.32633"><ele>341</ele></trkpt>
    <trkpt lat="48.34305" lon="14.32681"><ele>347</ele></trkpt>
    <trkpt lat="48.34326" lon="14.32705"><ele>349</ele></trkpt>
    <trkpt lat="48.34367" lon="14.32708"><ele>349</ele></trkpt>
    <trkpt lat="48.34385" lon="14.32712"><ele>342</ele></trkpt>
    <trkpt lat="48.34423" lon="14.32780"><ele>345</ele></trkpt>
    <trkpt lat="48.34389" lon="14.32900"><ele>346</ele></trkpt>
    <trkpt lat="48.34349" lon="14.33041"><ele>347</ele></trkpt>
    <trkpt lat="48.34364" lon="14.33162"><ele>350</ele></trkpt>
    <trkpt lat="48.34375" lon="14.33173"><ele>350</ele></trkpt>
    <trkpt lat="48.34438" lon="14.33248"><ele>351</ele></trkpt>
    <trkpt lat="48.34447" lon="14.33331"><ele>348</ele></trkpt>
    <trkpt lat="48.34434" lon="14.33386"><ele>342</ele></trkpt>
    <trkpt lat="48.34478" lon="14.33482"><ele>341</ele></trkpt>
    <trkpt lat="48.34458" lon="14.33585"><ele>343</ele></trkpt>
    <trkpt lat="48.34433" lon="14.33646"><ele>348</ele></trkpt>
    <trkpt lat="48.34407" lon="14.33709"><ele>353</ele></trkpt>
    <trkpt lat="48.34387" lon="14.33789"><ele>358</ele></trkpt>
    <trkpt lat="48.34367" lon="14.33896"><ele>361</ele></trkpt>
    <trkpt lat="48.34349" lon="14.34014"><ele>361</ele></trkpt>
    <trkpt lat="48.34377" lon="14.34169"><ele>360</ele></trkpt>
    <trkpt lat="48.34287" lon="14.34309"><ele>360</ele></trkpt>
    <trkpt lat="48.34233" lon="14.34375"><ele>359</ele></trkpt>
    <trkpt lat="48.34207" lon="14.34436"><ele>359</ele></trkpt>
    <trkpt lat="48.34200" lon="14.34488"><ele>361</ele></trkpt>
    <trkpt lat="48.34182" lon="14.34560"><ele>365</ele></trkpt>
    <trkpt lat="48.34162" lon="14.34637"><ele>368</ele></trkpt>
    <trkpt lat="48.34141" lon="14.34725"><ele>370</ele></trkpt>
    <trkpt lat="48.34147" lon="14.34800"><ele>373</ele></trkpt>
    <trkpt lat="48.34160" lon="14.34863"><ele>379</ele></trkpt>
    <trkpt lat="48.34173" lon="14.34924"><ele>383</ele></trkpt>
    <trkpt lat="48.34183" lon="14.34990"><ele>384</ele></trkpt>
    <trkpt lat="48.34180" lon="14.35074"><ele>386</ele></trkpt>
    <trkpt lat="48.34170" lon="14.35174"><ele>387</ele></trkpt>
    <trkpt lat="48.34161" lon="14.35327"><ele>391</ele></trkpt>
    <trkpt lat="48.34186" lon="14.35381"><ele>397</ele></trkpt>
    <trkpt lat="48.34191" lon="14.35437"><ele>393</ele></trkpt>
    <trkpt lat="48.34205" lon="14.35485"><ele>398</ele></trkpt>
    <trkpt lat="48.34211" lon="14.35605"><ele>401</ele></trkpt>
    <trkpt lat="48.34262" lon="14.35770"><ele>398</ele></trkpt>
    <trkpt lat="48.34218" lon="14.35874"><ele>398</ele></trkpt>
    <trkpt lat="48.34216" lon="14.36003"><ele>402</ele></trkpt>
    <trkpt lat="48.34253" lon="14.36085"><ele>404</ele></trkpt>
    <trkpt lat="48.34292" lon="14.36194"><ele>406</ele></trkpt>
    <trkpt lat="48.34314" lon="14.36364"><ele>406</ele></trkpt>
    <trkpt lat="48.34359" lon="14.36456"><ele>409</ele></trkpt>
    <trkpt lat="48.34410" lon="14.36506"><ele>415</ele></trkpt>
    <trkpt lat="48.34442" lon="14.36574"><ele>418</ele></trkpt>
    <trkpt lat="48.34468" lon="14.36724"><ele>423</ele></trkpt>
    <trkpt lat="48.34520" lon="14.36979"><ele>424</ele></trkpt>
    <trkpt lat="48.34526" lon="14.37073"><ele>431</ele></trkpt>
    <trkpt lat="48.34518" lon="14.37151"><ele>435</ele></trkpt>
    <trkpt lat="48.34524" lon="14.37235"><ele>439</ele></trkpt>
    <trkpt lat="48.34538" lon="14.37333"><ele>442</ele></trkpt>
    <trkpt lat="48.34553" lon="14.37483"><ele>443</ele></trkpt>
    <trkpt lat="48.34536" lon="14.37671"><ele>439</ele></trkpt>
    <trkpt lat="48.34694" lon="14.37799"><ele>430</ele></trkpt>
    <trkpt lat="48.34765" lon="14.37775"><ele>433</ele></trkpt>
    <trkpt lat="48.34833" lon="14.37744"><ele>435</ele></trkpt>
    <trkpt lat="48.34900" lon="14.37743"><ele>439</ele></trkpt>
    <trkpt lat="48.34958" lon="14.37751"><ele>445</ele></trkpt>
    <trkpt lat="48.34978" lon="14.37703"><ele>450</ele></trkpt>
    <trkpt lat="48.34987" lon="14.37632"><ele>456</ele></trkpt>
    <trkpt lat="48.35018" lon="14.37571"><ele>460</ele></trkpt>
    <trkpt lat="48.35057" lon="14.37506"><ele>465</ele></trkpt>
    <trkpt lat="48.35094" lon="14.37439"><ele>469</ele></trkpt>
    <trkpt lat="48.35137" lon="14.37373"><ele>472</ele></trkpt>
    <trkpt lat="48.35190" lon="14.37335"><ele>478</ele></trkpt>
    <trkpt lat="48.35242" lon="14.37343"><ele>483</ele></trkpt>
    <trkpt lat="48.35281" lon="14.37348"><ele>488</ele></trkpt>
    <trkpt lat="48.35304" lon="14.37301"><ele>492</ele></trkpt>
    <trkpt lat="48.35316" lon="14.37256"><ele>496</ele></trkpt>
    <trkpt lat="48.35322" lon="14.37198"><ele>498</ele></trkpt>
    <trkpt lat="48.35337" lon="14.37136"><ele>502</ele></trkpt>
    <trkpt lat="48.35358" lon="14.37088"><ele>510</ele></trkpt>
    <trkpt lat="48.35384" lon="14.37058"><ele>516</ele></trkpt>
    <trkpt lat="48.35408" lon="14.37024"><ele>523</ele></trkpt>
    <trkpt lat="48.35431" lon="14.36984"><ele>530</ele></trkpt>
    <trkpt lat="48.35445" lon="14.36935"><ele>535</ele></trkpt>
    <trkpt lat="48.35462" lon="14.36881"><ele>539</ele></trkpt>
    <trkpt lat="48.35488" lon="14.36826"><ele>543</ele></trkpt>
    <trkpt lat="48.35503" lon="14.36763"><ele>547</ele></trkpt>
    <trkpt lat="48.35512" lon="14.36699"><ele>553</ele></trkpt>
    <trkpt lat="48.35574" lon="14.36640"><ele>556</ele></trkpt>
    <trkpt lat="48.35649" lon="14.36564"><ele>557</ele></trkpt>
    <trkpt lat="48.35722" lon="14.36478"><ele>557</ele></trkpt>
    <trkpt lat="48.35794" lon="14.36411"><ele>560</ele></trkpt>
    <trkpt lat="48.35847" lon="14.36364"><ele>564</ele></trkpt>
    <trkpt lat="48.35926" lon="14.36268"><ele>564</ele></trkpt>
    <trkpt lat="48.36018" lon="14.36150"><ele>564</ele></trkpt>
    <trkpt lat="48.36063" lon="14.36058"><ele>569</ele></trkpt>
    <trkpt lat="48.36132" lon="14.35975"><ele>570</ele></trkpt>
    <trkpt lat="48.36211" lon="14.35906"><ele>570</ele></trkpt>
    <trkpt lat="48.36256" lon="14.35875"><ele>564</ele></trkpt>
    <trkpt lat="48.36282" lon="14.35910"><ele>563</ele></trkpt>
    <trkpt lat="48.36401" lon="14.36067"><ele>553</ele></trkpt>
    <trkpt lat="48.36562" lon="14.36040"><ele>540</ele></trkpt>
    <trkpt lat="48.36716" lon="14.35926"><ele>529</ele></trkpt>
    <trkpt lat="48.36798" lon="14.36032"><ele>520</ele></trkpt>
    <trkpt lat="48.36811" lon="14.36060"><ele>516</ele></trkpt>
    <trkpt lat="48.36922" lon="14.36041"><ele>500</ele></trkpt>
    <trkpt lat="48.36939" lon="14.36121"><ele>502</ele></trkpt>
    <trkpt lat="48.36972" lon="14.36163"><ele>504</ele></trkpt>
    <trkpt lat="48.36997" lon="14.36213"><ele>507</ele></trkpt>
    <trkpt lat="48.37039" lon="14.36251"><ele>512</ele></trkpt>
    <trkpt lat="48.37114" lon="14.36265"><ele>515</ele></trkpt>
    <trkpt lat="48.37235" lon="14.36235"><ele>514</ele></trkpt>
    <trkpt lat="48.37306" lon="14.36320"><ele>517</ele></trkpt>
    <trkpt lat="48.37309" lon="14.36491"><ele>516</ele></trkpt>
    <trkpt lat="48.37288" lon="14.36681"><ele>514</ele></trkpt>
    <trkpt lat="48.37148" lon="14.36654"><ele>504</ele></trkpt>
    <trkpt lat="48.37104" lon="14.36852"><ele>505</ele></trkpt>
    <trkpt lat="48.37089" lon="14.37010"><ele>509</ele></trkpt>
    <trkpt lat="48.37102" lon="14.37180"><ele>503</ele></trkpt>
    <trkpt lat="48.37092" lon="14.37170"><ele>502</ele></trkpt>
    <trkpt lat="48.37091" lon="14.37059"><ele>506</ele></trkpt>
    <trkpt lat="48.37093" lon="14.36911"><ele>509</ele></trkpt>
    <trkpt lat="48.37139" lon="14.36688"><ele>506</ele></trkpt>
    <trkpt lat="48.37152" lon="14.36642"><ele>505</ele></trkpt>
    <trkpt lat="48.37046" lon="14.36544"><ele>492</ele></trkpt>
    <trkpt lat="48.36867" lon="14.36549"><ele>488</ele></trkpt>
    <trkpt lat="48.36838" lon="14.36592"><ele>491</ele></trkpt>
    <trkpt lat="48.36808" lon="14.36648"><ele>494</ele></trkpt>
    <trkpt lat="48.36771" lon="14.36723"><ele>501</ele></trkpt>
    <trkpt lat="48.36737" lon="14.36784"><ele>509</ele></trkpt>
    <trkpt lat="48.36696" lon="14.36835"><ele>512</ele></trkpt>
    <trkpt lat="48.36653" lon="14.36851"><ele>515</ele></trkpt>
    <trkpt lat="48.36641" lon="14.36797"><ele>518</ele></trkpt>
    <trkpt lat="48.36637" lon="14.36766"><ele>520</ele></trkpt>
    <trkpt lat="48.36630" lon="14.36700"><ele>525</ele></trkpt>
    <trkpt lat="48.36572" lon="14.36646"><ele>527</ele></trkpt>
    <trkpt lat="48.36498" lon="14.36567"><ele>531</ele></trkpt>
    <trkpt lat="48.36427" lon="14.36445"><ele>535</ele></trkpt>
    <trkpt lat="48.36405" lon="14.36283"><ele>537</ele></trkpt>
    <trkpt lat="48.36340" lon="14.36225"><ele>540</ele></trkpt>
    <trkpt lat="48.36288" lon="14.36177"><ele>545</ele></trkpt>
    <trkpt lat="48.36246" lon="14.36158"><ele>550</ele></trkpt>
    <trkpt lat="48.36205" lon="14.36122"><ele>555</ele></trkpt>
    <trkpt lat="48.36157" lon="14.36085"><ele>558</ele></trkpt>
    <trkpt lat="48.36139" lon="14.36020"><ele>563</ele></trkpt>
    <trkpt lat="48.36139" lon="14.35974"><ele>567</ele></trkpt>
    <trkpt lat="48.36124" lon="14.35984"><ele>567</ele></trkpt>
    <trkpt lat="48.36117" lon="14.35993"><ele>568</ele></trkpt>
    <trkpt lat="48.36097" lon="14.36027"><ele>568</ele></trkpt>
    <trkpt lat="48.36024" lon="14.36130"><ele>568</ele></trkpt>
    <trkpt lat="48.36077" lon="14.36360"><ele>553</ele></trkpt>
    <trkpt lat="48.36115" lon="14.36703"><ele>532</ele></trkpt>
    <trkpt lat="48.36121" lon="14.36717"><ele>533</ele></trkpt>
    <trkpt lat="48.36119" lon="14.36802"><ele>526</ele></trkpt>
    <trkpt lat="48.36222" lon="14.36702"><ele>513</ele></trkpt>
    <trkpt lat="48.36229" lon="14.36945"><ele>485</ele></trkpt>
    <trkpt lat="48.36218" lon="14.37080"><ele>478</ele></trkpt>
    <trkpt lat="48.36161" lon="14.37175"><ele>465</ele></trkpt>
    <trkpt lat="48.36085" lon="14.37368"><ele>456</ele></trkpt>
    <trkpt lat="48.36105" lon="14.37451"><ele>451</ele></trkpt>
    <trkpt lat="48.36191" lon="14.37525"><ele>438</ele></trkpt>
    <trkpt lat="48.36154" lon="14.37728"><ele>422</ele></trkpt>
    <trkpt lat="48.36159" lon="14.37843"><ele>411</ele></trkpt>
    <trkpt lat="48.36192" lon="14.37779"><ele>407</ele></trkpt>
    <trkpt lat="48.36186" lon="14.37828"><ele>406</ele></trkpt>
    <trkpt lat="48.36123" lon="14.37859"><ele>410</ele></trkpt>
    <trkpt lat="48.36071" lon="14.37927"><ele>413</ele></trkpt>
    <trkpt lat="48.36046" lon="14.38070"><ele>412</ele></trkpt>
    <trkpt lat="48.36101" lon="14.38316"><ele>403</ele></trkpt>
    <trkpt lat="48.36086" lon="14.38513"><ele>400</ele></trkpt>
    <trkpt lat="48.36048" lon="14.38783"><ele>395</ele></trkpt>
    <trkpt lat="48.36025" lon="14.39033"><ele>383</ele></trkpt>
    <trkpt lat="48.36003" lon="14.39335"><ele>374</ele></trkpt>
    <trkpt lat="48.35984" lon="14.39610"><ele>363</ele></trkpt>
    <trkpt lat="48.35949" lon="14.39807"><ele>352</ele></trkpt>
    <trkpt lat="48.35939" lon="14.39901"><ele>350</ele></trkpt>
    <trkpt lat="48.35899" lon="14.39995"><ele>349</ele></trkpt>
    <trkpt lat="48.35904" lon="14.40224"><ele>345</ele></trkpt>
    <trkpt lat="48.35884" lon="14.40383"><ele>345</ele></trkpt>
    <trkpt lat="48.35901" lon="14.40498"><ele>342</ele></trkpt>
    <trkpt lat="48.35940" lon="14.40538"><ele>347</ele></trkpt>
    <trkpt lat="48.35909" lon="14.40489"><ele>345</ele></trkpt>
    <trkpt lat="48.35937" lon="14.40518"><ele>349</ele></trkpt>
    <trkpt lat="48.35947" lon="14.40541"><ele>351</ele></trkpt>
    <trkpt lat="48.36024" lon="14.40568"><ele>352</ele></trkpt>
    <trkpt lat="48.36087" lon="14.40625"><ele>351</ele></trkpt>
    <trkpt lat="48.36173" lon="14.40680"><ele>346</ele></trkpt>
    <trkpt lat="48.36213" lon="14.40637"><ele>345</ele></trkpt>
    <trkpt lat="48.36256" lon="14.40572"><ele>348</ele></trkpt>
    <trkpt lat="48.36285" lon="14.40517"><ele>355</ele></trkpt>
    <trkpt lat="48.36324" lon="14.40436"><ele>358</ele></trkpt>
    <trkpt lat="48.36355" lon="14.40344"><ele>361</ele></trkpt>
    <trkpt lat="48.36353" lon="14.40291"><ele>369</ele></trkpt>
    <trkpt lat="48.36341" lon="14.40243"><ele>372</ele></trkpt>
    <trkpt lat="48.36328" lon="14.40176"><ele>371</ele></trkpt>
    <trkpt lat="48.36341" lon="14.40098"><ele>374</ele></trkpt>
    <trkpt lat="48.36352" lon="14.40032"><ele>383</ele></trkpt>
    <trkpt lat="48.36380" lon="14.39985"><ele>386</ele></trkpt>
    <trkpt lat="48.36414" lon="14.39954"><ele>391</ele></trkpt>
    <trkpt lat="48.36445" lon="14.39913"><ele>395</ele></trkpt>
    <trkpt lat="48.36482" lon="14.39903"><ele>400</ele></trkpt>
    <trkpt lat="48.36518" lon="14.39891"><ele>403</ele></trkpt>
    <trkpt lat="48.36532" lon="14.39887"><ele>407</ele></trkpt>
    <trkpt lat="48.36570" lon="14.39954"><ele>407</ele></trkpt>
    <trkpt lat="48.36645" lon="14.40053"><ele>395</ele></trkpt>
    <trkpt lat="48.36750" lon="14.40079"><ele>388</ele></trkpt>
    <trkpt lat="48.36857" lon="14.40160"><ele>375</ele></trkpt>
    <trkpt lat="48.36915" lon="14.40294"><ele>369</ele></trkpt>
    <trkpt lat="48.36904" lon="14.40419"><ele>364</ele></trkpt>
    <trkpt lat="48.36868" lon="14.40470"><ele>362</ele></trkpt>
    <trkpt lat="48.36837" lon="14.40516"><ele>368</ele></trkpt>
    <trkpt lat="48.36806" lon="14.40537"><ele>375</ele></trkpt>
    <trkpt lat="48.36778" lon="14.40558"><ele>382</ele></trkpt>
    <trkpt lat="48.36802" lon="14.40669"><ele>383</ele></trkpt>
    <trkpt lat="48.36806" lon="14.40730"><ele>381</ele></trkpt>
    <trkpt lat="48.36815" lon="14.40796"><ele>386</ele></trkpt>
    <trkpt lat="48.36822" lon="14.40880"><ele>389</ele></trkpt>
    <trkpt lat="48.36840" lon="14.40971"><ele>393</ele></trkpt>
    <trkpt lat="48.36862" lon="14.41064"><ele>397</ele></trkpt>
    <trkpt lat="48.36881" lon="14.41138"><ele>400</ele></trkpt>
    <trkpt lat="48.36897" lon="14.41208"><ele>405</ele></trkpt>
    <trkpt lat="48.36916" lon="14.41284"><ele>410</ele></trkpt>
    <trkpt lat="48.36933" lon="14.41370"><ele>415</ele></trkpt>
    <trkpt lat="48.36966" lon="14.41448"><ele>419</ele></trkpt>
    <trkpt lat="48.37002" lon="14.41506"><ele>424</ele></trkpt>
    <trkpt lat="48.37043" lon="14.41569"><ele>427</ele></trkpt>
    <trkpt lat="48.37091" lon="14.41731"><ele>428</ele></trkpt>
    <trkpt lat="48.37092" lon="14.41876"><ele>426</ele></trkpt>
    <trkpt lat="48.37095" lon="14.41929"><ele>426</ele></trkpt>
    <trkpt lat="48.37123" lon="14.41927"><ele>426</ele></trkpt>
    <trkpt lat="48.37194" lon="14.41888"><ele>429</ele></trkpt>
    <trkpt lat="48.37243" lon="14.41833"><ele>434</ele></trkpt>
    <trkpt lat="48.37285" lon="14.41804"><ele>438</ele></trkpt>
    <trkpt lat="48.37320" lon="14.41787"><ele>443</ele></trkpt>
    <trkpt lat="48.37351" lon="14.41754"><ele>448</ele></trkpt>
    <trkpt lat="48.37380" lon="14.41790"><ele>452</ele></trkpt>
    <trkpt lat="48.37427" lon="14.41827"><ele>454</ele></trkpt>
    <trkpt lat="48.37583" lon="14.41854"><ele>448</ele></trkpt>
    <trkpt lat="48.37576" lon="14.41892"><ele>447</ele></trkpt>
    <trkpt lat="48.37533" lon="14.41979"><ele>448</ele></trkpt>
    <trkpt lat="48.37484" lon="14.42043"><ele>452</ele></trkpt>
    <trkpt lat="48.37452" lon="14.42159"><ele>457</ele></trkpt>
    <trkpt lat="48.37411" lon="14.42313"><ele>457</ele></trkpt>
    <trkpt lat="48.37377" lon="14.42469"><ele>455</ele></trkpt>
    <trkpt lat="48.37345" lon="14.42641"><ele>459</ele></trkpt>
    <trkpt lat="48.37340" lon="14.42785"><ele>458</ele></trkpt>
    <trkpt lat="48.37340" lon="14.42923"><ele>462</ele></trkpt>
    <trkpt lat="48.37350" lon="14.43056"><ele>464</ele></trkpt>
    <trkpt lat="48.37362" lon="14.43196"><ele>467</ele></trkpt>
    <trkpt lat="48.37386" lon="14.43316"><ele>470</ele></trkpt>
    <trkpt lat="48.37413" lon="14.43400"><ele>475</ele></trkpt>
    <trkpt lat="48.37431" lon="14.43490"><ele>479</ele></trkpt>
    <trkpt lat="48.37448" lon="14.43582"><ele>484</ele></trkpt>
    <trkpt lat="48.37475" lon="14.43671"><ele>488</ele></trkpt>
    <trkpt lat="48.37509" lon="14.43751"><ele>493</ele></trkpt>
    <trkpt lat="48.37555" lon="14.43823"><ele>495</ele></trkpt>
    <trkpt lat="48.37628" lon="14.43887"><ele>496</ele></trkpt>
    <trkpt lat="48.37717" lon="14.43909"><ele>497</ele></trkpt>
    <trkpt lat="48.37806" lon="14.43987"><ele>496</ele></trkpt>
    <trkpt lat="48.37838" lon="14.44146"><ele>495</ele></trkpt>
    <trkpt lat="48.37904" lon="14.44083"><ele>493</ele></trkpt>
    <trkpt lat="48.37951" lon="14.44074"><ele>495</ele></trkpt>
    <trkpt lat="48.38006" lon="14.44081"><ele>497</ele></trkpt>
    <trkpt lat="48.38066" lon="14.44091"><ele>494</ele></trkpt>
    <trkpt lat="48.38146" lon="14.44351"><ele>480</ele></trkpt>
    <trkpt lat="48.38283" lon="14.44285"><ele>465</ele></trkpt>
    <trkpt lat="48.38443" lon="14.44345"><ele>452</ele></trkpt>
    <trkpt lat="48.38570" lon="14.44279"><ele>434</ele></trkpt>
    <trkpt lat="48.38603" lon="14.44254"><ele>424</ele></trkpt>
    <trkpt lat="48.38659" lon="14.44318"><ele>423</ele></trkpt>
    <trkpt lat="48.38683" lon="14.44410"><ele>408</ele></trkpt>
    <trkpt lat="48.38637" lon="14.44534"><ele>407</ele></trkpt>
    <trkpt lat="48.38627" lon="14.44582"><ele>411</ele></trkpt>
    <trkpt lat="48.38644" lon="14.44625"><ele>414</ele></trkpt>
    <trkpt lat="48.38676" lon="14.44657"><ele>417</ele></trkpt>
    <trkpt lat="48.38703" lon="14.44710"><ele>420</ele></trkpt>
    <trkpt lat="48.38700" lon="14.44776"><ele>427</ele></trkpt>
    <trkpt lat="48.38664" lon="14.44821"><ele>429</ele></trkpt>
    <trkpt lat="48.38619" lon="14.44906"><ele>428</ele></trkpt>
    <trkpt lat="48.38555" lon="14.45079"><ele>428</ele></trkpt>
    <trkpt lat="48.38429" lon="14.45227"><ele>415</ele></trkpt>
    <trkpt lat="48.38387" lon="14.45409"><ele>416</ele></trkpt>
    <trkpt lat="48.38376" lon="14.45542"><ele>421</ele></trkpt>
    <trkpt lat="48.38411" lon="14.45649"><ele>425</ele></trkpt>
    <trkpt lat="48.38438" lon="14.45724"><ele>427</ele></trkpt>
    <trkpt lat="48.38446" lon="14.45824"><ele>432</ele></trkpt>
    <trkpt lat="48.38452" lon="14.45930"><ele>436</ele></trkpt>
    <trkpt lat="48.38455" lon="14.46006"><ele>443</ele></trkpt>
    <trkpt lat="48.38477" lon="14.46005"><ele>447</ele></trkpt>
    <trkpt lat="48.38511" lon="14.45968"><ele>453</ele></trkpt>
    <trkpt lat="48.38521" lon="14.46009"><ele>462</ele></trkpt>
    <trkpt lat="48.38508" lon="14.46058"><ele>468</ele></trkpt>
    <trkpt lat="48.38509" lon="14.46113"><ele>473</ele></trkpt>
    <trkpt lat="48.38510" lon="14.46127"><ele>475</ele></trkpt>
    <trkpt lat="48.38499" lon="14.46178"><ele>477</ele></trkpt>
    <trkpt lat="48.38510" lon="14.46194"><ele>476</ele></trkpt>
    <trkpt lat="48.38501" lon="14.46236"><ele>479</ele></trkpt>
    <trkpt lat="48.38505" lon="14.46219"><ele>480</ele></trkpt>
    <trkpt lat="48.38527" lon="14.46173"><ele>485</ele></trkpt>
    <trkpt lat="48.38542" lon="14.46204"><ele>486</ele></trkpt>
    <trkpt lat="48.38749" lon="14.46183"><ele>479</ele></trkpt>
    <trkpt lat="48.38861" lon="14.45983"><ele>473</ele></trkpt>
    <trkpt lat="48.39002" lon="14.45953"><ele>461</ele></trkpt>
    <trkpt lat="48.39097" lon="14.46073"><ele>444</ele></trkpt>
    <trkpt lat="48.39146" lon="14.46159"><ele>441</ele></trkpt>
    <trkpt lat="48.39294" lon="14.46247"><ele>427</ele></trkpt>
    <trkpt lat="48.39338" lon="14.46277"><ele>418</ele></trkpt>
    <trkpt lat="48.39272" lon="14.46264"><ele>412</ele></trkpt>
    <trkpt lat="48.39164" lon="14.46252"><ele>409</ele></trkpt>
    <trkpt lat="48.39053" lon="14.46268"><ele>405</ele></trkpt>
    <trkpt lat="48.38950" lon="14.46290"><ele>404</ele></trkpt>
    <trkpt lat="48.38862" lon="14.46394"><ele>402</ele></trkpt>
    <trkpt lat="48.38771" lon="14.46413"><ele>399</ele></trkpt>
    <trkpt lat="48.38659" lon="14.46434"><ele>401</ele></trkpt>
    <trkpt lat="48.38542" lon="14.46495"><ele>394</ele></trkpt>
    <trkpt lat="48.38419" lon="14.46532"><ele>389</ele></trkpt>
    <trkpt lat="48.38298" lon="14.46533"><ele>386</ele></trkpt>
    <trkpt lat="48.38196" lon="14.46492"><ele>385</ele></trkpt>
    <trkpt lat="48.38105" lon="14.46462"><ele>379</ele></trkpt>
    <trkpt lat="48.38101" lon="14.46332"><ele>381</ele></trkpt>
    <trkpt lat="48.38002" lon="14.46155"><ele>377</ele></trkpt>
    <trkpt lat="48.37969" lon="14.45956"><ele>368</ele></trkpt>
    <trkpt lat="48.37909" lon="14.45953"><ele>370</ele></trkpt>
    <trkpt lat="48.37907" lon="14.46218"><ele>368</ele></trkpt>
    <trkpt lat="48.37988" lon="14.46405"><ele>366</ele></trkpt>
    <trkpt lat="48.37875" lon="14.46449"><ele>367</ele></trkpt>
    <trkpt lat="48.37751" lon="14.46461"><ele>368</ele></trkpt>
    <trkpt lat="48.37590" lon="14.46452"><ele>368</ele></trkpt>
    <trkpt lat="48.37517" lon="14.46369"><ele>367</ele></trkpt>
    <trkpt lat="48.37505" lon="14.46262"><ele>367</ele></trkpt>
    <trkpt lat="48.37424" lon="14.46344"><ele>367</ele></trkpt>
    <trkpt lat="48.37188" lon="14.46287"><ele>369</ele></trkpt>
    <trkpt lat="48.37187" lon="14.46164"><ele>369</ele></trkpt>
    <trkpt lat="48.37173" lon="14.46040"><ele>366</ele></trkpt>
    <trkpt lat="48.37111" lon="14.46144"><ele>367</ele></trkpt>
    <trkpt lat="48.37090" lon="14.46349"><ele>361</ele></trkpt>
    <trkpt lat="48.36944" lon="14.46491"><ele>342</ele></trkpt>
    <trkpt lat="48.36951" lon="14.46563"><ele>335</ele></trkpt>
    <trkpt lat="48.36904" lon="14.46616"><ele>332</ele></trkpt>
    <trkpt lat="48.36855" lon="14.46719"><ele>334</ele></trkpt>
    <trkpt lat="48.36785" lon="14.46750"><ele>333</ele></trkpt>
    <trkpt lat="48.36779" lon="14.46735"><ele>330</ele></trkpt>
    <trkpt lat="48.36778" lon="14.46704"><ele>331</ele></trkpt>
    <trkpt lat="48.36766" lon="14.46697"><ele>335</ele></trkpt>
    <trkpt lat="48.36777" lon="14.46707"><ele>333</ele></trkpt>
    <trkpt lat="48.36745" lon="14.46755"><ele>333</ele></trkpt>
    <trkpt lat="48.36754" lon="14.46749"><ele>329</ele></trkpt>
    <trkpt lat="48.36748" lon="14.46761"><ele>327</ele></trkpt>
    <trkpt lat="48.36738" lon="14.46754"><ele>333</ele></trkpt>
    <trkpt lat="48.36721" lon="14.46761"><ele>333</ele></trkpt>
    <trkpt lat="48.36635" lon="14.46784"><ele>335</ele></trkpt>
    <trkpt lat="48.36603" lon="14.46766"><ele>338</ele></trkpt>
    <trkpt lat="48.36607" lon="14.46556"><ele>341</ele></trkpt>
    <trkpt lat="48.36607" lon="14.46452"><ele>346</ele></trkpt>
    <trkpt lat="48.36533" lon="14.46473"><ele>348</ele></trkpt>
    <trkpt lat="48.36440" lon="14.46470"><ele>348</ele></trkpt>
    <trkpt lat="48.36266" lon="14.46444"><ele>347</ele></trkpt>
    <trkpt lat="48.36147" lon="14.46381"><ele>345</ele></trkpt>
    <trkpt lat="48.36143" lon="14.46191"><ele>338</ele></trkpt>
    <trkpt lat="48.36124" lon="14.46027"><ele>340</ele></trkpt>
    <trkpt lat="48.36085" lon="14.45986"><ele>343</ele></trkpt>
    <trkpt lat="48.36025" lon="14.46170"><ele>344</ele></trkpt>
    <trkpt lat="48.35980" lon="14.46212"><ele>345</ele></trkpt>
    <trkpt lat="48.35927" lon="14.46261"><ele>352</ele></trkpt>
    <trkpt lat="48.35873" lon="14.46224"><ele>355</ele></trkpt>
    <trkpt lat="48.35805" lon="14.46163"><ele>355</ele></trkpt>
    <trkpt lat="48.35752" lon="14.46090"><ele>359</ele></trkpt>
    <trkpt lat="48.35696" lon="14.46017"><ele>362</ele></trkpt>
    <trkpt lat="48.35646" lon="14.45984"><ele>362</ele></trkpt>
    <trkpt lat="48.35608" lon="14.46168"><ele>361</ele></trkpt>
    <trkpt lat="48.35535" lon="14.46114"><ele>339</ele></trkpt>
    <trkpt lat="48.35544" lon="14.46429"><ele>326</ele></trkpt>
    <trkpt lat="48.35492" lon="14.46414"><ele>318</ele></trkpt>
    <trkpt lat="48.35468" lon="14.46290"><ele>320</ele></trkpt>
    <trkpt lat="48.35390" lon="14.46324"><ele>319</ele></trkpt>
    <trkpt lat="48.35338" lon="14.46489"><ele>320</ele></trkpt>
    <trkpt lat="48.35364" lon="14.46336"><ele>321</ele></trkpt>
    <trkpt lat="48.35326" lon="14.46185"><ele>323</ele></trkpt>
    <trkpt lat="48.35275" lon="14.46078"><ele>320</ele></trkpt>
    <trkpt lat="48.35167" lon="14.46176"><ele>320</ele></trkpt>
    <trkpt lat="48.35007" lon="14.46166"><ele>319</ele></trkpt>
    <trkpt lat="48.34915" lon="14.45962"><ele>314</ele></trkpt>
    <trkpt lat="48.34814" lon="14.46071"><ele>310</ele></trkpt>
    <trkpt lat="48.34785" lon="14.46107"><ele>311</ele></trkpt>
    <trkpt lat="48.34685" lon="14.46136"><ele>311</ele></trkpt>
    <trkpt lat="48.34557" lon="14.46132"><ele>303</ele></trkpt>
    <trkpt lat="48.34505" lon="14.46243"><ele>297</ele></trkpt>
    <trkpt lat="48.34482" lon="14.46298"><ele>295</ele></trkpt>
    <trkpt lat="48.34474" lon="14.46329"><ele>298</ele></trkpt>
    <trkpt lat="48.34455" lon="14.46352"><ele>299</ele></trkpt>
    <trkpt lat="48.34430" lon="14.46359"><ele>296</ele></trkpt>
    <trkpt lat="48.34386" lon="14.46347"><ele>297</ele></trkpt>
    <trkpt lat="48.34342" lon="14.46323"><ele>297</ele></trkpt>
    <trkpt lat="48.34297" lon="14.46314"><ele>296</ele></trkpt>
    <trkpt lat="48.34245" lon="14.46376"><ele>297</ele></trkpt>
    <trkpt lat="48.34171" lon="14.46469"><ele>294</ele></trkpt>
    <trkpt lat="48.34012" lon="14.46599"><ele>294</ele></trkpt>
    <trkpt lat="48.34039" lon="14.46663"><ele>292</ele></trkpt>
    <trkpt lat="48.33983" lon="14.46891"><ele>292</ele></trkpt>
    <trkpt lat="48.33804" lon="14.46873"><ele>289</ele></trkpt>
    <trkpt lat="48.33600" lon="14.47147"><ele>289</ele></trkpt>
    <trkpt lat="48.33582" lon="14.47311"><ele>290</ele></trkpt>
    <trkpt lat="48.33555" lon="14.47351"><ele>289</ele></trkpt>
    <trkpt lat="48.33473" lon="14.47368"><ele>288</ele></trkpt>
    <trkpt lat="48.33372" lon="14.47468"><ele>287</ele></trkpt>
    <trkpt lat="48.33268" lon="14.47561"><ele>286</ele></trkpt>
    <trkpt lat="48.33172" lon="14.47659"><ele>286</ele></trkpt>
    <trkpt lat="48.33156" lon="14.47691"><ele>285</ele></trkpt>
    <trkpt lat="48.33142" lon="14.47707"><ele>289</ele></trkpt>
    <trkpt lat="48.33135" lon="14.47723"><ele>288</ele></trkpt>
    <trkpt lat="48.33060" lon="14.47718"><ele>284</ele></trkpt>
    <trkpt lat="48.32971" lon="14.47792"><ele>283</ele></trkpt>
    <trkpt lat="48.32872" lon="14.47800"><ele>283</ele></trkpt>
    <trkpt lat="48.32832" lon="14.47872"><ele>282</ele></trkpt>
    <trkpt lat="48.32817" lon="14.47863"><ele>285</ele></trkpt>
    <trkpt lat="48.32830" lon="14.47875"><ele>305</ele></trkpt>
    <trkpt lat="48.32814" lon="14.47874"><ele>280</ele></trkpt>
    <trkpt lat="48.32804" lon="14.47872"><ele>284</ele></trkpt>
    <trkpt lat="48.32743" lon="14.47804"><ele>287</ele></trkpt>
    <trkpt lat="48.32665" lon="14.47650"><ele>287</ele></trkpt>
    <trkpt lat="48.32607" lon="14.47565"><ele>292</ele></trkpt>
    <trkpt lat="48.32572" lon="14.47499"><ele>296</ele></trkpt>
    <trkpt lat="48.32543" lon="14.47438"><ele>302</ele></trkpt>
    <trkpt lat="48.32497" lon="14.47411"><ele>307</ele></trkpt>
    <trkpt lat="48.32450" lon="14.47395"><ele>312</ele></trkpt>
    <trkpt lat="48.32395" lon="14.47383"><ele>314</ele></trkpt>
    <trkpt lat="48.32288" lon="14.47324"><ele>315</ele></trkpt>
    <trkpt lat="48.32209" lon="14.47284"><ele>319</ele></trkpt>
    <trkpt lat="48.32136" lon="14.47250"><ele>323</ele></trkpt>
    <trkpt lat="48.31954" lon="14.47171"><ele>310</ele></trkpt>
    <trkpt lat="48.31764" lon="14.47179"><ele>297</ele></trkpt>
    <trkpt lat="48.31691" lon="14.47014"><ele>292</ele></trkpt>
    <trkpt lat="48.31581" lon="14.47022"><ele>290</ele></trkpt>
    <trkpt lat="48.31454" lon="14.46977"><ele>291</ele></trkpt>
    <trkpt lat="48.31385" lon="14.46899"><ele>299</ele></trkpt>
    <trkpt lat="48.31330" lon="14.46834"><ele>303</ele></trkpt>
    <trkpt lat="48.31288" lon="14.46750"><ele>305</ele></trkpt>
    <trkpt lat="48.31248" lon="14.46685"><ele>309</ele></trkpt>
    <trkpt lat="48.31216" lon="14.46606"><ele>316</ele></trkpt>
    <trkpt lat="48.31186" lon="14.46528"><ele>320</ele></trkpt>
    <trkpt lat="48.31165" lon="14.46463"><ele>322</ele></trkpt>
    <trkpt lat="48.31170" lon="14.46379"><ele>327</ele></trkpt>
    <trkpt lat="48.31197" lon="14.46278"><ele>330</ele></trkpt>
    <trkpt lat="48.31230" lon="14.46176"><ele>333</ele></trkpt>
    <trkpt lat="48.31249" lon="14.46079"><ele>335</ele></trkpt>
    <trkpt lat="48.31286" lon="14.45988"><ele>337</ele></trkpt>
    <trkpt lat="48.31314" lon="14.45854"><ele>340</ele></trkpt>
    <trkpt lat="48.31329" lon="14.45719"><ele>342</ele></trkpt>
    <trkpt lat="48.31338" lon="14.45570"><ele>345</ele></trkpt>
    <trkpt lat="48.31342" lon="14.45413"><ele>349</ele></trkpt>
    <trkpt lat="48.31357" lon="14.45254"><ele>353</ele></trkpt>
    <trkpt lat="48.31368" lon="14.45107"><ele>355</ele></trkpt>
    <trkpt lat="48.31388" lon="14.44998"><ele>358</ele></trkpt>
    <trkpt lat="48.31397" lon="14.44893"><ele>358</ele></trkpt>
    <trkpt lat="48.31423" lon="14.44778"><ele>361</ele></trkpt>
    <trkpt lat="48.31438" lon="14.44648"><ele>364</ele></trkpt>
    <trkpt lat="48.31449" lon="14.44512"><ele>365</ele></trkpt>
    <trkpt lat="48.31447" lon="14.44485"><ele>367</ele></trkpt>
    <trkpt lat="48.31448" lon="14.44453"><ele>367</ele></trkpt>
    <trkpt lat="48.31421" lon="14.44332"><ele>370</ele></trkpt>
    <trkpt lat="48.31297" lon="14.44214"><ele>369</ele></trkpt>
    <trkpt lat="48.31182" lon="14.44244"><ele>372</ele></trkpt>
    <trkpt lat="48.31120" lon="14.44254"><ele>378</ele></trkpt>
    <trkpt lat="48.31120" lon="14.44212"><ele>385</ele></trkpt>
    <trkpt lat="48.31152" lon="14.44157"><ele>390</ele></trkpt>
    <trkpt lat="48.31186" lon="14.44117"><ele>396</ele></trkpt>
    <trkpt lat="48.31221" lon="14.44083"><ele>400</ele></trkpt>
    <trkpt lat="48.31265" lon="14.44061"><ele>405</ele></trkpt>
    <trkpt lat="48.31300" lon="14.44016"><ele>408</ele></trkpt>
    <trkpt lat="48.31330" lon="14.43948"><ele>413</ele></trkpt>
    <trkpt lat="48.31386" lon="14.43900"><ele>415</ele></trkpt>
    <trkpt lat="48.31419" lon="14.43826"><ele>422</ele></trkpt>
    <trkpt lat="48.31443" lon="14.43726"><ele>424</ele></trkpt>
    <trkpt lat="48.31410" lon="14.43668"><ele>425</ele></trkpt>
    <trkpt lat="48.31368" lon="14.43539"><ele>425</ele></trkpt>
    <trkpt lat="48.31351" lon="14.43406"><ele>428</ele></trkpt>
    <trkpt lat="48.31303" lon="14.43317"><ele>429</ele></trkpt>
    <trkpt lat="48.31278" lon="14.43110"><ele>424</ele></trkpt>
    <trkpt lat="48.31309" lon="14.42904"><ele>410</ele></trkpt>
    <trkpt lat="48.31380" lon="14.42767"><ele>404</ele></trkpt>
    <trkpt lat="48.31434" lon="14.42660"><ele>398</ele></trkpt>
    <trkpt lat="48.31410" lon="14.42548"><ele>388</ele></trkpt>
    <trkpt lat="48.31380" lon="14.42451"><ele>392</ele></trkpt>
    <trkpt lat="48.31373" lon="14.42395"><ele>397</ele></trkpt>
    <trkpt lat="48.31364" lon="14.42277"><ele>395</ele></trkpt>
    <trkpt lat="48.31390" lon="14.42066"><ele>390</ele></trkpt>
    <trkpt lat="48.31515" lon="14.41910"><ele>386</ele></trkpt>
    <trkpt lat="48.31587" lon="14.41603"><ele>364</ele></trkpt>
    <trkpt lat="48.31511" lon="14.41493"><ele>354</ele></trkpt>
    <trkpt lat="48.31337" lon="14.41225"><ele>334</ele></trkpt>
    <trkpt lat="48.31123" lon="14.41083"><ele>313</ele></trkpt>
    <trkpt lat="48.31002" lon="14.41010"><ele>316</ele></trkpt>
    <trkpt lat="48.30935" lon="14.40874"><ele>306</ele></trkpt>
    <trkpt lat="48.30769" lon="14.40713"><ele>293</ele></trkpt>
    <trkpt lat="48.30728" lon="14.40614"><ele>287</ele></trkpt>
    <trkpt lat="48.30690" lon="14.40615"><ele>292</ele></trkpt>
    <trkpt lat="48.30553" lon="14.40494"><ele>264</ele></trkpt>
    <trkpt lat="48.30539" lon="14.40498"><ele>276</ele></trkpt>
    <trkpt lat="48.30508" lon="14.40521"><ele>278</ele></trkpt>
    <trkpt lat="48.30380" lon="14.40514"><ele>289</ele></trkpt>
    <trkpt lat="48.30230" lon="14.40449"><ele>287</ele></trkpt>
    <trkpt lat="48.30157" lon="14.40321"><ele>283</ele></trkpt>
    <trkpt lat="48.30077" lon="14.40169"><ele>275</ele></trkpt>
    <trkpt lat="48.29966" lon="14.40119"><ele>275</ele></trkpt>
    <trkpt lat="48.29855" lon="14.40085"><ele>272</ele></trkpt>
    <trkpt lat="48.29717" lon="14.40058"><ele>271</ele></trkpt>
    <trkpt lat="48.29602" lon="14.40118"><ele>269</ele></trkpt>
    <trkpt lat="48.29475" lon="14.40196"><ele>269</ele></trkpt>
    <trkpt lat="48.29446" lon="14.40237"><ele>272</ele></trkpt>
    <trkpt lat="48.29401" lon="14.40341"><ele>270</ele></trkpt>
    <trkpt lat="48.29282" lon="14.40430"><ele>271</ele></trkpt>
    <trkpt lat="48.29156" lon="14.40354"><ele>270</ele></trkpt>
    <trkpt lat="48.29054" lon="14.40327"><ele>271</ele></trkpt>
    <trkpt lat="48.28978" lon="14.40367"><ele>270</ele></trkpt>
    <trkpt lat="48.28937" lon="14.40406"><ele>275</ele></trkpt>
    <trkpt lat="48.28891" lon="14.40412"><ele>280</ele></trkpt>
    <trkpt lat="48.28771" lon="14.40432"><ele>279</ele></trkpt>
    <trkpt lat="48.28511" lon="14.40344"><ele>275</ele></trkpt>
    <trkpt lat="48.28356" lon="14.40300"><ele>265</ele></trkpt>
    <trkpt lat="48.28171" lon="14.40267"><ele>260</ele></trkpt>
    <trkpt lat="48.28082" lon="14.40141"><ele>257</ele></trkpt>
    <trkpt lat="48.28099" lon="14.39933"><ele>252</ele></trkpt>
    <trkpt lat="48.28121" lon="14.39729"><ele>251</ele></trkpt>
    <trkpt lat="48.28185" lon="14.39597"><ele>256</ele></trkpt>
    <trkpt lat="48.28192" lon="14.39499"><ele>259</ele></trkpt>
    <trkpt lat="48.28184" lon="14.39365"><ele>262</ele></trkpt>
    <trkpt lat="48.28108" lon="14.39150"><ele>261</ele></trkpt>
    <trkpt lat="48.28111" lon="14.38909"><ele>261</ele></trkpt>
    <trkpt lat="48.28062" lon="14.38668"><ele>255</ele></trkpt>
    <trkpt lat="48.28072" lon="14.38464"><ele>256</ele></trkpt>
    <trkpt lat="48.28045" lon="14.38234"><ele>257</ele></trkpt>
    <trkpt lat="48.28032" lon="14.38051"><ele>259</ele></trkpt>
    <trkpt lat="48.28080" lon="14.37782"><ele>255</ele></trkpt>
    <trkpt lat="48.28165" lon="14.37570"><ele>254</ele></trkpt>
    <trkpt lat="48.28280" lon="14.37360"><ele>253</ele></trkpt>
    <trkpt lat="48.28364" lon="14.37154"><ele>254</ele></trkpt>
    <trkpt lat="48.28399" lon="14.36964"><ele>255</ele></trkpt>
    <trkpt lat="48.28352" lon="14.36898"><ele>255</ele></trkpt>
    <trkpt lat="48.28347" lon="14.36749"><ele>256</ele></trkpt>
    <trkpt lat="48.28292" lon="14.36626"><ele>257</ele></trkpt>
    <trkpt lat="48.28313" lon="14.36483"><ele>257</ele></trkpt>
    <trkpt lat="48.28344" lon="14.36255"><ele>257</ele></trkpt>
    <trkpt lat="48.28389" lon="14.36016"><ele>257</ele></trkpt>
    <trkpt lat="48.28439" lon="14.35755"><ele>257</ele></trkpt>
    <trkpt lat="48.28469" lon="14.35530"><ele>254</ele></trkpt>
    <trkpt lat="48.28492" lon="14.35286"><ele>252</ele></trkpt>
    <trkpt lat="48.28548" lon="14.35095"><ele>253</ele></trkpt>
    <trkpt lat="48.28560" lon="14.34898"><ele>250</ele></trkpt>
    <trkpt lat="48.28616" lon="14.34704"><ele>250</ele></trkpt>
    <trkpt lat="48.28752" lon="14.34618"><ele>254</ele></trkpt>
    <trkpt lat="48.28929" lon="14.34564"><ele>255</ele></trkpt>
    <trkpt lat="48.28850" lon="14.34658"><ele>258</ele></trkpt>
    <trkpt lat="48.28807" lon="14.34642"><ele>262</ele></trkpt>
    <trkpt lat="48.28761" lon="14.34516"><ele>266</ele></trkpt>
    <trkpt lat="48.28721" lon="14.34362"><ele>267</ele></trkpt>
    <trkpt lat="48.28674" lon="14.34170"><ele>266</ele></trkpt>
    <trkpt lat="48.28624" lon="14.33960"><ele>263</ele></trkpt>
    <trkpt lat="48.28565" lon="14.33646"><ele>258</ele></trkpt>
    <trkpt lat="48.28518" lon="14.33353"><ele>256</ele></trkpt>
    <trkpt lat="48.28502" lon="14.33070"><ele>257</ele></trkpt>
    <trkpt lat="48.28531" lon="14.32812"><ele>257</ele></trkpt>
    <trkpt lat="48.28565" lon="14.32636"><ele>263</ele></trkpt>
    <trkpt lat="48.28594" lon="14.32482"><ele>267</ele></trkpt>
    <trkpt lat="48.28629" lon="14.32297"><ele>268</ele></trkpt>
    <trkpt lat="48.28714" lon="14.32061"><ele>260</ele></trkpt>
    <trkpt lat="48.28625" lon="14.31997"><ele>258</ele></trkpt>
    <trkpt lat="48.28601" lon="14.31979"><ele>256</ele></trkpt>
    <trkpt lat="48.28547" lon="14.31927"><ele>260</ele></trkpt>
    <trkpt lat="48.28528" lon="14.31903"><ele>261</ele></trkpt>
    <trkpt lat="48.28499" lon="14.31816"><ele>260</ele></trkpt>
    <trkpt lat="48.28528" lon="14.31708"><ele>259</ele></trkpt>
    <trkpt lat="48.28515" lon="14.31584"><ele>260</ele></trkpt>
    <trkpt lat="48.28478" lon="14.31462"><ele>267</ele></trkpt>
    <trkpt lat="48.28439" lon="14.31296"><ele>271</ele></trkpt>
    <trkpt lat="48.28391" lon="14.31099"><ele>270</ele></trkpt>
    <trkpt lat="48.28307" lon="14.30868"><ele>267</ele></trkpt>
    <trkpt lat="48.28256" lon="14.30723"><ele>262</ele></trkpt>
    <trkpt lat="48.28280" lon="14.30647"><ele>265</ele></trkpt>
    <trkpt lat="48.28324" lon="14.30588"><ele>265</ele></trkpt>
    <trkpt lat="48.28397" lon="14.30467"><ele>266</ele></trkpt>
    <trkpt lat="48.28416" lon="14.30427"><ele>266</ele></trkpt>
    <trkpt lat="48.28390" lon="14.30385"><ele>268</ele></trkpt>
    <trkpt lat="48.28358" lon="14.30284"><ele>267</ele></trkpt>
    <trkpt lat="48.28350" lon="14.30269"><ele>265</ele></trkpt>
    <trkpt lat="48.28271" lon="14.30267"><ele>267</ele></trkpt>
    <trkpt lat="48.28269" lon="14.30071"><ele>265</ele></trkpt>
    <trkpt lat="48.28275" lon="14.29888"><ele>263</ele></trkpt>
    <trkpt lat="48.28292" lon="14.29687"><ele>264</ele></trkpt>
    <trkpt lat="48.28294" lon="14.29480"><ele>262</ele></trkpt>
    <trkpt lat="48.28279" lon="14.29286"><ele>264</ele></trkpt>
    <trkpt lat="48.28279" lon="14.29194"><ele>263</ele></trkpt>
    <trkpt lat="48.28264" lon="14.29003"><ele>265</ele></trkpt>
    <trkpt lat="48.28234" lon="14.28815"><ele>269</ele></trkpt>
    <trkpt lat="48.28203" lon="14.28717"><ele>268</ele></trkpt>
    <trkpt lat="48.28256" lon="14.28653"><ele>269</ele></trkpt>
    <trkpt lat="48.28251" lon="14.28640"><ele>267</ele></trkpt>
    <trkpt lat="48.28201" lon="14.28521"><ele>270</ele></trkpt>
    <trkpt lat="48.28160" lon="14.28438"><ele>269</ele></trkpt>
    <trkpt lat="48.28116" lon="14.28331"><ele>269</ele></trkpt>
    <trkpt lat="48.28032" lon="14.28207"><ele>271</ele></trkpt>
    <trkpt lat="48.27956" lon="14.28168"><ele>274</ele></trkpt>
    <trkpt lat="48.28045" lon="14.28042"><ele>297</ele></trkpt>
    <trkpt lat="48.28038" lon="14.28028"><ele>272</ele></trkpt>
    <trkpt lat="48.28070" lon="14.27981"><ele>278</ele></trkpt>
    <trkpt lat="48.28108" lon="14.27908"><ele>276</ele></trkpt>
    <trkpt lat="48.28165" lon="14.27826"><ele>278</ele></trkpt>
    <trkpt lat="48.28224" lon="14.27751"><ele>282</ele></trkpt>
    <trkpt lat="48.28273" lon="14.27671"><ele>284</ele></trkpt>
    <trkpt lat="48.28329" lon="14.27587"><ele>288</ele></trkpt>
    <trkpt lat="48.28385" lon="14.27486"><ele>293</ele></trkpt>
    <trkpt lat="48.28446" lon="14.27428"><ele>295</ele></trkpt>
    <trkpt lat="48.28507" lon="14.27418"><ele>297</ele></trkpt>
    <trkpt lat="48.28556" lon="14.27348"><ele>301</ele></trkpt>
    <trkpt lat="48.28600" lon="14.27287"><ele>305</ele></trkpt>
    <trkpt lat="48.28652" lon="14.27215"><ele>311</ele></trkpt>
    <trkpt lat="48.28713" lon="14.27159"><ele>314</ele></trkpt>
    <trkpt lat="48.28772" lon="14.27195"><ele>319</ele></trkpt>
    <trkpt lat="48.28657" lon="14.27360"><ele>326</ele></trkpt>
    <trkpt lat="48.28580" lon="14.27508"><ele>320</ele></trkpt>
  </trkseg>
</trk>
</gpx>