<?xml version="1.0" encoding="UTF-8"?>
<gpx version="1.1" creator="GPX-Pro" xmlns="http://www.topografix.com/GPX/1/1">
<trk>
  <name>Mtb_St.Nikola-Pregarten</name>
  <trkseg>
    <trkpt lat="48.23346" lon="14.90916"><ele>246</ele><time>2026-06-15T08:05:49Z</time></trkpt>
    <trkpt lat="48.23334" lon="14.90846"><ele>239</ele><time>2026-06-15T08:06:19Z</time></trkpt>
    <trkpt lat="48.23326" lon="14.90736"><ele>245</ele><time>2026-06-15T08:06:48Z</time></trkpt>
    <trkpt lat="48.23347" lon="14.90697"><ele>247</ele><time>2026-06-15T08:07:17Z</time></trkpt>
    <trkpt lat="48.23355" lon="14.90685"><ele>247</ele><time>2026-06-15T08:07:47Z</time></trkpt>
    <trkpt lat="48.23365" lon="14.90518"><ele>235</ele><time>2026-06-15T08:08:16Z</time></trkpt>
    <trkpt lat="48.23334" lon="14.90496"><ele>229</ele><time>2026-06-15T08:08:45Z</time></trkpt>
    <trkpt lat="48.23320" lon="14.90413"><ele>233</ele><time>2026-06-15T08:09:15Z</time></trkpt>
    <trkpt lat="48.23295" lon="14.90340"><ele>237</ele><time>2026-06-15T08:09:44Z</time></trkpt>
    <trkpt lat="48.23272" lon="14.90298"><ele>241</ele><time>2026-06-15T08:10:13Z</time></trkpt>
    <trkpt lat="48.23217" lon="14.90318"><ele>239</ele><time>2026-06-15T08:10:43Z</time></trkpt>
    <trkpt lat="48.23181" lon="14.90210"><ele>232</ele><time>2026-06-15T08:11:12Z</time></trkpt>
    <trkpt lat="48.23133" lon="14.90063"><ele>231</ele><time>2026-06-15T08:11:41Z</time></trkpt>
    <trkpt lat="48.23111" lon="14.89906"><ele>229</ele><time>2026-06-15T08:12:11Z</time></trkpt>
    <trkpt lat="48.23162" lon="14.89841"><ele>233</ele><time>2026-06-15T08:12:40Z</time></trkpt>
    <trkpt lat="48.23203" lon="14.89824"><ele>243</ele><time>2026-06-15T08:13:09Z</time></trkpt>
    <trkpt lat="48.23236" lon="14.89838"><ele>248</ele><time>2026-06-15T08:13:39Z</time></trkpt>
    <trkpt lat="48.23225" lon="14.89878"><ele>251</ele><time>2026-06-15T08:14:08Z</time></trkpt>
    <trkpt lat="48.23209" lon="14.89922"><ele>258</ele><time>2026-06-15T08:14:37Z</time></trkpt>
    <trkpt lat="48.23199" lon="14.89992"><ele>263</ele><time>2026-06-15T08:15:07Z</time></trkpt>
    <trkpt lat="48.23228" lon="14.90102"><ele>265</ele><time>2026-06-15T08:15:36Z</time></trkpt>
    <trkpt lat="48.23259" lon="14.90147"><ele>271</ele><time>2026-06-15T08:16:05Z</time></trkpt>
    <trkpt lat="48.23275" lon="14.90108"><ele>273</ele><time>2026-06-15T08:16:35Z</time></trkpt>
    <trkpt lat="48.23284" lon="14.90051"><ele>278</ele><time>2026-06-15T08:17:04Z</time></trkpt>
    <trkpt lat="48.23292" lon="14.89999"><ele>283</ele><time>2026-06-15T08:17:33Z</time></trkpt>
    <trkpt lat="48.23307" lon="14.89949"><ele>284</ele><time>2026-06-15T08:18:03Z</time></trkpt>
    <trkpt lat="48.23338" lon="14.89915"><ele>288</ele><time>2026-06-15T08:18:32Z</time></trkpt>
    <trkpt lat="48.23367" lon="14.89890"><ele>293</ele><time>2026-06-15T08:19:01Z</time></trkpt>
    <trkpt lat="48.23395" lon="14.89850"><ele>299</ele><time>2026-06-15T08:19:31Z</time></trkpt>
    <trkpt lat="48.23393" lon="14.89798"><ele>305</ele><time>2026-06-15T08:20:00Z</time></trkpt>
    <trkpt lat="48.23367" lon="14.89763"><ele>312</ele><time>2026-06-15T08:20:29Z</time></trkpt>
    <trkpt lat="48.23330" lon="14.89729"><ele>319</ele><time>2026-06-15T08:20:59Z</time></trkpt>
    <trkpt lat="48.23280" lon="14.89661"><ele>325</ele><time>2026-06-15T08:21:28Z</time></trkpt>
    <trkpt lat="48.23298" lon="14.89615"><ele>328</ele><time>2026-06-15T08:21:57Z</time></trkpt>
    <trkpt lat="48.23342" lon="14.89606"><ele>334</ele><time>2026-06-15T08:22:27Z</time></trkpt>
    <trkpt lat="48.23380" lon="14.89636"><ele>338</ele><time>2026-06-15T08:22:56Z</time></trkpt>
    <trkpt lat="48.23416" lon="14.89654"><ele>346</ele><time>2026-06-15T08:23:25Z</time></trkpt>
    <trkpt lat="48.23450" lon="14.89660"><ele>352</ele><time>2026-06-15T08:23:55Z</time></trkpt>
    <trkpt lat="48.23494" lon="14.89671"><ele>356</ele><time>2026-06-15T08:24:24Z</time></trkpt>
    <trkpt lat="48.23534" lon="14.89663"><ele>357</ele><time>2026-06-15T08:24:53Z</time></trkpt>
    <trkpt lat="48.23577" lon="14.89643"><ele>363</ele><time>2026-06-15T08:25:23Z</time></trkpt>
    <trkpt lat="48.23616" lon="14.89627"><ele>366</ele><time>2026-06-15T08:25:52Z</time></trkpt>
    <trkpt lat="48.23625" lon="14.89590"><ele>373</ele><time>2026-06-15T08:26:21Z</time></trkpt>
    <trkpt lat="48.23625" lon="14.89531"><ele>377</ele><time>2026-06-15T08:26:51Z</time></trkpt>
    <trkpt lat="48.23650" lon="14.89501"><ele>383</ele><time>2026-06-15T08:27:20Z</time></trkpt>
    <trkpt lat="48.23665" lon="14.89491"><ele>387</ele><time>2026-06-15T08:27:49Z</time></trkpt>
    <trkpt lat="48.23680" lon="14.89507"><ele>394</ele><time>2026-06-15T08:28:19Z</time></trkpt>
    <trkpt lat="48.23689" lon="14.89512"><ele>396</ele><time>2026-06-15T08:28:48Z</time></trkpt>
    <trkpt lat="48.23693" lon="14.89392"><ele>399</ele><time>2026-06-15T08:31:44Z</time></trkpt>
    <trkpt lat="48.23759" lon="14.89271"><ele>395</ele><time>2026-06-15T08:32:13Z</time></trkpt>
    <trkpt lat="48.23772" lon="14.89238"><ele>398</ele><time>2026-06-15T08:32:43Z</time></trkpt>
    <trkpt lat="48.23816" lon="14.89227"><ele>402</ele><time>2026-06-15T08:33:41Z</time></trkpt>
    <trkpt lat="48.23865" lon="14.89187"><ele>402</ele><time>2026-06-15T08:34:11Z</time></trkpt>
    <trkpt lat="48.23873" lon="14.89211"><ele>402</ele><time>2026-06-15T08:34:40Z</time></trkpt>
    <trkpt lat="48.23866" lon="14.89239"><ele>413</ele><time>2026-06-15T08:35:09Z</time></trkpt>
    <trkpt lat="48.23867" lon="14.89292"><ele>419</ele><time>2026-06-15T08:35:39Z</time></trkpt>
    <trkpt lat="48.23872" lon="14.89313"><ele>417</ele><time>2026-06-15T08:36:08Z</time></trkpt>
    <trkpt lat="48.23837" lon="14.89348"><ele>421</ele><time>2026-06-15T08:36:37Z</time></trkpt>
    <trkpt lat="48.23861" lon="14.89393"><ele>424</ele><time>2026-06-15T08:37:07Z</time></trkpt>
    <trkpt lat="48.23853" lon="14.89418"><ele>426</ele><time>2026-06-15T08:37:36Z</time></trkpt>
    <trkpt lat="48.23847" lon="14.89433"><ele>431</ele><time>2026-06-15T08:38:35Z</time></trkpt>
    <trkpt lat="48.23849" lon="14.89449"><ele>425</ele><time>2026-06-15T08:41:01Z</time></trkpt>
    <trkpt lat="48.23863" lon="14.89504"><ele>427</ele><time>2026-06-15T08:41:31Z</time></trkpt>
    <trkpt lat="48.23896" lon="14.89477"><ele>429</ele><time>2026-06-15T08:42:00Z</time></trkpt>
    <trkpt lat="48.23946" lon="14.89504"><ele>436</ele><time>2026-06-15T08:42:29Z</time></trkpt>
    <trkpt lat="48.23984" lon="14.89541"><ele>441</ele><time>2026-06-15T08:42:59Z</time></trkpt>
    <trkpt lat="48.24017" lon="14.89533"><ele>446</ele><time>2026-06-15T08:43:28Z</time></trkpt>
    <trkpt lat="48.24041" lon="14.89497"><ele>447</ele><time>2026-06-15T08:44:27Z</time></trkpt>
    <trkpt lat="48.24101" lon="14.89449"><ele>449</ele><time>2026-06-15T08:44:56Z</time></trkpt>
    <trkpt lat="48.24103" lon="14.89363"><ele>454</ele><time>2026-06-15T08:45:25Z</time></trkpt>
    <trkpt lat="48.24196" lon="14.89173"><ele>448</ele><time>2026-06-15T08:45:55Z</time></trkpt>
    <trkpt lat="48.24254" lon="14.89094"><ele>444</ele><time>2026-06-15T08:46:24Z</time></trkpt>
    <trkpt lat="48.24379" lon="14.89145"><ele>445</ele><time>2026-06-15T08:46:53Z</time></trkpt>
    <trkpt lat="48.24373" lon="14.89094"><ele>448</ele><time>2026-06-15T08:47:23Z</time></trkpt>
    <trkpt lat="48.24313" lon="14.89002"><ele>445</ele><time>2026-06-15T08:47:52Z</time></trkpt>
    <trkpt lat="48.24285" lon="14.88781"><ele>437</ele><time>2026-06-15T08:48:21Z</time></trkpt>
    <trkpt lat="48.24364" lon="14.88613"><ele>420</ele><time>2026-06-15T08:48:51Z</time></trkpt>
    <trkpt lat="48.24347" lon="14.88622"><ele>419</ele><time>2026-06-15T08:49:20Z</time></trkpt>
    <trkpt lat="48.24327" lon="14.88658"><ele>415</ele><time>2026-06-15T08:49:49Z</time></trkpt>
    <trkpt lat="48.24301" lon="14.88651"><ele>414</ele><time>2026-06-15T08:50:48Z</time></trkpt>
    <trkpt lat="48.24254" lon="14.88555"><ele>406</ele><time>2026-06-15T08:51:17Z</time></trkpt>
    <trkpt lat="48.24288" lon="14.88548"><ele>403</ele><time>2026-06-15T08:51:47Z</time></trkpt>
    <trkpt lat="48.24263" lon="14.88531"><ele>400</ele><time>2026-06-15T08:52:45Z</time></trkpt>
    <trkpt lat="48.24324" lon="14.88465"><ele>391</ele><time>2026-06-15T08:53:15Z</time></trkpt>
    <trkpt lat="48.24376" lon="14.88410"><ele>386</ele><time>2026-06-15T08:53:44Z</time></trkpt>
    <trkpt lat="48.24435" lon="14.88362"><ele>379</ele><time>2026-06-15T08:54:13Z</time></trkpt>
    <trkpt lat="48.24463" lon="14.88356"><ele>371</ele><time>2026-06-15T08:54:43Z</time></trkpt>
    <trkpt lat="48.24505" lon="14.88350"><ele>364</ele><time>2026-06-15T08:55:12Z</time></trkpt>
    <trkpt lat="48.24531" lon="14.88353"><ele>363</ele><time>2026-06-15T08:55:41Z</time></trkpt>
    <trkpt lat="48.24560" lon="14.88345"><ele>362</ele><time>2026-06-15T08:56:11Z</time></trkpt>
    <trkpt lat="48.24594" lon="14.88349"><ele>362</ele><time>2026-06-15T08:56:40Z</time></trkpt>
    <trkpt lat="48.24624" lon="14.88342"><ele>362</ele><time>2026-06-15T08:57:09Z</time></trkpt>
    <trkpt lat="48.24649" lon="14.88339"><ele>364</ele><time>2026-06-15T08:57:39Z</time></trkpt>
    <trkpt lat="48.24675" lon="14.88315"><ele>362</ele><time>2026-06-15T08:58:08Z</time></trkpt>
    <trkpt lat="48.24687" lon="14.88295"><ele>363</ele><time>2026-06-15T08:58:37Z</time></trkpt>
    <trkpt lat="48.24692" lon="14.88276"><ele>360</ele><time>2026-06-15T08:59:07Z</time></trkpt>
    <trkpt lat="48.24682" lon="14.88282"><ele>360</ele><time>2026-06-15T08:59:36Z</time></trkpt>
    <trkpt lat="48.24692" lon="14.88270"><ele>363</ele><time>2026-06-15T09:05:40Z</time></trkpt>
    <trkpt lat="48.24729" lon="14.88234"><ele>360</ele><time>2026-06-15T09:06:09Z</time></trkpt>
    <trkpt lat="48.24740" lon="14.88217"><ele>359</ele><time>2026-06-15T09:06:39Z</time></trkpt>
    <trkpt lat="48.24747" lon="14.88199"><ele>368</ele><time>2026-06-15T09:07:08Z</time></trkpt>
    <trkpt lat="48.24769" lon="14.88187"><ele>373</ele><time>2026-06-15T09:07:47Z</time></trkpt>
    <trkpt lat="48.24781" lon="14.88163"><ele>378</ele><time>2026-06-15T09:08:16Z</time></trkpt>
    <trkpt lat="48.24779" lon="14.88146"><ele>386</ele><time>2026-06-15T09:08:45Z</time></trkpt>
    <trkpt lat="48.24783" lon="14.88132"><ele>390</ele><time>2026-06-15T09:09:15Z</time></trkpt>
    <trkpt lat="48.24797" lon="14.88123"><ele>392</ele><time>2026-06-15T09:09:44Z</time></trkpt>
    <trkpt lat="48.24854" lon="14.88128"><ele>396</ele><time>2026-06-15T09:10:13Z</time></trkpt>
    <trkpt lat="48.24958" lon="14.88164"><ele>394</ele><time>2026-06-15T09:10:43Z</time></trkpt>
    <trkpt lat="48.25032" lon="14.88293"><ele>398</ele><time>2026-06-15T09:11:12Z</time></trkpt>
    <trkpt lat="48.25053" lon="14.88309"><ele>395</ele><time>2026-06-15T09:11:41Z</time></trkpt>
    <trkpt lat="48.25099" lon="14.88289"><ele>398</ele><time>2026-06-15T09:15:07Z</time></trkpt>
    <trkpt lat="48.25130" lon="14.88279"><ele>397</ele><time>2026-06-15T09:15:36Z</time></trkpt>
    <trkpt lat="48.25197" lon="14.88277"><ele>402</ele><time>2026-06-15T09:16:05Z</time></trkpt>
    <trkpt lat="48.25237" lon="14.88287"><ele>400</ele><time>2026-06-15T09:16:35Z</time></trkpt>
    <trkpt lat="48.25293" lon="14.88256"><ele>399</ele><time>2026-06-15T09:17:04Z</time></trkpt>
    <trkpt lat="48.25337" lon="14.88197"><ele>402</ele><time>2026-06-15T09:17:33Z</time></trkpt>
    <trkpt lat="48.25377" lon="14.88151"><ele>405</ele><time>2026-06-15T09:18:03Z</time></trkpt>
    <trkpt lat="48.25442" lon="14.88019"><ele>406</ele><time>2026-06-15T09:18:32Z</time></trkpt>
    <trkpt lat="48.25553" lon="14.88030"><ele>408</ele><time>2026-06-15T09:19:01Z</time></trkpt>
    <trkpt lat="48.25624" lon="14.87961"><ele>408</ele><time>2026-06-15T09:19:31Z</time></trkpt>
    <trkpt lat="48.25656" lon="14.87914"><ele>412</ele><time>2026-06-15T09:20:00Z</time></trkpt>
    <trkpt lat="48.25693" lon="14.87888"><ele>415</ele><time>2026-06-15T09:20:29Z</time></trkpt>
    <trkpt lat="48.25726" lon="14.87854"><ele>421</ele><time>2026-06-15T09:20:59Z</time></trkpt>
    <trkpt lat="48.25755" lon="14.87819"><ele>426</ele><time>2026-06-15T09:21:28Z</time></trkpt>
    <trkpt lat="48.25792" lon="14.87817"><ele>436</ele><time>2026-06-15T09:21:57Z</time></trkpt>
    <trkpt lat="48.25823" lon="14.87826"><ele>442</ele><time>2026-06-15T09:22:27Z</time></trkpt>
    <trkpt lat="48.25854" lon="14.87825"><ele>450</ele><time>2026-06-15T09:22:56Z</time></trkpt>
    <trkpt lat="48.25860" lon="14.87792"><ele>454</ele><time>2026-06-15T09:23:25Z</time></trkpt>
    <trkpt lat="48.25845" lon="14.87745"><ele>461</ele><time>2026-06-15T09:23:55Z</time></trkpt>
    <trkpt lat="48.25839" lon="14.87696"><ele>466</ele><time>2026-06-15T09:24:24Z</time></trkpt>
    <trkpt lat="48.25840" lon="14.87649"><ele>472</ele><time>2026-06-15T09:24:53Z</time></trkpt>
    <trkpt lat="48.25841" lon="14.87600"><ele>478</ele><time>2026-06-15T09:25:23Z</time></trkpt>
    <trkpt lat="48.25871" lon="14.87576"><ele>484</ele><time>2026-06-15T09:25:52Z</time></trkpt>
    <trkpt lat="48.25900" lon="14.87555"><ele>489</ele><time>2026-06-15T09:26:21Z</time></trkpt>
    <trkpt lat="48.25928" lon="14.87508"><ele>493</ele><time>2026-06-15T09:26:51Z</time></trkpt>
    <trkpt lat="48.25947" lon="14.87455"><ele>498</ele><time>2026-06-15T09:27:20Z</time></trkpt>
    <trkpt lat="48.25959" lon="14.87393"><ele>502</ele><time>2026-06-15T09:27:49Z</time></trkpt>
    <trkpt lat="48.25987" lon="14.87358"><ele>507</ele><time>2026-06-15T09:28:19Z</time></trkpt>
    <trkpt lat="48.25995" lon="14.87448"><ele>513</ele><time>2026-06-15T09:28:48Z</time></trkpt>
    <trkpt lat="48.26045" lon="14.87427"><ele>517</ele><time>2026-06-15T09:29:17Z</time></trkpt>
    <trkpt lat="48.26065" lon="14.87367"><ele>521</ele><time>2026-06-15T09:29:47Z</time></trkpt>
    <trkpt lat="48.26095" lon="14.87329"><ele>525</ele><time>2026-06-15T09:30:16Z</time></trkpt>
    <trkpt lat="48.26133" lon="14.87302"><ele>530</ele><time>2026-06-15T09:30:45Z</time></trkpt>
    <trkpt lat="48.26135" lon="14.87239"><ele>535</ele><time>2026-06-15T09:31:15Z</time></trkpt>
    <trkpt lat="48.26133" lon="14.87177"><ele>539</ele><time>2026-06-15T09:31:44Z</time></trkpt>
    <trkpt lat="48.26139" lon="14.87097"><ele>541</ele><time>2026-06-15T09:32:13Z</time></trkpt>
    <trkpt lat="48.26202" lon="14.87015"><ele>541</ele><time>2026-06-15T09:32:43Z</time></trkpt>
    <trkpt lat="48.26270" lon="14.86997"><ele>544</ele><time>2026-06-15T09:33:12Z</time></trkpt>
    <trkpt lat="48.26318" lon="14.86991"><ele>548</ele><time>2026-06-15T09:33:41Z</time></trkpt>
    <trkpt lat="48.26365" lon="14.87000"><ele>555</ele><time>2026-06-15T09:34:11Z</time></trkpt>
    <trkpt lat="48.26403" lon="14.86981"><ele>559</ele><time>2026-06-15T09:34:40Z</time></trkpt>
    <trkpt lat="48.26439" lon="14.86953"><ele>563</ele><time>2026-06-15T09:35:09Z</time></trkpt>
    <trkpt lat="48.26417" lon="14.86908"><ele>569</ele><time>2026-06-15T09:35:39Z</time></trkpt>
    <trkpt lat="48.26404" lon="14.86853"><ele>573</ele><time>2026-06-15T09:36:08Z</time></trkpt>
    <trkpt lat="48.26423" lon="14.86805"><ele>576</ele><time>2026-06-15T09:36:37Z</time></trkpt>
    <trkpt lat="48.26457" lon="14.86800"><ele>583</ele><time>2026-06-15T09:37:07Z</time></trkpt>
    <trkpt lat="48.26484" lon="14.86768"><ele>588</ele><time>2026-06-15T09:37:36Z</time></trkpt>
    <trkpt lat="48.26515" lon="14.86722"><ele>590</ele><time>2026-06-15T09:38:05Z</time></trkpt>
    <trkpt lat="48.26569" lon="14.86684"><ele>595</ele><time>2026-06-15T09:38:35Z</time></trkpt>
    <trkpt lat="48.26586" lon="14.86611"><ele>598</ele><time>2026-06-15T09:39:04Z</time></trkpt>
    <trkpt lat="48.26604" lon="14.86564"><ele>604</ele><time>2026-06-15T09:39:33Z</time></trkpt>
    <trkpt lat="48.26618" lon="14.86555"><ele>606</ele><time>2026-06-15T09:40:03Z</time></trkpt>
    <trkpt lat="48.26617" lon="14.86510"><ele>603</ele><time>2026-06-15T09:44:27Z</time></trkpt>
    <trkpt lat="48.26655" lon="14.86398"><ele>597</ele><time>2026-06-15T09:44:56Z</time></trkpt>
    <trkpt lat="48.26690" lon="14.86077"><ele>576</ele><time>2026-06-15T09:45:25Z</time></trkpt>
    <trkpt lat="48.26863" lon="14.85979"><ele>568</ele><time>2026-06-15T09:45:55Z</time></trkpt>
    <trkpt lat="48.26960" lon="14.85901"><ele>573</ele><time>2026-06-15T09:46:24Z</time></trkpt>
    <trkpt lat="48.26965" lon="14.85833"><ele>573</ele><time>2026-06-15T09:46:53Z</time></trkpt>
    <trkpt lat="48.26981" lon="14.85717"><ele>577</ele><time>2026-06-15T09:47:23Z</time></trkpt>
    <trkpt lat="48.26994" lon="14.85635"><ele>581</ele><time>2026-06-15T09:47:52Z</time></trkpt>
    <trkpt lat="48.26993" lon="14.85529"><ele>581</ele><time>2026-06-15T09:48:21Z</time></trkpt>
    <trkpt lat="48.27097" lon="14.85425"><ele>561</ele><time>2026-06-15T09:48:51Z</time></trkpt>
    <trkpt lat="48.27213" lon="14.85111"><ele>531</ele><time>2026-06-15T09:49:20Z</time></trkpt>
    <trkpt lat="48.27204" lon="14.84973"><ele>514</ele><time>2026-06-15T09:49:49Z</time></trkpt>
    <trkpt lat="48.27241" lon="14.84921"><ele>514</ele><time>2026-06-15T09:50:19Z</time></trkpt>
    <trkpt lat="48.27265" lon="14.84910"><ele>515</ele><time>2026-06-15T09:50:48Z</time></trkpt>
    <trkpt lat="48.27313" lon="14.84938"><ele>515</ele><time>2026-06-15T09:51:17Z</time></trkpt>
    <trkpt lat="48.27358" lon="14.84960"><ele>519</ele><time>2026-06-15T09:52:45Z</time></trkpt>
    <trkpt lat="48.27396" lon="14.84974"><ele>527</ele><time>2026-06-15T09:53:15Z</time></trkpt>
    <trkpt lat="48.27429" lon="14.84981"><ele>532</ele><time>2026-06-15T09:53:44Z</time></trkpt>
    <trkpt lat="48.27465" lon="14.84972"><ele>537</ele><time>2026-06-15T09:54:13Z</time></trkpt>
    <trkpt lat="48.27609" lon="14.84984"><ele>528</ele><time>2026-06-15T09:54:43Z</time></trkpt>
    <trkpt lat="48.27669" lon="14.84940"><ele>532</ele><time>2026-06-15T09:55:12Z</time></trkpt>
    <trkpt lat="48.27715" lon="14.84920"><ele>535</ele><time>2026-06-15T09:55:41Z</time></trkpt>
    <trkpt lat="48.27758" lon="14.84924"><ele>537</ele><time>2026-06-15T09:56:11Z</time></trkpt>
    <trkpt lat="48.27750" lon="14.84914"><ele>538</ele><time>2026-06-15T09:56:40Z</time></trkpt>
    <trkpt lat="48.27695" lon="14.84904"><ele>539</ele><time>2026-06-15T09:57:09Z</time></trkpt>
    <trkpt lat="48.27618" lon="14.84841"><ele>540</ele><time>2026-06-15T09:57:39Z</time></trkpt>
    <trkpt lat="48.27551" lon="14.84746"><ele>541</ele><time>2026-06-15T09:58:08Z</time></trkpt>
    <trkpt lat="48.27508" lon="14.84668"><ele>547</ele><time>2026-06-15T09:58:37Z</time></trkpt>
    <trkpt lat="48.27431" lon="14.84653"><ele>551</ele><time>2026-06-15T09:59:07Z</time></trkpt>
    <trkpt lat="48.27436" lon="14.84522"><ele>555</ele><time>2026-06-15T09:59:36Z</time></trkpt>
    <trkpt lat="48.27451" lon="14.84414"><ele>556</ele><time>2026-06-15T10:00:05Z</time></trkpt>
    <trkpt lat="48.27452" lon="14.84215"><ele>551</ele><time>2026-06-15T10:00:35Z</time></trkpt>
    <trkpt lat="48.27495" lon="14.83948"><ele>543</ele><time>2026-06-15T10:01:04Z</time></trkpt>
    <trkpt lat="48.27641" lon="14.83778"><ele>539</ele><time>2026-06-15T10:01:33Z</time></trkpt>
    <trkpt lat="48.27758" lon="14.83814"><ele>530</ele><time>2026-06-15T10:02:03Z</time></trkpt>
    <trkpt lat="48.27772" lon="14.83639"><ele>526</ele><time>2026-06-15T10:02:32Z</time></trkpt>
    <trkpt lat="48.27855" lon="14.83617"><ele>519</ele><time>2026-06-15T10:03:01Z</time></trkpt>
    <trkpt lat="48.27911" lon="14.83596"><ele>514</ele><time>2026-06-15T10:03:31Z</time></trkpt>
    <trkpt lat="48.27842" lon="14.83305"><ele>489</ele><time>2026-06-15T10:04:00Z</time></trkpt>
    <trkpt lat="48.27834" lon="14.83214"><ele>494</ele><time>2026-06-15T10:04:29Z</time></trkpt>
    <trkpt lat="48.27863" lon="14.83136"><ele>498</ele><time>2026-06-15T10:04:59Z</time></trkpt>
    <trkpt lat="48.27804" lon="14.82950"><ele>503</ele><time>2026-06-15T10:05:28Z</time></trkpt>
    <trkpt lat="48.27769" lon="14.82882"><ele>511</ele><time>2026-06-15T10:05:57Z</time></trkpt>
    <trkpt lat="48.27748" lon="14.82833"><ele>519</ele><time>2026-06-15T10:06:27Z</time></trkpt>
    <trkpt lat="48.27743" lon="14.82820"><ele>520</ele><time>2026-06-15T10:06:56Z</time></trkpt>
    <trkpt lat="48.27729" lon="14.82784"><ele>525</ele><time>2026-06-15T10:07:25Z</time></trkpt>
    <trkpt lat="48.27722" lon="14.82766"><ele>530</ele><time>2026-06-15T10:07:55Z</time></trkpt>
    <trkpt lat="48.27714" lon="14.82735"><ele>535</ele><time>2026-06-15T10:08:24Z</time></trkpt>
    <trkpt lat="48.27712" lon="14.82699"><ele>542</ele><time>2026-06-15T10:08:53Z</time></trkpt>
    <trkpt lat="48.27713" lon="14.82675"><ele>546</ele><time>2026-06-15T10:09:23Z</time></trkpt>
    <trkpt lat="48.27721" lon="14.82658"><ele>548</ele><time>2026-06-15T10:09:52Z</time></trkpt>
    <trkpt lat="48.27736" lon="14.82587"><ele>552</ele><time>2026-06-15T10:10:21Z</time></trkpt>
    <trkpt lat="48.27753" lon="14.82493"><ele>553</ele><time>2026-06-15T10:10:51Z</time></trkpt>
    <trkpt lat="48.27770" lon="14.82411"><ele>555</ele><time>2026-06-15T10:11:20Z</time></trkpt>
    <trkpt lat="48.27776" lon="14.82360"><ele>555</ele><time>2026-06-15T10:11:49Z</time></trkpt>
    <trkpt lat="48.27782" lon="14.82329"><ele>555</ele><time>2026-06-15T10:12:19Z</time></trkpt>
    <trkpt lat="48.27788" lon="14.82294"><ele>555</ele><time>2026-06-15T10:12:48Z</time></trkpt>
    <trkpt lat="48.27828" lon="14.82240"><ele>552</ele><time>2026-06-15T10:13:17Z</time></trkpt>
    <trkpt lat="48.27737" lon="14.81840"><ele>529</ele><time>2026-06-15T10:13:47Z</time></trkpt>
    <trkpt lat="48.27680" lon="14.81853"><ele>512</ele><time>2026-06-15T10:14:16Z</time></trkpt>
    <trkpt lat="48.27676" lon="14.81557"><ele>489</ele><time>2026-06-15T10:14:45Z</time></trkpt>
    <trkpt lat="48.27589" lon="14.81414"><ele>483</ele><time>2026-06-15T10:15:15Z</time></trkpt>
    <trkpt lat="48.27573" lon="14.81365"><ele>480</ele><time>2026-06-15T10:15:44Z</time></trkpt>
    <trkpt lat="48.27531" lon="14.81311"><ele>483</ele><time>2026-06-15T10:16:13Z</time></trkpt>
    <trkpt lat="48.27509" lon="14.81191"><ele>475</ele><time>2026-06-15T10:16:43Z</time></trkpt>
    <trkpt lat="48.27462" lon="14.81138"><ele>478</ele><time>2026-06-15T10:17:12Z</time></trkpt>
    <trkpt lat="48.27365" lon="14.80942"><ele>472</ele><time>2026-06-15T10:17:41Z</time></trkpt>
    <trkpt lat="48.27241" lon="14.80994"><ele>456</ele><time>2026-06-15T10:18:11Z</time></trkpt>
    <trkpt lat="48.27170" lon="14.81058"><ele>449</ele><time>2026-06-15T10:18:40Z</time></trkpt>
    <trkpt lat="48.27045" lon="14.81058"><ele>446</ele><time>2026-06-15T10:19:09Z</time></trkpt>
    <trkpt lat="48.26999" lon="14.81024"><ele>449</ele><time>2026-06-15T10:19:39Z</time></trkpt>
    <trkpt lat="48.26955" lon="14.80988"><ele>455</ele><time>2026-06-15T10:20:08Z</time></trkpt>
    <trkpt lat="48.26953" lon="14.80969"><ele>462</ele><time>2026-06-15T10:20:37Z</time></trkpt>
    <trkpt lat="48.26986" lon="14.80988"><ele>463</ele><time>2026-06-15T10:21:07Z</time></trkpt>
    <trkpt lat="48.27013" lon="14.81002"><ele>464</ele><time>2026-06-15T10:21:36Z</time></trkpt>
    <trkpt lat="48.27085" lon="14.80980"><ele>463</ele><time>2026-06-15T10:22:05Z</time></trkpt>
    <trkpt lat="48.27154" lon="14.80912"><ele>466</ele><time>2026-06-15T10:22:35Z</time></trkpt>
    <trkpt lat="48.27217" lon="14.80873"><ele>467</ele><time>2026-06-15T10:23:04Z</time></trkpt>
    <trkpt lat="48.27243" lon="14.80886"><ele>467</ele><time>2026-06-15T10:23:33Z</time></trkpt>
    <trkpt lat="48.27254" lon="14.80842"><ele>468</ele><time>2026-06-15T10:24:03Z</time></trkpt>
    <trkpt lat="48.27283" lon="14.80814"><ele>469</ele><time>2026-06-15T10:24:32Z</time></trkpt>
    <trkpt lat="48.27316" lon="14.80788"><ele>472</ele><time>2026-06-15T10:25:01Z</time></trkpt>
    <trkpt lat="48.27365" lon="14.80748"><ele>473</ele><time>2026-06-15T10:25:31Z</time></trkpt>
    <trkpt lat="48.27403" lon="14.80722"><ele>476</ele><time>2026-06-15T10:26:00Z</time></trkpt>
    <trkpt lat="48.27447" lon="14.80676"><ele>476</ele><time>2026-06-15T10:26:29Z</time></trkpt>
    <trkpt lat="48.27439" lon="14.80624"><ele>483</ele><time>2026-06-15T10:26:59Z</time></trkpt>
    <trkpt lat="48.27437" lon="14.80579"><ele>490</ele><time>2026-06-15T10:27:28Z</time></trkpt>
    <trkpt lat="48.27422" lon="14.80529"><ele>492</ele><time>2026-06-15T10:27:57Z</time></trkpt>
    <trkpt lat="48.27413" lon="14.80474"><ele>495</ele><time>2026-06-15T10:28:27Z</time></trkpt>
    <trkpt lat="48.27413" lon="14.80418"><ele>499</ele><time>2026-06-15T10:28:56Z</time></trkpt>
    <trkpt lat="48.27470" lon="14.80378"><ele>501</ele><time>2026-06-15T10:29:25Z</time></trkpt>
    <trkpt lat="48.27540" lon="14.80337"><ele>506</ele><time>2026-06-15T10:29:55Z</time></trkpt>
    <trkpt lat="48.27645" lon="14.80366"><ele>506</ele><time>2026-06-15T10:30:24Z</time></trkpt>
    <trkpt lat="48.27712" lon="14.80354"><ele>511</ele><time>2026-06-15T10:30:53Z</time></trkpt>
    <trkpt lat="48.27756" lon="14.80348"><ele>514</ele><time>2026-06-15T10:31:23Z</time></trkpt>
    <trkpt lat="48.27798" lon="14.80320"><ele>519</ele><time>2026-06-15T10:31:52Z</time></trkpt>
    <trkpt lat="48.27864" lon="14.80352"><ele>521</ele><time>2026-06-15T10:32:21Z</time></trkpt>
    <trkpt lat="48.27883" lon="14.80325"><ele>524</ele><time>2026-06-15T10:32:51Z</time></trkpt>
    <trkpt lat="48.27899" lon="14.80318"><ele>525</ele><time>2026-06-15T10:33:49Z</time></trkpt>
    <trkpt lat="48.28082" lon="14.80368"><ele>525</ele><time>2026-06-15T10:34:19Z</time></trkpt>
    <trkpt lat="48.28045" lon="14.80485"><ele>506</ele><time>2026-06-15T10:34:48Z</time></trkpt>
    <trkpt lat="48.28043" lon="14.80614"><ele>487</ele><time>2026-06-15T10:35:17Z</time></trkpt>
    <trkpt lat="48.28151" lon="14.80731"><ele>482</ele><time>2026-06-15T10:35:47Z</time></trkpt>
    <trkpt lat="48.28258" lon="14.80701"><ele>470</ele><time>2026-06-15T10:36:16Z</time></trkpt>
    <trkpt lat="48.28297" lon="14.80560"><ele>448</ele><time>2026-06-15T10:36:45Z</time></trkpt>
    <trkpt lat="48.28347" lon="14.80436"><ele>438</ele><time>2026-06-15T10:37:15Z</time></trkpt>
    <trkpt lat="48.28355" lon="14.80407"><ele>427</ele><time>2026-06-15T10:37:44Z</time></trkpt>
    <trkpt lat="48.28383" lon="14.80329"><ele>417</ele><time>2026-06-15T10:38:13Z</time></trkpt>
    <trkpt lat="48.28426" lon="14.80225"><ele>403</ele><time>2026-06-15T10:38:43Z</time></trkpt>
    <trkpt lat="48.28454" lon="14.80133"><ele>391</ele><time>2026-06-15T10:39:12Z</time></trkpt>
    <trkpt lat="48.28459" lon="14.80115"><ele>384</ele><time>2026-06-15T10:39:41Z</time></trkpt>
    <trkpt lat="48.28488" lon="14.80092"><ele>382</ele><time>2026-06-15T10:40:11Z</time></trkpt>
    <trkpt lat="48.28543" lon="14.80082"><ele>385</ele><time>2026-06-15T10:40:40Z</time></trkpt>
    <trkpt lat="48.28587" lon="14.80088"><ele>386</ele><time>2026-06-15T10:41:09Z</time></trkpt>
    <trkpt lat="48.28680" lon="14.80034"><ele>383</ele><time>2026-06-15T10:41:39Z</time></trkpt>
    <trkpt lat="48.28742" lon="14.80001"><ele>383</ele><time>2026-06-15T10:42:08Z</time></trkpt>
    <trkpt lat="48.28799" lon="14.79975"><ele>385</ele><time>2026-06-15T10:42:37Z</time></trkpt>
    <trkpt lat="48.28856" lon="14.79951"><ele>391</ele><time>2026-06-15T10:43:07Z</time></trkpt>
    <trkpt lat="48.28919" lon="14.79976"><ele>387</ele><time>2026-06-15T10:43:36Z</time></trkpt>
    <trkpt lat="48.28944" lon="14.79993"><ele>385</ele><time>2026-06-15T10:44:05Z</time></trkpt>
    <trkpt lat="48.28973" lon="14.80022"><ele>388</ele><time>2026-06-15T10:44:35Z</time></trkpt>
    <trkpt lat="48.28999" lon="14.80050"><ele>392</ele><time>2026-06-15T10:45:04Z</time></trkpt>
    <trkpt lat="48.29024" lon="14.80083"><ele>398</ele><time>2026-06-15T10:45:33Z</time></trkpt>
    <trkpt lat="48.29052" lon="14.80118"><ele>401</ele><time>2026-06-15T10:46:03Z</time></trkpt>
    <trkpt lat="48.29079" lon="14.80135"><ele>414</ele><time>2026-06-15T10:48:29Z</time></trkpt>
    <trkpt lat="48.29107" lon="14.80085"><ele>418</ele><time>2026-06-15T10:48:59Z</time></trkpt>
    <trkpt lat="48.29120" lon="14.80093"><ele>418</ele><time>2026-06-15T10:49:28Z</time></trkpt>
    <trkpt lat="48.29099" lon="14.80204"><ele>412</ele><time>2026-06-15T10:49:57Z</time></trkpt>
    <trkpt lat="48.29121" lon="14.80333"><ele>402</ele><time>2026-06-15T10:50:27Z</time></trkpt>
    <trkpt lat="48.29166" lon="14.80377"><ele>395</ele><time>2026-06-15T10:50:56Z</time></trkpt>
    <trkpt lat="48.29202" lon="14.80406"><ele>393</ele><time>2026-06-15T10:51:25Z</time></trkpt>
    <trkpt lat="48.29196" lon="14.80393"><ele>394</ele><time>2026-06-15T10:53:52Z</time></trkpt>
    <trkpt lat="48.29206" lon="14.80419"><ele>393</ele><time>2026-06-15T10:54:51Z</time></trkpt>
    <trkpt lat="48.29229" lon="14.80422"><ele>395</ele><time>2026-06-15T10:55:20Z</time></trkpt>
    <trkpt lat="48.29283" lon="14.80406"><ele>396</ele><time>2026-06-15T10:55:49Z</time></trkpt>
    <trkpt lat="48.29331" lon="14.80359"><ele>397</ele><time>2026-06-15T10:56:19Z</time></trkpt>
    <trkpt lat="48.29369" lon="14.80425"><ele>397</ele><time>2026-06-15T10:56:48Z</time></trkpt>
    <trkpt lat="48.29407" lon="14.80443"><ele>405</ele><time>2026-06-15T10:57:17Z</time></trkpt>
    <trkpt lat="48.29447" lon="14.80440"><ele>414</ele><time>2026-06-15T10:57:47Z</time></trkpt>
    <trkpt lat="48.29490" lon="14.80418"><ele>421</ele><time>2026-06-15T10:58:16Z</time></trkpt>
    <trkpt lat="48.29532" lon="14.80440"><ele>420</ele><time>2026-06-15T10:58:45Z</time></trkpt>
    <trkpt lat="48.29560" lon="14.80494"><ele>417</ele><time>2026-06-15T10:59:15Z</time></trkpt>
    <trkpt lat="48.29582" lon="14.80549"><ele>420</ele><time>2026-06-15T10:59:44Z</time></trkpt>
    <trkpt lat="48.29588" lon="14.80615"><ele>420</ele><time>2026-06-15T11:00:13Z</time></trkpt>
    <trkpt lat="48.29608" lon="14.80662"><ele>428</ele><time>2026-06-15T11:00:43Z</time></trkpt>
    <trkpt lat="48.29636" lon="14.80692"><ele>437</ele><time>2026-06-15T11:01:12Z</time></trkpt>
    <trkpt lat="48.29676" lon="14.80718"><ele>447</ele><time>2026-06-15T11:01:41Z</time></trkpt>
    <trkpt lat="48.29717" lon="14.80727"><ele>453</ele><time>2026-06-15T11:02:11Z</time></trkpt>
    <trkpt lat="48.29764" lon="14.80736"><ele>453</ele><time>2026-06-15T11:02:40Z</time></trkpt>
    <trkpt lat="48.29811" lon="14.80747"><ele>451</ele><time>2026-06-15T11:03:09Z</time></trkpt>
    <trkpt lat="48.29852" lon="14.80743"><ele>458</ele><time>2026-06-15T11:03:39Z</time></trkpt>
    <trkpt lat="48.29900" lon="14.80715"><ele>464</ele><time>2026-06-15T11:04:08Z</time></trkpt>
    <trkpt lat="48.29935" lon="14.80663"><ele>463</ele><time>2026-06-15T11:04:37Z</time></trkpt>
    <trkpt lat="48.29971" lon="14.80642"><ele>461</ele><time>2026-06-15T11:05:07Z</time></trkpt>
    <trkpt lat="48.30015" lon="14.80673"><ele>462</ele><time>2026-06-15T11:05:36Z</time></trkpt>
    <trkpt lat="48.30069" lon="14.80708"><ele>471</ele><time>2026-06-15T11:06:05Z</time></trkpt>
    <trkpt lat="48.30107" lon="14.80757"><ele>467</ele><time>2026-06-15T11:06:35Z</time></trkpt>
    <trkpt lat="48.30155" lon="14.80806"><ele>468</ele><time>2026-06-15T11:07:04Z</time></trkpt>
    <trkpt lat="48.30194" lon="14.80845"><ele>471</ele><time>2026-06-15T11:07:33Z</time></trkpt>
    <trkpt lat="48.30241" lon="14.80876"><ele>474</ele><time>2026-06-15T11:08:03Z</time></trkpt>
    <trkpt lat="48.30296" lon="14.80856"><ele>482</ele><time>2026-06-15T11:08:32Z</time></trkpt>
    <trkpt lat="48.30340" lon="14.80804"><ele>485</ele><time>2026-06-15T11:09:01Z</time></trkpt>
    <trkpt lat="48.30387" lon="14.80860"><ele>483</ele><time>2026-06-15T11:09:31Z</time></trkpt>
    <trkpt lat="48.30415" lon="14.80927"><ele>483</ele><time>2026-06-15T11:10:00Z</time></trkpt>
    <trkpt lat="48.30441" lon="14.80963"><ele>486</ele><time>2026-06-15T11:10:29Z</time></trkpt>
    <trkpt lat="48.30493" lon="14.80993"><ele>494</ele><time>2026-06-15T11:10:59Z</time></trkpt>
    <trkpt lat="48.30538" lon="14.81007"><ele>498</ele><time>2026-06-15T11:11:28Z</time></trkpt>
    <trkpt lat="48.30551" lon="14.81018"><ele>494</ele><time>2026-06-15T11:11:57Z</time></trkpt>
    <trkpt lat="48.30557" lon="14.81030"><ele>493</ele><time>2026-06-15T11:12:27Z</time></trkpt>
    <trkpt lat="48.30597" lon="14.81054"><ele>501</ele><time>2026-06-15T11:12:56Z</time></trkpt>
    <trkpt lat="48.30637" lon="14.81064"><ele>502</ele><time>2026-06-15T11:13:25Z</time></trkpt>
    <trkpt lat="48.30681" lon="14.81070"><ele>508</ele><time>2026-06-15T11:13:55Z</time></trkpt>
    <trkpt lat="48.30728" lon="14.81063"><ele>511</ele><time>2026-06-15T11:14:24Z</time></trkpt>
    <trkpt lat="48.30893" lon="14.81106"><ele>506</ele><time>2026-06-15T11:14:53Z</time></trkpt>
    <trkpt lat="48.30930" lon="14.81042"><ele>504</ele><time>2026-06-15T11:15:23Z</time></trkpt>
    <trkpt lat="48.30920" lon="14.80988"><ele>508</ele><time>2026-06-15T11:15:52Z</time></trkpt>
    <trkpt lat="48.30908" lon="14.80947"><ele>515</ele><time>2026-06-15T11:16:21Z</time></trkpt>
    <trkpt lat="48.30904" lon="14.80898"><ele>520</ele><time>2026-06-15T11:16:51Z</time></trkpt>
    <trkpt lat="48.30901" lon="14.80851"><ele>524</ele><time>2026-06-15T11:17:20Z</time></trkpt>
    <trkpt lat="48.30915" lon="14.80806"><ele>532</ele><time>2026-06-15T11:17:49Z</time></trkpt>
    <trkpt lat="48.30902" lon="14.80795"><ele>536</ele><time>2026-06-15T11:18:19Z</time></trkpt>
    <trkpt lat="48.30872" lon="14.80823"><ele>539</ele><time>2026-06-15T11:18:48Z</time></trkpt>
    <trkpt lat="48.30857" lon="14.80788"><ele>545</ele><time>2026-06-15T11:19:17Z</time></trkpt>
    <trkpt lat="48.30878" lon="14.80742"><ele>549</ele><time>2026-06-15T11:19:47Z</time></trkpt>
    <trkpt lat="48.30882" lon="14.80715"><ele>551</ele><time>2026-06-15T11:20:16Z</time></trkpt>
    <trkpt lat="48.30920" lon="14.80693"><ele>550</ele><time>2026-06-15T11:24:40Z</time></trkpt>
    <trkpt lat="48.30964" lon="14.80679"><ele>560</ele><time>2026-06-15T11:25:09Z</time></trkpt>
    <trkpt lat="48.31008" lon="14.80678"><ele>563</ele><time>2026-06-15T11:25:39Z</time></trkpt>
    <trkpt lat="48.31050" lon="14.80691"><ele>566</ele><time>2026-06-15T11:26:08Z</time></trkpt>
    <trkpt lat="48.31080" lon="14.80630"><ele>566</ele><time>2026-06-15T11:26:37Z</time></trkpt>
    <trkpt lat="48.31075" lon="14.80530"><ele>569</ele><time>2026-06-15T11:27:07Z</time></trkpt>
    <trkpt lat="48.31067" lon="14.80450"><ele>573</ele><time>2026-06-15T11:27:36Z</time></trkpt>
    <trkpt lat="48.31039" lon="14.80384"><ele>577</ele><time>2026-06-15T11:28:05Z</time></trkpt>
    <trkpt lat="48.31013" lon="14.80328"><ele>582</ele><time>2026-06-15T11:28:35Z</time></trkpt>
    <trkpt lat="48.30983" lon="14.80273"><ele>585</ele><time>2026-06-15T11:29:04Z</time></trkpt>
    <trkpt lat="48.30944" lon="14.80224"><ele>589</ele><time>2026-06-15T11:29:33Z</time></trkpt>
    <trkpt lat="48.30904" lon="14.80173"><ele>590</ele><time>2026-06-15T11:30:03Z</time></trkpt>
    <trkpt lat="48.30927" lon="14.80174"><ele>585</ele><time>2026-06-15T11:30:32Z</time></trkpt>
    <trkpt lat="48.31261" lon="14.80326"><ele>556</ele><time>2026-06-15T11:31:01Z</time></trkpt>
    <trkpt lat="48.31294" lon="14.80262"><ele>526</ele><time>2026-06-15T11:31:31Z</time></trkpt>
    <trkpt lat="48.31332" lon="14.80103"><ele>516</ele><time>2026-06-15T11:32:00Z</time></trkpt>
    <trkpt lat="48.31394" lon="14.80263"><ele>498</ele><time>2026-06-15T11:32:29Z</time></trkpt>
    <trkpt lat="48.31469" lon="14.80259"><ele>497</ele><time>2026-06-15T11:33:28Z</time></trkpt>
    <trkpt lat="48.31480" lon="14.80078"><ele>505</ele><time>2026-06-15T11:33:57Z</time></trkpt>
    <trkpt lat="48.31430" lon="14.79921"><ele>508</ele><time>2026-06-15T11:34:27Z</time></trkpt>
    <trkpt lat="48.31455" lon="14.79932"><ele>507</ele><time>2026-06-15T11:34:56Z</time></trkpt>
    <trkpt lat="48.31672" lon="14.79938"><ele>498</ele><time>2026-06-15T11:35:25Z</time></trkpt>
    <trkpt lat="48.31752" lon="14.79788"><ele>488</ele><time>2026-06-15T11:35:55Z</time></trkpt>
    <trkpt lat="48.31828" lon="14.79705"><ele>489</ele><time>2026-06-15T11:36:24Z</time></trkpt>
    <trkpt lat="48.31921" lon="14.79664"><ele>489</ele><time>2026-06-15T11:36:53Z</time></trkpt>
    <trkpt lat="48.31932" lon="14.79678"><ele>486</ele><time>2026-06-15T11:37:23Z</time></trkpt>
    <trkpt lat="48.31944" lon="14.79689"><ele>487</ele><time>2026-06-15T11:37:36Z</time></trkpt>
    <trkpt lat="48.31964" lon="14.79723"><ele>489</ele><time>2026-06-15T11:38:05Z</time></trkpt>
    <trkpt lat="48.31953" lon="14.79708"><ele>488</ele><time>2026-06-15T11:38:35Z</time></trkpt>
    <trkpt lat="48.31928" lon="14.79696"><ele>489</ele><time>2026-06-15T11:39:04Z</time></trkpt>
    <trkpt lat="48.31935" lon="14.79727"><ele>487</ele><time>2026-06-15T11:39:33Z</time></trkpt>
    <trkpt lat="48.31911" lon="14.79651"><ele>489</ele><time>2026-06-15T11:40:03Z</time></trkpt>
    <trkpt lat="48.31827" lon="14.79707"><ele>488</ele><time>2026-06-15T11:40:32Z</time></trkpt>
    <trkpt lat="48.31730" lon="14.79822"><ele>489</ele><time>2026-06-15T11:41:01Z</time></trkpt>
    <trkpt lat="48.31689" lon="14.79902"><ele>486</ele><time>2026-06-15T11:41:31Z</time></trkpt>
    <trkpt lat="48.31678" lon="14.79922"><ele>484</ele><time>2026-06-15T11:42:29Z</time></trkpt>
    <trkpt lat="48.31609" lon="14.79952"><ele>487</ele><time>2026-06-15T11:42:59Z</time></trkpt>
    <trkpt lat="48.31565" lon="14.79973"><ele>494</ele><time>2026-06-15T11:43:28Z</time></trkpt>
    <trkpt lat="48.31529" lon="14.79958"><ele>500</ele><time>2026-06-15T11:43:57Z</time></trkpt>
    <trkpt lat="48.31494" lon="14.79969"><ele>508</ele><time>2026-06-15T11:44:27Z</time></trkpt>
    <trkpt lat="48.31505" lon="14.80032"><ele>514</ele><time>2026-06-15T11:44:56Z</time></trkpt>
    <trkpt lat="48.31531" lon="14.80078"><ele>518</ele><time>2026-06-15T11:45:25Z</time></trkpt>
    <trkpt lat="48.31573" lon="14.80080"><ele>520</ele><time>2026-06-15T11:45:55Z</time></trkpt>
    <trkpt lat="48.31607" lon="14.80090"><ele>529</ele><time>2026-06-15T11:46:24Z</time></trkpt>
    <trkpt lat="48.31640" lon="14.80100"><ele>532</ele><time>2026-06-15T11:46:53Z</time></trkpt>
    <trkpt lat="48.31644" lon="14.80146"><ele>536</ele><time>2026-06-15T11:47:23Z</time></trkpt>
    <trkpt lat="48.31637" lon="14.80187"><ele>541</ele><time>2026-06-15T11:47:52Z</time></trkpt>
    <trkpt lat="48.31637" lon="14.80229"><ele>547</ele><time>2026-06-15T11:48:21Z</time></trkpt>
    <trkpt lat="48.31639" lon="14.80271"><ele>553</ele><time>2026-06-15T11:48:51Z</time></trkpt>
    <trkpt lat="48.31645" lon="14.80317"><ele>557</ele><time>2026-06-15T11:49:20Z</time></trkpt>
    <trkpt lat="48.31665" lon="14.80358"><ele>561</ele><time>2026-06-15T11:49:49Z</time></trkpt>
    <trkpt lat="48.31673" lon="14.80370"><ele>563</ele><time>2026-06-15T11:50:19Z</time></trkpt>
    <trkpt lat="48.31686" lon="14.80398"><ele>564</ele><time>2026-06-15T11:55:41Z</time></trkpt>
    <trkpt lat="48.31720" lon="14.80442"><ele>568</ele><time>2026-06-15T11:56:11Z</time></trkpt>
    <trkpt lat="48.31752" lon="14.80489"><ele>568</ele><time>2026-06-15T11:56:40Z</time></trkpt>
    <trkpt lat="48.31777" lon="14.80519"><ele>571</ele><time>2026-06-15T11:58:37Z</time></trkpt>
    <trkpt lat="48.31841" lon="14.80555"><ele>573</ele><time>2026-06-15T11:59:07Z</time></trkpt>
    <trkpt lat="48.31886" lon="14.80579"><ele>576</ele><time>2026-06-15T11:59:36Z</time></trkpt>
    <trkpt lat="48.31929" lon="14.80590"><ele>580</ele><time>2026-06-15T12:00:05Z</time></trkpt>
    <trkpt lat="48.32006" lon="14.80587"><ele>584</ele><time>2026-06-15T12:00:35Z</time></trkpt>
    <trkpt lat="48.32030" lon="14.80532"><ele>587</ele><time>2026-06-15T12:01:04Z</time></trkpt>
    <trkpt lat="48.32105" lon="14.80576"><ele>582</ele><time>2026-06-15T12:01:33Z</time></trkpt>
    <trkpt lat="48.32242" lon="14.80529"><ele>577</ele><time>2026-06-15T12:02:03Z</time></trkpt>
    <trkpt lat="48.32371" lon="14.80461"><ele>576</ele><time>2026-06-15T12:02:32Z</time></trkpt>
    <trkpt lat="48.32414" lon="14.80378"><ele>574</ele><time>2026-06-15T12:03:01Z</time></trkpt>
    <trkpt lat="48.32491" lon="14.80254"><ele>565</ele><time>2026-06-15T12:03:31Z</time></trkpt>
    <trkpt lat="48.32547" lon="14.80269"><ele>557</ele><time>2026-06-15T12:04:00Z</time></trkpt>
    <trkpt lat="48.32659" lon="14.79755"><ele>544</ele><time>2026-06-15T12:04:29Z</time></trkpt>
    <trkpt lat="48.32706" lon="14.79732"><ele>540</ele><time>2026-06-15T12:04:59Z</time></trkpt>
    <trkpt lat="48.32756" lon="14.79659"><ele>542</ele><time>2026-06-15T12:05:28Z</time></trkpt>
    <trkpt lat="48.32799" lon="14.79591"><ele>545</ele><time>2026-06-15T12:05:57Z</time></trkpt>
    <trkpt lat="48.32844" lon="14.79482"><ele>545</ele><time>2026-06-15T12:06:27Z</time></trkpt>
    <trkpt lat="48.32899" lon="14.79390"><ele>547</ele><time>2026-06-15T12:06:56Z</time></trkpt>
    <trkpt lat="48.32967" lon="14.79313"><ele>549</ele><time>2026-06-15T12:07:25Z</time></trkpt>
    <trkpt lat="48.33065" lon="14.79269"><ele>552</ele><time>2026-06-15T12:07:55Z</time></trkpt>
    <trkpt lat="48.33154" lon="14.79227"><ele>551</ele><time>2026-06-15T12:08:24Z</time></trkpt>
    <trkpt lat="48.33246" lon="14.79199"><ele>553</ele><time>2026-06-15T12:08:53Z</time></trkpt>
    <trkpt lat="48.33293" lon="14.79101"><ele>556</ele><time>2026-06-15T12:09:23Z</time></trkpt>
    <trkpt lat="48.33361" lon="14.79104"><ele>558</ele><time>2026-06-15T12:09:52Z</time></trkpt>
    <trkpt lat="48.33425" lon="14.79071"><ele>557</ele><time>2026-06-15T12:10:21Z</time></trkpt>
    <trkpt lat="48.33486" lon="14.79033"><ele>561</ele><time>2026-06-15T12:10:51Z</time></trkpt>
    <trkpt lat="48.33528" lon="14.79012"><ele>565</ele><time>2026-06-15T12:11:20Z</time></trkpt>
    <trkpt lat="48.33589" lon="14.78956"><ele>566</ele><time>2026-06-15T12:11:49Z</time></trkpt>
    <trkpt lat="48.33652" lon="14.78920"><ele>567</ele><time>2026-06-15T12:12:19Z</time></trkpt>
    <trkpt lat="48.33665" lon="14.78891"><ele>566</ele><time>2026-06-15T12:12:48Z</time></trkpt>
    <trkpt lat="48.33679" lon="14.78983"><ele>562</ele><time>2026-06-15T12:13:47Z</time></trkpt>
    <trkpt lat="48.33717" lon="14.79008"><ele>565</ele><time>2026-06-15T12:14:16Z</time></trkpt>
    <trkpt lat="48.33758" lon="14.79031"><ele>567</ele><time>2026-06-15T12:14:45Z</time></trkpt>
    <trkpt lat="48.33789" lon="14.79081"><ele>572</ele><time>2026-06-15T12:15:15Z</time></trkpt>
    <trkpt lat="48.33809" lon="14.79138"><ele>573</ele><time>2026-06-15T12:15:44Z</time></trkpt>
    <trkpt lat="48.33837" lon="14.79182"><ele>577</ele><time>2026-06-15T12:16:13Z</time></trkpt>
    <trkpt lat="48.33862" lon="14.79259"><ele>577</ele><time>2026-06-15T12:16:43Z</time></trkpt>
    <trkpt lat="48.33875" lon="14.79323"><ele>579</ele><time>2026-06-15T12:17:12Z</time></trkpt>
    <trkpt lat="48.33900" lon="14.79422"><ele>579</ele><time>2026-06-15T12:17:41Z</time></trkpt>
    <trkpt lat="48.33956" lon="14.79513"><ele>579</ele><time>2026-06-15T12:18:11Z</time></trkpt>
    <trkpt lat="48.34002" lon="14.79515"><ele>580</ele><time>2026-06-15T12:18:40Z</time></trkpt>
    <trkpt lat="48.34033" lon="14.79466"><ele>587</ele><time>2026-06-15T12:19:09Z</time></trkpt>
    <trkpt lat="48.34070" lon="14.79433"><ele>594</ele><time>2026-06-15T12:19:39Z</time></trkpt>
    <trkpt lat="48.34098" lon="14.79407"><ele>599</ele><time>2026-06-15T12:20:08Z</time></trkpt>
    <trkpt lat="48.34127" lon="14.79401"><ele>606</ele><time>2026-06-15T12:20:37Z</time></trkpt>
    <trkpt lat="48.34144" lon="14.79424"><ele>608</ele><time>2026-06-15T12:21:07Z</time></trkpt>
    <trkpt lat="48.34162" lon="14.79421"><ele>609</ele><time>2026-06-15T12:21:36Z</time></trkpt>
    <trkpt lat="48.34179" lon="14.79411"><ele>610</ele><time>2026-06-15T12:22:05Z</time></trkpt>
    <trkpt lat="48.34212" lon="14.79398"><ele>613</ele><time>2026-06-15T12:22:35Z</time></trkpt>
    <trkpt lat="48.34227" lon="14.79376"><ele>613</ele><time>2026-06-15T12:23:04Z</time></trkpt>
    <trkpt lat="48.34238" lon="14.79369"><ele>617</ele><time>2026-06-15T12:23:33Z</time></trkpt>
    <trkpt lat="48.34284" lon="14.79370"><ele>619</ele><time>2026-06-15T12:24:03Z</time></trkpt>
    <trkpt lat="48.34306" lon="14.79417"><ele>621</ele><time>2026-06-15T12:24:32Z</time></trkpt>
    <trkpt lat="48.34302" lon="14.79440"><ele>624</ele><time>2026-06-15T12:25:01Z</time></trkpt>
    <trkpt lat="48.34311" lon="14.79464"><ele>621</ele><time>2026-06-15T12:25:31Z</time></trkpt>
    <trkpt lat="48.34347" lon="14.79506"><ele>625</ele><time>2026-06-15T12:26:00Z</time></trkpt>
    <trkpt lat="48.34413" lon="14.79528"><ele>629</ele><time>2026-06-15T12:26:29Z</time></trkpt>
    <trkpt lat="48.34463" lon="14.79560"><ele>632</ele><time>2026-06-15T12:26:59Z</time></trkpt>
    <trkpt lat="48.34498" lon="14.79598"><ele>635</ele><time>2026-06-15T12:27:28Z</time></trkpt>
    <trkpt lat="48.34536" lon="14.79628"><ele>638</ele><time>2026-06-15T12:27:57Z</time></trkpt>
    <trkpt lat="48.34577" lon="14.79634"><ele>641</ele><time>2026-06-15T12:28:27Z</time></trkpt>
    <trkpt lat="48.34579" lon="14.79618"><ele>648</ele><time>2026-06-15T12:28:56Z</time></trkpt>
    <trkpt lat="48.34548" lon="14.79602"><ele>650</ele><time>2026-06-15T12:29:25Z</time></trkpt>
    <trkpt lat="48.34515" lon="14.79536"><ele>655</ele><time>2026-06-15T12:29:55Z</time></trkpt>
    <trkpt lat="48.34477" lon="14.79468"><ele>657</ele><time>2026-06-15T12:30:24Z</time></trkpt>
    <trkpt lat="48.34501" lon="14.79426"><ele>660</ele><time>2026-06-15T12:30:53Z</time></trkpt>
    <trkpt lat="48.34537" lon="14.79419"><ele>666</ele><time>2026-06-15T12:31:23Z</time></trkpt>
    <trkpt lat="48.34564" lon="14.79441"><ele>668</ele><time>2026-06-15T12:31:52Z</time></trkpt>
    <trkpt lat="48.34598" lon="14.79444"><ele>671</ele><time>2026-06-15T12:32:21Z</time></trkpt>
    <trkpt lat="48.34631" lon="14.79433"><ele>677</ele><time>2026-06-15T12:32:51Z</time></trkpt>
    <trkpt lat="48.34659" lon="14.79470"><ele>684</ele><time>2026-06-15T12:33:20Z</time></trkpt>
    <trkpt lat="48.34689" lon="14.79480"><ele>687</ele><time>2026-06-15T12:33:49Z</time></trkpt>
    <trkpt lat="48.34727" lon="14.79457"><ele>690</ele><time>2026-06-15T12:34:19Z</time></trkpt>
    <trkpt lat="48.34765" lon="14.79437"><ele>695</ele><time>2026-06-15T12:34:48Z</time></trkpt>
    <trkpt lat="48.34813" lon="14.79433"><ele>696</ele><time>2026-06-15T12:35:17Z</time></trkpt>
    <trkpt lat="48.34871" lon="14.79447"><ele>699</ele><time>2026-06-15T12:35:47Z</time></trkpt>
    <trkpt lat="48.34980" lon="14.79525"><ele>696</ele><time>2026-06-15T12:38:13Z</time></trkpt>
    <trkpt lat="48.35029" lon="14.79546"><ele>700</ele><time>2026-06-15T12:38:43Z</time></trkpt>
    <trkpt lat="48.35133" lon="14.79571"><ele>704</ele><time>2026-06-15T12:39:12Z</time></trkpt>
    <trkpt lat="48.35246" lon="14.79838"><ele>697</ele><time>2026-06-15T12:39:41Z</time></trkpt>
    <trkpt lat="48.35436" lon="14.79889"><ele>675</ele><time>2026-06-15T12:40:11Z</time></trkpt>
    <trkpt lat="48.35508" lon="14.79752"><ele>658</ele><time>2026-06-15T12:40:40Z</time></trkpt>
    <trkpt lat="48.35492" lon="14.79778"><ele>659</ele><time>2026-06-15T12:41:09Z</time></trkpt>
    <trkpt lat="48.35478" lon="14.79785"><ele>659</ele><time>2026-06-15T12:41:39Z</time></trkpt>
    <trkpt lat="48.35496" lon="14.79774"><ele>658</ele><time>2026-06-15T12:42:08Z</time></trkpt>
    <trkpt lat="48.35594" lon="14.79602"><ele>651</ele><time>2026-06-15T12:42:37Z</time></trkpt>
    <trkpt lat="48.35612" lon="14.79529"><ele>652</ele><time>2026-06-15T12:43:07Z</time></trkpt>
    <trkpt lat="48.35645" lon="14.79460"><ele>654</ele><time>2026-06-15T12:43:36Z</time></trkpt>
    <trkpt lat="48.35623" lon="14.79404"><ele>658</ele><time>2026-06-15T12:44:05Z</time></trkpt>
    <trkpt lat="48.35598" lon="14.79451"><ele>655</ele><time>2026-06-15T12:44:35Z</time></trkpt>
    <trkpt lat="48.35577" lon="14.79407"><ele>654</ele><time>2026-06-15T12:45:04Z</time></trkpt>
    <trkpt lat="48.35562" lon="14.79348"><ele>661</ele><time>2026-06-15T12:45:33Z</time></trkpt>
    <trkpt lat="48.35561" lon="14.79297"><ele>666</ele><time>2026-06-15T12:46:03Z</time></trkpt>
    <trkpt lat="48.35565" lon="14.79219"><ele>668</ele><time>2026-06-15T12:46:32Z</time></trkpt>
    <trkpt lat="48.35534" lon="14.79168"><ele>672</ele><time>2026-06-15T12:47:01Z</time></trkpt>
    <trkpt lat="48.35447" lon="14.79155"><ele>654</ele><time>2026-06-15T12:47:31Z</time></trkpt>
    <trkpt lat="48.35395" lon="14.79147"><ele>643</ele><time>2026-06-15T12:48:00Z</time></trkpt>
    <trkpt lat="48.35383" lon="14.79155"><ele>634</ele><time>2026-06-15T12:56:19Z</time></trkpt>
    <trkpt lat="48.35356" lon="14.78984"><ele>619</ele><time>2026-06-15T13:04:09Z</time></trkpt>
    <trkpt lat="48.35345" lon="14.78894"><ele>612</ele><time>2026-06-15T13:04:38Z</time></trkpt>
    <trkpt lat="48.35369" lon="14.78783"><ele>607</ele><time>2026-06-15T13:05:07Z</time></trkpt>
    <trkpt lat="48.35402" lon="14.78754"><ele>611</ele><time>2026-06-15T13:05:37Z</time></trkpt>
    <trkpt lat="48.35467" lon="14.78739"><ele>617</ele><time>2026-06-15T13:06:06Z</time></trkpt>
    <trkpt lat="48.35503" lon="14.78761"><ele>619</ele><time>2026-06-15T13:06:35Z</time></trkpt>
    <trkpt lat="48.35515" lon="14.78743"><ele>614</ele><time>2026-06-15T13:07:05Z</time></trkpt>
    <trkpt lat="48.35511" lon="14.78726"><ele>617</ele><time>2026-06-15T13:07:34Z</time></trkpt>
    <trkpt lat="48.35489" lon="14.78667"><ele>619</ele><time>2026-06-15T13:08:03Z</time></trkpt>
    <trkpt lat="48.35499" lon="14.78629"><ele>619</ele><time>2026-06-15T13:08:33Z</time></trkpt>
    <trkpt lat="48.35540" lon="14.78611"><ele>624</ele><time>2026-06-15T13:11:29Z</time></trkpt>
    <trkpt lat="48.35547" lon="14.78657"><ele>628</ele><time>2026-06-15T13:11:58Z</time></trkpt>
    <trkpt lat="48.35548" lon="14.78686"><ele>632</ele><time>2026-06-15T13:12:27Z</time></trkpt>
    <trkpt lat="48.35572" lon="14.78722"><ele>637</ele><time>2026-06-15T13:12:57Z</time></trkpt>
    <trkpt lat="48.35605" lon="14.78746"><ele>640</ele><time>2026-06-15T13:13:26Z</time></trkpt>
    <trkpt lat="48.35616" lon="14.78759"><ele>642</ele><time>2026-06-15T13:14:25Z</time></trkpt>
    <trkpt lat="48.35649" lon="14.78801"><ele>644</ele><time>2026-06-15T13:14:54Z</time></trkpt>
    <trkpt lat="48.35694" lon="14.78806"><ele>646</ele><time>2026-06-15T13:15:23Z</time></trkpt>
    <trkpt lat="48.35717" lon="14.78804"><ele>651</ele><time>2026-06-15T13:17:21Z</time></trkpt>
    <trkpt lat="48.35733" lon="14.78785"><ele>653</ele><time>2026-06-15T13:17:50Z</time></trkpt>
    <trkpt lat="48.35762" lon="14.78746"><ele>655</ele><time>2026-06-15T13:18:19Z</time></trkpt>
    <trkpt lat="48.35784" lon="14.78806"><ele>658</ele><time>2026-06-15T13:18:49Z</time></trkpt>
    <trkpt lat="48.35809" lon="14.78857"><ele>665</ele><time>2026-06-15T13:19:18Z</time></trkpt>
    <trkpt lat="48.35819" lon="14.78918"><ele>667</ele><time>2026-06-15T13:19:47Z</time></trkpt>
    <trkpt lat="48.35825" lon="14.78984"><ele>675</ele><time>2026-06-15T13:20:17Z</time></trkpt>
    <trkpt lat="48.35850" lon="14.79033"><ele>680</ele><time>2026-06-15T13:20:46Z</time></trkpt>
    <trkpt lat="48.35887" lon="14.79072"><ele>683</ele><time>2026-06-15T13:21:15Z</time></trkpt>
    <trkpt lat="48.35923" lon="14.79133"><ele>688</ele><time>2026-06-15T13:21:45Z</time></trkpt>
    <trkpt lat="48.36005" lon="14.79296"><ele>681</ele><time>2026-06-15T13:22:14Z</time></trkpt>
    <trkpt lat="48.36048" lon="14.79258"><ele>676</ele><time>2026-06-15T13:22:43Z</time></trkpt>
    <trkpt lat="48.36074" lon="14.79140"><ele>679</ele><time>2026-06-15T13:23:13Z</time></trkpt>
    <trkpt lat="48.36089" lon="14.79070"><ele>684</ele><time>2026-06-15T13:23:42Z</time></trkpt>
    <trkpt lat="48.36098" lon="14.79008"><ele>688</ele><time>2026-06-15T13:24:11Z</time></trkpt>
    <trkpt lat="48.36134" lon="14.78913"><ele>689</ele><time>2026-06-15T13:24:41Z</time></trkpt>
    <trkpt lat="48.36231" lon="14.78890"><ele>688</ele><time>2026-06-15T13:25:10Z</time></trkpt>
    <trkpt lat="48.36256" lon="14.78750"><ele>675</ele><time>2026-06-15T13:25:39Z</time></trkpt>
    <trkpt lat="48.36154" lon="14.78667"><ele>671</ele><time>2026-06-15T13:26:09Z</time></trkpt>
    <trkpt lat="48.36074" lon="14.78530"><ele>670</ele><time>2026-06-15T13:26:38Z</time></trkpt>
    <trkpt lat="48.36091" lon="14.78360"><ele>657</ele><time>2026-06-15T13:27:07Z</time></trkpt>
    <trkpt lat="48.36042" lon="14.78071"><ele>634</ele><time>2026-06-15T13:27:37Z</time></trkpt>
    <trkpt lat="48.36048" lon="14.77929"><ele>637</ele><time>2026-06-15T13:28:06Z</time></trkpt>
    <trkpt lat="48.36018" lon="14.77860"><ele>641</ele><time>2026-06-15T13:28:35Z</time></trkpt>
    <trkpt lat="48.35990" lon="14.77811"><ele>648</ele><time>2026-06-15T13:29:05Z</time></trkpt>
    <trkpt lat="48.35986" lon="14.77767"><ele>650</ele><time>2026-06-15T13:29:34Z</time></trkpt>
    <trkpt lat="48.36008" lon="14.77723"><ele>656</ele><time>2026-06-15T13:30:03Z</time></trkpt>
    <trkpt lat="48.36010" lon="14.77663"><ele>661</ele><time>2026-06-15T13:30:33Z</time></trkpt>
    <trkpt lat="48.36025" lon="14.77612"><ele>667</ele><time>2026-06-15T13:31:02Z</time></trkpt>
    <trkpt lat="48.36043" lon="14.77560"><ele>667</ele><time>2026-06-15T13:31:31Z</time></trkpt>
    <trkpt lat="48.36042" lon="14.77496"><ele>672</ele><time>2026-06-15T13:32:01Z</time></trkpt>
    <trkpt lat="48.36002" lon="14.77380"><ele>673</ele><time>2026-06-15T13:32:30Z</time></trkpt>
    <trkpt lat="48.36027" lon="14.77309"><ele>673</ele><time>2026-06-15T13:32:59Z</time></trkpt>
    <trkpt lat="48.36078" lon="14.77081"><ele>669</ele><time>2026-06-15T13:33:29Z</time></trkpt>
    <trkpt lat="48.36057" lon="14.77022"><ele>663</ele><time>2026-06-15T13:33:58Z</time></trkpt>
    <trkpt lat="48.36209" lon="14.76981"><ele>645</ele><time>2026-06-15T13:34:27Z</time></trkpt>
    <trkpt lat="48.36236" lon="14.77078"><ele>621</ele><time>2026-06-15T13:34:57Z</time></trkpt>
    <trkpt lat="48.36269" lon="14.77210"><ele>606</ele><time>2026-06-15T13:35:26Z</time></trkpt>
    <trkpt lat="48.36296" lon="14.77353"><ele>586</ele><time>2026-06-15T13:35:55Z</time></trkpt>
    <trkpt lat="48.36355" lon="14.77274"><ele>566</ele><time>2026-06-15T13:36:25Z</time></trkpt>
    <trkpt lat="48.36472" lon="14.77065"><ele>561</ele><time>2026-06-15T13:36:54Z</time></trkpt>
    <trkpt lat="48.36632" lon="14.77002"><ele>550</ele><time>2026-06-15T13:37:23Z</time></trkpt>
    <trkpt lat="48.36699" lon="14.76838"><ele>533</ele><time>2026-06-15T13:37:53Z</time></trkpt>
    <trkpt lat="48.36683" lon="14.76773"><ele>528</ele><time>2026-06-15T13:38:22Z</time></trkpt>
    <trkpt lat="48.36619" lon="14.76753"><ele>525</ele><time>2026-06-15T13:38:51Z</time></trkpt>
    <trkpt lat="48.36529" lon="14.76739"><ele>526</ele><time>2026-06-15T13:39:21Z</time></trkpt>
    <trkpt lat="48.36485" lon="14.76633"><ele>525</ele><time>2026-06-15T13:39:50Z</time></trkpt>
    <trkpt lat="48.36450" lon="14.76517"><ele>524</ele><time>2026-06-15T13:40:19Z</time></trkpt>
    <trkpt lat="48.36442" lon="14.76430"><ele>530</ele><time>2026-06-15T13:40:49Z</time></trkpt>
    <trkpt lat="48.36434" lon="14.76342"><ele>530</ele><time>2026-06-15T13:41:18Z</time></trkpt>
    <trkpt lat="48.36492" lon="14.76204"><ele>527</ele><time>2026-06-15T13:41:47Z</time></trkpt>
    <trkpt lat="48.36526" lon="14.76037"><ele>527</ele><time>2026-06-15T13:42:17Z</time></trkpt>
    <trkpt lat="48.36512" lon="14.75960"><ele>526</ele><time>2026-06-15T13:42:46Z</time></trkpt>
    <trkpt lat="48.36468" lon="14.75865"><ele>522</ele><time>2026-06-15T13:43:45Z</time></trkpt>
    <trkpt lat="48.36473" lon="14.75848"><ele>521</ele><time>2026-06-15T13:44:14Z</time></trkpt>
    <trkpt lat="48.36365" lon="14.75627"><ele>515</ele><time>2026-06-15T13:44:43Z</time></trkpt>
    <trkpt lat="48.36370" lon="14.75537"><ele>513</ele><time>2026-06-15T13:45:13Z</time></trkpt>
    <trkpt lat="48.36400" lon="14.75501"><ele>517</ele><time>2026-06-15T13:45:42Z</time></trkpt>
    <trkpt lat="48.36441" lon="14.75507"><ele>524</ele><time>2026-06-15T13:46:11Z</time></trkpt>
    <trkpt lat="48.36482" lon="14.75505"><ele>528</ele><time>2026-06-15T13:46:41Z</time></trkpt>
    <trkpt lat="48.36527" lon="14.75450"><ele>530</ele><time>2026-06-15T13:47:10Z</time></trkpt>
    <trkpt lat="48.36580" lon="14.75384"><ele>536</ele><time>2026-06-15T13:47:39Z</time></trkpt>
    <trkpt lat="48.36638" lon="14.75322"><ele>540</ele><time>2026-06-15T13:48:09Z</time></trkpt>
    <trkpt lat="48.36704" lon="14.75294"><ele>543</ele><time>2026-06-15T13:48:38Z</time></trkpt>
    <trkpt lat="48.36764" lon="14.75303"><ele>547</ele><time>2026-06-15T13:49:07Z</time></trkpt>
    <trkpt lat="48.36810" lon="14.75298"><ele>557</ele><time>2026-06-15T13:49:37Z</time></trkpt>
    <trkpt lat="48.36861" lon="14.75302"><ele>561</ele><time>2026-06-15T13:50:06Z</time></trkpt>
    <trkpt lat="48.36936" lon="14.75268"><ele>564</ele><time>2026-06-15T13:50:35Z</time></trkpt>
    <trkpt lat="48.36946" lon="14.75251"><ele>562</ele><time>2026-06-15T13:51:05Z</time></trkpt>
    <trkpt lat="48.36974" lon="14.75175"><ele>567</ele><time>2026-06-15T13:51:34Z</time></trkpt>
    <trkpt lat="48.36999" lon="14.75120"><ele>572</ele><time>2026-06-15T13:52:03Z</time></trkpt>
    <trkpt lat="48.37027" lon="14.75078"><ele>578</ele><time>2026-06-15T13:52:33Z</time></trkpt>
    <trkpt lat="48.37060" lon="14.75059"><ele>585</ele><time>2026-06-15T13:53:02Z</time></trkpt>
    <trkpt lat="48.37094" lon="14.75052"><ele>589</ele><time>2026-06-15T13:53:31Z</time></trkpt>
    <trkpt lat="48.37132" lon="14.75038"><ele>589</ele><time>2026-06-15T13:54:01Z</time></trkpt>
    <trkpt lat="48.37142" lon="14.75024"><ele>588</ele><time>2026-06-15T13:54:30Z</time></trkpt>
    <trkpt lat="48.37180" lon="14.75036"><ele>590</ele><time>2026-06-15T13:55:29Z</time></trkpt>
    <trkpt lat="48.37343" lon="14.75119"><ele>589</ele><time>2026-06-15T13:55:58Z</time></trkpt>
    <trkpt lat="48.37480" lon="14.74975"><ele>590</ele><time>2026-06-15T13:56:27Z</time></trkpt>
    <trkpt lat="48.37540" lon="14.75127"><ele>583</ele><time>2026-06-15T13:56:57Z</time></trkpt>
    <trkpt lat="48.37644" lon="14.75035"><ele>555</ele><time>2026-06-15T13:57:26Z</time></trkpt>
    <trkpt lat="48.37642" lon="14.74803"><ele>550</ele><time>2026-06-15T13:57:55Z</time></trkpt>
    <trkpt lat="48.37635" lon="14.74610"><ele>545</ele><time>2026-06-15T13:58:25Z</time></trkpt>
    <trkpt lat="48.37608" lon="14.74435"><ele>526</ele><time>2026-06-15T13:58:54Z</time></trkpt>
    <trkpt lat="48.37500" lon="14.74511"><ele>522</ele><time>2026-06-15T13:59:23Z</time></trkpt>
    <trkpt lat="48.37455" lon="14.74540"><ele>524</ele><time>2026-06-15T13:59:53Z</time></trkpt>
    <trkpt lat="48.37424" lon="14.74579"><ele>525</ele><time>2026-06-15T14:00:22Z</time></trkpt>
    <trkpt lat="48.37484" lon="14.74439"><ele>523</ele><time>2026-06-15T14:01:21Z</time></trkpt>
    <trkpt lat="48.37514" lon="14.74350"><ele>527</ele><time>2026-06-15T14:01:50Z</time></trkpt>
    <trkpt lat="48.37498" lon="14.74276"><ele>526</ele><time>2026-06-15T14:02:19Z</time></trkpt>
    <trkpt lat="48.37474" lon="14.74145"><ele>525</ele><time>2026-06-15T14:02:49Z</time></trkpt>
    <trkpt lat="48.37435" lon="14.73962"><ele>521</ele><time>2026-06-15T14:03:18Z</time></trkpt>
    <trkpt lat="48.37412" lon="14.73932"><ele>524</ele><time>2026-06-15T14:03:47Z</time></trkpt>
    <trkpt lat="48.37442" lon="14.73818"><ele>510</ele><time>2026-06-15T14:04:17Z</time></trkpt>
    <trkpt lat="48.37492" lon="14.73760"><ele>510</ele><time>2026-06-15T14:04:46Z</time></trkpt>
    <trkpt lat="48.37511" lon="14.73724"><ele>516</ele><time>2026-06-15T14:05:15Z</time></trkpt>
    <trkpt lat="48.37497" lon="14.73708"><ele>515</ele><time>2026-06-15T14:05:45Z</time></trkpt>
    <trkpt lat="48.37414" lon="14.73646"><ele>513</ele><time>2026-06-15T14:06:14Z</time></trkpt>
    <trkpt lat="48.37317" lon="14.73544"><ele>515</ele><time>2026-06-15T14:06:43Z</time></trkpt>
    <trkpt lat="48.37282" lon="14.73386"><ele>507</ele><time>2026-06-15T14:07:13Z</time></trkpt>
    <trkpt lat="48.37266" lon="14.73305"><ele>509</ele><time>2026-06-15T14:07:42Z</time></trkpt>
    <trkpt lat="48.37244" lon="14.73239"><ele>516</ele><time>2026-06-15T14:08:11Z</time></trkpt>
    <trkpt lat="48.37227" lon="14.73190"><ele>523</ele><time>2026-06-15T14:08:41Z</time></trkpt>
    <trkpt lat="48.37240" lon="14.73144"><ele>529</ele><time>2026-06-15T14:09:10Z</time></trkpt>
    <trkpt lat="48.37270" lon="14.73119"><ele>535</ele><time>2026-06-15T14:09:39Z</time></trkpt>
    <trkpt lat="48.37294" lon="14.73071"><ele>537</ele><time>2026-06-15T14:10:09Z</time></trkpt>
    <trkpt lat="48.37287" lon="14.73056"><ele>546</ele><time>2026-06-15T14:10:38Z</time></trkpt>
    <trkpt lat="48.37208" lon="14.73125"><ele>538</ele><time>2026-06-15T14:12:35Z</time></trkpt>
    <trkpt lat="48.37061" lon="14.73140"><ele>514</ele><time>2026-06-15T14:13:05Z</time></trkpt>
    <trkpt lat="48.37015" lon="14.73093"><ele>505</ele><time>2026-06-15T14:13:34Z</time></trkpt>
    <trkpt lat="48.36978" lon="14.73086"><ele>505</ele><time>2026-06-15T14:14:03Z</time></trkpt>
    <trkpt lat="48.36957" lon="14.73028"><ele>511</ele><time>2026-06-15T14:14:33Z</time></trkpt>
    <trkpt lat="48.36947" lon="14.72988"><ele>517</ele><time>2026-06-15T14:15:02Z</time></trkpt>
    <trkpt lat="48.36938" lon="14.72965"><ele>523</ele><time>2026-06-15T14:15:31Z</time></trkpt>
    <trkpt lat="48.36923" lon="14.72952"><ele>530</ele><time>2026-06-15T14:16:01Z</time></trkpt>
    <trkpt lat="48.36904" lon="14.72931"><ele>535</ele><time>2026-06-15T14:16:30Z</time></trkpt>
    <trkpt lat="48.36898" lon="14.72901"><ele>539</ele><time>2026-06-15T14:16:59Z</time></trkpt>
    <trkpt lat="48.36888" lon="14.72874"><ele>543</ele><time>2026-06-15T14:17:29Z</time></trkpt>
    <trkpt lat="48.36878" lon="14.72854"><ele>545</ele><time>2026-06-15T14:17:58Z</time></trkpt>
    <trkpt lat="48.36861" lon="14.72848"><ele>547</ele><time>2026-06-15T14:18:27Z</time></trkpt>
    <trkpt lat="48.36853" lon="14.72832"><ele>548</ele><time>2026-06-15T14:19:55Z</time></trkpt>
    <trkpt lat="48.36831" lon="14.72790"><ele>554</ele><time>2026-06-15T14:20:25Z</time></trkpt>
    <trkpt lat="48.36827" lon="14.72746"><ele>561</ele><time>2026-06-15T14:20:54Z</time></trkpt>
    <trkpt lat="48.36833" lon="14.72716"><ele>567</ele><time>2026-06-15T14:21:23Z</time></trkpt>
    <trkpt lat="48.36859" lon="14.72677"><ele>570</ele><time>2026-06-15T14:21:53Z</time></trkpt>
    <trkpt lat="48.36858" lon="14.72614"><ele>574</ele><time>2026-06-15T14:22:22Z</time></trkpt>
    <trkpt lat="48.36861" lon="14.72554"><ele>576</ele><time>2026-06-15T14:22:51Z</time></trkpt>
    <trkpt lat="48.36869" lon="14.72497"><ele>580</ele><time>2026-06-15T14:23:21Z</time></trkpt>
    <trkpt lat="48.36879" lon="14.72444"><ele>586</ele><time>2026-06-15T14:23:50Z</time></trkpt>
    <trkpt lat="48.36868" lon="14.72454"><ele>591</ele><time>2026-06-15T14:24:19Z</time></trkpt>
    <trkpt lat="48.36839" lon="14.72472"><ele>594</ele><time>2026-06-15T14:24:49Z</time></trkpt>
    <trkpt lat="48.36836" lon="14.72420"><ele>599</ele><time>2026-06-15T14:25:18Z</time></trkpt>
    <trkpt lat="48.36842" lon="14.72376"><ele>605</ele><time>2026-06-15T14:25:47Z</time></trkpt>
    <trkpt lat="48.36857" lon="14.72324"><ele>608</ele><time>2026-06-15T14:26:17Z</time></trkpt>
    <trkpt lat="48.36864" lon="14.72278"><ele>611</ele><time>2026-06-15T14:26:46Z</time></trkpt>
    <trkpt lat="48.36872" lon="14.72235"><ele>617</ele><time>2026-06-15T14:27:15Z</time></trkpt>
    <trkpt lat="48.36879" lon="14.72185"><ele>621</ele><time>2026-06-15T14:27:45Z</time></trkpt>
    <trkpt lat="48.36887" lon="14.72139"><ele>625</ele><time>2026-06-15T14:28:14Z</time></trkpt>
    <trkpt lat="48.36893" lon="14.72094"><ele>630</ele><time>2026-06-15T14:28:43Z</time></trkpt>
    <trkpt lat="48.36895" lon="14.72048"><ele>631</ele><time>2026-06-15T14:29:13Z</time></trkpt>
    <trkpt lat="48.36899" lon="14.71991"><ele>635</ele><time>2026-06-15T14:29:42Z</time></trkpt>
    <trkpt lat="48.36898" lon="14.71926"><ele>638</ele><time>2026-06-15T14:30:11Z</time></trkpt>
    <trkpt lat="48.36894" lon="14.71860"><ele>640</ele><time>2026-06-15T14:30:41Z</time></trkpt>
    <trkpt lat="48.36867" lon="14.71817"><ele>643</ele><time>2026-06-15T14:31:10Z</time></trkpt>
    <trkpt lat="48.36830" lon="14.71808"><ele>647</ele><time>2026-06-15T14:31:39Z</time></trkpt>
    <trkpt lat="48.36777" lon="14.71808"><ele>648</ele><time>2026-06-15T14:32:09Z</time></trkpt>
    <trkpt lat="48.36759" lon="14.71808"><ele>649</ele><time>2026-06-15T14:32:38Z</time></trkpt>
    <trkpt lat="48.36811" lon="14.71626"><ele>635</ele><time>2026-06-15T14:34:35Z</time></trkpt>
    <trkpt lat="48.36982" lon="14.71347"><ele>623</ele><time>2026-06-15T14:35:05Z</time></trkpt>
    <trkpt lat="48.37047" lon="14.71266"><ele>626</ele><time>2026-06-15T14:35:34Z</time></trkpt>
    <trkpt lat="48.37101" lon="14.71224"><ele>631</ele><time>2026-06-15T14:36:03Z</time></trkpt>
    <trkpt lat="48.37145" lon="14.71183"><ele>634</ele><time>2026-06-15T14:36:33Z</time></trkpt>
    <trkpt lat="48.37211" lon="14.71110"><ele>632</ele><time>2026-06-15T14:37:02Z</time></trkpt>
    <trkpt lat="48.37167" lon="14.71027"><ele>631</ele><time>2026-06-15T14:37:31Z</time></trkpt>
    <trkpt lat="48.37148" lon="14.70927"><ele>634</ele><time>2026-06-15T14:38:01Z</time></trkpt>
    <trkpt lat="48.37130" lon="14.70833"><ele>637</ele><time>2026-06-15T14:38:30Z</time></trkpt>
    <trkpt lat="48.37102" lon="14.70770"><ele>639</ele><time>2026-06-15T14:38:59Z</time></trkpt>
    <trkpt lat="48.37058" lon="14.70749"><ele>648</ele><time>2026-06-15T14:39:29Z</time></trkpt>
    <trkpt lat="48.37014" lon="14.70739"><ele>651</ele><time>2026-06-15T14:39:58Z</time></trkpt>
    <trkpt lat="48.36982" lon="14.70742"><ele>655</ele><time>2026-06-15T14:40:27Z</time></trkpt>
    <trkpt lat="48.36917" lon="14.70780"><ele>655</ele><time>2026-06-15T14:40:56Z</time></trkpt>
    <trkpt lat="48.36866" lon="14.70764"><ele>654</ele><time>2026-06-15T14:41:25Z</time></trkpt>
    <trkpt lat="48.36845" lon="14.70719"><ele>656</ele><time>2026-06-15T14:41:54Z</time></trkpt>
    <trkpt lat="48.36839" lon="14.70668"><ele>659</ele><time>2026-06-15T14:42:23Z</time></trkpt>
    <trkpt lat="48.36861" lon="14.70605"><ele>663</ele><time>2026-06-15T14:42:53Z</time></trkpt>
    <trkpt lat="48.36885" lon="14.70569"><ele>669</ele><time>2026-06-15T14:43:22Z</time></trkpt>
    <trkpt lat="48.36925" lon="14.70492"><ele>667</ele><time>2026-06-15T14:43:51Z</time></trkpt>
    <trkpt lat="48.36977" lon="14.70367"><ele>656</ele><time>2026-06-15T14:44:21Z</time></trkpt>
    <trkpt lat="48.37072" lon="14.70115"><ele>635</ele><time>2026-06-15T14:44:50Z</time></trkpt>
    <trkpt lat="48.37128" lon="14.69880"><ele>623</ele><time>2026-06-15T14:45:19Z</time></trkpt>
    <trkpt lat="48.37134" lon="14.69713"><ele>618</ele><time>2026-06-15T14:45:49Z</time></trkpt>
    <trkpt lat="48.37137" lon="14.69762"><ele>614</ele><time>2026-06-15T14:46:18Z</time></trkpt>
    <trkpt lat="48.37129" lon="14.69883"><ele>613</ele><time>2026-06-15T14:46:47Z</time></trkpt>
    <trkpt lat="48.37165" lon="14.69870"><ele>613</ele><time>2026-06-15T14:47:17Z</time></trkpt>
    <trkpt lat="48.37189" lon="14.69664"><ele>602</ele><time>2026-06-15T14:47:46Z</time></trkpt>
    <trkpt lat="48.37238" lon="14.69464"><ele>591</ele><time>2026-06-15T14:48:15Z</time></trkpt>
    <trkpt lat="48.37232" lon="14.69374"><ele>585</ele><time>2026-06-15T14:48:45Z</time></trkpt>
    <trkpt lat="48.37221" lon="14.69325"><ele>588</ele><time>2026-06-15T14:49:14Z</time></trkpt>
    <trkpt lat="48.37239" lon="14.69320"><ele>590</ele><time>2026-06-15T14:49:43Z</time></trkpt>
    <trkpt lat="48.37283" lon="14.69313"><ele>596</ele><time>2026-06-15T14:50:13Z</time></trkpt>
    <trkpt lat="48.37337" lon="14.69300"><ele>598</ele><time>2026-06-15T14:50:42Z</time></trkpt>
    <trkpt lat="48.37334" lon="14.69187"><ele>598</ele><time>2026-06-15T14:51:11Z</time></trkpt>
    <trkpt lat="48.37310" lon="14.68990"><ele>594</ele><time>2026-06-15T14:51:41Z</time></trkpt>
    <trkpt lat="48.37301" lon="14.68878"><ele>598</ele><time>2026-06-15T14:52:10Z</time></trkpt>
    <trkpt lat="48.37330" lon="14.68811"><ele>601</ele><time>2026-06-15T14:52:39Z</time></trkpt>
    <trkpt lat="48.37227" lon="14.68642"><ele>594</ele><time>2026-06-15T14:53:09Z</time></trkpt>
    <trkpt lat="48.37155" lon="14.68404"><ele>591</ele><time>2026-06-15T14:53:38Z</time></trkpt>
    <trkpt lat="48.37104" lon="14.68267"><ele>593</ele><time>2026-06-15T14:54:07Z</time></trkpt>
    <trkpt lat="48.37019" lon="14.68142"><ele>594</ele><time>2026-06-15T14:54:37Z</time></trkpt>
    <trkpt lat="48.36979" lon="14.67955"><ele>593</ele><time>2026-06-15T14:55:06Z</time></trkpt>
    <trkpt lat="48.37078" lon="14.67810"><ele>585</ele><time>2026-06-15T14:55:35Z</time></trkpt>
    <trkpt lat="48.37355" lon="14.67819"><ele>554</ele><time>2026-06-15T14:56:05Z</time></trkpt>
    <trkpt lat="48.37449" lon="14.67686"><ele>552</ele><time>2026-06-15T14:56:34Z</time></trkpt>
    <trkpt lat="48.37416" lon="14.67479"><ele>552</ele><time>2026-06-15T14:57:03Z</time></trkpt>
    <trkpt lat="48.37394" lon="14.67494"><ele>551</ele><time>2026-06-15T14:57:33Z</time></trkpt>
    <trkpt lat="48.37300" lon="14.67463"><ele>551</ele><time>2026-06-15T14:58:02Z</time></trkpt>
    <trkpt lat="48.37143" lon="14.67488"><ele>545</ele><time>2026-06-15T14:58:31Z</time></trkpt>
    <trkpt lat="48.37040" lon="14.67468"><ele>539</ele><time>2026-06-15T14:59:01Z</time></trkpt>
    <trkpt lat="48.37030" lon="14.67470"><ele>539</ele><time>2026-06-15T14:59:30Z</time></trkpt>
    <trkpt lat="48.36985" lon="14.67404"><ele>538</ele><time>2026-06-15T14:59:59Z</time></trkpt>
    <trkpt lat="48.36972" lon="14.67373"><ele>540</ele><time>2026-06-15T15:00:29Z</time></trkpt>
    <trkpt lat="48.36943" lon="14.67356"><ele>540</ele><time>2026-06-15T15:01:57Z</time></trkpt>
    <trkpt lat="48.36919" lon="14.67336"><ele>545</ele><time>2026-06-15T15:02:26Z</time></trkpt>
    <trkpt lat="48.36897" lon="14.67307"><ele>547</ele><time>2026-06-15T15:03:54Z</time></trkpt>
    <trkpt lat="48.36886" lon="14.67271"><ele>555</ele><time>2026-06-15T15:04:23Z</time></trkpt>
    <trkpt lat="48.36870" lon="14.67237"><ele>557</ele><time>2026-06-15T15:04:53Z</time></trkpt>
    <trkpt lat="48.36854" lon="14.67230"><ele>559</ele><time>2026-06-15T15:05:22Z</time></trkpt>
    <trkpt lat="48.36816" lon="14.67246"><ele>564</ele><time>2026-06-15T15:05:51Z</time></trkpt>
    <trkpt lat="48.36771" lon="14.67216"><ele>565</ele><time>2026-06-15T15:06:50Z</time></trkpt>
    <trkpt lat="48.36732" lon="14.67178"><ele>568</ele><time>2026-06-15T15:07:19Z</time></trkpt>
    <trkpt lat="48.36677" lon="14.67067"><ele>565</ele><time>2026-06-15T15:07:49Z</time></trkpt>
    <trkpt lat="48.36663" lon="14.66985"><ele>562</ele><time>2026-06-15T15:08:18Z</time></trkpt>
    <trkpt lat="48.36628" lon="14.66977"><ele>562</ele><time>2026-06-15T15:09:17Z</time></trkpt>
    <trkpt lat="48.36593" lon="14.66994"><ele>565</ele><time>2026-06-15T15:09:46Z</time></trkpt>
    <trkpt lat="48.36595" lon="14.66909"><ele>567</ele><time>2026-06-15T15:10:15Z</time></trkpt>
    <trkpt lat="48.36538" lon="14.66840"><ele>568</ele><time>2026-06-15T15:10:45Z</time></trkpt>
    <trkpt lat="48.36396" lon="14.66791"><ele>563</ele><time>2026-06-15T15:11:14Z</time></trkpt>
    <trkpt lat="48.36296" lon="14.66708"><ele>567</ele><time>2026-06-15T15:11:43Z</time></trkpt>
    <trkpt lat="48.36225" lon="14.66657"><ele>571</ele><time>2026-06-15T15:12:13Z</time></trkpt>
    <trkpt lat="48.36196" lon="14.66586"><ele>575</ele><time>2026-06-15T15:12:42Z</time></trkpt>
    <trkpt lat="48.36166" lon="14.66487"><ele>578</ele><time>2026-06-15T15:13:11Z</time></trkpt>
    <trkpt lat="48.36136" lon="14.66419"><ele>581</ele><time>2026-06-15T15:13:41Z</time></trkpt>
    <trkpt lat="48.36109" lon="14.66372"><ele>582</ele><time>2026-06-15T15:14:10Z</time></trkpt>
    <trkpt lat="48.36042" lon="14.66313"><ele>581</ele><time>2026-06-15T15:14:39Z</time></trkpt>
    <trkpt lat="48.36000" lon="14.66301"><ele>579</ele><time>2026-06-15T15:15:09Z</time></trkpt>
    <trkpt lat="48.35838" lon="14.66185"><ele>555</ele><time>2026-06-15T15:15:38Z</time></trkpt>
    <trkpt lat="48.35889" lon="14.66154"><ele>558</ele><time>2026-06-15T15:16:37Z</time></trkpt>
    <trkpt lat="48.35954" lon="14.66061"><ele>558</ele><time>2026-06-15T15:17:06Z</time></trkpt>
    <trkpt lat="48.36053" lon="14.65820"><ele>550</ele><time>2026-06-15T15:17:37Z</time></trkpt>
    <trkpt lat="48.36019" lon="14.65666"><ele>550</ele><time>2026-06-15T15:18:06Z</time></trkpt>
    <trkpt lat="48.35991" lon="14.65435"><ele>542</ele><time>2026-06-15T15:18:36Z</time></trkpt>
    <trkpt lat="48.36044" lon="14.65226"><ele>543</ele><time>2026-06-15T15:19:05Z</time></trkpt>
    <trkpt lat="48.36098" lon="14.65051"><ele>536</ele><time>2026-06-15T15:19:34Z</time></trkpt>
    <trkpt lat="48.36147" lon="14.64794"><ele>534</ele><time>2026-06-15T15:20:04Z</time></trkpt>
    <trkpt lat="48.36172" lon="14.64722"><ele>537</ele><time>2026-06-15T15:20:33Z</time></trkpt>
    <trkpt lat="48.36187" lon="14.64665"><ele>540</ele><time>2026-06-15T15:21:02Z</time></trkpt>
    <trkpt lat="48.36188" lon="14.64594"><ele>546</ele><time>2026-06-15T15:21:32Z</time></trkpt>
    <trkpt lat="48.36141" lon="14.64512"><ele>545</ele><time>2026-06-15T15:22:01Z</time></trkpt>
    <trkpt lat="48.36126" lon="14.64482"><ele>546</ele><time>2026-06-15T15:22:30Z</time></trkpt>
    <trkpt lat="48.36136" lon="14.64501"><ele>546</ele><time>2026-06-15T15:23:00Z</time></trkpt>
    <trkpt lat="48.36130" lon="14.64489"><ele>546</ele><time>2026-06-15T15:23:29Z</time></trkpt>
    <trkpt lat="48.36127" lon="14.64407"><ele>551</ele><time>2026-06-15T15:23:58Z</time></trkpt>
    <trkpt lat="48.36131" lon="14.64345"><ele>558</ele><time>2026-06-15T15:24:28Z</time></trkpt>
    <trkpt lat="48.36130" lon="14.64286"><ele>559</ele><time>2026-06-15T15:24:57Z</time></trkpt>
    <trkpt lat="48.36082" lon="14.64235"><ele>560</ele><time>2026-06-15T15:25:26Z</time></trkpt>
    <trkpt lat="48.36023" lon="14.64116"><ele>562</ele><time>2026-06-15T15:25:56Z</time></trkpt>
    <trkpt lat="48.36017" lon="14.64049"><ele>566</ele><time>2026-06-15T15:26:25Z</time></trkpt>
    <trkpt lat="48.36023" lon="14.63985"><ele>570</ele><time>2026-06-15T15:26:54Z</time></trkpt>
    <trkpt lat="48.36026" lon="14.63918"><ele>574</ele><time>2026-06-15T15:27:24Z</time></trkpt>
    <trkpt lat="48.35993" lon="14.63869"><ele>573</ele><time>2026-06-15T15:27:53Z</time></trkpt>
    <trkpt lat="48.36005" lon="14.63875"><ele>573</ele><time>2026-06-15T15:28:22Z</time></trkpt>
    <trkpt lat="48.36020" lon="14.64012"><ele>571</ele><time>2026-06-15T15:28:52Z</time></trkpt>
    <trkpt lat="48.36055" lon="14.64069"><ele>568</ele><time>2026-06-15T15:29:21Z</time></trkpt>
    <trkpt lat="48.36100" lon="14.64073"><ele>572</ele><time>2026-06-15T15:29:50Z</time></trkpt>
    <trkpt lat="48.36142" lon="14.64066"><ele>576</ele><time>2026-06-15T15:30:20Z</time></trkpt>
    <trkpt lat="48.36175" lon="14.64033"><ele>582</ele><time>2026-06-15T15:30:49Z</time></trkpt>
    <trkpt lat="48.36201" lon="14.63975"><ele>584</ele><time>2026-06-15T15:31:18Z</time></trkpt>
    <trkpt lat="48.36226" lon="14.63912"><ele>588</ele><time>2026-06-15T15:31:48Z</time></trkpt>
    <trkpt lat="48.36251" lon="14.63850"><ele>592</ele><time>2026-06-15T15:32:17Z</time></trkpt>
    <trkpt lat="48.36278" lon="14.63786"><ele>593</ele><time>2026-06-15T15:32:46Z</time></trkpt>
    <trkpt lat="48.36303" lon="14.63722"><ele>597</ele><time>2026-06-15T15:33:16Z</time></trkpt>
    <trkpt lat="48.36323" lon="14.63643"><ele>597</ele><time>2026-06-15T15:33:45Z</time></trkpt>
    <trkpt lat="48.36322" lon="14.63620"><ele>598</ele><time>2026-06-15T15:34:14Z</time></trkpt>
    <trkpt lat="48.36282" lon="14.63530"><ele>597</ele><time>2026-06-15T15:38:38Z</time></trkpt>
    <trkpt lat="48.36193" lon="14.63373"><ele>593</ele><time>2026-06-15T15:39:08Z</time></trkpt>
    <trkpt lat="48.36183" lon="14.63360"><ele>592</ele><time>2026-06-15T15:39:37Z</time></trkpt>
    <trkpt lat="48.36180" lon="14.63330"><ele>590</ele><time>2026-06-15T15:40:36Z</time></trkpt>
    <trkpt lat="48.36185" lon="14.63216"><ele>588</ele><time>2026-06-15T15:41:05Z</time></trkpt>
    <trkpt lat="48.36123" lon="14.63086"><ele>588</ele><time>2026-06-15T15:41:34Z</time></trkpt>
    <trkpt lat="48.36029" lon="14.62886"><ele>585</ele><time>2026-06-15T15:42:04Z</time></trkpt>
    <trkpt lat="48.35936" lon="14.62684"><ele>583</ele><time>2026-06-15T15:42:33Z</time></trkpt>
    <trkpt lat="48.35841" lon="14.62484"><ele>577</ele><time>2026-06-15T15:43:02Z</time></trkpt>
    <trkpt lat="48.35810" lon="14.62359"><ele>578</ele><time>2026-06-15T15:43:32Z</time></trkpt>
    <trkpt lat="48.35777" lon="14.62180"><ele>579</ele><time>2026-06-15T15:44:01Z</time></trkpt>
    <trkpt lat="48.35830" lon="14.62124"><ele>575</ele><time>2026-06-15T15:44:30Z</time></trkpt>
    <trkpt lat="48.36080" lon="14.61961"><ele>567</ele><time>2026-06-15T15:45:00Z</time></trkpt>
    <trkpt lat="48.36070" lon="14.61808"><ele>548</ele><time>2026-06-15T15:45:29Z</time></trkpt>
    <trkpt lat="48.36097" lon="14.61771"><ele>545</ele><time>2026-06-15T15:45:58Z</time></trkpt>
    <trkpt lat="48.36097" lon="14.61713"><ele>547</ele><time>2026-06-15T15:46:28Z</time></trkpt>
    <trkpt lat="48.36077" lon="14.61647"><ele>548</ele><time>2026-06-15T15:46:57Z</time></trkpt>
    <trkpt lat="48.36048" lon="14.61610"><ele>554</ele><time>2026-06-15T15:47:26Z</time></trkpt>
    <trkpt lat="48.36023" lon="14.61571"><ele>561</ele><time>2026-06-15T15:47:56Z</time></trkpt>
    <trkpt lat="48.36049" lon="14.61479"><ele>560</ele><time>2026-06-15T15:48:25Z</time></trkpt>
    <trkpt lat="48.36101" lon="14.61388"><ele>562</ele><time>2026-06-15T15:48:54Z</time></trkpt>
    <trkpt lat="48.36123" lon="14.61340"><ele>564</ele><time>2026-06-15T15:49:24Z</time></trkpt>
    <trkpt lat="48.35988" lon="14.61173"><ele>559</ele><time>2026-06-15T15:53:48Z</time></trkpt>
    <trkpt lat="48.35884" lon="14.61122"><ele>561</ele><time>2026-06-15T15:54:17Z</time></trkpt>
    <trkpt lat="48.35808" lon="14.61057"><ele>563</ele><time>2026-06-15T15:54:46Z</time></trkpt>
    <trkpt lat="48.35736" lon="14.60997"><ele>566</ele><time>2026-06-15T15:55:16Z</time></trkpt>
    <trkpt lat="48.35649" lon="14.61014"><ele>567</ele><time>2026-06-15T15:55:45Z</time></trkpt>
    <trkpt lat="48.35561" lon="14.61073"><ele>570</ele><time>2026-06-15T15:56:14Z</time></trkpt>
    <trkpt lat="48.35480" lon="14.61106"><ele>574</ele><time>2026-06-15T15:56:44Z</time></trkpt>
    <trkpt lat="48.35335" lon="14.61188"><ele>573</ele><time>2026-06-15T15:57:13Z</time></trkpt>
    <trkpt lat="48.35357" lon="14.61008"><ele>571</ele><time>2026-06-15T15:57:42Z</time></trkpt>
    <trkpt lat="48.35475" lon="14.60911"><ele>567</ele><time>2026-06-15T15:58:12Z</time></trkpt>
    <trkpt lat="48.35504" lon="14.60566"><ele>563</ele><time>2026-06-15T15:58:41Z</time></trkpt>
    <trkpt lat="48.35624" lon="14.60515"><ele>543</ele><time>2026-06-15T15:59:10Z</time></trkpt>
    <trkpt lat="48.35568" lon="14.60351"><ele>530</ele><time>2026-06-15T15:59:40Z</time></trkpt>
    <trkpt lat="48.35451" lon="14.60197"><ele>532</ele><time>2026-06-15T16:00:09Z</time></trkpt>
    <trkpt lat="48.35402" lon="14.60053"><ele>534</ele><time>2026-06-15T16:00:38Z</time></trkpt>
    <trkpt lat="48.35341" lon="14.59852"><ele>526</ele><time>2026-06-15T16:01:08Z</time></trkpt>
    <trkpt lat="48.35228" lon="14.59489"><ele>494</ele><time>2026-06-15T16:01:37Z</time></trkpt>
    <trkpt lat="48.35108" lon="14.59495"><ele>484</ele><time>2026-06-15T16:02:06Z</time></trkpt>
    <trkpt lat="48.35043" lon="14.59228"><ele>451</ele><time>2026-06-15T16:02:36Z</time></trkpt>
    <trkpt lat="48.34949" lon="14.59085"><ele>433</ele><time>2026-06-15T16:03:05Z</time></trkpt>
    <trkpt lat="48.34973" lon="14.58913"><ele>431</ele><time>2026-06-15T16:03:34Z</time></trkpt>
    <trkpt lat="48.34753" lon="14.58808"><ele>430</ele><time>2026-06-15T16:04:03Z</time></trkpt>
    <trkpt lat="48.34573" lon="14.58756"><ele>425</ele><time>2026-06-15T16:04:32Z</time></trkpt>
    <trkpt lat="48.34463" lon="14.58527"><ele>399</ele><time>2026-06-15T16:05:01Z</time></trkpt>
    <trkpt lat="48.34209" lon="14.58444"><ele>370</ele><time>2026-06-15T16:05:30Z</time></trkpt>
    <trkpt lat="48.33970" lon="14.58264"><ele>355</ele><time>2026-06-15T16:06:00Z</time></trkpt>
    <trkpt lat="48.34238" lon="14.57833"><ele>337</ele><time>2026-06-15T16:06:29Z</time></trkpt>
    <trkpt lat="48.34264" lon="14.57582"><ele>331</ele><time>2026-06-15T16:06:58Z</time></trkpt>
    <trkpt lat="48.34153" lon="14.57447"><ele>329</ele><time>2026-06-15T16:07:28Z</time></trkpt>
    <trkpt lat="48.34029" lon="14.57309"><ele>327</ele><time>2026-06-15T16:07:57Z</time></trkpt>
    <trkpt lat="48.33918" lon="14.57166"><ele>330</ele><time>2026-06-15T16:08:26Z</time></trkpt>
    <trkpt lat="48.33792" lon="14.57059"><ele>330</ele><time>2026-06-15T16:08:56Z</time></trkpt>
    <trkpt lat="48.33621" lon="14.56998"><ele>331</ele><time>2026-06-15T16:09:25Z</time></trkpt>
    <trkpt lat="48.33648" lon="14.56936"><ele>331</ele><time>2026-06-15T16:09:54Z</time></trkpt>
    <trkpt lat="48.33701" lon="14.56858"><ele>331</ele><time>2026-06-15T16:10:24Z</time></trkpt>
    <trkpt lat="48.33801" lon="14.56706"><ele>331</ele><time>2026-06-15T16:10:53Z</time></trkpt>
    <trkpt lat="48.33894" lon="14.56568"><ele>330</ele><time>2026-06-15T16:11:22Z</time></trkpt>
    <trkpt lat="48.33988" lon="14.56427"><ele>332</ele><time>2026-06-15T16:11:52Z</time></trkpt>
    <trkpt lat="48.34066" lon="14.56303"><ele>333</ele><time>2026-06-15T16:12:21Z</time></trkpt>
    <trkpt lat="48.34110" lon="14.56168"><ele>335</ele><time>2026-06-15T16:12:50Z</time></trkpt>
    <trkpt lat="48.34157" lon="14.56014"><ele>336</ele><time>2026-06-15T16:13:20Z</time></trkpt>
    <trkpt lat="48.34202" lon="14.55890"><ele>336</ele><time>2026-06-15T16:13:49Z</time></trkpt>
    <trkpt lat="48.34241" lon="14.55791"><ele>341</ele><time>2026-06-15T16:14:18Z</time></trkpt>
    <trkpt lat="48.34291" lon="14.55713"><ele>346</ele><time>2026-06-15T16:14:48Z</time></trkpt>
    <trkpt lat="48.34338" lon="14.55645"><ele>351</ele><time>2026-06-15T16:15:17Z</time></trkpt>
    <trkpt lat="48.34371" lon="14.55571"><ele>356</ele><time>2026-06-15T16:15:46Z</time></trkpt>
    <trkpt lat="48.34391" lon="14.55484"><ele>361</ele><time>2026-06-15T16:16:16Z</time></trkpt>
    <trkpt lat="48.34396" lon="14.55387"><ele>365</ele><time>2026-06-15T16:16:45Z</time></trkpt>
    <trkpt lat="48.34399" lon="14.55286"><ele>369</ele><time>2026-06-15T16:17:14Z</time></trkpt>
    <trkpt lat="48.34418" lon="14.55182"><ele>373</ele><time>2026-06-15T16:17:44Z</time></trkpt>
    <trkpt lat="48.34438" lon="14.55137"><ele>372</ele><time>2026-06-15T16:18:13Z</time></trkpt>
    <trkpt lat="48.34521" lon="14.55022"><ele>377</ele><time>2026-06-15T16:18:42Z</time></trkpt>
    <trkpt lat="48.34601" lon="14.54929"><ele>376</ele><time>2026-06-15T16:19:12Z</time></trkpt>
    <trkpt lat="48.34690" lon="14.54875"><ele>377</ele><time>2026-06-15T16:19:41Z</time></trkpt>
    <trkpt lat="48.34817" lon="14.54797"><ele>374</ele><time>2026-06-15T16:20:10Z</time></trkpt>
    <trkpt lat="48.34941" lon="14.54650"><ele>372</ele><time>2026-06-15T16:20:40Z</time></trkpt>
    <trkpt lat="48.35028" lon="14.54521"><ele>369</ele><time>2026-06-15T16:21:09Z</time></trkpt>
    <trkpt lat="48.35054" lon="14.54447"><ele>372</ele><time>2026-06-15T16:21:38Z</time></trkpt>
    <trkpt lat="48.35142" lon="14.54357"><ele>370</ele><time>2026-06-15T16:22:08Z</time></trkpt>
    <trkpt lat="48.35180" lon="14.54292"><ele>373</ele><time>2026-06-15T16:22:37Z</time></trkpt>
    <trkpt lat="48.35211" lon="14.54218"><ele>378</ele><time>2026-06-15T16:23:06Z</time></trkpt>
    <trkpt lat="48.35241" lon="14.54141"><ele>382</ele><time>2026-06-15T16:23:36Z</time></trkpt>
    <trkpt lat="48.35282" lon="14.54068"><ele>383</ele><time>2026-06-15T16:24:05Z</time></trkpt>
    <trkpt lat="48.35321" lon="14.53980"><ele>382</ele><time>2026-06-15T16:24:34Z</time></trkpt>
    <trkpt lat="48.35438" lon="14.53960"><ele>384</ele><time>2026-06-15T16:25:04Z</time></trkpt>
    <trkpt lat="48.35490" lon="14.53940"><ele>392</ele><time>2026-06-15T16:25:33Z</time></trkpt>
    <trkpt lat="48.35521" lon="14.53906"><ele>396</ele><time>2026-06-15T16:26:02Z</time></trkpt>
    <trkpt lat="48.35529" lon="14.53843"><ele>400</ele><time>2026-06-15T16:26:32Z</time></trkpt>
    <trkpt lat="48.35535" lon="14.53775"><ele>407</ele><time>2026-06-15T16:27:01Z</time></trkpt>
    <trkpt lat="48.35532" lon="14.53706"><ele>411</ele><time>2026-06-15T16:27:30Z</time></trkpt>
    <trkpt lat="48.35521" lon="14.53626"><ele>416</ele><time>2026-06-15T16:28:00Z</time></trkpt>
    <trkpt lat="48.35509" lon="14.53551"><ele>421</ele><time>2026-06-15T16:28:29Z</time></trkpt>
    <trkpt lat="48.35504" lon="14.53440"><ele>423</ele><time>2026-06-15T16:28:58Z</time></trkpt>
    <trkpt lat="48.35516" lon="14.53299"><ele>424</ele><time>2026-06-15T16:29:28Z</time></trkpt>
    <trkpt lat="48.35525" lon="14.53154"><ele>424</ele><time>2026-06-15T16:29:57Z</time></trkpt>
    <trkpt lat="48.35480" lon="14.53083"><ele>420</ele><time>2026-06-15T16:30:26Z</time></trkpt>
    <trkpt lat="48.35479" lon="14.52769"><ele>405</ele><time>2026-06-15T16:30:56Z</time></trkpt>
    <trkpt lat="48.35540" lon="14.52504"><ele>399</ele><time>2026-06-15T16:31:25Z</time></trkpt>
    <trkpt lat="48.35534" lon="14.52399"><ele>405</ele><time>2026-06-15T16:31:54Z</time></trkpt>
    <trkpt lat="48.35537" lon="14.52322"><ele>411</ele><time>2026-06-15T16:32:24Z</time></trkpt>
    <trkpt lat="48.35538" lon="14.52253"><ele>415</ele><time>2026-06-15T16:32:53Z</time></trkpt>
    <trkpt lat="48.35575" lon="14.52226"><ele>420</ele><time>2026-06-15T16:33:22Z</time></trkpt>
    <trkpt lat="48.35594" lon="14.52238"><ele>471</ele><time>2026-06-15T16:34:11Z</time></trkpt>
    <trkpt lat="48.35600" lon="14.52269"><ele>409</ele><time>2026-06-15T16:34:45Z</time></trkpt>
    <trkpt lat="48.35598" lon="14.52268"><ele>415</ele><time>2026-06-15T16:35:14Z</time></trkpt>
  </trkseg>
</trk>
</gpx>