<?xml version="1.0" encoding="UTF-8"?>
<gpx version="1.1" creator="GPX-Pro" xmlns="http://www.topografix.com/GPX/1/1">
<trk>
  <name>Aigen-Bärenstein-NWK-Linz</name>
  <trkseg>
    <trkpt lat="48.64251" lon="13.97527"><ele>574</ele><time>2026-07-07T07:12:30Z</time></trkpt>
    <trkpt lat="48.64300" lon="13.97520"><ele>570</ele><time>2026-07-07T07:13:00Z</time></trkpt>
    <trkpt lat="48.64369" lon="13.97509"><ele>571</ele><time>2026-07-07T07:13:29Z</time></trkpt>
    <trkpt lat="48.64431" lon="13.97497"><ele>572</ele><time>2026-07-07T07:13:58Z</time></trkpt>
    <trkpt lat="48.64490" lon="13.97483"><ele>575</ele><time>2026-07-07T07:14:28Z</time></trkpt>
    <trkpt lat="48.64498" lon="13.97362"><ele>579</ele><time>2026-07-07T07:14:57Z</time></trkpt>
    <trkpt lat="48.64499" lon="13.97273"><ele>585</ele><time>2026-07-07T07:15:26Z</time></trkpt>
    <trkpt lat="48.64539" lon="13.97235"><ele>589</ele><time>2026-07-07T07:15:56Z</time></trkpt>
    <trkpt lat="48.64572" lon="13.97202"><ele>596</ele><time>2026-07-07T07:16:25Z</time></trkpt>
    <trkpt lat="48.64605" lon="13.97144"><ele>601</ele><time>2026-07-07T07:16:54Z</time></trkpt>
    <trkpt lat="48.64671" lon="13.97206"><ele>602</ele><time>2026-07-07T07:17:24Z</time></trkpt>
    <trkpt lat="48.64755" lon="13.97278"><ele>603</ele><time>2026-07-07T07:17:53Z</time></trkpt>
    <trkpt lat="48.64817" lon="13.97323"><ele>606</ele><time>2026-07-07T07:18:22Z</time></trkpt>
    <trkpt lat="48.64869" lon="13.97351"><ele>612</ele><time>2026-07-07T07:18:52Z</time></trkpt>
    <trkpt lat="48.64925" lon="13.97384"><ele>616</ele><time>2026-07-07T07:19:21Z</time></trkpt>
    <trkpt lat="48.65027" lon="13.97464"><ele>613</ele><time>2026-07-07T07:19:50Z</time></trkpt>
    <trkpt lat="48.65178" lon="13.97527"><ele>612</ele><time>2026-07-07T07:20:20Z</time></trkpt>
    <trkpt lat="48.65301" lon="13.97555"><ele>616</ele><time>2026-07-07T07:20:49Z</time></trkpt>
    <trkpt lat="48.65410" lon="13.97565"><ele>619</ele><time>2026-07-07T07:21:18Z</time></trkpt>
    <trkpt lat="48.65464" lon="13.97596"><ele>625</ele><time>2026-07-07T07:21:48Z</time></trkpt>
    <trkpt lat="48.65504" lon="13.97626"><ele>629</ele><time>2026-07-07T07:22:17Z</time></trkpt>
    <trkpt lat="48.65545" lon="13.97646"><ele>637</ele><time>2026-07-07T07:22:46Z</time></trkpt>
    <trkpt lat="48.65593" lon="13.97623"><ele>641</ele><time>2026-07-07T07:23:16Z</time></trkpt>
    <trkpt lat="48.65634" lon="13.97607"><ele>646</ele><time>2026-07-07T07:23:45Z</time></trkpt>
    <trkpt lat="48.65674" lon="13.97602"><ele>651</ele><time>2026-07-07T07:24:14Z</time></trkpt>
    <trkpt lat="48.65714" lon="13.97618"><ele>657</ele><time>2026-07-07T07:24:44Z</time></trkpt>
    <trkpt lat="48.65749" lon="13.97630"><ele>667</ele><time>2026-07-07T07:25:13Z</time></trkpt>
    <trkpt lat="48.65783" lon="13.97604"><ele>671</ele><time>2026-07-07T07:25:42Z</time></trkpt>
    <trkpt lat="48.65817" lon="13.97574"><ele>678</ele><time>2026-07-07T07:26:12Z</time></trkpt>
    <trkpt lat="48.65851" lon="13.97541"><ele>685</ele><time>2026-07-07T07:26:41Z</time></trkpt>
    <trkpt lat="48.65885" lon="13.97527"><ele>694</ele><time>2026-07-07T07:27:10Z</time></trkpt>
    <trkpt lat="48.65927" lon="13.97508"><ele>696</ele><time>2026-07-07T07:27:40Z</time></trkpt>
    <trkpt lat="48.65966" lon="13.97486"><ele>697</ele><time>2026-07-07T07:28:09Z</time></trkpt>
    <trkpt lat="48.66004" lon="13.97459"><ele>702</ele><time>2026-07-07T07:28:38Z</time></trkpt>
    <trkpt lat="48.66035" lon="13.97447"><ele>704</ele><time>2026-07-07T07:29:08Z</time></trkpt>
    <trkpt lat="48.66061" lon="13.97439"><ele>705</ele><time>2026-07-07T07:29:37Z</time></trkpt>
    <trkpt lat="48.66095" lon="13.97428"><ele>706</ele><time>2026-07-07T07:30:06Z</time></trkpt>
    <trkpt lat="48.66130" lon="13.97403"><ele>715</ele><time>2026-07-07T07:30:36Z</time></trkpt>
    <trkpt lat="48.66157" lon="13.97370"><ele>720</ele><time>2026-07-07T07:31:05Z</time></trkpt>
    <trkpt lat="48.66186" lon="13.97325"><ele>724</ele><time>2026-07-07T07:31:34Z</time></trkpt>
    <trkpt lat="48.66228" lon="13.97291"><ele>727</ele><time>2026-07-07T07:32:04Z</time></trkpt>
    <trkpt lat="48.66242" lon="13.97288"><ele>730</ele><time>2026-07-07T07:32:33Z</time></trkpt>
    <trkpt lat="48.66270" lon="13.97208"><ele>728</ele><time>2026-07-07T07:33:32Z</time></trkpt>
    <trkpt lat="48.66289" lon="13.97165"><ele>731</ele><time>2026-07-07T07:34:01Z</time></trkpt>
    <trkpt lat="48.66310" lon="13.97138"><ele>739</ele><time>2026-07-07T07:34:30Z</time></trkpt>
    <trkpt lat="48.66303" lon="13.97126"><ele>739</ele><time>2026-07-07T07:35:00Z</time></trkpt>
    <trkpt lat="48.66339" lon="13.97112"><ele>745</ele><time>2026-07-07T07:36:28Z</time></trkpt>
    <trkpt lat="48.66380" lon="13.97110"><ele>748</ele><time>2026-07-07T07:36:57Z</time></trkpt>
    <trkpt lat="48.66401" lon="13.97129"><ele>754</ele><time>2026-07-07T07:37:26Z</time></trkpt>
    <trkpt lat="48.66413" lon="13.97182"><ele>756</ele><time>2026-07-07T07:37:56Z</time></trkpt>
    <trkpt lat="48.66420" lon="13.97241"><ele>762</ele><time>2026-07-07T07:38:25Z</time></trkpt>
    <trkpt lat="48.66440" lon="13.97331"><ele>767</ele><time>2026-07-07T07:38:54Z</time></trkpt>
    <trkpt lat="48.66441" lon="13.97212"><ele>765</ele><time>2026-07-07T07:39:24Z</time></trkpt>
    <trkpt lat="48.66450" lon="13.97145"><ele>768</ele><time>2026-07-07T07:39:53Z</time></trkpt>
    <trkpt lat="48.66456" lon="13.97076"><ele>773</ele><time>2026-07-07T07:40:22Z</time></trkpt>
    <trkpt lat="48.66480" lon="13.97027"><ele>773</ele><time>2026-07-07T07:40:52Z</time></trkpt>
    <trkpt lat="48.66514" lon="13.96989"><ele>777</ele><time>2026-07-07T07:41:21Z</time></trkpt>
    <trkpt lat="48.66540" lon="13.96958"><ele>782</ele><time>2026-07-07T07:41:50Z</time></trkpt>
    <trkpt lat="48.66566" lon="13.96936"><ele>784</ele><time>2026-07-07T07:42:20Z</time></trkpt>
    <trkpt lat="48.66612" lon="13.96912"><ele>787</ele><time>2026-07-07T07:42:49Z</time></trkpt>
    <trkpt lat="48.66652" lon="13.96862"><ele>790</ele><time>2026-07-07T07:43:18Z</time></trkpt>
    <trkpt lat="48.66691" lon="13.96813"><ele>795</ele><time>2026-07-07T07:43:48Z</time></trkpt>
    <trkpt lat="48.66733" lon="13.96779"><ele>802</ele><time>2026-07-07T07:44:17Z</time></trkpt>
    <trkpt lat="48.66773" lon="13.96738"><ele>805</ele><time>2026-07-07T07:44:46Z</time></trkpt>
    <trkpt lat="48.66752" lon="13.96808"><ele>809</ele><time>2026-07-07T07:45:16Z</time></trkpt>
    <trkpt lat="48.66737" lon="13.96875"><ele>813</ele><time>2026-07-07T07:45:45Z</time></trkpt>
    <trkpt lat="48.66727" lon="13.96944"><ele>819</ele><time>2026-07-07T07:46:14Z</time></trkpt>
    <trkpt lat="48.66710" lon="13.97013"><ele>822</ele><time>2026-07-07T07:46:44Z</time></trkpt>
    <trkpt lat="48.66696" lon="13.97084"><ele>829</ele><time>2026-07-07T07:47:13Z</time></trkpt>
    <trkpt lat="48.66686" lon="13.97152"><ele>832</ele><time>2026-07-07T07:47:42Z</time></trkpt>
    <trkpt lat="48.66681" lon="13.97220"><ele>838</ele><time>2026-07-07T07:48:12Z</time></trkpt>
    <trkpt lat="48.66679" lon="13.97285"><ele>845</ele><time>2026-07-07T07:48:41Z</time></trkpt>
    <trkpt lat="48.66675" lon="13.97349"><ele>848</ele><time>2026-07-07T07:49:10Z</time></trkpt>
    <trkpt lat="48.66670" lon="13.97401"><ele>852</ele><time>2026-07-07T07:49:40Z</time></trkpt>
    <trkpt lat="48.66678" lon="13.97459"><ele>859</ele><time>2026-07-07T07:50:09Z</time></trkpt>
    <trkpt lat="48.66669" lon="13.97513"><ele>864</ele><time>2026-07-07T07:50:38Z</time></trkpt>
    <trkpt lat="48.66681" lon="13.97565"><ele>870</ele><time>2026-07-07T07:51:08Z</time></trkpt>
    <trkpt lat="48.66673" lon="13.97613"><ele>876</ele><time>2026-07-07T07:51:37Z</time></trkpt>
    <trkpt lat="48.66679" lon="13.97662"><ele>882</ele><time>2026-07-07T07:52:06Z</time></trkpt>
    <trkpt lat="48.66692" lon="13.97713"><ele>886</ele><time>2026-07-07T07:52:36Z</time></trkpt>
    <trkpt lat="48.66700" lon="13.97762"><ele>893</ele><time>2026-07-07T07:53:05Z</time></trkpt>
    <trkpt lat="48.66723" lon="13.97801"><ele>900</ele><time>2026-07-07T07:53:34Z</time></trkpt>
    <trkpt lat="48.66746" lon="13.97773"><ele>904</ele><time>2026-07-07T07:54:04Z</time></trkpt>
    <trkpt lat="48.66750" lon="13.97758"><ele>903</ele><time>2026-07-07T07:55:02Z</time></trkpt>
    <trkpt lat="48.66792" lon="13.97741"><ele>909</ele><time>2026-07-07T07:55:32Z</time></trkpt>
    <trkpt lat="48.66834" lon="13.97725"><ele>916</ele><time>2026-07-07T07:56:01Z</time></trkpt>
    <trkpt lat="48.66869" lon="13.97707"><ele>922</ele><time>2026-07-07T07:56:30Z</time></trkpt>
    <trkpt lat="48.66892" lon="13.97696"><ele>924</ele><time>2026-07-07T07:57:00Z</time></trkpt>
    <trkpt lat="48.66912" lon="13.97690"><ele>925</ele><time>2026-07-07T07:58:57Z</time></trkpt>
    <trkpt lat="48.66948" lon="13.97683"><ele>932</ele><time>2026-07-07T07:59:26Z</time></trkpt>
    <trkpt lat="48.66988" lon="13.97684"><ele>936</ele><time>2026-07-07T07:59:56Z</time></trkpt>
    <trkpt lat="48.67021" lon="13.97693"><ele>944</ele><time>2026-07-07T08:00:25Z</time></trkpt>
    <trkpt lat="48.67062" lon="13.97716"><ele>945</ele><time>2026-07-07T08:00:54Z</time></trkpt>
    <trkpt lat="48.67095" lon="13.97738"><ele>946</ele><time>2026-07-07T08:02:22Z</time></trkpt>
    <trkpt lat="48.67147" lon="13.97761"><ele>949</ele><time>2026-07-07T08:02:52Z</time></trkpt>
    <trkpt lat="48.67200" lon="13.97793"><ele>952</ele><time>2026-07-07T08:03:21Z</time></trkpt>
    <trkpt lat="48.67249" lon="13.97822"><ele>957</ele><time>2026-07-07T08:03:50Z</time></trkpt>
    <trkpt lat="48.67299" lon="13.97823"><ele>959</ele><time>2026-07-07T08:04:20Z</time></trkpt>
    <trkpt lat="48.67373" lon="13.97759"><ele>960</ele><time>2026-07-07T08:04:49Z</time></trkpt>
    <trkpt lat="48.67458" lon="13.97676"><ele>959</ele><time>2026-07-07T08:05:18Z</time></trkpt>
    <trkpt lat="48.67523" lon="13.97600"><ele>964</ele><time>2026-07-07T08:05:48Z</time></trkpt>
    <trkpt lat="48.67570" lon="13.97540"><ele>963</ele><time>2026-07-07T08:06:17Z</time></trkpt>
    <trkpt lat="48.67620" lon="13.97476"><ele>966</ele><time>2026-07-07T08:06:46Z</time></trkpt>
    <trkpt lat="48.67675" lon="13.97418"><ele>972</ele><time>2026-07-07T08:07:16Z</time></trkpt>
    <trkpt lat="48.67719" lon="13.97440"><ele>977</ele><time>2026-07-07T08:07:45Z</time></trkpt>
    <trkpt lat="48.67757" lon="13.97468"><ele>982</ele><time>2026-07-07T08:08:14Z</time></trkpt>
    <trkpt lat="48.67781" lon="13.97509"><ele>988</ele><time>2026-07-07T08:08:44Z</time></trkpt>
    <trkpt lat="48.67789" lon="13.97589"><ele>988</ele><time>2026-07-07T08:09:13Z</time></trkpt>
    <trkpt lat="48.67785" lon="13.97684"><ele>992</ele><time>2026-07-07T08:09:42Z</time></trkpt>
    <trkpt lat="48.67851" lon="13.97730"><ele>994</ele><time>2026-07-07T08:10:12Z</time></trkpt>
    <trkpt lat="48.67861" lon="13.97748"><ele>994</ele><time>2026-07-07T08:12:09Z</time></trkpt>
    <trkpt lat="48.67879" lon="13.97773"><ele>994</ele><time>2026-07-07T08:12:38Z</time></trkpt>
    <trkpt lat="48.67924" lon="13.97787"><ele>999</ele><time>2026-07-07T08:13:08Z</time></trkpt>
    <trkpt lat="48.67964" lon="13.97802"><ele>1003</ele><time>2026-07-07T08:13:37Z</time></trkpt>
    <trkpt lat="48.68009" lon="13.97824"><ele>1007</ele><time>2026-07-07T08:14:06Z</time></trkpt>
    <trkpt lat="48.68050" lon="13.97849"><ele>1010</ele><time>2026-07-07T08:14:36Z</time></trkpt>
    <trkpt lat="48.68093" lon="13.97865"><ele>1013</ele><time>2026-07-07T08:15:05Z</time></trkpt>
    <trkpt lat="48.68120" lon="13.97911"><ele>1014</ele><time>2026-07-07T08:15:34Z</time></trkpt>
    <trkpt lat="48.68159" lon="13.97949"><ele>1019</ele><time>2026-07-07T08:16:04Z</time></trkpt>
    <trkpt lat="48.68181" lon="13.97951"><ele>1021</ele><time>2026-07-07T08:17:02Z</time></trkpt>
    <trkpt lat="48.68221" lon="13.97961"><ele>1027</ele><time>2026-07-07T08:17:32Z</time></trkpt>
    <trkpt lat="48.68261" lon="13.97979"><ele>1031</ele><time>2026-07-07T08:18:01Z</time></trkpt>
    <trkpt lat="48.68291" lon="13.98025"><ele>1033</ele><time>2026-07-07T08:18:30Z</time></trkpt>
    <trkpt lat="48.68323" lon="13.98061"><ele>1042</ele><time>2026-07-07T08:19:00Z</time></trkpt>
    <trkpt lat="48.68327" lon="13.98125"><ele>1048</ele><time>2026-07-07T08:19:29Z</time></trkpt>
    <trkpt lat="48.68334" lon="13.98175"><ele>1045</ele><time>2026-07-07T08:19:58Z</time></trkpt>
    <trkpt lat="48.68321" lon="13.98240"><ele>1051</ele><time>2026-07-07T08:20:28Z</time></trkpt>
    <trkpt lat="48.68305" lon="13.98298"><ele>1055</ele><time>2026-07-07T08:20:57Z</time></trkpt>
    <trkpt lat="48.68298" lon="13.98347"><ele>1055</ele><time>2026-07-07T08:21:26Z</time></trkpt>
    <trkpt lat="48.68305" lon="13.98355"><ele>1055</ele><time>2026-07-07T08:21:56Z</time></trkpt>
    <trkpt lat="48.68280" lon="13.98350"><ele>1053</ele><time>2026-07-07T08:40:01Z</time></trkpt>
    <trkpt lat="48.68235" lon="13.98295"><ele>1048</ele><time>2026-07-07T08:40:30Z</time></trkpt>
    <trkpt lat="48.68198" lon="13.98250"><ele>1040</ele><time>2026-07-07T08:41:00Z</time></trkpt>
    <trkpt lat="48.68171" lon="13.98222"><ele>1036</ele><time>2026-07-07T08:41:29Z</time></trkpt>
    <trkpt lat="48.68118" lon="13.98192"><ele>1031</ele><time>2026-07-07T08:43:26Z</time></trkpt>
    <trkpt lat="48.68065" lon="13.98139"><ele>1023</ele><time>2026-07-07T08:43:56Z</time></trkpt>
    <trkpt lat="48.68002" lon="13.98146"><ele>1012</ele><time>2026-07-07T08:44:25Z</time></trkpt>
    <trkpt lat="48.67935" lon="13.98191"><ele>1007</ele><time>2026-07-07T08:44:54Z</time></trkpt>
    <trkpt lat="48.67850" lon="13.98237"><ele>999</ele><time>2026-07-07T08:45:24Z</time></trkpt>
    <trkpt lat="48.67768" lon="13.98255"><ele>993</ele><time>2026-07-07T08:45:53Z</time></trkpt>
    <trkpt lat="48.67748" lon="13.98252"><ele>991</ele><time>2026-07-07T08:46:22Z</time></trkpt>
    <trkpt lat="48.67733" lon="13.98243"><ele>988</ele><time>2026-07-07T08:48:49Z</time></trkpt>
    <trkpt lat="48.67665" lon="13.98279"><ele>990</ele><time>2026-07-07T08:49:18Z</time></trkpt>
    <trkpt lat="48.67581" lon="13.98270"><ele>991</ele><time>2026-07-07T08:49:48Z</time></trkpt>
    <trkpt lat="48.67478" lon="13.98280"><ele>988</ele><time>2026-07-07T08:50:17Z</time></trkpt>
    <trkpt lat="48.67412" lon="13.98343"><ele>984</ele><time>2026-07-07T08:50:46Z</time></trkpt>
    <trkpt lat="48.67320" lon="13.98440"><ele>977</ele><time>2026-07-07T08:51:16Z</time></trkpt>
    <trkpt lat="48.67293" lon="13.98459"><ele>971</ele><time>2026-07-07T08:51:45Z</time></trkpt>
    <trkpt lat="48.67239" lon="13.98544"><ele>962</ele><time>2026-07-07T08:52:14Z</time></trkpt>
    <trkpt lat="48.67208" lon="13.98608"><ele>950</ele><time>2026-07-07T08:52:44Z</time></trkpt>
    <trkpt lat="48.67133" lon="13.98635"><ele>937</ele><time>2026-07-07T08:53:13Z</time></trkpt>
    <trkpt lat="48.67075" lon="13.98606"><ele>935</ele><time>2026-07-07T08:53:42Z</time></trkpt>
    <trkpt lat="48.66927" lon="13.98736"><ele>927</ele><time>2026-07-07T08:54:12Z</time></trkpt>
    <trkpt lat="48.66913" lon="13.98744"><ele>928</ele><time>2026-07-07T08:54:41Z</time></trkpt>
    <trkpt lat="48.66782" lon="13.98814"><ele>920</ele><time>2026-07-07T08:55:10Z</time></trkpt>
    <trkpt lat="48.66669" lon="13.98802"><ele>921</ele><time>2026-07-07T08:55:40Z</time></trkpt>
    <trkpt lat="48.66563" lon="13.98906"><ele>921</ele><time>2026-07-07T08:56:09Z</time></trkpt>
    <trkpt lat="48.66471" lon="13.99147"><ele>919</ele><time>2026-07-07T08:56:38Z</time></trkpt>
    <trkpt lat="48.66419" lon="13.99377"><ele>921</ele><time>2026-07-07T08:57:08Z</time></trkpt>
    <trkpt lat="48.66297" lon="13.99721"><ele>901</ele><time>2026-07-07T08:57:37Z</time></trkpt>
    <trkpt lat="48.66214" lon="13.99962"><ele>898</ele><time>2026-07-07T08:58:06Z</time></trkpt>
    <trkpt lat="48.66159" lon="14.00033"><ele>899</ele><time>2026-07-07T08:58:36Z</time></trkpt>
    <trkpt lat="48.66085" lon="14.00094"><ele>899</ele><time>2026-07-07T08:59:05Z</time></trkpt>
    <trkpt lat="48.66072" lon="14.00111"><ele>898</ele><time>2026-07-07T08:59:34Z</time></trkpt>
    <trkpt lat="48.66064" lon="14.00126"><ele>893</ele><time>2026-07-07T09:00:04Z</time></trkpt>
    <trkpt lat="48.66006" lon="14.00212"><ele>889</ele><time>2026-07-07T09:00:33Z</time></trkpt>
    <trkpt lat="48.65943" lon="14.00292"><ele>885</ele><time>2026-07-07T09:01:02Z</time></trkpt>
    <trkpt lat="48.65951" lon="14.00315"><ele>882</ele><time>2026-07-07T09:01:32Z</time></trkpt>
    <trkpt lat="48.65911" lon="14.00421"><ele>878</ele><time>2026-07-07T09:02:01Z</time></trkpt>
    <trkpt lat="48.65835" lon="14.00457"><ele>875</ele><time>2026-07-07T09:02:30Z</time></trkpt>
    <trkpt lat="48.65665" lon="14.00600"><ele>868</ele><time>2026-07-07T09:03:00Z</time></trkpt>
    <trkpt lat="48.65522" lon="14.00797"><ele>853</ele><time>2026-07-07T09:03:29Z</time></trkpt>
    <trkpt lat="48.65493" lon="14.00992"><ele>845</ele><time>2026-07-07T09:03:58Z</time></trkpt>
    <trkpt lat="48.65427" lon="14.01080"><ele>846</ele><time>2026-07-07T09:04:28Z</time></trkpt>
    <trkpt lat="48.65420" lon="14.01102"><ele>845</ele><time>2026-07-07T09:04:57Z</time></trkpt>
    <trkpt lat="48.65367" lon="14.01332"><ele>843</ele><time>2026-07-07T09:05:26Z</time></trkpt>
    <trkpt lat="48.65321" lon="14.01693"><ele>834</ele><time>2026-07-07T09:05:56Z</time></trkpt>
    <trkpt lat="48.65348" lon="14.02112"><ele>813</ele><time>2026-07-07T09:06:25Z</time></trkpt>
    <trkpt lat="48.65440" lon="14.02235"><ele>814</ele><time>2026-07-07T09:06:54Z</time></trkpt>
    <trkpt lat="48.65430" lon="14.02456"><ele>814</ele><time>2026-07-07T09:07:24Z</time></trkpt>
    <trkpt lat="48.65444" lon="14.02654"><ele>813</ele><time>2026-07-07T09:07:53Z</time></trkpt>
    <trkpt lat="48.65527" lon="14.02692"><ele>816</ele><time>2026-07-07T09:08:22Z</time></trkpt>
    <trkpt lat="48.65589" lon="14.02697"><ele>821</ele><time>2026-07-07T09:08:52Z</time></trkpt>
    <trkpt lat="48.65625" lon="14.02774"><ele>822</ele><time>2026-07-07T09:09:21Z</time></trkpt>
    <trkpt lat="48.65639" lon="14.02890"><ele>826</ele><time>2026-07-07T09:09:50Z</time></trkpt>
    <trkpt lat="48.65623" lon="14.03012"><ele>827</ele><time>2026-07-07T09:10:20Z</time></trkpt>
    <trkpt lat="48.65612" lon="14.03052"><ele>822</ele><time>2026-07-07T09:10:49Z</time></trkpt>
    <trkpt lat="48.65593" lon="14.03151"><ele>822</ele><time>2026-07-07T09:11:18Z</time></trkpt>
    <trkpt lat="48.65595" lon="14.03277"><ele>816</ele><time>2026-07-07T09:11:48Z</time></trkpt>
    <trkpt lat="48.65538" lon="14.03394"><ele>813</ele><time>2026-07-07T09:12:17Z</time></trkpt>
    <trkpt lat="48.65452" lon="14.03489"><ele>802</ele><time>2026-07-07T09:12:46Z</time></trkpt>
    <trkpt lat="48.65448" lon="14.03510"><ele>795</ele><time>2026-07-07T09:13:16Z</time></trkpt>
    <trkpt lat="48.65418" lon="14.03566"><ele>793</ele><time>2026-07-07T09:14:14Z</time></trkpt>
    <trkpt lat="48.65394" lon="14.03739"><ele>794</ele><time>2026-07-07T09:14:44Z</time></trkpt>
    <trkpt lat="48.65345" lon="14.03914"><ele>796</ele><time>2026-07-07T09:15:13Z</time></trkpt>
    <trkpt lat="48.65279" lon="14.04074"><ele>796</ele><time>2026-07-07T09:15:42Z</time></trkpt>
    <trkpt lat="48.65262" lon="14.04281"><ele>793</ele><time>2026-07-07T09:16:12Z</time></trkpt>
    <trkpt lat="48.65238" lon="14.04496"><ele>793</ele><time>2026-07-07T09:16:41Z</time></trkpt>
    <trkpt lat="48.65175" lon="14.04724"><ele>794</ele><time>2026-07-07T09:17:10Z</time></trkpt>
    <trkpt lat="48.65031" lon="14.04659"><ele>798</ele><time>2026-07-07T09:17:40Z</time></trkpt>
    <trkpt lat="48.64928" lon="14.04768"><ele>795</ele><time>2026-07-07T09:18:09Z</time></trkpt>
    <trkpt lat="48.64833" lon="14.04671"><ele>795</ele><time>2026-07-07T09:18:38Z</time></trkpt>
    <trkpt lat="48.64693" lon="14.04756"><ele>790</ele><time>2026-07-07T09:19:08Z</time></trkpt>
    <trkpt lat="48.64555" lon="14.04854"><ele>791</ele><time>2026-07-07T09:19:37Z</time></trkpt>
    <trkpt lat="48.64523" lon="14.04888"><ele>790</ele><time>2026-07-07T09:20:06Z</time></trkpt>
    <trkpt lat="48.64526" lon="14.04918"><ele>787</ele><time>2026-07-07T09:31:21Z</time></trkpt>
    <trkpt lat="48.64422" lon="14.04987"><ele>787</ele><time>2026-07-07T09:31:50Z</time></trkpt>
    <trkpt lat="48.64274" lon="14.05020"><ele>791</ele><time>2026-07-07T09:32:20Z</time></trkpt>
    <trkpt lat="48.64119" lon="14.05091"><ele>789</ele><time>2026-07-07T09:32:49Z</time></trkpt>
    <trkpt lat="48.64008" lon="14.05264"><ele>787</ele><time>2026-07-07T09:33:18Z</time></trkpt>
    <trkpt lat="48.64027" lon="14.05468"><ele>785</ele><time>2026-07-07T09:33:48Z</time></trkpt>
    <trkpt lat="48.63887" lon="14.05366"><ele>781</ele><time>2026-07-07T09:34:17Z</time></trkpt>
    <trkpt lat="48.63756" lon="14.05346"><ele>784</ele><time>2026-07-07T09:34:46Z</time></trkpt>
    <trkpt lat="48.63547" lon="14.05358"><ele>778</ele><time>2026-07-07T09:35:16Z</time></trkpt>
    <trkpt lat="48.63336" lon="14.05520"><ele>770</ele><time>2026-07-07T09:35:45Z</time></trkpt>
    <trkpt lat="48.63149" lon="14.05635"><ele>766</ele><time>2026-07-07T09:36:14Z</time></trkpt>
    <trkpt lat="48.62928" lon="14.05589"><ele>757</ele><time>2026-07-07T09:36:44Z</time></trkpt>
    <trkpt lat="48.62690" lon="14.05428"><ele>735</ele><time>2026-07-07T09:37:13Z</time></trkpt>
    <trkpt lat="48.62531" lon="14.05690"><ele>729</ele><time>2026-07-07T09:37:42Z</time></trkpt>
    <trkpt lat="48.62496" lon="14.05898"><ele>734</ele><time>2026-07-07T09:38:12Z</time></trkpt>
    <trkpt lat="48.62438" lon="14.05993"><ele>738</ele><time>2026-07-07T09:38:41Z</time></trkpt>
    <trkpt lat="48.62401" lon="14.06131"><ele>738</ele><time>2026-07-07T09:39:10Z</time></trkpt>
    <trkpt lat="48.62450" lon="14.06365"><ele>743</ele><time>2026-07-07T09:39:40Z</time></trkpt>
    <trkpt lat="48.62387" lon="14.06406"><ele>742</ele><time>2026-07-07T09:40:09Z</time></trkpt>
    <trkpt lat="48.62316" lon="14.06365"><ele>747</ele><time>2026-07-07T09:40:38Z</time></trkpt>
    <trkpt lat="48.62181" lon="14.06418"><ele>747</ele><time>2026-07-07T09:41:08Z</time></trkpt>
    <trkpt lat="48.62021" lon="14.06367"><ele>744</ele><time>2026-07-07T09:41:37Z</time></trkpt>
    <trkpt lat="48.61960" lon="14.06135"><ele>744</ele><time>2026-07-07T09:42:06Z</time></trkpt>
    <trkpt lat="48.61848" lon="14.06024"><ele>743</ele><time>2026-07-07T09:42:36Z</time></trkpt>
    <trkpt lat="48.61781" lon="14.06118"><ele>746</ele><time>2026-07-07T09:43:05Z</time></trkpt>
    <trkpt lat="48.61767" lon="14.06257"><ele>751</ele><time>2026-07-07T09:43:34Z</time></trkpt>
    <trkpt lat="48.61761" lon="14.06416"><ele>754</ele><time>2026-07-07T09:44:04Z</time></trkpt>
    <trkpt lat="48.61752" lon="14.06623"><ele>755</ele><time>2026-07-07T09:44:33Z</time></trkpt>
    <trkpt lat="48.61726" lon="14.06872"><ele>754</ele><time>2026-07-07T09:45:02Z</time></trkpt>
    <trkpt lat="48.61676" lon="14.06910"><ele>750</ele><time>2026-07-07T09:45:32Z</time></trkpt>
    <trkpt lat="48.61576" lon="14.06815"><ele>747</ele><time>2026-07-07T09:46:01Z</time></trkpt>
    <trkpt lat="48.61563" lon="14.06758"><ele>749</ele><time>2026-07-07T09:46:30Z</time></trkpt>
    <trkpt lat="48.61565" lon="14.06448"><ele>725</ele><time>2026-07-07T09:47:00Z</time></trkpt>
    <trkpt lat="48.61420" lon="14.06326"><ele>713</ele><time>2026-07-07T09:47:29Z</time></trkpt>
    <trkpt lat="48.61423" lon="14.06309"><ele>708</ele><time>2026-07-07T09:47:58Z</time></trkpt>
    <trkpt lat="48.61423" lon="14.06286"><ele>707</ele><time>2026-07-07T09:51:24Z</time></trkpt>
    <trkpt lat="48.61408" lon="14.06169"><ele>711</ele><time>2026-07-07T09:51:53Z</time></trkpt>
    <trkpt lat="48.61402" lon="14.06051"><ele>711</ele><time>2026-07-07T09:52:22Z</time></trkpt>
    <trkpt lat="48.61399" lon="14.05909"><ele>714</ele><time>2026-07-07T09:52:52Z</time></trkpt>
    <trkpt lat="48.61399" lon="14.05814"><ele>715</ele><time>2026-07-07T09:53:21Z</time></trkpt>
    <trkpt lat="48.61400" lon="14.05713"><ele>720</ele><time>2026-07-07T09:53:50Z</time></trkpt>
    <trkpt lat="48.61389" lon="14.05643"><ele>722</ele><time>2026-07-07T09:54:20Z</time></trkpt>
    <trkpt lat="48.61372" lon="14.05578"><ele>728</ele><time>2026-07-07T09:54:49Z</time></trkpt>
    <trkpt lat="48.61350" lon="14.05526"><ele>733</ele><time>2026-07-07T09:55:18Z</time></trkpt>
    <trkpt lat="48.61322" lon="14.05460"><ele>734</ele><time>2026-07-07T09:55:48Z</time></trkpt>
    <trkpt lat="48.61295" lon="14.05420"><ele>739</ele><time>2026-07-07T09:56:17Z</time></trkpt>
    <trkpt lat="48.61265" lon="14.05388"><ele>739</ele><time>2026-07-07T09:56:46Z</time></trkpt>
    <trkpt lat="48.61226" lon="14.05400"><ele>745</ele><time>2026-07-07T09:57:16Z</time></trkpt>
    <trkpt lat="48.61187" lon="14.05411"><ele>751</ele><time>2026-07-07T09:57:45Z</time></trkpt>
    <trkpt lat="48.61163" lon="14.05418"><ele>750</ele><time>2026-07-07T09:58:14Z</time></trkpt>
    <trkpt lat="48.61101" lon="14.05472"><ele>753</ele><time>2026-07-07T09:59:13Z</time></trkpt>
    <trkpt lat="48.61073" lon="14.05573"><ele>756</ele><time>2026-07-07T09:59:42Z</time></trkpt>
    <trkpt lat="48.61088" lon="14.05632"><ele>766</ele><time>2026-07-07T10:00:12Z</time></trkpt>
    <trkpt lat="48.61105" lon="14.05683"><ele>771</ele><time>2026-07-07T10:00:41Z</time></trkpt>
    <trkpt lat="48.61132" lon="14.05714"><ele>774</ele><time>2026-07-07T10:01:10Z</time></trkpt>
    <trkpt lat="48.61159" lon="14.05751"><ele>778</ele><time>2026-07-07T10:01:40Z</time></trkpt>
    <trkpt lat="48.61164" lon="14.05769"><ele>777</ele><time>2026-07-07T10:02:09Z</time></trkpt>
    <trkpt lat="48.61158" lon="14.05807"><ele>782</ele><time>2026-07-07T10:03:08Z</time></trkpt>
    <trkpt lat="48.61133" lon="14.05872"><ele>787</ele><time>2026-07-07T10:03:37Z</time></trkpt>
    <trkpt lat="48.61111" lon="14.05934"><ele>792</ele><time>2026-07-07T10:04:06Z</time></trkpt>
    <trkpt lat="48.61080" lon="14.06012"><ele>799</ele><time>2026-07-07T10:04:36Z</time></trkpt>
    <trkpt lat="48.61061" lon="14.06072"><ele>800</ele><time>2026-07-07T10:05:05Z</time></trkpt>
    <trkpt lat="48.61039" lon="14.06121"><ele>804</ele><time>2026-07-07T10:05:34Z</time></trkpt>
    <trkpt lat="48.61012" lon="14.06196"><ele>804</ele><time>2026-07-07T10:06:04Z</time></trkpt>
    <trkpt lat="48.60988" lon="14.06265"><ele>806</ele><time>2026-07-07T10:06:33Z</time></trkpt>
    <trkpt lat="48.60959" lon="14.06351"><ele>807</ele><time>2026-07-07T10:07:02Z</time></trkpt>
    <trkpt lat="48.60929" lon="14.06420"><ele>810</ele><time>2026-07-07T10:07:32Z</time></trkpt>
    <trkpt lat="48.60910" lon="14.06477"><ele>813</ele><time>2026-07-07T10:08:01Z</time></trkpt>
    <trkpt lat="48.60897" lon="14.06524"><ele>819</ele><time>2026-07-07T10:08:30Z</time></trkpt>
    <trkpt lat="48.60874" lon="14.06577"><ele>822</ele><time>2026-07-07T10:09:00Z</time></trkpt>
    <trkpt lat="48.60857" lon="14.06626"><ele>827</ele><time>2026-07-07T10:09:29Z</time></trkpt>
    <trkpt lat="48.60835" lon="14.06681"><ele>830</ele><time>2026-07-07T10:09:58Z</time></trkpt>
    <trkpt lat="48.60816" lon="14.06736"><ele>835</ele><time>2026-07-07T10:10:28Z</time></trkpt>
    <trkpt lat="48.60800" lon="14.06783"><ele>840</ele><time>2026-07-07T10:10:57Z</time></trkpt>
    <trkpt lat="48.60790" lon="14.06804"><ele>842</ele><time>2026-07-07T10:11:26Z</time></trkpt>
    <trkpt lat="48.60783" lon="14.06818"><ele>846</ele><time>2026-07-07T10:11:56Z</time></trkpt>
    <trkpt lat="48.60777" lon="14.06843"><ele>852</ele><time>2026-07-07T10:12:25Z</time></trkpt>
    <trkpt lat="48.60773" lon="14.06858"><ele>854</ele><time>2026-07-07T10:12:54Z</time></trkpt>
    <trkpt lat="48.60752" lon="14.06909"><ele>858</ele><time>2026-07-07T10:13:53Z</time></trkpt>
    <trkpt lat="48.60742" lon="14.06936"><ele>863</ele><time>2026-07-07T10:14:22Z</time></trkpt>
    <trkpt lat="48.60710" lon="14.07022"><ele>866</ele><time>2026-07-07T10:15:21Z</time></trkpt>
    <trkpt lat="48.60659" lon="14.07159"><ele>860</ele><time>2026-07-07T10:15:50Z</time></trkpt>
    <trkpt lat="48.60624" lon="14.07247"><ele>861</ele><time>2026-07-07T10:16:20Z</time></trkpt>
    <trkpt lat="48.60590" lon="14.07350"><ele>857</ele><time>2026-07-07T10:16:49Z</time></trkpt>
    <trkpt lat="48.60620" lon="14.07455"><ele>854</ele><time>2026-07-07T10:17:18Z</time></trkpt>
    <trkpt lat="48.60649" lon="14.07579"><ele>848</ele><time>2026-07-07T10:17:48Z</time></trkpt>
    <trkpt lat="48.60637" lon="14.07657"><ele>847</ele><time>2026-07-07T10:18:17Z</time></trkpt>
    <trkpt lat="48.60636" lon="14.07721"><ele>851</ele><time>2026-07-07T10:18:46Z</time></trkpt>
    <trkpt lat="48.60634" lon="14.07795"><ele>853</ele><time>2026-07-07T10:19:15Z</time></trkpt>
    <trkpt lat="48.60624" lon="14.07882"><ele>851</ele><time>2026-07-07T10:19:44Z</time></trkpt>
    <trkpt lat="48.60573" lon="14.07950"><ele>845</ele><time>2026-07-07T10:20:13Z</time></trkpt>
    <trkpt lat="48.60511" lon="14.08004"><ele>833</ele><time>2026-07-07T10:20:42Z</time></trkpt>
    <trkpt lat="48.60487" lon="14.08217"><ele>825</ele><time>2026-07-07T10:21:12Z</time></trkpt>
    <trkpt lat="48.60475" lon="14.08332"><ele>825</ele><time>2026-07-07T10:21:41Z</time></trkpt>
    <trkpt lat="48.60449" lon="14.08454"><ele>825</ele><time>2026-07-07T10:22:10Z</time></trkpt>
    <trkpt lat="48.60458" lon="14.08609"><ele>821</ele><time>2026-07-07T10:22:40Z</time></trkpt>
    <trkpt lat="48.60525" lon="14.08839"><ele>818</ele><time>2026-07-07T10:23:09Z</time></trkpt>
    <trkpt lat="48.60588" lon="14.08955"><ele>822</ele><time>2026-07-07T10:23:38Z</time></trkpt>
    <trkpt lat="48.60595" lon="14.09059"><ele>826</ele><time>2026-07-07T10:24:08Z</time></trkpt>
    <trkpt lat="48.60594" lon="14.09139"><ele>828</ele><time>2026-07-07T10:24:37Z</time></trkpt>
    <trkpt lat="48.60604" lon="14.09250"><ele>835</ele><time>2026-07-07T10:25:06Z</time></trkpt>
    <trkpt lat="48.60620" lon="14.09405"><ele>840</ele><time>2026-07-07T10:25:36Z</time></trkpt>
    <trkpt lat="48.60620" lon="14.09631"><ele>841</ele><time>2026-07-07T10:26:05Z</time></trkpt>
    <trkpt lat="48.60746" lon="14.09848"><ele>831</ele><time>2026-07-07T10:26:34Z</time></trkpt>
    <trkpt lat="48.60805" lon="14.10086"><ele>829</ele><time>2026-07-07T10:27:04Z</time></trkpt>
    <trkpt lat="48.60681" lon="14.10126"><ele>828</ele><time>2026-07-07T10:27:33Z</time></trkpt>
    <trkpt lat="48.60606" lon="14.10212"><ele>829</ele><time>2026-07-07T10:28:02Z</time></trkpt>
    <trkpt lat="48.60525" lon="14.10245"><ele>832</ele><time>2026-07-07T10:28:32Z</time></trkpt>
    <trkpt lat="48.60483" lon="14.10348"><ele>837</ele><time>2026-07-07T10:29:01Z</time></trkpt>
    <trkpt lat="48.60414" lon="14.10385"><ele>834</ele><time>2026-07-07T10:29:30Z</time></trkpt>
    <trkpt lat="48.60329" lon="14.10403"><ele>835</ele><time>2026-07-07T10:30:00Z</time></trkpt>
    <trkpt lat="48.60248" lon="14.10487"><ele>839</ele><time>2026-07-07T10:30:29Z</time></trkpt>
    <trkpt lat="48.60191" lon="14.10547"><ele>841</ele><time>2026-07-07T10:30:58Z</time></trkpt>
    <trkpt lat="48.60137" lon="14.10595"><ele>844</ele><time>2026-07-07T10:31:28Z</time></trkpt>
    <trkpt lat="48.60094" lon="14.10679"><ele>845</ele><time>2026-07-07T10:31:57Z</time></trkpt>
    <trkpt lat="48.60058" lon="14.10781"><ele>846</ele><time>2026-07-07T10:32:26Z</time></trkpt>
    <trkpt lat="48.60026" lon="14.10896"><ele>851</ele><time>2026-07-07T10:32:56Z</time></trkpt>
    <trkpt lat="48.59991" lon="14.10997"><ele>854</ele><time>2026-07-07T10:33:25Z</time></trkpt>
    <trkpt lat="48.59938" lon="14.11074"><ele>856</ele><time>2026-07-07T10:33:54Z</time></trkpt>
    <trkpt lat="48.59853" lon="14.11121"><ele>858</ele><time>2026-07-07T10:34:24Z</time></trkpt>
    <trkpt lat="48.59755" lon="14.11071"><ele>860</ele><time>2026-07-07T10:34:53Z</time></trkpt>
    <trkpt lat="48.59649" lon="14.11035"><ele>858</ele><time>2026-07-07T10:35:22Z</time></trkpt>
    <trkpt lat="48.59566" lon="14.11063"><ele>859</ele><time>2026-07-07T10:35:52Z</time></trkpt>
    <trkpt lat="48.59480" lon="14.11028"><ele>859</ele><time>2026-07-07T10:36:21Z</time></trkpt>
    <trkpt lat="48.59369" lon="14.10969"><ele>856</ele><time>2026-07-07T10:36:50Z</time></trkpt>
    <trkpt lat="48.59314" lon="14.10933"><ele>859</ele><time>2026-07-07T10:37:20Z</time></trkpt>
    <trkpt lat="48.59272" lon="14.10905"><ele>863</ele><time>2026-07-07T10:37:49Z</time></trkpt>
    <trkpt lat="48.59227" lon="14.10877"><ele>867</ele><time>2026-07-07T10:38:18Z</time></trkpt>
    <trkpt lat="48.59176" lon="14.10835"><ele>867</ele><time>2026-07-07T10:38:48Z</time></trkpt>
    <trkpt lat="48.59016" lon="14.10736"><ele>854</ele><time>2026-07-07T10:39:17Z</time></trkpt>
    <trkpt lat="48.58953" lon="14.10706"><ele>852</ele><time>2026-07-07T10:39:46Z</time></trkpt>
    <trkpt lat="48.58964" lon="14.10813"><ele>851</ele><time>2026-07-07T10:40:16Z</time></trkpt>
    <trkpt lat="48.58953" lon="14.10954"><ele>846</ele><time>2026-07-07T10:40:45Z</time></trkpt>
    <trkpt lat="48.58950" lon="14.10984"><ele>845</ele><time>2026-07-07T10:41:14Z</time></trkpt>
    <trkpt lat="48.58950" lon="14.11032"><ele>844</ele><time>2026-07-07T10:41:44Z</time></trkpt>
    <trkpt lat="48.58947" lon="14.11100"><ele>844</ele><time>2026-07-07T10:42:13Z</time></trkpt>
    <trkpt lat="48.58946" lon="14.11128"><ele>842</ele><time>2026-07-07T10:42:42Z</time></trkpt>
    <trkpt lat="48.58951" lon="14.11164"><ele>845</ele><time>2026-07-07T10:43:12Z</time></trkpt>
    <trkpt lat="48.58954" lon="14.11252"><ele>845</ele><time>2026-07-07T10:43:41Z</time></trkpt>
    <trkpt lat="48.58940" lon="14.11401"><ele>848</ele><time>2026-07-07T10:44:10Z</time></trkpt>
    <trkpt lat="48.58896" lon="14.11625"><ele>833</ele><time>2026-07-07T10:44:40Z</time></trkpt>
    <trkpt lat="48.58853" lon="14.11696"><ele>831</ele><time>2026-07-07T10:45:09Z</time></trkpt>
    <trkpt lat="48.58814" lon="14.11749"><ele>834</ele><time>2026-07-07T10:45:38Z</time></trkpt>
    <trkpt lat="48.58774" lon="14.11797"><ele>839</ele><time>2026-07-07T10:46:08Z</time></trkpt>
    <trkpt lat="48.58746" lon="14.11852"><ele>843</ele><time>2026-07-07T10:46:37Z</time></trkpt>
    <trkpt lat="48.58733" lon="14.11883"><ele>844</ele><time>2026-07-07T10:47:06Z</time></trkpt>
    <trkpt lat="48.58786" lon="14.11923"><ele>843</ele><time>2026-07-07T10:47:36Z</time></trkpt>
    <trkpt lat="48.58797" lon="14.11910"><ele>841</ele><time>2026-07-07T11:03:44Z</time></trkpt>
    <trkpt lat="48.58790" lon="14.11923"><ele>843</ele><time>2026-07-07T11:19:52Z</time></trkpt>
    <trkpt lat="48.58773" lon="14.11946"><ele>843</ele><time>2026-07-07T12:11:04Z</time></trkpt>
    <trkpt lat="48.58726" lon="14.11921"><ele>847</ele><time>2026-07-07T12:11:34Z</time></trkpt>
    <trkpt lat="48.58692" lon="14.11957"><ele>850</ele><time>2026-07-07T12:12:03Z</time></trkpt>
    <trkpt lat="48.58671" lon="14.12016"><ele>854</ele><time>2026-07-07T12:12:32Z</time></trkpt>
    <trkpt lat="48.58652" lon="14.12097"><ele>854</ele><time>2026-07-07T12:13:02Z</time></trkpt>
    <trkpt lat="48.58630" lon="14.12164"><ele>859</ele><time>2026-07-07T12:13:31Z</time></trkpt>
    <trkpt lat="48.58607" lon="14.12219"><ele>861</ele><time>2026-07-07T12:14:00Z</time></trkpt>
    <trkpt lat="48.58586" lon="14.12287"><ele>863</ele><time>2026-07-07T12:14:30Z</time></trkpt>
    <trkpt lat="48.58601" lon="14.12383"><ele>867</ele><time>2026-07-07T12:14:59Z</time></trkpt>
    <trkpt lat="48.58582" lon="14.12485"><ele>871</ele><time>2026-07-07T12:15:28Z</time></trkpt>
    <trkpt lat="48.58567" lon="14.12587"><ele>876</ele><time>2026-07-07T12:15:58Z</time></trkpt>
    <trkpt lat="48.58550" lon="14.12683"><ele>875</ele><time>2026-07-07T12:16:27Z</time></trkpt>
    <trkpt lat="48.58545" lon="14.12874"><ele>868</ele><time>2026-07-07T12:16:56Z</time></trkpt>
    <trkpt lat="48.58588" lon="14.13135"><ele>864</ele><time>2026-07-07T12:17:26Z</time></trkpt>
    <trkpt lat="48.58634" lon="14.13401"><ele>859</ele><time>2026-07-07T12:17:55Z</time></trkpt>
    <trkpt lat="48.58568" lon="14.13616"><ele>854</ele><time>2026-07-07T12:18:24Z</time></trkpt>
    <trkpt lat="48.58482" lon="14.13825"><ele>851</ele><time>2026-07-07T12:18:54Z</time></trkpt>
    <trkpt lat="48.58404" lon="14.13976"><ele>854</ele><time>2026-07-07T12:19:23Z</time></trkpt>
    <trkpt lat="48.58380" lon="14.14135"><ele>857</ele><time>2026-07-07T12:19:52Z</time></trkpt>
    <trkpt lat="48.58378" lon="14.14261"><ele>862</ele><time>2026-07-07T12:20:22Z</time></trkpt>
    <trkpt lat="48.58377" lon="14.14332"><ele>864</ele><time>2026-07-07T12:20:51Z</time></trkpt>
    <trkpt lat="48.58356" lon="14.14426"><ele>861</ele><time>2026-07-07T12:21:20Z</time></trkpt>
    <trkpt lat="48.58329" lon="14.14693"><ele>851</ele><time>2026-07-07T12:21:50Z</time></trkpt>
    <trkpt lat="48.58337" lon="14.14908"><ele>832</ele><time>2026-07-07T12:22:19Z</time></trkpt>
    <trkpt lat="48.58336" lon="14.14952"><ele>830</ele><time>2026-07-07T12:22:48Z</time></trkpt>
    <trkpt lat="48.58357" lon="14.15116"><ele>825</ele><time>2026-07-07T12:23:18Z</time></trkpt>
    <trkpt lat="48.58458" lon="14.15160"><ele>828</ele><time>2026-07-07T12:23:47Z</time></trkpt>
    <trkpt lat="48.58499" lon="14.15389"><ele>821</ele><time>2026-07-07T12:24:16Z</time></trkpt>
    <trkpt lat="48.58514" lon="14.15529"><ele>810</ele><time>2026-07-07T12:24:46Z</time></trkpt>
    <trkpt lat="48.58544" lon="14.15641"><ele>805</ele><time>2026-07-07T12:25:15Z</time></trkpt>
    <trkpt lat="48.58609" lon="14.15871"><ele>793</ele><time>2026-07-07T12:25:44Z</time></trkpt>
    <trkpt lat="48.58739" lon="14.15968"><ele>787</ele><time>2026-07-07T12:26:14Z</time></trkpt>
    <trkpt lat="48.58851" lon="14.15909"><ele>779</ele><time>2026-07-07T12:26:43Z</time></trkpt>
    <trkpt lat="48.59014" lon="14.16012"><ele>762</ele><time>2026-07-07T12:27:12Z</time></trkpt>
    <trkpt lat="48.59022" lon="14.16021"><ele>761</ele><time>2026-07-07T12:27:42Z</time></trkpt>
    <trkpt lat="48.59028" lon="14.16053"><ele>757</ele><time>2026-07-07T12:29:10Z</time></trkpt>
    <trkpt lat="48.59014" lon="14.16071"><ele>757</ele><time>2026-07-07T12:29:39Z</time></trkpt>
    <trkpt lat="48.58949" lon="14.16177"><ele>743</ele><time>2026-07-07T12:30:08Z</time></trkpt>
    <trkpt lat="48.58899" lon="14.16312"><ele>726</ele><time>2026-07-07T12:30:38Z</time></trkpt>
    <trkpt lat="48.58850" lon="14.16332"><ele>726</ele><time>2026-07-07T12:31:07Z</time></trkpt>
    <trkpt lat="48.58849" lon="14.16351"><ele>725</ele><time>2026-07-07T12:31:36Z</time></trkpt>
    <trkpt lat="48.58960" lon="14.16513"><ele>724</ele><time>2026-07-07T12:32:06Z</time></trkpt>
    <trkpt lat="48.58993" lon="14.16604"><ele>726</ele><time>2026-07-07T12:32:35Z</time></trkpt>
    <trkpt lat="48.59005" lon="14.16688"><ele>734</ele><time>2026-07-07T12:33:04Z</time></trkpt>
    <trkpt lat="48.59018" lon="14.16781"><ele>739</ele><time>2026-07-07T12:33:34Z</time></trkpt>
    <trkpt lat="48.59034" lon="14.16883"><ele>743</ele><time>2026-07-07T12:34:03Z</time></trkpt>
    <trkpt lat="48.59018" lon="14.17035"><ele>745</ele><time>2026-07-07T12:34:32Z</time></trkpt>
    <trkpt lat="48.59011" lon="14.17150"><ele>753</ele><time>2026-07-07T12:35:02Z</time></trkpt>
    <trkpt lat="48.59016" lon="14.17240"><ele>758</ele><time>2026-07-07T12:35:31Z</time></trkpt>
    <trkpt lat="48.59012" lon="14.17351"><ele>762</ele><time>2026-07-07T12:36:00Z</time></trkpt>
    <trkpt lat="48.58956" lon="14.17547"><ele>757</ele><time>2026-07-07T12:36:30Z</time></trkpt>
    <trkpt lat="48.59113" lon="14.17572"><ele>758</ele><time>2026-07-07T12:36:59Z</time></trkpt>
    <trkpt lat="48.59252" lon="14.17600"><ele>762</ele><time>2026-07-07T12:37:28Z</time></trkpt>
    <trkpt lat="48.59336" lon="14.17684"><ele>764</ele><time>2026-07-07T12:37:58Z</time></trkpt>
    <trkpt lat="48.59362" lon="14.17772"><ele>766</ele><time>2026-07-07T12:38:27Z</time></trkpt>
    <trkpt lat="48.59388" lon="14.17841"><ele>767</ele><time>2026-07-07T12:38:56Z</time></trkpt>
    <trkpt lat="48.59421" lon="14.17911"><ele>769</ele><time>2026-07-07T12:39:26Z</time></trkpt>
    <trkpt lat="48.59446" lon="14.17993"><ele>771</ele><time>2026-07-07T12:39:55Z</time></trkpt>
    <trkpt lat="48.59460" lon="14.18075"><ele>775</ele><time>2026-07-07T12:40:24Z</time></trkpt>
    <trkpt lat="48.59481" lon="14.18154"><ele>780</ele><time>2026-07-07T12:40:54Z</time></trkpt>
    <trkpt lat="48.59510" lon="14.18212"><ele>782</ele><time>2026-07-07T12:41:23Z</time></trkpt>
    <trkpt lat="48.59538" lon="14.18264"><ele>787</ele><time>2026-07-07T12:41:52Z</time></trkpt>
    <trkpt lat="48.59557" lon="14.18322"><ele>792</ele><time>2026-07-07T12:42:22Z</time></trkpt>
    <trkpt lat="48.59557" lon="14.18385"><ele>794</ele><time>2026-07-07T12:42:51Z</time></trkpt>
    <trkpt lat="48.59543" lon="14.18462"><ele>795</ele><time>2026-07-07T12:43:20Z</time></trkpt>
    <trkpt lat="48.59547" lon="14.18531"><ele>800</ele><time>2026-07-07T12:43:50Z</time></trkpt>
    <trkpt lat="48.59543" lon="14.18555"><ele>799</ele><time>2026-07-07T12:44:19Z</time></trkpt>
    <trkpt lat="48.59535" lon="14.18559"><ele>799</ele><time>2026-07-07T12:44:48Z</time></trkpt>
    <trkpt lat="48.59490" lon="14.18571"><ele>795</ele><time>2026-07-07T12:45:18Z</time></trkpt>
    <trkpt lat="48.59455" lon="14.18587"><ele>789</ele><time>2026-07-07T12:45:47Z</time></trkpt>
    <trkpt lat="48.59468" lon="14.18611"><ele>794</ele><time>2026-07-07T12:46:16Z</time></trkpt>
    <trkpt lat="48.59473" lon="14.18639"><ele>796</ele><time>2026-07-07T12:46:46Z</time></trkpt>
    <trkpt lat="48.59481" lon="14.18644"><ele>798</ele><time>2026-07-07T12:47:15Z</time></trkpt>
    <trkpt lat="48.59490" lon="14.18667"><ele>800</ele><time>2026-07-07T12:47:44Z</time></trkpt>
    <trkpt lat="48.59500" lon="14.18672"><ele>799</ele><time>2026-07-07T12:48:14Z</time></trkpt>
    <trkpt lat="48.59508" lon="14.18663"><ele>803</ele><time>2026-07-07T12:48:43Z</time></trkpt>
    <trkpt lat="48.59517" lon="14.18685"><ele>804</ele><time>2026-07-07T12:49:12Z</time></trkpt>
    <trkpt lat="48.59509" lon="14.18735"><ele>808</ele><time>2026-07-07T12:50:11Z</time></trkpt>
    <trkpt lat="48.59477" lon="14.18828"><ele>804</ele><time>2026-07-07T12:50:40Z</time></trkpt>
    <trkpt lat="48.59464" lon="14.18918"><ele>806</ele><time>2026-07-07T12:51:10Z</time></trkpt>
    <trkpt lat="48.59458" lon="14.19003"><ele>807</ele><time>2026-07-07T12:51:39Z</time></trkpt>
    <trkpt lat="48.59463" lon="14.19095"><ele>807</ele><time>2026-07-07T12:52:08Z</time></trkpt>
    <trkpt lat="48.59472" lon="14.19202"><ele>808</ele><time>2026-07-07T12:52:38Z</time></trkpt>
    <trkpt lat="48.59478" lon="14.19291"><ele>807</ele><time>2026-07-07T12:53:07Z</time></trkpt>
    <trkpt lat="48.59488" lon="14.19375"><ele>810</ele><time>2026-07-07T12:53:36Z</time></trkpt>
    <trkpt lat="48.59507" lon="14.19441"><ele>812</ele><time>2026-07-07T12:54:06Z</time></trkpt>
    <trkpt lat="48.59515" lon="14.19504"><ele>815</ele><time>2026-07-07T12:54:35Z</time></trkpt>
    <trkpt lat="48.59505" lon="14.19512"><ele>814</ele><time>2026-07-07T12:55:04Z</time></trkpt>
    <trkpt lat="48.59494" lon="14.19517"><ele>816</ele><time>2026-07-07T12:55:34Z</time></trkpt>
    <trkpt lat="48.59487" lon="14.19560"><ele>820</ele><time>2026-07-07T12:56:03Z</time></trkpt>
    <trkpt lat="48.59484" lon="14.19580"><ele>818</ele><time>2026-07-07T12:56:32Z</time></trkpt>
    <trkpt lat="48.59480" lon="14.19602"><ele>821</ele><time>2026-07-07T12:57:02Z</time></trkpt>
    <trkpt lat="48.59480" lon="14.19642"><ele>825</ele><time>2026-07-07T12:57:31Z</time></trkpt>
    <trkpt lat="48.59491" lon="14.19679"><ele>831</ele><time>2026-07-07T12:58:00Z</time></trkpt>
    <trkpt lat="48.59497" lon="14.19714"><ele>834</ele><time>2026-07-07T12:58:30Z</time></trkpt>
    <trkpt lat="48.59523" lon="14.19740"><ele>838</ele><time>2026-07-07T12:58:59Z</time></trkpt>
    <trkpt lat="48.59555" lon="14.19764"><ele>840</ele><time>2026-07-07T12:59:28Z</time></trkpt>
    <trkpt lat="48.59573" lon="14.19775"><ele>843</ele><time>2026-07-07T12:59:58Z</time></trkpt>
    <trkpt lat="48.59561" lon="14.19804"><ele>842</ele><time>2026-07-07T13:00:27Z</time></trkpt>
    <trkpt lat="48.59565" lon="14.19828"><ele>843</ele><time>2026-07-07T13:00:56Z</time></trkpt>
    <trkpt lat="48.59572" lon="14.19862"><ele>848</ele><time>2026-07-07T13:01:26Z</time></trkpt>
    <trkpt lat="48.59582" lon="14.19898"><ele>853</ele><time>2026-07-07T13:01:55Z</time></trkpt>
    <trkpt lat="48.59584" lon="14.19934"><ele>853</ele><time>2026-07-07T13:02:24Z</time></trkpt>
    <trkpt lat="48.59595" lon="14.19967"><ele>857</ele><time>2026-07-07T13:02:54Z</time></trkpt>
    <trkpt lat="48.59611" lon="14.19997"><ele>859</ele><time>2026-07-07T13:03:23Z</time></trkpt>
    <trkpt lat="48.59630" lon="14.20014"><ele>863</ele><time>2026-07-07T13:03:52Z</time></trkpt>
    <trkpt lat="48.59653" lon="14.19996"><ele>864</ele><time>2026-07-07T13:04:22Z</time></trkpt>
    <trkpt lat="48.59674" lon="14.19964"><ele>863</ele><time>2026-07-07T13:04:51Z</time></trkpt>
    <trkpt lat="48.59692" lon="14.19955"><ele>864</ele><time>2026-07-07T13:05:20Z</time></trkpt>
    <trkpt lat="48.59716" lon="14.19951"><ele>863</ele><time>2026-07-07T13:05:50Z</time></trkpt>
    <trkpt lat="48.59729" lon="14.19920"><ele>863</ele><time>2026-07-07T13:06:19Z</time></trkpt>
    <trkpt lat="48.59745" lon="14.19891"><ele>863</ele><time>2026-07-07T13:06:48Z</time></trkpt>
    <trkpt lat="48.59763" lon="14.19887"><ele>864</ele><time>2026-07-07T13:07:18Z</time></trkpt>
    <trkpt lat="48.59765" lon="14.19939"><ele>868</ele><time>2026-07-07T13:09:15Z</time></trkpt>
    <trkpt lat="48.59763" lon="14.20025"><ele>871</ele><time>2026-07-07T13:09:44Z</time></trkpt>
    <trkpt lat="48.59760" lon="14.20109"><ele>876</ele><time>2026-07-07T13:10:14Z</time></trkpt>
    <trkpt lat="48.59761" lon="14.20174"><ele>880</ele><time>2026-07-07T13:10:43Z</time></trkpt>
    <trkpt lat="48.59754" lon="14.20236"><ele>886</ele><time>2026-07-07T13:11:12Z</time></trkpt>
    <trkpt lat="48.59744" lon="14.20295"><ele>890</ele><time>2026-07-07T13:11:42Z</time></trkpt>
    <trkpt lat="48.59732" lon="14.20353"><ele>896</ele><time>2026-07-07T13:12:11Z</time></trkpt>
    <trkpt lat="48.59730" lon="14.20405"><ele>900</ele><time>2026-07-07T13:12:40Z</time></trkpt>
    <trkpt lat="48.59728" lon="14.20451"><ele>906</ele><time>2026-07-07T13:13:10Z</time></trkpt>
    <trkpt lat="48.59758" lon="14.20464"><ele>910</ele><time>2026-07-07T13:13:39Z</time></trkpt>
    <trkpt lat="48.59794" lon="14.20448"><ele>914</ele><time>2026-07-07T13:14:08Z</time></trkpt>
    <trkpt lat="48.59827" lon="14.20437"><ele>921</ele><time>2026-07-07T13:14:38Z</time></trkpt>
    <trkpt lat="48.59871" lon="14.20422"><ele>925</ele><time>2026-07-07T13:15:07Z</time></trkpt>
    <trkpt lat="48.59919" lon="14.20383"><ele>928</ele><time>2026-07-07T13:15:36Z</time></trkpt>
    <trkpt lat="48.59994" lon="14.20381"><ele>930</ele><time>2026-07-07T13:16:06Z</time></trkpt>
    <trkpt lat="48.60084" lon="14.20458"><ele>929</ele><time>2026-07-07T13:16:35Z</time></trkpt>
    <trkpt lat="48.60162" lon="14.20643"><ele>924</ele><time>2026-07-07T13:17:04Z</time></trkpt>
    <trkpt lat="48.60275" lon="14.20839"><ele>916</ele><time>2026-07-07T13:18:03Z</time></trkpt>
    <trkpt lat="48.60372" lon="14.21173"><ele>898</ele><time>2026-07-07T13:18:32Z</time></trkpt>
    <trkpt lat="48.60378" lon="14.21187"><ele>897</ele><time>2026-07-07T13:19:31Z</time></trkpt>
    <trkpt lat="48.60409" lon="14.21240"><ele>896</ele><time>2026-07-07T13:20:00Z</time></trkpt>
    <trkpt lat="48.60424" lon="14.21356"><ele>893</ele><time>2026-07-07T13:20:30Z</time></trkpt>
    <trkpt lat="48.60441" lon="14.21444"><ele>893</ele><time>2026-07-07T13:20:59Z</time></trkpt>
    <trkpt lat="48.60470" lon="14.21516"><ele>899</ele><time>2026-07-07T13:21:28Z</time></trkpt>
    <trkpt lat="48.60505" lon="14.21614"><ele>898</ele><time>2026-07-07T13:21:58Z</time></trkpt>
    <trkpt lat="48.60523" lon="14.21733"><ele>901</ele><time>2026-07-07T13:22:27Z</time></trkpt>
    <trkpt lat="48.60574" lon="14.21838"><ele>901</ele><time>2026-07-07T13:22:56Z</time></trkpt>
    <trkpt lat="48.60603" lon="14.21945"><ele>906</ele><time>2026-07-07T13:23:26Z</time></trkpt>
    <trkpt lat="48.60601" lon="14.22079"><ele>908</ele><time>2026-07-07T13:23:55Z</time></trkpt>
    <trkpt lat="48.60603" lon="14.22244"><ele>910</ele><time>2026-07-07T13:24:24Z</time></trkpt>
    <trkpt lat="48.60581" lon="14.22389"><ele>909</ele><time>2026-07-07T13:24:54Z</time></trkpt>
    <trkpt lat="48.60518" lon="14.22552"><ele>908</ele><time>2026-07-07T13:25:23Z</time></trkpt>
    <trkpt lat="48.60457" lon="14.22774"><ele>907</ele><time>2026-07-07T13:25:52Z</time></trkpt>
    <trkpt lat="48.60475" lon="14.23040"><ele>900</ele><time>2026-07-07T13:26:22Z</time></trkpt>
    <trkpt lat="48.60436" lon="14.23356"><ele>887</ele><time>2026-07-07T13:26:51Z</time></trkpt>
    <trkpt lat="48.60450" lon="14.23362"><ele>887</ele><time>2026-07-07T13:27:20Z</time></trkpt>
    <trkpt lat="48.60458" lon="14.23494"><ele>883</ele><time>2026-07-07T13:27:49Z</time></trkpt>
    <trkpt lat="48.60469" lon="14.23620"><ele>885</ele><time>2026-07-07T13:28:18Z</time></trkpt>
    <trkpt lat="48.60461" lon="14.23714"><ele>890</ele><time>2026-07-07T13:28:47Z</time></trkpt>
    <trkpt lat="48.60467" lon="14.23805"><ele>893</ele><time>2026-07-07T13:29:16Z</time></trkpt>
    <trkpt lat="48.60484" lon="14.23876"><ele>897</ele><time>2026-07-07T13:29:46Z</time></trkpt>
    <trkpt lat="48.60498" lon="14.23974"><ele>896</ele><time>2026-07-07T13:30:15Z</time></trkpt>
    <trkpt lat="48.60494" lon="14.23994"><ele>896</ele><time>2026-07-07T13:30:44Z</time></trkpt>
    <trkpt lat="48.60498" lon="14.24089"><ele>897</ele><time>2026-07-07T13:31:14Z</time></trkpt>
    <trkpt lat="48.60506" lon="14.24180"><ele>901</ele><time>2026-07-07T13:31:43Z</time></trkpt>
    <trkpt lat="48.60550" lon="14.24242"><ele>904</ele><time>2026-07-07T13:32:12Z</time></trkpt>
    <trkpt lat="48.60570" lon="14.24334"><ele>904</ele><time>2026-07-07T13:32:42Z</time></trkpt>
    <trkpt lat="48.60588" lon="14.24414"><ele>908</ele><time>2026-07-07T13:33:11Z</time></trkpt>
    <trkpt lat="48.60599" lon="14.24483"><ele>916</ele><time>2026-07-07T13:33:40Z</time></trkpt>
    <trkpt lat="48.60615" lon="14.24550"><ele>919</ele><time>2026-07-07T13:34:10Z</time></trkpt>
    <trkpt lat="48.60631" lon="14.24619"><ele>922</ele><time>2026-07-07T13:47:51Z</time></trkpt>
    <trkpt lat="48.60633" lon="14.24748"><ele>920</ele><time>2026-07-07T13:48:20Z</time></trkpt>
    <trkpt lat="48.60654" lon="14.24972"><ele>903</ele><time>2026-07-07T13:48:50Z</time></trkpt>
    <trkpt lat="48.60631" lon="14.25144"><ele>885</ele><time>2026-07-07T13:49:19Z</time></trkpt>
    <trkpt lat="48.60619" lon="14.25306"><ele>877</ele><time>2026-07-07T13:49:48Z</time></trkpt>
    <trkpt lat="48.60603" lon="14.25474"><ele>876</ele><time>2026-07-07T13:50:18Z</time></trkpt>
    <trkpt lat="48.60611" lon="14.25505"><ele>873</ele><time>2026-07-07T13:50:47Z</time></trkpt>
    <trkpt lat="48.60644" lon="14.25569"><ele>868</ele><time>2026-07-07T13:51:16Z</time></trkpt>
    <trkpt lat="48.60665" lon="14.25626"><ele>864</ele><time>2026-07-07T13:51:46Z</time></trkpt>
    <trkpt lat="48.60649" lon="14.25607"><ele>864</ele><time>2026-07-07T13:52:44Z</time></trkpt>
    <trkpt lat="48.60637" lon="14.25586"><ele>865</ele><time>2026-07-07T13:53:14Z</time></trkpt>
    <trkpt lat="48.60632" lon="14.25549"><ele>867</ele><time>2026-07-07T13:53:43Z</time></trkpt>
    <trkpt lat="48.60613" lon="14.25521"><ele>870</ele><time>2026-07-07T13:54:12Z</time></trkpt>
    <trkpt lat="48.60598" lon="14.25501"><ele>869</ele><time>2026-07-07T13:54:42Z</time></trkpt>
    <trkpt lat="48.60606" lon="14.25641"><ele>867</ele><time>2026-07-07T13:55:11Z</time></trkpt>
    <trkpt lat="48.60660" lon="14.25665"><ele>862</ele><time>2026-07-07T13:55:40Z</time></trkpt>
    <trkpt lat="48.60697" lon="14.25740"><ele>861</ele><time>2026-07-07T13:56:10Z</time></trkpt>
    <trkpt lat="48.60715" lon="14.25805"><ele>860</ele><time>2026-07-07T13:56:39Z</time></trkpt>
    <trkpt lat="48.60738" lon="14.25901"><ele>860</ele><time>2026-07-07T13:57:08Z</time></trkpt>
    <trkpt lat="48.60742" lon="14.25981"><ele>862</ele><time>2026-07-07T13:57:38Z</time></trkpt>
    <trkpt lat="48.60751" lon="14.26052"><ele>864</ele><time>2026-07-07T13:58:07Z</time></trkpt>
    <trkpt lat="48.60732" lon="14.26124"><ele>864</ele><time>2026-07-07T13:58:36Z</time></trkpt>
    <trkpt lat="48.60700" lon="14.26162"><ele>868</ele><time>2026-07-07T13:59:06Z</time></trkpt>
    <trkpt lat="48.60687" lon="14.26230"><ele>871</ele><time>2026-07-07T13:59:35Z</time></trkpt>
    <trkpt lat="48.60685" lon="14.26290"><ele>874</ele><time>2026-07-07T14:00:04Z</time></trkpt>
    <trkpt lat="48.60677" lon="14.26342"><ele>880</ele><time>2026-07-07T14:00:34Z</time></trkpt>
    <trkpt lat="48.60667" lon="14.26390"><ele>884</ele><time>2026-07-07T14:01:03Z</time></trkpt>
    <trkpt lat="48.60667" lon="14.26447"><ele>887</ele><time>2026-07-07T14:01:32Z</time></trkpt>
    <trkpt lat="48.60682" lon="14.26498"><ele>891</ele><time>2026-07-07T14:02:02Z</time></trkpt>
    <trkpt lat="48.60687" lon="14.26566"><ele>886</ele><time>2026-07-07T14:03:00Z</time></trkpt>
    <trkpt lat="48.60713" lon="14.26624"><ele>882</ele><time>2026-07-07T14:03:30Z</time></trkpt>
    <trkpt lat="48.60752" lon="14.26648"><ele>884</ele><time>2026-07-07T14:03:59Z</time></trkpt>
    <trkpt lat="48.60790" lon="14.26680"><ele>888</ele><time>2026-07-07T14:04:28Z</time></trkpt>
    <trkpt lat="48.60819" lon="14.26661"><ele>887</ele><time>2026-07-07T14:04:58Z</time></trkpt>
    <trkpt lat="48.60834" lon="14.26643"><ele>887</ele><time>2026-07-07T14:05:27Z</time></trkpt>
    <trkpt lat="48.60867" lon="14.26683"><ele>885</ele><time>2026-07-07T14:05:56Z</time></trkpt>
    <trkpt lat="48.60904" lon="14.26731"><ele>884</ele><time>2026-07-07T14:06:26Z</time></trkpt>
    <trkpt lat="48.60939" lon="14.26778"><ele>882</ele><time>2026-07-07T14:06:55Z</time></trkpt>
    <trkpt lat="48.60969" lon="14.26830"><ele>883</ele><time>2026-07-07T14:07:24Z</time></trkpt>
    <trkpt lat="48.60986" lon="14.26860"><ele>887</ele><time>2026-07-07T14:15:14Z</time></trkpt>
    <trkpt lat="48.61023" lon="14.26912"><ele>889</ele><time>2026-07-07T14:15:43Z</time></trkpt>
    <trkpt lat="48.61038" lon="14.26970"><ele>891</ele><time>2026-07-07T14:16:12Z</time></trkpt>
    <trkpt lat="48.61005" lon="14.26962"><ele>891</ele><time>2026-07-07T14:16:42Z</time></trkpt>
    <trkpt lat="48.60869" lon="14.26933"><ele>872</ele><time>2026-07-07T14:17:11Z</time></trkpt>
    <trkpt lat="48.60702" lon="14.26883"><ele>859</ele><time>2026-07-07T14:17:40Z</time></trkpt>
    <trkpt lat="48.60571" lon="14.26883"><ele>847</ele><time>2026-07-07T14:18:10Z</time></trkpt>
    <trkpt lat="48.60527" lon="14.26994"><ele>828</ele><time>2026-07-07T14:19:08Z</time></trkpt>
    <trkpt lat="48.60450" lon="14.27219"><ele>815</ele><time>2026-07-07T14:19:38Z</time></trkpt>
    <trkpt lat="48.60465" lon="14.27473"><ele>799</ele><time>2026-07-07T14:20:07Z</time></trkpt>
    <trkpt lat="48.60527" lon="14.27713"><ele>781</ele><time>2026-07-07T14:20:36Z</time></trkpt>
    <trkpt lat="48.60526" lon="14.27825"><ele>769</ele><time>2026-07-07T14:21:06Z</time></trkpt>
    <trkpt lat="48.60537" lon="14.27905"><ele>764</ele><time>2026-07-07T14:21:35Z</time></trkpt>
    <trkpt lat="48.60562" lon="14.28197"><ele>740</ele><time>2026-07-07T14:22:04Z</time></trkpt>
    <trkpt lat="48.60655" lon="14.28272"><ele>729</ele><time>2026-07-07T14:22:34Z</time></trkpt>
    <trkpt lat="48.60655" lon="14.28434"><ele>710</ele><time>2026-07-07T14:23:03Z</time></trkpt>
    <trkpt lat="48.60641" lon="14.28498"><ele>703</ele><time>2026-07-07T14:23:32Z</time></trkpt>
    <trkpt lat="48.60633" lon="14.28506"><ele>701</ele><time>2026-07-07T14:25:00Z</time></trkpt>
    <trkpt lat="48.60576" lon="14.28528"><ele>706</ele><time>2026-07-07T14:25:30Z</time></trkpt>
    <trkpt lat="48.60501" lon="14.28559"><ele>708</ele><time>2026-07-07T14:25:59Z</time></trkpt>
    <trkpt lat="48.60432" lon="14.28614"><ele>715</ele><time>2026-07-07T14:26:28Z</time></trkpt>
    <trkpt lat="48.60352" lon="14.28601"><ele>715</ele><time>2026-07-07T14:26:58Z</time></trkpt>
    <trkpt lat="48.60318" lon="14.28566"><ele>718</ele><time>2026-07-07T14:27:27Z</time></trkpt>
    <trkpt lat="48.60296" lon="14.28535"><ele>722</ele><time>2026-07-07T14:46:30Z</time></trkpt>
    <trkpt lat="48.60264" lon="14.28453"><ele>726</ele><time>2026-07-07T14:46:59Z</time></trkpt>
    <trkpt lat="48.60189" lon="14.28397"><ele>731</ele><time>2026-07-07T14:47:28Z</time></trkpt>
    <trkpt lat="48.60113" lon="14.28431"><ele>732</ele><time>2026-07-07T14:47:58Z</time></trkpt>
    <trkpt lat="48.60061" lon="14.28585"><ele>730</ele><time>2026-07-07T14:48:27Z</time></trkpt>
    <trkpt lat="48.60050" lon="14.28707"><ele>730</ele><time>2026-07-07T14:48:56Z</time></trkpt>
    <trkpt lat="48.60043" lon="14.28821"><ele>739</ele><time>2026-07-07T14:49:26Z</time></trkpt>
    <trkpt lat="48.60037" lon="14.28906"><ele>744</ele><time>2026-07-07T14:49:55Z</time></trkpt>
    <trkpt lat="48.60017" lon="14.28975"><ele>748</ele><time>2026-07-07T14:50:24Z</time></trkpt>
    <trkpt lat="48.59946" lon="14.28908"><ele>749</ele><time>2026-07-07T14:50:53Z</time></trkpt>
    <trkpt lat="48.59839" lon="14.28910"><ele>748</ele><time>2026-07-07T14:51:22Z</time></trkpt>
    <trkpt lat="48.59734" lon="14.28835"><ele>754</ele><time>2026-07-07T14:51:51Z</time></trkpt>
    <trkpt lat="48.59661" lon="14.28732"><ele>757</ele><time>2026-07-07T14:52:20Z</time></trkpt>
    <trkpt lat="48.59593" lon="14.28632"><ele>761</ele><time>2026-07-07T14:52:50Z</time></trkpt>
    <trkpt lat="48.59513" lon="14.28537"><ele>766</ele><time>2026-07-07T14:53:19Z</time></trkpt>
    <trkpt lat="48.59426" lon="14.28439"><ele>766</ele><time>2026-07-07T14:53:48Z</time></trkpt>
    <trkpt lat="48.59319" lon="14.28343"><ele>770</ele><time>2026-07-07T14:54:18Z</time></trkpt>
    <trkpt lat="48.59216" lon="14.28256"><ele>768</ele><time>2026-07-07T14:54:47Z</time></trkpt>
    <trkpt lat="48.59194" lon="14.28249"><ele>768</ele><time>2026-07-07T14:55:16Z</time></trkpt>
    <trkpt lat="48.59140" lon="14.28238"><ele>773</ele><time>2026-07-07T14:55:46Z</time></trkpt>
    <trkpt lat="48.59053" lon="14.28183"><ele>774</ele><time>2026-07-07T14:56:15Z</time></trkpt>
    <trkpt lat="48.58951" lon="14.28130"><ele>779</ele><time>2026-07-07T14:56:44Z</time></trkpt>
    <trkpt lat="48.58864" lon="14.28063"><ele>781</ele><time>2026-07-07T14:57:14Z</time></trkpt>
    <trkpt lat="48.58816" lon="14.27981"><ele>784</ele><time>2026-07-07T14:57:43Z</time></trkpt>
    <trkpt lat="48.58777" lon="14.27887"><ele>790</ele><time>2026-07-07T14:58:12Z</time></trkpt>
    <trkpt lat="48.58749" lon="14.27743"><ele>792</ele><time>2026-07-07T14:58:42Z</time></trkpt>
    <trkpt lat="48.58740" lon="14.27547"><ele>787</ele><time>2026-07-07T14:59:11Z</time></trkpt>
    <trkpt lat="48.58671" lon="14.27358"><ele>792</ele><time>2026-07-07T14:59:40Z</time></trkpt>
    <trkpt lat="48.58585" lon="14.27325"><ele>797</ele><time>2026-07-07T15:00:10Z</time></trkpt>
    <trkpt lat="48.58486" lon="14.27332"><ele>800</ele><time>2026-07-07T15:00:39Z</time></trkpt>
    <trkpt lat="48.58370" lon="14.27368"><ele>799</ele><time>2026-07-07T15:01:08Z</time></trkpt>
    <trkpt lat="48.58265" lon="14.27407"><ele>804</ele><time>2026-07-07T15:01:38Z</time></trkpt>
    <trkpt lat="48.58169" lon="14.27446"><ele>807</ele><time>2026-07-07T15:02:07Z</time></trkpt>
    <trkpt lat="48.58080" lon="14.27501"><ele>812</ele><time>2026-07-07T15:02:36Z</time></trkpt>
    <trkpt lat="48.57988" lon="14.27547"><ele>809</ele><time>2026-07-07T15:03:06Z</time></trkpt>
    <trkpt lat="48.57864" lon="14.27604"><ele>811</ele><time>2026-07-07T15:03:35Z</time></trkpt>
    <trkpt lat="48.57810" lon="14.27706"><ele>814</ele><time>2026-07-07T15:04:04Z</time></trkpt>
    <trkpt lat="48.57759" lon="14.27778"><ele>820</ele><time>2026-07-07T15:04:34Z</time></trkpt>
    <trkpt lat="48.57686" lon="14.27800"><ele>824</ele><time>2026-07-07T15:05:03Z</time></trkpt>
    <trkpt lat="48.57625" lon="14.27839"><ele>827</ele><time>2026-07-07T15:05:32Z</time></trkpt>
    <trkpt lat="48.57561" lon="14.27866"><ele>835</ele><time>2026-07-07T15:06:02Z</time></trkpt>
    <trkpt lat="48.57526" lon="14.27849"><ele>834</ele><time>2026-07-07T15:07:00Z</time></trkpt>
    <trkpt lat="48.57446" lon="14.27720"><ele>824</ele><time>2026-07-07T15:07:30Z</time></trkpt>
    <trkpt lat="48.57397" lon="14.27671"><ele>823</ele><time>2026-07-07T15:07:59Z</time></trkpt>
    <trkpt lat="48.57350" lon="14.27686"><ele>827</ele><time>2026-07-07T15:08:28Z</time></trkpt>
    <trkpt lat="48.57328" lon="14.27775"><ele>833</ele><time>2026-07-07T15:08:58Z</time></trkpt>
    <trkpt lat="48.57305" lon="14.27872"><ele>835</ele><time>2026-07-07T15:09:27Z</time></trkpt>
    <trkpt lat="48.57279" lon="14.27984"><ele>839</ele><time>2026-07-07T15:09:56Z</time></trkpt>
    <trkpt lat="48.57249" lon="14.28101"><ele>843</ele><time>2026-07-07T15:10:26Z</time></trkpt>
    <trkpt lat="48.57220" lon="14.28203"><ele>848</ele><time>2026-07-07T15:10:55Z</time></trkpt>
    <trkpt lat="48.57194" lon="14.28300"><ele>855</ele><time>2026-07-07T15:11:24Z</time></trkpt>
    <trkpt lat="48.57167" lon="14.28405"><ele>858</ele><time>2026-07-07T15:11:54Z</time></trkpt>
    <trkpt lat="48.57140" lon="14.28501"><ele>863</ele><time>2026-07-07T15:12:23Z</time></trkpt>
    <trkpt lat="48.57107" lon="14.28611"><ele>867</ele><time>2026-07-07T15:12:52Z</time></trkpt>
    <trkpt lat="48.57041" lon="14.28722"><ele>869</ele><time>2026-07-07T15:13:22Z</time></trkpt>
    <trkpt lat="48.56943" lon="14.28843"><ele>871</ele><time>2026-07-07T15:13:51Z</time></trkpt>
    <trkpt lat="48.56839" lon="14.28945"><ele>875</ele><time>2026-07-07T15:14:20Z</time></trkpt>
    <trkpt lat="48.56747" lon="14.28986"><ele>877</ele><time>2026-07-07T15:14:50Z</time></trkpt>
    <trkpt lat="48.56639" lon="14.28992"><ele>880</ele><time>2026-07-07T15:15:19Z</time></trkpt>
    <trkpt lat="48.56561" lon="14.29063"><ele>885</ele><time>2026-07-07T15:15:48Z</time></trkpt>
    <trkpt lat="48.56511" lon="14.29162"><ele>884</ele><time>2026-07-07T15:16:18Z</time></trkpt>
    <trkpt lat="48.56454" lon="14.29288"><ele>882</ele><time>2026-07-07T15:20:42Z</time></trkpt>
    <trkpt lat="48.56304" lon="14.29456"><ele>875</ele><time>2026-07-07T15:21:11Z</time></trkpt>
    <trkpt lat="48.56113" lon="14.29673"><ele>868</ele><time>2026-07-07T15:21:40Z</time></trkpt>
    <trkpt lat="48.55993" lon="14.29943"><ele>858</ele><time>2026-07-07T15:22:10Z</time></trkpt>
    <trkpt lat="48.55889" lon="14.30221"><ele>852</ele><time>2026-07-07T15:22:39Z</time></trkpt>
    <trkpt lat="48.55755" lon="14.30441"><ele>848</ele><time>2026-07-07T15:23:08Z</time></trkpt>
    <trkpt lat="48.55625" lon="14.30515"><ele>851</ele><time>2026-07-07T15:23:37Z</time></trkpt>
    <trkpt lat="48.55516" lon="14.30766"><ele>836</ele><time>2026-07-07T15:24:06Z</time></trkpt>
    <trkpt lat="48.55538" lon="14.31154"><ele>825</ele><time>2026-07-07T15:24:35Z</time></trkpt>
    <trkpt lat="48.55419" lon="14.31172"><ele>830</ele><time>2026-07-07T15:25:04Z</time></trkpt>
    <trkpt lat="48.55324" lon="14.31141"><ele>832</ele><time>2026-07-07T15:25:34Z</time></trkpt>
    <trkpt lat="48.55234" lon="14.31132"><ele>834</ele><time>2026-07-07T15:26:03Z</time></trkpt>
    <trkpt lat="48.55131" lon="14.31143"><ele>836</ele><time>2026-07-07T15:26:32Z</time></trkpt>
    <trkpt lat="48.55001" lon="14.31168"><ele>834</ele><time>2026-07-07T15:27:02Z</time></trkpt>
    <trkpt lat="48.54867" lon="14.31147"><ele>834</ele><time>2026-07-07T15:27:31Z</time></trkpt>
    <trkpt lat="48.54714" lon="14.31045"><ele>821</ele><time>2026-07-07T15:28:00Z</time></trkpt>
    <trkpt lat="48.54484" lon="14.30825"><ele>803</ele><time>2026-07-07T15:28:30Z</time></trkpt>
    <trkpt lat="48.54469" lon="14.30807"><ele>801</ele><time>2026-07-07T15:28:59Z</time></trkpt>
    <trkpt lat="48.54390" lon="14.30721"><ele>797</ele><time>2026-07-07T15:30:27Z</time></trkpt>
    <trkpt lat="48.54230" lon="14.30537"><ele>786</ele><time>2026-07-07T15:30:56Z</time></trkpt>
    <trkpt lat="48.54067" lon="14.30362"><ele>775</ele><time>2026-07-07T15:31:26Z</time></trkpt>
    <trkpt lat="48.53896" lon="14.30178"><ele>764</ele><time>2026-07-07T15:31:55Z</time></trkpt>
    <trkpt lat="48.53678" lon="14.29951"><ele>749</ele><time>2026-07-07T15:32:24Z</time></trkpt>
    <trkpt lat="48.53531" lon="14.29823"><ele>753</ele><time>2026-07-07T15:32:54Z</time></trkpt>
    <trkpt lat="48.53446" lon="14.29776"><ele>756</ele><time>2026-07-07T15:33:23Z</time></trkpt>
    <trkpt lat="48.53368" lon="14.29733"><ele>759</ele><time>2026-07-07T15:33:52Z</time></trkpt>
    <trkpt lat="48.53292" lon="14.29694"><ele>763</ele><time>2026-07-07T15:34:22Z</time></trkpt>
    <trkpt lat="48.53219" lon="14.29654"><ele>766</ele><time>2026-07-07T15:34:51Z</time></trkpt>
    <trkpt lat="48.53149" lon="14.29616"><ele>770</ele><time>2026-07-07T15:35:20Z</time></trkpt>
    <trkpt lat="48.53071" lon="14.29574"><ele>771</ele><time>2026-07-07T15:35:50Z</time></trkpt>
    <trkpt lat="48.52963" lon="14.29521"><ele>768</ele><time>2026-07-07T15:36:19Z</time></trkpt>
    <trkpt lat="48.52776" lon="14.29439"><ele>759</ele><time>2026-07-07T15:36:48Z</time></trkpt>
    <trkpt lat="48.52584" lon="14.29334"><ele>756</ele><time>2026-07-07T15:37:18Z</time></trkpt>
    <trkpt lat="48.52424" lon="14.29297"><ele>750</ele><time>2026-07-07T15:37:47Z</time></trkpt>
    <trkpt lat="48.52283" lon="14.29296"><ele>750</ele><time>2026-07-07T15:38:16Z</time></trkpt>
    <trkpt lat="48.52252" lon="14.29336"><ele>748</ele><time>2026-07-07T15:38:46Z</time></trkpt>
    <trkpt lat="48.52229" lon="14.29404"><ele>746</ele><time>2026-07-07T15:44:38Z</time></trkpt>
    <trkpt lat="48.52137" lon="14.29561"><ele>748</ele><time>2026-07-07T15:45:07Z</time></trkpt>
    <trkpt lat="48.51990" lon="14.29576"><ele>744</ele><time>2026-07-07T15:45:36Z</time></trkpt>
    <trkpt lat="48.51823" lon="14.29491"><ele>741</ele><time>2026-07-07T15:46:06Z</time></trkpt>
    <trkpt lat="48.51675" lon="14.29441"><ele>737</ele><time>2026-07-07T15:46:35Z</time></trkpt>
    <trkpt lat="48.51509" lon="14.29352"><ele>734</ele><time>2026-07-07T15:47:04Z</time></trkpt>
    <trkpt lat="48.51364" lon="14.29304"><ele>732</ele><time>2026-07-07T15:47:34Z</time></trkpt>
    <trkpt lat="48.51247" lon="14.29273"><ele>731</ele><time>2026-07-07T15:48:03Z</time></trkpt>
    <trkpt lat="48.51127" lon="14.29232"><ele>728</ele><time>2026-07-07T15:48:32Z</time></trkpt>
    <trkpt lat="48.50950" lon="14.29195"><ele>712</ele><time>2026-07-07T15:49:02Z</time></trkpt>
    <trkpt lat="48.50833" lon="14.29058"><ele>694</ele><time>2026-07-07T15:49:31Z</time></trkpt>
    <trkpt lat="48.50798" lon="14.29008"><ele>686</ele><time>2026-07-07T15:50:00Z</time></trkpt>
    <trkpt lat="48.50798" lon="14.29160"><ele>690</ele><time>2026-07-07T15:50:30Z</time></trkpt>
    <trkpt lat="48.50790" lon="14.29288"><ele>693</ele><time>2026-07-07T15:50:59Z</time></trkpt>
    <trkpt lat="48.50781" lon="14.29410"><ele>695</ele><time>2026-07-07T15:51:28Z</time></trkpt>
    <trkpt lat="48.50768" lon="14.29544"><ele>696</ele><time>2026-07-07T15:51:58Z</time></trkpt>
    <trkpt lat="48.50623" lon="14.29603"><ele>693</ele><time>2026-07-07T15:52:27Z</time></trkpt>
    <trkpt lat="48.50523" lon="14.29607"><ele>698</ele><time>2026-07-07T15:52:56Z</time></trkpt>
    <trkpt lat="48.50431" lon="14.29662"><ele>702</ele><time>2026-07-07T15:53:26Z</time></trkpt>
    <trkpt lat="48.50339" lon="14.29752"><ele>704</ele><time>2026-07-07T15:53:55Z</time></trkpt>
    <trkpt lat="48.50243" lon="14.29860"><ele>700</ele><time>2026-07-07T15:54:24Z</time></trkpt>
    <trkpt lat="48.50155" lon="14.30129"><ele>698</ele><time>2026-07-07T15:54:54Z</time></trkpt>
    <trkpt lat="48.50020" lon="14.30250"><ele>697</ele><time>2026-07-07T15:55:23Z</time></trkpt>
    <trkpt lat="48.49851" lon="14.30357"><ele>685</ele><time>2026-07-07T15:55:52Z</time></trkpt>
    <trkpt lat="48.49768" lon="14.30425"><ele>671</ele><time>2026-07-07T15:56:22Z</time></trkpt>
    <trkpt lat="48.49734" lon="14.30596"><ele>677</ele><time>2026-07-07T15:56:51Z</time></trkpt>
    <trkpt lat="48.49692" lon="14.30534"><ele>680</ele><time>2026-07-07T15:57:20Z</time></trkpt>
    <trkpt lat="48.49649" lon="14.30515"><ele>684</ele><time>2026-07-07T15:57:50Z</time></trkpt>
    <trkpt lat="48.49586" lon="14.30529"><ele>687</ele><time>2026-07-07T15:58:19Z</time></trkpt>
    <trkpt lat="48.49532" lon="14.30504"><ele>691</ele><time>2026-07-07T15:58:48Z</time></trkpt>
    <trkpt lat="48.49463" lon="14.30474"><ele>695</ele><time>2026-07-07T15:59:18Z</time></trkpt>
    <trkpt lat="48.49394" lon="14.30502"><ele>698</ele><time>2026-07-07T15:59:47Z</time></trkpt>
    <trkpt lat="48.49363" lon="14.30595"><ele>702</ele><time>2026-07-07T16:00:16Z</time></trkpt>
    <trkpt lat="48.49370" lon="14.30700"><ele>706</ele><time>2026-07-07T16:00:46Z</time></trkpt>
    <trkpt lat="48.49379" lon="14.30807"><ele>710</ele><time>2026-07-07T16:01:15Z</time></trkpt>
    <trkpt lat="48.49385" lon="14.30925"><ele>714</ele><time>2026-07-07T16:01:44Z</time></trkpt>
    <trkpt lat="48.49347" lon="14.31077"><ele>718</ele><time>2026-07-07T16:02:14Z</time></trkpt>
    <trkpt lat="48.49277" lon="14.31233"><ele>718</ele><time>2026-07-07T16:02:43Z</time></trkpt>
    <trkpt lat="48.49208" lon="14.31321"><ele>717</ele><time>2026-07-07T16:03:12Z</time></trkpt>
    <trkpt lat="48.49118" lon="14.31211"><ele>718</ele><time>2026-07-07T16:03:42Z</time></trkpt>
    <trkpt lat="48.49056" lon="14.31074"><ele>718</ele><time>2026-07-07T16:04:11Z</time></trkpt>
    <trkpt lat="48.49011" lon="14.30955"><ele>719</ele><time>2026-07-07T16:04:40Z</time></trkpt>
    <trkpt lat="48.48974" lon="14.30836"><ele>720</ele><time>2026-07-07T16:05:10Z</time></trkpt>
    <trkpt lat="48.48936" lon="14.30720"><ele>723</ele><time>2026-07-07T16:05:39Z</time></trkpt>
    <trkpt lat="48.48857" lon="14.30581"><ele>719</ele><time>2026-07-07T16:06:08Z</time></trkpt>
    <trkpt lat="48.48678" lon="14.30441"><ele>701</ele><time>2026-07-07T16:06:38Z</time></trkpt>
    <trkpt lat="48.48541" lon="14.30361"><ele>679</ele><time>2026-07-07T16:07:07Z</time></trkpt>
    <trkpt lat="48.48474" lon="14.30278"><ele>676</ele><time>2026-07-07T16:07:36Z</time></trkpt>
    <trkpt lat="48.48463" lon="14.30302"><ele>676</ele><time>2026-07-07T16:08:06Z</time></trkpt>
    <trkpt lat="48.48431" lon="14.30351"><ele>678</ele><time>2026-07-07T16:08:35Z</time></trkpt>
    <trkpt lat="48.48400" lon="14.30390"><ele>683</ele><time>2026-07-07T16:09:04Z</time></trkpt>
    <trkpt lat="48.48373" lon="14.30453"><ele>684</ele><time>2026-07-07T16:09:34Z</time></trkpt>
    <trkpt lat="48.48340" lon="14.30461"><ele>688</ele><time>2026-07-07T16:10:03Z</time></trkpt>
    <trkpt lat="48.48300" lon="14.30470"><ele>692</ele><time>2026-07-07T16:10:32Z</time></trkpt>
    <trkpt lat="48.48266" lon="14.30503"><ele>696</ele><time>2026-07-07T16:11:02Z</time></trkpt>
    <trkpt lat="48.48228" lon="14.30535"><ele>700</ele><time>2026-07-07T16:11:31Z</time></trkpt>
    <trkpt lat="48.48189" lon="14.30568"><ele>703</ele><time>2026-07-07T16:12:00Z</time></trkpt>
    <trkpt lat="48.48142" lon="14.30579"><ele>708</ele><time>2026-07-07T16:12:30Z</time></trkpt>
    <trkpt lat="48.48127" lon="14.30535"><ele>715</ele><time>2026-07-07T16:12:59Z</time></trkpt>
    <trkpt lat="48.48119" lon="14.30469"><ele>716</ele><time>2026-07-07T16:13:28Z</time></trkpt>
    <trkpt lat="48.48073" lon="14.30466"><ele>718</ele><time>2026-07-07T16:13:58Z</time></trkpt>
    <trkpt lat="48.48029" lon="14.30406"><ele>723</ele><time>2026-07-07T16:14:27Z</time></trkpt>
    <trkpt lat="48.47956" lon="14.30338"><ele>722</ele><time>2026-07-07T16:14:56Z</time></trkpt>
    <trkpt lat="48.47776" lon="14.30316"><ele>710</ele><time>2026-07-07T16:15:26Z</time></trkpt>
    <trkpt lat="48.47724" lon="14.30257"><ele>709</ele><time>2026-07-07T16:15:55Z</time></trkpt>
    <trkpt lat="48.47675" lon="14.30193"><ele>712</ele><time>2026-07-07T16:16:24Z</time></trkpt>
    <trkpt lat="48.47637" lon="14.30161"><ele>715</ele><time>2026-07-07T16:16:54Z</time></trkpt>
    <trkpt lat="48.47604" lon="14.30126"><ele>718</ele><time>2026-07-07T16:17:23Z</time></trkpt>
    <trkpt lat="48.47567" lon="14.30114"><ele>718</ele><time>2026-07-07T16:17:52Z</time></trkpt>
    <trkpt lat="48.47531" lon="14.30149"><ele>721</ele><time>2026-07-07T16:18:22Z</time></trkpt>
    <trkpt lat="48.47460" lon="14.30087"><ele>718</ele><time>2026-07-07T16:18:51Z</time></trkpt>
    <trkpt lat="48.47450" lon="14.30029"><ele>724</ele><time>2026-07-07T16:19:20Z</time></trkpt>
    <trkpt lat="48.47457" lon="14.29977"><ele>731</ele><time>2026-07-07T16:19:50Z</time></trkpt>
    <trkpt lat="48.47452" lon="14.29936"><ele>733</ele><time>2026-07-07T16:20:19Z</time></trkpt>
    <trkpt lat="48.47432" lon="14.29901"><ele>735</ele><time>2026-07-07T16:20:48Z</time></trkpt>
    <trkpt lat="48.47406" lon="14.29868"><ele>740</ele><time>2026-07-07T16:21:18Z</time></trkpt>
    <trkpt lat="48.47376" lon="14.29844"><ele>745</ele><time>2026-07-07T16:21:47Z</time></trkpt>
    <trkpt lat="48.47338" lon="14.29817"><ele>745</ele><time>2026-07-07T16:22:16Z</time></trkpt>
    <trkpt lat="48.47282" lon="14.29789"><ele>746</ele><time>2026-07-07T16:22:46Z</time></trkpt>
    <trkpt lat="48.47204" lon="14.29793"><ele>745</ele><time>2026-07-07T16:23:15Z</time></trkpt>
    <trkpt lat="48.47193" lon="14.29853"><ele>747</ele><time>2026-07-07T16:24:43Z</time></trkpt>
    <trkpt lat="48.47175" lon="14.29969"><ele>752</ele><time>2026-07-07T16:25:12Z</time></trkpt>
    <trkpt lat="48.47141" lon="14.30041"><ele>753</ele><time>2026-07-07T16:25:42Z</time></trkpt>
    <trkpt lat="48.47077" lon="14.30013"><ele>756</ele><time>2026-07-07T16:26:11Z</time></trkpt>
    <trkpt lat="48.47013" lon="14.30002"><ele>758</ele><time>2026-07-07T16:26:40Z</time></trkpt>
    <trkpt lat="48.46956" lon="14.29977"><ele>761</ele><time>2026-07-07T16:27:10Z</time></trkpt>
    <trkpt lat="48.46896" lon="14.29961"><ele>765</ele><time>2026-07-07T16:27:39Z</time></trkpt>
    <trkpt lat="48.46811" lon="14.29929"><ele>766</ele><time>2026-07-07T16:28:08Z</time></trkpt>
    <trkpt lat="48.46714" lon="14.29961"><ele>765</ele><time>2026-07-07T16:28:38Z</time></trkpt>
    <trkpt lat="48.46601" lon="14.29952"><ele>768</ele><time>2026-07-07T16:29:07Z</time></trkpt>
    <trkpt lat="48.46512" lon="14.29932"><ele>768</ele><time>2026-07-07T16:29:36Z</time></trkpt>
    <trkpt lat="48.46435" lon="14.29893"><ele>769</ele><time>2026-07-07T16:30:06Z</time></trkpt>
    <trkpt lat="48.46351" lon="14.29837"><ele>771</ele><time>2026-07-07T16:30:35Z</time></trkpt>
    <trkpt lat="48.46239" lon="14.29764"><ele>765</ele><time>2026-07-07T16:31:04Z</time></trkpt>
    <trkpt lat="48.46172" lon="14.29660"><ele>766</ele><time>2026-07-07T16:31:34Z</time></trkpt>
    <trkpt lat="48.46132" lon="14.29617"><ele>769</ele><time>2026-07-07T16:32:03Z</time></trkpt>
    <trkpt lat="48.46096" lon="14.29588"><ele>773</ele><time>2026-07-07T16:32:32Z</time></trkpt>
    <trkpt lat="48.46063" lon="14.29548"><ele>778</ele><time>2026-07-07T16:33:02Z</time></trkpt>
    <trkpt lat="48.46031" lon="14.29514"><ele>781</ele><time>2026-07-07T16:33:31Z</time></trkpt>
    <trkpt lat="48.46001" lon="14.29484"><ele>786</ele><time>2026-07-07T16:34:00Z</time></trkpt>
    <trkpt lat="48.45964" lon="14.29459"><ele>788</ele><time>2026-07-07T16:34:30Z</time></trkpt>
    <trkpt lat="48.45923" lon="14.29437"><ele>787</ele><time>2026-07-07T16:34:59Z</time></trkpt>
    <trkpt lat="48.45912" lon="14.29477"><ele>786</ele><time>2026-07-07T16:35:58Z</time></trkpt>
    <trkpt lat="48.45893" lon="14.29750"><ele>785</ele><time>2026-07-07T16:36:27Z</time></trkpt>
    <trkpt lat="48.45849" lon="14.29986"><ele>788</ele><time>2026-07-07T16:36:56Z</time></trkpt>
    <trkpt lat="48.45772" lon="14.30115"><ele>793</ele><time>2026-07-07T16:37:26Z</time></trkpt>
    <trkpt lat="48.45713" lon="14.30189"><ele>796</ele><time>2026-07-07T16:37:55Z</time></trkpt>
    <trkpt lat="48.45663" lon="14.30232"><ele>800</ele><time>2026-07-07T16:38:24Z</time></trkpt>
    <trkpt lat="48.45608" lon="14.30248"><ele>804</ele><time>2026-07-07T16:38:54Z</time></trkpt>
    <trkpt lat="48.45538" lon="14.30230"><ele>806</ele><time>2026-07-07T16:39:23Z</time></trkpt>
    <trkpt lat="48.45455" lon="14.30211"><ele>809</ele><time>2026-07-07T16:39:52Z</time></trkpt>
    <trkpt lat="48.45379" lon="14.30175"><ele>812</ele><time>2026-07-07T16:40:22Z</time></trkpt>
    <trkpt lat="48.45322" lon="14.30140"><ele>814</ele><time>2026-07-07T16:40:51Z</time></trkpt>
    <trkpt lat="48.45262" lon="14.30075"><ele>815</ele><time>2026-07-07T16:41:20Z</time></trkpt>
    <trkpt lat="48.45184" lon="14.29902"><ele>817</ele><time>2026-07-07T16:41:50Z</time></trkpt>
    <trkpt lat="48.45086" lon="14.29762"><ele>810</ele><time>2026-07-07T16:42:19Z</time></trkpt>
    <trkpt lat="48.44880" lon="14.29707"><ele>803</ele><time>2026-07-07T16:42:48Z</time></trkpt>
    <trkpt lat="48.44738" lon="14.29533"><ele>801</ele><time>2026-07-07T16:43:18Z</time></trkpt>
    <trkpt lat="48.44622" lon="14.29482"><ele>805</ele><time>2026-07-07T16:43:47Z</time></trkpt>
    <trkpt lat="48.44522" lon="14.29561"><ele>807</ele><time>2026-07-07T16:44:16Z</time></trkpt>
    <trkpt lat="48.44450" lon="14.29677"><ele>811</ele><time>2026-07-07T16:44:46Z</time></trkpt>
    <trkpt lat="48.44310" lon="14.29801"><ele>802</ele><time>2026-07-07T16:45:15Z</time></trkpt>
    <trkpt lat="48.44135" lon="14.29795"><ele>802</ele><time>2026-07-07T16:45:44Z</time></trkpt>
    <trkpt lat="48.44027" lon="14.29802"><ele>802</ele><time>2026-07-07T16:46:14Z</time></trkpt>
    <trkpt lat="48.43874" lon="14.29923"><ele>800</ele><time>2026-07-07T16:46:43Z</time></trkpt>
    <trkpt lat="48.43741" lon="14.29910"><ele>804</ele><time>2026-07-07T16:47:12Z</time></trkpt>
    <trkpt lat="48.43657" lon="14.29966"><ele>809</ele><time>2026-07-07T16:47:42Z</time></trkpt>
    <trkpt lat="48.43591" lon="14.30002"><ele>813</ele><time>2026-07-07T16:48:11Z</time></trkpt>
    <trkpt lat="48.43536" lon="14.30016"><ele>816</ele><time>2026-07-07T16:48:40Z</time></trkpt>
    <trkpt lat="48.43483" lon="14.30024"><ele>821</ele><time>2026-07-07T16:49:10Z</time></trkpt>
    <trkpt lat="48.43427" lon="14.30046"><ele>822</ele><time>2026-07-07T16:49:39Z</time></trkpt>
    <trkpt lat="48.43351" lon="14.30093"><ele>825</ele><time>2026-07-07T16:50:08Z</time></trkpt>
    <trkpt lat="48.43261" lon="14.30137"><ele>825</ele><time>2026-07-07T16:50:38Z</time></trkpt>
    <trkpt lat="48.43215" lon="14.30219"><ele>829</ele><time>2026-07-07T16:51:07Z</time></trkpt>
    <trkpt lat="48.43224" lon="14.30344"><ele>834</ele><time>2026-07-07T16:51:36Z</time></trkpt>
    <trkpt lat="48.43239" lon="14.30485"><ele>835</ele><time>2026-07-07T16:52:06Z</time></trkpt>
    <trkpt lat="48.43237" lon="14.30630"><ele>839</ele><time>2026-07-07T16:52:35Z</time></trkpt>
    <trkpt lat="48.43190" lon="14.30730"><ele>839</ele><time>2026-07-07T16:53:04Z</time></trkpt>
    <trkpt lat="48.43068" lon="14.30746"><ele>838</ele><time>2026-07-07T16:53:34Z</time></trkpt>
    <trkpt lat="48.42977" lon="14.30759"><ele>839</ele><time>2026-07-07T16:54:03Z</time></trkpt>
    <trkpt lat="48.42926" lon="14.30826"><ele>832</ele><time>2026-07-07T16:54:32Z</time></trkpt>
    <trkpt lat="48.42885" lon="14.30863"><ele>824</ele><time>2026-07-07T16:55:02Z</time></trkpt>
    <trkpt lat="48.42798" lon="14.31143"><ele>818</ele><time>2026-07-07T16:55:31Z</time></trkpt>
    <trkpt lat="48.42671" lon="14.31177"><ele>816</ele><time>2026-07-07T16:56:00Z</time></trkpt>
    <trkpt lat="48.42623" lon="14.30915"><ele>808</ele><time>2026-07-07T16:56:30Z</time></trkpt>
    <trkpt lat="48.42485" lon="14.30842"><ele>802</ele><time>2026-07-07T16:56:59Z</time></trkpt>
    <trkpt lat="48.42441" lon="14.30801"><ele>807</ele><time>2026-07-07T16:57:28Z</time></trkpt>
    <trkpt lat="48.42409" lon="14.30766"><ele>813</ele><time>2026-07-07T16:57:58Z</time></trkpt>
    <trkpt lat="48.42379" lon="14.30733"><ele>817</ele><time>2026-07-07T16:58:27Z</time></trkpt>
    <trkpt lat="48.42348" lon="14.30670"><ele>818</ele><time>2026-07-07T16:58:56Z</time></trkpt>
    <trkpt lat="48.42243" lon="14.30618"><ele>812</ele><time>2026-07-07T16:59:26Z</time></trkpt>
    <trkpt lat="48.42143" lon="14.30567"><ele>810</ele><time>2026-07-07T16:59:55Z</time></trkpt>
    <trkpt lat="48.42051" lon="14.30599"><ele>813</ele><time>2026-07-07T17:00:24Z</time></trkpt>
    <trkpt lat="48.41959" lon="14.30641"><ele>810</ele><time>2026-07-07T17:00:54Z</time></trkpt>
    <trkpt lat="48.41804" lon="14.30648"><ele>809</ele><time>2026-07-07T17:01:23Z</time></trkpt>
    <trkpt lat="48.41722" lon="14.30675"><ele>810</ele><time>2026-07-07T17:01:52Z</time></trkpt>
    <trkpt lat="48.41632" lon="14.30618"><ele>814</ele><time>2026-07-07T17:02:22Z</time></trkpt>
    <trkpt lat="48.41579" lon="14.30644"><ele>821</ele><time>2026-07-07T17:02:51Z</time></trkpt>
    <trkpt lat="48.41540" lon="14.30725"><ele>823</ele><time>2026-07-07T17:03:20Z</time></trkpt>
    <trkpt lat="48.41499" lon="14.30817"><ele>823</ele><time>2026-07-07T17:03:50Z</time></trkpt>
    <trkpt lat="48.41489" lon="14.30840"><ele>823</ele><time>2026-07-07T17:04:19Z</time></trkpt>
    <trkpt lat="48.41445" lon="14.30924"><ele>826</ele><time>2026-07-07T17:05:47Z</time></trkpt>
    <trkpt lat="48.41365" lon="14.31016"><ele>831</ele><time>2026-07-07T17:06:16Z</time></trkpt>
    <trkpt lat="48.41199" lon="14.31185"><ele>820</ele><time>2026-07-07T17:06:46Z</time></trkpt>
    <trkpt lat="48.41084" lon="14.31261"><ele>821</ele><time>2026-07-07T17:07:15Z</time></trkpt>
    <trkpt lat="48.40969" lon="14.31173"><ele>822</ele><time>2026-07-07T17:07:44Z</time></trkpt>
    <trkpt lat="48.40780" lon="14.31207"><ele>814</ele><time>2026-07-07T17:08:14Z</time></trkpt>
    <trkpt lat="48.40587" lon="14.31270"><ele>808</ele><time>2026-07-07T17:08:43Z</time></trkpt>
    <trkpt lat="48.40505" lon="14.31145"><ele>790</ele><time>2026-07-07T17:09:12Z</time></trkpt>
    <trkpt lat="48.40305" lon="14.31235"><ele>789</ele><time>2026-07-07T17:09:42Z</time></trkpt>
    <trkpt lat="48.40144" lon="14.31381"><ele>781</ele><time>2026-07-07T17:10:11Z</time></trkpt>
    <trkpt lat="48.39917" lon="14.31514"><ele>767</ele><time>2026-07-07T17:10:40Z</time></trkpt>
    <trkpt lat="48.39737" lon="14.31628"><ele>765</ele><time>2026-07-07T17:11:10Z</time></trkpt>
    <trkpt lat="48.39542" lon="14.31752"><ele>758</ele><time>2026-07-07T17:11:39Z</time></trkpt>
    <trkpt lat="48.39287" lon="14.31858"><ele>739</ele><time>2026-07-07T17:12:08Z</time></trkpt>
    <trkpt lat="48.39068" lon="14.31975"><ele>736</ele><time>2026-07-07T17:12:38Z</time></trkpt>
    <trkpt lat="48.38910" lon="14.32075"><ele>728</ele><time>2026-07-07T17:13:07Z</time></trkpt>
    <trkpt lat="48.38788" lon="14.31981"><ele>730</ele><time>2026-07-07T17:13:36Z</time></trkpt>
    <trkpt lat="48.38628" lon="14.31851"><ele>717</ele><time>2026-07-07T17:14:06Z</time></trkpt>
    <trkpt lat="48.38495" lon="14.31809"><ele>704</ele><time>2026-07-07T17:14:35Z</time></trkpt>
    <trkpt lat="48.38335" lon="14.31910"><ele>700</ele><time>2026-07-07T17:15:04Z</time></trkpt>
    <trkpt lat="48.38154" lon="14.31774"><ele>688</ele><time>2026-07-07T17:15:34Z</time></trkpt>
    <trkpt lat="48.37947" lon="14.31741"><ele>684</ele><time>2026-07-07T17:16:03Z</time></trkpt>
    <trkpt lat="48.37806" lon="14.31718"><ele>680</ele><time>2026-07-07T17:16:32Z</time></trkpt>
    <trkpt lat="48.37687" lon="14.31590"><ele>682</ele><time>2026-07-07T17:17:02Z</time></trkpt>
    <trkpt lat="48.37556" lon="14.31531"><ele>678</ele><time>2026-07-07T17:17:31Z</time></trkpt>
    <trkpt lat="48.37411" lon="14.31552"><ele>677</ele><time>2026-07-07T17:18:00Z</time></trkpt>
    <trkpt lat="48.37134" lon="14.31551"><ele>653</ele><time>2026-07-07T17:18:30Z</time></trkpt>
    <trkpt lat="48.37013" lon="14.31384"><ele>656</ele><time>2026-07-07T17:18:59Z</time></trkpt>
    <trkpt lat="48.36849" lon="14.31318"><ele>648</ele><time>2026-07-07T17:19:28Z</time></trkpt>
    <trkpt lat="48.36651" lon="14.31188"><ele>637</ele><time>2026-07-07T17:19:58Z</time></trkpt>
    <trkpt lat="48.36580" lon="14.31087"><ele>639</ele><time>2026-07-07T17:20:27Z</time></trkpt>
    <trkpt lat="48.36573" lon="14.30959"><ele>642</ele><time>2026-07-07T17:20:56Z</time></trkpt>
    <trkpt lat="48.36555" lon="14.30900"><ele>644</ele><time>2026-07-07T17:21:13Z</time></trkpt>
    <trkpt lat="48.36494" lon="14.30755"><ele>641</ele><time>2026-07-07T17:21:42Z</time></trkpt>
    <trkpt lat="48.36383" lon="14.30685"><ele>638</ele><time>2026-07-07T17:22:11Z</time></trkpt>
    <trkpt lat="48.36252" lon="14.30546"><ele>636</ele><time>2026-07-07T17:22:40Z</time></trkpt>
    <trkpt lat="48.36145" lon="14.30494"><ele>635</ele><time>2026-07-07T17:23:10Z</time></trkpt>
    <trkpt lat="48.36034" lon="14.30419"><ele>619</ele><time>2026-07-07T17:23:39Z</time></trkpt>
    <trkpt lat="48.36116" lon="14.30102"><ele>602</ele><time>2026-07-07T17:24:08Z</time></trkpt>
    <trkpt lat="48.35902" lon="14.29930"><ele>558</ele><time>2026-07-07T17:24:38Z</time></trkpt>
    <trkpt lat="48.35786" lon="14.30007"><ele>542</ele><time>2026-07-07T17:25:07Z</time></trkpt>
    <trkpt lat="48.35574" lon="14.30001"><ele>535</ele><time>2026-07-07T17:25:36Z</time></trkpt>
    <trkpt lat="48.35453" lon="14.30035"><ele>537</ele><time>2026-07-07T17:26:06Z</time></trkpt>
    <trkpt lat="48.35349" lon="14.30161"><ele>516</ele><time>2026-07-07T17:26:35Z</time></trkpt>
    <trkpt lat="48.35172" lon="14.30284"><ele>486</ele><time>2026-07-07T17:27:04Z</time></trkpt>
    <trkpt lat="48.34884" lon="14.30411"><ele>461</ele><time>2026-07-07T17:27:33Z</time></trkpt>
    <trkpt lat="48.34683" lon="14.30378"><ele>453</ele><time>2026-07-07T17:28:02Z</time></trkpt>
    <trkpt lat="48.34478" lon="14.30318"><ele>439</ele><time>2026-07-07T17:28:31Z</time></trkpt>
    <trkpt lat="48.34197" lon="14.30414"><ele>413</ele><time>2026-07-07T17:29:00Z</time></trkpt>
    <trkpt lat="48.34352" lon="14.30143"><ele>402</ele><time>2026-07-07T17:29:30Z</time></trkpt>
    <trkpt lat="48.34247" lon="14.30174"><ele>380</ele><time>2026-07-07T17:29:59Z</time></trkpt>
    <trkpt lat="48.33924" lon="14.30271"><ele>348</ele><time>2026-07-07T17:30:28Z</time></trkpt>
    <trkpt lat="48.33702" lon="14.30434"><ele>330</ele><time>2026-07-07T17:30:58Z</time></trkpt>
    <trkpt lat="48.33701" lon="14.30180"><ele>316</ele><time>2026-07-07T17:31:27Z</time></trkpt>
    <trkpt lat="48.33813" lon="14.30014"><ele>299</ele><time>2026-07-07T17:31:56Z</time></trkpt>
    <trkpt lat="48.33559" lon="14.30093"><ele>282</ele><time>2026-07-07T17:32:26Z</time></trkpt>
    <trkpt lat="48.33410" lon="14.30078"><ele>268</ele><time>2026-07-07T17:32:55Z</time></trkpt>
    <trkpt lat="48.33410" lon="14.30095"><ele>265</ele><time>2026-07-07T17:33:54Z</time></trkpt>
    <trkpt lat="48.33418" lon="14.30229"><ele>267</ele><time>2026-07-07T17:34:23Z</time></trkpt>
    <trkpt lat="48.33402" lon="14.30520"><ele>260</ele><time>2026-07-07T17:34:52Z</time></trkpt>
    <trkpt lat="48.33305" lon="14.30749"><ele>259</ele><time>2026-07-07T17:35:22Z</time></trkpt>
    <trkpt lat="48.33244" lon="14.30927"><ele>261</ele><time>2026-07-07T17:35:51Z</time></trkpt>
    <trkpt lat="48.33213" lon="14.30971"><ele>268</ele><time>2026-07-07T17:36:17Z</time></trkpt>
    <trkpt lat="48.33206" lon="14.31008"><ele>266</ele><time>2026-07-07T17:38:43Z</time></trkpt>
    <trkpt lat="48.33199" lon="14.31025"><ele>261</ele><time>2026-07-07T17:39:12Z</time></trkpt>
    <trkpt lat="48.33208" lon="14.31027"><ele>260</ele><time>2026-07-07T17:42:38Z</time></trkpt>
  </trkseg>
</trk>
</gpx>