<?xml version="1.0" encoding="UTF-8"?>
<gpx version="1.1" creator="GPX-Pro" xmlns="http://www.topografix.com/GPX/1/1">
<trk>
  <name>Almtalerköpfl-Erichsweg</name>
  <trkseg>
    <trkpt lat="47.75583" lon="14.01708"><ele>722</ele><time>2026-08-09T03:23:27Z</time></trkpt>
    <trkpt lat="47.75570" lon="14.01711"><ele>724</ele><time>2026-08-09T03:23:57Z</time></trkpt>
    <trkpt lat="47.75563" lon="14.01722"><ele>719</ele><time>2026-08-09T03:24:55Z</time></trkpt>
    <trkpt lat="47.75517" lon="14.01804"><ele>715</ele><time>2026-08-09T03:25:25Z</time></trkpt>
    <trkpt lat="47.75577" lon="14.01940"><ele>715</ele><time>2026-08-09T03:25:54Z</time></trkpt>
    <trkpt lat="47.75576" lon="14.02069"><ele>714</ele><time>2026-08-09T03:26:23Z</time></trkpt>
    <trkpt lat="47.75482" lon="14.02072"><ele>717</ele><time>2026-08-09T03:26:53Z</time></trkpt>
    <trkpt lat="47.75413" lon="14.02133"><ele>725</ele><time>2026-08-09T03:27:22Z</time></trkpt>
    <trkpt lat="47.75344" lon="14.02151"><ele>729</ele><time>2026-08-09T03:27:51Z</time></trkpt>
    <trkpt lat="47.75325" lon="14.02215"><ele>731</ele><time>2026-08-09T03:28:21Z</time></trkpt>
    <trkpt lat="47.75340" lon="14.02272"><ele>737</ele><time>2026-08-09T03:28:50Z</time></trkpt>
    <trkpt lat="47.75367" lon="14.02320"><ele>746</ele><time>2026-08-09T03:29:19Z</time></trkpt>
    <trkpt lat="47.75389" lon="14.02375"><ele>750</ele><time>2026-08-09T03:29:49Z</time></trkpt>
    <trkpt lat="47.75341" lon="14.02371"><ele>758</ele><time>2026-08-09T03:30:18Z</time></trkpt>
    <trkpt lat="47.75294" lon="14.02363"><ele>761</ele><time>2026-08-09T03:30:47Z</time></trkpt>
    <trkpt lat="47.75250" lon="14.02361"><ele>765</ele><time>2026-08-09T03:31:17Z</time></trkpt>
    <trkpt lat="47.75205" lon="14.02362"><ele>774</ele><time>2026-08-09T03:31:46Z</time></trkpt>
    <trkpt lat="47.75169" lon="14.02314"><ele>783</ele><time>2026-08-09T03:32:15Z</time></trkpt>
    <trkpt lat="47.75077" lon="14.02301"><ele>778</ele><time>2026-08-09T03:32:45Z</time></trkpt>
    <trkpt lat="47.74989" lon="14.02208"><ele>780</ele><time>2026-08-09T03:33:14Z</time></trkpt>
    <trkpt lat="47.74981" lon="14.02116"><ele>780</ele><time>2026-08-09T03:33:28Z</time></trkpt>
    <trkpt lat="47.74906" lon="14.02183"><ele>778</ele><time>2026-08-09T03:33:57Z</time></trkpt>
    <trkpt lat="47.74824" lon="14.02238"><ele>780</ele><time>2026-08-09T03:34:26Z</time></trkpt>
    <trkpt lat="47.74764" lon="14.02226"><ele>785</ele><time>2026-08-09T03:34:55Z</time></trkpt>
    <trkpt lat="47.74713" lon="14.02235"><ele>792</ele><time>2026-08-09T03:35:25Z</time></trkpt>
    <trkpt lat="47.74666" lon="14.02290"><ele>796</ele><time>2026-08-09T03:35:54Z</time></trkpt>
    <trkpt lat="47.74644" lon="14.02371"><ele>795</ele><time>2026-08-09T03:36:23Z</time></trkpt>
    <trkpt lat="47.74584" lon="14.02404"><ele>801</ele><time>2026-08-09T03:36:53Z</time></trkpt>
    <trkpt lat="47.74527" lon="14.02435"><ele>804</ele><time>2026-08-09T03:37:22Z</time></trkpt>
    <trkpt lat="47.74485" lon="14.02468"><ele>806</ele><time>2026-08-09T03:37:51Z</time></trkpt>
    <trkpt lat="47.74440" lon="14.02499"><ele>811</ele><time>2026-08-09T03:38:21Z</time></trkpt>
    <trkpt lat="47.74401" lon="14.02528"><ele>815</ele><time>2026-08-09T03:38:50Z</time></trkpt>
    <trkpt lat="47.74364" lon="14.02554"><ele>822</ele><time>2026-08-09T03:39:19Z</time></trkpt>
    <trkpt lat="47.74326" lon="14.02598"><ele>825</ele><time>2026-08-09T03:39:49Z</time></trkpt>
    <trkpt lat="47.74344" lon="14.02542"><ele>827</ele><time>2026-08-09T03:40:18Z</time></trkpt>
    <trkpt lat="47.74364" lon="14.02484"><ele>830</ele><time>2026-08-09T03:40:47Z</time></trkpt>
    <trkpt lat="47.74325" lon="14.02452"><ele>833</ele><time>2026-08-09T03:41:17Z</time></trkpt>
    <trkpt lat="47.74264" lon="14.02466"><ele>833</ele><time>2026-08-09T03:41:46Z</time></trkpt>
    <trkpt lat="47.74193" lon="14.02480"><ele>836</ele><time>2026-08-09T03:42:15Z</time></trkpt>
    <trkpt lat="47.74136" lon="14.02511"><ele>837</ele><time>2026-08-09T03:42:45Z</time></trkpt>
    <trkpt lat="47.74076" lon="14.02496"><ele>839</ele><time>2026-08-09T03:43:14Z</time></trkpt>
    <trkpt lat="47.74024" lon="14.02457"><ele>841</ele><time>2026-08-09T03:43:43Z</time></trkpt>
    <trkpt lat="47.73958" lon="14.02451"><ele>843</ele><time>2026-08-09T03:44:13Z</time></trkpt>
    <trkpt lat="47.73909" lon="14.02497"><ele>844</ele><time>2026-08-09T03:44:42Z</time></trkpt>
    <trkpt lat="47.73862" lon="14.02546"><ele>849</ele><time>2026-08-09T03:45:11Z</time></trkpt>
    <trkpt lat="47.73804" lon="14.02582"><ele>855</ele><time>2026-08-09T03:45:41Z</time></trkpt>
    <trkpt lat="47.73750" lon="14.02613"><ele>857</ele><time>2026-08-09T03:46:10Z</time></trkpt>
    <trkpt lat="47.73692" lon="14.02632"><ele>858</ele><time>2026-08-09T03:46:39Z</time></trkpt>
    <trkpt lat="47.73640" lon="14.02628"><ele>862</ele><time>2026-08-09T03:47:09Z</time></trkpt>
    <trkpt lat="47.73558" lon="14.02655"><ele>864</ele><time>2026-08-09T03:47:38Z</time></trkpt>
    <trkpt lat="47.73494" lon="14.02723"><ele>868</ele><time>2026-08-09T03:48:07Z</time></trkpt>
    <trkpt lat="47.73432" lon="14.02785"><ele>868</ele><time>2026-08-09T03:48:37Z</time></trkpt>
    <trkpt lat="47.73376" lon="14.02843"><ele>870</ele><time>2026-08-09T03:49:06Z</time></trkpt>
    <trkpt lat="47.73341" lon="14.02901"><ele>873</ele><time>2026-08-09T03:49:35Z</time></trkpt>
    <trkpt lat="47.73293" lon="14.02945"><ele>877</ele><time>2026-08-09T03:50:05Z</time></trkpt>
    <trkpt lat="47.73248" lon="14.02973"><ele>884</ele><time>2026-08-09T03:50:34Z</time></trkpt>
    <trkpt lat="47.73217" lon="14.02988"><ele>890</ele><time>2026-08-09T03:51:03Z</time></trkpt>
    <trkpt lat="47.73167" lon="14.02972"><ele>892</ele><time>2026-08-09T03:51:33Z</time></trkpt>
    <trkpt lat="47.73116" lon="14.02975"><ele>897</ele><time>2026-08-09T03:52:02Z</time></trkpt>
    <trkpt lat="47.73106" lon="14.03040"><ele>895</ele><time>2026-08-09T03:52:31Z</time></trkpt>
    <trkpt lat="47.73130" lon="14.03084"><ele>897</ele><time>2026-08-09T03:53:01Z</time></trkpt>
    <trkpt lat="47.73166" lon="14.03098"><ele>904</ele><time>2026-08-09T03:53:30Z</time></trkpt>
    <trkpt lat="47.73180" lon="14.03134"><ele>906</ele><time>2026-08-09T03:53:59Z</time></trkpt>
    <trkpt lat="47.73176" lon="14.03207"><ele>907</ele><time>2026-08-09T03:54:29Z</time></trkpt>
    <trkpt lat="47.73183" lon="14.03265"><ele>912</ele><time>2026-08-09T03:54:58Z</time></trkpt>
    <trkpt lat="47.73182" lon="14.03322"><ele>916</ele><time>2026-08-09T03:55:27Z</time></trkpt>
    <trkpt lat="47.73167" lon="14.03372"><ele>926</ele><time>2026-08-09T03:55:57Z</time></trkpt>
    <trkpt lat="47.73158" lon="14.03402"><ele>936</ele><time>2026-08-09T03:56:26Z</time></trkpt>
    <trkpt lat="47.73161" lon="14.03431"><ele>933</ele><time>2026-08-09T04:05:14Z</time></trkpt>
    <trkpt lat="47.73145" lon="14.03462"><ele>933</ele><time>2026-08-09T04:05:43Z</time></trkpt>
    <trkpt lat="47.73131" lon="14.03485"><ele>936</ele><time>2026-08-09T04:06:13Z</time></trkpt>
    <trkpt lat="47.73122" lon="14.03510"><ele>941</ele><time>2026-08-09T04:06:42Z</time></trkpt>
    <trkpt lat="47.73112" lon="14.03524"><ele>944</ele><time>2026-08-09T04:07:11Z</time></trkpt>
    <trkpt lat="47.73105" lon="14.03546"><ele>951</ele><time>2026-08-09T04:07:41Z</time></trkpt>
    <trkpt lat="47.73088" lon="14.03559"><ele>956</ele><time>2026-08-09T04:08:10Z</time></trkpt>
    <trkpt lat="47.73079" lon="14.03576"><ele>962</ele><time>2026-08-09T04:08:39Z</time></trkpt>
    <trkpt lat="47.73065" lon="14.03590"><ele>965</ele><time>2026-08-09T04:09:09Z</time></trkpt>
    <trkpt lat="47.73051" lon="14.03604"><ele>964</ele><time>2026-08-09T04:09:38Z</time></trkpt>
    <trkpt lat="47.73039" lon="14.03622"><ele>975</ele><time>2026-08-09T04:10:07Z</time></trkpt>
    <trkpt lat="47.73020" lon="14.03637"><ele>975</ele><time>2026-08-09T04:10:37Z</time></trkpt>
    <trkpt lat="47.73012" lon="14.03654"><ele>980</ele><time>2026-08-09T04:11:06Z</time></trkpt>
    <trkpt lat="47.72994" lon="14.03664"><ele>980</ele><time>2026-08-09T04:11:35Z</time></trkpt>
    <trkpt lat="47.72982" lon="14.03682"><ele>990</ele><time>2026-08-09T04:12:05Z</time></trkpt>
    <trkpt lat="47.72969" lon="14.03698"><ele>995</ele><time>2026-08-09T04:12:34Z</time></trkpt>
    <trkpt lat="47.72958" lon="14.03713"><ele>995</ele><time>2026-08-09T04:13:03Z</time></trkpt>
    <trkpt lat="47.72948" lon="14.03731"><ele>994</ele><time>2026-08-09T04:13:33Z</time></trkpt>
    <trkpt lat="47.72936" lon="14.03744"><ele>1000</ele><time>2026-08-09T04:14:02Z</time></trkpt>
    <trkpt lat="47.72923" lon="14.03757"><ele>1004</ele><time>2026-08-09T04:14:31Z</time></trkpt>
    <trkpt lat="47.72910" lon="14.03772"><ele>1008</ele><time>2026-08-09T04:15:01Z</time></trkpt>
    <trkpt lat="47.72903" lon="14.03780"><ele>1012</ele><time>2026-08-09T04:15:30Z</time></trkpt>
    <trkpt lat="47.72900" lon="14.03788"><ele>1012</ele><time>2026-08-09T04:15:59Z</time></trkpt>
    <trkpt lat="47.72880" lon="14.03809"><ele>1014</ele><time>2026-08-09T04:16:29Z</time></trkpt>
    <trkpt lat="47.72863" lon="14.03821"><ele>1015</ele><time>2026-08-09T04:16:58Z</time></trkpt>
    <trkpt lat="47.72850" lon="14.03814"><ele>1013</ele><time>2026-08-09T04:17:27Z</time></trkpt>
    <trkpt lat="47.72829" lon="14.03798"><ele>1019</ele><time>2026-08-09T04:17:57Z</time></trkpt>
    <trkpt lat="47.72807" lon="14.03796"><ele>1017</ele><time>2026-08-09T04:18:26Z</time></trkpt>
    <trkpt lat="47.72786" lon="14.03793"><ele>1016</ele><time>2026-08-09T04:18:55Z</time></trkpt>
    <trkpt lat="47.72772" lon="14.03789"><ele>1022</ele><time>2026-08-09T04:19:25Z</time></trkpt>
    <trkpt lat="47.72756" lon="14.03785"><ele>1033</ele><time>2026-08-09T04:19:54Z</time></trkpt>
    <trkpt lat="47.72743" lon="14.03783"><ele>1039</ele><time>2026-08-09T04:20:23Z</time></trkpt>
    <trkpt lat="47.72735" lon="14.03777"><ele>1043</ele><time>2026-08-09T04:20:53Z</time></trkpt>
    <trkpt lat="47.72718" lon="14.03771"><ele>1049</ele><time>2026-08-09T04:21:22Z</time></trkpt>
    <trkpt lat="47.72705" lon="14.03788"><ele>1051</ele><time>2026-08-09T04:21:51Z</time></trkpt>
    <trkpt lat="47.72704" lon="14.03797"><ele>1058</ele><time>2026-08-09T04:22:21Z</time></trkpt>
    <trkpt lat="47.72709" lon="14.03817"><ele>1055</ele><time>2026-08-09T04:22:50Z</time></trkpt>
    <trkpt lat="47.72699" lon="14.03822"><ele>1056</ele><time>2026-08-09T04:23:19Z</time></trkpt>
    <trkpt lat="47.72702" lon="14.03847"><ele>1067</ele><time>2026-08-09T04:24:18Z</time></trkpt>
    <trkpt lat="47.72708" lon="14.03865"><ele>1078</ele><time>2026-08-09T04:25:17Z</time></trkpt>
    <trkpt lat="47.72722" lon="14.03856"><ele>1085</ele><time>2026-08-09T04:25:46Z</time></trkpt>
    <trkpt lat="47.72732" lon="14.03828"><ele>1087</ele><time>2026-08-09T04:26:15Z</time></trkpt>
    <trkpt lat="47.72740" lon="14.03832"><ele>1086</ele><time>2026-08-09T04:26:45Z</time></trkpt>
    <trkpt lat="47.72737" lon="14.03856"><ele>1095</ele><time>2026-08-09T04:27:43Z</time></trkpt>
    <trkpt lat="47.72742" lon="14.03862"><ele>1099</ele><time>2026-08-09T04:28:13Z</time></trkpt>
    <trkpt lat="47.72742" lon="14.03874"><ele>1104</ele><time>2026-08-09T04:28:42Z</time></trkpt>
    <trkpt lat="47.72747" lon="14.03886"><ele>1112</ele><time>2026-08-09T04:29:21Z</time></trkpt>
    <trkpt lat="47.72758" lon="14.03896"><ele>1116</ele><time>2026-08-09T04:29:50Z</time></trkpt>
    <trkpt lat="47.72771" lon="14.03907"><ele>1119</ele><time>2026-08-09T04:30:19Z</time></trkpt>
    <trkpt lat="47.72785" lon="14.03937"><ele>1119</ele><time>2026-08-09T04:30:49Z</time></trkpt>
    <trkpt lat="47.72796" lon="14.03954"><ele>1123</ele><time>2026-08-09T04:31:18Z</time></trkpt>
    <trkpt lat="47.72789" lon="14.03951"><ele>1129</ele><time>2026-08-09T04:31:47Z</time></trkpt>
    <trkpt lat="47.72785" lon="14.03962"><ele>1136</ele><time>2026-08-09T04:32:17Z</time></trkpt>
    <trkpt lat="47.72782" lon="14.03973"><ele>1139</ele><time>2026-08-09T04:32:46Z</time></trkpt>
    <trkpt lat="47.72773" lon="14.03972"><ele>1142</ele><time>2026-08-09T04:33:12Z</time></trkpt>
    <trkpt lat="47.72767" lon="14.03977"><ele>1148</ele><time>2026-08-09T04:33:41Z</time></trkpt>
    <trkpt lat="47.72767" lon="14.03994"><ele>1151</ele><time>2026-08-09T04:34:10Z</time></trkpt>
    <trkpt lat="47.72757" lon="14.03990"><ele>1159</ele><time>2026-08-09T04:34:39Z</time></trkpt>
    <trkpt lat="47.72748" lon="14.03976"><ele>1162</ele><time>2026-08-09T04:35:09Z</time></trkpt>
    <trkpt lat="47.72742" lon="14.03974"><ele>1164</ele><time>2026-08-09T04:35:38Z</time></trkpt>
    <trkpt lat="47.72736" lon="14.03986"><ele>1168</ele><time>2026-08-09T04:36:07Z</time></trkpt>
    <trkpt lat="47.72730" lon="14.03975"><ele>1174</ele><time>2026-08-09T04:36:37Z</time></trkpt>
    <trkpt lat="47.72722" lon="14.03988"><ele>1176</ele><time>2026-08-09T04:37:06Z</time></trkpt>
    <trkpt lat="47.72719" lon="14.04000"><ele>1178</ele><time>2026-08-09T04:37:35Z</time></trkpt>
    <trkpt lat="47.72705" lon="14.04005"><ele>1185</ele><time>2026-08-09T04:38:05Z</time></trkpt>
    <trkpt lat="47.72700" lon="14.04022"><ele>1191</ele><time>2026-08-09T04:39:03Z</time></trkpt>
    <trkpt lat="47.72690" lon="14.04024"><ele>1196</ele><time>2026-08-09T04:39:33Z</time></trkpt>
    <trkpt lat="47.72690" lon="14.04039"><ele>1201</ele><time>2026-08-09T04:40:02Z</time></trkpt>
    <trkpt lat="47.72694" lon="14.04048"><ele>1210</ele><time>2026-08-09T04:40:31Z</time></trkpt>
    <trkpt lat="47.72694" lon="14.04062"><ele>1212</ele><time>2026-08-09T04:41:01Z</time></trkpt>
    <trkpt lat="47.72680" lon="14.04062"><ele>1218</ele><time>2026-08-09T04:41:30Z</time></trkpt>
    <trkpt lat="47.72688" lon="14.04073"><ele>1221</ele><time>2026-08-09T04:41:59Z</time></trkpt>
    <trkpt lat="47.72670" lon="14.04088"><ele>1221</ele><time>2026-08-09T04:42:29Z</time></trkpt>
    <trkpt lat="47.72671" lon="14.04097"><ele>1225</ele><time>2026-08-09T04:42:58Z</time></trkpt>
    <trkpt lat="47.72669" lon="14.04110"><ele>1235</ele><time>2026-08-09T04:43:27Z</time></trkpt>
    <trkpt lat="47.72670" lon="14.04128"><ele>1248</ele><time>2026-08-09T04:44:26Z</time></trkpt>
    <trkpt lat="47.72672" lon="14.04140"><ele>1254</ele><time>2026-08-09T04:44:55Z</time></trkpt>
    <trkpt lat="47.72666" lon="14.04145"><ele>1259</ele><time>2026-08-09T04:45:25Z</time></trkpt>
    <trkpt lat="47.72676" lon="14.04154"><ele>1257</ele><time>2026-08-09T04:45:54Z</time></trkpt>
    <trkpt lat="47.72667" lon="14.04171"><ele>1262</ele><time>2026-08-09T04:46:23Z</time></trkpt>
    <trkpt lat="47.72663" lon="14.04180"><ele>1268</ele><time>2026-08-09T04:46:53Z</time></trkpt>
    <trkpt lat="47.72659" lon="14.04181"><ele>1275</ele><time>2026-08-09T04:47:22Z</time></trkpt>
    <trkpt lat="47.72645" lon="14.04176"><ele>1278</ele><time>2026-08-09T04:47:51Z</time></trkpt>
    <trkpt lat="47.72630" lon="14.04149"><ele>1284</ele><time>2026-08-09T04:48:21Z</time></trkpt>
    <trkpt lat="47.72610" lon="14.04137"><ele>1283</ele><time>2026-08-09T04:48:50Z</time></trkpt>
    <trkpt lat="47.72597" lon="14.04135"><ele>1290</ele><time>2026-08-09T04:49:19Z</time></trkpt>
    <trkpt lat="47.72583" lon="14.04141"><ele>1294</ele><time>2026-08-09T04:49:49Z</time></trkpt>
    <trkpt lat="47.72572" lon="14.04142"><ele>1298</ele><time>2026-08-09T04:50:47Z</time></trkpt>
    <trkpt lat="47.72579" lon="14.04166"><ele>1306</ele><time>2026-08-09T04:51:17Z</time></trkpt>
    <trkpt lat="47.72566" lon="14.04161"><ele>1307</ele><time>2026-08-09T04:51:46Z</time></trkpt>
    <trkpt lat="47.72558" lon="14.04160"><ele>1313</ele><time>2026-08-09T04:52:15Z</time></trkpt>
    <trkpt lat="47.72565" lon="14.04180"><ele>1320</ele><time>2026-08-09T04:52:45Z</time></trkpt>
    <trkpt lat="47.72560" lon="14.04183"><ele>1324</ele><time>2026-08-09T04:53:14Z</time></trkpt>
    <trkpt lat="47.72547" lon="14.04179"><ele>1328</ele><time>2026-08-09T04:53:43Z</time></trkpt>
    <trkpt lat="47.72547" lon="14.04199"><ele>1330</ele><time>2026-08-09T04:54:13Z</time></trkpt>
    <trkpt lat="47.72551" lon="14.04208"><ele>1339</ele><time>2026-08-09T04:54:42Z</time></trkpt>
    <trkpt lat="47.72545" lon="14.04208"><ele>1342</ele><time>2026-08-09T04:55:11Z</time></trkpt>
    <trkpt lat="47.72544" lon="14.04232"><ele>1343</ele><time>2026-08-09T04:55:41Z</time></trkpt>
    <trkpt lat="47.72541" lon="14.04238"><ele>1347</ele><time>2026-08-09T04:56:10Z</time></trkpt>
    <trkpt lat="47.72531" lon="14.04236"><ele>1352</ele><time>2026-08-09T04:56:39Z</time></trkpt>
    <trkpt lat="47.72527" lon="14.04241"><ele>1357</ele><time>2026-08-09T04:57:09Z</time></trkpt>
    <trkpt lat="47.72520" lon="14.04248"><ele>1360</ele><time>2026-08-09T04:57:38Z</time></trkpt>
    <trkpt lat="47.72523" lon="14.04267"><ele>1366</ele><time>2026-08-09T04:58:07Z</time></trkpt>
    <trkpt lat="47.72513" lon="14.04262"><ele>1378</ele><time>2026-08-09T04:59:06Z</time></trkpt>
    <trkpt lat="47.72502" lon="14.04260"><ele>1383</ele><time>2026-08-09T04:59:35Z</time></trkpt>
    <trkpt lat="47.72489" lon="14.04262"><ele>1384</ele><time>2026-08-09T05:00:05Z</time></trkpt>
    <trkpt lat="47.72482" lon="14.04267"><ele>1383</ele><time>2026-08-09T05:00:34Z</time></trkpt>
    <trkpt lat="47.72476" lon="14.04269"><ele>1392</ele><time>2026-08-09T05:02:02Z</time></trkpt>
    <trkpt lat="47.72476" lon="14.04285"><ele>1395</ele><time>2026-08-09T05:02:31Z</time></trkpt>
    <trkpt lat="47.72471" lon="14.04287"><ele>1393</ele><time>2026-08-09T05:02:59Z</time></trkpt>
    <trkpt lat="47.72458" lon="14.04286"><ele>1412</ele><time>2026-08-09T05:04:27Z</time></trkpt>
    <trkpt lat="47.72456" lon="14.04294"><ele>1417</ele><time>2026-08-09T05:04:57Z</time></trkpt>
    <trkpt lat="47.72450" lon="14.04291"><ele>1418</ele><time>2026-08-09T05:05:26Z</time></trkpt>
    <trkpt lat="47.72444" lon="14.04288"><ele>1423</ele><time>2026-08-09T05:05:55Z</time></trkpt>
    <trkpt lat="47.72442" lon="14.04263"><ele>1429</ele><time>2026-08-09T05:06:54Z</time></trkpt>
    <trkpt lat="47.72444" lon="14.04255"><ele>1429</ele><time>2026-08-09T05:07:23Z</time></trkpt>
    <trkpt lat="47.72441" lon="14.04234"><ele>1430</ele><time>2026-08-09T05:07:53Z</time></trkpt>
    <trkpt lat="47.72433" lon="14.04221"><ele>1431</ele><time>2026-08-09T05:08:22Z</time></trkpt>
    <trkpt lat="47.72441" lon="14.04210"><ele>1447</ele><time>2026-08-09T05:08:51Z</time></trkpt>
    <trkpt lat="47.72443" lon="14.04198"><ele>1449</ele><time>2026-08-09T05:09:21Z</time></trkpt>
    <trkpt lat="47.72440" lon="14.04181"><ele>1459</ele><time>2026-08-09T05:09:50Z</time></trkpt>
    <trkpt lat="47.72434" lon="14.04172"><ele>1457</ele><time>2026-08-09T05:10:19Z</time></trkpt>
    <trkpt lat="47.72431" lon="14.04148"><ele>1457</ele><time>2026-08-09T05:10:49Z</time></trkpt>
    <trkpt lat="47.72426" lon="14.04131"><ele>1451</ele><time>2026-08-09T05:11:18Z</time></trkpt>
    <trkpt lat="47.72419" lon="14.04126"><ele>1449</ele><time>2026-08-09T05:11:47Z</time></trkpt>
    <trkpt lat="47.72409" lon="14.04121"><ele>1443</ele><time>2026-08-09T05:12:17Z</time></trkpt>
    <trkpt lat="47.72404" lon="14.04114"><ele>1436</ele><time>2026-08-09T05:12:46Z</time></trkpt>
    <trkpt lat="47.72392" lon="14.04103"><ele>1435</ele><time>2026-08-09T05:13:15Z</time></trkpt>
    <trkpt lat="47.72382" lon="14.04077"><ele>1436</ele><time>2026-08-09T05:13:45Z</time></trkpt>
    <trkpt lat="47.72372" lon="14.04052"><ele>1438</ele><time>2026-08-09T05:14:14Z</time></trkpt>
    <trkpt lat="47.72368" lon="14.04026"><ele>1440</ele><time>2026-08-09T05:14:43Z</time></trkpt>
    <trkpt lat="47.72371" lon="14.04006"><ele>1446</ele><time>2026-08-09T05:15:13Z</time></trkpt>
    <trkpt lat="47.72364" lon="14.03994"><ele>1452</ele><time>2026-08-09T05:16:11Z</time></trkpt>
    <trkpt lat="47.72365" lon="14.03985"><ele>1451</ele><time>2026-08-09T05:16:41Z</time></trkpt>
    <trkpt lat="47.72363" lon="14.03977"><ele>1452</ele><time>2026-08-09T05:17:10Z</time></trkpt>
    <trkpt lat="47.72353" lon="14.03968"><ele>1443</ele><time>2026-08-09T05:17:39Z</time></trkpt>
    <trkpt lat="47.72337" lon="14.03963"><ele>1438</ele><time>2026-08-09T05:18:09Z</time></trkpt>
    <trkpt lat="47.72331" lon="14.03958"><ele>1431</ele><time>2026-08-09T05:18:38Z</time></trkpt>
    <trkpt lat="47.72325" lon="14.03949"><ele>1429</ele><time>2026-08-09T05:19:07Z</time></trkpt>
    <trkpt lat="47.72320" lon="14.03939"><ele>1426</ele><time>2026-08-09T05:19:37Z</time></trkpt>
    <trkpt lat="47.72317" lon="14.03927"><ele>1427</ele><time>2026-08-09T05:20:35Z</time></trkpt>
    <trkpt lat="47.72310" lon="14.03914"><ele>1425</ele><time>2026-08-09T05:21:05Z</time></trkpt>
    <trkpt lat="47.72306" lon="14.03893"><ele>1426</ele><time>2026-08-09T05:21:35Z</time></trkpt>
    <trkpt lat="47.72305" lon="14.03872"><ele>1425</ele><time>2026-08-09T05:22:05Z</time></trkpt>
    <trkpt lat="47.72308" lon="14.03866"><ele>1424</ele><time>2026-08-09T05:22:34Z</time></trkpt>
    <trkpt lat="47.72311" lon="14.03856"><ele>1426</ele><time>2026-08-09T05:23:03Z</time></trkpt>
    <trkpt lat="47.72310" lon="14.03841"><ele>1425</ele><time>2026-08-09T05:23:33Z</time></trkpt>
    <trkpt lat="47.72310" lon="14.03825"><ele>1428</ele><time>2026-08-09T05:24:02Z</time></trkpt>
    <trkpt lat="47.72306" lon="14.03820"><ele>1434</ele><time>2026-08-09T05:24:31Z</time></trkpt>
    <trkpt lat="47.72305" lon="14.03811"><ele>1440</ele><time>2026-08-09T05:25:01Z</time></trkpt>
    <trkpt lat="47.72300" lon="14.03801"><ele>1448</ele><time>2026-08-09T05:25:59Z</time></trkpt>
    <trkpt lat="47.72280" lon="14.03791"><ele>1448</ele><time>2026-08-09T05:26:58Z</time></trkpt>
    <trkpt lat="47.72269" lon="14.03791"><ele>1448</ele><time>2026-08-09T05:27:27Z</time></trkpt>
    <trkpt lat="47.72257" lon="14.03788"><ele>1450</ele><time>2026-08-09T05:27:57Z</time></trkpt>
    <trkpt lat="47.72247" lon="14.03790"><ele>1450</ele><time>2026-08-09T05:28:26Z</time></trkpt>
    <trkpt lat="47.72238" lon="14.03772"><ele>1450</ele><time>2026-08-09T05:28:55Z</time></trkpt>
    <trkpt lat="47.72226" lon="14.03768"><ele>1445</ele><time>2026-08-09T05:29:25Z</time></trkpt>
    <trkpt lat="47.72218" lon="14.03767"><ele>1443</ele><time>2026-08-09T05:29:54Z</time></trkpt>
    <trkpt lat="47.72209" lon="14.03767"><ele>1446</ele><time>2026-08-09T05:30:23Z</time></trkpt>
    <trkpt lat="47.72197" lon="14.03764"><ele>1447</ele><time>2026-08-09T05:30:53Z</time></trkpt>
    <trkpt lat="47.72189" lon="14.03763"><ele>1457</ele><time>2026-08-09T05:40:58Z</time></trkpt>
    <trkpt lat="47.72192" lon="14.03756"><ele>1463</ele><time>2026-08-09T05:47:19Z</time></trkpt>
    <trkpt lat="47.72184" lon="14.03757"><ele>1480</ele><time>2026-08-09T05:54:42Z</time></trkpt>
    <trkpt lat="47.72176" lon="14.03769"><ele>1476</ele><time>2026-08-09T05:55:11Z</time></trkpt>
    <trkpt lat="47.72177" lon="14.03783"><ele>1480</ele><time>2026-08-09T05:59:49Z</time></trkpt>
    <trkpt lat="47.72181" lon="14.03797"><ele>1498</ele><time>2026-08-09T06:07:05Z</time></trkpt>
    <trkpt lat="47.72185" lon="14.03806"><ele>1503</ele><time>2026-08-09T06:09:13Z</time></trkpt>
    <trkpt lat="47.72197" lon="14.03807"><ele>1512</ele><time>2026-08-09T06:09:42Z</time></trkpt>
    <trkpt lat="47.72200" lon="14.03815"><ele>1529</ele><time>2026-08-09T07:15:49Z</time></trkpt>
    <trkpt lat="47.72193" lon="14.03827"><ele>1528</ele><time>2026-08-09T07:16:47Z</time></trkpt>
    <trkpt lat="47.72191" lon="14.03833"><ele>1596</ele><time>2026-08-09T08:02:07Z</time></trkpt>
    <trkpt lat="47.72197" lon="14.03838"><ele>1646</ele><time>2026-08-09T08:20:27Z</time></trkpt>
    <trkpt lat="47.72187" lon="14.03846"><ele>1631</ele><time>2026-08-09T08:24:41Z</time></trkpt>
    <trkpt lat="47.72191" lon="14.03853"><ele>1634</ele><time>2026-08-09T08:26:38Z</time></trkpt>
    <trkpt lat="47.72177" lon="14.03865"><ele>1642</ele><time>2026-08-09T08:30:18Z</time></trkpt>
    <trkpt lat="47.72174" lon="14.03872"><ele>1708</ele><time>2026-08-09T09:54:01Z</time></trkpt>
    <trkpt lat="47.72175" lon="14.03880"><ele>1709</ele><time>2026-08-09T09:54:39Z</time></trkpt>
    <trkpt lat="47.72178" lon="14.03891"><ele>1727</ele><time>2026-08-09T10:24:31Z</time></trkpt>
    <trkpt lat="47.72172" lon="14.03886"><ele>1757</ele><time>2026-08-09T10:40:41Z</time></trkpt>
    <trkpt lat="47.72170" lon="14.03897"><ele>1785</ele><time>2026-08-09T11:12:22Z</time></trkpt>
    <trkpt lat="47.72165" lon="14.03891"><ele>1791</ele><time>2026-08-09T11:13:21Z</time></trkpt>
    <trkpt lat="47.72156" lon="14.03903"><ele>1815</ele><time>2026-08-09T11:49:17Z</time></trkpt>
    <trkpt lat="47.72143" lon="14.03912"><ele>1876</ele><time>2026-08-09T12:32:47Z</time></trkpt>
    <trkpt lat="47.72134" lon="14.03916"><ele>1891</ele><time>2026-08-09T12:35:14Z</time></trkpt>
    <trkpt lat="47.72132" lon="14.03922"><ele>1896</ele><time>2026-08-09T12:37:11Z</time></trkpt>
    <trkpt lat="47.72128" lon="14.03941"><ele>1903</ele><time>2026-08-09T13:04:34Z</time></trkpt>
    <trkpt lat="47.72132" lon="14.03949"><ele>1905</ele><time>2026-08-09T13:05:33Z</time></trkpt>
    <trkpt lat="47.72134" lon="14.03956"><ele>1912</ele><time>2026-08-09T13:06:02Z</time></trkpt>
    <trkpt lat="47.72128" lon="14.03965"><ele>1918</ele><time>2026-08-09T13:06:31Z</time></trkpt>
    <trkpt lat="47.72125" lon="14.03972"><ele>1921</ele><time>2026-08-09T13:07:01Z</time></trkpt>
    <trkpt lat="47.72121" lon="14.03979"><ele>1917</ele><time>2026-08-09T13:07:30Z</time></trkpt>
    <trkpt lat="47.72120" lon="14.03990"><ele>1915</ele><time>2026-08-09T13:07:59Z</time></trkpt>
    <trkpt lat="47.72119" lon="14.03998"><ele>1913</ele><time>2026-08-09T13:08:29Z</time></trkpt>
    <trkpt lat="47.72113" lon="14.04009"><ele>1912</ele><time>2026-08-09T13:08:58Z</time></trkpt>
    <trkpt lat="47.72112" lon="14.04018"><ele>1913</ele><time>2026-08-09T13:09:27Z</time></trkpt>
    <trkpt lat="47.72104" lon="14.04035"><ele>1913</ele><time>2026-08-09T13:09:57Z</time></trkpt>
    <trkpt lat="47.72099" lon="14.04045"><ele>1915</ele><time>2026-08-09T13:10:26Z</time></trkpt>
    <trkpt lat="47.72099" lon="14.04061"><ele>1921</ele><time>2026-08-09T13:10:55Z</time></trkpt>
    <trkpt lat="47.72095" lon="14.04081"><ele>1921</ele><time>2026-08-09T13:11:25Z</time></trkpt>
    <trkpt lat="47.72103" lon="14.04104"><ele>1926</ele><time>2026-08-09T13:11:54Z</time></trkpt>
    <trkpt lat="47.72100" lon="14.04126"><ele>1926</ele><time>2026-08-09T13:12:23Z</time></trkpt>
    <trkpt lat="47.72108" lon="14.04147"><ele>1927</ele><time>2026-08-09T13:12:53Z</time></trkpt>
    <trkpt lat="47.72112" lon="14.04173"><ele>1923</ele><time>2026-08-09T13:13:22Z</time></trkpt>
    <trkpt lat="47.72114" lon="14.04196"><ele>1924</ele><time>2026-08-09T13:13:51Z</time></trkpt>
    <trkpt lat="47.72119" lon="14.04218"><ele>1928</ele><time>2026-08-09T13:14:21Z</time></trkpt>
    <trkpt lat="47.72129" lon="14.04233"><ele>1930</ele><time>2026-08-09T13:14:50Z</time></trkpt>
    <trkpt lat="47.72147" lon="14.04240"><ele>1931</ele><time>2026-08-09T13:15:19Z</time></trkpt>
    <trkpt lat="47.72147" lon="14.04258"><ele>1929</ele><time>2026-08-09T13:15:49Z</time></trkpt>
    <trkpt lat="47.72137" lon="14.04264"><ele>1926</ele><time>2026-08-09T13:16:18Z</time></trkpt>
    <trkpt lat="47.72132" lon="14.04267"><ele>1925</ele><time>2026-08-09T13:16:47Z</time></trkpt>
    <trkpt lat="47.72124" lon="14.04267"><ele>1923</ele><time>2026-08-09T13:17:17Z</time></trkpt>
    <trkpt lat="47.72114" lon="14.04262"><ele>1923</ele><time>2026-08-09T13:17:46Z</time></trkpt>
    <trkpt lat="47.72098" lon="14.04255"><ele>1920</ele><time>2026-08-09T13:18:15Z</time></trkpt>
    <trkpt lat="47.72081" lon="14.04259"><ele>1920</ele><time>2026-08-09T13:18:45Z</time></trkpt>
    <trkpt lat="47.72076" lon="14.04267"><ele>1912</ele><time>2026-08-09T13:21:11Z</time></trkpt>
    <trkpt lat="47.72072" lon="14.04273"><ele>1911</ele><time>2026-08-09T13:21:40Z</time></trkpt>
    <trkpt lat="47.72070" lon="14.04287"><ele>1904</ele><time>2026-08-09T13:22:09Z</time></trkpt>
    <trkpt lat="47.72070" lon="14.04296"><ele>1898</ele><time>2026-08-09T13:22:38Z</time></trkpt>
    <trkpt lat="47.72065" lon="14.04306"><ele>1895</ele><time>2026-08-09T13:23:07Z</time></trkpt>
    <trkpt lat="47.72066" lon="14.04317"><ele>1888</ele><time>2026-08-09T13:23:37Z</time></trkpt>
    <trkpt lat="47.72073" lon="14.04323"><ele>1887</ele><time>2026-08-09T13:25:05Z</time></trkpt>
    <trkpt lat="47.72079" lon="14.04338"><ele>1880</ele><time>2026-08-09T13:25:34Z</time></trkpt>
    <trkpt lat="47.72082" lon="14.04347"><ele>1877</ele><time>2026-08-09T13:26:33Z</time></trkpt>
    <trkpt lat="47.72074" lon="14.04349"><ele>1871</ele><time>2026-08-09T13:27:02Z</time></trkpt>
    <trkpt lat="47.72069" lon="14.04362"><ele>1868</ele><time>2026-08-09T13:28:01Z</time></trkpt>
    <trkpt lat="47.72058" lon="14.04372"><ele>1864</ele><time>2026-08-09T13:28:30Z</time></trkpt>
    <trkpt lat="47.72060" lon="14.04380"><ele>1860</ele><time>2026-08-09T13:28:59Z</time></trkpt>
    <trkpt lat="47.72063" lon="14.04390"><ele>1855</ele><time>2026-08-09T13:29:29Z</time></trkpt>
    <trkpt lat="47.72060" lon="14.04398"><ele>1852</ele><time>2026-08-09T13:29:58Z</time></trkpt>
    <trkpt lat="47.72060" lon="14.04415"><ele>1847</ele><time>2026-08-09T13:31:26Z</time></trkpt>
    <trkpt lat="47.72061" lon="14.04427"><ele>1841</ele><time>2026-08-09T13:31:55Z</time></trkpt>
    <trkpt lat="47.72059" lon="14.04434"><ele>1833</ele><time>2026-08-09T13:32:25Z</time></trkpt>
    <trkpt lat="47.72062" lon="14.04447"><ele>1828</ele><time>2026-08-09T13:32:54Z</time></trkpt>
    <trkpt lat="47.72065" lon="14.04460"><ele>1823</ele><time>2026-08-09T13:33:23Z</time></trkpt>
    <trkpt lat="47.72067" lon="14.04479"><ele>1814</ele><time>2026-08-09T13:34:22Z</time></trkpt>
    <trkpt lat="47.72075" lon="14.04500"><ele>1805</ele><time>2026-08-09T13:35:21Z</time></trkpt>
    <trkpt lat="47.72074" lon="14.04509"><ele>1799</ele><time>2026-08-09T13:35:50Z</time></trkpt>
    <trkpt lat="47.72065" lon="14.04523"><ele>1793</ele><time>2026-08-09T13:36:19Z</time></trkpt>
    <trkpt lat="47.72063" lon="14.04535"><ele>1786</ele><time>2026-08-09T13:36:49Z</time></trkpt>
    <trkpt lat="47.72057" lon="14.04551"><ele>1783</ele><time>2026-08-09T13:37:18Z</time></trkpt>
    <trkpt lat="47.72052" lon="14.04560"><ele>1780</ele><time>2026-08-09T13:37:47Z</time></trkpt>
    <trkpt lat="47.72043" lon="14.04571"><ele>1777</ele><time>2026-08-09T13:38:17Z</time></trkpt>
    <trkpt lat="47.72037" lon="14.04594"><ele>1773</ele><time>2026-08-09T13:38:46Z</time></trkpt>
    <trkpt lat="47.72043" lon="14.04621"><ele>1771</ele><time>2026-08-09T13:39:15Z</time></trkpt>
    <trkpt lat="47.72049" lon="14.04639"><ele>1765</ele><time>2026-08-09T13:39:45Z</time></trkpt>
    <trkpt lat="47.72056" lon="14.04665"><ele>1761</ele><time>2026-08-09T13:40:14Z</time></trkpt>
    <trkpt lat="47.72056" lon="14.04689"><ele>1759</ele><time>2026-08-09T13:40:43Z</time></trkpt>
    <trkpt lat="47.72071" lon="14.04712"><ele>1758</ele><time>2026-08-09T13:41:13Z</time></trkpt>
    <trkpt lat="47.72089" lon="14.04728"><ele>1758</ele><time>2026-08-09T13:41:42Z</time></trkpt>
    <trkpt lat="47.72107" lon="14.04744"><ele>1758</ele><time>2026-08-09T13:42:11Z</time></trkpt>
    <trkpt lat="47.72126" lon="14.04761"><ele>1760</ele><time>2026-08-09T13:42:41Z</time></trkpt>
    <trkpt lat="47.72145" lon="14.04769"><ele>1759</ele><time>2026-08-09T13:43:10Z</time></trkpt>
    <trkpt lat="47.72158" lon="14.04795"><ele>1759</ele><time>2026-08-09T13:43:39Z</time></trkpt>
    <trkpt lat="47.72175" lon="14.04813"><ele>1759</ele><time>2026-08-09T13:44:09Z</time></trkpt>
    <trkpt lat="47.72179" lon="14.04824"><ele>1757</ele><time>2026-08-09T13:44:38Z</time></trkpt>
    <trkpt lat="47.72186" lon="14.04833"><ele>1755</ele><time>2026-08-09T13:45:07Z</time></trkpt>
    <trkpt lat="47.72196" lon="14.04853"><ele>1747</ele><time>2026-08-09T13:45:37Z</time></trkpt>
    <trkpt lat="47.72210" lon="14.04871"><ele>1743</ele><time>2026-08-09T13:46:06Z</time></trkpt>
    <trkpt lat="47.72232" lon="14.04881"><ele>1740</ele><time>2026-08-09T13:46:35Z</time></trkpt>
    <trkpt lat="47.72247" lon="14.04875"><ele>1738</ele><time>2026-08-09T13:47:05Z</time></trkpt>
    <trkpt lat="47.72264" lon="14.04874"><ele>1733</ele><time>2026-08-09T13:47:34Z</time></trkpt>
    <trkpt lat="47.72281" lon="14.04883"><ele>1728</ele><time>2026-08-09T13:48:03Z</time></trkpt>
    <trkpt lat="47.72302" lon="14.04877"><ele>1723</ele><time>2026-08-09T13:48:33Z</time></trkpt>
    <trkpt lat="47.72310" lon="14.04893"><ele>1723</ele><time>2026-08-09T13:49:02Z</time></trkpt>
    <trkpt lat="47.72327" lon="14.04898"><ele>1718</ele><time>2026-08-09T13:49:31Z</time></trkpt>
    <trkpt lat="47.72342" lon="14.04921"><ele>1713</ele><time>2026-08-09T13:50:01Z</time></trkpt>
    <trkpt lat="47.72349" lon="14.04921"><ele>1718</ele><time>2026-08-09T13:50:30Z</time></trkpt>
    <trkpt lat="47.72357" lon="14.04927"><ele>1723</ele><time>2026-08-09T14:21:18Z</time></trkpt>
    <trkpt lat="47.72378" lon="14.04932"><ele>1726</ele><time>2026-08-09T14:21:47Z</time></trkpt>
    <trkpt lat="47.72388" lon="14.04942"><ele>1729</ele><time>2026-08-09T14:22:17Z</time></trkpt>
    <trkpt lat="47.72405" lon="14.04939"><ele>1730</ele><time>2026-08-09T14:22:46Z</time></trkpt>
    <trkpt lat="47.72420" lon="14.04937"><ele>1729</ele><time>2026-08-09T14:23:15Z</time></trkpt>
    <trkpt lat="47.72434" lon="14.04942"><ele>1722</ele><time>2026-08-09T14:23:45Z</time></trkpt>
    <trkpt lat="47.72456" lon="14.04938"><ele>1716</ele><time>2026-08-09T14:24:14Z</time></trkpt>
    <trkpt lat="47.72456" lon="14.04917"><ele>1713</ele><time>2026-08-09T14:24:43Z</time></trkpt>
    <trkpt lat="47.72448" lon="14.04910"><ele>1709</ele><time>2026-08-09T14:25:13Z</time></trkpt>
    <trkpt lat="47.72436" lon="14.04904"><ele>1702</ele><time>2026-08-09T14:25:42Z</time></trkpt>
    <trkpt lat="47.72429" lon="14.04891"><ele>1695</ele><time>2026-08-09T14:26:11Z</time></trkpt>
    <trkpt lat="47.72433" lon="14.04874"><ele>1691</ele><time>2026-08-09T14:26:41Z</time></trkpt>
    <trkpt lat="47.72426" lon="14.04872"><ele>1683</ele><time>2026-08-09T14:27:10Z</time></trkpt>
    <trkpt lat="47.72421" lon="14.04860"><ele>1679</ele><time>2026-08-09T14:27:39Z</time></trkpt>
    <trkpt lat="47.72409" lon="14.04855"><ele>1670</ele><time>2026-08-09T14:28:09Z</time></trkpt>
    <trkpt lat="47.72408" lon="14.04837"><ele>1663</ele><time>2026-08-09T14:28:38Z</time></trkpt>
    <trkpt lat="47.72399" lon="14.04827"><ele>1659</ele><time>2026-08-09T14:29:07Z</time></trkpt>
    <trkpt lat="47.72396" lon="14.04815"><ele>1655</ele><time>2026-08-09T14:29:37Z</time></trkpt>
    <trkpt lat="47.72393" lon="14.04804"><ele>1649</ele><time>2026-08-09T14:30:06Z</time></trkpt>
    <trkpt lat="47.72376" lon="14.04786"><ele>1643</ele><time>2026-08-09T14:30:35Z</time></trkpt>
    <trkpt lat="47.72364" lon="14.04772"><ele>1633</ele><time>2026-08-09T14:31:05Z</time></trkpt>
    <trkpt lat="47.72357" lon="14.04753"><ele>1628</ele><time>2026-08-09T14:31:34Z</time></trkpt>
    <trkpt lat="47.72352" lon="14.04742"><ele>1625</ele><time>2026-08-09T14:32:03Z</time></trkpt>
    <trkpt lat="47.72350" lon="14.04718"><ele>1617</ele><time>2026-08-09T14:32:33Z</time></trkpt>
    <trkpt lat="47.72353" lon="14.04704"><ele>1610</ele><time>2026-08-09T14:33:02Z</time></trkpt>
    <trkpt lat="47.72346" lon="14.04670"><ele>1606</ele><time>2026-08-09T14:33:31Z</time></trkpt>
    <trkpt lat="47.72333" lon="14.04634"><ele>1604</ele><time>2026-08-09T14:34:01Z</time></trkpt>
    <trkpt lat="47.72326" lon="14.04603"><ele>1604</ele><time>2026-08-09T14:34:30Z</time></trkpt>
    <trkpt lat="47.72318" lon="14.04572"><ele>1599</ele><time>2026-08-09T14:34:59Z</time></trkpt>
    <trkpt lat="47.72308" lon="14.04538"><ele>1595</ele><time>2026-08-09T14:35:29Z</time></trkpt>
    <trkpt lat="47.72303" lon="14.04525"><ele>1591</ele><time>2026-08-09T14:35:58Z</time></trkpt>
    <trkpt lat="47.72309" lon="14.04524"><ele>1590</ele><time>2026-08-09T14:36:27Z</time></trkpt>
    <trkpt lat="47.72320" lon="14.04522"><ele>1586</ele><time>2026-08-09T14:37:26Z</time></trkpt>
    <trkpt lat="47.72322" lon="14.04528"><ele>1582</ele><time>2026-08-09T14:37:49Z</time></trkpt>
    <trkpt lat="47.72328" lon="14.04528"><ele>1580</ele><time>2026-08-09T14:38:18Z</time></trkpt>
    <trkpt lat="47.72324" lon="14.04515"><ele>1580</ele><time>2026-08-09T14:39:17Z</time></trkpt>
    <trkpt lat="47.72334" lon="14.04497"><ele>1569</ele><time>2026-08-09T14:40:15Z</time></trkpt>
    <trkpt lat="47.72346" lon="14.04483"><ele>1558</ele><time>2026-08-09T14:40:45Z</time></trkpt>
    <trkpt lat="47.72352" lon="14.04476"><ele>1550</ele><time>2026-08-09T14:41:14Z</time></trkpt>
    <trkpt lat="47.72368" lon="14.04490"><ele>1548</ele><time>2026-08-09T14:41:43Z</time></trkpt>
    <trkpt lat="47.72375" lon="14.04467"><ele>1539</ele><time>2026-08-09T14:42:13Z</time></trkpt>
    <trkpt lat="47.72380" lon="14.04462"><ele>1530</ele><time>2026-08-09T14:42:42Z</time></trkpt>
    <trkpt lat="47.72389" lon="14.04476"><ele>1525</ele><time>2026-08-09T14:43:11Z</time></trkpt>
    <trkpt lat="47.72395" lon="14.04466"><ele>1520</ele><time>2026-08-09T14:43:41Z</time></trkpt>
    <trkpt lat="47.72400" lon="14.04437"><ele>1514</ele><time>2026-08-09T14:44:10Z</time></trkpt>
    <trkpt lat="47.72400" lon="14.04424"><ele>1507</ele><time>2026-08-09T14:44:39Z</time></trkpt>
    <trkpt lat="47.72405" lon="14.04432"><ele>1502</ele><time>2026-08-09T14:45:09Z</time></trkpt>
    <trkpt lat="47.72415" lon="14.04436"><ele>1499</ele><time>2026-08-09T14:45:38Z</time></trkpt>
    <trkpt lat="47.72417" lon="14.04407"><ele>1495</ele><time>2026-08-09T14:46:07Z</time></trkpt>
    <trkpt lat="47.72429" lon="14.04414"><ele>1487</ele><time>2026-08-09T14:46:37Z</time></trkpt>
    <trkpt lat="47.72440" lon="14.04410"><ele>1480</ele><time>2026-08-09T14:47:06Z</time></trkpt>
    <trkpt lat="47.72437" lon="14.04383"><ele>1475</ele><time>2026-08-09T14:47:35Z</time></trkpt>
    <trkpt lat="47.72450" lon="14.04379"><ele>1466</ele><time>2026-08-09T14:48:34Z</time></trkpt>
    <trkpt lat="47.72453" lon="14.04367"><ele>1460</ele><time>2026-08-09T14:49:03Z</time></trkpt>
    <trkpt lat="47.72466" lon="14.04374"><ele>1451</ele><time>2026-08-09T14:50:02Z</time></trkpt>
    <trkpt lat="47.72465" lon="14.04346"><ele>1443</ele><time>2026-08-09T14:50:31Z</time></trkpt>
    <trkpt lat="47.72481" lon="14.04345"><ele>1434</ele><time>2026-08-09T14:51:30Z</time></trkpt>
    <trkpt lat="47.72488" lon="14.04339"><ele>1426</ele><time>2026-08-09T14:51:59Z</time></trkpt>
    <trkpt lat="47.72489" lon="14.04328"><ele>1422</ele><time>2026-08-09T14:52:29Z</time></trkpt>
    <trkpt lat="47.72494" lon="14.04306"><ele>1413</ele><time>2026-08-09T14:53:27Z</time></trkpt>
    <trkpt lat="47.72498" lon="14.04283"><ele>1398</ele><time>2026-08-09T14:54:26Z</time></trkpt>
    <trkpt lat="47.72508" lon="14.04284"><ele>1395</ele><time>2026-08-09T14:54:55Z</time></trkpt>
    <trkpt lat="47.72519" lon="14.04279"><ele>1389</ele><time>2026-08-09T14:55:25Z</time></trkpt>
    <trkpt lat="47.72525" lon="14.04270"><ele>1382</ele><time>2026-08-09T14:55:54Z</time></trkpt>
    <trkpt lat="47.72520" lon="14.04248"><ele>1373</ele><time>2026-08-09T14:56:23Z</time></trkpt>
    <trkpt lat="47.72530" lon="14.04247"><ele>1364</ele><time>2026-08-09T14:56:53Z</time></trkpt>
    <trkpt lat="47.72531" lon="14.04233"><ele>1361</ele><time>2026-08-09T14:57:22Z</time></trkpt>
    <trkpt lat="47.72539" lon="14.04225"><ele>1355</ele><time>2026-08-09T14:57:51Z</time></trkpt>
    <trkpt lat="47.72545" lon="14.04212"><ele>1352</ele><time>2026-08-09T14:58:21Z</time></trkpt>
    <trkpt lat="47.72554" lon="14.04217"><ele>1345</ele><time>2026-08-09T14:58:50Z</time></trkpt>
    <trkpt lat="47.72547" lon="14.04187"><ele>1340</ele><time>2026-08-09T14:59:19Z</time></trkpt>
    <trkpt lat="47.72557" lon="14.04185"><ele>1335</ele><time>2026-08-09T14:59:49Z</time></trkpt>
    <trkpt lat="47.72567" lon="14.04175"><ele>1327</ele><time>2026-08-09T15:00:18Z</time></trkpt>
    <trkpt lat="47.72560" lon="14.04157"><ele>1323</ele><time>2026-08-09T15:00:47Z</time></trkpt>
    <trkpt lat="47.72580" lon="14.04165"><ele>1318</ele><time>2026-08-09T15:01:17Z</time></trkpt>
    <trkpt lat="47.72577" lon="14.04146"><ele>1310</ele><time>2026-08-09T15:01:46Z</time></trkpt>
    <trkpt lat="47.72588" lon="14.04151"><ele>1305</ele><time>2026-08-09T15:02:15Z</time></trkpt>
    <trkpt lat="47.72595" lon="14.04135"><ele>1298</ele><time>2026-08-09T15:02:45Z</time></trkpt>
    <trkpt lat="47.72609" lon="14.04145"><ele>1292</ele><time>2026-08-09T15:03:14Z</time></trkpt>
    <trkpt lat="47.72628" lon="14.04162"><ele>1286</ele><time>2026-08-09T15:03:43Z</time></trkpt>
    <trkpt lat="47.72646" lon="14.04185"><ele>1285</ele><time>2026-08-09T15:04:13Z</time></trkpt>
    <trkpt lat="47.72658" lon="14.04187"><ele>1282</ele><time>2026-08-09T15:04:42Z</time></trkpt>
    <trkpt lat="47.72663" lon="14.04173"><ele>1277</ele><time>2026-08-09T15:05:11Z</time></trkpt>
    <trkpt lat="47.72671" lon="14.04162"><ele>1270</ele><time>2026-08-09T15:05:41Z</time></trkpt>
    <trkpt lat="47.72665" lon="14.04151"><ele>1263</ele><time>2026-08-09T15:06:10Z</time></trkpt>
    <trkpt lat="47.72667" lon="14.04138"><ele>1261</ele><time>2026-08-09T15:06:39Z</time></trkpt>
    <trkpt lat="47.72666" lon="14.04127"><ele>1255</ele><time>2026-08-09T15:07:09Z</time></trkpt>
    <trkpt lat="47.72675" lon="14.04112"><ele>1250</ele><time>2026-08-09T15:07:38Z</time></trkpt>
    <trkpt lat="47.72669" lon="14.04106"><ele>1245</ele><time>2026-08-09T15:08:07Z</time></trkpt>
    <trkpt lat="47.72671" lon="14.04085"><ele>1236</ele><time>2026-08-09T15:08:37Z</time></trkpt>
    <trkpt lat="47.72688" lon="14.04078"><ele>1230</ele><time>2026-08-09T15:09:06Z</time></trkpt>
    <trkpt lat="47.72686" lon="14.04066"><ele>1226</ele><time>2026-08-09T15:09:35Z</time></trkpt>
    <trkpt lat="47.72691" lon="14.04054"><ele>1218</ele><time>2026-08-09T15:10:05Z</time></trkpt>
    <trkpt lat="47.72694" lon="14.04044"><ele>1212</ele><time>2026-08-09T15:10:34Z</time></trkpt>
    <trkpt lat="47.72690" lon="14.04025"><ele>1207</ele><time>2026-08-09T15:11:03Z</time></trkpt>
    <trkpt lat="47.72700" lon="14.04024"><ele>1201</ele><time>2026-08-09T15:11:33Z</time></trkpt>
    <trkpt lat="47.72713" lon="14.04022"><ele>1195</ele><time>2026-08-09T15:12:02Z</time></trkpt>
    <trkpt lat="47.72704" lon="14.03999"><ele>1188</ele><time>2026-08-09T15:12:31Z</time></trkpt>
    <trkpt lat="47.72722" lon="14.03999"><ele>1184</ele><time>2026-08-09T15:13:01Z</time></trkpt>
    <trkpt lat="47.72720" lon="14.03972"><ele>1180</ele><time>2026-08-09T15:13:30Z</time></trkpt>
    <trkpt lat="47.72734" lon="14.03992"><ele>1177</ele><time>2026-08-09T15:13:59Z</time></trkpt>
    <trkpt lat="47.72739" lon="14.03980"><ele>1171</ele><time>2026-08-09T15:14:29Z</time></trkpt>
    <trkpt lat="47.72747" lon="14.03984"><ele>1167</ele><time>2026-08-09T15:14:58Z</time></trkpt>
    <trkpt lat="47.72758" lon="14.04000"><ele>1166</ele><time>2026-08-09T15:15:27Z</time></trkpt>
    <trkpt lat="47.72766" lon="14.03984"><ele>1158</ele><time>2026-08-09T15:15:57Z</time></trkpt>
    <trkpt lat="47.72775" lon="14.03979"><ele>1152</ele><time>2026-08-09T15:16:26Z</time></trkpt>
    <trkpt lat="47.72782" lon="14.03972"><ele>1145</ele><time>2026-08-09T15:16:55Z</time></trkpt>
    <trkpt lat="47.72788" lon="14.03964"><ele>1142</ele><time>2026-08-09T15:17:25Z</time></trkpt>
    <trkpt lat="47.72789" lon="14.03946"><ele>1137</ele><time>2026-08-09T15:17:54Z</time></trkpt>
    <trkpt lat="47.72789" lon="14.03936"><ele>1132</ele><time>2026-08-09T15:18:23Z</time></trkpt>
    <trkpt lat="47.72773" lon="14.03912"><ele>1128</ele><time>2026-08-09T15:18:53Z</time></trkpt>
    <trkpt lat="47.72759" lon="14.03895"><ele>1126</ele><time>2026-08-09T15:19:22Z</time></trkpt>
    <trkpt lat="47.72747" lon="14.03888"><ele>1120</ele><time>2026-08-09T15:19:51Z</time></trkpt>
    <trkpt lat="47.72743" lon="14.03873"><ele>1114</ele><time>2026-08-09T15:20:21Z</time></trkpt>
    <trkpt lat="47.72740" lon="14.03855"><ele>1108</ele><time>2026-08-09T15:20:50Z</time></trkpt>
    <trkpt lat="47.72737" lon="14.03838"><ele>1101</ele><time>2026-08-09T15:21:19Z</time></trkpt>
    <trkpt lat="47.72738" lon="14.03829"><ele>1092</ele><time>2026-08-09T15:21:49Z</time></trkpt>
    <trkpt lat="47.72724" lon="14.03844"><ele>1084</ele><time>2026-08-09T15:22:18Z</time></trkpt>
    <trkpt lat="47.72718" lon="14.03867"><ele>1083</ele><time>2026-08-09T15:22:47Z</time></trkpt>
    <trkpt lat="47.72703" lon="14.03853"><ele>1076</ele><time>2026-08-09T15:23:17Z</time></trkpt>
    <trkpt lat="47.72709" lon="14.03845"><ele>1067</ele><time>2026-08-09T15:23:47Z</time></trkpt>
    <trkpt lat="47.72704" lon="14.03830"><ele>1061</ele><time>2026-08-09T15:24:17Z</time></trkpt>
    <trkpt lat="47.72710" lon="14.03820"><ele>1054</ele><time>2026-08-09T15:24:46Z</time></trkpt>
    <trkpt lat="47.72708" lon="14.03808"><ele>1049</ele><time>2026-08-09T15:25:15Z</time></trkpt>
    <trkpt lat="47.72715" lon="14.03792"><ele>1043</ele><time>2026-08-09T15:25:45Z</time></trkpt>
    <trkpt lat="47.72728" lon="14.03784"><ele>1038</ele><time>2026-08-09T15:26:14Z</time></trkpt>
    <trkpt lat="47.72745" lon="14.03793"><ele>1037</ele><time>2026-08-09T15:26:43Z</time></trkpt>
    <trkpt lat="47.72763" lon="14.03801"><ele>1029</ele><time>2026-08-09T15:27:13Z</time></trkpt>
    <trkpt lat="47.72783" lon="14.03806"><ele>1022</ele><time>2026-08-09T15:27:42Z</time></trkpt>
    <trkpt lat="47.72802" lon="14.03815"><ele>1011</ele><time>2026-08-09T15:28:11Z</time></trkpt>
    <trkpt lat="47.72827" lon="14.03821"><ele>1008</ele><time>2026-08-09T15:28:41Z</time></trkpt>
    <trkpt lat="47.72845" lon="14.03821"><ele>1006</ele><time>2026-08-09T15:29:10Z</time></trkpt>
    <trkpt lat="47.72860" lon="14.03827"><ele>1004</ele><time>2026-08-09T15:29:39Z</time></trkpt>
    <trkpt lat="47.72874" lon="14.03820"><ele>1007</ele><time>2026-08-09T15:30:09Z</time></trkpt>
    <trkpt lat="47.72897" lon="14.03800"><ele>1007</ele><time>2026-08-09T15:30:38Z</time></trkpt>
    <trkpt lat="47.72907" lon="14.03780"><ele>1006</ele><time>2026-08-09T15:31:07Z</time></trkpt>
    <trkpt lat="47.72922" lon="14.03761"><ele>1003</ele><time>2026-08-09T15:31:37Z</time></trkpt>
    <trkpt lat="47.72933" lon="14.03739"><ele>997</ele><time>2026-08-09T15:32:06Z</time></trkpt>
    <trkpt lat="47.72947" lon="14.03720"><ele>993</ele><time>2026-08-09T15:32:35Z</time></trkpt>
    <trkpt lat="47.72966" lon="14.03706"><ele>986</ele><time>2026-08-09T15:33:05Z</time></trkpt>
    <trkpt lat="47.72979" lon="14.03688"><ele>983</ele><time>2026-08-09T15:33:34Z</time></trkpt>
    <trkpt lat="47.73002" lon="14.03674"><ele>978</ele><time>2026-08-09T15:34:03Z</time></trkpt>
    <trkpt lat="47.73022" lon="14.03653"><ele>974</ele><time>2026-08-09T15:34:32Z</time></trkpt>
    <trkpt lat="47.73042" lon="14.03631"><ele>971</ele><time>2026-08-09T15:35:01Z</time></trkpt>
    <trkpt lat="47.73061" lon="14.03611"><ele>966</ele><time>2026-08-09T15:35:30Z</time></trkpt>
    <trkpt lat="47.73079" lon="14.03587"><ele>958</ele><time>2026-08-09T15:35:59Z</time></trkpt>
    <trkpt lat="47.73097" lon="14.03566"><ele>954</ele><time>2026-08-09T15:36:29Z</time></trkpt>
    <trkpt lat="47.73112" lon="14.03530"><ele>950</ele><time>2026-08-09T15:36:58Z</time></trkpt>
    <trkpt lat="47.73127" lon="14.03508"><ele>946</ele><time>2026-08-09T15:37:27Z</time></trkpt>
    <trkpt lat="47.73140" lon="14.03477"><ele>940</ele><time>2026-08-09T15:37:57Z</time></trkpt>
    <trkpt lat="47.73154" lon="14.03451"><ele>936</ele><time>2026-08-09T15:38:26Z</time></trkpt>
    <trkpt lat="47.73160" lon="14.03435"><ele>935</ele><time>2026-08-09T15:39:25Z</time></trkpt>
    <trkpt lat="47.73156" lon="14.03402"><ele>934</ele><time>2026-08-09T15:39:54Z</time></trkpt>
    <trkpt lat="47.73162" lon="14.03397"><ele>934</ele><time>2026-08-09T15:43:19Z</time></trkpt>
    <trkpt lat="47.73187" lon="14.03189"><ele>920</ele><time>2026-08-09T15:43:49Z</time></trkpt>
    <trkpt lat="47.73175" lon="14.03093"><ele>913</ele><time>2026-08-09T15:44:18Z</time></trkpt>
    <trkpt lat="47.73168" lon="14.03087"><ele>911</ele><time>2026-08-09T15:44:47Z</time></trkpt>
    <trkpt lat="47.73167" lon="14.02986"><ele>898</ele><time>2026-08-09T15:45:17Z</time></trkpt>
    <trkpt lat="47.73318" lon="14.02942"><ele>895</ele><time>2026-08-09T15:45:46Z</time></trkpt>
    <trkpt lat="47.73489" lon="14.02738"><ele>871</ele><time>2026-08-09T15:46:15Z</time></trkpt>
    <trkpt lat="47.73574" lon="14.02653"><ele>863</ele><time>2026-08-09T15:47:43Z</time></trkpt>
    <trkpt lat="47.73579" lon="14.02653"><ele>860</ele><time>2026-08-09T15:48:42Z</time></trkpt>
    <trkpt lat="47.73644" lon="14.02636"><ele>864</ele><time>2026-08-09T15:49:41Z</time></trkpt>
    <trkpt lat="47.73806" lon="14.02590"><ele>860</ele><time>2026-08-09T15:50:10Z</time></trkpt>
    <trkpt lat="47.73910" lon="14.02503"><ele>854</ele><time>2026-08-09T15:50:39Z</time></trkpt>
    <trkpt lat="47.74020" lon="14.02465"><ele>852</ele><time>2026-08-09T15:51:38Z</time></trkpt>
    <trkpt lat="47.74191" lon="14.02497"><ele>845</ele><time>2026-08-09T15:52:07Z</time></trkpt>
    <trkpt lat="47.74359" lon="14.02481"><ele>842</ele><time>2026-08-09T15:52:37Z</time></trkpt>
    <trkpt lat="47.74354" lon="14.02591"><ele>827</ele><time>2026-08-09T15:53:06Z</time></trkpt>
    <trkpt lat="47.74520" lon="14.02461"><ele>825</ele><time>2026-08-09T15:53:35Z</time></trkpt>
    <trkpt lat="47.74665" lon="14.02359"><ele>809</ele><time>2026-08-09T15:54:05Z</time></trkpt>
    <trkpt lat="47.74668" lon="14.02310"><ele>798</ele><time>2026-08-09T15:54:34Z</time></trkpt>
    <trkpt lat="47.74669" lon="14.02293"><ele>796</ele><time>2026-08-09T15:56:02Z</time></trkpt>
    <trkpt lat="47.74818" lon="14.02249"><ele>791</ele><time>2026-08-09T15:56:31Z</time></trkpt>
    <trkpt lat="47.74982" lon="14.02139"><ele>781</ele><time>2026-08-09T15:57:01Z</time></trkpt>
    <trkpt lat="47.74976" lon="14.02233"><ele>777</ele><time>2026-08-09T15:57:30Z</time></trkpt>
    <trkpt lat="47.75054" lon="14.02321"><ele>784</ele><time>2026-08-09T15:57:59Z</time></trkpt>
    <trkpt lat="47.75158" lon="14.02335"><ele>782</ele><time>2026-08-09T15:58:29Z</time></trkpt>
    <trkpt lat="47.75296" lon="14.02389"><ele>777</ele><time>2026-08-09T15:58:58Z</time></trkpt>
    <trkpt lat="47.75364" lon="14.02292"><ele>752</ele><time>2026-08-09T15:59:27Z</time></trkpt>
    <trkpt lat="47.75410" lon="14.02157"><ele>738</ele><time>2026-08-09T15:59:57Z</time></trkpt>
    <trkpt lat="47.75583" lon="14.02081"><ele>728</ele><time>2026-08-09T16:00:26Z</time></trkpt>
    <trkpt lat="47.75569" lon="14.01904"><ele>720</ele><time>2026-08-09T16:00:55Z</time></trkpt>
    <trkpt lat="47.75529" lon="14.01798"><ele>717</ele><time>2026-08-09T16:01:25Z</time></trkpt>
    <trkpt lat="47.75570" lon="14.01719"><ele>716</ele><time>2026-08-09T16:01:54Z</time></trkpt>
  </trkseg>
</trk>
</gpx>