<?xml version="1.0" encoding="UTF-8"?>
<gpx version="1.1" creator="GPX-Pro" xmlns="http://www.topografix.com/GPX/1/1">
<trk>
  <name>Mtb_GrünerSee</name>
  <trkseg>
    <trkpt lat="47.50749" lon="15.07542"><ele>748</ele><time>2026-08-11T10:37:55Z</time></trkpt>
    <trkpt lat="47.50878" lon="15.07591"><ele>744</ele><time>2026-08-11T10:38:25Z</time></trkpt>
    <trkpt lat="47.50902" lon="15.07570"><ele>746</ele><time>2026-08-11T10:38:54Z</time></trkpt>
    <trkpt lat="47.50874" lon="15.07466"><ele>751</ele><time>2026-08-11T10:39:23Z</time></trkpt>
    <trkpt lat="47.50837" lon="15.07347"><ele>751</ele><time>2026-08-11T10:39:53Z</time></trkpt>
    <trkpt lat="47.50846" lon="15.07364"><ele>749</ele><time>2026-08-11T10:40:22Z</time></trkpt>
    <trkpt lat="47.50914" lon="15.07462"><ele>749</ele><time>2026-08-11T10:40:51Z</time></trkpt>
    <trkpt lat="47.51038" lon="15.07491"><ele>747</ele><time>2026-08-11T10:41:21Z</time></trkpt>
    <trkpt lat="47.51134" lon="15.07391"><ele>747</ele><time>2026-08-11T10:41:50Z</time></trkpt>
    <trkpt lat="47.51241" lon="15.07322"><ele>750</ele><time>2026-08-11T10:42:19Z</time></trkpt>
    <trkpt lat="47.51362" lon="15.07290"><ele>750</ele><time>2026-08-11T10:42:49Z</time></trkpt>
    <trkpt lat="47.51448" lon="15.07253"><ele>750</ele><time>2026-08-11T10:43:18Z</time></trkpt>
    <trkpt lat="47.51531" lon="15.07242"><ele>750</ele><time>2026-08-11T10:43:47Z</time></trkpt>
    <trkpt lat="47.51615" lon="15.07213"><ele>753</ele><time>2026-08-11T10:44:17Z</time></trkpt>
    <trkpt lat="47.51697" lon="15.07167"><ele>756</ele><time>2026-08-11T10:44:46Z</time></trkpt>
    <trkpt lat="47.51791" lon="15.07142"><ele>758</ele><time>2026-08-11T10:45:15Z</time></trkpt>
    <trkpt lat="47.51887" lon="15.07125"><ele>759</ele><time>2026-08-11T10:45:45Z</time></trkpt>
    <trkpt lat="47.51976" lon="15.07088"><ele>763</ele><time>2026-08-11T10:46:14Z</time></trkpt>
    <trkpt lat="47.52099" lon="15.07025"><ele>766</ele><time>2026-08-11T10:46:43Z</time></trkpt>
    <trkpt lat="47.52277" lon="15.06920"><ele>759</ele><time>2026-08-11T10:47:13Z</time></trkpt>
    <trkpt lat="47.52482" lon="15.06897"><ele>751</ele><time>2026-08-11T10:47:42Z</time></trkpt>
    <trkpt lat="47.52616" lon="15.06949"><ele>750</ele><time>2026-08-11T10:48:11Z</time></trkpt>
    <trkpt lat="47.52692" lon="15.06979"><ele>751</ele><time>2026-08-11T10:48:41Z</time></trkpt>
    <trkpt lat="47.52891" lon="15.06885"><ele>750</ele><time>2026-08-11T10:49:10Z</time></trkpt>
    <trkpt lat="47.52960" lon="15.06835"><ele>749</ele><time>2026-08-11T10:49:39Z</time></trkpt>
    <trkpt lat="47.52985" lon="15.06911"><ele>751</ele><time>2026-08-11T10:50:09Z</time></trkpt>
    <trkpt lat="47.53090" lon="15.06907"><ele>752</ele><time>2026-08-11T10:50:38Z</time></trkpt>
    <trkpt lat="47.53190" lon="15.06931"><ele>759</ele><time>2026-08-11T10:51:07Z</time></trkpt>
    <trkpt lat="47.53288" lon="15.06933"><ele>761</ele><time>2026-08-11T10:51:37Z</time></trkpt>
    <trkpt lat="47.53376" lon="15.06939"><ele>762</ele><time>2026-08-11T10:52:06Z</time></trkpt>
    <trkpt lat="47.53478" lon="15.06963"><ele>765</ele><time>2026-08-11T10:52:35Z</time></trkpt>
    <trkpt lat="47.53609" lon="15.06888"><ele>762</ele><time>2026-08-11T10:53:05Z</time></trkpt>
    <trkpt lat="47.53658" lon="15.06738"><ele>761</ele><time>2026-08-11T10:53:34Z</time></trkpt>
    <trkpt lat="47.53658" lon="15.06731"><ele>758</ele><time>2026-08-11T10:54:03Z</time></trkpt>
    <trkpt lat="47.53684" lon="15.06627"><ele>757</ele><time>2026-08-11T10:54:33Z</time></trkpt>
    <trkpt lat="47.53755" lon="15.06534"><ele>756</ele><time>2026-08-11T10:55:02Z</time></trkpt>
    <trkpt lat="47.53757" lon="15.06526"><ele>755</ele><time>2026-08-11T10:55:31Z</time></trkpt>
    <trkpt lat="47.53762" lon="15.06532"><ele>755</ele><time>2026-08-11T10:56:30Z</time></trkpt>
    <trkpt lat="47.53761" lon="15.06524"><ele>759</ele><time>2026-08-11T10:57:58Z</time></trkpt>
    <trkpt lat="47.53786" lon="15.06478"><ele>756</ele><time>2026-08-11T10:58:57Z</time></trkpt>
    <trkpt lat="47.53845" lon="15.06425"><ele>762</ele><time>2026-08-11T10:59:26Z</time></trkpt>
    <trkpt lat="47.53890" lon="15.06345"><ele>766</ele><time>2026-08-11T10:59:55Z</time></trkpt>
    <trkpt lat="47.53921" lon="15.06192"><ele>770</ele><time>2026-08-11T11:00:25Z</time></trkpt>
    <trkpt lat="47.53962" lon="15.06088"><ele>773</ele><time>2026-08-11T11:00:54Z</time></trkpt>
    <trkpt lat="47.53975" lon="15.05965"><ele>778</ele><time>2026-08-11T11:01:23Z</time></trkpt>
    <trkpt lat="47.53943" lon="15.05798"><ele>777</ele><time>2026-08-11T11:01:53Z</time></trkpt>
    <trkpt lat="47.54009" lon="15.05675"><ele>780</ele><time>2026-08-11T11:02:22Z</time></trkpt>
    <trkpt lat="47.54024" lon="15.05663"><ele>777</ele><time>2026-08-11T11:02:51Z</time></trkpt>
    <trkpt lat="47.54030" lon="15.05663"><ele>777</ele><time>2026-08-11T11:05:49Z</time></trkpt>
    <trkpt lat="47.54035" lon="15.05663"><ele>776</ele><time>2026-08-11T11:06:18Z</time></trkpt>
    <trkpt lat="47.54047" lon="15.05635"><ele>779</ele><time>2026-08-11T11:08:15Z</time></trkpt>
    <trkpt lat="47.54073" lon="15.05603"><ele>774</ele><time>2026-08-11T11:08:45Z</time></trkpt>
    <trkpt lat="47.54095" lon="15.05591"><ele>772</ele><time>2026-08-11T11:09:14Z</time></trkpt>
    <trkpt lat="47.54119" lon="15.05607"><ele>772</ele><time>2026-08-11T11:09:43Z</time></trkpt>
    <trkpt lat="47.54137" lon="15.05617"><ele>773</ele><time>2026-08-11T11:10:13Z</time></trkpt>
    <trkpt lat="47.54144" lon="15.05629"><ele>771</ele><time>2026-08-11T11:10:42Z</time></trkpt>
    <trkpt lat="47.54152" lon="15.05639"><ele>766</ele><time>2026-08-11T11:11:41Z</time></trkpt>
    <trkpt lat="47.54148" lon="15.05650"><ele>764</ele><time>2026-08-11T11:14:37Z</time></trkpt>
    <trkpt lat="47.54140" lon="15.05653"><ele>766</ele><time>2026-08-11T11:15:06Z</time></trkpt>
    <trkpt lat="47.54162" lon="15.05683"><ele>768</ele><time>2026-08-11T11:16:05Z</time></trkpt>
    <trkpt lat="47.54183" lon="15.05703"><ele>769</ele><time>2026-08-11T11:16:34Z</time></trkpt>
    <trkpt lat="47.54198" lon="15.05721"><ele>771</ele><time>2026-08-11T11:17:03Z</time></trkpt>
    <trkpt lat="47.54220" lon="15.05742"><ele>772</ele><time>2026-08-11T11:17:33Z</time></trkpt>
    <trkpt lat="47.54229" lon="15.05740"><ele>768</ele><time>2026-08-11T11:18:02Z</time></trkpt>
    <trkpt lat="47.54248" lon="15.05744"><ele>769</ele><time>2026-08-11T11:18:31Z</time></trkpt>
    <trkpt lat="47.54270" lon="15.05744"><ele>770</ele><time>2026-08-11T11:19:01Z</time></trkpt>
    <trkpt lat="47.54277" lon="15.05740"><ele>768</ele><time>2026-08-11T11:21:27Z</time></trkpt>
    <trkpt lat="47.54272" lon="15.05757"><ele>767</ele><time>2026-08-11T11:22:26Z</time></trkpt>
    <trkpt lat="47.54259" lon="15.05762"><ele>769</ele><time>2026-08-11T11:22:55Z</time></trkpt>
    <trkpt lat="47.54255" lon="15.05772"><ele>770</ele><time>2026-08-11T11:24:23Z</time></trkpt>
    <trkpt lat="47.54244" lon="15.05783"><ele>773</ele><time>2026-08-11T11:24:53Z</time></trkpt>
    <trkpt lat="47.54225" lon="15.05766"><ele>776</ele><time>2026-08-11T11:25:22Z</time></trkpt>
    <trkpt lat="47.54199" lon="15.05755"><ele>782</ele><time>2026-08-11T11:25:51Z</time></trkpt>
    <trkpt lat="47.54180" lon="15.05732"><ele>783</ele><time>2026-08-11T11:26:21Z</time></trkpt>
    <trkpt lat="47.54158" lon="15.05713"><ele>786</ele><time>2026-08-11T11:26:50Z</time></trkpt>
    <trkpt lat="47.54132" lon="15.05682"><ele>789</ele><time>2026-08-11T11:27:19Z</time></trkpt>
    <trkpt lat="47.54117" lon="15.05692"><ele>787</ele><time>2026-08-11T11:27:49Z</time></trkpt>
    <trkpt lat="47.54104" lon="15.05721"><ele>783</ele><time>2026-08-11T11:28:18Z</time></trkpt>
    <trkpt lat="47.54083" lon="15.05697"><ele>781</ele><time>2026-08-11T11:28:47Z</time></trkpt>
    <trkpt lat="47.54060" lon="15.05681"><ele>779</ele><time>2026-08-11T11:29:17Z</time></trkpt>
    <trkpt lat="47.54039" lon="15.05662"><ele>780</ele><time>2026-08-11T11:29:46Z</time></trkpt>
    <trkpt lat="47.54034" lon="15.05665"><ele>779</ele><time>2026-08-11T11:30:15Z</time></trkpt>
    <trkpt lat="47.54026" lon="15.05657"><ele>777</ele><time>2026-08-11T11:31:14Z</time></trkpt>
    <trkpt lat="47.54047" lon="15.05595"><ele>778</ele><time>2026-08-11T11:31:43Z</time></trkpt>
    <trkpt lat="47.54074" lon="15.05527"><ele>779</ele><time>2026-08-11T11:32:13Z</time></trkpt>
    <trkpt lat="47.54081" lon="15.05460"><ele>780</ele><time>2026-08-11T11:32:42Z</time></trkpt>
    <trkpt lat="47.54081" lon="15.05451"><ele>780</ele><time>2026-08-11T11:32:46Z</time></trkpt>
    <trkpt lat="47.54084" lon="15.05368"><ele>783</ele><time>2026-08-11T11:33:15Z</time></trkpt>
    <trkpt lat="47.54090" lon="15.05310"><ele>789</ele><time>2026-08-11T11:33:44Z</time></trkpt>
    <trkpt lat="47.54111" lon="15.05265"><ele>795</ele><time>2026-08-11T11:34:13Z</time></trkpt>
    <trkpt lat="47.54132" lon="15.05223"><ele>802</ele><time>2026-08-11T11:34:43Z</time></trkpt>
    <trkpt lat="47.54150" lon="15.05185"><ele>807</ele><time>2026-08-11T11:35:13Z</time></trkpt>
    <trkpt lat="47.54165" lon="15.05142"><ele>813</ele><time>2026-08-11T11:35:42Z</time></trkpt>
    <trkpt lat="47.54180" lon="15.05110"><ele>812</ele><time>2026-08-11T11:36:11Z</time></trkpt>
    <trkpt lat="47.54204" lon="15.05079"><ele>814</ele><time>2026-08-11T11:36:40Z</time></trkpt>
    <trkpt lat="47.54224" lon="15.05041"><ele>818</ele><time>2026-08-11T11:37:09Z</time></trkpt>
    <trkpt lat="47.54258" lon="15.05012"><ele>823</ele><time>2026-08-11T11:37:39Z</time></trkpt>
    <trkpt lat="47.54281" lon="15.04977"><ele>831</ele><time>2026-08-11T11:38:08Z</time></trkpt>
    <trkpt lat="47.54298" lon="15.04946"><ele>838</ele><time>2026-08-11T11:38:37Z</time></trkpt>
    <trkpt lat="47.54307" lon="15.04899"><ele>845</ele><time>2026-08-11T11:39:07Z</time></trkpt>
    <trkpt lat="47.54333" lon="15.04856"><ele>849</ele><time>2026-08-11T11:39:36Z</time></trkpt>
    <trkpt lat="47.54332" lon="15.04840"><ele>852</ele><time>2026-08-11T11:40:05Z</time></trkpt>
    <trkpt lat="47.54308" lon="15.04852"><ele>852</ele><time>2026-08-11T11:40:08Z</time></trkpt>
    <trkpt lat="47.54290" lon="15.04878"><ele>856</ele><time>2026-08-11T11:40:37Z</time></trkpt>
    <trkpt lat="47.54257" lon="15.04897"><ele>857</ele><time>2026-08-11T11:41:02Z</time></trkpt>
    <trkpt lat="47.54194" lon="15.04904"><ele>861</ele><time>2026-08-11T11:41:31Z</time></trkpt>
    <trkpt lat="47.54194" lon="15.04879"><ele>865</ele><time>2026-08-11T11:42:00Z</time></trkpt>
    <trkpt lat="47.54223" lon="15.04878"><ele>868</ele><time>2026-08-11T11:42:13Z</time></trkpt>
    <trkpt lat="47.54250" lon="15.04859"><ele>870</ele><time>2026-08-11T11:42:43Z</time></trkpt>
    <trkpt lat="47.54265" lon="15.04826"><ele>871</ele><time>2026-08-11T11:43:12Z</time></trkpt>
    <trkpt lat="47.54273" lon="15.04776"><ele>872</ele><time>2026-08-11T11:43:41Z</time></trkpt>
    <trkpt lat="47.54281" lon="15.04718"><ele>876</ele><time>2026-08-11T11:44:11Z</time></trkpt>
    <trkpt lat="47.54279" lon="15.04712"><ele>876</ele><time>2026-08-11T11:44:14Z</time></trkpt>
    <trkpt lat="47.54272" lon="15.04662"><ele>879</ele><time>2026-08-11T11:44:43Z</time></trkpt>
    <trkpt lat="47.54278" lon="15.04609"><ele>882</ele><time>2026-08-11T11:45:12Z</time></trkpt>
    <trkpt lat="47.54281" lon="15.04590"><ele>884</ele><time>2026-08-11T11:45:24Z</time></trkpt>
    <trkpt lat="47.54274" lon="15.04539"><ele>887</ele><time>2026-08-11T11:45:53Z</time></trkpt>
    <trkpt lat="47.54264" lon="15.04524"><ele>892</ele><time>2026-08-11T11:46:23Z</time></trkpt>
    <trkpt lat="47.54263" lon="15.04476"><ele>893</ele><time>2026-08-11T11:46:51Z</time></trkpt>
    <trkpt lat="47.54261" lon="15.04454"><ele>894</ele><time>2026-08-11T11:47:20Z</time></trkpt>
    <trkpt lat="47.54246" lon="15.04358"><ele>903</ele><time>2026-08-11T11:47:49Z</time></trkpt>
    <trkpt lat="47.54218" lon="15.04293"><ele>908</ele><time>2026-08-11T11:48:19Z</time></trkpt>
    <trkpt lat="47.54209" lon="15.04192"><ele>913</ele><time>2026-08-11T11:48:48Z</time></trkpt>
    <trkpt lat="47.54245" lon="15.04087"><ele>916</ele><time>2026-08-11T11:49:17Z</time></trkpt>
    <trkpt lat="47.54351" lon="15.03958"><ele>921</ele><time>2026-08-11T11:49:47Z</time></trkpt>
    <trkpt lat="47.54391" lon="15.03973"><ele>927</ele><time>2026-08-11T11:50:16Z</time></trkpt>
    <trkpt lat="47.54460" lon="15.03924"><ele>927</ele><time>2026-08-11T11:50:45Z</time></trkpt>
    <trkpt lat="47.54511" lon="15.03841"><ele>930</ele><time>2026-08-11T11:51:15Z</time></trkpt>
    <trkpt lat="47.54583" lon="15.03844"><ele>923</ele><time>2026-08-11T11:51:44Z</time></trkpt>
    <trkpt lat="47.54640" lon="15.03756"><ele>921</ele><time>2026-08-11T11:52:13Z</time></trkpt>
    <trkpt lat="47.54704" lon="15.03627"><ele>911</ele><time>2026-08-11T11:52:43Z</time></trkpt>
    <trkpt lat="47.54704" lon="15.03554"><ele>912</ele><time>2026-08-11T11:53:12Z</time></trkpt>
    <trkpt lat="47.54722" lon="15.03564"><ele>903</ele><time>2026-08-11T11:53:41Z</time></trkpt>
    <trkpt lat="47.54786" lon="15.03728"><ele>900</ele><time>2026-08-11T11:53:54Z</time></trkpt>
    <trkpt lat="47.54890" lon="15.03743"><ele>896</ele><time>2026-08-11T11:54:23Z</time></trkpt>
    <trkpt lat="47.54952" lon="15.03779"><ele>891</ele><time>2026-08-11T11:54:52Z</time></trkpt>
    <trkpt lat="47.55121" lon="15.03653"><ele>886</ele><time>2026-08-11T11:55:21Z</time></trkpt>
    <trkpt lat="47.55216" lon="15.03555"><ele>880</ele><time>2026-08-11T11:55:51Z</time></trkpt>
    <trkpt lat="47.55257" lon="15.03523"><ele>882</ele><time>2026-08-11T11:56:20Z</time></trkpt>
    <trkpt lat="47.55256" lon="15.03507"><ele>877</ele><time>2026-08-11T11:56:49Z</time></trkpt>
    <trkpt lat="47.55298" lon="15.03499"><ele>887</ele><time>2026-08-11T11:58:17Z</time></trkpt>
    <trkpt lat="47.55412" lon="15.03438"><ele>891</ele><time>2026-08-11T11:58:47Z</time></trkpt>
    <trkpt lat="47.55495" lon="15.03329"><ele>890</ele><time>2026-08-11T11:59:16Z</time></trkpt>
    <trkpt lat="47.55541" lon="15.03253"><ele>888</ele><time>2026-08-11T11:59:32Z</time></trkpt>
    <trkpt lat="47.55623" lon="15.03185"><ele>889</ele><time>2026-08-11T12:00:01Z</time></trkpt>
    <trkpt lat="47.55688" lon="15.03147"><ele>890</ele><time>2026-08-11T12:00:31Z</time></trkpt>
    <trkpt lat="47.55769" lon="15.03119"><ele>891</ele><time>2026-08-11T12:01:00Z</time></trkpt>
    <trkpt lat="47.55890" lon="15.03142"><ele>894</ele><time>2026-08-11T12:01:29Z</time></trkpt>
    <trkpt lat="47.56031" lon="15.03116"><ele>895</ele><time>2026-08-11T12:01:59Z</time></trkpt>
    <trkpt lat="47.56136" lon="15.03002"><ele>892</ele><time>2026-08-11T12:02:28Z</time></trkpt>
    <trkpt lat="47.56149" lon="15.02990"><ele>894</ele><time>2026-08-11T12:02:57Z</time></trkpt>
    <trkpt lat="47.56160" lon="15.02926"><ele>892</ele><time>2026-08-11T12:03:27Z</time></trkpt>
    <trkpt lat="47.56100" lon="15.03027"><ele>890</ele><time>2026-08-11T12:03:56Z</time></trkpt>
    <trkpt lat="47.56022" lon="15.03100"><ele>889</ele><time>2026-08-11T12:04:25Z</time></trkpt>
    <trkpt lat="47.55939" lon="15.03117"><ele>888</ele><time>2026-08-11T12:04:55Z</time></trkpt>
    <trkpt lat="47.55879" lon="15.03108"><ele>892</ele><time>2026-08-11T12:05:24Z</time></trkpt>
    <trkpt lat="47.55788" lon="15.03093"><ele>894</ele><time>2026-08-11T12:05:53Z</time></trkpt>
    <trkpt lat="47.55651" lon="15.03135"><ele>894</ele><time>2026-08-11T12:06:23Z</time></trkpt>
    <trkpt lat="47.55533" lon="15.03252"><ele>886</ele><time>2026-08-11T12:06:52Z</time></trkpt>
    <trkpt lat="47.55521" lon="15.03266"><ele>885</ele><time>2026-08-11T12:07:21Z</time></trkpt>
    <trkpt lat="47.55491" lon="15.03300"><ele>886</ele><time>2026-08-11T12:07:51Z</time></trkpt>
    <trkpt lat="47.55378" lon="15.03423"><ele>886</ele><time>2026-08-11T12:08:20Z</time></trkpt>
    <trkpt lat="47.55219" lon="15.03514"><ele>887</ele><time>2026-08-11T12:08:49Z</time></trkpt>
    <trkpt lat="47.55076" lon="15.03677"><ele>881</ele><time>2026-08-11T12:09:19Z</time></trkpt>
    <trkpt lat="47.54940" lon="15.03773"><ele>880</ele><time>2026-08-11T12:09:48Z</time></trkpt>
    <trkpt lat="47.54881" lon="15.03720"><ele>881</ele><time>2026-08-11T12:10:17Z</time></trkpt>
    <trkpt lat="47.54827" lon="15.03711"><ele>887</ele><time>2026-08-11T12:10:47Z</time></trkpt>
    <trkpt lat="47.54791" lon="15.03773"><ele>892</ele><time>2026-08-11T12:11:16Z</time></trkpt>
    <trkpt lat="47.54750" lon="15.03792"><ele>902</ele><time>2026-08-11T12:11:45Z</time></trkpt>
    <trkpt lat="47.54713" lon="15.03791"><ele>906</ele><time>2026-08-11T12:12:15Z</time></trkpt>
    <trkpt lat="47.54670" lon="15.03787"><ele>911</ele><time>2026-08-11T12:12:44Z</time></trkpt>
    <trkpt lat="47.54635" lon="15.03814"><ele>915</ele><time>2026-08-11T12:13:13Z</time></trkpt>
    <trkpt lat="47.54560" lon="15.03948"><ele>917</ele><time>2026-08-11T12:13:43Z</time></trkpt>
    <trkpt lat="47.54526" lon="15.03953"><ele>923</ele><time>2026-08-11T12:14:12Z</time></trkpt>
    <trkpt lat="47.54459" lon="15.03984"><ele>928</ele><time>2026-08-11T12:14:41Z</time></trkpt>
    <trkpt lat="47.54349" lon="15.04117"><ele>920</ele><time>2026-08-11T12:15:11Z</time></trkpt>
    <trkpt lat="47.54354" lon="15.04141"><ele>917</ele><time>2026-08-11T12:15:40Z</time></trkpt>
    <trkpt lat="47.54362" lon="15.04153"><ele>916</ele><time>2026-08-11T12:16:09Z</time></trkpt>
    <trkpt lat="47.54372" lon="15.04177"><ele>914</ele><time>2026-08-11T12:16:39Z</time></trkpt>
    <trkpt lat="47.54378" lon="15.04193"><ele>915</ele><time>2026-08-11T12:17:08Z</time></trkpt>
    <trkpt lat="47.54392" lon="15.04199"><ele>914</ele><time>2026-08-11T12:17:37Z</time></trkpt>
    <trkpt lat="47.54385" lon="15.04197"><ele>913</ele><time>2026-08-11T12:18:07Z</time></trkpt>
    <trkpt lat="47.54376" lon="15.04181"><ele>914</ele><time>2026-08-11T12:18:36Z</time></trkpt>
    <trkpt lat="47.54345" lon="15.04124"><ele>914</ele><time>2026-08-11T12:19:05Z</time></trkpt>
    <trkpt lat="47.54274" lon="15.04127"><ele>917</ele><time>2026-08-11T12:19:35Z</time></trkpt>
    <trkpt lat="47.54251" lon="15.04194"><ele>919</ele><time>2026-08-11T12:20:04Z</time></trkpt>
    <trkpt lat="47.54281" lon="15.04496"><ele>911</ele><time>2026-08-11T12:20:33Z</time></trkpt>
    <trkpt lat="47.54322" lon="15.04593"><ele>899</ele><time>2026-08-11T12:21:03Z</time></trkpt>
    <trkpt lat="47.54332" lon="15.04695"><ele>887</ele><time>2026-08-11T12:21:32Z</time></trkpt>
    <trkpt lat="47.54328" lon="15.04778"><ele>865</ele><time>2026-08-11T12:22:01Z</time></trkpt>
    <trkpt lat="47.54338" lon="15.04818"><ele>858</ele><time>2026-08-11T12:22:31Z</time></trkpt>
    <trkpt lat="47.54335" lon="15.04849"><ele>856</ele><time>2026-08-11T12:23:00Z</time></trkpt>
    <trkpt lat="47.54310" lon="15.04879"><ele>856</ele><time>2026-08-11T12:23:29Z</time></trkpt>
    <trkpt lat="47.54105" lon="15.05254"><ele>836</ele><time>2026-08-11T12:23:59Z</time></trkpt>
    <trkpt lat="47.54012" lon="15.05650"><ele>796</ele><time>2026-08-11T12:24:28Z</time></trkpt>
    <trkpt lat="47.53946" lon="15.05834"><ele>783</ele><time>2026-08-11T12:24:57Z</time></trkpt>
    <trkpt lat="47.53948" lon="15.06078"><ele>777</ele><time>2026-08-11T12:25:27Z</time></trkpt>
    <trkpt lat="47.53836" lon="15.06416"><ele>767</ele><time>2026-08-11T12:25:56Z</time></trkpt>
    <trkpt lat="47.53762" lon="15.06507"><ele>759</ele><time>2026-08-11T12:26:25Z</time></trkpt>
    <trkpt lat="47.53675" lon="15.06619"><ele>754</ele><time>2026-08-11T12:29:21Z</time></trkpt>
    <trkpt lat="47.53655" lon="15.06803"><ele>755</ele><time>2026-08-11T12:29:51Z</time></trkpt>
    <trkpt lat="47.53581" lon="15.06915"><ele>757</ele><time>2026-08-11T12:30:20Z</time></trkpt>
    <trkpt lat="47.53473" lon="15.06964"><ele>760</ele><time>2026-08-11T12:30:49Z</time></trkpt>
    <trkpt lat="47.53301" lon="15.06933"><ele>758</ele><time>2026-08-11T12:31:19Z</time></trkpt>
    <trkpt lat="47.52992" lon="15.06943"><ele>756</ele><time>2026-08-11T12:31:48Z</time></trkpt>
    <trkpt lat="47.52964" lon="15.06818"><ele>754</ele><time>2026-08-11T12:32:17Z</time></trkpt>
    <trkpt lat="47.52794" lon="15.06919"><ele>752</ele><time>2026-08-11T12:32:47Z</time></trkpt>
    <trkpt lat="47.52658" lon="15.06943"><ele>750</ele><time>2026-08-11T12:33:16Z</time></trkpt>
    <trkpt lat="47.52521" lon="15.06915"><ele>753</ele><time>2026-08-11T12:33:45Z</time></trkpt>
    <trkpt lat="47.52360" lon="15.06886"><ele>751</ele><time>2026-08-11T12:34:15Z</time></trkpt>
    <trkpt lat="47.52261" lon="15.06924"><ele>752</ele><time>2026-08-11T12:34:44Z</time></trkpt>
    <trkpt lat="47.52183" lon="15.06975"><ele>759</ele><time>2026-08-11T12:35:13Z</time></trkpt>
    <trkpt lat="47.52090" lon="15.07032"><ele>762</ele><time>2026-08-11T12:35:43Z</time></trkpt>
    <trkpt lat="47.51988" lon="15.07083"><ele>763</ele><time>2026-08-11T12:36:12Z</time></trkpt>
    <trkpt lat="47.51847" lon="15.07144"><ele>764</ele><time>2026-08-11T12:36:41Z</time></trkpt>
    <trkpt lat="47.51631" lon="15.07206"><ele>757</ele><time>2026-08-11T12:37:11Z</time></trkpt>
    <trkpt lat="47.51418" lon="15.07261"><ele>752</ele><time>2026-08-11T12:37:40Z</time></trkpt>
    <trkpt lat="47.51188" lon="15.07343"><ele>750</ele><time>2026-08-11T12:38:09Z</time></trkpt>
    <trkpt lat="47.51069" lon="15.07452"><ele>749</ele><time>2026-08-11T12:38:39Z</time></trkpt>
    <trkpt lat="47.50991" lon="15.07521"><ele>750</ele><time>2026-08-11T12:39:08Z</time></trkpt>
    <trkpt lat="47.50995" lon="15.07602"><ele>747</ele><time>2026-08-11T12:39:37Z</time></trkpt>
    <trkpt lat="47.50853" lon="15.07608"><ele>746</ele><time>2026-08-11T12:40:06Z</time></trkpt>
    <trkpt lat="47.50722" lon="15.07590"><ele>746</ele><time>2026-08-11T12:40:35Z</time></trkpt>
  </trkseg>
</trk>
</gpx>