<?xml version="1.0" encoding="UTF-8"?>
<gpx version="1.1" creator="GPX-Pro" xmlns="http://www.topografix.com/GPX/1/1">
<trk>
  <name>Mtb_Spechtenseerunde</name>
  <trkseg>
    <trkpt lat="47.50991" lon="14.09786"><ele>652</ele><time>2026-08-02T09:16:00Z</time></trkpt>
    <trkpt lat="47.50987" lon="14.09692"><ele>648</ele><time>2026-08-02T09:16:29Z</time></trkpt>
    <trkpt lat="47.50997" lon="14.09608"><ele>649</ele><time>2026-08-02T09:18:26Z</time></trkpt>
    <trkpt lat="47.50995" lon="14.09577"><ele>649</ele><time>2026-08-02T09:18:55Z</time></trkpt>
    <trkpt lat="47.50965" lon="14.09505"><ele>651</ele><time>2026-08-02T09:19:24Z</time></trkpt>
    <trkpt lat="47.50887" lon="14.09603"><ele>652</ele><time>2026-08-02T09:19:53Z</time></trkpt>
    <trkpt lat="47.50892" lon="14.09779"><ele>652</ele><time>2026-08-02T09:20:22Z</time></trkpt>
    <trkpt lat="47.51109" lon="14.09858"><ele>650</ele><time>2026-08-02T09:20:52Z</time></trkpt>
    <trkpt lat="47.51188" lon="14.09815"><ele>649</ele><time>2026-08-02T09:21:21Z</time></trkpt>
    <trkpt lat="47.51307" lon="14.09720"><ele>649</ele><time>2026-08-02T09:21:50Z</time></trkpt>
    <trkpt lat="47.51420" lon="14.09628"><ele>648</ele><time>2026-08-02T09:22:20Z</time></trkpt>
    <trkpt lat="47.51531" lon="14.09538"><ele>647</ele><time>2026-08-02T09:22:49Z</time></trkpt>
    <trkpt lat="47.51642" lon="14.09449"><ele>648</ele><time>2026-08-02T09:23:18Z</time></trkpt>
    <trkpt lat="47.51775" lon="14.09341"><ele>647</ele><time>2026-08-02T09:23:48Z</time></trkpt>
    <trkpt lat="47.51851" lon="14.09448"><ele>648</ele><time>2026-08-02T09:24:17Z</time></trkpt>
    <trkpt lat="47.51936" lon="14.09565"><ele>647</ele><time>2026-08-02T09:24:46Z</time></trkpt>
    <trkpt lat="47.52034" lon="14.09701"><ele>647</ele><time>2026-08-02T09:25:16Z</time></trkpt>
    <trkpt lat="47.52132" lon="14.09833"><ele>648</ele><time>2026-08-02T09:25:45Z</time></trkpt>
    <trkpt lat="47.52230" lon="14.09965"><ele>646</ele><time>2026-08-02T09:26:14Z</time></trkpt>
    <trkpt lat="47.52328" lon="14.10103"><ele>647</ele><time>2026-08-02T09:26:44Z</time></trkpt>
    <trkpt lat="47.52335" lon="14.10307"><ele>645</ele><time>2026-08-02T09:27:13Z</time></trkpt>
    <trkpt lat="47.52336" lon="14.10539"><ele>647</ele><time>2026-08-02T09:27:42Z</time></trkpt>
    <trkpt lat="47.52398" lon="14.10543"><ele>649</ele><time>2026-08-02T09:28:12Z</time></trkpt>
    <trkpt lat="47.52430" lon="14.10806"><ele>648</ele><time>2026-08-02T09:28:41Z</time></trkpt>
    <trkpt lat="47.52440" lon="14.10933"><ele>646</ele><time>2026-08-02T09:29:10Z</time></trkpt>
    <trkpt lat="47.52512" lon="14.10925"><ele>647</ele><time>2026-08-02T09:33:34Z</time></trkpt>
    <trkpt lat="47.52572" lon="14.11127"><ele>649</ele><time>2026-08-02T09:34:04Z</time></trkpt>
    <trkpt lat="47.52620" lon="14.11122"><ele>648</ele><time>2026-08-02T09:34:33Z</time></trkpt>
    <trkpt lat="47.52751" lon="14.11208"><ele>648</ele><time>2026-08-02T09:35:02Z</time></trkpt>
    <trkpt lat="47.52885" lon="14.11121"><ele>649</ele><time>2026-08-02T09:35:32Z</time></trkpt>
    <trkpt lat="47.52912" lon="14.11125"><ele>648</ele><time>2026-08-02T09:36:01Z</time></trkpt>
    <trkpt lat="47.52955" lon="14.11276"><ele>649</ele><time>2026-08-02T09:36:30Z</time></trkpt>
    <trkpt lat="47.53037" lon="14.11450"><ele>647</ele><time>2026-08-02T09:37:00Z</time></trkpt>
    <trkpt lat="47.53099" lon="14.11579"><ele>649</ele><time>2026-08-02T09:37:29Z</time></trkpt>
    <trkpt lat="47.53106" lon="14.11724"><ele>648</ele><time>2026-08-02T09:37:58Z</time></trkpt>
    <trkpt lat="47.53170" lon="14.11810"><ele>652</ele><time>2026-08-02T09:38:28Z</time></trkpt>
    <trkpt lat="47.53321" lon="14.11866"><ele>654</ele><time>2026-08-02T09:38:57Z</time></trkpt>
    <trkpt lat="47.53358" lon="14.11810"><ele>651</ele><time>2026-08-02T09:39:26Z</time></trkpt>
    <trkpt lat="47.53445" lon="14.11842"><ele>655</ele><time>2026-08-02T09:39:56Z</time></trkpt>
    <trkpt lat="47.53463" lon="14.11780"><ele>657</ele><time>2026-08-02T09:40:25Z</time></trkpt>
    <trkpt lat="47.53375" lon="14.11736"><ele>655</ele><time>2026-08-02T09:40:54Z</time></trkpt>
    <trkpt lat="47.53359" lon="14.11572"><ele>655</ele><time>2026-08-02T09:41:24Z</time></trkpt>
    <trkpt lat="47.53385" lon="14.11417"><ele>657</ele><time>2026-08-02T09:41:53Z</time></trkpt>
    <trkpt lat="47.53522" lon="14.11660"><ele>654</ele><time>2026-08-02T09:42:22Z</time></trkpt>
    <trkpt lat="47.53597" lon="14.11548"><ele>660</ele><time>2026-08-02T09:42:52Z</time></trkpt>
    <trkpt lat="47.53627" lon="14.11579"><ele>663</ele><time>2026-08-02T09:43:21Z</time></trkpt>
    <trkpt lat="47.53655" lon="14.11546"><ele>665</ele><time>2026-08-02T09:43:50Z</time></trkpt>
    <trkpt lat="47.53800" lon="14.11735"><ele>664</ele><time>2026-08-02T09:44:19Z</time></trkpt>
    <trkpt lat="47.53897" lon="14.11769"><ele>658</ele><time>2026-08-02T09:44:48Z</time></trkpt>
    <trkpt lat="47.54037" lon="14.11811"><ele>657</ele><time>2026-08-02T09:45:17Z</time></trkpt>
    <trkpt lat="47.54190" lon="14.11940"><ele>654</ele><time>2026-08-02T09:45:46Z</time></trkpt>
    <trkpt lat="47.54239" lon="14.12067"><ele>652</ele><time>2026-08-02T09:46:16Z</time></trkpt>
    <trkpt lat="47.54312" lon="14.12296"><ele>649</ele><time>2026-08-02T09:46:45Z</time></trkpt>
    <trkpt lat="47.54378" lon="14.12435"><ele>651</ele><time>2026-08-02T09:47:14Z</time></trkpt>
    <trkpt lat="47.54433" lon="14.12559"><ele>653</ele><time>2026-08-02T09:47:44Z</time></trkpt>
    <trkpt lat="47.54471" lon="14.12685"><ele>655</ele><time>2026-08-02T09:48:13Z</time></trkpt>
    <trkpt lat="47.54503" lon="14.12816"><ele>657</ele><time>2026-08-02T09:48:42Z</time></trkpt>
    <trkpt lat="47.54522" lon="14.12956"><ele>659</ele><time>2026-08-02T09:49:12Z</time></trkpt>
    <trkpt lat="47.54532" lon="14.13081"><ele>660</ele><time>2026-08-02T09:49:41Z</time></trkpt>
    <trkpt lat="47.54550" lon="14.13204"><ele>663</ele><time>2026-08-02T09:50:10Z</time></trkpt>
    <trkpt lat="47.54594" lon="14.13317"><ele>665</ele><time>2026-08-02T09:50:40Z</time></trkpt>
    <trkpt lat="47.54639" lon="14.13425"><ele>666</ele><time>2026-08-02T09:51:09Z</time></trkpt>
    <trkpt lat="47.54682" lon="14.13516"><ele>667</ele><time>2026-08-02T09:51:38Z</time></trkpt>
    <trkpt lat="47.54755" lon="14.13669"><ele>667</ele><time>2026-08-02T09:52:08Z</time></trkpt>
    <trkpt lat="47.54818" lon="14.13792"><ele>667</ele><time>2026-08-02T09:52:37Z</time></trkpt>
    <trkpt lat="47.54867" lon="14.13893"><ele>672</ele><time>2026-08-02T09:53:06Z</time></trkpt>
    <trkpt lat="47.54908" lon="14.13983"><ele>674</ele><time>2026-08-02T09:53:36Z</time></trkpt>
    <trkpt lat="47.54949" lon="14.13957"><ele>680</ele><time>2026-08-02T09:55:04Z</time></trkpt>
    <trkpt lat="47.54982" lon="14.13934"><ele>686</ele><time>2026-08-02T09:55:33Z</time></trkpt>
    <trkpt lat="47.55011" lon="14.13912"><ele>689</ele><time>2026-08-02T09:56:02Z</time></trkpt>
    <trkpt lat="47.55046" lon="14.13921"><ele>694</ele><time>2026-08-02T09:56:32Z</time></trkpt>
    <trkpt lat="47.55077" lon="14.13933"><ele>698</ele><time>2026-08-02T09:57:01Z</time></trkpt>
    <trkpt lat="47.55110" lon="14.13936"><ele>703</ele><time>2026-08-02T09:57:30Z</time></trkpt>
    <trkpt lat="47.55141" lon="14.13927"><ele>708</ele><time>2026-08-02T09:58:00Z</time></trkpt>
    <trkpt lat="47.55151" lon="14.13973"><ele>713</ele><time>2026-08-02T09:58:29Z</time></trkpt>
    <trkpt lat="47.55143" lon="14.14022"><ele>718</ele><time>2026-08-02T09:58:58Z</time></trkpt>
    <trkpt lat="47.55148" lon="14.14069"><ele>722</ele><time>2026-08-02T09:59:28Z</time></trkpt>
    <trkpt lat="47.55157" lon="14.14081"><ele>726</ele><time>2026-08-02T10:00:56Z</time></trkpt>
    <trkpt lat="47.55175" lon="14.14123"><ele>728</ele><time>2026-08-02T10:01:25Z</time></trkpt>
    <trkpt lat="47.55195" lon="14.14159"><ele>736</ele><time>2026-08-02T10:01:54Z</time></trkpt>
    <trkpt lat="47.55228" lon="14.14178"><ele>746</ele><time>2026-08-02T10:02:24Z</time></trkpt>
    <trkpt lat="47.55256" lon="14.14151"><ele>746</ele><time>2026-08-02T10:02:53Z</time></trkpt>
    <trkpt lat="47.55288" lon="14.14134"><ele>751</ele><time>2026-08-02T10:03:22Z</time></trkpt>
    <trkpt lat="47.55319" lon="14.14153"><ele>754</ele><time>2026-08-02T10:03:52Z</time></trkpt>
    <trkpt lat="47.55311" lon="14.14119"><ele>763</ele><time>2026-08-02T10:04:21Z</time></trkpt>
    <trkpt lat="47.55272" lon="14.14114"><ele>770</ele><time>2026-08-02T10:04:50Z</time></trkpt>
    <trkpt lat="47.55239" lon="14.14092"><ele>773</ele><time>2026-08-02T10:05:20Z</time></trkpt>
    <trkpt lat="47.55237" lon="14.14064"><ele>779</ele><time>2026-08-02T10:05:49Z</time></trkpt>
    <trkpt lat="47.55272" lon="14.14078"><ele>779</ele><time>2026-08-02T10:06:18Z</time></trkpt>
    <trkpt lat="47.55295" lon="14.14054"><ele>785</ele><time>2026-08-02T10:06:48Z</time></trkpt>
    <trkpt lat="47.55351" lon="14.14055"><ele>787</ele><time>2026-08-02T10:07:17Z</time></trkpt>
    <trkpt lat="47.55370" lon="14.14074"><ele>793</ele><time>2026-08-02T10:07:46Z</time></trkpt>
    <trkpt lat="47.55379" lon="14.14129"><ele>796</ele><time>2026-08-02T10:08:16Z</time></trkpt>
    <trkpt lat="47.55404" lon="14.14128"><ele>801</ele><time>2026-08-02T10:08:45Z</time></trkpt>
    <trkpt lat="47.55431" lon="14.14118"><ele>808</ele><time>2026-08-02T10:09:14Z</time></trkpt>
    <trkpt lat="47.55445" lon="14.14131"><ele>813</ele><time>2026-08-02T10:09:44Z</time></trkpt>
    <trkpt lat="47.55456" lon="14.14209"><ele>811</ele><time>2026-08-02T10:10:13Z</time></trkpt>
    <trkpt lat="47.55484" lon="14.14204"><ele>815</ele><time>2026-08-02T10:13:09Z</time></trkpt>
    <trkpt lat="47.55517" lon="14.14190"><ele>815</ele><time>2026-08-02T10:13:38Z</time></trkpt>
    <trkpt lat="47.55555" lon="14.14183"><ele>822</ele><time>2026-08-02T10:14:08Z</time></trkpt>
    <trkpt lat="47.55592" lon="14.14200"><ele>827</ele><time>2026-08-02T10:14:37Z</time></trkpt>
    <trkpt lat="47.55627" lon="14.14214"><ele>829</ele><time>2026-08-02T10:15:06Z</time></trkpt>
    <trkpt lat="47.55664" lon="14.14221"><ele>835</ele><time>2026-08-02T10:15:36Z</time></trkpt>
    <trkpt lat="47.55697" lon="14.14239"><ele>843</ele><time>2026-08-02T10:16:05Z</time></trkpt>
    <trkpt lat="47.55734" lon="14.14250"><ele>841</ele><time>2026-08-02T10:16:34Z</time></trkpt>
    <trkpt lat="47.55773" lon="14.14256"><ele>841</ele><time>2026-08-02T10:17:04Z</time></trkpt>
    <trkpt lat="47.55802" lon="14.14266"><ele>851</ele><time>2026-08-02T10:17:33Z</time></trkpt>
    <trkpt lat="47.55835" lon="14.14263"><ele>857</ele><time>2026-08-02T10:18:02Z</time></trkpt>
    <trkpt lat="47.55873" lon="14.14315"><ele>856</ele><time>2026-08-02T10:18:32Z</time></trkpt>
    <trkpt lat="47.55902" lon="14.14318"><ele>857</ele><time>2026-08-02T10:19:01Z</time></trkpt>
    <trkpt lat="47.55926" lon="14.14295"><ele>866</ele><time>2026-08-02T10:19:30Z</time></trkpt>
    <trkpt lat="47.55949" lon="14.14284"><ele>871</ele><time>2026-08-02T10:20:00Z</time></trkpt>
    <trkpt lat="47.55977" lon="14.14263"><ele>876</ele><time>2026-08-02T10:20:29Z</time></trkpt>
    <trkpt lat="47.56002" lon="14.14320"><ele>879</ele><time>2026-08-02T10:20:58Z</time></trkpt>
    <trkpt lat="47.56011" lon="14.14324"><ele>882</ele><time>2026-08-02T10:21:28Z</time></trkpt>
    <trkpt lat="47.56001" lon="14.14265"><ele>887</ele><time>2026-08-02T10:21:57Z</time></trkpt>
    <trkpt lat="47.55994" lon="14.14219"><ele>889</ele><time>2026-08-02T10:22:26Z</time></trkpt>
    <trkpt lat="47.55968" lon="14.14218"><ele>893</ele><time>2026-08-02T10:22:56Z</time></trkpt>
    <trkpt lat="47.55934" lon="14.14232"><ele>898</ele><time>2026-08-02T10:23:25Z</time></trkpt>
    <trkpt lat="47.55920" lon="14.14227"><ele>902</ele><time>2026-08-02T10:23:54Z</time></trkpt>
    <trkpt lat="47.55935" lon="14.14212"><ele>906</ele><time>2026-08-02T10:24:53Z</time></trkpt>
    <trkpt lat="47.55963" lon="14.14185"><ele>909</ele><time>2026-08-02T10:25:22Z</time></trkpt>
    <trkpt lat="47.55988" lon="14.14140"><ele>912</ele><time>2026-08-02T10:25:52Z</time></trkpt>
    <trkpt lat="47.56016" lon="14.14166"><ele>913</ele><time>2026-08-02T10:26:21Z</time></trkpt>
    <trkpt lat="47.56036" lon="14.14200"><ele>912</ele><time>2026-08-02T10:26:50Z</time></trkpt>
    <trkpt lat="47.56059" lon="14.14233"><ele>917</ele><time>2026-08-02T10:27:20Z</time></trkpt>
    <trkpt lat="47.56079" lon="14.14272"><ele>920</ele><time>2026-08-02T10:27:49Z</time></trkpt>
    <trkpt lat="47.56086" lon="14.14325"><ele>926</ele><time>2026-08-02T10:28:18Z</time></trkpt>
    <trkpt lat="47.56112" lon="14.14338"><ele>930</ele><time>2026-08-02T10:28:48Z</time></trkpt>
    <trkpt lat="47.56140" lon="14.14368"><ele>933</ele><time>2026-08-02T10:29:17Z</time></trkpt>
    <trkpt lat="47.56164" lon="14.14402"><ele>935</ele><time>2026-08-02T10:29:46Z</time></trkpt>
    <trkpt lat="47.56205" lon="14.14431"><ele>939</ele><time>2026-08-02T10:30:16Z</time></trkpt>
    <trkpt lat="47.56219" lon="14.14419"><ele>945</ele><time>2026-08-02T10:30:45Z</time></trkpt>
    <trkpt lat="47.56238" lon="14.14404"><ele>951</ele><time>2026-08-02T10:32:13Z</time></trkpt>
    <trkpt lat="47.56270" lon="14.14402"><ele>955</ele><time>2026-08-02T10:32:42Z</time></trkpt>
    <trkpt lat="47.56298" lon="14.14457"><ele>956</ele><time>2026-08-02T10:33:12Z</time></trkpt>
    <trkpt lat="47.56311" lon="14.14445"><ele>958</ele><time>2026-08-02T10:33:41Z</time></trkpt>
    <trkpt lat="47.56311" lon="14.14420"><ele>959</ele><time>2026-08-02T10:34:40Z</time></trkpt>
    <trkpt lat="47.56282" lon="14.14382"><ele>958</ele><time>2026-08-02T10:35:09Z</time></trkpt>
    <trkpt lat="47.56270" lon="14.14312"><ele>958</ele><time>2026-08-02T10:35:38Z</time></trkpt>
    <trkpt lat="47.56197" lon="14.14201"><ele>963</ele><time>2026-08-02T10:36:08Z</time></trkpt>
    <trkpt lat="47.56215" lon="14.14021"><ele>968</ele><time>2026-08-02T10:37:06Z</time></trkpt>
    <trkpt lat="47.56298" lon="14.14068"><ele>962</ele><time>2026-08-02T10:37:36Z</time></trkpt>
    <trkpt lat="47.56305" lon="14.13970"><ele>956</ele><time>2026-08-02T10:38:05Z</time></trkpt>
    <trkpt lat="47.56327" lon="14.13800"><ele>961</ele><time>2026-08-02T10:38:34Z</time></trkpt>
    <trkpt lat="47.56332" lon="14.13699"><ele>964</ele><time>2026-08-02T10:39:04Z</time></trkpt>
    <trkpt lat="47.56335" lon="14.13626"><ele>962</ele><time>2026-08-02T10:39:33Z</time></trkpt>
    <trkpt lat="47.56346" lon="14.13554"><ele>961</ele><time>2026-08-02T10:40:02Z</time></trkpt>
    <trkpt lat="47.56359" lon="14.13468"><ele>964</ele><time>2026-08-02T10:40:32Z</time></trkpt>
    <trkpt lat="47.56406" lon="14.13395"><ele>966</ele><time>2026-08-02T10:41:01Z</time></trkpt>
    <trkpt lat="47.56429" lon="14.13321"><ele>968</ele><time>2026-08-02T10:41:30Z</time></trkpt>
    <trkpt lat="47.56459" lon="14.13252"><ele>970</ele><time>2026-08-02T10:42:00Z</time></trkpt>
    <trkpt lat="47.56520" lon="14.13177"><ele>972</ele><time>2026-08-02T10:42:29Z</time></trkpt>
    <trkpt lat="47.56526" lon="14.13093"><ele>971</ele><time>2026-08-02T10:42:58Z</time></trkpt>
    <trkpt lat="47.56532" lon="14.12974"><ele>976</ele><time>2026-08-02T10:43:28Z</time></trkpt>
    <trkpt lat="47.56540" lon="14.12891"><ele>979</ele><time>2026-08-02T10:43:57Z</time></trkpt>
    <trkpt lat="47.56519" lon="14.12819"><ele>980</ele><time>2026-08-02T10:44:26Z</time></trkpt>
    <trkpt lat="47.56525" lon="14.12719"><ele>978</ele><time>2026-08-02T10:44:56Z</time></trkpt>
    <trkpt lat="47.56524" lon="14.12687"><ele>980</ele><time>2026-08-02T10:46:24Z</time></trkpt>
    <trkpt lat="47.56505" lon="14.12570"><ele>982</ele><time>2026-08-02T10:46:53Z</time></trkpt>
    <trkpt lat="47.56517" lon="14.12483"><ele>985</ele><time>2026-08-02T10:47:22Z</time></trkpt>
    <trkpt lat="47.56546" lon="14.12436"><ele>983</ele><time>2026-08-02T10:47:52Z</time></trkpt>
    <trkpt lat="47.56634" lon="14.12421"><ele>977</ele><time>2026-08-02T10:48:21Z</time></trkpt>
    <trkpt lat="47.56671" lon="14.12348"><ele>973</ele><time>2026-08-02T10:48:50Z</time></trkpt>
    <trkpt lat="47.56710" lon="14.12355"><ele>968</ele><time>2026-08-02T10:49:20Z</time></trkpt>
    <trkpt lat="47.56662" lon="14.12460"><ele>973</ele><time>2026-08-02T10:49:49Z</time></trkpt>
    <trkpt lat="47.56668" lon="14.12492"><ele>977</ele><time>2026-08-02T10:50:18Z</time></trkpt>
    <trkpt lat="47.56678" lon="14.12497"><ele>977</ele><time>2026-08-02T10:50:48Z</time></trkpt>
    <trkpt lat="47.56747" lon="14.12396"><ele>982</ele><time>2026-08-02T10:51:17Z</time></trkpt>
    <trkpt lat="47.56760" lon="14.12347"><ele>987</ele><time>2026-08-02T10:51:46Z</time></trkpt>
    <trkpt lat="47.56781" lon="14.12264"><ele>1000</ele><time>2026-08-02T10:52:45Z</time></trkpt>
    <trkpt lat="47.56797" lon="14.12202"><ele>1006</ele><time>2026-08-02T10:53:14Z</time></trkpt>
    <trkpt lat="47.56834" lon="14.12129"><ele>1006</ele><time>2026-08-02T10:53:44Z</time></trkpt>
    <trkpt lat="47.56838" lon="14.12097"><ele>1005</ele><time>2026-08-02T10:54:13Z</time></trkpt>
    <trkpt lat="47.56839" lon="14.12110"><ele>1006</ele><time>2026-08-02T10:54:42Z</time></trkpt>
    <trkpt lat="47.56833" lon="14.12094"><ele>1001</ele><time>2026-08-02T10:55:12Z</time></trkpt>
    <trkpt lat="47.56806" lon="14.12078"><ele>1002</ele><time>2026-08-02T10:55:41Z</time></trkpt>
    <trkpt lat="47.56799" lon="14.12052"><ele>1002</ele><time>2026-08-02T10:56:10Z</time></trkpt>
    <trkpt lat="47.56796" lon="14.11983"><ele>1005</ele><time>2026-08-02T10:56:40Z</time></trkpt>
    <trkpt lat="47.56788" lon="14.11914"><ele>1009</ele><time>2026-08-02T10:57:09Z</time></trkpt>
    <trkpt lat="47.56776" lon="14.11836"><ele>1014</ele><time>2026-08-02T10:57:38Z</time></trkpt>
    <trkpt lat="47.56804" lon="14.11721"><ele>1017</ele><time>2026-08-02T10:58:08Z</time></trkpt>
    <trkpt lat="47.56752" lon="14.11696"><ele>1022</ele><time>2026-08-02T10:58:37Z</time></trkpt>
    <trkpt lat="47.56746" lon="14.11634"><ele>1023</ele><time>2026-08-02T10:59:06Z</time></trkpt>
    <trkpt lat="47.56748" lon="14.11547"><ele>1024</ele><time>2026-08-02T10:59:36Z</time></trkpt>
    <trkpt lat="47.56710" lon="14.11487"><ele>1029</ele><time>2026-08-02T11:00:05Z</time></trkpt>
    <trkpt lat="47.56687" lon="14.11411"><ele>1031</ele><time>2026-08-02T11:00:34Z</time></trkpt>
    <trkpt lat="47.56677" lon="14.11327"><ele>1032</ele><time>2026-08-02T11:01:04Z</time></trkpt>
    <trkpt lat="47.56659" lon="14.11246"><ele>1038</ele><time>2026-08-02T11:01:33Z</time></trkpt>
    <trkpt lat="47.56659" lon="14.11144"><ele>1039</ele><time>2026-08-02T11:02:02Z</time></trkpt>
    <trkpt lat="47.56638" lon="14.11022"><ele>1042</ele><time>2026-08-02T11:02:32Z</time></trkpt>
    <trkpt lat="47.56610" lon="14.10956"><ele>1047</ele><time>2026-08-02T11:03:01Z</time></trkpt>
    <trkpt lat="47.56590" lon="14.10887"><ele>1050</ele><time>2026-08-02T11:03:30Z</time></trkpt>
    <trkpt lat="47.56577" lon="14.10814"><ele>1053</ele><time>2026-08-02T11:04:00Z</time></trkpt>
    <trkpt lat="47.56564" lon="14.10741"><ele>1057</ele><time>2026-08-02T11:04:29Z</time></trkpt>
    <trkpt lat="47.56554" lon="14.10665"><ele>1059</ele><time>2026-08-02T11:04:58Z</time></trkpt>
    <trkpt lat="47.56532" lon="14.10596"><ele>1063</ele><time>2026-08-02T11:05:28Z</time></trkpt>
    <trkpt lat="47.56523" lon="14.10525"><ele>1067</ele><time>2026-08-02T11:05:57Z</time></trkpt>
    <trkpt lat="47.56507" lon="14.10455"><ele>1071</ele><time>2026-08-02T11:06:26Z</time></trkpt>
    <trkpt lat="47.56473" lon="14.10403"><ele>1074</ele><time>2026-08-02T11:06:56Z</time></trkpt>
    <trkpt lat="47.56439" lon="14.10347"><ele>1078</ele><time>2026-08-02T11:07:25Z</time></trkpt>
    <trkpt lat="47.56416" lon="14.10272"><ele>1079</ele><time>2026-08-02T11:07:54Z</time></trkpt>
    <trkpt lat="47.56408" lon="14.10188"><ele>1081</ele><time>2026-08-02T11:08:24Z</time></trkpt>
    <trkpt lat="47.56396" lon="14.10103"><ele>1083</ele><time>2026-08-02T11:08:53Z</time></trkpt>
    <trkpt lat="47.56382" lon="14.09981"><ele>1082</ele><time>2026-08-02T11:09:22Z</time></trkpt>
    <trkpt lat="47.56289" lon="14.10045"><ele>1071</ele><time>2026-08-02T11:10:50Z</time></trkpt>
    <trkpt lat="47.56233" lon="14.10071"><ele>1064</ele><time>2026-08-02T11:11:20Z</time></trkpt>
    <trkpt lat="47.56190" lon="14.10035"><ele>1061</ele><time>2026-08-02T11:11:49Z</time></trkpt>
    <trkpt lat="47.56130" lon="14.09918"><ele>1057</ele><time>2026-08-02T11:12:18Z</time></trkpt>
    <trkpt lat="47.56081" lon="14.09867"><ele>1055</ele><time>2026-08-02T11:12:48Z</time></trkpt>
    <trkpt lat="47.56066" lon="14.09810"><ele>1053</ele><time>2026-08-02T11:13:17Z</time></trkpt>
    <trkpt lat="47.56059" lon="14.09798"><ele>1054</ele><time>2026-08-02T11:13:46Z</time></trkpt>
    <trkpt lat="47.56043" lon="14.09794"><ele>1052</ele><time>2026-08-02T11:29:54Z</time></trkpt>
    <trkpt lat="47.56060" lon="14.09802"><ele>1056</ele><time>2026-08-02T11:42:08Z</time></trkpt>
    <trkpt lat="47.56073" lon="14.09806"><ele>1053</ele><time>2026-08-02T11:45:33Z</time></trkpt>
    <trkpt lat="47.56072" lon="14.09781"><ele>1056</ele><time>2026-08-02T11:46:02Z</time></trkpt>
    <trkpt lat="47.56038" lon="14.09673"><ele>1056</ele><time>2026-08-02T11:46:32Z</time></trkpt>
    <trkpt lat="47.56012" lon="14.09591"><ele>1057</ele><time>2026-08-02T11:47:01Z</time></trkpt>
    <trkpt lat="47.55991" lon="14.09529"><ele>1063</ele><time>2026-08-02T11:47:30Z</time></trkpt>
    <trkpt lat="47.55973" lon="14.09460"><ele>1068</ele><time>2026-08-02T11:48:00Z</time></trkpt>
    <trkpt lat="47.55959" lon="14.09399"><ele>1069</ele><time>2026-08-02T11:48:29Z</time></trkpt>
    <trkpt lat="47.55946" lon="14.09339"><ele>1074</ele><time>2026-08-02T11:48:58Z</time></trkpt>
    <trkpt lat="47.55930" lon="14.09281"><ele>1074</ele><time>2026-08-02T11:49:28Z</time></trkpt>
    <trkpt lat="47.55918" lon="14.09222"><ele>1079</ele><time>2026-08-02T11:49:57Z</time></trkpt>
    <trkpt lat="47.55921" lon="14.09158"><ele>1084</ele><time>2026-08-02T11:50:26Z</time></trkpt>
    <trkpt lat="47.55920" lon="14.09112"><ele>1088</ele><time>2026-08-02T11:50:56Z</time></trkpt>
    <trkpt lat="47.55923" lon="14.09066"><ele>1093</ele><time>2026-08-02T11:51:25Z</time></trkpt>
    <trkpt lat="47.55920" lon="14.09050"><ele>1099</ele><time>2026-08-02T11:52:24Z</time></trkpt>
    <trkpt lat="47.55915" lon="14.09035"><ele>1099</ele><time>2026-08-02T11:52:53Z</time></trkpt>
    <trkpt lat="47.55901" lon="14.08978"><ele>1099</ele><time>2026-08-02T11:53:22Z</time></trkpt>
    <trkpt lat="47.55895" lon="14.08947"><ele>1103</ele><time>2026-08-02T11:53:52Z</time></trkpt>
    <trkpt lat="47.55891" lon="14.08923"><ele>1099</ele><time>2026-08-02T11:54:21Z</time></trkpt>
    <trkpt lat="47.55894" lon="14.08903"><ele>1094</ele><time>2026-08-02T11:54:50Z</time></trkpt>
    <trkpt lat="47.55890" lon="14.08871"><ele>1099</ele><time>2026-08-02T11:55:20Z</time></trkpt>
    <trkpt lat="47.55876" lon="14.08849"><ele>1097</ele><time>2026-08-02T11:55:49Z</time></trkpt>
    <trkpt lat="47.55870" lon="14.08817"><ele>1095</ele><time>2026-08-02T11:56:18Z</time></trkpt>
    <trkpt lat="47.55874" lon="14.08781"><ele>1104</ele><time>2026-08-02T11:57:46Z</time></trkpt>
    <trkpt lat="47.55865" lon="14.08743"><ele>1109</ele><time>2026-08-02T11:58:16Z</time></trkpt>
    <trkpt lat="47.55859" lon="14.08707"><ele>1115</ele><time>2026-08-02T11:58:45Z</time></trkpt>
    <trkpt lat="47.55854" lon="14.08673"><ele>1118</ele><time>2026-08-02T11:59:14Z</time></trkpt>
    <trkpt lat="47.55842" lon="14.08637"><ele>1122</ele><time>2026-08-02T11:59:44Z</time></trkpt>
    <trkpt lat="47.55832" lon="14.08610"><ele>1120</ele><time>2026-08-02T12:00:13Z</time></trkpt>
    <trkpt lat="47.55815" lon="14.08566"><ele>1124</ele><time>2026-08-02T12:00:42Z</time></trkpt>
    <trkpt lat="47.55805" lon="14.08532"><ele>1123</ele><time>2026-08-02T12:01:12Z</time></trkpt>
    <trkpt lat="47.55795" lon="14.08484"><ele>1128</ele><time>2026-08-02T12:02:10Z</time></trkpt>
    <trkpt lat="47.55802" lon="14.08403"><ele>1131</ele><time>2026-08-02T12:02:40Z</time></trkpt>
    <trkpt lat="47.55773" lon="14.08378"><ele>1134</ele><time>2026-08-02T12:03:09Z</time></trkpt>
    <trkpt lat="47.55763" lon="14.08329"><ele>1133</ele><time>2026-08-02T12:03:38Z</time></trkpt>
    <trkpt lat="47.55758" lon="14.08222"><ele>1133</ele><time>2026-08-02T12:04:08Z</time></trkpt>
    <trkpt lat="47.55765" lon="14.07871"><ele>1130</ele><time>2026-08-02T12:04:37Z</time></trkpt>
    <trkpt lat="47.55892" lon="14.07825"><ele>1102</ele><time>2026-08-02T12:05:06Z</time></trkpt>
    <trkpt lat="47.55904" lon="14.07779"><ele>1084</ele><time>2026-08-02T12:05:36Z</time></trkpt>
    <trkpt lat="47.55814" lon="14.07685"><ele>1084</ele><time>2026-08-02T12:07:04Z</time></trkpt>
    <trkpt lat="47.55821" lon="14.07444"><ele>1069</ele><time>2026-08-02T12:07:33Z</time></trkpt>
    <trkpt lat="47.55773" lon="14.07075"><ele>1049</ele><time>2026-08-02T12:08:02Z</time></trkpt>
    <trkpt lat="47.55704" lon="14.06638"><ele>1033</ele><time>2026-08-02T12:08:32Z</time></trkpt>
    <trkpt lat="47.55656" lon="14.06377"><ele>1018</ele><time>2026-08-02T12:09:01Z</time></trkpt>
    <trkpt lat="47.55585" lon="14.06241"><ele>1011</ele><time>2026-08-02T12:09:30Z</time></trkpt>
    <trkpt lat="47.55560" lon="14.06171"><ele>1006</ele><time>2026-08-02T12:10:00Z</time></trkpt>
    <trkpt lat="47.55512" lon="14.05863"><ele>1004</ele><time>2026-08-02T12:10:29Z</time></trkpt>
    <trkpt lat="47.55427" lon="14.05682"><ele>986</ele><time>2026-08-02T12:10:58Z</time></trkpt>
    <trkpt lat="47.55507" lon="14.05233"><ele>970</ele><time>2026-08-02T12:11:28Z</time></trkpt>
    <trkpt lat="47.55489" lon="14.04916"><ele>970</ele><time>2026-08-02T12:11:57Z</time></trkpt>
    <trkpt lat="47.55428" lon="14.04892"><ele>973</ele><time>2026-08-02T12:12:26Z</time></trkpt>
    <trkpt lat="47.55418" lon="14.04812"><ele>971</ele><time>2026-08-02T12:12:56Z</time></trkpt>
    <trkpt lat="47.55438" lon="14.04783"><ele>972</ele><time>2026-08-02T12:13:25Z</time></trkpt>
    <trkpt lat="47.55424" lon="14.04640"><ele>972</ele><time>2026-08-02T12:13:54Z</time></trkpt>
    <trkpt lat="47.55310" lon="14.04426"><ele>973</ele><time>2026-08-02T12:14:24Z</time></trkpt>
    <trkpt lat="47.55251" lon="14.04260"><ele>975</ele><time>2026-08-02T12:14:53Z</time></trkpt>
    <trkpt lat="47.55200" lon="14.04111"><ele>975</ele><time>2026-08-02T12:15:22Z</time></trkpt>
    <trkpt lat="47.55159" lon="14.03935"><ele>976</ele><time>2026-08-02T12:15:52Z</time></trkpt>
    <trkpt lat="47.55107" lon="14.03746"><ele>976</ele><time>2026-08-02T12:16:21Z</time></trkpt>
    <trkpt lat="47.54990" lon="14.03384"><ele>958</ele><time>2026-08-02T12:16:50Z</time></trkpt>
    <trkpt lat="47.54907" lon="14.02924"><ele>916</ele><time>2026-08-02T12:17:20Z</time></trkpt>
    <trkpt lat="47.54883" lon="14.02440"><ele>881</ele><time>2026-08-02T12:17:49Z</time></trkpt>
    <trkpt lat="47.55027" lon="14.02292"><ele>849</ele><time>2026-08-02T12:18:18Z</time></trkpt>
    <trkpt lat="47.55122" lon="14.01915"><ele>837</ele><time>2026-08-02T12:18:48Z</time></trkpt>
    <trkpt lat="47.55136" lon="14.01735"><ele>835</ele><time>2026-08-02T12:19:17Z</time></trkpt>
    <trkpt lat="47.55193" lon="14.01594"><ele>834</ele><time>2026-08-02T12:19:46Z</time></trkpt>
    <trkpt lat="47.55191" lon="14.01526"><ele>831</ele><time>2026-08-02T12:20:16Z</time></trkpt>
    <trkpt lat="47.55156" lon="14.01458"><ele>831</ele><time>2026-08-02T12:20:45Z</time></trkpt>
    <trkpt lat="47.55138" lon="14.01453"><ele>833</ele><time>2026-08-02T12:21:14Z</time></trkpt>
    <trkpt lat="47.55026" lon="14.01387"><ele>835</ele><time>2026-08-02T12:21:44Z</time></trkpt>
    <trkpt lat="47.54921" lon="14.01346"><ele>834</ele><time>2026-08-02T12:22:13Z</time></trkpt>
    <trkpt lat="47.54854" lon="14.01383"><ele>836</ele><time>2026-08-02T12:22:42Z</time></trkpt>
    <trkpt lat="47.54785" lon="14.01477"><ele>834</ele><time>2026-08-02T12:23:12Z</time></trkpt>
    <trkpt lat="47.54637" lon="14.01547"><ele>835</ele><time>2026-08-02T12:23:41Z</time></trkpt>
    <trkpt lat="47.54573" lon="14.01643"><ele>833</ele><time>2026-08-02T12:24:10Z</time></trkpt>
    <trkpt lat="47.54524" lon="14.01722"><ele>838</ele><time>2026-08-02T12:24:40Z</time></trkpt>
    <trkpt lat="47.54520" lon="14.01734"><ele>839</ele><time>2026-08-02T12:25:09Z</time></trkpt>
    <trkpt lat="47.54486" lon="14.01829"><ele>837</ele><time>2026-08-02T12:25:38Z</time></trkpt>
    <trkpt lat="47.54430" lon="14.02021"><ele>835</ele><time>2026-08-02T12:26:08Z</time></trkpt>
    <trkpt lat="47.54394" lon="14.02189"><ele>834</ele><time>2026-08-02T12:26:37Z</time></trkpt>
    <trkpt lat="47.54326" lon="14.02300"><ele>835</ele><time>2026-08-02T12:27:06Z</time></trkpt>
    <trkpt lat="47.54318" lon="14.02466"><ele>835</ele><time>2026-08-02T12:27:36Z</time></trkpt>
    <trkpt lat="47.54315" lon="14.02928"><ele>803</ele><time>2026-08-02T12:28:05Z</time></trkpt>
    <trkpt lat="47.54302" lon="14.03387"><ele>746</ele><time>2026-08-02T12:28:34Z</time></trkpt>
    <trkpt lat="47.54151" lon="14.03905"><ele>741</ele><time>2026-08-02T12:29:04Z</time></trkpt>
    <trkpt lat="47.54123" lon="14.03967"><ele>741</ele><time>2026-08-02T12:29:33Z</time></trkpt>
    <trkpt lat="47.54052" lon="14.04040"><ele>739</ele><time>2026-08-02T12:30:02Z</time></trkpt>
    <trkpt lat="47.53913" lon="14.04153"><ele>739</ele><time>2026-08-02T12:30:32Z</time></trkpt>
    <trkpt lat="47.53824" lon="14.04299"><ele>736</ele><time>2026-08-02T12:31:01Z</time></trkpt>
    <trkpt lat="47.53751" lon="14.04450"><ele>734</ele><time>2026-08-02T12:31:30Z</time></trkpt>
    <trkpt lat="47.53702" lon="14.04620"><ele>733</ele><time>2026-08-02T12:32:00Z</time></trkpt>
    <trkpt lat="47.53640" lon="14.04782"><ele>732</ele><time>2026-08-02T12:32:29Z</time></trkpt>
    <trkpt lat="47.53549" lon="14.04934"><ele>730</ele><time>2026-08-02T12:32:58Z</time></trkpt>
    <trkpt lat="47.53472" lon="14.05065"><ele>728</ele><time>2026-08-02T12:33:27Z</time></trkpt>
    <trkpt lat="47.53409" lon="14.05162"><ele>729</ele><time>2026-08-02T12:33:56Z</time></trkpt>
    <trkpt lat="47.53347" lon="14.05237"><ele>730</ele><time>2026-08-02T12:34:25Z</time></trkpt>
    <trkpt lat="47.53288" lon="14.05327"><ele>731</ele><time>2026-08-02T12:34:54Z</time></trkpt>
    <trkpt lat="47.53260" lon="14.05368"><ele>731</ele><time>2026-08-02T12:35:24Z</time></trkpt>
    <trkpt lat="47.53250" lon="14.05384"><ele>730</ele><time>2026-08-02T12:36:52Z</time></trkpt>
    <trkpt lat="47.53126" lon="14.05554"><ele>711</ele><time>2026-08-02T12:37:21Z</time></trkpt>
    <trkpt lat="47.52881" lon="14.05484"><ele>673</ele><time>2026-08-02T12:37:50Z</time></trkpt>
    <trkpt lat="47.52639" lon="14.05937"><ele>660</ele><time>2026-08-02T12:38:20Z</time></trkpt>
    <trkpt lat="47.52609" lon="14.06044"><ele>658</ele><time>2026-08-02T12:38:49Z</time></trkpt>
    <trkpt lat="47.52614" lon="14.06057"><ele>659</ele><time>2026-08-02T12:39:48Z</time></trkpt>
    <trkpt lat="47.52622" lon="14.06139"><ele>658</ele><time>2026-08-02T12:40:17Z</time></trkpt>
    <trkpt lat="47.52502" lon="14.06412"><ele>658</ele><time>2026-08-02T12:40:46Z</time></trkpt>
    <trkpt lat="47.52425" lon="14.06506"><ele>654</ele><time>2026-08-02T12:41:16Z</time></trkpt>
    <trkpt lat="47.52326" lon="14.06668"><ele>653</ele><time>2026-08-02T12:41:45Z</time></trkpt>
    <trkpt lat="47.52263" lon="14.06860"><ele>651</ele><time>2026-08-02T12:42:14Z</time></trkpt>
    <trkpt lat="47.52337" lon="14.07067"><ele>651</ele><time>2026-08-02T12:42:44Z</time></trkpt>
    <trkpt lat="47.52434" lon="14.07313"><ele>649</ele><time>2026-08-02T12:43:13Z</time></trkpt>
    <trkpt lat="47.52417" lon="14.07439"><ele>649</ele><time>2026-08-02T12:43:42Z</time></trkpt>
    <trkpt lat="47.52373" lon="14.07608"><ele>648</ele><time>2026-08-02T12:44:12Z</time></trkpt>
    <trkpt lat="47.52326" lon="14.07785"><ele>649</ele><time>2026-08-02T12:44:41Z</time></trkpt>
    <trkpt lat="47.52276" lon="14.07965"><ele>648</ele><time>2026-08-02T12:45:10Z</time></trkpt>
    <trkpt lat="47.52212" lon="14.08136"><ele>647</ele><time>2026-08-02T12:45:40Z</time></trkpt>
    <trkpt lat="47.52201" lon="14.08150"><ele>646</ele><time>2026-08-02T12:46:09Z</time></trkpt>
    <trkpt lat="47.52181" lon="14.08199"><ele>645</ele><time>2026-08-02T12:48:06Z</time></trkpt>
    <trkpt lat="47.52095" lon="14.08286"><ele>649</ele><time>2026-08-02T12:48:36Z</time></trkpt>
    <trkpt lat="47.51980" lon="14.08350"><ele>647</ele><time>2026-08-02T12:49:05Z</time></trkpt>
    <trkpt lat="47.51909" lon="14.08367"><ele>647</ele><time>2026-08-02T12:49:34Z</time></trkpt>
    <trkpt lat="47.51901" lon="14.08396"><ele>643</ele><time>2026-08-02T12:50:04Z</time></trkpt>
    <trkpt lat="47.51847" lon="14.08501"><ele>646</ele><time>2026-08-02T12:50:33Z</time></trkpt>
    <trkpt lat="47.51719" lon="14.08610"><ele>647</ele><time>2026-08-02T12:51:02Z</time></trkpt>
    <trkpt lat="47.51593" lon="14.08723"><ele>649</ele><time>2026-08-02T12:51:32Z</time></trkpt>
    <trkpt lat="47.51485" lon="14.08868"><ele>647</ele><time>2026-08-02T12:52:01Z</time></trkpt>
    <trkpt lat="47.51335" lon="14.09018"><ele>647</ele><time>2026-08-02T12:52:30Z</time></trkpt>
    <trkpt lat="47.51210" lon="14.09195"><ele>646</ele><time>2026-08-02T12:53:00Z</time></trkpt>
    <trkpt lat="47.51093" lon="14.09343"><ele>647</ele><time>2026-08-02T12:53:29Z</time></trkpt>
    <trkpt lat="47.50989" lon="14.09490"><ele>647</ele><time>2026-08-02T12:53:58Z</time></trkpt>
    <trkpt lat="47.50984" lon="14.09679"><ele>647</ele><time>2026-08-02T12:54:28Z</time></trkpt>
    <trkpt lat="47.50976" lon="14.09782"><ele>647</ele><time>2026-08-02T12:54:57Z</time></trkpt>
  </trkseg>
</trk>
</gpx>