<?xml version="1.0" encoding="UTF-8"?>
<gpx version="1.1" creator="GPX-Pro" xmlns="http://www.topografix.com/GPX/1/1">
<trk>
  <name>Hike_Umballfälle-Clarahütte</name>
  <trkseg>
    <trkpt lat="47.00990" lon="12.31189"><ele>1495</ele><time>2026-09-05T08:08:01Z</time></trkpt>
    <trkpt lat="47.00984" lon="12.31133"><ele>1497</ele><time>2026-09-05T08:08:31Z</time></trkpt>
    <trkpt lat="47.00979" lon="12.31085"><ele>1497</ele><time>2026-09-05T08:09:00Z</time></trkpt>
    <trkpt lat="47.00970" lon="12.31045"><ele>1497</ele><time>2026-09-05T08:09:29Z</time></trkpt>
    <trkpt lat="47.00965" lon="12.30999"><ele>1498</ele><time>2026-09-05T08:09:59Z</time></trkpt>
    <trkpt lat="47.00966" lon="12.30955"><ele>1496</ele><time>2026-09-05T08:10:28Z</time></trkpt>
    <trkpt lat="47.00954" lon="12.30901"><ele>1497</ele><time>2026-09-05T08:10:57Z</time></trkpt>
    <trkpt lat="47.00969" lon="12.30852"><ele>1502</ele><time>2026-09-05T08:11:27Z</time></trkpt>
    <trkpt lat="47.00991" lon="12.30805"><ele>1501</ele><time>2026-09-05T08:11:56Z</time></trkpt>
    <trkpt lat="47.00996" lon="12.30748"><ele>1501</ele><time>2026-09-05T08:12:25Z</time></trkpt>
    <trkpt lat="47.00990" lon="12.30696"><ele>1503</ele><time>2026-09-05T08:12:55Z</time></trkpt>
    <trkpt lat="47.00984" lon="12.30648"><ele>1503</ele><time>2026-09-05T08:13:24Z</time></trkpt>
    <trkpt lat="47.00973" lon="12.30595"><ele>1506</ele><time>2026-09-05T08:13:53Z</time></trkpt>
    <trkpt lat="47.00945" lon="12.30563"><ele>1507</ele><time>2026-09-05T08:14:22Z</time></trkpt>
    <trkpt lat="47.00914" lon="12.30532"><ele>1505</ele><time>2026-09-05T08:14:51Z</time></trkpt>
    <trkpt lat="47.00907" lon="12.30507"><ele>1509</ele><time>2026-09-05T08:15:20Z</time></trkpt>
    <trkpt lat="47.00904" lon="12.30485"><ele>1506</ele><time>2026-09-05T08:15:49Z</time></trkpt>
    <trkpt lat="47.00901" lon="12.30469"><ele>1508</ele><time>2026-09-05T08:16:48Z</time></trkpt>
    <trkpt lat="47.00886" lon="12.30435"><ele>1510</ele><time>2026-09-05T08:17:17Z</time></trkpt>
    <trkpt lat="47.00875" lon="12.30408"><ele>1511</ele><time>2026-09-05T08:17:47Z</time></trkpt>
    <trkpt lat="47.00877" lon="12.30374"><ele>1512</ele><time>2026-09-05T08:18:16Z</time></trkpt>
    <trkpt lat="47.00882" lon="12.30339"><ele>1515</ele><time>2026-09-05T08:18:45Z</time></trkpt>
    <trkpt lat="47.00888" lon="12.30306"><ele>1518</ele><time>2026-09-05T08:19:15Z</time></trkpt>
    <trkpt lat="47.00893" lon="12.30281"><ele>1521</ele><time>2026-09-05T08:19:44Z</time></trkpt>
    <trkpt lat="47.00902" lon="12.30254"><ele>1523</ele><time>2026-09-05T08:20:13Z</time></trkpt>
    <trkpt lat="47.00906" lon="12.30225"><ele>1526</ele><time>2026-09-05T08:20:43Z</time></trkpt>
    <trkpt lat="47.00904" lon="12.30190"><ele>1534</ele><time>2026-09-05T08:21:12Z</time></trkpt>
    <trkpt lat="47.00904" lon="12.30160"><ele>1538</ele><time>2026-09-05T08:21:41Z</time></trkpt>
    <trkpt lat="47.00905" lon="12.30125"><ele>1542</ele><time>2026-09-05T08:22:11Z</time></trkpt>
    <trkpt lat="47.00901" lon="12.30098"><ele>1543</ele><time>2026-09-05T08:22:40Z</time></trkpt>
    <trkpt lat="47.00889" lon="12.30074"><ele>1543</ele><time>2026-09-05T08:23:09Z</time></trkpt>
    <trkpt lat="47.00890" lon="12.30055"><ele>1543</ele><time>2026-09-05T08:23:39Z</time></trkpt>
    <trkpt lat="47.00901" lon="12.30048"><ele>1546</ele><time>2026-09-05T08:24:08Z</time></trkpt>
    <trkpt lat="47.00919" lon="12.30034"><ele>1548</ele><time>2026-09-05T08:24:37Z</time></trkpt>
    <trkpt lat="47.00928" lon="12.30019"><ele>1551</ele><time>2026-09-05T08:25:07Z</time></trkpt>
    <trkpt lat="47.00935" lon="12.30008"><ele>1553</ele><time>2026-09-05T08:25:42Z</time></trkpt>
    <trkpt lat="47.00951" lon="12.30008"><ele>1559</ele><time>2026-09-05T08:26:11Z</time></trkpt>
    <trkpt lat="47.00963" lon="12.30006"><ele>1563</ele><time>2026-09-05T08:27:09Z</time></trkpt>
    <trkpt lat="47.00972" lon="12.29999"><ele>1563</ele><time>2026-09-05T08:27:43Z</time></trkpt>
    <trkpt lat="47.00950" lon="12.30000"><ele>1570</ele><time>2026-09-05T08:28:51Z</time></trkpt>
    <trkpt lat="47.00946" lon="12.29972"><ele>1572</ele><time>2026-09-05T08:29:49Z</time></trkpt>
    <trkpt lat="47.00955" lon="12.29944"><ele>1574</ele><time>2026-09-05T08:30:19Z</time></trkpt>
    <trkpt lat="47.00976" lon="12.29938"><ele>1576</ele><time>2026-09-05T08:30:48Z</time></trkpt>
    <trkpt lat="47.00954" lon="12.29940"><ele>1567</ele><time>2026-09-05T08:34:13Z</time></trkpt>
    <trkpt lat="47.00946" lon="12.29933"><ele>1574</ele><time>2026-09-05T08:35:12Z</time></trkpt>
    <trkpt lat="47.00961" lon="12.29915"><ele>1576</ele><time>2026-09-05T08:35:41Z</time></trkpt>
    <trkpt lat="47.00972" lon="12.29910"><ele>1572</ele><time>2026-09-05T08:36:11Z</time></trkpt>
    <trkpt lat="47.00961" lon="12.29918"><ele>1574</ele><time>2026-09-05T08:36:49Z</time></trkpt>
    <trkpt lat="47.00962" lon="12.29896"><ele>1581</ele><time>2026-09-05T08:37:19Z</time></trkpt>
    <trkpt lat="47.00959" lon="12.29871"><ele>1585</ele><time>2026-09-05T08:37:48Z</time></trkpt>
    <trkpt lat="47.00956" lon="12.29852"><ele>1589</ele><time>2026-09-05T08:38:17Z</time></trkpt>
    <trkpt lat="47.00953" lon="12.29833"><ele>1594</ele><time>2026-09-05T08:38:47Z</time></trkpt>
    <trkpt lat="47.00959" lon="12.29812"><ele>1598</ele><time>2026-09-05T08:41:43Z</time></trkpt>
    <trkpt lat="47.00957" lon="12.29784"><ele>1605</ele><time>2026-09-05T08:42:12Z</time></trkpt>
    <trkpt lat="47.00955" lon="12.29755"><ele>1612</ele><time>2026-09-05T08:43:40Z</time></trkpt>
    <trkpt lat="47.00952" lon="12.29727"><ele>1610</ele><time>2026-09-05T08:45:37Z</time></trkpt>
    <trkpt lat="47.00948" lon="12.29697"><ele>1618</ele><time>2026-09-05T08:46:07Z</time></trkpt>
    <trkpt lat="47.00946" lon="12.29674"><ele>1624</ele><time>2026-09-05T08:46:36Z</time></trkpt>
    <trkpt lat="47.00939" lon="12.29647"><ele>1631</ele><time>2026-09-05T08:47:35Z</time></trkpt>
    <trkpt lat="47.00942" lon="12.29612"><ele>1634</ele><time>2026-09-05T08:48:04Z</time></trkpt>
    <trkpt lat="47.00950" lon="12.29577"><ele>1637</ele><time>2026-09-05T08:48:33Z</time></trkpt>
    <trkpt lat="47.00941" lon="12.29544"><ele>1638</ele><time>2026-09-05T08:49:03Z</time></trkpt>
    <trkpt lat="47.00938" lon="12.29530"><ele>1645</ele><time>2026-09-05T08:50:06Z</time></trkpt>
    <trkpt lat="47.00939" lon="12.29517"><ele>1641</ele><time>2026-09-05T08:50:26Z</time></trkpt>
    <trkpt lat="47.00950" lon="12.29479"><ele>1644</ele><time>2026-09-05T08:50:56Z</time></trkpt>
    <trkpt lat="47.00963" lon="12.29435"><ele>1642</ele><time>2026-09-05T08:51:25Z</time></trkpt>
    <trkpt lat="47.00959" lon="12.29390"><ele>1643</ele><time>2026-09-05T08:51:54Z</time></trkpt>
    <trkpt lat="47.00960" lon="12.29344"><ele>1641</ele><time>2026-09-05T08:52:24Z</time></trkpt>
    <trkpt lat="47.00959" lon="12.29304"><ele>1642</ele><time>2026-09-05T08:52:53Z</time></trkpt>
    <trkpt lat="47.00935" lon="12.29304"><ele>1646</ele><time>2026-09-05T08:53:52Z</time></trkpt>
    <trkpt lat="47.00928" lon="12.29293"><ele>1651</ele><time>2026-09-05T08:54:21Z</time></trkpt>
    <trkpt lat="47.00935" lon="12.29253"><ele>1653</ele><time>2026-09-05T08:54:50Z</time></trkpt>
    <trkpt lat="47.00941" lon="12.29209"><ele>1656</ele><time>2026-09-05T08:55:20Z</time></trkpt>
    <trkpt lat="47.00939" lon="12.29194"><ele>1657</ele><time>2026-09-05T08:55:49Z</time></trkpt>
    <trkpt lat="47.00938" lon="12.29172"><ele>1655</ele><time>2026-09-05T08:56:18Z</time></trkpt>
    <trkpt lat="47.00935" lon="12.29147"><ele>1654</ele><time>2026-09-05T08:56:56Z</time></trkpt>
    <trkpt lat="47.00936" lon="12.29105"><ele>1657</ele><time>2026-09-05T08:57:25Z</time></trkpt>
    <trkpt lat="47.00926" lon="12.29067"><ele>1659</ele><time>2026-09-05T08:57:54Z</time></trkpt>
    <trkpt lat="47.00928" lon="12.29033"><ele>1664</ele><time>2026-09-05T08:59:22Z</time></trkpt>
    <trkpt lat="47.00926" lon="12.29009"><ele>1665</ele><time>2026-09-05T08:59:52Z</time></trkpt>
    <trkpt lat="47.00929" lon="12.28982"><ele>1669</ele><time>2026-09-05T09:00:21Z</time></trkpt>
    <trkpt lat="47.00921" lon="12.28957"><ele>1675</ele><time>2026-09-05T09:00:50Z</time></trkpt>
    <trkpt lat="47.00908" lon="12.28937"><ele>1680</ele><time>2026-09-05T09:01:20Z</time></trkpt>
    <trkpt lat="47.00900" lon="12.28912"><ele>1685</ele><time>2026-09-05T09:01:49Z</time></trkpt>
    <trkpt lat="47.00897" lon="12.28887"><ele>1688</ele><time>2026-09-05T09:02:18Z</time></trkpt>
    <trkpt lat="47.00900" lon="12.28862"><ele>1693</ele><time>2026-09-05T09:02:48Z</time></trkpt>
    <trkpt lat="47.00900" lon="12.28841"><ele>1696</ele><time>2026-09-05T09:03:17Z</time></trkpt>
    <trkpt lat="47.00903" lon="12.28814"><ele>1700</ele><time>2026-09-05T09:03:46Z</time></trkpt>
    <trkpt lat="47.00906" lon="12.28793"><ele>1706</ele><time>2026-09-05T09:04:16Z</time></trkpt>
    <trkpt lat="47.00910" lon="12.28770"><ele>1709</ele><time>2026-09-05T09:04:45Z</time></trkpt>
    <trkpt lat="47.00908" lon="12.28749"><ele>1713</ele><time>2026-09-05T09:05:14Z</time></trkpt>
    <trkpt lat="47.00906" lon="12.28723"><ele>1716</ele><time>2026-09-05T09:05:44Z</time></trkpt>
    <trkpt lat="47.00912" lon="12.28700"><ele>1727</ele><time>2026-09-05T09:06:13Z</time></trkpt>
    <trkpt lat="47.00918" lon="12.28674"><ele>1731</ele><time>2026-09-05T09:06:42Z</time></trkpt>
    <trkpt lat="47.00916" lon="12.28652"><ele>1733</ele><time>2026-09-05T09:07:12Z</time></trkpt>
    <trkpt lat="47.00921" lon="12.28631"><ele>1740</ele><time>2026-09-05T09:07:41Z</time></trkpt>
    <trkpt lat="47.00928" lon="12.28610"><ele>1743</ele><time>2026-09-05T09:08:10Z</time></trkpt>
    <trkpt lat="47.00938" lon="12.28585"><ele>1745</ele><time>2026-09-05T09:08:40Z</time></trkpt>
    <trkpt lat="47.00934" lon="12.28566"><ele>1750</ele><time>2026-09-05T09:09:09Z</time></trkpt>
    <trkpt lat="47.00920" lon="12.28586"><ele>1752</ele><time>2026-09-05T09:09:38Z</time></trkpt>
    <trkpt lat="47.00898" lon="12.28609"><ele>1755</ele><time>2026-09-05T09:10:08Z</time></trkpt>
    <trkpt lat="47.00879" lon="12.28631"><ele>1758</ele><time>2026-09-05T09:10:37Z</time></trkpt>
    <trkpt lat="47.00866" lon="12.28633"><ele>1763</ele><time>2026-09-05T09:11:06Z</time></trkpt>
    <trkpt lat="47.00874" lon="12.28606"><ele>1768</ele><time>2026-09-05T09:11:36Z</time></trkpt>
    <trkpt lat="47.00882" lon="12.28583"><ele>1776</ele><time>2026-09-05T09:12:05Z</time></trkpt>
    <trkpt lat="47.00888" lon="12.28567"><ele>1779</ele><time>2026-09-05T09:12:34Z</time></trkpt>
    <trkpt lat="47.00895" lon="12.28548"><ele>1782</ele><time>2026-09-05T09:13:04Z</time></trkpt>
    <trkpt lat="47.00900" lon="12.28526"><ele>1787</ele><time>2026-09-05T09:13:33Z</time></trkpt>
    <trkpt lat="47.00898" lon="12.28506"><ele>1791</ele><time>2026-09-05T09:14:02Z</time></trkpt>
    <trkpt lat="47.00905" lon="12.28480"><ele>1795</ele><time>2026-09-05T09:14:32Z</time></trkpt>
    <trkpt lat="47.00904" lon="12.28458"><ele>1800</ele><time>2026-09-05T09:15:01Z</time></trkpt>
    <trkpt lat="47.00908" lon="12.28433"><ele>1804</ele><time>2026-09-05T09:15:30Z</time></trkpt>
    <trkpt lat="47.00910" lon="12.28409"><ele>1811</ele><time>2026-09-05T09:16:00Z</time></trkpt>
    <trkpt lat="47.00901" lon="12.28422"><ele>1809</ele><time>2026-09-05T09:16:29Z</time></trkpt>
    <trkpt lat="47.00899" lon="12.28393"><ele>1822</ele><time>2026-09-05T09:17:28Z</time></trkpt>
    <trkpt lat="47.00903" lon="12.28367"><ele>1823</ele><time>2026-09-05T09:17:57Z</time></trkpt>
    <trkpt lat="47.00915" lon="12.28342"><ele>1826</ele><time>2026-09-05T09:18:26Z</time></trkpt>
    <trkpt lat="47.00923" lon="12.28323"><ele>1831</ele><time>2026-09-05T09:18:56Z</time></trkpt>
    <trkpt lat="47.00924" lon="12.28299"><ele>1836</ele><time>2026-09-05T09:19:25Z</time></trkpt>
    <trkpt lat="47.00931" lon="12.28276"><ele>1840</ele><time>2026-09-05T09:19:54Z</time></trkpt>
    <trkpt lat="47.00934" lon="12.28251"><ele>1849</ele><time>2026-09-05T09:20:24Z</time></trkpt>
    <trkpt lat="47.00933" lon="12.28226"><ele>1852</ele><time>2026-09-05T09:20:53Z</time></trkpt>
    <trkpt lat="47.00924" lon="12.28204"><ele>1853</ele><time>2026-09-05T09:21:22Z</time></trkpt>
    <trkpt lat="47.00912" lon="12.28185"><ele>1855</ele><time>2026-09-05T09:21:52Z</time></trkpt>
    <trkpt lat="47.00902" lon="12.28157"><ele>1857</ele><time>2026-09-05T09:22:21Z</time></trkpt>
    <trkpt lat="47.00896" lon="12.28133"><ele>1863</ele><time>2026-09-05T09:22:50Z</time></trkpt>
    <trkpt lat="47.00889" lon="12.28097"><ele>1866</ele><time>2026-09-05T09:23:20Z</time></trkpt>
    <trkpt lat="47.00875" lon="12.28059"><ele>1869</ele><time>2026-09-05T09:23:49Z</time></trkpt>
    <trkpt lat="47.00867" lon="12.28026"><ele>1871</ele><time>2026-09-05T09:24:18Z</time></trkpt>
    <trkpt lat="47.00854" lon="12.27987"><ele>1873</ele><time>2026-09-05T09:24:48Z</time></trkpt>
    <trkpt lat="47.00849" lon="12.27946"><ele>1876</ele><time>2026-09-05T09:25:17Z</time></trkpt>
    <trkpt lat="47.00840" lon="12.27909"><ele>1878</ele><time>2026-09-05T09:25:46Z</time></trkpt>
    <trkpt lat="47.00819" lon="12.27871"><ele>1880</ele><time>2026-09-05T09:26:16Z</time></trkpt>
    <trkpt lat="47.00820" lon="12.27829"><ele>1883</ele><time>2026-09-05T09:26:45Z</time></trkpt>
    <trkpt lat="47.00830" lon="12.27795"><ele>1885</ele><time>2026-09-05T09:27:14Z</time></trkpt>
    <trkpt lat="47.00844" lon="12.27756"><ele>1880</ele><time>2026-09-05T09:27:44Z</time></trkpt>
    <trkpt lat="47.00859" lon="12.27720"><ele>1884</ele><time>2026-09-05T09:28:13Z</time></trkpt>
    <trkpt lat="47.00872" lon="12.27682"><ele>1886</ele><time>2026-09-05T09:28:42Z</time></trkpt>
    <trkpt lat="47.00878" lon="12.27645"><ele>1888</ele><time>2026-09-05T09:29:12Z</time></trkpt>
    <trkpt lat="47.00887" lon="12.27616"><ele>1888</ele><time>2026-09-05T09:29:41Z</time></trkpt>
    <trkpt lat="47.00892" lon="12.27578"><ele>1889</ele><time>2026-09-05T09:30:10Z</time></trkpt>
    <trkpt lat="47.00901" lon="12.27539"><ele>1888</ele><time>2026-09-05T09:30:40Z</time></trkpt>
    <trkpt lat="47.00915" lon="12.27533"><ele>1889</ele><time>2026-09-05T09:31:09Z</time></trkpt>
    <trkpt lat="47.00928" lon="12.27513"><ele>1886</ele><time>2026-09-05T09:32:37Z</time></trkpt>
    <trkpt lat="47.00940" lon="12.27523"><ele>1885</ele><time>2026-09-05T09:34:34Z</time></trkpt>
    <trkpt lat="47.00946" lon="12.27548"><ele>1887</ele><time>2026-09-05T09:35:04Z</time></trkpt>
    <trkpt lat="47.00960" lon="12.27535"><ele>1891</ele><time>2026-09-05T09:36:02Z</time></trkpt>
    <trkpt lat="47.00968" lon="12.27514"><ele>1898</ele><time>2026-09-05T09:36:32Z</time></trkpt>
    <trkpt lat="47.00971" lon="12.27486"><ele>1901</ele><time>2026-09-05T09:37:01Z</time></trkpt>
    <trkpt lat="47.00976" lon="12.27459"><ele>1906</ele><time>2026-09-05T09:37:30Z</time></trkpt>
    <trkpt lat="47.00983" lon="12.27418"><ele>1907</ele><time>2026-09-05T09:38:00Z</time></trkpt>
    <trkpt lat="47.00980" lon="12.27382"><ele>1909</ele><time>2026-09-05T09:38:29Z</time></trkpt>
    <trkpt lat="47.00979" lon="12.27347"><ele>1912</ele><time>2026-09-05T09:38:58Z</time></trkpt>
    <trkpt lat="47.00974" lon="12.27322"><ele>1915</ele><time>2026-09-05T09:39:28Z</time></trkpt>
    <trkpt lat="47.00978" lon="12.27297"><ele>1914</ele><time>2026-09-05T09:39:57Z</time></trkpt>
    <trkpt lat="47.00991" lon="12.27279"><ele>1921</ele><time>2026-09-05T09:40:26Z</time></trkpt>
    <trkpt lat="47.00992" lon="12.27252"><ele>1927</ele><time>2026-09-05T09:40:56Z</time></trkpt>
    <trkpt lat="47.01003" lon="12.27227"><ele>1930</ele><time>2026-09-05T09:41:25Z</time></trkpt>
    <trkpt lat="47.01008" lon="12.27199"><ele>1933</ele><time>2026-09-05T09:41:54Z</time></trkpt>
    <trkpt lat="47.01006" lon="12.27165"><ele>1937</ele><time>2026-09-05T09:42:24Z</time></trkpt>
    <trkpt lat="47.00993" lon="12.27153"><ele>1938</ele><time>2026-09-05T09:42:53Z</time></trkpt>
    <trkpt lat="47.00985" lon="12.27143"><ele>1947</ele><time>2026-09-05T09:47:17Z</time></trkpt>
    <trkpt lat="47.00989" lon="12.27105"><ele>1945</ele><time>2026-09-05T09:47:46Z</time></trkpt>
    <trkpt lat="47.00982" lon="12.27064"><ele>1944</ele><time>2026-09-05T09:48:16Z</time></trkpt>
    <trkpt lat="47.00969" lon="12.27019"><ele>1938</ele><time>2026-09-05T09:48:45Z</time></trkpt>
    <trkpt lat="47.00969" lon="12.26975"><ele>1936</ele><time>2026-09-05T09:49:14Z</time></trkpt>
    <trkpt lat="47.00952" lon="12.26944"><ele>1934</ele><time>2026-09-05T09:49:44Z</time></trkpt>
    <trkpt lat="47.00947" lon="12.26902"><ele>1935</ele><time>2026-09-05T09:50:13Z</time></trkpt>
    <trkpt lat="47.00942" lon="12.26855"><ele>1934</ele><time>2026-09-05T09:50:42Z</time></trkpt>
    <trkpt lat="47.00938" lon="12.26804"><ele>1936</ele><time>2026-09-05T09:51:12Z</time></trkpt>
    <trkpt lat="47.00933" lon="12.26760"><ele>1934</ele><time>2026-09-05T09:51:41Z</time></trkpt>
    <trkpt lat="47.00921" lon="12.26712"><ele>1934</ele><time>2026-09-05T09:52:10Z</time></trkpt>
    <trkpt lat="47.00911" lon="12.26666"><ele>1932</ele><time>2026-09-05T09:52:40Z</time></trkpt>
    <trkpt lat="47.00913" lon="12.26623"><ele>1933</ele><time>2026-09-05T09:53:09Z</time></trkpt>
    <trkpt lat="47.00917" lon="12.26578"><ele>1933</ele><time>2026-09-05T09:53:38Z</time></trkpt>
    <trkpt lat="47.00916" lon="12.26551"><ele>1935</ele><time>2026-09-05T09:54:08Z</time></trkpt>
    <trkpt lat="47.00916" lon="12.26515"><ele>1938</ele><time>2026-09-05T09:54:37Z</time></trkpt>
    <trkpt lat="47.00925" lon="12.26490"><ele>1943</ele><time>2026-09-05T09:55:06Z</time></trkpt>
    <trkpt lat="47.00924" lon="12.26456"><ele>1940</ele><time>2026-09-05T09:55:36Z</time></trkpt>
    <trkpt lat="47.00925" lon="12.26418"><ele>1945</ele><time>2026-09-05T09:56:05Z</time></trkpt>
    <trkpt lat="47.00938" lon="12.26393"><ele>1946</ele><time>2026-09-05T09:56:34Z</time></trkpt>
    <trkpt lat="47.00952" lon="12.26360"><ele>1948</ele><time>2026-09-05T09:57:04Z</time></trkpt>
    <trkpt lat="47.00954" lon="12.26333"><ele>1951</ele><time>2026-09-05T09:57:33Z</time></trkpt>
    <trkpt lat="47.00954" lon="12.26288"><ele>1952</ele><time>2026-09-05T09:58:02Z</time></trkpt>
    <trkpt lat="47.00959" lon="12.26253"><ele>1951</ele><time>2026-09-05T09:58:32Z</time></trkpt>
    <trkpt lat="47.00966" lon="12.26220"><ele>1952</ele><time>2026-09-05T09:59:01Z</time></trkpt>
    <trkpt lat="47.00980" lon="12.26184"><ele>1952</ele><time>2026-09-05T09:59:30Z</time></trkpt>
    <trkpt lat="47.00983" lon="12.26139"><ele>1948</ele><time>2026-09-05T10:00:00Z</time></trkpt>
    <trkpt lat="47.00992" lon="12.26089"><ele>1948</ele><time>2026-09-05T10:00:29Z</time></trkpt>
    <trkpt lat="47.01003" lon="12.26048"><ele>1950</ele><time>2026-09-05T10:00:58Z</time></trkpt>
    <trkpt lat="47.01009" lon="12.26003"><ele>1954</ele><time>2026-09-05T10:01:28Z</time></trkpt>
    <trkpt lat="47.01025" lon="12.25967"><ele>1954</ele><time>2026-09-05T10:01:57Z</time></trkpt>
    <trkpt lat="47.01030" lon="12.25920"><ele>1955</ele><time>2026-09-05T10:02:26Z</time></trkpt>
    <trkpt lat="47.01042" lon="12.25877"><ele>1955</ele><time>2026-09-05T10:02:56Z</time></trkpt>
    <trkpt lat="47.01051" lon="12.25841"><ele>1957</ele><time>2026-09-05T10:03:25Z</time></trkpt>
    <trkpt lat="47.01061" lon="12.25805"><ele>1960</ele><time>2026-09-05T10:03:54Z</time></trkpt>
    <trkpt lat="47.01075" lon="12.25775"><ele>1964</ele><time>2026-09-05T10:04:24Z</time></trkpt>
    <trkpt lat="47.01092" lon="12.25747"><ele>1969</ele><time>2026-09-05T10:04:53Z</time></trkpt>
    <trkpt lat="47.01108" lon="12.25736"><ele>1971</ele><time>2026-09-05T10:05:22Z</time></trkpt>
    <trkpt lat="47.01130" lon="12.25708"><ele>1973</ele><time>2026-09-05T10:05:52Z</time></trkpt>
    <trkpt lat="47.01140" lon="12.25676"><ele>1979</ele><time>2026-09-05T10:06:21Z</time></trkpt>
    <trkpt lat="47.01143" lon="12.25649"><ele>1982</ele><time>2026-09-05T10:06:50Z</time></trkpt>
    <trkpt lat="47.01156" lon="12.25623"><ele>1986</ele><time>2026-09-05T10:07:20Z</time></trkpt>
    <trkpt lat="47.01171" lon="12.25600"><ele>1988</ele><time>2026-09-05T10:07:49Z</time></trkpt>
    <trkpt lat="47.01177" lon="12.25587"><ele>1994</ele><time>2026-09-05T10:10:45Z</time></trkpt>
    <trkpt lat="47.01184" lon="12.25547"><ele>1998</ele><time>2026-09-05T10:11:14Z</time></trkpt>
    <trkpt lat="47.01189" lon="12.25505"><ele>1998</ele><time>2026-09-05T10:11:44Z</time></trkpt>
    <trkpt lat="47.01192" lon="12.25467"><ele>1998</ele><time>2026-09-05T10:12:13Z</time></trkpt>
    <trkpt lat="47.01197" lon="12.25444"><ele>1997</ele><time>2026-09-05T10:12:42Z</time></trkpt>
    <trkpt lat="47.01207" lon="12.25439"><ele>1996</ele><time>2026-09-05T10:13:12Z</time></trkpt>
    <trkpt lat="47.01206" lon="12.25409"><ele>1995</ele><time>2026-09-05T10:13:41Z</time></trkpt>
    <trkpt lat="47.01216" lon="12.25367"><ele>1998</ele><time>2026-09-05T10:14:10Z</time></trkpt>
    <trkpt lat="47.01230" lon="12.25323"><ele>1998</ele><time>2026-09-05T10:14:40Z</time></trkpt>
    <trkpt lat="47.01230" lon="12.25285"><ele>2000</ele><time>2026-09-05T10:15:09Z</time></trkpt>
    <trkpt lat="47.01241" lon="12.25245"><ele>2005</ele><time>2026-09-05T10:15:38Z</time></trkpt>
    <trkpt lat="47.01258" lon="12.25224"><ele>2008</ele><time>2026-09-05T10:16:08Z</time></trkpt>
    <trkpt lat="47.01268" lon="12.25194"><ele>2011</ele><time>2026-09-05T10:16:37Z</time></trkpt>
    <trkpt lat="47.01278" lon="12.25155"><ele>2010</ele><time>2026-09-05T10:17:06Z</time></trkpt>
    <trkpt lat="47.01294" lon="12.25125"><ele>2015</ele><time>2026-09-05T10:17:36Z</time></trkpt>
    <trkpt lat="47.01309" lon="12.25084"><ele>2017</ele><time>2026-09-05T10:18:05Z</time></trkpt>
    <trkpt lat="47.01324" lon="12.25049"><ele>2017</ele><time>2026-09-05T10:18:34Z</time></trkpt>
    <trkpt lat="47.01342" lon="12.25029"><ele>2018</ele><time>2026-09-05T10:19:04Z</time></trkpt>
    <trkpt lat="47.01361" lon="12.24999"><ele>2019</ele><time>2026-09-05T10:19:33Z</time></trkpt>
    <trkpt lat="47.01378" lon="12.24988"><ele>2021</ele><time>2026-09-05T10:20:02Z</time></trkpt>
    <trkpt lat="47.01390" lon="12.24973"><ele>2026</ele><time>2026-09-05T10:20:31Z</time></trkpt>
    <trkpt lat="47.01398" lon="12.24944"><ele>2029</ele><time>2026-09-05T10:21:00Z</time></trkpt>
    <trkpt lat="47.01405" lon="12.24913"><ele>2033</ele><time>2026-09-05T10:21:29Z</time></trkpt>
    <trkpt lat="47.01422" lon="12.24884"><ele>2032</ele><time>2026-09-05T10:21:58Z</time></trkpt>
    <trkpt lat="47.01444" lon="12.24864"><ele>2035</ele><time>2026-09-05T10:22:28Z</time></trkpt>
    <trkpt lat="47.01468" lon="12.24846"><ele>2037</ele><time>2026-09-05T10:22:57Z</time></trkpt>
    <trkpt lat="47.01486" lon="12.24816"><ele>2038</ele><time>2026-09-05T10:23:26Z</time></trkpt>
    <trkpt lat="47.01494" lon="12.24788"><ele>2040</ele><time>2026-09-05T10:23:56Z</time></trkpt>
    <trkpt lat="47.01513" lon="12.24757"><ele>2042</ele><time>2026-09-05T10:24:25Z</time></trkpt>
    <trkpt lat="47.01530" lon="12.24726"><ele>2043</ele><time>2026-09-05T10:24:54Z</time></trkpt>
    <trkpt lat="47.01542" lon="12.24692"><ele>2040</ele><time>2026-09-05T10:25:24Z</time></trkpt>
    <trkpt lat="47.01557" lon="12.24667"><ele>2042</ele><time>2026-09-05T10:25:53Z</time></trkpt>
    <trkpt lat="47.01571" lon="12.24634"><ele>2042</ele><time>2026-09-05T10:26:22Z</time></trkpt>
    <trkpt lat="47.01583" lon="12.24597"><ele>2041</ele><time>2026-09-05T10:26:52Z</time></trkpt>
    <trkpt lat="47.01594" lon="12.24586"><ele>2038</ele><time>2026-09-05T10:27:21Z</time></trkpt>
    <trkpt lat="47.01582" lon="12.24598"><ele>2040</ele><time>2026-09-05T11:00:57Z</time></trkpt>
    <trkpt lat="47.01578" lon="12.24617"><ele>2040</ele><time>2026-09-05T11:03:23Z</time></trkpt>
    <trkpt lat="47.01562" lon="12.24663"><ele>2040</ele><time>2026-09-05T11:03:53Z</time></trkpt>
    <trkpt lat="47.01541" lon="12.24693"><ele>2041</ele><time>2026-09-05T11:04:22Z</time></trkpt>
    <trkpt lat="47.01531" lon="12.24716"><ele>2040</ele><time>2026-09-05T11:04:51Z</time></trkpt>
    <trkpt lat="47.01526" lon="12.24741"><ele>2040</ele><time>2026-09-05T11:05:21Z</time></trkpt>
    <trkpt lat="47.01513" lon="12.24766"><ele>2040</ele><time>2026-09-05T11:05:50Z</time></trkpt>
    <trkpt lat="47.01492" lon="12.24796"><ele>2043</ele><time>2026-09-05T11:06:19Z</time></trkpt>
    <trkpt lat="47.01481" lon="12.24832"><ele>2041</ele><time>2026-09-05T11:06:49Z</time></trkpt>
    <trkpt lat="47.01453" lon="12.24852"><ele>2043</ele><time>2026-09-05T11:07:18Z</time></trkpt>
    <trkpt lat="47.01427" lon="12.24877"><ele>2039</ele><time>2026-09-05T11:07:47Z</time></trkpt>
    <trkpt lat="47.01407" lon="12.24911"><ele>2033</ele><time>2026-09-05T11:08:17Z</time></trkpt>
    <trkpt lat="47.01396" lon="12.24953"><ele>2033</ele><time>2026-09-05T11:08:46Z</time></trkpt>
    <trkpt lat="47.01387" lon="12.24971"><ele>2034</ele><time>2026-09-05T11:09:45Z</time></trkpt>
    <trkpt lat="47.01376" lon="12.24982"><ele>2034</ele><time>2026-09-05T11:10:14Z</time></trkpt>
    <trkpt lat="47.01356" lon="12.25002"><ele>2029</ele><time>2026-09-05T11:10:43Z</time></trkpt>
    <trkpt lat="47.01341" lon="12.25036"><ele>2022</ele><time>2026-09-05T11:11:13Z</time></trkpt>
    <trkpt lat="47.01320" lon="12.25054"><ele>2021</ele><time>2026-09-05T11:11:42Z</time></trkpt>
    <trkpt lat="47.01304" lon="12.25099"><ele>2022</ele><time>2026-09-05T11:12:11Z</time></trkpt>
    <trkpt lat="47.01285" lon="12.25136"><ele>2020</ele><time>2026-09-05T11:12:41Z</time></trkpt>
    <trkpt lat="47.01272" lon="12.25181"><ele>2016</ele><time>2026-09-05T11:13:10Z</time></trkpt>
    <trkpt lat="47.01257" lon="12.25216"><ele>2012</ele><time>2026-09-05T11:13:39Z</time></trkpt>
    <trkpt lat="47.01241" lon="12.25248"><ele>2009</ele><time>2026-09-05T11:14:09Z</time></trkpt>
    <trkpt lat="47.01230" lon="12.25293"><ele>2008</ele><time>2026-09-05T11:14:38Z</time></trkpt>
    <trkpt lat="47.01223" lon="12.25338"><ele>2003</ele><time>2026-09-05T11:15:07Z</time></trkpt>
    <trkpt lat="47.01211" lon="12.25385"><ele>2003</ele><time>2026-09-05T11:15:37Z</time></trkpt>
    <trkpt lat="47.01203" lon="12.25421"><ele>2002</ele><time>2026-09-05T11:16:06Z</time></trkpt>
    <trkpt lat="47.01205" lon="12.25444"><ele>1996</ele><time>2026-09-05T11:16:35Z</time></trkpt>
    <trkpt lat="47.01198" lon="12.25454"><ele>1995</ele><time>2026-09-05T11:17:05Z</time></trkpt>
    <trkpt lat="47.01192" lon="12.25495"><ele>1994</ele><time>2026-09-05T11:17:34Z</time></trkpt>
    <trkpt lat="47.01185" lon="12.25523"><ele>1998</ele><time>2026-09-05T11:18:03Z</time></trkpt>
    <trkpt lat="47.01176" lon="12.25582"><ele>1997</ele><time>2026-09-05T11:19:02Z</time></trkpt>
    <trkpt lat="47.01158" lon="12.25626"><ele>1991</ele><time>2026-09-05T11:19:31Z</time></trkpt>
    <trkpt lat="47.01137" lon="12.25659"><ele>1988</ele><time>2026-09-05T11:20:01Z</time></trkpt>
    <trkpt lat="47.01135" lon="12.25695"><ele>1989</ele><time>2026-09-05T11:20:30Z</time></trkpt>
    <trkpt lat="47.01115" lon="12.25724"><ele>1985</ele><time>2026-09-05T11:20:59Z</time></trkpt>
    <trkpt lat="47.01096" lon="12.25747"><ele>1979</ele><time>2026-09-05T11:21:29Z</time></trkpt>
    <trkpt lat="47.01071" lon="12.25784"><ele>1970</ele><time>2026-09-05T11:21:58Z</time></trkpt>
    <trkpt lat="47.01056" lon="12.25826"><ele>1965</ele><time>2026-09-05T11:22:27Z</time></trkpt>
    <trkpt lat="47.01047" lon="12.25871"><ele>1962</ele><time>2026-09-05T11:22:57Z</time></trkpt>
    <trkpt lat="47.01034" lon="12.25904"><ele>1959</ele><time>2026-09-05T11:23:26Z</time></trkpt>
    <trkpt lat="47.01025" lon="12.25955"><ele>1957</ele><time>2026-09-05T11:23:55Z</time></trkpt>
    <trkpt lat="47.01022" lon="12.25977"><ele>1960</ele><time>2026-09-05T11:24:25Z</time></trkpt>
    <trkpt lat="47.01013" lon="12.25999"><ele>1956</ele><time>2026-09-05T11:24:54Z</time></trkpt>
    <trkpt lat="47.01006" lon="12.26023"><ele>1952</ele><time>2026-09-05T11:25:23Z</time></trkpt>
    <trkpt lat="47.01001" lon="12.26057"><ele>1952</ele><time>2026-09-05T11:25:53Z</time></trkpt>
    <trkpt lat="47.00998" lon="12.26097"><ele>1951</ele><time>2026-09-05T11:26:22Z</time></trkpt>
    <trkpt lat="47.00987" lon="12.26145"><ele>1954</ele><time>2026-09-05T11:26:51Z</time></trkpt>
    <trkpt lat="47.00976" lon="12.26196"><ele>1953</ele><time>2026-09-05T11:27:21Z</time></trkpt>
    <trkpt lat="47.00965" lon="12.26227"><ele>1952</ele><time>2026-09-05T11:27:50Z</time></trkpt>
    <trkpt lat="47.00960" lon="12.26241"><ele>1952</ele><time>2026-09-05T11:28:19Z</time></trkpt>
    <trkpt lat="47.00955" lon="12.26268"><ele>1953</ele><time>2026-09-05T11:30:46Z</time></trkpt>
    <trkpt lat="47.00956" lon="12.26318"><ele>1954</ele><time>2026-09-05T11:31:15Z</time></trkpt>
    <trkpt lat="47.00951" lon="12.26360"><ele>1954</ele><time>2026-09-05T11:31:45Z</time></trkpt>
    <trkpt lat="47.00938" lon="12.26397"><ele>1952</ele><time>2026-09-05T11:32:14Z</time></trkpt>
    <trkpt lat="47.00921" lon="12.26435"><ele>1949</ele><time>2026-09-05T11:32:43Z</time></trkpt>
    <trkpt lat="47.00924" lon="12.26482"><ele>1948</ele><time>2026-09-05T11:33:13Z</time></trkpt>
    <trkpt lat="47.00916" lon="12.26520"><ele>1946</ele><time>2026-09-05T11:33:42Z</time></trkpt>
    <trkpt lat="47.00914" lon="12.26570"><ele>1946</ele><time>2026-09-05T11:34:11Z</time></trkpt>
    <trkpt lat="47.00911" lon="12.26619"><ele>1941</ele><time>2026-09-05T11:34:41Z</time></trkpt>
    <trkpt lat="47.00913" lon="12.26656"><ele>1934</ele><time>2026-09-05T11:35:10Z</time></trkpt>
    <trkpt lat="47.00918" lon="12.26692"><ele>1937</ele><time>2026-09-05T11:35:39Z</time></trkpt>
    <trkpt lat="47.00928" lon="12.26739"><ele>1941</ele><time>2026-09-05T11:36:09Z</time></trkpt>
    <trkpt lat="47.00936" lon="12.26788"><ele>1940</ele><time>2026-09-05T11:36:38Z</time></trkpt>
    <trkpt lat="47.00944" lon="12.26836"><ele>1940</ele><time>2026-09-05T11:37:07Z</time></trkpt>
    <trkpt lat="47.00947" lon="12.26888"><ele>1939</ele><time>2026-09-05T11:37:37Z</time></trkpt>
    <trkpt lat="47.00948" lon="12.26940"><ele>1940</ele><time>2026-09-05T11:38:06Z</time></trkpt>
    <trkpt lat="47.00965" lon="12.26970"><ele>1939</ele><time>2026-09-05T11:38:35Z</time></trkpt>
    <trkpt lat="47.00965" lon="12.27012"><ele>1937</ele><time>2026-09-05T11:39:05Z</time></trkpt>
    <trkpt lat="47.00976" lon="12.27054"><ele>1940</ele><time>2026-09-05T11:39:34Z</time></trkpt>
    <trkpt lat="47.00991" lon="12.27087"><ele>1942</ele><time>2026-09-05T11:40:03Z</time></trkpt>
    <trkpt lat="47.00989" lon="12.27128"><ele>1943</ele><time>2026-09-05T11:40:33Z</time></trkpt>
    <trkpt lat="47.00993" lon="12.27154"><ele>1945</ele><time>2026-09-05T11:41:02Z</time></trkpt>
    <trkpt lat="47.01007" lon="12.27175"><ele>1947</ele><time>2026-09-05T11:41:31Z</time></trkpt>
    <trkpt lat="47.01004" lon="12.27214"><ele>1944</ele><time>2026-09-05T11:42:01Z</time></trkpt>
    <trkpt lat="47.00990" lon="12.27246"><ele>1941</ele><time>2026-09-05T11:42:30Z</time></trkpt>
    <trkpt lat="47.00986" lon="12.27281"><ele>1935</ele><time>2026-09-05T11:42:59Z</time></trkpt>
    <trkpt lat="47.00973" lon="12.27313"><ele>1927</ele><time>2026-09-05T11:43:29Z</time></trkpt>
    <trkpt lat="47.00976" lon="12.27351"><ele>1922</ele><time>2026-09-05T11:43:58Z</time></trkpt>
    <trkpt lat="47.00979" lon="12.27394"><ele>1918</ele><time>2026-09-05T11:44:27Z</time></trkpt>
    <trkpt lat="47.00979" lon="12.27444"><ele>1915</ele><time>2026-09-05T11:44:57Z</time></trkpt>
    <trkpt lat="47.00974" lon="12.27483"><ele>1912</ele><time>2026-09-05T11:45:26Z</time></trkpt>
    <trkpt lat="47.00967" lon="12.27516"><ele>1911</ele><time>2026-09-05T11:45:55Z</time></trkpt>
    <trkpt lat="47.00955" lon="12.27548"><ele>1905</ele><time>2026-09-05T11:46:25Z</time></trkpt>
    <trkpt lat="47.00945" lon="12.27549"><ele>1900</ele><time>2026-09-05T11:46:54Z</time></trkpt>
    <trkpt lat="47.00935" lon="12.27519"><ele>1893</ele><time>2026-09-05T11:47:23Z</time></trkpt>
    <trkpt lat="47.00913" lon="12.27531"><ele>1891</ele><time>2026-09-05T11:47:53Z</time></trkpt>
    <trkpt lat="47.00901" lon="12.27563"><ele>1891</ele><time>2026-09-05T11:48:22Z</time></trkpt>
    <trkpt lat="47.00895" lon="12.27607"><ele>1891</ele><time>2026-09-05T11:48:51Z</time></trkpt>
    <trkpt lat="47.00879" lon="12.27648"><ele>1893</ele><time>2026-09-05T11:49:21Z</time></trkpt>
    <trkpt lat="47.00868" lon="12.27698"><ele>1891</ele><time>2026-09-05T11:50:19Z</time></trkpt>
    <trkpt lat="47.00851" lon="12.27742"><ele>1890</ele><time>2026-09-05T11:50:49Z</time></trkpt>
    <trkpt lat="47.00831" lon="12.27787"><ele>1887</ele><time>2026-09-05T11:51:18Z</time></trkpt>
    <trkpt lat="47.00818" lon="12.27831"><ele>1885</ele><time>2026-09-05T11:51:47Z</time></trkpt>
    <trkpt lat="47.00824" lon="12.27882"><ele>1886</ele><time>2026-09-05T11:52:17Z</time></trkpt>
    <trkpt lat="47.00843" lon="12.27924"><ele>1884</ele><time>2026-09-05T11:52:46Z</time></trkpt>
    <trkpt lat="47.00856" lon="12.27965"><ele>1881</ele><time>2026-09-05T11:53:15Z</time></trkpt>
    <trkpt lat="47.00866" lon="12.28016"><ele>1883</ele><time>2026-09-05T11:53:45Z</time></trkpt>
    <trkpt lat="47.00877" lon="12.28058"><ele>1881</ele><time>2026-09-05T11:54:14Z</time></trkpt>
    <trkpt lat="47.00888" lon="12.28097"><ele>1877</ele><time>2026-09-05T11:54:43Z</time></trkpt>
    <trkpt lat="47.00896" lon="12.28138"><ele>1874</ele><time>2026-09-05T11:55:13Z</time></trkpt>
    <trkpt lat="47.00914" lon="12.28168"><ele>1871</ele><time>2026-09-05T11:55:42Z</time></trkpt>
    <trkpt lat="47.00926" lon="12.28203"><ele>1866</ele><time>2026-09-05T11:56:11Z</time></trkpt>
    <trkpt lat="47.00933" lon="12.28237"><ele>1860</ele><time>2026-09-05T11:56:41Z</time></trkpt>
    <trkpt lat="47.00931" lon="12.28275"><ele>1853</ele><time>2026-09-05T11:57:10Z</time></trkpt>
    <trkpt lat="47.00928" lon="12.28306"><ele>1848</ele><time>2026-09-05T11:57:39Z</time></trkpt>
    <trkpt lat="47.00920" lon="12.28341"><ele>1843</ele><time>2026-09-05T11:58:09Z</time></trkpt>
    <trkpt lat="47.00903" lon="12.28371"><ele>1838</ele><time>2026-09-05T11:58:38Z</time></trkpt>
    <trkpt lat="47.00895" lon="12.28402"><ele>1831</ele><time>2026-09-05T11:59:07Z</time></trkpt>
    <trkpt lat="47.00897" lon="12.28435"><ele>1826</ele><time>2026-09-05T11:59:37Z</time></trkpt>
    <trkpt lat="47.00907" lon="12.28404"><ele>1819</ele><time>2026-09-05T12:00:06Z</time></trkpt>
    <trkpt lat="47.00911" lon="12.28440"><ele>1814</ele><time>2026-09-05T12:00:35Z</time></trkpt>
    <trkpt lat="47.00906" lon="12.28461"><ele>1811</ele><time>2026-09-05T12:01:05Z</time></trkpt>
    <trkpt lat="47.00903" lon="12.28492"><ele>1806</ele><time>2026-09-05T12:01:34Z</time></trkpt>
    <trkpt lat="47.00900" lon="12.28529"><ele>1799</ele><time>2026-09-05T12:02:03Z</time></trkpt>
    <trkpt lat="47.00896" lon="12.28550"><ele>1794</ele><time>2026-09-05T12:02:33Z</time></trkpt>
    <trkpt lat="47.00887" lon="12.28577"><ele>1792</ele><time>2026-09-05T12:03:02Z</time></trkpt>
    <trkpt lat="47.00876" lon="12.28608"><ele>1785</ele><time>2026-09-05T12:03:31Z</time></trkpt>
    <trkpt lat="47.00868" lon="12.28640"><ele>1778</ele><time>2026-09-05T12:04:01Z</time></trkpt>
    <trkpt lat="47.00890" lon="12.28623"><ele>1770</ele><time>2026-09-05T12:04:30Z</time></trkpt>
    <trkpt lat="47.00913" lon="12.28593"><ele>1766</ele><time>2026-09-05T12:04:59Z</time></trkpt>
    <trkpt lat="47.00938" lon="12.28567"><ele>1762</ele><time>2026-09-05T12:05:29Z</time></trkpt>
    <trkpt lat="47.00928" lon="12.28593"><ele>1756</ele><time>2026-09-05T12:05:58Z</time></trkpt>
    <trkpt lat="47.00922" lon="12.28625"><ele>1753</ele><time>2026-09-05T12:06:27Z</time></trkpt>
    <trkpt lat="47.00913" lon="12.28660"><ele>1746</ele><time>2026-09-05T12:06:57Z</time></trkpt>
    <trkpt lat="47.00915" lon="12.28691"><ele>1739</ele><time>2026-09-05T12:07:26Z</time></trkpt>
    <trkpt lat="47.00910" lon="12.28722"><ele>1731</ele><time>2026-09-05T12:07:55Z</time></trkpt>
    <trkpt lat="47.00909" lon="12.28745"><ele>1727</ele><time>2026-09-05T12:08:25Z</time></trkpt>
    <trkpt lat="47.00912" lon="12.28777"><ele>1719</ele><time>2026-09-05T12:08:54Z</time></trkpt>
    <trkpt lat="47.00906" lon="12.28808"><ele>1713</ele><time>2026-09-05T12:09:23Z</time></trkpt>
    <trkpt lat="47.00900" lon="12.28842"><ele>1706</ele><time>2026-09-05T12:09:53Z</time></trkpt>
    <trkpt lat="47.00896" lon="12.28874"><ele>1700</ele><time>2026-09-05T12:10:22Z</time></trkpt>
    <trkpt lat="47.00896" lon="12.28904"><ele>1696</ele><time>2026-09-05T12:10:51Z</time></trkpt>
    <trkpt lat="47.00904" lon="12.28928"><ele>1690</ele><time>2026-09-05T12:11:21Z</time></trkpt>
    <trkpt lat="47.00924" lon="12.28964"><ele>1687</ele><time>2026-09-05T12:12:19Z</time></trkpt>
    <trkpt lat="47.00923" lon="12.29002"><ele>1683</ele><time>2026-09-05T12:12:49Z</time></trkpt>
    <trkpt lat="47.00925" lon="12.29037"><ele>1675</ele><time>2026-09-05T12:13:18Z</time></trkpt>
    <trkpt lat="47.00926" lon="12.29077"><ele>1671</ele><time>2026-09-05T12:13:47Z</time></trkpt>
    <trkpt lat="47.00932" lon="12.29103"><ele>1666</ele><time>2026-09-05T12:14:17Z</time></trkpt>
    <trkpt lat="47.00933" lon="12.29131"><ele>1665</ele><time>2026-09-05T12:14:46Z</time></trkpt>
    <trkpt lat="47.00935" lon="12.29177"><ele>1664</ele><time>2026-09-05T12:15:15Z</time></trkpt>
    <trkpt lat="47.00942" lon="12.29218"><ele>1662</ele><time>2026-09-05T12:15:45Z</time></trkpt>
    <trkpt lat="47.00930" lon="12.29264"><ele>1657</ele><time>2026-09-05T12:16:14Z</time></trkpt>
    <trkpt lat="47.00930" lon="12.29310"><ele>1656</ele><time>2026-09-05T12:16:43Z</time></trkpt>
    <trkpt lat="47.00941" lon="12.29302"><ele>1652</ele><time>2026-09-05T12:17:13Z</time></trkpt>
    <trkpt lat="47.00954" lon="12.29303"><ele>1645</ele><time>2026-09-05T12:17:42Z</time></trkpt>
    <trkpt lat="47.00961" lon="12.29350"><ele>1644</ele><time>2026-09-05T12:18:11Z</time></trkpt>
    <trkpt lat="47.00959" lon="12.29379"><ele>1643</ele><time>2026-09-05T12:19:10Z</time></trkpt>
    <trkpt lat="47.00956" lon="12.29413"><ele>1649</ele><time>2026-09-05T12:31:53Z</time></trkpt>
    <trkpt lat="47.00952" lon="12.29463"><ele>1645</ele><time>2026-09-05T12:32:22Z</time></trkpt>
    <trkpt lat="47.00937" lon="12.29498"><ele>1645</ele><time>2026-09-05T12:32:51Z</time></trkpt>
    <trkpt lat="47.00939" lon="12.29513"><ele>1643</ele><time>2026-09-05T12:33:21Z</time></trkpt>
    <trkpt lat="47.00937" lon="12.29529"><ele>1645</ele><time>2026-09-05T12:33:50Z</time></trkpt>
    <trkpt lat="47.00943" lon="12.29547"><ele>1639</ele><time>2026-09-05T12:34:19Z</time></trkpt>
    <trkpt lat="47.00943" lon="12.29566"><ele>1637</ele><time>2026-09-05T12:34:49Z</time></trkpt>
    <trkpt lat="47.00950" lon="12.29584"><ele>1637</ele><time>2026-09-05T12:35:18Z</time></trkpt>
    <trkpt lat="47.00942" lon="12.29590"><ele>1637</ele><time>2026-09-05T12:35:47Z</time></trkpt>
    <trkpt lat="47.00943" lon="12.29642"><ele>1636</ele><time>2026-09-05T12:36:46Z</time></trkpt>
    <trkpt lat="47.00940" lon="12.29661"><ele>1634</ele><time>2026-09-05T12:37:15Z</time></trkpt>
    <trkpt lat="47.00945" lon="12.29680"><ele>1632</ele><time>2026-09-05T12:37:45Z</time></trkpt>
    <trkpt lat="47.00946" lon="12.29707"><ele>1628</ele><time>2026-09-05T12:38:14Z</time></trkpt>
    <trkpt lat="47.00950" lon="12.29749"><ele>1622</ele><time>2026-09-05T12:38:43Z</time></trkpt>
    <trkpt lat="47.00960" lon="12.29759"><ele>1619</ele><time>2026-09-05T12:39:13Z</time></trkpt>
    <trkpt lat="47.00956" lon="12.29793"><ele>1613</ele><time>2026-09-05T12:42:38Z</time></trkpt>
    <trkpt lat="47.00962" lon="12.29812"><ele>1611</ele><time>2026-09-05T12:43:07Z</time></trkpt>
    <trkpt lat="47.00955" lon="12.29828"><ele>1607</ele><time>2026-09-05T12:43:37Z</time></trkpt>
    <trkpt lat="47.00951" lon="12.29846"><ele>1604</ele><time>2026-09-05T12:44:06Z</time></trkpt>
    <trkpt lat="47.00956" lon="12.29859"><ele>1598</ele><time>2026-09-05T12:45:05Z</time></trkpt>
    <trkpt lat="47.00954" lon="12.29891"><ele>1593</ele><time>2026-09-05T12:47:15Z</time></trkpt>
    <trkpt lat="47.00949" lon="12.29916"><ele>1591</ele><time>2026-09-05T12:47:45Z</time></trkpt>
    <trkpt lat="47.00961" lon="12.29912"><ele>1585</ele><time>2026-09-05T12:48:14Z</time></trkpt>
    <trkpt lat="47.00940" lon="12.29946"><ele>1581</ele><time>2026-09-05T12:49:42Z</time></trkpt>
    <trkpt lat="47.00967" lon="12.29938"><ele>1576</ele><time>2026-09-05T12:50:11Z</time></trkpt>
    <trkpt lat="47.00978" lon="12.29942"><ele>1569</ele><time>2026-09-05T12:50:41Z</time></trkpt>
    <trkpt lat="47.00969" lon="12.29933"><ele>1569</ele><time>2026-09-05T12:52:09Z</time></trkpt>
    <trkpt lat="47.00944" lon="12.29951"><ele>1570</ele><time>2026-09-05T12:52:38Z</time></trkpt>
    <trkpt lat="47.00940" lon="12.29991"><ele>1571</ele><time>2026-09-05T12:53:07Z</time></trkpt>
    <trkpt lat="47.00939" lon="12.30008"><ele>1570</ele><time>2026-09-05T12:54:06Z</time></trkpt>
    <trkpt lat="47.00928" lon="12.30027"><ele>1562</ele><time>2026-09-05T12:58:59Z</time></trkpt>
    <trkpt lat="47.00909" lon="12.30046"><ele>1559</ele><time>2026-09-05T12:59:29Z</time></trkpt>
    <trkpt lat="47.00891" lon="12.30058"><ele>1556</ele><time>2026-09-05T12:59:58Z</time></trkpt>
    <trkpt lat="47.00888" lon="12.30075"><ele>1554</ele><time>2026-09-05T13:00:27Z</time></trkpt>
    <trkpt lat="47.00900" lon="12.30104"><ele>1547</ele><time>2026-09-05T13:00:57Z</time></trkpt>
    <trkpt lat="47.00907" lon="12.30134"><ele>1544</ele><time>2026-09-05T13:02:25Z</time></trkpt>
    <trkpt lat="47.00904" lon="12.30157"><ele>1542</ele><time>2026-09-05T13:02:54Z</time></trkpt>
    <trkpt lat="47.00907" lon="12.30170"><ele>1542</ele><time>2026-09-05T13:03:23Z</time></trkpt>
    <trkpt lat="47.00903" lon="12.30199"><ele>1543</ele><time>2026-09-05T13:05:50Z</time></trkpt>
    <trkpt lat="47.00904" lon="12.30242"><ele>1539</ele><time>2026-09-05T13:06:19Z</time></trkpt>
    <trkpt lat="47.00894" lon="12.30283"><ele>1535</ele><time>2026-09-05T13:06:49Z</time></trkpt>
    <trkpt lat="47.00886" lon="12.30317"><ele>1525</ele><time>2026-09-05T13:07:18Z</time></trkpt>
    <trkpt lat="47.00882" lon="12.30356"><ele>1522</ele><time>2026-09-05T13:07:47Z</time></trkpt>
    <trkpt lat="47.00874" lon="12.30397"><ele>1519</ele><time>2026-09-05T13:08:17Z</time></trkpt>
    <trkpt lat="47.00887" lon="12.30437"><ele>1517</ele><time>2026-09-05T13:08:46Z</time></trkpt>
    <trkpt lat="47.00892" lon="12.30457"><ele>1516</ele><time>2026-09-05T13:09:15Z</time></trkpt>
    <trkpt lat="47.00885" lon="12.30471"><ele>1514</ele><time>2026-09-05T13:09:45Z</time></trkpt>
    <trkpt lat="47.00904" lon="12.30459"><ele>1511</ele><time>2026-09-05T13:10:14Z</time></trkpt>
    <trkpt lat="47.00913" lon="12.30451"><ele>1512</ele><time>2026-09-05T13:10:43Z</time></trkpt>
    <trkpt lat="47.00913" lon="12.30465"><ele>1515</ele><time>2026-09-05T13:45:26Z</time></trkpt>
    <trkpt lat="47.00916" lon="12.30411"><ele>1461</ele><time>2026-09-05T13:48:18Z</time></trkpt>
    <trkpt lat="47.00887" lon="12.30421"><ele>1455</ele><time>2026-09-05T13:48:48Z</time></trkpt>
    <trkpt lat="47.00911" lon="12.30421"><ele>1465</ele><time>2026-09-05T13:49:17Z</time></trkpt>
    <trkpt lat="47.00910" lon="12.30457"><ele>1495</ele><time>2026-09-05T13:49:26Z</time></trkpt>
    <trkpt lat="47.00905" lon="12.30469"><ele>1512</ele><time>2026-09-05T13:50:00Z</time></trkpt>
    <trkpt lat="47.00901" lon="12.30485"><ele>1514</ele><time>2026-09-05T13:52:26Z</time></trkpt>
    <trkpt lat="47.00907" lon="12.30533"><ele>1512</ele><time>2026-09-05T13:52:56Z</time></trkpt>
    <trkpt lat="47.00920" lon="12.30554"><ele>1512</ele><time>2026-09-05T13:53:25Z</time></trkpt>
    <trkpt lat="47.00955" lon="12.30577"><ele>1511</ele><time>2026-09-05T13:53:54Z</time></trkpt>
    <trkpt lat="47.00976" lon="12.30617"><ele>1511</ele><time>2026-09-05T13:54:24Z</time></trkpt>
    <trkpt lat="47.00984" lon="12.30669"><ele>1511</ele><time>2026-09-05T13:54:53Z</time></trkpt>
    <trkpt lat="47.00990" lon="12.30721"><ele>1508</ele><time>2026-09-05T13:55:22Z</time></trkpt>
    <trkpt lat="47.00990" lon="12.30776"><ele>1508</ele><time>2026-09-05T13:55:52Z</time></trkpt>
    <trkpt lat="47.00974" lon="12.30820"><ele>1508</ele><time>2026-09-05T13:56:21Z</time></trkpt>
    <trkpt lat="47.00962" lon="12.30866"><ele>1509</ele><time>2026-09-05T13:56:50Z</time></trkpt>
    <trkpt lat="47.00955" lon="12.30923"><ele>1503</ele><time>2026-09-05T13:57:20Z</time></trkpt>
    <trkpt lat="47.00962" lon="12.30968"><ele>1504</ele><time>2026-09-05T13:57:49Z</time></trkpt>
    <trkpt lat="47.00958" lon="12.31020"><ele>1506</ele><time>2026-09-05T13:58:18Z</time></trkpt>
    <trkpt lat="47.00971" lon="12.31079"><ele>1504</ele><time>2026-09-05T13:58:48Z</time></trkpt>
    <trkpt lat="47.00980" lon="12.31127"><ele>1508</ele><time>2026-09-05T13:59:17Z</time></trkpt>
    <trkpt lat="47.00986" lon="12.31182"><ele>1502</ele><time>2026-09-05T13:59:46Z</time></trkpt>
    <trkpt lat="47.00996" lon="12.31232"><ele>1505</ele><time>2026-09-05T14:00:16Z</time></trkpt>
    <trkpt lat="47.01013" lon="12.31276"><ele>1502</ele><time>2026-09-05T14:00:45Z</time></trkpt>
    <trkpt lat="47.01045" lon="12.31307"><ele>1499</ele><time>2026-09-05T14:01:14Z</time></trkpt>
    <trkpt lat="47.01069" lon="12.31347"><ele>1499</ele><time>2026-09-05T14:01:44Z</time></trkpt>
    <trkpt lat="47.01096" lon="12.31381"><ele>1499</ele><time>2026-09-05T14:02:13Z</time></trkpt>
    <trkpt lat="47.01125" lon="12.31408"><ele>1496</ele><time>2026-09-05T14:02:42Z</time></trkpt>
    <trkpt lat="47.01158" lon="12.31422"><ele>1493</ele><time>2026-09-05T14:03:12Z</time></trkpt>
    <trkpt lat="47.01180" lon="12.31461"><ele>1487</ele><time>2026-09-05T14:03:41Z</time></trkpt>
    <trkpt lat="47.01181" lon="12.31475"><ele>1484</ele><time>2026-09-05T14:04:10Z</time></trkpt>
    <trkpt lat="47.01197" lon="12.31478"><ele>1475</ele><time>2026-09-05T14:04:40Z</time></trkpt>
    <trkpt lat="47.01230" lon="12.31488"><ele>1473</ele><time>2026-09-05T14:05:09Z</time></trkpt>
    <trkpt lat="47.01245" lon="12.31469"><ele>1467</ele><time>2026-09-05T14:07:06Z</time></trkpt>
    <trkpt lat="47.01277" lon="12.31463"><ele>1464</ele><time>2026-09-05T14:07:36Z</time></trkpt>
    <trkpt lat="47.01304" lon="12.31479"><ele>1460</ele><time>2026-09-05T14:08:05Z</time></trkpt>
    <trkpt lat="47.01322" lon="12.31509"><ele>1457</ele><time>2026-09-05T14:08:34Z</time></trkpt>
    <trkpt lat="47.01352" lon="12.31535"><ele>1451</ele><time>2026-09-05T14:09:04Z</time></trkpt>
    <trkpt lat="47.01378" lon="12.31557"><ele>1449</ele><time>2026-09-05T14:09:33Z</time></trkpt>
    <trkpt lat="47.01404" lon="12.31581"><ele>1443</ele><time>2026-09-05T14:10:02Z</time></trkpt>
    <trkpt lat="47.01427" lon="12.31614"><ele>1439</ele><time>2026-09-05T14:10:32Z</time></trkpt>
    <trkpt lat="47.01444" lon="12.31652"><ele>1434</ele><time>2026-09-05T14:11:01Z</time></trkpt>
    <trkpt lat="47.01477" lon="12.31675"><ele>1427</ele><time>2026-09-05T14:11:30Z</time></trkpt>
    <trkpt lat="47.01505" lon="12.31704"><ele>1424</ele><time>2026-09-05T14:12:00Z</time></trkpt>
    <trkpt lat="47.01537" lon="12.31728"><ele>1422</ele><time>2026-09-05T14:12:29Z</time></trkpt>
    <trkpt lat="47.01570" lon="12.31741"><ele>1419</ele><time>2026-09-05T14:12:58Z</time></trkpt>
    <trkpt lat="47.01582" lon="12.31754"><ele>1417</ele><time>2026-09-05T14:13:28Z</time></trkpt>
    <trkpt lat="47.01616" lon="12.31778"><ele>1414</ele><time>2026-09-05T14:13:57Z</time></trkpt>
    <trkpt lat="47.01652" lon="12.31797"><ele>1412</ele><time>2026-09-05T14:14:26Z</time></trkpt>
    <trkpt lat="47.01681" lon="12.31823"><ele>1409</ele><time>2026-09-05T14:14:56Z</time></trkpt>
    <trkpt lat="47.01661" lon="12.31871"><ele>1410</ele><time>2026-09-05T14:15:25Z</time></trkpt>
    <trkpt lat="47.01638" lon="12.31910"><ele>1408</ele><time>2026-09-05T14:15:54Z</time></trkpt>
    <trkpt lat="47.01605" lon="12.31937"><ele>1407</ele><time>2026-09-05T14:16:24Z</time></trkpt>
    <trkpt lat="47.01599" lon="12.31989"><ele>1407</ele><time>2026-09-05T14:16:53Z</time></trkpt>
    <trkpt lat="47.01606" lon="12.32038"><ele>1408</ele><time>2026-09-05T14:17:22Z</time></trkpt>
    <trkpt lat="47.01607" lon="12.32091"><ele>1409</ele><time>2026-09-05T14:17:52Z</time></trkpt>
    <trkpt lat="47.01601" lon="12.32142"><ele>1410</ele><time>2026-09-05T14:18:50Z</time></trkpt>
    <trkpt lat="47.01589" lon="12.32188"><ele>1412</ele><time>2026-09-05T14:19:20Z</time></trkpt>
    <trkpt lat="47.01581" lon="12.32215"><ele>1411</ele><time>2026-09-05T14:19:49Z</time></trkpt>
    <trkpt lat="47.01579" lon="12.32210"><ele>1415</ele><time>2026-09-05T14:20:49Z</time></trkpt>
  </trkseg>
</trk>
</gpx>