<?xml version="1.0" encoding="UTF-8"?>
<gpx version="1.1" creator="GPX-Pro" xmlns="http://www.topografix.com/GPX/1/1">
<trk>
  <name>Mtb_Schwedenschanze-Trojany</name>
  <trkseg>
    <trkpt lat="48.54751" lon="14.32284"><ele>758</ele><time>2026-09-13T08:42:05Z</time></trkpt>
    <trkpt lat="48.54797" lon="14.32378"><ele>754</ele><time>2026-09-13T08:42:35Z</time></trkpt>
    <trkpt lat="48.54769" lon="14.32659"><ele>737</ele><time>2026-09-13T08:43:04Z</time></trkpt>
    <trkpt lat="48.54670" lon="14.32916"><ele>730</ele><time>2026-09-13T08:43:33Z</time></trkpt>
    <trkpt lat="48.54765" lon="14.33065"><ele>733</ele><time>2026-09-13T08:44:03Z</time></trkpt>
    <trkpt lat="48.54913" lon="14.33237"><ele>731</ele><time>2026-09-13T08:44:32Z</time></trkpt>
    <trkpt lat="48.55117" lon="14.33438"><ele>725</ele><time>2026-09-13T08:45:01Z</time></trkpt>
    <trkpt lat="48.55260" lon="14.33781"><ele>715</ele><time>2026-09-13T08:45:31Z</time></trkpt>
    <trkpt lat="48.55217" lon="14.34088"><ele>714</ele><time>2026-09-13T08:46:00Z</time></trkpt>
    <trkpt lat="48.55166" lon="14.34235"><ele>711</ele><time>2026-09-13T08:46:29Z</time></trkpt>
    <trkpt lat="48.55117" lon="14.34288"><ele>718</ele><time>2026-09-13T08:46:59Z</time></trkpt>
    <trkpt lat="48.55112" lon="14.34380"><ele>722</ele><time>2026-09-13T08:47:28Z</time></trkpt>
    <trkpt lat="48.55179" lon="14.34519"><ele>719</ele><time>2026-09-13T08:47:57Z</time></trkpt>
    <trkpt lat="48.55182" lon="14.34753"><ele>720</ele><time>2026-09-13T08:48:27Z</time></trkpt>
    <trkpt lat="48.55254" lon="14.35119"><ele>700</ele><time>2026-09-13T08:48:56Z</time></trkpt>
    <trkpt lat="48.55432" lon="14.35455"><ele>678</ele><time>2026-09-13T08:49:25Z</time></trkpt>
    <trkpt lat="48.55535" lon="14.35484"><ele>675</ele><time>2026-09-13T08:49:55Z</time></trkpt>
    <trkpt lat="48.55808" lon="14.35210"><ele>667</ele><time>2026-09-13T08:50:24Z</time></trkpt>
    <trkpt lat="48.55921" lon="14.35486"><ele>641</ele><time>2026-09-13T08:50:53Z</time></trkpt>
    <trkpt lat="48.56116" lon="14.35459"><ele>629</ele><time>2026-09-13T08:51:23Z</time></trkpt>
    <trkpt lat="48.56173" lon="14.35516"><ele>633</ele><time>2026-09-13T08:51:52Z</time></trkpt>
    <trkpt lat="48.56196" lon="14.35596"><ele>644</ele><time>2026-09-13T08:52:21Z</time></trkpt>
    <trkpt lat="48.56213" lon="14.35645"><ele>652</ele><time>2026-09-13T08:52:51Z</time></trkpt>
    <trkpt lat="48.56219" lon="14.35705"><ele>659</ele><time>2026-09-13T08:53:20Z</time></trkpt>
    <trkpt lat="48.56239" lon="14.35758"><ele>663</ele><time>2026-09-13T08:53:49Z</time></trkpt>
    <trkpt lat="48.56259" lon="14.35782"><ele>668</ele><time>2026-09-13T08:54:19Z</time></trkpt>
    <trkpt lat="48.56341" lon="14.35824"><ele>672</ele><time>2026-09-13T08:54:48Z</time></trkpt>
    <trkpt lat="48.56419" lon="14.35856"><ele>676</ele><time>2026-09-13T08:55:17Z</time></trkpt>
    <trkpt lat="48.56528" lon="14.35926"><ele>677</ele><time>2026-09-13T08:55:47Z</time></trkpt>
    <trkpt lat="48.56668" lon="14.35976"><ele>676</ele><time>2026-09-13T08:56:16Z</time></trkpt>
    <trkpt lat="48.56752" lon="14.35951"><ele>669</ele><time>2026-09-13T08:56:45Z</time></trkpt>
    <trkpt lat="48.56901" lon="14.36190"><ele>671</ele><time>2026-09-13T08:57:15Z</time></trkpt>
    <trkpt lat="48.56873" lon="14.36409"><ele>671</ele><time>2026-09-13T08:57:44Z</time></trkpt>
    <trkpt lat="48.56871" lon="14.36395"><ele>669</ele><time>2026-09-13T08:58:13Z</time></trkpt>
    <trkpt lat="48.56922" lon="14.36324"><ele>671</ele><time>2026-09-13T08:58:43Z</time></trkpt>
    <trkpt lat="48.57034" lon="14.36381"><ele>673</ele><time>2026-09-13T08:59:12Z</time></trkpt>
    <trkpt lat="48.57209" lon="14.36329"><ele>664</ele><time>2026-09-13T08:59:41Z</time></trkpt>
    <trkpt lat="48.57414" lon="14.36329"><ele>651</ele><time>2026-09-13T09:00:11Z</time></trkpt>
    <trkpt lat="48.57483" lon="14.36326"><ele>649</ele><time>2026-09-13T09:00:40Z</time></trkpt>
    <trkpt lat="48.57574" lon="14.36516"><ele>646</ele><time>2026-09-13T09:01:09Z</time></trkpt>
    <trkpt lat="48.57659" lon="14.36499"><ele>640</ele><time>2026-09-13T09:01:39Z</time></trkpt>
    <trkpt lat="48.57747" lon="14.36461"><ele>637</ele><time>2026-09-13T09:02:08Z</time></trkpt>
    <trkpt lat="48.57733" lon="14.36632"><ele>635</ele><time>2026-09-13T09:03:07Z</time></trkpt>
    <trkpt lat="48.57734" lon="14.36698"><ele>641</ele><time>2026-09-13T09:03:36Z</time></trkpt>
    <trkpt lat="48.57732" lon="14.36765"><ele>647</ele><time>2026-09-13T09:04:05Z</time></trkpt>
    <trkpt lat="48.57734" lon="14.36824"><ele>653</ele><time>2026-09-13T09:04:35Z</time></trkpt>
    <trkpt lat="48.57735" lon="14.36876"><ele>651</ele><time>2026-09-13T09:05:04Z</time></trkpt>
    <trkpt lat="48.57737" lon="14.36906"><ele>652</ele><time>2026-09-13T09:06:03Z</time></trkpt>
    <trkpt lat="48.57737" lon="14.36976"><ele>654</ele><time>2026-09-13T09:07:31Z</time></trkpt>
    <trkpt lat="48.57748" lon="14.37174"><ele>657</ele><time>2026-09-13T09:08:00Z</time></trkpt>
    <trkpt lat="48.57749" lon="14.37246"><ele>656</ele><time>2026-09-13T09:08:30Z</time></trkpt>
    <trkpt lat="48.57758" lon="14.37437"><ele>658</ele><time>2026-09-13T09:08:59Z</time></trkpt>
    <trkpt lat="48.57761" lon="14.37653"><ele>658</ele><time>2026-09-13T09:09:28Z</time></trkpt>
    <trkpt lat="48.57761" lon="14.37931"><ele>655</ele><time>2026-09-13T09:09:58Z</time></trkpt>
    <trkpt lat="48.57889" lon="14.37995"><ele>644</ele><time>2026-09-13T09:10:27Z</time></trkpt>
    <trkpt lat="48.57954" lon="14.38033"><ele>647</ele><time>2026-09-13T09:10:56Z</time></trkpt>
    <trkpt lat="48.58006" lon="14.38055"><ele>654</ele><time>2026-09-13T09:11:26Z</time></trkpt>
    <trkpt lat="48.58016" lon="14.38048"><ele>654</ele><time>2026-09-13T09:11:55Z</time></trkpt>
    <trkpt lat="48.58048" lon="14.38092"><ele>655</ele><time>2026-09-13T09:19:43Z</time></trkpt>
    <trkpt lat="48.58075" lon="14.38107"><ele>656</ele><time>2026-09-13T09:20:42Z</time></trkpt>
    <trkpt lat="48.58169" lon="14.38137"><ele>654</ele><time>2026-09-13T09:21:11Z</time></trkpt>
    <trkpt lat="48.58319" lon="14.38190"><ele>647</ele><time>2026-09-13T09:21:40Z</time></trkpt>
    <trkpt lat="48.58470" lon="14.38220"><ele>644</ele><time>2026-09-13T09:22:10Z</time></trkpt>
    <trkpt lat="48.58615" lon="14.38215"><ele>634</ele><time>2026-09-13T09:22:39Z</time></trkpt>
    <trkpt lat="48.58612" lon="14.38510"><ele>620</ele><time>2026-09-13T09:23:08Z</time></trkpt>
    <trkpt lat="48.58808" lon="14.38614"><ele>599</ele><time>2026-09-13T09:23:38Z</time></trkpt>
    <trkpt lat="48.58987" lon="14.38671"><ele>589</ele><time>2026-09-13T09:24:07Z</time></trkpt>
    <trkpt lat="48.59095" lon="14.38583"><ele>579</ele><time>2026-09-13T09:24:36Z</time></trkpt>
    <trkpt lat="48.59198" lon="14.38576"><ele>571</ele><time>2026-09-13T09:25:06Z</time></trkpt>
    <trkpt lat="48.59278" lon="14.38621"><ele>574</ele><time>2026-09-13T09:25:35Z</time></trkpt>
    <trkpt lat="48.59388" lon="14.38613"><ele>573</ele><time>2026-09-13T09:26:04Z</time></trkpt>
    <trkpt lat="48.59518" lon="14.38593"><ele>572</ele><time>2026-09-13T09:26:34Z</time></trkpt>
    <trkpt lat="48.59613" lon="14.38654"><ele>575</ele><time>2026-09-13T09:27:03Z</time></trkpt>
    <trkpt lat="48.59674" lon="14.38760"><ele>577</ele><time>2026-09-13T09:27:32Z</time></trkpt>
    <trkpt lat="48.59718" lon="14.38879"><ele>580</ele><time>2026-09-13T09:28:02Z</time></trkpt>
    <trkpt lat="48.59731" lon="14.38980"><ele>584</ele><time>2026-09-13T09:28:31Z</time></trkpt>
    <trkpt lat="48.59758" lon="14.39056"><ele>591</ele><time>2026-09-13T09:29:00Z</time></trkpt>
    <trkpt lat="48.59771" lon="14.39138"><ele>596</ele><time>2026-09-13T09:29:30Z</time></trkpt>
    <trkpt lat="48.59775" lon="14.39206"><ele>600</ele><time>2026-09-13T09:29:59Z</time></trkpt>
    <trkpt lat="48.59769" lon="14.39285"><ele>605</ele><time>2026-09-13T09:30:28Z</time></trkpt>
    <trkpt lat="48.59784" lon="14.39389"><ele>609</ele><time>2026-09-13T09:30:58Z</time></trkpt>
    <trkpt lat="48.59786" lon="14.39491"><ele>613</ele><time>2026-09-13T09:31:27Z</time></trkpt>
    <trkpt lat="48.59779" lon="14.39596"><ele>617</ele><time>2026-09-13T09:31:56Z</time></trkpt>
    <trkpt lat="48.59822" lon="14.39729"><ele>619</ele><time>2026-09-13T09:32:26Z</time></trkpt>
    <trkpt lat="48.59900" lon="14.39808"><ele>622</ele><time>2026-09-13T09:32:55Z</time></trkpt>
    <trkpt lat="48.59960" lon="14.39914"><ele>625</ele><time>2026-09-13T09:33:24Z</time></trkpt>
    <trkpt lat="48.60009" lon="14.40003"><ele>628</ele><time>2026-09-13T09:33:54Z</time></trkpt>
    <trkpt lat="48.60045" lon="14.40042"><ele>636</ele><time>2026-09-13T09:34:23Z</time></trkpt>
    <trkpt lat="48.60088" lon="14.40072"><ele>640</ele><time>2026-09-13T09:34:52Z</time></trkpt>
    <trkpt lat="48.60136" lon="14.40148"><ele>644</ele><time>2026-09-13T09:35:22Z</time></trkpt>
    <trkpt lat="48.60209" lon="14.40240"><ele>645</ele><time>2026-09-13T09:35:51Z</time></trkpt>
    <trkpt lat="48.60293" lon="14.40316"><ele>647</ele><time>2026-09-13T09:36:20Z</time></trkpt>
    <trkpt lat="48.60363" lon="14.40315"><ele>645</ele><time>2026-09-13T09:36:50Z</time></trkpt>
    <trkpt lat="48.60358" lon="14.40139"><ele>647</ele><time>2026-09-13T09:37:19Z</time></trkpt>
    <trkpt lat="48.60363" lon="14.40105"><ele>648</ele><time>2026-09-13T09:37:48Z</time></trkpt>
    <trkpt lat="48.60362" lon="14.40298"><ele>649</ele><time>2026-09-13T09:38:18Z</time></trkpt>
    <trkpt lat="48.60397" lon="14.40439"><ele>653</ele><time>2026-09-13T09:38:47Z</time></trkpt>
    <trkpt lat="48.60545" lon="14.40431"><ele>656</ele><time>2026-09-13T09:39:16Z</time></trkpt>
    <trkpt lat="48.60576" lon="14.40227"><ele>649</ele><time>2026-09-13T09:39:46Z</time></trkpt>
    <trkpt lat="48.60780" lon="14.40092"><ele>635</ele><time>2026-09-13T09:40:15Z</time></trkpt>
    <trkpt lat="48.60847" lon="14.40032"><ele>640</ele><time>2026-09-13T09:40:44Z</time></trkpt>
    <trkpt lat="48.60923" lon="14.39956"><ele>645</ele><time>2026-09-13T09:41:14Z</time></trkpt>
    <trkpt lat="48.61006" lon="14.39840"><ele>646</ele><time>2026-09-13T09:41:43Z</time></trkpt>
    <trkpt lat="48.61059" lon="14.39715"><ele>645</ele><time>2026-09-13T09:42:12Z</time></trkpt>
    <trkpt lat="48.61130" lon="14.39568"><ele>644</ele><time>2026-09-13T09:42:42Z</time></trkpt>
    <trkpt lat="48.61187" lon="14.39419"><ele>643</ele><time>2026-09-13T09:43:11Z</time></trkpt>
    <trkpt lat="48.61264" lon="14.39249"><ele>638</ele><time>2026-09-13T09:43:40Z</time></trkpt>
    <trkpt lat="48.61404" lon="14.38935"><ele>619</ele><time>2026-09-13T09:44:10Z</time></trkpt>
    <trkpt lat="48.61513" lon="14.38765"><ele>618</ele><time>2026-09-13T09:44:39Z</time></trkpt>
    <trkpt lat="48.61588" lon="14.38636"><ele>622</ele><time>2026-09-13T09:45:08Z</time></trkpt>
    <trkpt lat="48.61640" lon="14.38512"><ele>625</ele><time>2026-09-13T09:45:38Z</time></trkpt>
    <trkpt lat="48.61679" lon="14.38432"><ele>631</ele><time>2026-09-13T09:46:07Z</time></trkpt>
    <trkpt lat="48.61727" lon="14.38354"><ele>638</ele><time>2026-09-13T09:46:36Z</time></trkpt>
    <trkpt lat="48.61777" lon="14.38282"><ele>647</ele><time>2026-09-13T09:47:06Z</time></trkpt>
    <trkpt lat="48.61827" lon="14.38223"><ele>652</ele><time>2026-09-13T09:47:35Z</time></trkpt>
    <trkpt lat="48.61909" lon="14.38155"><ele>657</ele><time>2026-09-13T09:48:04Z</time></trkpt>
    <trkpt lat="48.62042" lon="14.38038"><ele>655</ele><time>2026-09-13T09:48:34Z</time></trkpt>
    <trkpt lat="48.62152" lon="14.38129"><ele>649</ele><time>2026-09-13T09:49:03Z</time></trkpt>
    <trkpt lat="48.62204" lon="14.38318"><ele>652</ele><time>2026-09-13T09:49:32Z</time></trkpt>
    <trkpt lat="48.62301" lon="14.38504"><ele>653</ele><time>2026-09-13T09:50:02Z</time></trkpt>
    <trkpt lat="48.62336" lon="14.38581"><ele>660</ele><time>2026-09-13T09:50:31Z</time></trkpt>
    <trkpt lat="48.62418" lon="14.38510"><ele>662</ele><time>2026-09-13T09:51:00Z</time></trkpt>
    <trkpt lat="48.62462" lon="14.38455"><ele>657</ele><time>2026-09-13T09:51:30Z</time></trkpt>
    <trkpt lat="48.62476" lon="14.38406"><ele>652</ele><time>2026-09-13T09:51:59Z</time></trkpt>
    <trkpt lat="48.62736" lon="14.38347"><ele>630</ele><time>2026-09-13T09:52:28Z</time></trkpt>
    <trkpt lat="48.62915" lon="14.38723"><ele>619</ele><time>2026-09-13T09:52:58Z</time></trkpt>
    <trkpt lat="48.62974" lon="14.38889"><ele>603</ele><time>2026-09-13T09:53:27Z</time></trkpt>
    <trkpt lat="48.62986" lon="14.38848"><ele>600</ele><time>2026-09-13T09:53:56Z</time></trkpt>
    <trkpt lat="48.63082" lon="14.38805"><ele>606</ele><time>2026-09-13T09:54:26Z</time></trkpt>
    <trkpt lat="48.63093" lon="14.38719"><ele>609</ele><time>2026-09-13T09:54:55Z</time></trkpt>
    <trkpt lat="48.63095" lon="14.38647"><ele>615</ele><time>2026-09-13T09:55:24Z</time></trkpt>
    <trkpt lat="48.63098" lon="14.38571"><ele>623</ele><time>2026-09-13T09:55:54Z</time></trkpt>
    <trkpt lat="48.63103" lon="14.38509"><ele>625</ele><time>2026-09-13T09:56:23Z</time></trkpt>
    <trkpt lat="48.63117" lon="14.38477"><ele>624</ele><time>2026-09-13T09:57:51Z</time></trkpt>
    <trkpt lat="48.63157" lon="14.38410"><ele>629</ele><time>2026-09-13T09:58:20Z</time></trkpt>
    <trkpt lat="48.63201" lon="14.38344"><ele>635</ele><time>2026-09-13T09:58:50Z</time></trkpt>
    <trkpt lat="48.63244" lon="14.38275"><ele>640</ele><time>2026-09-13T09:59:19Z</time></trkpt>
    <trkpt lat="48.63286" lon="14.38211"><ele>645</ele><time>2026-09-13T09:59:48Z</time></trkpt>
    <trkpt lat="48.63318" lon="14.38136"><ele>652</ele><time>2026-09-13T10:00:18Z</time></trkpt>
    <trkpt lat="48.63352" lon="14.38035"><ele>653</ele><time>2026-09-13T10:00:47Z</time></trkpt>
    <trkpt lat="48.63391" lon="14.37941"><ele>657</ele><time>2026-09-13T10:01:16Z</time></trkpt>
    <trkpt lat="48.63451" lon="14.37854"><ele>661</ele><time>2026-09-13T10:01:46Z</time></trkpt>
    <trkpt lat="48.63565" lon="14.37726"><ele>659</ele><time>2026-09-13T10:02:15Z</time></trkpt>
    <trkpt lat="48.63692" lon="14.37606"><ele>659</ele><time>2026-09-13T10:02:44Z</time></trkpt>
    <trkpt lat="48.63832" lon="14.37669"><ele>657</ele><time>2026-09-13T10:03:14Z</time></trkpt>
    <trkpt lat="48.63950" lon="14.37567"><ele>656</ele><time>2026-09-13T10:03:43Z</time></trkpt>
    <trkpt lat="48.64023" lon="14.37532"><ele>661</ele><time>2026-09-13T10:04:12Z</time></trkpt>
    <trkpt lat="48.64087" lon="14.37532"><ele>670</ele><time>2026-09-13T10:04:42Z</time></trkpt>
    <trkpt lat="48.64161" lon="14.37566"><ele>673</ele><time>2026-09-13T10:05:11Z</time></trkpt>
    <trkpt lat="48.64225" lon="14.37582"><ele>686</ele><time>2026-09-13T10:05:40Z</time></trkpt>
    <trkpt lat="48.64279" lon="14.37606"><ele>693</ele><time>2026-09-13T10:06:10Z</time></trkpt>
    <trkpt lat="48.64319" lon="14.37670"><ele>695</ele><time>2026-09-13T10:06:39Z</time></trkpt>
    <trkpt lat="48.64338" lon="14.37770"><ele>696</ele><time>2026-09-13T10:07:08Z</time></trkpt>
    <trkpt lat="48.64391" lon="14.37874"><ele>701</ele><time>2026-09-13T10:07:38Z</time></trkpt>
    <trkpt lat="48.64464" lon="14.37916"><ele>702</ele><time>2026-09-13T10:08:07Z</time></trkpt>
    <trkpt lat="48.64541" lon="14.37902"><ele>708</ele><time>2026-09-13T10:08:36Z</time></trkpt>
    <trkpt lat="48.64623" lon="14.37925"><ele>713</ele><time>2026-09-13T10:09:06Z</time></trkpt>
    <trkpt lat="48.64702" lon="14.37967"><ele>724</ele><time>2026-09-13T10:09:35Z</time></trkpt>
    <trkpt lat="48.64760" lon="14.38001"><ele>728</ele><time>2026-09-13T10:10:04Z</time></trkpt>
    <trkpt lat="48.64826" lon="14.38037"><ele>730</ele><time>2026-09-13T10:10:34Z</time></trkpt>
    <trkpt lat="48.64932" lon="14.38076"><ele>729</ele><time>2026-09-13T10:11:03Z</time></trkpt>
    <trkpt lat="48.65059" lon="14.38127"><ele>730</ele><time>2026-09-13T10:11:32Z</time></trkpt>
    <trkpt lat="48.65121" lon="14.38147"><ele>736</ele><time>2026-09-13T10:12:02Z</time></trkpt>
    <trkpt lat="48.65106" lon="14.38204"><ele>735</ele><time>2026-09-13T10:12:31Z</time></trkpt>
    <trkpt lat="48.65090" lon="14.38257"><ele>740</ele><time>2026-09-13T10:13:00Z</time></trkpt>
    <trkpt lat="48.65121" lon="14.38285"><ele>747</ele><time>2026-09-13T10:13:30Z</time></trkpt>
    <trkpt lat="48.65172" lon="14.38300"><ele>750</ele><time>2026-09-13T10:13:59Z</time></trkpt>
    <trkpt lat="48.65226" lon="14.38322"><ele>755</ele><time>2026-09-13T10:14:28Z</time></trkpt>
    <trkpt lat="48.65287" lon="14.38353"><ele>763</ele><time>2026-09-13T10:14:58Z</time></trkpt>
    <trkpt lat="48.65351" lon="14.38364"><ele>763</ele><time>2026-09-13T10:15:27Z</time></trkpt>
    <trkpt lat="48.65404" lon="14.38368"><ele>763</ele><time>2026-09-13T10:15:56Z</time></trkpt>
    <trkpt lat="48.65446" lon="14.38368"><ele>766</ele><time>2026-09-13T10:16:26Z</time></trkpt>
    <trkpt lat="48.65501" lon="14.38392"><ele>768</ele><time>2026-09-13T10:17:24Z</time></trkpt>
    <trkpt lat="48.65579" lon="14.38528"><ele>770</ele><time>2026-09-13T10:17:54Z</time></trkpt>
    <trkpt lat="48.65664" lon="14.38713"><ele>772</ele><time>2026-09-13T10:18:23Z</time></trkpt>
    <trkpt lat="48.65665" lon="14.39038"><ele>764</ele><time>2026-09-13T10:18:52Z</time></trkpt>
    <trkpt lat="48.65624" lon="14.39435"><ele>763</ele><time>2026-09-13T10:19:22Z</time></trkpt>
    <trkpt lat="48.65575" lon="14.39802"><ele>758</ele><time>2026-09-13T10:19:51Z</time></trkpt>
    <trkpt lat="48.65576" lon="14.40254"><ele>745</ele><time>2026-09-13T10:20:20Z</time></trkpt>
    <trkpt lat="48.65542" lon="14.40668"><ele>745</ele><time>2026-09-13T10:20:50Z</time></trkpt>
    <trkpt lat="48.65613" lon="14.41443"><ele>737</ele><time>2026-09-13T10:21:19Z</time></trkpt>
    <trkpt lat="48.65693" lon="14.41495"><ele>714</ele><time>2026-09-13T10:21:48Z</time></trkpt>
    <trkpt lat="48.65731" lon="14.41697"><ele>728</ele><time>2026-09-13T10:22:18Z</time></trkpt>
    <trkpt lat="48.65764" lon="14.41808"><ele>734</ele><time>2026-09-13T10:22:47Z</time></trkpt>
    <trkpt lat="48.65819" lon="14.41909"><ele>738</ele><time>2026-09-13T10:23:16Z</time></trkpt>
    <trkpt lat="48.65885" lon="14.42013"><ele>742</ele><time>2026-09-13T10:23:46Z</time></trkpt>
    <trkpt lat="48.65950" lon="14.42142"><ele>744</ele><time>2026-09-13T10:24:15Z</time></trkpt>
    <trkpt lat="48.66080" lon="14.42510"><ele>725</ele><time>2026-09-13T10:24:44Z</time></trkpt>
    <trkpt lat="48.66191" lon="14.42991"><ele>706</ele><time>2026-09-13T10:25:14Z</time></trkpt>
    <trkpt lat="48.66249" lon="14.43388"><ele>692</ele><time>2026-09-13T10:25:43Z</time></trkpt>
    <trkpt lat="48.66255" lon="14.43410"><ele>689</ele><time>2026-09-13T10:26:12Z</time></trkpt>
    <trkpt lat="48.66205" lon="14.43357"><ele>688</ele><time>2026-09-13T10:29:08Z</time></trkpt>
    <trkpt lat="48.66124" lon="14.43381"><ele>691</ele><time>2026-09-13T10:29:38Z</time></trkpt>
    <trkpt lat="48.65993" lon="14.43455"><ele>681</ele><time>2026-09-13T10:30:07Z</time></trkpt>
    <trkpt lat="48.65771" lon="14.43288"><ele>678</ele><time>2026-09-13T10:30:36Z</time></trkpt>
    <trkpt lat="48.65670" lon="14.43209"><ele>683</ele><time>2026-09-13T10:31:06Z</time></trkpt>
    <trkpt lat="48.65558" lon="14.43163"><ele>686</ele><time>2026-09-13T10:31:35Z</time></trkpt>
    <trkpt lat="48.65436" lon="14.43107"><ele>686</ele><time>2026-09-13T10:32:04Z</time></trkpt>
    <trkpt lat="48.65219" lon="14.43033"><ele>679</ele><time>2026-09-13T10:32:34Z</time></trkpt>
    <trkpt lat="48.65208" lon="14.43107"><ele>679</ele><time>2026-09-13T10:33:03Z</time></trkpt>
    <trkpt lat="48.64979" lon="14.43221"><ele>678</ele><time>2026-09-13T10:33:32Z</time></trkpt>
    <trkpt lat="48.64814" lon="14.43394"><ele>676</ele><time>2026-09-13T10:34:02Z</time></trkpt>
    <trkpt lat="48.64706" lon="14.43463"><ele>676</ele><time>2026-09-13T10:34:31Z</time></trkpt>
    <trkpt lat="48.64620" lon="14.43481"><ele>681</ele><time>2026-09-13T10:35:00Z</time></trkpt>
    <trkpt lat="48.64495" lon="14.43497"><ele>684</ele><time>2026-09-13T10:35:30Z</time></trkpt>
    <trkpt lat="48.64479" lon="14.43555"><ele>686</ele><time>2026-09-13T10:35:59Z</time></trkpt>
    <trkpt lat="48.64376" lon="14.43608"><ele>680</ele><time>2026-09-13T10:36:28Z</time></trkpt>
    <trkpt lat="48.64125" lon="14.43638"><ele>669</ele><time>2026-09-13T10:36:58Z</time></trkpt>
    <trkpt lat="48.64039" lon="14.43587"><ele>665</ele><time>2026-09-13T10:37:27Z</time></trkpt>
    <trkpt lat="48.63942" lon="14.43529"><ele>667</ele><time>2026-09-13T10:37:56Z</time></trkpt>
    <trkpt lat="48.63835" lon="14.43497"><ele>669</ele><time>2026-09-13T10:38:26Z</time></trkpt>
    <trkpt lat="48.63723" lon="14.43488"><ele>671</ele><time>2026-09-13T10:38:55Z</time></trkpt>
    <trkpt lat="48.63627" lon="14.43483"><ele>674</ele><time>2026-09-13T10:39:24Z</time></trkpt>
    <trkpt lat="48.63549" lon="14.43463"><ele>680</ele><time>2026-09-13T10:39:54Z</time></trkpt>
    <trkpt lat="48.63482" lon="14.43429"><ele>681</ele><time>2026-09-13T10:40:23Z</time></trkpt>
    <trkpt lat="48.63451" lon="14.43414"><ele>681</ele><time>2026-09-13T10:40:52Z</time></trkpt>
    <trkpt lat="48.63383" lon="14.43382"><ele>684</ele><time>2026-09-13T10:43:19Z</time></trkpt>
    <trkpt lat="48.63320" lon="14.43351"><ele>690</ele><time>2026-09-13T10:43:48Z</time></trkpt>
    <trkpt lat="48.63309" lon="14.43350"><ele>693</ele><time>2026-09-13T10:44:18Z</time></trkpt>
    <trkpt lat="48.63268" lon="14.43324"><ele>698</ele><time>2026-09-13T10:46:15Z</time></trkpt>
    <trkpt lat="48.63216" lon="14.43298"><ele>702</ele><time>2026-09-13T10:46:44Z</time></trkpt>
    <trkpt lat="48.63167" lon="14.43277"><ele>706</ele><time>2026-09-13T10:47:14Z</time></trkpt>
    <trkpt lat="48.63117" lon="14.43249"><ele>709</ele><time>2026-09-13T10:47:43Z</time></trkpt>
    <trkpt lat="48.63076" lon="14.43229"><ele>718</ele><time>2026-09-13T10:48:12Z</time></trkpt>
    <trkpt lat="48.63037" lon="14.43209"><ele>726</ele><time>2026-09-13T10:48:42Z</time></trkpt>
    <trkpt lat="48.62988" lon="14.43204"><ele>730</ele><time>2026-09-13T10:49:11Z</time></trkpt>
    <trkpt lat="48.62886" lon="14.43209"><ele>731</ele><time>2026-09-13T10:49:40Z</time></trkpt>
    <trkpt lat="48.62800" lon="14.43222"><ele>734</ele><time>2026-09-13T10:50:10Z</time></trkpt>
    <trkpt lat="48.62745" lon="14.43269"><ele>741</ele><time>2026-09-13T10:50:39Z</time></trkpt>
    <trkpt lat="48.62692" lon="14.43308"><ele>744</ele><time>2026-09-13T10:51:08Z</time></trkpt>
    <trkpt lat="48.62600" lon="14.43304"><ele>746</ele><time>2026-09-13T10:51:38Z</time></trkpt>
    <trkpt lat="48.62457" lon="14.43280"><ele>747</ele><time>2026-09-13T10:52:07Z</time></trkpt>
    <trkpt lat="48.62363" lon="14.43267"><ele>752</ele><time>2026-09-13T10:52:36Z</time></trkpt>
    <trkpt lat="48.62256" lon="14.43254"><ele>755</ele><time>2026-09-13T10:53:06Z</time></trkpt>
    <trkpt lat="48.62186" lon="14.43183"><ele>754</ele><time>2026-09-13T10:53:35Z</time></trkpt>
    <trkpt lat="48.62062" lon="14.43145"><ele>739</ele><time>2026-09-13T10:54:04Z</time></trkpt>
    <trkpt lat="48.61974" lon="14.43101"><ele>717</ele><time>2026-09-13T10:54:34Z</time></trkpt>
    <trkpt lat="48.61932" lon="14.42997"><ele>695</ele><time>2026-09-13T10:55:32Z</time></trkpt>
    <trkpt lat="48.61802" lon="14.42798"><ele>681</ele><time>2026-09-13T10:56:31Z</time></trkpt>
    <trkpt lat="48.61727" lon="14.42750"><ele>685</ele><time>2026-09-13T10:57:00Z</time></trkpt>
    <trkpt lat="48.61676" lon="14.42721"><ele>691</ele><time>2026-09-13T10:57:30Z</time></trkpt>
    <trkpt lat="48.61608" lon="14.42675"><ele>694</ele><time>2026-09-13T10:57:59Z</time></trkpt>
    <trkpt lat="48.61551" lon="14.42639"><ele>699</ele><time>2026-09-13T10:58:28Z</time></trkpt>
    <trkpt lat="48.61512" lon="14.42613"><ele>706</ele><time>2026-09-13T10:58:58Z</time></trkpt>
    <trkpt lat="48.61422" lon="14.42522"><ele>710</ele><time>2026-09-13T10:59:27Z</time></trkpt>
    <trkpt lat="48.61301" lon="14.42393"><ele>710</ele><time>2026-09-13T10:59:56Z</time></trkpt>
    <trkpt lat="48.61257" lon="14.42321"><ele>712</ele><time>2026-09-13T11:00:26Z</time></trkpt>
    <trkpt lat="48.61213" lon="14.42214"><ele>714</ele><time>2026-09-13T11:00:55Z</time></trkpt>
    <trkpt lat="48.61161" lon="14.42095"><ele>715</ele><time>2026-09-13T11:01:24Z</time></trkpt>
    <trkpt lat="48.61084" lon="14.41982"><ele>720</ele><time>2026-09-13T11:01:54Z</time></trkpt>
    <trkpt lat="48.60981" lon="14.41793"><ele>715</ele><time>2026-09-13T11:02:23Z</time></trkpt>
    <trkpt lat="48.60834" lon="14.41682"><ele>685</ele><time>2026-09-13T11:02:52Z</time></trkpt>
    <trkpt lat="48.60723" lon="14.41680"><ele>683</ele><time>2026-09-13T11:03:22Z</time></trkpt>
    <trkpt lat="48.60612" lon="14.41752"><ele>685</ele><time>2026-09-13T11:03:51Z</time></trkpt>
    <trkpt lat="48.60533" lon="14.41571"><ele>682</ele><time>2026-09-13T11:04:20Z</time></trkpt>
    <trkpt lat="48.60464" lon="14.41224"><ele>670</ele><time>2026-09-13T11:04:50Z</time></trkpt>
    <trkpt lat="48.60372" lon="14.40977"><ele>659</ele><time>2026-09-13T11:05:19Z</time></trkpt>
    <trkpt lat="48.60346" lon="14.40834"><ele>654</ele><time>2026-09-13T11:05:48Z</time></trkpt>
    <trkpt lat="48.60369" lon="14.40597"><ele>655</ele><time>2026-09-13T11:06:18Z</time></trkpt>
    <trkpt lat="48.60302" lon="14.40577"><ele>652</ele><time>2026-09-13T11:06:47Z</time></trkpt>
    <trkpt lat="48.60088" lon="14.40722"><ele>639</ele><time>2026-09-13T11:07:16Z</time></trkpt>
    <trkpt lat="48.59939" lon="14.40808"><ele>642</ele><time>2026-09-13T11:07:46Z</time></trkpt>
    <trkpt lat="48.59837" lon="14.40849"><ele>647</ele><time>2026-09-13T11:08:15Z</time></trkpt>
    <trkpt lat="48.59742" lon="14.40873"><ele>652</ele><time>2026-09-13T11:08:44Z</time></trkpt>
    <trkpt lat="48.59661" lon="14.40894"><ele>656</ele><time>2026-09-13T11:09:14Z</time></trkpt>
    <trkpt lat="48.59574" lon="14.40917"><ele>655</ele><time>2026-09-13T11:09:43Z</time></trkpt>
    <trkpt lat="48.59561" lon="14.40920"><ele>655</ele><time>2026-09-13T11:12:10Z</time></trkpt>
    <trkpt lat="48.59445" lon="14.40950"><ele>652</ele><time>2026-09-13T11:12:39Z</time></trkpt>
    <trkpt lat="48.59436" lon="14.40942"><ele>649</ele><time>2026-09-13T11:13:08Z</time></trkpt>
    <trkpt lat="48.59323" lon="14.40992"><ele>643</ele><time>2026-09-13T11:13:38Z</time></trkpt>
    <trkpt lat="48.59303" lon="14.41052"><ele>638</ele><time>2026-09-13T11:14:07Z</time></trkpt>
    <trkpt lat="48.59281" lon="14.41076"><ele>633</ele><time>2026-09-13T11:14:36Z</time></trkpt>
    <trkpt lat="48.59257" lon="14.41062"><ele>631</ele><time>2026-09-13T11:17:32Z</time></trkpt>
    <trkpt lat="48.59205" lon="14.41021"><ele>633</ele><time>2026-09-13T11:18:02Z</time></trkpt>
    <trkpt lat="48.59199" lon="14.40878"><ele>630</ele><time>2026-09-13T11:18:31Z</time></trkpt>
    <trkpt lat="48.59174" lon="14.40733"><ele>630</ele><time>2026-09-13T11:19:00Z</time></trkpt>
    <trkpt lat="48.59198" lon="14.40617"><ele>634</ele><time>2026-09-13T11:19:30Z</time></trkpt>
    <trkpt lat="48.59222" lon="14.40513"><ele>636</ele><time>2026-09-13T11:19:59Z</time></trkpt>
    <trkpt lat="48.59225" lon="14.40412"><ele>641</ele><time>2026-09-13T11:20:28Z</time></trkpt>
    <trkpt lat="48.59204" lon="14.40269"><ele>643</ele><time>2026-09-13T11:20:58Z</time></trkpt>
    <trkpt lat="48.59150" lon="14.40038"><ele>636</ele><time>2026-09-13T11:21:27Z</time></trkpt>
    <trkpt lat="48.59165" lon="14.39876"><ele>632</ele><time>2026-09-13T11:21:56Z</time></trkpt>
    <trkpt lat="48.59167" lon="14.39714"><ele>630</ele><time>2026-09-13T11:22:26Z</time></trkpt>
    <trkpt lat="48.59194" lon="14.39500"><ele>621</ele><time>2026-09-13T11:22:55Z</time></trkpt>
    <trkpt lat="48.59212" lon="14.39361"><ele>619</ele><time>2026-09-13T11:23:24Z</time></trkpt>
    <trkpt lat="48.59289" lon="14.39198"><ele>624</ele><time>2026-09-13T11:23:54Z</time></trkpt>
    <trkpt lat="48.59239" lon="14.39109"><ele>613</ele><time>2026-09-13T11:24:23Z</time></trkpt>
    <trkpt lat="48.59225" lon="14.38869"><ele>601</ele><time>2026-09-13T11:24:52Z</time></trkpt>
    <trkpt lat="48.59164" lon="14.38836"><ele>597</ele><time>2026-09-13T11:25:22Z</time></trkpt>
    <trkpt lat="48.59143" lon="14.38829"><ele>590</ele><time>2026-09-13T11:26:20Z</time></trkpt>
    <trkpt lat="48.59039" lon="14.38863"><ele>597</ele><time>2026-09-13T11:26:50Z</time></trkpt>
    <trkpt lat="48.58960" lon="14.38907"><ele>600</ele><time>2026-09-13T11:27:19Z</time></trkpt>
    <trkpt lat="48.58910" lon="14.38939"><ele>601</ele><time>2026-09-13T11:27:48Z</time></trkpt>
    <trkpt lat="48.58838" lon="14.38945"><ele>609</ele><time>2026-09-13T11:28:18Z</time></trkpt>
    <trkpt lat="48.58769" lon="14.38922"><ele>614</ele><time>2026-09-13T11:28:47Z</time></trkpt>
    <trkpt lat="48.58710" lon="14.38894"><ele>622</ele><time>2026-09-13T11:29:16Z</time></trkpt>
    <trkpt lat="48.58663" lon="14.38914"><ele>620</ele><time>2026-09-13T11:29:46Z</time></trkpt>
    <trkpt lat="48.58600" lon="14.39109"><ele>619</ele><time>2026-09-13T11:30:15Z</time></trkpt>
    <trkpt lat="48.58566" lon="14.39112"><ele>618</ele><time>2026-09-13T11:30:44Z</time></trkpt>
    <trkpt lat="48.58550" lon="14.38922"><ele>608</ele><time>2026-09-13T11:31:14Z</time></trkpt>
    <trkpt lat="48.58429" lon="14.38854"><ele>600</ele><time>2026-09-13T11:31:43Z</time></trkpt>
    <trkpt lat="48.58317" lon="14.38921"><ele>593</ele><time>2026-09-13T11:32:12Z</time></trkpt>
    <trkpt lat="48.58263" lon="14.39116"><ele>595</ele><time>2026-09-13T11:32:42Z</time></trkpt>
    <trkpt lat="48.58190" lon="14.39195"><ele>596</ele><time>2026-09-13T11:33:11Z</time></trkpt>
    <trkpt lat="48.58060" lon="14.39171"><ele>591</ele><time>2026-09-13T11:33:40Z</time></trkpt>
    <trkpt lat="48.57936" lon="14.39198"><ele>592</ele><time>2026-09-13T11:34:10Z</time></trkpt>
    <trkpt lat="48.57912" lon="14.39341"><ele>595</ele><time>2026-09-13T11:34:39Z</time></trkpt>
    <trkpt lat="48.57868" lon="14.39408"><ele>598</ele><time>2026-09-13T11:35:08Z</time></trkpt>
    <trkpt lat="48.57792" lon="14.39477"><ele>601</ele><time>2026-09-13T11:35:38Z</time></trkpt>
    <trkpt lat="48.57677" lon="14.39428"><ele>599</ele><time>2026-09-13T11:36:07Z</time></trkpt>
    <trkpt lat="48.57586" lon="14.39420"><ele>604</ele><time>2026-09-13T11:36:36Z</time></trkpt>
    <trkpt lat="48.57561" lon="14.39405"><ele>604</ele><time>2026-09-13T11:37:06Z</time></trkpt>
    <trkpt lat="48.57514" lon="14.39389"><ele>612</ele><time>2026-09-13T11:39:32Z</time></trkpt>
    <trkpt lat="48.57485" lon="14.39344"><ele>619</ele><time>2026-09-13T11:40:02Z</time></trkpt>
    <trkpt lat="48.57483" lon="14.39266"><ele>622</ele><time>2026-09-13T11:40:31Z</time></trkpt>
    <trkpt lat="48.57479" lon="14.39194"><ele>627</ele><time>2026-09-13T11:41:00Z</time></trkpt>
    <trkpt lat="48.57506" lon="14.39121"><ele>631</ele><time>2026-09-13T11:41:30Z</time></trkpt>
    <trkpt lat="48.57474" lon="14.39058"><ele>634</ele><time>2026-09-13T11:41:59Z</time></trkpt>
    <trkpt lat="48.57426" lon="14.39010"><ele>640</ele><time>2026-09-13T11:42:28Z</time></trkpt>
    <trkpt lat="48.57385" lon="14.38963"><ele>643</ele><time>2026-09-13T11:42:58Z</time></trkpt>
    <trkpt lat="48.57336" lon="14.38916"><ele>647</ele><time>2026-09-13T11:43:27Z</time></trkpt>
    <trkpt lat="48.57284" lon="14.38880"><ele>650</ele><time>2026-09-13T11:43:56Z</time></trkpt>
    <trkpt lat="48.57241" lon="14.38843"><ele>654</ele><time>2026-09-13T11:44:26Z</time></trkpt>
    <trkpt lat="48.57199" lon="14.38819"><ele>660</ele><time>2026-09-13T11:44:55Z</time></trkpt>
    <trkpt lat="48.57171" lon="14.38766"><ele>664</ele><time>2026-09-13T11:45:24Z</time></trkpt>
    <trkpt lat="48.57148" lon="14.38702"><ele>671</ele><time>2026-09-13T11:45:54Z</time></trkpt>
    <trkpt lat="48.57134" lon="14.38662"><ele>673</ele><time>2026-09-13T11:46:23Z</time></trkpt>
    <trkpt lat="48.57120" lon="14.38613"><ele>676</ele><time>2026-09-13T11:46:52Z</time></trkpt>
    <trkpt lat="48.57094" lon="14.38504"><ele>680</ele><time>2026-09-13T11:47:22Z</time></trkpt>
    <trkpt lat="48.57079" lon="14.38482"><ele>680</ele><time>2026-09-13T11:47:51Z</time></trkpt>
    <trkpt lat="48.57000" lon="14.38343"><ele>678</ele><time>2026-09-13T11:48:20Z</time></trkpt>
    <trkpt lat="48.56960" lon="14.38133"><ele>679</ele><time>2026-09-13T11:48:50Z</time></trkpt>
    <trkpt lat="48.56931" lon="14.38003"><ele>682</ele><time>2026-09-13T11:49:19Z</time></trkpt>
    <trkpt lat="48.56924" lon="14.37893"><ele>685</ele><time>2026-09-13T11:49:48Z</time></trkpt>
    <trkpt lat="48.56926" lon="14.37782"><ele>691</ele><time>2026-09-13T11:50:18Z</time></trkpt>
    <trkpt lat="48.56916" lon="14.37683"><ele>695</ele><time>2026-09-13T11:50:47Z</time></trkpt>
    <trkpt lat="48.56895" lon="14.37590"><ele>699</ele><time>2026-09-13T11:51:16Z</time></trkpt>
    <trkpt lat="48.56876" lon="14.37496"><ele>702</ele><time>2026-09-13T11:51:46Z</time></trkpt>
    <trkpt lat="48.56778" lon="14.37353"><ele>706</ele><time>2026-09-13T11:52:15Z</time></trkpt>
    <trkpt lat="48.56770" lon="14.37292"><ele>709</ele><time>2026-09-13T11:52:44Z</time></trkpt>
    <trkpt lat="48.56796" lon="14.37176"><ele>695</ele><time>2026-09-13T11:53:14Z</time></trkpt>
    <trkpt lat="48.56916" lon="14.36903"><ele>677</ele><time>2026-09-13T11:53:43Z</time></trkpt>
    <trkpt lat="48.56961" lon="14.36749"><ele>672</ele><time>2026-09-13T11:54:12Z</time></trkpt>
    <trkpt lat="48.56944" lon="14.36627"><ele>670</ele><time>2026-09-13T11:55:40Z</time></trkpt>
    <trkpt lat="48.56881" lon="14.36447"><ele>669</ele><time>2026-09-13T11:56:10Z</time></trkpt>
    <trkpt lat="48.56882" lon="14.36259"><ele>669</ele><time>2026-09-13T11:56:39Z</time></trkpt>
    <trkpt lat="48.56915" lon="14.36194"><ele>669</ele><time>2026-09-13T11:57:08Z</time></trkpt>
    <trkpt lat="48.56849" lon="14.36137"><ele>666</ele><time>2026-09-13T11:59:06Z</time></trkpt>
    <trkpt lat="48.56790" lon="14.36000"><ele>672</ele><time>2026-09-13T11:59:35Z</time></trkpt>
    <trkpt lat="48.56732" lon="14.35950"><ele>675</ele><time>2026-09-13T12:00:04Z</time></trkpt>
    <trkpt lat="48.56628" lon="14.35989"><ele>676</ele><time>2026-09-13T12:00:34Z</time></trkpt>
    <trkpt lat="48.56538" lon="14.35940"><ele>677</ele><time>2026-09-13T12:01:03Z</time></trkpt>
    <trkpt lat="48.56436" lon="14.35864"><ele>678</ele><time>2026-09-13T12:01:32Z</time></trkpt>
    <trkpt lat="48.56244" lon="14.35778"><ele>672</ele><time>2026-09-13T12:02:02Z</time></trkpt>
    <trkpt lat="48.56174" lon="14.35524"><ele>649</ele><time>2026-09-13T12:02:31Z</time></trkpt>
    <trkpt lat="48.56167" lon="14.35443"><ele>631</ele><time>2026-09-13T12:03:00Z</time></trkpt>
    <trkpt lat="48.56214" lon="14.35424"><ele>628</ele><time>2026-09-13T12:03:59Z</time></trkpt>
    <trkpt lat="48.56169" lon="14.35441"><ele>629</ele><time>2026-09-13T12:04:28Z</time></trkpt>
    <trkpt lat="48.56127" lon="14.35460"><ele>631</ele><time>2026-09-13T12:04:58Z</time></trkpt>
    <trkpt lat="48.56056" lon="14.35475"><ele>632</ele><time>2026-09-13T12:05:27Z</time></trkpt>
    <trkpt lat="48.55971" lon="14.35502"><ele>635</ele><time>2026-09-13T12:05:56Z</time></trkpt>
    <trkpt lat="48.55885" lon="14.35382"><ele>638</ele><time>2026-09-13T12:06:26Z</time></trkpt>
    <trkpt lat="48.55882" lon="14.35304"><ele>644</ele><time>2026-09-13T12:06:55Z</time></trkpt>
    <trkpt lat="48.55865" lon="14.35230"><ele>650</ele><time>2026-09-13T12:07:24Z</time></trkpt>
    <trkpt lat="48.55806" lon="14.35222"><ele>654</ele><time>2026-09-13T12:07:54Z</time></trkpt>
    <trkpt lat="48.55758" lon="14.35256"><ele>658</ele><time>2026-09-13T12:08:23Z</time></trkpt>
    <trkpt lat="48.55721" lon="14.35314"><ele>663</ele><time>2026-09-13T12:08:52Z</time></trkpt>
    <trkpt lat="48.55674" lon="14.35373"><ele>668</ele><time>2026-09-13T12:09:22Z</time></trkpt>
    <trkpt lat="48.55606" lon="14.35439"><ele>670</ele><time>2026-09-13T12:09:51Z</time></trkpt>
    <trkpt lat="48.55544" lon="14.35486"><ele>673</ele><time>2026-09-13T12:10:20Z</time></trkpt>
    <trkpt lat="48.55482" lon="14.35463"><ele>678</ele><time>2026-09-13T12:10:50Z</time></trkpt>
    <trkpt lat="48.55411" lon="14.35407"><ele>680</ele><time>2026-09-13T12:11:19Z</time></trkpt>
    <trkpt lat="48.55363" lon="14.35342"><ele>683</ele><time>2026-09-13T12:11:48Z</time></trkpt>
    <trkpt lat="48.55325" lon="14.35292"><ele>688</ele><time>2026-09-13T12:12:18Z</time></trkpt>
    <trkpt lat="48.55301" lon="14.35237"><ele>693</ele><time>2026-09-13T12:12:47Z</time></trkpt>
    <trkpt lat="48.55275" lon="14.35167"><ele>697</ele><time>2026-09-13T12:13:16Z</time></trkpt>
    <trkpt lat="48.55246" lon="14.35084"><ele>700</ele><time>2026-09-13T12:13:46Z</time></trkpt>
    <trkpt lat="48.55232" lon="14.34991"><ele>706</ele><time>2026-09-13T12:14:15Z</time></trkpt>
    <trkpt lat="48.55205" lon="14.34905"><ele>709</ele><time>2026-09-13T12:14:44Z</time></trkpt>
    <trkpt lat="48.55185" lon="14.34820"><ele>715</ele><time>2026-09-13T12:15:14Z</time></trkpt>
    <trkpt lat="48.55184" lon="14.34741"><ele>718</ele><time>2026-09-13T12:15:43Z</time></trkpt>
    <trkpt lat="48.55187" lon="14.34583"><ele>719</ele><time>2026-09-13T12:16:12Z</time></trkpt>
    <trkpt lat="48.55113" lon="14.34428"><ele>722</ele><time>2026-09-13T12:16:42Z</time></trkpt>
    <trkpt lat="48.55161" lon="14.34245"><ele>721</ele><time>2026-09-13T12:17:11Z</time></trkpt>
    <trkpt lat="48.55241" lon="14.33985"><ele>716</ele><time>2026-09-13T12:17:40Z</time></trkpt>
    <trkpt lat="48.55257" lon="14.33732"><ele>719</ele><time>2026-09-13T12:18:10Z</time></trkpt>
    <trkpt lat="48.55188" lon="14.33572"><ele>719</ele><time>2026-09-13T12:18:39Z</time></trkpt>
    <trkpt lat="48.55142" lon="14.33472"><ele>722</ele><time>2026-09-13T12:19:08Z</time></trkpt>
    <trkpt lat="48.55092" lon="14.33412"><ele>728</ele><time>2026-09-13T12:19:38Z</time></trkpt>
    <trkpt lat="48.54999" lon="14.33356"><ele>727</ele><time>2026-09-13T12:20:07Z</time></trkpt>
    <trkpt lat="48.54908" lon="14.33236"><ele>730</ele><time>2026-09-13T12:20:36Z</time></trkpt>
    <trkpt lat="48.54821" lon="14.33137"><ele>734</ele><time>2026-09-13T12:21:06Z</time></trkpt>
    <trkpt lat="48.54746" lon="14.33040"><ele>735</ele><time>2026-09-13T12:21:35Z</time></trkpt>
    <trkpt lat="48.54666" lon="14.32895"><ele>731</ele><time>2026-09-13T12:22:04Z</time></trkpt>
    <trkpt lat="48.54741" lon="14.32705"><ele>732</ele><time>2026-09-13T12:22:34Z</time></trkpt>
    <trkpt lat="48.54775" lon="14.32653"><ele>736</ele><time>2026-09-13T12:23:03Z</time></trkpt>
    <trkpt lat="48.54809" lon="14.32620"><ele>740</ele><time>2026-09-13T12:25:00Z</time></trkpt>
    <trkpt lat="48.54849" lon="14.32578"><ele>746</ele><time>2026-09-13T12:25:30Z</time></trkpt>
    <trkpt lat="48.54832" lon="14.32487"><ele>747</ele><time>2026-09-13T12:25:59Z</time></trkpt>
    <trkpt lat="48.54803" lon="14.32394"><ele>751</ele><time>2026-09-13T12:26:28Z</time></trkpt>
    <trkpt lat="48.54764" lon="14.32323"><ele>757</ele><time>2026-09-13T12:26:58Z</time></trkpt>
  </trkseg>
</trk>
</gpx>