<?xml version="1.0" encoding="UTF-8"?>
<gpx version="1.1" creator="GPX-Pro" xmlns="http://www.topografix.com/GPX/1/1">
<trk>
  <name>Ochsenbug</name>
  <trkseg>
    <trkpt lat="46.99530" lon="12.53950"><ele>937</ele><time>2026-09-06T06:42:25Z</time></trkpt>
    <trkpt lat="46.99515" lon="12.53864"><ele>937</ele><time>2026-09-06T06:42:55Z</time></trkpt>
    <trkpt lat="46.99560" lon="12.53760"><ele>941</ele><time>2026-09-06T06:43:24Z</time></trkpt>
    <trkpt lat="46.99608" lon="12.53616"><ele>944</ele><time>2026-09-06T06:43:53Z</time></trkpt>
    <trkpt lat="46.99656" lon="12.53436"><ele>942</ele><time>2026-09-06T06:44:23Z</time></trkpt>
    <trkpt lat="46.99734" lon="12.53220"><ele>943</ele><time>2026-09-06T06:44:52Z</time></trkpt>
    <trkpt lat="46.99686" lon="12.53087"><ele>945</ele><time>2026-09-06T06:45:21Z</time></trkpt>
    <trkpt lat="46.99592" lon="12.52847"><ele>941</ele><time>2026-09-06T06:45:51Z</time></trkpt>
    <trkpt lat="46.99544" lon="12.52588"><ele>938</ele><time>2026-09-06T06:46:20Z</time></trkpt>
    <trkpt lat="46.99563" lon="12.52347"><ele>940</ele><time>2026-09-06T06:46:49Z</time></trkpt>
    <trkpt lat="46.99688" lon="12.52202"><ele>943</ele><time>2026-09-06T06:47:19Z</time></trkpt>
    <trkpt lat="46.99780" lon="12.52028"><ele>943</ele><time>2026-09-06T06:47:48Z</time></trkpt>
    <trkpt lat="46.99807" lon="12.51806"><ele>945</ele><time>2026-09-06T06:48:17Z</time></trkpt>
    <trkpt lat="46.99753" lon="12.51589"><ele>946</ele><time>2026-09-06T06:48:47Z</time></trkpt>
    <trkpt lat="46.99659" lon="12.51411"><ele>947</ele><time>2026-09-06T06:49:16Z</time></trkpt>
    <trkpt lat="46.99582" lon="12.51202"><ele>946</ele><time>2026-09-06T06:49:45Z</time></trkpt>
    <trkpt lat="46.99578" lon="12.50957"><ele>950</ele><time>2026-09-06T06:50:15Z</time></trkpt>
    <trkpt lat="46.99586" lon="12.50727"><ele>952</ele><time>2026-09-06T06:50:44Z</time></trkpt>
    <trkpt lat="46.99577" lon="12.50516"><ele>952</ele><time>2026-09-06T06:51:13Z</time></trkpt>
    <trkpt lat="46.99552" lon="12.50298"><ele>955</ele><time>2026-09-06T06:51:43Z</time></trkpt>
    <trkpt lat="46.99555" lon="12.50097"><ele>958</ele><time>2026-09-06T06:52:12Z</time></trkpt>
    <trkpt lat="46.99601" lon="12.49958"><ele>963</ele><time>2026-09-06T06:52:41Z</time></trkpt>
    <trkpt lat="46.99647" lon="12.49883"><ele>969</ele><time>2026-09-06T06:53:11Z</time></trkpt>
    <trkpt lat="46.99690" lon="12.49832"><ele>975</ele><time>2026-09-06T06:53:40Z</time></trkpt>
    <trkpt lat="46.99723" lon="12.49770"><ele>982</ele><time>2026-09-06T06:54:09Z</time></trkpt>
    <trkpt lat="46.99737" lon="12.49693"><ele>988</ele><time>2026-09-06T06:54:39Z</time></trkpt>
    <trkpt lat="46.99744" lon="12.49618"><ele>993</ele><time>2026-09-06T06:55:08Z</time></trkpt>
    <trkpt lat="46.99745" lon="12.49542"><ele>998</ele><time>2026-09-06T06:55:37Z</time></trkpt>
    <trkpt lat="46.99746" lon="12.49462"><ele>1006</ele><time>2026-09-06T06:56:07Z</time></trkpt>
    <trkpt lat="46.99753" lon="12.49385"><ele>1012</ele><time>2026-09-06T06:56:36Z</time></trkpt>
    <trkpt lat="46.99758" lon="12.49318"><ele>1018</ele><time>2026-09-06T06:57:05Z</time></trkpt>
    <trkpt lat="46.99751" lon="12.49248"><ele>1024</ele><time>2026-09-06T06:57:35Z</time></trkpt>
    <trkpt lat="46.99743" lon="12.49184"><ele>1028</ele><time>2026-09-06T06:58:04Z</time></trkpt>
    <trkpt lat="46.99739" lon="12.49116"><ele>1033</ele><time>2026-09-06T06:58:33Z</time></trkpt>
    <trkpt lat="46.99717" lon="12.49059"><ele>1038</ele><time>2026-09-06T06:59:03Z</time></trkpt>
    <trkpt lat="46.99715" lon="12.49000"><ele>1043</ele><time>2026-09-06T06:59:32Z</time></trkpt>
    <trkpt lat="46.99727" lon="12.48939"><ele>1048</ele><time>2026-09-06T07:00:01Z</time></trkpt>
    <trkpt lat="46.99739" lon="12.48877"><ele>1054</ele><time>2026-09-06T07:00:31Z</time></trkpt>
    <trkpt lat="46.99762" lon="12.48818"><ele>1058</ele><time>2026-09-06T07:01:00Z</time></trkpt>
    <trkpt lat="46.99777" lon="12.48754"><ele>1064</ele><time>2026-09-06T07:01:29Z</time></trkpt>
    <trkpt lat="46.99791" lon="12.48689"><ele>1070</ele><time>2026-09-06T07:01:59Z</time></trkpt>
    <trkpt lat="46.99812" lon="12.48617"><ele>1076</ele><time>2026-09-06T07:02:28Z</time></trkpt>
    <trkpt lat="46.99833" lon="12.48542"><ele>1081</ele><time>2026-09-06T07:02:57Z</time></trkpt>
    <trkpt lat="46.99843" lon="12.48463"><ele>1086</ele><time>2026-09-06T07:03:27Z</time></trkpt>
    <trkpt lat="46.99864" lon="12.48389"><ele>1091</ele><time>2026-09-06T07:03:56Z</time></trkpt>
    <trkpt lat="46.99889" lon="12.48329"><ele>1095</ele><time>2026-09-06T07:04:25Z</time></trkpt>
    <trkpt lat="46.99886" lon="12.48250"><ele>1101</ele><time>2026-09-06T07:04:55Z</time></trkpt>
    <trkpt lat="46.99901" lon="12.48164"><ele>1106</ele><time>2026-09-06T07:05:24Z</time></trkpt>
    <trkpt lat="46.99933" lon="12.48011"><ele>1107</ele><time>2026-09-06T07:05:53Z</time></trkpt>
    <trkpt lat="46.99950" lon="12.47875"><ele>1111</ele><time>2026-09-06T07:06:23Z</time></trkpt>
    <trkpt lat="46.99960" lon="12.47788"><ele>1116</ele><time>2026-09-06T07:06:52Z</time></trkpt>
    <trkpt lat="46.99967" lon="12.47712"><ele>1121</ele><time>2026-09-06T07:07:21Z</time></trkpt>
    <trkpt lat="46.99967" lon="12.47632"><ele>1127</ele><time>2026-09-06T07:07:51Z</time></trkpt>
    <trkpt lat="46.99966" lon="12.47555"><ele>1131</ele><time>2026-09-06T07:08:20Z</time></trkpt>
    <trkpt lat="46.99970" lon="12.47479"><ele>1136</ele><time>2026-09-06T07:08:49Z</time></trkpt>
    <trkpt lat="46.99973" lon="12.47399"><ele>1139</ele><time>2026-09-06T07:09:19Z</time></trkpt>
    <trkpt lat="46.99982" lon="12.47332"><ele>1145</ele><time>2026-09-06T07:09:48Z</time></trkpt>
    <trkpt lat="46.99992" lon="12.47269"><ele>1152</ele><time>2026-09-06T07:10:17Z</time></trkpt>
    <trkpt lat="47.00007" lon="12.47206"><ele>1156</ele><time>2026-09-06T07:10:47Z</time></trkpt>
    <trkpt lat="47.00025" lon="12.47146"><ele>1160</ele><time>2026-09-06T07:11:16Z</time></trkpt>
    <trkpt lat="47.00042" lon="12.47088"><ele>1165</ele><time>2026-09-06T07:11:45Z</time></trkpt>
    <trkpt lat="47.00056" lon="12.47022"><ele>1172</ele><time>2026-09-06T07:12:15Z</time></trkpt>
    <trkpt lat="47.00057" lon="12.46954"><ele>1177</ele><time>2026-09-06T07:12:44Z</time></trkpt>
    <trkpt lat="47.00062" lon="12.46890"><ele>1183</ele><time>2026-09-06T07:13:13Z</time></trkpt>
    <trkpt lat="47.00088" lon="12.46837"><ele>1189</ele><time>2026-09-06T07:13:43Z</time></trkpt>
    <trkpt lat="47.00118" lon="12.46789"><ele>1194</ele><time>2026-09-06T07:14:12Z</time></trkpt>
    <trkpt lat="47.00136" lon="12.46711"><ele>1194</ele><time>2026-09-06T07:14:41Z</time></trkpt>
    <trkpt lat="47.00151" lon="12.46599"><ele>1197</ele><time>2026-09-06T07:15:11Z</time></trkpt>
    <trkpt lat="47.00173" lon="12.46488"><ele>1199</ele><time>2026-09-06T07:15:40Z</time></trkpt>
    <trkpt lat="47.00214" lon="12.46372"><ele>1204</ele><time>2026-09-06T07:16:09Z</time></trkpt>
    <trkpt lat="47.00240" lon="12.46309"><ele>1204</ele><time>2026-09-06T07:16:39Z</time></trkpt>
    <trkpt lat="47.00279" lon="12.46159"><ele>1201</ele><time>2026-09-06T07:17:08Z</time></trkpt>
    <trkpt lat="47.00350" lon="12.45843"><ele>1198</ele><time>2026-09-06T07:17:37Z</time></trkpt>
    <trkpt lat="47.00392" lon="12.45889"><ele>1200</ele><time>2026-09-06T07:18:07Z</time></trkpt>
    <trkpt lat="47.00412" lon="12.45952"><ele>1206</ele><time>2026-09-06T07:18:36Z</time></trkpt>
    <trkpt lat="47.00421" lon="12.46010"><ele>1213</ele><time>2026-09-06T07:19:05Z</time></trkpt>
    <trkpt lat="47.00433" lon="12.46063"><ele>1220</ele><time>2026-09-06T07:19:35Z</time></trkpt>
    <trkpt lat="47.00459" lon="12.46102"><ele>1225</ele><time>2026-09-06T07:20:04Z</time></trkpt>
    <trkpt lat="47.00488" lon="12.46133"><ele>1230</ele><time>2026-09-06T07:20:33Z</time></trkpt>
    <trkpt lat="47.00517" lon="12.46167"><ele>1236</ele><time>2026-09-06T07:21:03Z</time></trkpt>
    <trkpt lat="47.00545" lon="12.46205"><ele>1244</ele><time>2026-09-06T07:21:32Z</time></trkpt>
    <trkpt lat="47.00571" lon="12.46225"><ele>1249</ele><time>2026-09-06T07:22:01Z</time></trkpt>
    <trkpt lat="47.00576" lon="12.46279"><ele>1253</ele><time>2026-09-06T07:22:31Z</time></trkpt>
    <trkpt lat="47.00580" lon="12.46333"><ele>1260</ele><time>2026-09-06T07:23:00Z</time></trkpt>
    <trkpt lat="47.00593" lon="12.46371"><ele>1267</ele><time>2026-09-06T07:23:29Z</time></trkpt>
    <trkpt lat="47.00624" lon="12.46386"><ele>1273</ele><time>2026-09-06T07:23:59Z</time></trkpt>
    <trkpt lat="47.00651" lon="12.46422"><ele>1277</ele><time>2026-09-06T07:24:28Z</time></trkpt>
    <trkpt lat="47.00670" lon="12.46465"><ele>1284</ele><time>2026-09-06T07:24:57Z</time></trkpt>
    <trkpt lat="47.00672" lon="12.46517"><ele>1291</ele><time>2026-09-06T07:25:27Z</time></trkpt>
    <trkpt lat="47.00662" lon="12.46569"><ele>1294</ele><time>2026-09-06T07:25:56Z</time></trkpt>
    <trkpt lat="47.00678" lon="12.46632"><ele>1299</ele><time>2026-09-06T07:26:25Z</time></trkpt>
    <trkpt lat="47.00674" lon="12.46706"><ele>1303</ele><time>2026-09-06T07:26:55Z</time></trkpt>
    <trkpt lat="47.00690" lon="12.46768"><ele>1306</ele><time>2026-09-06T07:27:24Z</time></trkpt>
    <trkpt lat="47.00693" lon="12.46805"><ele>1310</ele><time>2026-09-06T07:30:20Z</time></trkpt>
    <trkpt lat="47.00647" lon="12.46911"><ele>1312</ele><time>2026-09-06T07:30:49Z</time></trkpt>
    <trkpt lat="47.00672" lon="12.46917"><ele>1325</ele><time>2026-09-06T07:31:48Z</time></trkpt>
    <trkpt lat="47.00688" lon="12.46866"><ele>1330</ele><time>2026-09-06T07:32:17Z</time></trkpt>
    <trkpt lat="47.00698" lon="12.46914"><ele>1335</ele><time>2026-09-06T07:32:47Z</time></trkpt>
    <trkpt lat="47.00702" lon="12.46964"><ele>1341</ele><time>2026-09-06T07:33:16Z</time></trkpt>
    <trkpt lat="47.00696" lon="12.47018"><ele>1346</ele><time>2026-09-06T07:33:45Z</time></trkpt>
    <trkpt lat="47.00693" lon="12.47072"><ele>1352</ele><time>2026-09-06T07:34:15Z</time></trkpt>
    <trkpt lat="47.00691" lon="12.47129"><ele>1357</ele><time>2026-09-06T07:34:44Z</time></trkpt>
    <trkpt lat="47.00696" lon="12.47177"><ele>1362</ele><time>2026-09-06T07:35:13Z</time></trkpt>
    <trkpt lat="47.00702" lon="12.47228"><ele>1368</ele><time>2026-09-06T07:35:43Z</time></trkpt>
    <trkpt lat="47.00715" lon="12.47278"><ele>1372</ele><time>2026-09-06T07:36:12Z</time></trkpt>
    <trkpt lat="47.00718" lon="12.47330"><ele>1376</ele><time>2026-09-06T07:36:41Z</time></trkpt>
    <trkpt lat="47.00726" lon="12.47381"><ele>1383</ele><time>2026-09-06T07:37:11Z</time></trkpt>
    <trkpt lat="47.00730" lon="12.47430"><ele>1388</ele><time>2026-09-06T07:37:40Z</time></trkpt>
    <trkpt lat="47.00752" lon="12.47463"><ele>1396</ele><time>2026-09-06T07:38:09Z</time></trkpt>
    <trkpt lat="47.00774" lon="12.47504"><ele>1399</ele><time>2026-09-06T07:38:39Z</time></trkpt>
    <trkpt lat="47.00777" lon="12.47555"><ele>1407</ele><time>2026-09-06T07:39:08Z</time></trkpt>
    <trkpt lat="47.00791" lon="12.47595"><ele>1412</ele><time>2026-09-06T07:39:37Z</time></trkpt>
    <trkpt lat="47.00793" lon="12.47537"><ele>1417</ele><time>2026-09-06T07:40:07Z</time></trkpt>
    <trkpt lat="47.00803" lon="12.47491"><ele>1422</ele><time>2026-09-06T07:40:36Z</time></trkpt>
    <trkpt lat="47.00806" lon="12.47441"><ele>1426</ele><time>2026-09-06T07:41:05Z</time></trkpt>
    <trkpt lat="47.00802" lon="12.47390"><ele>1434</ele><time>2026-09-06T07:41:35Z</time></trkpt>
    <trkpt lat="47.00790" lon="12.47361"><ele>1438</ele><time>2026-09-06T07:42:04Z</time></trkpt>
    <trkpt lat="47.00822" lon="12.47357"><ele>1441</ele><time>2026-09-06T07:42:33Z</time></trkpt>
    <trkpt lat="47.00850" lon="12.47377"><ele>1448</ele><time>2026-09-06T07:43:03Z</time></trkpt>
    <trkpt lat="47.00853" lon="12.47447"><ele>1449</ele><time>2026-09-06T07:43:32Z</time></trkpt>
    <trkpt lat="47.00863" lon="12.47514"><ele>1454</ele><time>2026-09-06T07:44:01Z</time></trkpt>
    <trkpt lat="47.00871" lon="12.47579"><ele>1458</ele><time>2026-09-06T07:44:31Z</time></trkpt>
    <trkpt lat="47.00879" lon="12.47628"><ele>1462</ele><time>2026-09-06T07:45:00Z</time></trkpt>
    <trkpt lat="47.00885" lon="12.47604"><ele>1469</ele><time>2026-09-06T07:45:29Z</time></trkpt>
    <trkpt lat="47.00901" lon="12.47560"><ele>1475</ele><time>2026-09-06T07:45:59Z</time></trkpt>
    <trkpt lat="47.00908" lon="12.47508"><ele>1482</ele><time>2026-09-06T07:46:28Z</time></trkpt>
    <trkpt lat="47.00917" lon="12.47456"><ele>1488</ele><time>2026-09-06T07:46:57Z</time></trkpt>
    <trkpt lat="47.00927" lon="12.47481"><ele>1490</ele><time>2026-09-06T07:47:27Z</time></trkpt>
    <trkpt lat="47.00933" lon="12.47529"><ele>1492</ele><time>2026-09-06T07:47:56Z</time></trkpt>
    <trkpt lat="47.00945" lon="12.47580"><ele>1498</ele><time>2026-09-06T07:48:25Z</time></trkpt>
    <trkpt lat="47.00952" lon="12.47613"><ele>1505</ele><time>2026-09-06T07:48:55Z</time></trkpt>
    <trkpt lat="47.00958" lon="12.47562"><ele>1511</ele><time>2026-09-06T07:49:24Z</time></trkpt>
    <trkpt lat="47.00968" lon="12.47512"><ele>1517</ele><time>2026-09-06T07:49:53Z</time></trkpt>
    <trkpt lat="47.00974" lon="12.47460"><ele>1522</ele><time>2026-09-06T07:50:23Z</time></trkpt>
    <trkpt lat="47.00981" lon="12.47413"><ele>1528</ele><time>2026-09-06T07:50:52Z</time></trkpt>
    <trkpt lat="47.00992" lon="12.47363"><ele>1533</ele><time>2026-09-06T07:51:21Z</time></trkpt>
    <trkpt lat="47.01001" lon="12.47316"><ele>1539</ele><time>2026-09-06T07:51:51Z</time></trkpt>
    <trkpt lat="47.01009" lon="12.47263"><ele>1543</ele><time>2026-09-06T07:52:20Z</time></trkpt>
    <trkpt lat="47.01015" lon="12.47215"><ele>1548</ele><time>2026-09-06T07:52:49Z</time></trkpt>
    <trkpt lat="47.01026" lon="12.47272"><ele>1549</ele><time>2026-09-06T07:54:47Z</time></trkpt>
    <trkpt lat="47.01034" lon="12.47323"><ele>1557</ele><time>2026-09-06T07:55:16Z</time></trkpt>
    <trkpt lat="47.01037" lon="12.47373"><ele>1560</ele><time>2026-09-06T07:55:45Z</time></trkpt>
    <trkpt lat="47.01041" lon="12.47432"><ele>1566</ele><time>2026-09-06T07:56:15Z</time></trkpt>
    <trkpt lat="47.01049" lon="12.47481"><ele>1570</ele><time>2026-09-06T07:56:44Z</time></trkpt>
    <trkpt lat="47.01052" lon="12.47531"><ele>1575</ele><time>2026-09-06T07:57:13Z</time></trkpt>
    <trkpt lat="47.01051" lon="12.47587"><ele>1580</ele><time>2026-09-06T07:57:43Z</time></trkpt>
    <trkpt lat="47.01061" lon="12.47551"><ele>1584</ele><time>2026-09-06T07:58:12Z</time></trkpt>
    <trkpt lat="47.01072" lon="12.47507"><ele>1593</ele><time>2026-09-06T07:58:41Z</time></trkpt>
    <trkpt lat="47.01080" lon="12.47456"><ele>1596</ele><time>2026-09-06T07:59:11Z</time></trkpt>
    <trkpt lat="47.01088" lon="12.47408"><ele>1601</ele><time>2026-09-06T07:59:40Z</time></trkpt>
    <trkpt lat="47.01098" lon="12.47359"><ele>1607</ele><time>2026-09-06T08:00:09Z</time></trkpt>
    <trkpt lat="47.01106" lon="12.47376"><ele>1612</ele><time>2026-09-06T08:00:39Z</time></trkpt>
    <trkpt lat="47.01108" lon="12.47432"><ele>1614</ele><time>2026-09-06T08:01:08Z</time></trkpt>
    <trkpt lat="47.01113" lon="12.47488"><ele>1616</ele><time>2026-09-06T08:01:37Z</time></trkpt>
    <trkpt lat="47.01111" lon="12.47549"><ele>1623</ele><time>2026-09-06T08:02:07Z</time></trkpt>
    <trkpt lat="47.01121" lon="12.47523"><ele>1629</ele><time>2026-09-06T08:02:36Z</time></trkpt>
    <trkpt lat="47.01129" lon="12.47476"><ele>1633</ele><time>2026-09-06T08:03:05Z</time></trkpt>
    <trkpt lat="47.01138" lon="12.47425"><ele>1638</ele><time>2026-09-06T08:03:35Z</time></trkpt>
    <trkpt lat="47.01140" lon="12.47391"><ele>1641</ele><time>2026-09-06T08:04:04Z</time></trkpt>
    <trkpt lat="47.01147" lon="12.47370"><ele>1645</ele><time>2026-09-06T08:04:33Z</time></trkpt>
    <trkpt lat="47.01154" lon="12.47446"><ele>1648</ele><time>2026-09-06T08:05:03Z</time></trkpt>
    <trkpt lat="47.01156" lon="12.47500"><ele>1654</ele><time>2026-09-06T08:05:32Z</time></trkpt>
    <trkpt lat="47.01160" lon="12.47548"><ele>1661</ele><time>2026-09-06T08:06:01Z</time></trkpt>
    <trkpt lat="47.01180" lon="12.47592"><ele>1663</ele><time>2026-09-06T08:06:31Z</time></trkpt>
    <trkpt lat="47.01191" lon="12.47641"><ele>1667</ele><time>2026-09-06T08:07:00Z</time></trkpt>
    <trkpt lat="47.01199" lon="12.47690"><ele>1671</ele><time>2026-09-06T08:07:29Z</time></trkpt>
    <trkpt lat="47.01219" lon="12.47730"><ele>1676</ele><time>2026-09-06T08:07:59Z</time></trkpt>
    <trkpt lat="47.01222" lon="12.47780"><ele>1681</ele><time>2026-09-06T08:08:28Z</time></trkpt>
    <trkpt lat="47.01248" lon="12.47810"><ele>1685</ele><time>2026-09-06T08:08:57Z</time></trkpt>
    <trkpt lat="47.01264" lon="12.47835"><ele>1687</ele><time>2026-09-06T08:09:27Z</time></trkpt>
    <trkpt lat="47.01305" lon="12.47840"><ele>1687</ele><time>2026-09-06T08:09:56Z</time></trkpt>
    <trkpt lat="47.01457" lon="12.47835"><ele>1688</ele><time>2026-09-06T08:10:25Z</time></trkpt>
    <trkpt lat="47.01493" lon="12.47799"><ele>1690</ele><time>2026-09-06T08:10:55Z</time></trkpt>
    <trkpt lat="47.01554" lon="12.47772"><ele>1693</ele><time>2026-09-06T08:11:24Z</time></trkpt>
    <trkpt lat="47.01647" lon="12.47771"><ele>1692</ele><time>2026-09-06T08:11:53Z</time></trkpt>
    <trkpt lat="47.01724" lon="12.47848"><ele>1694</ele><time>2026-09-06T08:12:23Z</time></trkpt>
    <trkpt lat="47.01756" lon="12.47885"><ele>1697</ele><time>2026-09-06T08:12:52Z</time></trkpt>
    <trkpt lat="47.01765" lon="12.47934"><ele>1700</ele><time>2026-09-06T08:13:21Z</time></trkpt>
    <trkpt lat="47.01775" lon="12.47933"><ele>1705</ele><time>2026-09-06T08:13:51Z</time></trkpt>
    <trkpt lat="47.01779" lon="12.47879"><ele>1710</ele><time>2026-09-06T08:14:20Z</time></trkpt>
    <trkpt lat="47.01767" lon="12.47830"><ele>1712</ele><time>2026-09-06T08:14:49Z</time></trkpt>
    <trkpt lat="47.01763" lon="12.47789"><ele>1716</ele><time>2026-09-06T08:15:19Z</time></trkpt>
    <trkpt lat="47.01786" lon="12.47836"><ele>1721</ele><time>2026-09-06T08:15:48Z</time></trkpt>
    <trkpt lat="47.01808" lon="12.47891"><ele>1725</ele><time>2026-09-06T08:16:17Z</time></trkpt>
    <trkpt lat="47.01824" lon="12.47948"><ele>1729</ele><time>2026-09-06T08:16:47Z</time></trkpt>
    <trkpt lat="47.01848" lon="12.47989"><ele>1734</ele><time>2026-09-06T08:17:16Z</time></trkpt>
    <trkpt lat="47.01855" lon="12.48001"><ele>1734</ele><time>2026-09-06T08:17:45Z</time></trkpt>
    <trkpt lat="47.01881" lon="12.48019"><ele>1736</ele><time>2026-09-06T08:18:15Z</time></trkpt>
    <trkpt lat="47.01908" lon="12.48039"><ele>1741</ele><time>2026-09-06T08:18:44Z</time></trkpt>
    <trkpt lat="47.01894" lon="12.47993"><ele>1745</ele><time>2026-09-06T08:19:13Z</time></trkpt>
    <trkpt lat="47.01934" lon="12.48002"><ele>1749</ele><time>2026-09-06T08:19:43Z</time></trkpt>
    <trkpt lat="47.01944" lon="12.48031"><ele>1754</ele><time>2026-09-06T08:20:12Z</time></trkpt>
    <trkpt lat="47.01950" lon="12.47976"><ele>1759</ele><time>2026-09-06T08:20:41Z</time></trkpt>
    <trkpt lat="47.01926" lon="12.47939"><ele>1766</ele><time>2026-09-06T08:21:11Z</time></trkpt>
    <trkpt lat="47.01906" lon="12.47903"><ele>1772</ele><time>2026-09-06T08:21:40Z</time></trkpt>
    <trkpt lat="47.01887" lon="12.47855"><ele>1777</ele><time>2026-09-06T08:22:09Z</time></trkpt>
    <trkpt lat="47.01869" lon="12.47811"><ele>1783</ele><time>2026-09-06T08:22:39Z</time></trkpt>
    <trkpt lat="47.01857" lon="12.47763"><ele>1786</ele><time>2026-09-06T08:23:08Z</time></trkpt>
    <trkpt lat="47.01890" lon="12.47781"><ele>1789</ele><time>2026-09-06T08:23:37Z</time></trkpt>
    <trkpt lat="47.01920" lon="12.47798"><ele>1795</ele><time>2026-09-06T08:24:07Z</time></trkpt>
    <trkpt lat="47.01952" lon="12.47812"><ele>1797</ele><time>2026-09-06T08:24:36Z</time></trkpt>
    <trkpt lat="47.01980" lon="12.47842"><ele>1802</ele><time>2026-09-06T08:25:05Z</time></trkpt>
    <trkpt lat="47.01991" lon="12.47864"><ele>1805</ele><time>2026-09-06T08:25:35Z</time></trkpt>
    <trkpt lat="47.02026" lon="12.47914"><ele>1810</ele><time>2026-09-06T08:26:33Z</time></trkpt>
    <trkpt lat="47.02027" lon="12.47888"><ele>1817</ele><time>2026-09-06T08:27:03Z</time></trkpt>
    <trkpt lat="47.02018" lon="12.47835"><ele>1822</ele><time>2026-09-06T08:27:32Z</time></trkpt>
    <trkpt lat="47.02033" lon="12.47822"><ele>1823</ele><time>2026-09-06T08:28:01Z</time></trkpt>
    <trkpt lat="47.02014" lon="12.47794"><ele>1826</ele><time>2026-09-06T08:28:31Z</time></trkpt>
    <trkpt lat="47.02011" lon="12.47762"><ele>1827</ele><time>2026-09-06T08:29:00Z</time></trkpt>
    <trkpt lat="47.01998" lon="12.47759"><ele>1832</ele><time>2026-09-06T08:29:59Z</time></trkpt>
    <trkpt lat="47.01998" lon="12.47774"><ele>1839</ele><time>2026-09-06T08:37:48Z</time></trkpt>
    <trkpt lat="47.02011" lon="12.47762"><ele>1841</ele><time>2026-09-06T08:38:17Z</time></trkpt>
    <trkpt lat="47.02022" lon="12.47755"><ele>1843</ele><time>2026-09-06T08:38:47Z</time></trkpt>
    <trkpt lat="47.02034" lon="12.47747"><ele>1844</ele><time>2026-09-06T08:39:16Z</time></trkpt>
    <trkpt lat="47.02038" lon="12.47724"><ele>1849</ele><time>2026-09-06T08:39:45Z</time></trkpt>
    <trkpt lat="47.02037" lon="12.47705"><ele>1853</ele><time>2026-09-06T08:40:15Z</time></trkpt>
    <trkpt lat="47.02024" lon="12.47684"><ele>1866</ele><time>2026-09-06T08:41:13Z</time></trkpt>
    <trkpt lat="47.02011" lon="12.47659"><ele>1878</ele><time>2026-09-06T08:42:12Z</time></trkpt>
    <trkpt lat="47.02021" lon="12.47646"><ele>1894</ele><time>2026-09-06T08:43:40Z</time></trkpt>
    <trkpt lat="47.02030" lon="12.47643"><ele>1901</ele><time>2026-09-06T08:44:09Z</time></trkpt>
    <trkpt lat="47.02049" lon="12.47634"><ele>1910</ele><time>2026-09-06T08:45:08Z</time></trkpt>
    <trkpt lat="47.02043" lon="12.47619"><ele>1917</ele><time>2026-09-06T08:45:37Z</time></trkpt>
    <trkpt lat="47.02057" lon="12.47612"><ele>1926</ele><time>2026-09-06T08:46:36Z</time></trkpt>
    <trkpt lat="47.02069" lon="12.47607"><ele>1929</ele><time>2026-09-06T08:47:05Z</time></trkpt>
    <trkpt lat="47.02081" lon="12.47605"><ele>1939</ele><time>2026-09-06T08:47:35Z</time></trkpt>
    <trkpt lat="47.02091" lon="12.47600"><ele>1945</ele><time>2026-09-06T08:48:04Z</time></trkpt>
    <trkpt lat="47.02103" lon="12.47596"><ele>1950</ele><time>2026-09-06T08:48:33Z</time></trkpt>
    <trkpt lat="47.02112" lon="12.47590"><ele>1954</ele><time>2026-09-06T08:49:03Z</time></trkpt>
    <trkpt lat="47.02134" lon="12.47583"><ele>1962</ele><time>2026-09-06T08:50:01Z</time></trkpt>
    <trkpt lat="47.02130" lon="12.47561"><ele>1966</ele><time>2026-09-06T08:50:31Z</time></trkpt>
    <trkpt lat="47.02131" lon="12.47540"><ele>1979</ele><time>2026-09-06T08:53:08Z</time></trkpt>
    <trkpt lat="47.02141" lon="12.47542"><ele>1986</ele><time>2026-09-06T08:53:37Z</time></trkpt>
    <trkpt lat="47.02155" lon="12.47543"><ele>1992</ele><time>2026-09-06T08:54:07Z</time></trkpt>
    <trkpt lat="47.02165" lon="12.47539"><ele>1995</ele><time>2026-09-06T08:54:36Z</time></trkpt>
    <trkpt lat="47.02176" lon="12.47532"><ele>2002</ele><time>2026-09-06T08:55:05Z</time></trkpt>
    <trkpt lat="47.02187" lon="12.47532"><ele>2006</ele><time>2026-09-06T08:55:35Z</time></trkpt>
    <trkpt lat="47.02195" lon="12.47540"><ele>2013</ele><time>2026-09-06T08:56:04Z</time></trkpt>
    <trkpt lat="47.02203" lon="12.47549"><ele>2018</ele><time>2026-09-06T08:56:33Z</time></trkpt>
    <trkpt lat="47.02207" lon="12.47531"><ele>2024</ele><time>2026-09-06T08:57:03Z</time></trkpt>
    <trkpt lat="47.02214" lon="12.47519"><ele>2028</ele><time>2026-09-06T08:57:32Z</time></trkpt>
    <trkpt lat="47.02222" lon="12.47511"><ele>2038</ele><time>2026-09-06T08:58:31Z</time></trkpt>
    <trkpt lat="47.02231" lon="12.47520"><ele>2041</ele><time>2026-09-06T08:59:00Z</time></trkpt>
    <trkpt lat="47.02244" lon="12.47529"><ele>2045</ele><time>2026-09-06T08:59:29Z</time></trkpt>
    <trkpt lat="47.02259" lon="12.47529"><ele>2049</ele><time>2026-09-06T08:59:59Z</time></trkpt>
    <trkpt lat="47.02271" lon="12.47538"><ele>2054</ele><time>2026-09-06T09:00:28Z</time></trkpt>
    <trkpt lat="47.02270" lon="12.47520"><ele>2066</ele><time>2026-09-06T09:01:27Z</time></trkpt>
    <trkpt lat="47.02269" lon="12.47501"><ele>2068</ele><time>2026-09-06T09:01:56Z</time></trkpt>
    <trkpt lat="47.02273" lon="12.47485"><ele>2073</ele><time>2026-09-06T09:02:25Z</time></trkpt>
    <trkpt lat="47.02277" lon="12.47472"><ele>2077</ele><time>2026-09-06T09:02:55Z</time></trkpt>
    <trkpt lat="47.02282" lon="12.47460"><ele>2081</ele><time>2026-09-06T09:03:24Z</time></trkpt>
    <trkpt lat="47.02286" lon="12.47439"><ele>2096</ele><time>2026-09-06T09:04:23Z</time></trkpt>
    <trkpt lat="47.02299" lon="12.47451"><ele>2098</ele><time>2026-09-06T09:04:52Z</time></trkpt>
    <trkpt lat="47.02305" lon="12.47464"><ele>2104</ele><time>2026-09-06T09:05:51Z</time></trkpt>
    <trkpt lat="47.02320" lon="12.47474"><ele>2106</ele><time>2026-09-06T09:06:20Z</time></trkpt>
    <trkpt lat="47.02333" lon="12.47476"><ele>2112</ele><time>2026-09-06T09:06:49Z</time></trkpt>
    <trkpt lat="47.02341" lon="12.47486"><ele>2119</ele><time>2026-09-06T09:07:19Z</time></trkpt>
    <trkpt lat="47.02351" lon="12.47493"><ele>2123</ele><time>2026-09-06T09:07:48Z</time></trkpt>
    <trkpt lat="47.02363" lon="12.47501"><ele>2131</ele><time>2026-09-06T09:08:47Z</time></trkpt>
    <trkpt lat="47.02379" lon="12.47512"><ele>2144</ele><time>2026-09-06T09:09:45Z</time></trkpt>
    <trkpt lat="47.02389" lon="12.47517"><ele>2149</ele><time>2026-09-06T09:10:15Z</time></trkpt>
    <trkpt lat="47.02398" lon="12.47518"><ele>2155</ele><time>2026-09-06T09:10:44Z</time></trkpt>
    <trkpt lat="47.02420" lon="12.47524"><ele>2162</ele><time>2026-09-06T09:12:12Z</time></trkpt>
    <trkpt lat="47.02434" lon="12.47529"><ele>2166</ele><time>2026-09-06T09:12:41Z</time></trkpt>
    <trkpt lat="47.02440" lon="12.47544"><ele>2170</ele><time>2026-09-06T09:13:11Z</time></trkpt>
    <trkpt lat="47.02452" lon="12.47548"><ele>2176</ele><time>2026-09-06T09:13:40Z</time></trkpt>
    <trkpt lat="47.02461" lon="12.47553"><ele>2180</ele><time>2026-09-06T09:14:09Z</time></trkpt>
    <trkpt lat="47.02474" lon="12.47558"><ele>2185</ele><time>2026-09-06T09:14:39Z</time></trkpt>
    <trkpt lat="47.02485" lon="12.47561"><ele>2191</ele><time>2026-09-06T09:15:08Z</time></trkpt>
    <trkpt lat="47.02496" lon="12.47564"><ele>2194</ele><time>2026-09-06T09:15:37Z</time></trkpt>
    <trkpt lat="47.02505" lon="12.47580"><ele>2199</ele><time>2026-09-06T09:16:07Z</time></trkpt>
    <trkpt lat="47.02511" lon="12.47590"><ele>2206</ele><time>2026-09-06T09:16:36Z</time></trkpt>
    <trkpt lat="47.02522" lon="12.47604"><ele>2210</ele><time>2026-09-06T09:17:05Z</time></trkpt>
    <trkpt lat="47.02531" lon="12.47619"><ele>2214</ele><time>2026-09-06T09:17:35Z</time></trkpt>
    <trkpt lat="47.02544" lon="12.47628"><ele>2223</ele><time>2026-09-06T09:18:33Z</time></trkpt>
    <trkpt lat="47.02556" lon="12.47627"><ele>2232</ele><time>2026-09-06T09:19:32Z</time></trkpt>
    <trkpt lat="47.02562" lon="12.47615"><ele>2233</ele><time>2026-09-06T09:20:01Z</time></trkpt>
    <trkpt lat="47.02575" lon="12.47604"><ele>2244</ele><time>2026-09-06T09:21:00Z</time></trkpt>
    <trkpt lat="47.02590" lon="12.47603"><ele>2254</ele><time>2026-09-06T09:21:59Z</time></trkpt>
    <trkpt lat="47.02598" lon="12.47609"><ele>2256</ele><time>2026-09-06T09:22:28Z</time></trkpt>
    <trkpt lat="47.02608" lon="12.47636"><ele>2266</ele><time>2026-09-06T09:23:27Z</time></trkpt>
    <trkpt lat="47.02607" lon="12.47657"><ele>2272</ele><time>2026-09-06T09:23:56Z</time></trkpt>
    <trkpt lat="47.02623" lon="12.47652"><ele>2282</ele><time>2026-09-06T09:24:55Z</time></trkpt>
    <trkpt lat="47.02635" lon="12.47658"><ele>2291</ele><time>2026-09-06T09:25:53Z</time></trkpt>
    <trkpt lat="47.02647" lon="12.47665"><ele>2302</ele><time>2026-09-06T09:26:52Z</time></trkpt>
    <trkpt lat="47.02659" lon="12.47676"><ele>2313</ele><time>2026-09-06T09:27:51Z</time></trkpt>
    <trkpt lat="47.02669" lon="12.47679"><ele>2320</ele><time>2026-09-06T09:32:15Z</time></trkpt>
    <trkpt lat="47.02679" lon="12.47687"><ele>2329</ele><time>2026-09-06T09:33:13Z</time></trkpt>
    <trkpt lat="47.02691" lon="12.47673"><ele>2341</ele><time>2026-09-06T09:34:12Z</time></trkpt>
    <trkpt lat="47.02701" lon="12.47664"><ele>2344</ele><time>2026-09-06T09:34:41Z</time></trkpt>
    <trkpt lat="47.02706" lon="12.47651"><ele>2346</ele><time>2026-09-06T09:35:11Z</time></trkpt>
    <trkpt lat="47.02709" lon="12.47633"><ele>2352</ele><time>2026-09-06T09:35:40Z</time></trkpt>
    <trkpt lat="47.02710" lon="12.47619"><ele>2353</ele><time>2026-09-06T09:36:09Z</time></trkpt>
    <trkpt lat="47.02719" lon="12.47624"><ele>2362</ele><time>2026-09-06T09:36:39Z</time></trkpt>
    <trkpt lat="47.02730" lon="12.47629"><ele>2374</ele><time>2026-09-06T09:37:37Z</time></trkpt>
    <trkpt lat="47.02727" lon="12.47617"><ele>2380</ele><time>2026-09-06T09:38:07Z</time></trkpt>
    <trkpt lat="47.02725" lon="12.47596"><ele>2387</ele><time>2026-09-06T09:38:36Z</time></trkpt>
    <trkpt lat="47.02743" lon="12.47609"><ele>2397</ele><time>2026-09-06T09:39:35Z</time></trkpt>
    <trkpt lat="47.02752" lon="12.47608"><ele>2399</ele><time>2026-09-06T09:40:04Z</time></trkpt>
    <trkpt lat="47.02766" lon="12.47615"><ele>2407</ele><time>2026-09-06T09:41:03Z</time></trkpt>
    <trkpt lat="47.02777" lon="12.47630"><ele>2417</ele><time>2026-09-06T09:42:01Z</time></trkpt>
    <trkpt lat="47.02788" lon="12.47638"><ele>2427</ele><time>2026-09-06T09:43:00Z</time></trkpt>
    <trkpt lat="47.02800" lon="12.47660"><ele>2439</ele><time>2026-09-06T09:43:59Z</time></trkpt>
    <trkpt lat="47.02809" lon="12.47669"><ele>2443</ele><time>2026-09-06T09:44:28Z</time></trkpt>
    <trkpt lat="47.02830" lon="12.47661"><ele>2452</ele><time>2026-09-06T09:45:27Z</time></trkpt>
    <trkpt lat="47.02837" lon="12.47650"><ele>2460</ele><time>2026-09-06T09:46:55Z</time></trkpt>
    <trkpt lat="47.02849" lon="12.47655"><ele>2474</ele><time>2026-09-06T09:47:53Z</time></trkpt>
    <trkpt lat="47.02858" lon="12.47642"><ele>2475</ele><time>2026-09-06T09:48:23Z</time></trkpt>
    <trkpt lat="47.02862" lon="12.47621"><ele>2480</ele><time>2026-09-06T09:48:52Z</time></trkpt>
    <trkpt lat="47.02867" lon="12.47602"><ele>2482</ele><time>2026-09-06T09:49:21Z</time></trkpt>
    <trkpt lat="47.02866" lon="12.47589"><ele>2487</ele><time>2026-09-06T09:49:51Z</time></trkpt>
    <trkpt lat="47.02872" lon="12.47573"><ele>2489</ele><time>2026-09-06T09:50:20Z</time></trkpt>
    <trkpt lat="47.02875" lon="12.47560"><ele>2496</ele><time>2026-09-06T09:50:49Z</time></trkpt>
    <trkpt lat="47.02877" lon="12.47545"><ele>2500</ele><time>2026-09-06T09:51:19Z</time></trkpt>
    <trkpt lat="47.02874" lon="12.47528"><ele>2505</ele><time>2026-09-06T09:51:48Z</time></trkpt>
    <trkpt lat="47.02884" lon="12.47517"><ele>2519</ele><time>2026-09-06T09:53:16Z</time></trkpt>
    <trkpt lat="47.02895" lon="12.47519"><ele>2533</ele><time>2026-09-06T09:54:15Z</time></trkpt>
    <trkpt lat="47.02905" lon="12.47526"><ele>2540</ele><time>2026-09-06T09:55:13Z</time></trkpt>
    <trkpt lat="47.02912" lon="12.47535"><ele>2553</ele><time>2026-09-06T09:56:12Z</time></trkpt>
    <trkpt lat="47.02923" lon="12.47555"><ele>2562</ele><time>2026-09-06T09:57:11Z</time></trkpt>
    <trkpt lat="47.02933" lon="12.47551"><ele>2569</ele><time>2026-09-06T09:58:09Z</time></trkpt>
    <trkpt lat="47.02942" lon="12.47545"><ele>2576</ele><time>2026-09-06T09:58:39Z</time></trkpt>
    <trkpt lat="47.02949" lon="12.47536"><ele>2585</ele><time>2026-09-06T09:59:37Z</time></trkpt>
    <trkpt lat="47.02953" lon="12.47523"><ele>2585</ele><time>2026-09-06T10:00:07Z</time></trkpt>
    <trkpt lat="47.02961" lon="12.47513"><ele>2590</ele><time>2026-09-06T10:01:05Z</time></trkpt>
    <trkpt lat="47.02971" lon="12.47520"><ele>2606</ele><time>2026-09-06T10:02:33Z</time></trkpt>
    <trkpt lat="47.02981" lon="12.47504"><ele>2613</ele><time>2026-09-06T10:03:32Z</time></trkpt>
    <trkpt lat="47.02993" lon="12.47494"><ele>2624</ele><time>2026-09-06T10:04:31Z</time></trkpt>
    <trkpt lat="47.03006" lon="12.47499"><ele>2634</ele><time>2026-09-06T10:05:59Z</time></trkpt>
    <trkpt lat="47.03017" lon="12.47490"><ele>2645</ele><time>2026-09-06T10:06:57Z</time></trkpt>
    <trkpt lat="47.03035" lon="12.47497"><ele>2660</ele><time>2026-09-06T10:14:47Z</time></trkpt>
    <trkpt lat="47.03052" lon="12.47501"><ele>2668</ele><time>2026-09-06T10:15:45Z</time></trkpt>
    <trkpt lat="47.03057" lon="12.47526"><ele>2677</ele><time>2026-09-06T10:16:44Z</time></trkpt>
    <trkpt lat="47.03058" lon="12.47540"><ele>2683</ele><time>2026-09-06T10:17:13Z</time></trkpt>
    <trkpt lat="47.03065" lon="12.47552"><ele>2690</ele><time>2026-09-06T10:17:43Z</time></trkpt>
    <trkpt lat="47.03076" lon="12.47537"><ele>2699</ele><time>2026-09-06T10:18:41Z</time></trkpt>
    <trkpt lat="47.03086" lon="12.47530"><ele>2704</ele><time>2026-09-06T10:19:11Z</time></trkpt>
    <trkpt lat="47.03102" lon="12.47527"><ele>2713</ele><time>2026-09-06T10:20:09Z</time></trkpt>
    <trkpt lat="47.03119" lon="12.47516"><ele>2722</ele><time>2026-09-06T10:21:08Z</time></trkpt>
    <trkpt lat="47.03122" lon="12.47536"><ele>2727</ele><time>2026-09-06T10:21:37Z</time></trkpt>
    <trkpt lat="47.03124" lon="12.47551"><ele>2738</ele><time>2026-09-06T10:22:36Z</time></trkpt>
    <trkpt lat="47.03135" lon="12.47553"><ele>2747</ele><time>2026-09-06T10:23:35Z</time></trkpt>
    <trkpt lat="47.03143" lon="12.47547"><ele>2753</ele><time>2026-09-06T10:24:04Z</time></trkpt>
    <trkpt lat="47.03154" lon="12.47544"><ele>2756</ele><time>2026-09-06T10:24:33Z</time></trkpt>
    <trkpt lat="47.03165" lon="12.47542"><ele>2765</ele><time>2026-09-06T10:25:32Z</time></trkpt>
    <trkpt lat="47.03173" lon="12.47557"><ele>2772</ele><time>2026-09-06T10:26:31Z</time></trkpt>
    <trkpt lat="47.03176" lon="12.47577"><ele>2782</ele><time>2026-09-06T10:27:29Z</time></trkpt>
    <trkpt lat="47.03185" lon="12.47580"><ele>2795</ele><time>2026-09-06T10:28:57Z</time></trkpt>
    <trkpt lat="47.03196" lon="12.47574"><ele>2798</ele><time>2026-09-06T10:29:27Z</time></trkpt>
    <trkpt lat="47.03209" lon="12.47575"><ele>2810</ele><time>2026-09-06T10:30:25Z</time></trkpt>
    <trkpt lat="47.03213" lon="12.47589"><ele>2817</ele><time>2026-09-06T10:31:24Z</time></trkpt>
    <trkpt lat="47.03225" lon="12.47586"><ele>2825</ele><time>2026-09-06T10:32:23Z</time></trkpt>
    <trkpt lat="47.03235" lon="12.47595"><ele>2838</ele><time>2026-09-06T10:33:51Z</time></trkpt>
    <trkpt lat="47.03245" lon="12.47598"><ele>2845</ele><time>2026-09-06T10:34:49Z</time></trkpt>
    <trkpt lat="47.03254" lon="12.47598"><ele>2856</ele><time>2026-09-06T10:36:47Z</time></trkpt>
    <trkpt lat="47.03263" lon="12.47594"><ele>2864</ele><time>2026-09-06T10:38:15Z</time></trkpt>
    <trkpt lat="47.03273" lon="12.47601"><ele>2873</ele><time>2026-09-06T10:39:43Z</time></trkpt>
    <trkpt lat="47.03282" lon="12.47605"><ele>2882</ele><time>2026-09-06T10:41:11Z</time></trkpt>
    <trkpt lat="47.03291" lon="12.47607"><ele>2891</ele><time>2026-09-06T10:42:39Z</time></trkpt>
    <trkpt lat="47.03301" lon="12.47609"><ele>2899</ele><time>2026-09-06T10:44:07Z</time></trkpt>
    <trkpt lat="47.03313" lon="12.47612"><ele>2913</ele><time>2026-09-06T10:46:04Z</time></trkpt>
    <trkpt lat="47.03321" lon="12.47630"><ele>2927</ele><time>2026-09-06T10:47:31Z</time></trkpt>
    <trkpt lat="47.03332" lon="12.47605"><ele>2935</ele><time>2026-09-06T10:49:28Z</time></trkpt>
    <trkpt lat="47.03342" lon="12.47594"><ele>2941</ele><time>2026-09-06T10:49:57Z</time></trkpt>
    <trkpt lat="47.03353" lon="12.47581"><ele>2951</ele><time>2026-09-06T10:50:56Z</time></trkpt>
    <trkpt lat="47.03361" lon="12.47574"><ele>2956</ele><time>2026-09-06T10:51:55Z</time></trkpt>
    <trkpt lat="47.03372" lon="12.47565"><ele>2960</ele><time>2026-09-06T10:52:24Z</time></trkpt>
    <trkpt lat="47.03383" lon="12.47550"><ele>2970</ele><time>2026-09-06T10:53:23Z</time></trkpt>
    <trkpt lat="47.03391" lon="12.47531"><ele>2979</ele><time>2026-09-06T10:54:21Z</time></trkpt>
    <trkpt lat="47.03400" lon="12.47524"><ele>2983</ele><time>2026-09-06T10:54:51Z</time></trkpt>
    <trkpt lat="47.03414" lon="12.47499"><ele>2994</ele><time>2026-09-06T10:55:49Z</time></trkpt>
    <trkpt lat="47.03425" lon="12.47494"><ele>3001</ele><time>2026-09-06T10:56:19Z</time></trkpt>
    <trkpt lat="47.03437" lon="12.47483"><ele>3007</ele><time>2026-09-06T10:56:48Z</time></trkpt>
    <trkpt lat="47.03442" lon="12.47471"><ele>3011</ele><time>2026-09-06T10:57:17Z</time></trkpt>
    <trkpt lat="47.03463" lon="12.47477"><ele>3011</ele><time>2026-09-06T11:07:33Z</time></trkpt>
    <trkpt lat="47.03451" lon="12.47477"><ele>3014</ele><time>2026-09-06T11:14:53Z</time></trkpt>
    <trkpt lat="47.03443" lon="12.47471"><ele>3011</ele><time>2026-09-06T11:15:52Z</time></trkpt>
    <trkpt lat="47.03435" lon="12.47485"><ele>3007</ele><time>2026-09-06T11:40:57Z</time></trkpt>
    <trkpt lat="47.03421" lon="12.47496"><ele>3002</ele><time>2026-09-06T11:41:26Z</time></trkpt>
    <trkpt lat="47.03409" lon="12.47513"><ele>2996</ele><time>2026-09-06T11:41:55Z</time></trkpt>
    <trkpt lat="47.03398" lon="12.47529"><ele>2987</ele><time>2026-09-06T11:42:25Z</time></trkpt>
    <trkpt lat="47.03393" lon="12.47542"><ele>2978</ele><time>2026-09-06T11:42:54Z</time></trkpt>
    <trkpt lat="47.03383" lon="12.47553"><ele>2972</ele><time>2026-09-06T11:43:23Z</time></trkpt>
    <trkpt lat="47.03374" lon="12.47565"><ele>2963</ele><time>2026-09-06T11:43:53Z</time></trkpt>
    <trkpt lat="47.03360" lon="12.47575"><ele>2954</ele><time>2026-09-06T11:44:51Z</time></trkpt>
    <trkpt lat="47.03344" lon="12.47593"><ele>2941</ele><time>2026-09-06T11:46:49Z</time></trkpt>
    <trkpt lat="47.03331" lon="12.47611"><ele>2932</ele><time>2026-09-06T11:47:47Z</time></trkpt>
    <trkpt lat="47.03317" lon="12.47619"><ele>2927</ele><time>2026-09-06T11:48:17Z</time></trkpt>
    <trkpt lat="47.03308" lon="12.47612"><ele>2918</ele><time>2026-09-06T11:49:15Z</time></trkpt>
    <trkpt lat="47.03299" lon="12.47608"><ele>2905</ele><time>2026-09-06T11:50:43Z</time></trkpt>
    <trkpt lat="47.03289" lon="12.47605"><ele>2889</ele><time>2026-09-06T11:52:14Z</time></trkpt>
    <trkpt lat="47.03280" lon="12.47603"><ele>2882</ele><time>2026-09-06T11:53:13Z</time></trkpt>
    <trkpt lat="47.03264" lon="12.47600"><ele>2868</ele><time>2026-09-06T11:54:41Z</time></trkpt>
    <trkpt lat="47.03253" lon="12.47601"><ele>2855</ele><time>2026-09-06T11:56:09Z</time></trkpt>
    <trkpt lat="47.03240" lon="12.47591"><ele>2842</ele><time>2026-09-06T11:57:37Z</time></trkpt>
    <trkpt lat="47.03224" lon="12.47589"><ele>2828</ele><time>2026-09-06T11:59:05Z</time></trkpt>
    <trkpt lat="47.03210" lon="12.47589"><ele>2819</ele><time>2026-09-06T12:00:03Z</time></trkpt>
    <trkpt lat="47.03208" lon="12.47576"><ele>2811</ele><time>2026-09-06T12:00:33Z</time></trkpt>
    <trkpt lat="47.03193" lon="12.47576"><ele>2797</ele><time>2026-09-06T12:01:31Z</time></trkpt>
    <trkpt lat="47.03180" lon="12.47582"><ele>2789</ele><time>2026-09-06T12:02:01Z</time></trkpt>
    <trkpt lat="47.03174" lon="12.47567"><ele>2783</ele><time>2026-09-06T12:02:30Z</time></trkpt>
    <trkpt lat="47.03170" lon="12.47547"><ele>2771</ele><time>2026-09-06T12:03:29Z</time></trkpt>
    <trkpt lat="47.03155" lon="12.47545"><ele>2757</ele><time>2026-09-06T12:04:27Z</time></trkpt>
    <trkpt lat="47.03144" lon="12.47548"><ele>2752</ele><time>2026-09-06T12:04:57Z</time></trkpt>
    <trkpt lat="47.03135" lon="12.47552"><ele>2749</ele><time>2026-09-06T12:05:26Z</time></trkpt>
    <trkpt lat="47.03122" lon="12.47560"><ele>2741</ele><time>2026-09-06T12:06:25Z</time></trkpt>
    <trkpt lat="47.03123" lon="12.47541"><ele>2734</ele><time>2026-09-06T12:06:54Z</time></trkpt>
    <trkpt lat="47.03113" lon="12.47523"><ele>2720</ele><time>2026-09-06T12:07:53Z</time></trkpt>
    <trkpt lat="47.03101" lon="12.47531"><ele>2712</ele><time>2026-09-06T12:08:22Z</time></trkpt>
    <trkpt lat="47.03086" lon="12.47532"><ele>2703</ele><time>2026-09-06T12:10:19Z</time></trkpt>
    <trkpt lat="47.03072" lon="12.47542"><ele>2697</ele><time>2026-09-06T12:10:49Z</time></trkpt>
    <trkpt lat="47.03063" lon="12.47552"><ele>2690</ele><time>2026-09-06T12:11:18Z</time></trkpt>
    <trkpt lat="47.03055" lon="12.47532"><ele>2682</ele><time>2026-09-06T12:11:47Z</time></trkpt>
    <trkpt lat="47.03052" lon="12.47515"><ele>2675</ele><time>2026-09-06T12:12:46Z</time></trkpt>
    <trkpt lat="47.03046" lon="12.47495"><ele>2668</ele><time>2026-09-06T12:13:15Z</time></trkpt>
    <trkpt lat="47.03036" lon="12.47497"><ele>2661</ele><time>2026-09-06T12:13:45Z</time></trkpt>
    <trkpt lat="47.03024" lon="12.47498"><ele>2653</ele><time>2026-09-06T12:14:14Z</time></trkpt>
    <trkpt lat="47.03005" lon="12.47502"><ele>2636</ele><time>2026-09-06T12:15:13Z</time></trkpt>
    <trkpt lat="47.02995" lon="12.47494"><ele>2628</ele><time>2026-09-06T12:15:42Z</time></trkpt>
    <trkpt lat="47.02985" lon="12.47505"><ele>2617</ele><time>2026-09-06T12:16:41Z</time></trkpt>
    <trkpt lat="47.02978" lon="12.47517"><ele>2610</ele><time>2026-09-06T12:17:10Z</time></trkpt>
    <trkpt lat="47.02967" lon="12.47517"><ele>2603</ele><time>2026-09-06T12:18:09Z</time></trkpt>
    <trkpt lat="47.02954" lon="12.47528"><ele>2586</ele><time>2026-09-06T12:19:37Z</time></trkpt>
    <trkpt lat="47.02948" lon="12.47541"><ele>2582</ele><time>2026-09-06T12:20:06Z</time></trkpt>
    <trkpt lat="47.02935" lon="12.47555"><ele>2571</ele><time>2026-09-06T12:21:05Z</time></trkpt>
    <trkpt lat="47.02916" lon="12.47544"><ele>2558</ele><time>2026-09-06T12:22:03Z</time></trkpt>
    <trkpt lat="47.02908" lon="12.47532"><ele>2545</ele><time>2026-09-06T12:23:02Z</time></trkpt>
    <trkpt lat="47.02899" lon="12.47529"><ele>2537</ele><time>2026-09-06T12:24:01Z</time></trkpt>
    <trkpt lat="47.02887" lon="12.47522"><ele>2526</ele><time>2026-09-06T12:25:58Z</time></trkpt>
    <trkpt lat="47.02878" lon="12.47525"><ele>2516</ele><time>2026-09-06T12:26:57Z</time></trkpt>
    <trkpt lat="47.02876" lon="12.47541"><ele>2508</ele><time>2026-09-06T12:30:51Z</time></trkpt>
    <trkpt lat="47.02877" lon="12.47557"><ele>2505</ele><time>2026-09-06T12:31:50Z</time></trkpt>
    <trkpt lat="47.02870" lon="12.47570"><ele>2498</ele><time>2026-09-06T12:32:19Z</time></trkpt>
    <trkpt lat="47.02864" lon="12.47584"><ele>2493</ele><time>2026-09-06T12:32:49Z</time></trkpt>
    <trkpt lat="47.02864" lon="12.47603"><ele>2487</ele><time>2026-09-06T12:33:18Z</time></trkpt>
    <trkpt lat="47.02861" lon="12.47625"><ele>2480</ele><time>2026-09-06T12:33:47Z</time></trkpt>
    <trkpt lat="47.02854" lon="12.47652"><ele>2473</ele><time>2026-09-06T12:34:17Z</time></trkpt>
    <trkpt lat="47.02844" lon="12.47659"><ele>2465</ele><time>2026-09-06T12:34:46Z</time></trkpt>
    <trkpt lat="47.02833" lon="12.47649"><ele>2459</ele><time>2026-09-06T12:35:15Z</time></trkpt>
    <trkpt lat="47.02828" lon="12.47663"><ele>2453</ele><time>2026-09-06T12:36:14Z</time></trkpt>
    <trkpt lat="47.02815" lon="12.47668"><ele>2446</ele><time>2026-09-06T12:37:13Z</time></trkpt>
    <trkpt lat="47.02800" lon="12.47661"><ele>2439</ele><time>2026-09-06T12:37:42Z</time></trkpt>
    <trkpt lat="47.02790" lon="12.47652"><ele>2432</ele><time>2026-09-06T12:43:56Z</time></trkpt>
    <trkpt lat="47.02785" lon="12.47637"><ele>2431</ele><time>2026-09-06T12:44:25Z</time></trkpt>
    <trkpt lat="47.02768" lon="12.47626"><ele>2420</ele><time>2026-09-06T12:45:24Z</time></trkpt>
    <trkpt lat="47.02756" lon="12.47614"><ele>2409</ele><time>2026-09-06T12:45:53Z</time></trkpt>
    <trkpt lat="47.02748" lon="12.47611"><ele>2403</ele><time>2026-09-06T12:46:23Z</time></trkpt>
    <trkpt lat="47.02737" lon="12.47605"><ele>2398</ele><time>2026-09-06T12:47:21Z</time></trkpt>
    <trkpt lat="47.02731" lon="12.47593"><ele>2396</ele><time>2026-09-06T12:48:20Z</time></trkpt>
    <trkpt lat="47.02724" lon="12.47611"><ele>2388</ele><time>2026-09-06T12:49:19Z</time></trkpt>
    <trkpt lat="47.02729" lon="12.47630"><ele>2382</ele><time>2026-09-06T12:49:48Z</time></trkpt>
    <trkpt lat="47.02713" lon="12.47628"><ele>2373</ele><time>2026-09-06T12:50:47Z</time></trkpt>
    <trkpt lat="47.02701" lon="12.47652"><ele>2356</ele><time>2026-09-06T12:53:43Z</time></trkpt>
    <trkpt lat="47.02692" lon="12.47664"><ele>2348</ele><time>2026-09-06T12:54:12Z</time></trkpt>
    <trkpt lat="47.02684" lon="12.47679"><ele>2343</ele><time>2026-09-06T12:54:41Z</time></trkpt>
    <trkpt lat="47.02675" lon="12.47688"><ele>2335</ele><time>2026-09-06T12:55:11Z</time></trkpt>
    <trkpt lat="47.02658" lon="12.47684"><ele>2323</ele><time>2026-09-06T12:56:09Z</time></trkpt>
    <trkpt lat="47.02657" lon="12.47670"><ele>2316</ele><time>2026-09-06T12:57:08Z</time></trkpt>
    <trkpt lat="47.02638" lon="12.47665"><ele>2304</ele><time>2026-09-06T12:58:07Z</time></trkpt>
    <trkpt lat="47.02630" lon="12.47659"><ele>2298</ele><time>2026-09-06T12:58:36Z</time></trkpt>
    <trkpt lat="47.02612" lon="12.47659"><ele>2283</ele><time>2026-09-06T12:59:35Z</time></trkpt>
    <trkpt lat="47.02605" lon="12.47644"><ele>2273</ele><time>2026-09-06T13:00:04Z</time></trkpt>
    <trkpt lat="47.02598" lon="12.47615"><ele>2268</ele><time>2026-09-06T13:00:33Z</time></trkpt>
    <trkpt lat="47.02588" lon="12.47604"><ele>2263</ele><time>2026-09-06T13:01:03Z</time></trkpt>
    <trkpt lat="47.02574" lon="12.47612"><ele>2255</ele><time>2026-09-06T13:01:32Z</time></trkpt>
    <trkpt lat="47.02563" lon="12.47612"><ele>2248</ele><time>2026-09-06T13:02:01Z</time></trkpt>
    <trkpt lat="47.02555" lon="12.47625"><ele>2238</ele><time>2026-09-06T13:03:00Z</time></trkpt>
    <trkpt lat="47.02538" lon="12.47625"><ele>2226</ele><time>2026-09-06T13:04:28Z</time></trkpt>
    <trkpt lat="47.02527" lon="12.47613"><ele>2216</ele><time>2026-09-06T13:05:27Z</time></trkpt>
    <trkpt lat="47.02509" lon="12.47591"><ele>2210</ele><time>2026-09-06T13:05:56Z</time></trkpt>
    <trkpt lat="47.02502" lon="12.47573"><ele>2205</ele><time>2026-09-06T13:06:25Z</time></trkpt>
    <trkpt lat="47.02484" lon="12.47562"><ele>2195</ele><time>2026-09-06T13:06:55Z</time></trkpt>
    <trkpt lat="47.02466" lon="12.47554"><ele>2186</ele><time>2026-09-06T13:07:24Z</time></trkpt>
    <trkpt lat="47.02451" lon="12.47547"><ele>2180</ele><time>2026-09-06T13:07:53Z</time></trkpt>
    <trkpt lat="47.02436" lon="12.47540"><ele>2173</ele><time>2026-09-06T13:08:23Z</time></trkpt>
    <trkpt lat="47.02431" lon="12.47527"><ele>2170</ele><time>2026-09-06T13:08:52Z</time></trkpt>
    <trkpt lat="47.02412" lon="12.47524"><ele>2164</ele><time>2026-09-06T13:09:21Z</time></trkpt>
    <trkpt lat="47.02396" lon="12.47519"><ele>2158</ele><time>2026-09-06T13:09:51Z</time></trkpt>
    <trkpt lat="47.02380" lon="12.47512"><ele>2149</ele><time>2026-09-06T13:10:49Z</time></trkpt>
    <trkpt lat="47.02368" lon="12.47505"><ele>2140</ele><time>2026-09-06T13:11:19Z</time></trkpt>
    <trkpt lat="47.02358" lon="12.47496"><ele>2133</ele><time>2026-09-06T13:11:48Z</time></trkpt>
    <trkpt lat="47.02350" lon="12.47488"><ele>2126</ele><time>2026-09-06T13:12:17Z</time></trkpt>
    <trkpt lat="47.02335" lon="12.47480"><ele>2117</ele><time>2026-09-06T13:12:47Z</time></trkpt>
    <trkpt lat="47.02318" lon="12.47471"><ele>2111</ele><time>2026-09-06T13:13:16Z</time></trkpt>
    <trkpt lat="47.02302" lon="12.47457"><ele>2106</ele><time>2026-09-06T13:13:45Z</time></trkpt>
    <trkpt lat="47.02282" lon="12.47443"><ele>2100</ele><time>2026-09-06T13:14:15Z</time></trkpt>
    <trkpt lat="47.02279" lon="12.47457"><ele>2093</ele><time>2026-09-06T13:14:44Z</time></trkpt>
    <trkpt lat="47.02275" lon="12.47472"><ele>2085</ele><time>2026-09-06T13:15:13Z</time></trkpt>
    <trkpt lat="47.02275" lon="12.47485"><ele>2080</ele><time>2026-09-06T13:15:43Z</time></trkpt>
    <trkpt lat="47.02268" lon="12.47511"><ele>2067</ele><time>2026-09-06T13:17:50Z</time></trkpt>
    <trkpt lat="47.02273" lon="12.47537"><ele>2063</ele><time>2026-09-06T13:18:20Z</time></trkpt>
    <trkpt lat="47.02273" lon="12.47563"><ele>2057</ele><time>2026-09-06T13:18:49Z</time></trkpt>
    <trkpt lat="47.02286" lon="12.47592"><ele>2054</ele><time>2026-09-06T13:19:18Z</time></trkpt>
    <trkpt lat="47.02292" lon="12.47629"><ele>2048</ele><time>2026-09-06T13:20:17Z</time></trkpt>
    <trkpt lat="47.02299" lon="12.47658"><ele>2043</ele><time>2026-09-06T13:20:46Z</time></trkpt>
    <trkpt lat="47.02305" lon="12.47687"><ele>2034</ele><time>2026-09-06T13:21:16Z</time></trkpt>
    <trkpt lat="47.02312" lon="12.47715"><ele>2029</ele><time>2026-09-06T13:21:45Z</time></trkpt>
    <trkpt lat="47.02300" lon="12.47711"><ele>2022</ele><time>2026-09-06T13:22:14Z</time></trkpt>
    <trkpt lat="47.02291" lon="12.47720"><ele>2015</ele><time>2026-09-06T13:22:44Z</time></trkpt>
    <trkpt lat="47.02276" lon="12.47724"><ele>2006</ele><time>2026-09-06T13:23:42Z</time></trkpt>
    <trkpt lat="47.02258" lon="12.47706"><ele>1997</ele><time>2026-09-06T13:24:12Z</time></trkpt>
    <trkpt lat="47.02239" lon="12.47698"><ele>1987</ele><time>2026-09-06T13:24:41Z</time></trkpt>
    <trkpt lat="47.02220" lon="12.47670"><ele>1983</ele><time>2026-09-06T13:25:10Z</time></trkpt>
    <trkpt lat="47.02201" lon="12.47642"><ele>1982</ele><time>2026-09-06T13:25:40Z</time></trkpt>
    <trkpt lat="47.02193" lon="12.47616"><ele>1982</ele><time>2026-09-06T13:26:09Z</time></trkpt>
    <trkpt lat="47.02179" lon="12.47602"><ele>1980</ele><time>2026-09-06T13:27:08Z</time></trkpt>
    <trkpt lat="47.02181" lon="12.47582"><ele>1981</ele><time>2026-09-06T13:29:05Z</time></trkpt>
    <trkpt lat="47.02173" lon="12.47567"><ele>1988</ele><time>2026-09-06T13:30:04Z</time></trkpt>
    <trkpt lat="47.02162" lon="12.47552"><ele>1986</ele><time>2026-09-06T13:31:02Z</time></trkpt>
    <trkpt lat="47.02151" lon="12.47550"><ele>1984</ele><time>2026-09-06T13:31:32Z</time></trkpt>
    <trkpt lat="47.02148" lon="12.47535"><ele>1982</ele><time>2026-09-06T13:32:01Z</time></trkpt>
    <trkpt lat="47.02130" lon="12.47539"><ele>1983</ele><time>2026-09-06T13:32:30Z</time></trkpt>
    <trkpt lat="47.02132" lon="12.47554"><ele>1980</ele><time>2026-09-06T13:33:00Z</time></trkpt>
    <trkpt lat="47.02134" lon="12.47579"><ele>1971</ele><time>2026-09-06T13:33:58Z</time></trkpt>
    <trkpt lat="47.02113" lon="12.47582"><ele>1965</ele><time>2026-09-06T13:34:28Z</time></trkpt>
    <trkpt lat="47.02100" lon="12.47594"><ele>1959</ele><time>2026-09-06T13:34:57Z</time></trkpt>
    <trkpt lat="47.02087" lon="12.47607"><ele>1952</ele><time>2026-09-06T13:35:26Z</time></trkpt>
    <trkpt lat="47.02073" lon="12.47610"><ele>1943</ele><time>2026-09-06T13:35:56Z</time></trkpt>
    <trkpt lat="47.02057" lon="12.47616"><ele>1939</ele><time>2026-09-06T13:36:25Z</time></trkpt>
    <trkpt lat="47.02041" lon="12.47615"><ele>1931</ele><time>2026-09-06T13:36:54Z</time></trkpt>
    <trkpt lat="47.02040" lon="12.47637"><ele>1914</ele><time>2026-09-06T13:37:53Z</time></trkpt>
    <trkpt lat="47.02025" lon="12.47646"><ele>1911</ele><time>2026-09-06T13:38:22Z</time></trkpt>
    <trkpt lat="47.02011" lon="12.47648"><ele>1906</ele><time>2026-09-06T13:38:52Z</time></trkpt>
    <trkpt lat="47.02003" lon="12.47656"><ele>1901</ele><time>2026-09-06T13:39:21Z</time></trkpt>
    <trkpt lat="47.02006" lon="12.47671"><ele>1894</ele><time>2026-09-06T13:39:50Z</time></trkpt>
    <trkpt lat="47.02015" lon="12.47682"><ele>1882</ele><time>2026-09-06T13:40:20Z</time></trkpt>
    <trkpt lat="47.02030" lon="12.47696"><ele>1877</ele><time>2026-09-06T13:40:49Z</time></trkpt>
    <trkpt lat="47.02038" lon="12.47725"><ele>1869</ele><time>2026-09-06T13:41:28Z</time></trkpt>
    <trkpt lat="47.02041" lon="12.47745"><ele>1859</ele><time>2026-09-06T13:41:57Z</time></trkpt>
    <trkpt lat="47.02022" lon="12.47766"><ele>1848</ele><time>2026-09-06T13:42:26Z</time></trkpt>
    <trkpt lat="47.02006" lon="12.47762"><ele>1843</ele><time>2026-09-06T13:42:56Z</time></trkpt>
    <trkpt lat="47.01994" lon="12.47761"><ele>1836</ele><time>2026-09-06T13:43:25Z</time></trkpt>
    <trkpt lat="47.02020" lon="12.47867"><ele>1828</ele><time>2026-09-06T13:52:42Z</time></trkpt>
    <trkpt lat="47.02022" lon="12.47915"><ele>1820</ele><time>2026-09-06T13:53:12Z</time></trkpt>
    <trkpt lat="47.02007" lon="12.47879"><ele>1811</ele><time>2026-09-06T13:53:41Z</time></trkpt>
    <trkpt lat="47.01997" lon="12.47871"><ele>1808</ele><time>2026-09-06T13:54:10Z</time></trkpt>
    <trkpt lat="47.01980" lon="12.47843"><ele>1810</ele><time>2026-09-06T13:57:06Z</time></trkpt>
    <trkpt lat="47.01953" lon="12.47814"><ele>1808</ele><time>2026-09-06T13:57:36Z</time></trkpt>
    <trkpt lat="47.01859" lon="12.47762"><ele>1793</ele><time>2026-09-06T13:58:05Z</time></trkpt>
    <trkpt lat="47.01905" lon="12.47892"><ele>1785</ele><time>2026-09-06T13:58:34Z</time></trkpt>
    <trkpt lat="47.01954" lon="12.48017"><ele>1772</ele><time>2026-09-06T13:59:04Z</time></trkpt>
    <trkpt lat="47.01895" lon="12.47988"><ele>1754</ele><time>2026-09-06T13:59:33Z</time></trkpt>
    <trkpt lat="47.01904" lon="12.48047"><ele>1749</ele><time>2026-09-06T14:00:02Z</time></trkpt>
    <trkpt lat="47.01854" lon="12.48000"><ele>1737</ele><time>2026-09-06T14:00:31Z</time></trkpt>
    <trkpt lat="47.01816" lon="12.47934"><ele>1729</ele><time>2026-09-06T14:01:00Z</time></trkpt>
    <trkpt lat="47.01759" lon="12.47792"><ele>1720</ele><time>2026-09-06T14:01:29Z</time></trkpt>
    <trkpt lat="47.01730" lon="12.47858"><ele>1701</ele><time>2026-09-06T14:01:58Z</time></trkpt>
    <trkpt lat="47.01639" lon="12.47761"><ele>1695</ele><time>2026-09-06T14:02:28Z</time></trkpt>
    <trkpt lat="47.01547" lon="12.47776"><ele>1694</ele><time>2026-09-06T14:02:57Z</time></trkpt>
    <trkpt lat="47.01394" lon="12.47835"><ele>1690</ele><time>2026-09-06T14:03:26Z</time></trkpt>
    <trkpt lat="47.01291" lon="12.47831"><ele>1687</ele><time>2026-09-06T14:03:56Z</time></trkpt>
    <trkpt lat="47.01257" lon="12.47838"><ele>1687</ele><time>2026-09-06T14:04:24Z</time></trkpt>
    <trkpt lat="47.01217" lon="12.47742"><ele>1679</ele><time>2026-09-06T14:04:53Z</time></trkpt>
    <trkpt lat="47.01156" lon="12.47551"><ele>1669</ele><time>2026-09-06T14:05:22Z</time></trkpt>
    <trkpt lat="47.01143" lon="12.47368"><ele>1650</ele><time>2026-09-06T14:05:52Z</time></trkpt>
    <trkpt lat="47.01109" lon="12.47560"><ele>1632</ele><time>2026-09-06T14:06:21Z</time></trkpt>
    <trkpt lat="47.01098" lon="12.47362"><ele>1614</ele><time>2026-09-06T14:06:50Z</time></trkpt>
    <trkpt lat="47.01056" lon="12.47592"><ele>1594</ele><time>2026-09-06T14:07:20Z</time></trkpt>
    <trkpt lat="47.01032" lon="12.47338"><ele>1572</ele><time>2026-09-06T14:07:49Z</time></trkpt>
    <trkpt lat="47.01013" lon="12.47212"><ele>1558</ele><time>2026-09-06T14:08:18Z</time></trkpt>
    <trkpt lat="47.01005" lon="12.47287"><ele>1550</ele><time>2026-09-06T14:08:48Z</time></trkpt>
    <trkpt lat="47.00945" lon="12.47620"><ele>1529</ele><time>2026-09-06T14:09:17Z</time></trkpt>
    <trkpt lat="47.00924" lon="12.47444"><ele>1507</ele><time>2026-09-06T14:09:46Z</time></trkpt>
    <trkpt lat="47.00903" lon="12.47508"><ele>1494</ele><time>2026-09-06T14:10:16Z</time></trkpt>
    <trkpt lat="47.00877" lon="12.47632"><ele>1475</ele><time>2026-09-06T14:10:45Z</time></trkpt>
    <trkpt lat="47.00840" lon="12.47347"><ele>1452</ele><time>2026-09-06T14:11:14Z</time></trkpt>
    <trkpt lat="47.00785" lon="12.47367"><ele>1448</ele><time>2026-09-06T14:11:44Z</time></trkpt>
    <trkpt lat="47.00788" lon="12.47595"><ele>1425</ele><time>2026-09-06T14:12:13Z</time></trkpt>
    <trkpt lat="47.00734" lon="12.47445"><ele>1410</ele><time>2026-09-06T14:12:42Z</time></trkpt>
    <trkpt lat="47.00686" lon="12.47140"><ele>1381</ele><time>2026-09-06T14:13:12Z</time></trkpt>
    <trkpt lat="47.00654" lon="12.46920"><ele>1347</ele><time>2026-09-06T14:13:41Z</time></trkpt>
    <trkpt lat="47.00695" lon="12.46780"><ele>1315</ele><time>2026-09-06T14:14:10Z</time></trkpt>
    <trkpt lat="47.00669" lon="12.46457"><ele>1276</ele><time>2026-09-06T14:14:40Z</time></trkpt>
    <trkpt lat="47.00455" lon="12.46089"><ele>1235</ele><time>2026-09-06T14:15:09Z</time></trkpt>
    <trkpt lat="47.00360" lon="12.45840"><ele>1204</ele><time>2026-09-06T14:15:38Z</time></trkpt>
    <trkpt lat="47.00310" lon="12.46000"><ele>1198</ele><time>2026-09-06T14:16:08Z</time></trkpt>
    <trkpt lat="47.00280" lon="12.46148"><ele>1196</ele><time>2026-09-06T14:16:37Z</time></trkpt>
    <trkpt lat="47.00256" lon="12.46220"><ele>1195</ele><time>2026-09-06T14:17:06Z</time></trkpt>
    <trkpt lat="47.00238" lon="12.46284"><ele>1198</ele><time>2026-09-06T14:19:04Z</time></trkpt>
    <trkpt lat="47.00201" lon="12.46383"><ele>1199</ele><time>2026-09-06T14:19:23Z</time></trkpt>
    <trkpt lat="47.00141" lon="12.46633"><ele>1191</ele><time>2026-09-06T14:19:52Z</time></trkpt>
    <trkpt lat="47.00058" lon="12.46920"><ele>1181</ele><time>2026-09-06T14:20:21Z</time></trkpt>
    <trkpt lat="46.99969" lon="12.47367"><ele>1133</ele><time>2026-09-06T14:20:50Z</time></trkpt>
    <trkpt lat="46.99934" lon="12.48054"><ele>1105</ele><time>2026-09-06T14:21:20Z</time></trkpt>
    <trkpt lat="46.99858" lon="12.48396"><ele>1090</ele><time>2026-09-06T14:21:49Z</time></trkpt>
    <trkpt lat="46.99702" lon="12.49024"><ele>1057</ele><time>2026-09-06T14:22:18Z</time></trkpt>
    <trkpt lat="46.99751" lon="12.49332"><ele>1030</ele><time>2026-09-06T14:22:48Z</time></trkpt>
    <trkpt lat="46.99726" lon="12.49744"><ele>971</ele><time>2026-09-06T14:23:17Z</time></trkpt>
    <trkpt lat="46.99546" lon="12.50131"><ele>955</ele><time>2026-09-06T14:23:46Z</time></trkpt>
    <trkpt lat="46.99589" lon="12.50741"><ele>955</ele><time>2026-09-06T14:24:16Z</time></trkpt>
    <trkpt lat="46.99572" lon="12.51023"><ele>953</ele><time>2026-09-06T14:24:45Z</time></trkpt>
    <trkpt lat="46.99598" lon="12.51286"><ele>950</ele><time>2026-09-06T14:25:14Z</time></trkpt>
    <trkpt lat="46.99708" lon="12.51522"><ele>943</ele><time>2026-09-06T14:25:44Z</time></trkpt>
    <trkpt lat="46.99799" lon="12.51766"><ele>941</ele><time>2026-09-06T14:26:13Z</time></trkpt>
    <trkpt lat="46.99778" lon="12.52026"><ele>941</ele><time>2026-09-06T14:26:42Z</time></trkpt>
    <trkpt lat="46.99655" lon="12.52234"><ele>942</ele><time>2026-09-06T14:27:12Z</time></trkpt>
    <trkpt lat="46.99543" lon="12.52420"><ele>936</ele><time>2026-09-06T14:27:41Z</time></trkpt>
    <trkpt lat="46.99548" lon="12.52647"><ele>936</ele><time>2026-09-06T14:28:10Z</time></trkpt>
    <trkpt lat="46.99588" lon="12.52855"><ele>940</ele><time>2026-09-06T14:28:39Z</time></trkpt>
    <trkpt lat="46.99642" lon="12.53022"><ele>939</ele><time>2026-09-06T14:29:08Z</time></trkpt>
    <trkpt lat="46.99721" lon="12.53209"><ele>940</ele><time>2026-09-06T14:29:37Z</time></trkpt>
    <trkpt lat="46.99688" lon="12.53324"><ele>943</ele><time>2026-09-06T14:30:06Z</time></trkpt>
    <trkpt lat="46.99626" lon="12.53506"><ele>943</ele><time>2026-09-06T14:30:36Z</time></trkpt>
    <trkpt lat="46.99575" lon="12.53693"><ele>937</ele><time>2026-09-06T14:31:05Z</time></trkpt>
    <trkpt lat="46.99506" lon="12.53867"><ele>937</ele><time>2026-09-06T14:31:34Z</time></trkpt>
    <trkpt lat="46.99514" lon="12.53885"><ele>939</ele><time>2026-09-06T14:32:04Z</time></trkpt>
    <trkpt lat="46.99532" lon="12.53946"><ele>937</ele><time>2026-09-06T14:32:33Z</time></trkpt>
    <trkpt lat="46.99529" lon="12.53950"><ele>937</ele><time>2026-09-06T14:33:02Z</time></trkpt>
  </trkseg>
</trk>
</gpx>