<?xml version="1.0" encoding="UTF-8"?>
<gpx version="1.1" creator="GPX-Pro" xmlns="http://www.topografix.com/GPX/1/1">
<trk>
  <name>Loserlockvogel</name>
  <trkseg>
    <trkpt lat="47.66116" lon="13.74409"><ele>858</ele><time>2026-10-02T06:55:17Z</time></trkpt>
    <trkpt lat="47.66171" lon="13.74424"><ele>859</ele><time>2026-10-02T06:56:45Z</time></trkpt>
    <trkpt lat="47.66229" lon="13.74483"><ele>861</ele><time>2026-10-02T06:57:15Z</time></trkpt>
    <trkpt lat="47.66273" lon="13.74490"><ele>865</ele><time>2026-10-02T06:57:44Z</time></trkpt>
    <trkpt lat="47.66314" lon="13.74490"><ele>869</ele><time>2026-10-02T06:58:13Z</time></trkpt>
    <trkpt lat="47.66344" lon="13.74507"><ele>878</ele><time>2026-10-02T06:58:43Z</time></trkpt>
    <trkpt lat="47.66372" lon="13.74535"><ele>887</ele><time>2026-10-02T06:59:12Z</time></trkpt>
    <trkpt lat="47.66405" lon="13.74561"><ele>892</ele><time>2026-10-02T06:59:41Z</time></trkpt>
    <trkpt lat="47.66440" lon="13.74594"><ele>895</ele><time>2026-10-02T07:00:11Z</time></trkpt>
    <trkpt lat="47.66482" lon="13.74604"><ele>901</ele><time>2026-10-02T07:00:40Z</time></trkpt>
    <trkpt lat="47.66510" lon="13.74624"><ele>907</ele><time>2026-10-02T07:01:09Z</time></trkpt>
    <trkpt lat="47.66550" lon="13.74615"><ele>908</ele><time>2026-10-02T07:01:39Z</time></trkpt>
    <trkpt lat="47.66583" lon="13.74587"><ele>912</ele><time>2026-10-02T07:02:08Z</time></trkpt>
    <trkpt lat="47.66648" lon="13.74604"><ele>918</ele><time>2026-10-02T07:02:37Z</time></trkpt>
    <trkpt lat="47.66613" lon="13.74613"><ele>914</ele><time>2026-10-02T07:03:07Z</time></trkpt>
    <trkpt lat="47.66575" lon="13.74620"><ele>922</ele><time>2026-10-02T07:03:36Z</time></trkpt>
    <trkpt lat="47.66537" lon="13.74652"><ele>931</ele><time>2026-10-02T07:04:05Z</time></trkpt>
    <trkpt lat="47.66495" lon="13.74684"><ele>931</ele><time>2026-10-02T07:04:35Z</time></trkpt>
    <trkpt lat="47.66429" lon="13.74744"><ele>940</ele><time>2026-10-02T07:05:04Z</time></trkpt>
    <trkpt lat="47.66436" lon="13.74815"><ele>942</ele><time>2026-10-02T07:05:33Z</time></trkpt>
    <trkpt lat="47.66371" lon="13.74821"><ele>939</ele><time>2026-10-02T07:06:03Z</time></trkpt>
    <trkpt lat="47.66274" lon="13.74943"><ele>942</ele><time>2026-10-02T07:06:32Z</time></trkpt>
    <trkpt lat="47.66221" lon="13.74948"><ele>946</ele><time>2026-10-02T07:07:01Z</time></trkpt>
    <trkpt lat="47.66119" lon="13.74989"><ele>946</ele><time>2026-10-02T07:07:31Z</time></trkpt>
    <trkpt lat="47.66071" lon="13.75011"><ele>950</ele><time>2026-10-02T07:08:00Z</time></trkpt>
    <trkpt lat="47.66032" lon="13.75006"><ele>953</ele><time>2026-10-02T07:08:29Z</time></trkpt>
    <trkpt lat="47.65985" lon="13.75002"><ele>957</ele><time>2026-10-02T07:08:59Z</time></trkpt>
    <trkpt lat="47.65943" lon="13.75015"><ele>962</ele><time>2026-10-02T07:09:28Z</time></trkpt>
    <trkpt lat="47.65898" lon="13.75012"><ele>963</ele><time>2026-10-02T07:09:57Z</time></trkpt>
    <trkpt lat="47.65851" lon="13.75001"><ele>967</ele><time>2026-10-02T07:10:27Z</time></trkpt>
    <trkpt lat="47.65809" lon="13.75023"><ele>973</ele><time>2026-10-02T07:10:56Z</time></trkpt>
    <trkpt lat="47.65777" lon="13.75085"><ele>975</ele><time>2026-10-02T07:11:29Z</time></trkpt>
    <trkpt lat="47.65773" lon="13.75099"><ele>979</ele><time>2026-10-02T07:11:32Z</time></trkpt>
    <trkpt lat="47.65744" lon="13.75175"><ele>979</ele><time>2026-10-02T07:12:01Z</time></trkpt>
    <trkpt lat="47.65721" lon="13.75222"><ele>982</ele><time>2026-10-02T07:12:31Z</time></trkpt>
    <trkpt lat="47.65672" lon="13.75294"><ele>978</ele><time>2026-10-02T07:15:27Z</time></trkpt>
    <trkpt lat="47.65629" lon="13.75330"><ele>984</ele><time>2026-10-02T07:15:56Z</time></trkpt>
    <trkpt lat="47.65594" lon="13.75355"><ele>987</ele><time>2026-10-02T07:16:25Z</time></trkpt>
    <trkpt lat="47.65562" lon="13.75383"><ele>996</ele><time>2026-10-02T07:16:55Z</time></trkpt>
    <trkpt lat="47.65531" lon="13.75408"><ele>1004</ele><time>2026-10-02T07:17:24Z</time></trkpt>
    <trkpt lat="47.65497" lon="13.75423"><ele>1007</ele><time>2026-10-02T07:17:53Z</time></trkpt>
    <trkpt lat="47.65460" lon="13.75435"><ele>1007</ele><time>2026-10-02T07:18:23Z</time></trkpt>
    <trkpt lat="47.65428" lon="13.75458"><ele>1013</ele><time>2026-10-02T07:18:52Z</time></trkpt>
    <trkpt lat="47.65401" lon="13.75494"><ele>1015</ele><time>2026-10-02T07:19:21Z</time></trkpt>
    <trkpt lat="47.65378" lon="13.75536"><ele>1020</ele><time>2026-10-02T07:19:51Z</time></trkpt>
    <trkpt lat="47.65359" lon="13.75577"><ele>1023</ele><time>2026-10-02T07:20:20Z</time></trkpt>
    <trkpt lat="47.65337" lon="13.75612"><ele>1026</ele><time>2026-10-02T07:20:49Z</time></trkpt>
    <trkpt lat="47.65347" lon="13.75658"><ele>1030</ele><time>2026-10-02T07:21:19Z</time></trkpt>
    <trkpt lat="47.65384" lon="13.75627"><ele>1034</ele><time>2026-10-02T07:21:48Z</time></trkpt>
    <trkpt lat="47.65417" lon="13.75612"><ele>1040</ele><time>2026-10-02T07:22:17Z</time></trkpt>
    <trkpt lat="47.65450" lon="13.75603"><ele>1044</ele><time>2026-10-02T07:22:47Z</time></trkpt>
    <trkpt lat="47.65484" lon="13.75603"><ele>1049</ele><time>2026-10-02T07:23:16Z</time></trkpt>
    <trkpt lat="47.65520" lon="13.75617"><ele>1053</ele><time>2026-10-02T07:23:45Z</time></trkpt>
    <trkpt lat="47.65583" lon="13.75617"><ele>1060</ele><time>2026-10-02T07:24:15Z</time></trkpt>
    <trkpt lat="47.65571" lon="13.75644"><ele>1060</ele><time>2026-10-02T07:24:44Z</time></trkpt>
    <trkpt lat="47.65535" lon="13.75650"><ele>1066</ele><time>2026-10-02T07:25:13Z</time></trkpt>
    <trkpt lat="47.65501" lon="13.75676"><ele>1073</ele><time>2026-10-02T07:25:43Z</time></trkpt>
    <trkpt lat="47.65468" lon="13.75691"><ele>1073</ele><time>2026-10-02T07:26:12Z</time></trkpt>
    <trkpt lat="47.65444" lon="13.75734"><ele>1076</ele><time>2026-10-02T07:26:41Z</time></trkpt>
    <trkpt lat="47.65418" lon="13.75780"><ele>1081</ele><time>2026-10-02T07:27:11Z</time></trkpt>
    <trkpt lat="47.65398" lon="13.75825"><ele>1083</ele><time>2026-10-02T07:27:40Z</time></trkpt>
    <trkpt lat="47.65376" lon="13.75870"><ele>1088</ele><time>2026-10-02T07:28:09Z</time></trkpt>
    <trkpt lat="47.65352" lon="13.75912"><ele>1094</ele><time>2026-10-02T07:28:39Z</time></trkpt>
    <trkpt lat="47.65331" lon="13.75955"><ele>1099</ele><time>2026-10-02T07:29:08Z</time></trkpt>
    <trkpt lat="47.65318" lon="13.76005"><ele>1105</ele><time>2026-10-02T07:29:37Z</time></trkpt>
    <trkpt lat="47.65309" lon="13.76063"><ele>1109</ele><time>2026-10-02T07:30:07Z</time></trkpt>
    <trkpt lat="47.65321" lon="13.76119"><ele>1114</ele><time>2026-10-02T07:30:36Z</time></trkpt>
    <trkpt lat="47.65346" lon="13.76064"><ele>1115</ele><time>2026-10-02T07:31:05Z</time></trkpt>
    <trkpt lat="47.65377" lon="13.76041"><ele>1119</ele><time>2026-10-02T07:31:35Z</time></trkpt>
    <trkpt lat="47.65407" lon="13.76035"><ele>1124</ele><time>2026-10-02T07:32:04Z</time></trkpt>
    <trkpt lat="47.65445" lon="13.76016"><ele>1129</ele><time>2026-10-02T07:32:33Z</time></trkpt>
    <trkpt lat="47.65477" lon="13.75954"><ele>1129</ele><time>2026-10-02T07:33:03Z</time></trkpt>
    <trkpt lat="47.65476" lon="13.75999"><ele>1134</ele><time>2026-10-02T07:33:32Z</time></trkpt>
    <trkpt lat="47.65459" lon="13.76052"><ele>1141</ele><time>2026-10-02T07:34:01Z</time></trkpt>
    <trkpt lat="47.65440" lon="13.76097"><ele>1143</ele><time>2026-10-02T07:34:31Z</time></trkpt>
    <trkpt lat="47.65415" lon="13.76137"><ele>1146</ele><time>2026-10-02T07:35:00Z</time></trkpt>
    <trkpt lat="47.65387" lon="13.76182"><ele>1153</ele><time>2026-10-02T07:35:29Z</time></trkpt>
    <trkpt lat="47.65367" lon="13.76232"><ele>1157</ele><time>2026-10-02T07:35:59Z</time></trkpt>
    <trkpt lat="47.65340" lon="13.76269"><ele>1161</ele><time>2026-10-02T07:36:28Z</time></trkpt>
    <trkpt lat="47.65307" lon="13.76294"><ele>1166</ele><time>2026-10-02T07:36:57Z</time></trkpt>
    <trkpt lat="47.65320" lon="13.76330"><ele>1171</ele><time>2026-10-02T07:37:27Z</time></trkpt>
    <trkpt lat="47.65362" lon="13.76310"><ele>1172</ele><time>2026-10-02T07:37:56Z</time></trkpt>
    <trkpt lat="47.65399" lon="13.76284"><ele>1178</ele><time>2026-10-02T07:38:25Z</time></trkpt>
    <trkpt lat="47.65434" lon="13.76261"><ele>1181</ele><time>2026-10-02T07:38:55Z</time></trkpt>
    <trkpt lat="47.65468" lon="13.76243"><ele>1186</ele><time>2026-10-02T07:39:24Z</time></trkpt>
    <trkpt lat="47.65503" lon="13.76223"><ele>1186</ele><time>2026-10-02T07:39:53Z</time></trkpt>
    <trkpt lat="47.65533" lon="13.76187"><ele>1193</ele><time>2026-10-02T07:40:23Z</time></trkpt>
    <trkpt lat="47.65563" lon="13.76158"><ele>1197</ele><time>2026-10-02T07:40:52Z</time></trkpt>
    <trkpt lat="47.65598" lon="13.76089"><ele>1204</ele><time>2026-10-02T07:41:21Z</time></trkpt>
    <trkpt lat="47.65612" lon="13.76099"><ele>1205</ele><time>2026-10-02T07:41:51Z</time></trkpt>
    <trkpt lat="47.65569" lon="13.76173"><ele>1208</ele><time>2026-10-02T07:42:20Z</time></trkpt>
    <trkpt lat="47.65536" lon="13.76230"><ele>1211</ele><time>2026-10-02T07:42:49Z</time></trkpt>
    <trkpt lat="47.65503" lon="13.76301"><ele>1216</ele><time>2026-10-02T07:43:19Z</time></trkpt>
    <trkpt lat="47.65468" lon="13.76342"><ele>1221</ele><time>2026-10-02T07:43:48Z</time></trkpt>
    <trkpt lat="47.65431" lon="13.76387"><ele>1224</ele><time>2026-10-02T07:44:17Z</time></trkpt>
    <trkpt lat="47.65396" lon="13.76427"><ele>1230</ele><time>2026-10-02T07:44:47Z</time></trkpt>
    <trkpt lat="47.65359" lon="13.76469"><ele>1233</ele><time>2026-10-02T07:45:16Z</time></trkpt>
    <trkpt lat="47.65333" lon="13.76516"><ele>1237</ele><time>2026-10-02T07:45:45Z</time></trkpt>
    <trkpt lat="47.65312" lon="13.76570"><ele>1241</ele><time>2026-10-02T07:46:15Z</time></trkpt>
    <trkpt lat="47.65301" lon="13.76625"><ele>1247</ele><time>2026-10-02T07:46:44Z</time></trkpt>
    <trkpt lat="47.65291" lon="13.76683"><ele>1252</ele><time>2026-10-02T07:47:13Z</time></trkpt>
    <trkpt lat="47.65282" lon="13.76745"><ele>1259</ele><time>2026-10-02T07:47:43Z</time></trkpt>
    <trkpt lat="47.65270" lon="13.76813"><ele>1264</ele><time>2026-10-02T07:48:12Z</time></trkpt>
    <trkpt lat="47.65261" lon="13.76886"><ele>1269</ele><time>2026-10-02T07:48:41Z</time></trkpt>
    <trkpt lat="47.65232" lon="13.76951"><ele>1272</ele><time>2026-10-02T07:49:11Z</time></trkpt>
    <trkpt lat="47.65219" lon="13.77020"><ele>1278</ele><time>2026-10-02T07:49:40Z</time></trkpt>
    <trkpt lat="47.65210" lon="13.77086"><ele>1286</ele><time>2026-10-02T07:50:09Z</time></trkpt>
    <trkpt lat="47.65214" lon="13.77147"><ele>1289</ele><time>2026-10-02T07:50:39Z</time></trkpt>
    <trkpt lat="47.65224" lon="13.77205"><ele>1294</ele><time>2026-10-02T07:51:08Z</time></trkpt>
    <trkpt lat="47.65234" lon="13.77262"><ele>1300</ele><time>2026-10-02T07:51:37Z</time></trkpt>
    <trkpt lat="47.65248" lon="13.77319"><ele>1303</ele><time>2026-10-02T07:52:07Z</time></trkpt>
    <trkpt lat="47.65258" lon="13.77341"><ele>1307</ele><time>2026-10-02T07:52:36Z</time></trkpt>
    <trkpt lat="47.65283" lon="13.77392"><ele>1310</ele><time>2026-10-02T07:59:56Z</time></trkpt>
    <trkpt lat="47.65293" lon="13.77444"><ele>1312</ele><time>2026-10-02T08:00:25Z</time></trkpt>
    <trkpt lat="47.65319" lon="13.77435"><ele>1318</ele><time>2026-10-02T08:00:55Z</time></trkpt>
    <trkpt lat="47.65320" lon="13.77362"><ele>1321</ele><time>2026-10-02T08:01:24Z</time></trkpt>
    <trkpt lat="47.65325" lon="13.77301"><ele>1325</ele><time>2026-10-02T08:01:53Z</time></trkpt>
    <trkpt lat="47.65338" lon="13.77238"><ele>1330</ele><time>2026-10-02T08:02:23Z</time></trkpt>
    <trkpt lat="47.65359" lon="13.77181"><ele>1334</ele><time>2026-10-02T08:02:52Z</time></trkpt>
    <trkpt lat="47.65386" lon="13.77130"><ele>1340</ele><time>2026-10-02T08:03:21Z</time></trkpt>
    <trkpt lat="47.65409" lon="13.77090"><ele>1344</ele><time>2026-10-02T08:03:51Z</time></trkpt>
    <trkpt lat="47.65406" lon="13.77154"><ele>1348</ele><time>2026-10-02T08:04:20Z</time></trkpt>
    <trkpt lat="47.65408" lon="13.77215"><ele>1349</ele><time>2026-10-02T08:04:49Z</time></trkpt>
    <trkpt lat="47.65413" lon="13.77273"><ele>1354</ele><time>2026-10-02T08:05:19Z</time></trkpt>
    <trkpt lat="47.65423" lon="13.77330"><ele>1360</ele><time>2026-10-02T08:05:48Z</time></trkpt>
    <trkpt lat="47.65436" lon="13.77384"><ele>1364</ele><time>2026-10-02T08:06:17Z</time></trkpt>
    <trkpt lat="47.65458" lon="13.77431"><ele>1371</ele><time>2026-10-02T08:06:47Z</time></trkpt>
    <trkpt lat="47.65482" lon="13.77474"><ele>1378</ele><time>2026-10-02T08:07:16Z</time></trkpt>
    <trkpt lat="47.65515" lon="13.77465"><ele>1385</ele><time>2026-10-02T08:07:45Z</time></trkpt>
    <trkpt lat="47.65516" lon="13.77393"><ele>1385</ele><time>2026-10-02T08:08:15Z</time></trkpt>
    <trkpt lat="47.65527" lon="13.77328"><ele>1388</ele><time>2026-10-02T08:08:44Z</time></trkpt>
    <trkpt lat="47.65539" lon="13.77260"><ele>1393</ele><time>2026-10-02T08:09:13Z</time></trkpt>
    <trkpt lat="47.65549" lon="13.77227"><ele>1393</ele><time>2026-10-02T08:09:43Z</time></trkpt>
    <trkpt lat="47.65557" lon="13.77237"><ele>1396</ele><time>2026-10-02T08:10:12Z</time></trkpt>
    <trkpt lat="47.65559" lon="13.77303"><ele>1402</ele><time>2026-10-02T08:10:41Z</time></trkpt>
    <trkpt lat="47.65560" lon="13.77369"><ele>1408</ele><time>2026-10-02T08:11:11Z</time></trkpt>
    <trkpt lat="47.65568" lon="13.77426"><ele>1415</ele><time>2026-10-02T08:11:40Z</time></trkpt>
    <trkpt lat="47.65577" lon="13.77482"><ele>1417</ele><time>2026-10-02T08:12:09Z</time></trkpt>
    <trkpt lat="47.65588" lon="13.77540"><ele>1423</ele><time>2026-10-02T08:12:39Z</time></trkpt>
    <trkpt lat="47.65602" lon="13.77593"><ele>1428</ele><time>2026-10-02T08:13:08Z</time></trkpt>
    <trkpt lat="47.65617" lon="13.77646"><ele>1433</ele><time>2026-10-02T08:13:37Z</time></trkpt>
    <trkpt lat="47.65625" lon="13.77704"><ele>1436</ele><time>2026-10-02T08:14:07Z</time></trkpt>
    <trkpt lat="47.65627" lon="13.77762"><ele>1441</ele><time>2026-10-02T08:14:36Z</time></trkpt>
    <trkpt lat="47.65627" lon="13.77816"><ele>1446</ele><time>2026-10-02T08:15:05Z</time></trkpt>
    <trkpt lat="47.65626" lon="13.77869"><ele>1450</ele><time>2026-10-02T08:15:35Z</time></trkpt>
    <trkpt lat="47.65618" lon="13.77922"><ele>1454</ele><time>2026-10-02T08:16:04Z</time></trkpt>
    <trkpt lat="47.65609" lon="13.77972"><ele>1458</ele><time>2026-10-02T08:16:33Z</time></trkpt>
    <trkpt lat="47.65597" lon="13.78033"><ele>1463</ele><time>2026-10-02T08:17:03Z</time></trkpt>
    <trkpt lat="47.65587" lon="13.78090"><ele>1470</ele><time>2026-10-02T08:17:32Z</time></trkpt>
    <trkpt lat="47.65578" lon="13.78149"><ele>1474</ele><time>2026-10-02T08:18:01Z</time></trkpt>
    <trkpt lat="47.65568" lon="13.78205"><ele>1478</ele><time>2026-10-02T08:18:31Z</time></trkpt>
    <trkpt lat="47.65570" lon="13.78261"><ele>1482</ele><time>2026-10-02T08:19:00Z</time></trkpt>
    <trkpt lat="47.65583" lon="13.78315"><ele>1487</ele><time>2026-10-02T08:19:29Z</time></trkpt>
    <trkpt lat="47.65563" lon="13.78368"><ele>1491</ele><time>2026-10-02T08:19:59Z</time></trkpt>
    <trkpt lat="47.65585" lon="13.78415"><ele>1494</ele><time>2026-10-02T08:20:28Z</time></trkpt>
    <trkpt lat="47.65627" lon="13.78413"><ele>1501</ele><time>2026-10-02T08:20:57Z</time></trkpt>
    <trkpt lat="47.65670" lon="13.78410"><ele>1507</ele><time>2026-10-02T08:21:27Z</time></trkpt>
    <trkpt lat="47.65657" lon="13.78356"><ele>1509</ele><time>2026-10-02T08:21:56Z</time></trkpt>
    <trkpt lat="47.65628" lon="13.78314"><ele>1517</ele><time>2026-10-02T08:22:25Z</time></trkpt>
    <trkpt lat="47.65623" lon="13.78265"><ele>1518</ele><time>2026-10-02T08:22:55Z</time></trkpt>
    <trkpt lat="47.65644" lon="13.78269"><ele>1523</ele><time>2026-10-02T08:23:24Z</time></trkpt>
    <trkpt lat="47.65648" lon="13.78303"><ele>1524</ele><time>2026-10-02T08:23:53Z</time></trkpt>
    <trkpt lat="47.65669" lon="13.78343"><ele>1526</ele><time>2026-10-02T08:24:23Z</time></trkpt>
    <trkpt lat="47.65704" lon="13.78359"><ele>1532</ele><time>2026-10-02T08:24:52Z</time></trkpt>
    <trkpt lat="47.65758" lon="13.78373"><ele>1537</ele><time>2026-10-02T08:25:21Z</time></trkpt>
    <trkpt lat="47.65751" lon="13.78354"><ele>1540</ele><time>2026-10-02T08:25:51Z</time></trkpt>
    <trkpt lat="47.65734" lon="13.78308"><ele>1544</ele><time>2026-10-02T08:26:20Z</time></trkpt>
    <trkpt lat="47.65734" lon="13.78250"><ele>1549</ele><time>2026-10-02T08:26:49Z</time></trkpt>
    <trkpt lat="47.65727" lon="13.78200"><ele>1557</ele><time>2026-10-02T08:27:19Z</time></trkpt>
    <trkpt lat="47.65719" lon="13.78190"><ele>1560</ele><time>2026-10-02T08:27:48Z</time></trkpt>
    <trkpt lat="47.65720" lon="13.78160"><ele>1558</ele><time>2026-10-02T08:34:09Z</time></trkpt>
    <trkpt lat="47.65725" lon="13.78140"><ele>1556</ele><time>2026-10-02T08:34:39Z</time></trkpt>
    <trkpt lat="47.65735" lon="13.78111"><ele>1558</ele><time>2026-10-02T08:35:08Z</time></trkpt>
    <trkpt lat="47.65741" lon="13.78081"><ele>1557</ele><time>2026-10-02T08:35:37Z</time></trkpt>
    <trkpt lat="47.65749" lon="13.78054"><ele>1565</ele><time>2026-10-02T08:37:05Z</time></trkpt>
    <trkpt lat="47.65752" lon="13.78038"><ele>1570</ele><time>2026-10-02T08:37:35Z</time></trkpt>
    <trkpt lat="47.65792" lon="13.77972"><ele>1573</ele><time>2026-10-02T08:38:04Z</time></trkpt>
    <trkpt lat="47.65806" lon="13.77962"><ele>1572</ele><time>2026-10-02T08:38:33Z</time></trkpt>
    <trkpt lat="47.65811" lon="13.77937"><ele>1566</ele><time>2026-10-02T08:39:03Z</time></trkpt>
    <trkpt lat="47.65825" lon="13.77925"><ele>1569</ele><time>2026-10-02T08:39:32Z</time></trkpt>
    <trkpt lat="47.65834" lon="13.77891"><ele>1568</ele><time>2026-10-02T08:40:01Z</time></trkpt>
    <trkpt lat="47.65844" lon="13.77857"><ele>1568</ele><time>2026-10-02T08:40:31Z</time></trkpt>
    <trkpt lat="47.65857" lon="13.77824"><ele>1566</ele><time>2026-10-02T08:41:00Z</time></trkpt>
    <trkpt lat="47.65865" lon="13.77786"><ele>1565</ele><time>2026-10-02T08:41:29Z</time></trkpt>
    <trkpt lat="47.65870" lon="13.77754"><ele>1564</ele><time>2026-10-02T08:41:59Z</time></trkpt>
    <trkpt lat="47.65871" lon="13.77736"><ele>1565</ele><time>2026-10-02T08:42:28Z</time></trkpt>
    <trkpt lat="47.65875" lon="13.77711"><ele>1563</ele><time>2026-10-02T08:42:57Z</time></trkpt>
    <trkpt lat="47.65880" lon="13.77678"><ele>1563</ele><time>2026-10-02T08:43:27Z</time></trkpt>
    <trkpt lat="47.65890" lon="13.77658"><ele>1567</ele><time>2026-10-02T08:43:56Z</time></trkpt>
    <trkpt lat="47.65892" lon="13.77643"><ele>1575</ele><time>2026-10-02T08:44:25Z</time></trkpt>
    <trkpt lat="47.65890" lon="13.77612"><ele>1577</ele><time>2026-10-02T08:44:55Z</time></trkpt>
    <trkpt lat="47.65888" lon="13.77584"><ele>1578</ele><time>2026-10-02T08:45:24Z</time></trkpt>
    <trkpt lat="47.65886" lon="13.77555"><ele>1578</ele><time>2026-10-02T08:45:53Z</time></trkpt>
    <trkpt lat="47.65891" lon="13.77538"><ele>1581</ele><time>2026-10-02T08:46:23Z</time></trkpt>
    <trkpt lat="47.65888" lon="13.77507"><ele>1583</ele><time>2026-10-02T08:46:52Z</time></trkpt>
    <trkpt lat="47.65882" lon="13.77495"><ele>1584</ele><time>2026-10-02T08:47:03Z</time></trkpt>
    <trkpt lat="47.65873" lon="13.77465"><ele>1583</ele><time>2026-10-02T08:47:32Z</time></trkpt>
    <trkpt lat="47.65862" lon="13.77441"><ele>1585</ele><time>2026-10-02T08:48:01Z</time></trkpt>
    <trkpt lat="47.65858" lon="13.77427"><ele>1590</ele><time>2026-10-02T08:48:31Z</time></trkpt>
    <trkpt lat="47.65857" lon="13.77407"><ele>1594</ele><time>2026-10-02T08:49:00Z</time></trkpt>
    <trkpt lat="47.65865" lon="13.77387"><ele>1599</ele><time>2026-10-02T08:49:59Z</time></trkpt>
    <trkpt lat="47.65869" lon="13.77375"><ele>1600</ele><time>2026-10-02T08:50:28Z</time></trkpt>
    <trkpt lat="47.65873" lon="13.77360"><ele>1603</ele><time>2026-10-02T08:50:57Z</time></trkpt>
    <trkpt lat="47.65867" lon="13.77351"><ele>1606</ele><time>2026-10-02T08:51:27Z</time></trkpt>
    <trkpt lat="47.65874" lon="13.77325"><ele>1610</ele><time>2026-10-02T08:52:25Z</time></trkpt>
    <trkpt lat="47.65881" lon="13.77315"><ele>1616</ele><time>2026-10-02T08:53:24Z</time></trkpt>
    <trkpt lat="47.65901" lon="13.77311"><ele>1632</ele><time>2026-10-02T08:55:21Z</time></trkpt>
    <trkpt lat="47.65912" lon="13.77314"><ele>1712</ele><time>2026-10-02T11:47:11Z</time></trkpt>
    <trkpt lat="47.65918" lon="13.77299"><ele>1765</ele><time>2026-10-02T13:07:58Z</time></trkpt>
    <trkpt lat="47.65929" lon="13.77290"><ele>1779</ele><time>2026-10-02T13:09:55Z</time></trkpt>
    <trkpt lat="47.65939" lon="13.77291"><ele>1789</ele><time>2026-10-02T13:11:53Z</time></trkpt>
    <trkpt lat="47.65948" lon="13.77282"><ele>1794</ele><time>2026-10-02T13:17:45Z</time></trkpt>
    <trkpt lat="47.65955" lon="13.77271"><ele>1797</ele><time>2026-10-02T13:18:14Z</time></trkpt>
    <trkpt lat="47.65975" lon="13.77263"><ele>1800</ele><time>2026-10-02T13:34:22Z</time></trkpt>
    <trkpt lat="47.65984" lon="13.77247"><ele>1804</ele><time>2026-10-02T13:34:51Z</time></trkpt>
    <trkpt lat="47.65998" lon="13.77248"><ele>1808</ele><time>2026-10-02T13:35:21Z</time></trkpt>
    <trkpt lat="47.66010" lon="13.77227"><ele>1807</ele><time>2026-10-02T13:37:18Z</time></trkpt>
    <trkpt lat="47.66014" lon="13.77205"><ele>1806</ele><time>2026-10-02T13:38:17Z</time></trkpt>
    <trkpt lat="47.66022" lon="13.77198"><ele>1813</ele><time>2026-10-02T13:39:15Z</time></trkpt>
    <trkpt lat="47.66032" lon="13.77177"><ele>1829</ele><time>2026-10-02T13:40:43Z</time></trkpt>
    <trkpt lat="47.66047" lon="13.77155"><ele>1834</ele><time>2026-10-02T13:41:42Z</time></trkpt>
    <trkpt lat="47.66059" lon="13.77132"><ele>1837</ele><time>2026-10-02T13:42:11Z</time></trkpt>
    <trkpt lat="47.66073" lon="13.77104"><ele>1840</ele><time>2026-10-02T13:43:10Z</time></trkpt>
    <trkpt lat="47.66066" lon="13.77087"><ele>1838</ele><time>2026-10-02T13:43:39Z</time></trkpt>
    <trkpt lat="47.66074" lon="13.77104"><ele>1838</ele><time>2026-10-02T13:49:02Z</time></trkpt>
    <trkpt lat="47.66090" lon="13.77106"><ele>1837</ele><time>2026-10-02T13:49:31Z</time></trkpt>
    <trkpt lat="47.66104" lon="13.77123"><ele>1835</ele><time>2026-10-02T13:50:01Z</time></trkpt>
    <trkpt lat="47.66127" lon="13.77131"><ele>1833</ele><time>2026-10-02T13:50:30Z</time></trkpt>
    <trkpt lat="47.66144" lon="13.77143"><ele>1831</ele><time>2026-10-02T13:50:59Z</time></trkpt>
    <trkpt lat="47.66156" lon="13.77145"><ele>1824</ele><time>2026-10-02T13:51:29Z</time></trkpt>
    <trkpt lat="47.66161" lon="13.77168"><ele>1822</ele><time>2026-10-02T13:51:58Z</time></trkpt>
    <trkpt lat="47.66165" lon="13.77144"><ele>1818</ele><time>2026-10-02T13:52:27Z</time></trkpt>
    <trkpt lat="47.66164" lon="13.77124"><ele>1821</ele><time>2026-10-02T13:53:55Z</time></trkpt>
    <trkpt lat="47.66164" lon="13.77138"><ele>1818</ele><time>2026-10-02T13:56:22Z</time></trkpt>
    <trkpt lat="47.66161" lon="13.77176"><ele>1821</ele><time>2026-10-02T13:57:50Z</time></trkpt>
    <trkpt lat="47.66162" lon="13.77202"><ele>1819</ele><time>2026-10-02T13:58:19Z</time></trkpt>
    <trkpt lat="47.66180" lon="13.77210"><ele>1812</ele><time>2026-10-02T13:58:49Z</time></trkpt>
    <trkpt lat="47.66195" lon="13.77226"><ele>1808</ele><time>2026-10-02T13:59:18Z</time></trkpt>
    <trkpt lat="47.66213" lon="13.77241"><ele>1803</ele><time>2026-10-02T13:59:47Z</time></trkpt>
    <trkpt lat="47.66230" lon="13.77241"><ele>1803</ele><time>2026-10-02T14:00:17Z</time></trkpt>
    <trkpt lat="47.66250" lon="13.77263"><ele>1801</ele><time>2026-10-02T14:00:46Z</time></trkpt>
    <trkpt lat="47.66261" lon="13.77280"><ele>1796</ele><time>2026-10-02T14:01:15Z</time></trkpt>
    <trkpt lat="47.66284" lon="13.77294"><ele>1793</ele><time>2026-10-02T14:01:45Z</time></trkpt>
    <trkpt lat="47.66287" lon="13.77307"><ele>1789</ele><time>2026-10-02T14:02:14Z</time></trkpt>
    <trkpt lat="47.66303" lon="13.77326"><ele>1783</ele><time>2026-10-02T14:02:43Z</time></trkpt>
    <trkpt lat="47.66301" lon="13.77342"><ele>1777</ele><time>2026-10-02T14:03:13Z</time></trkpt>
    <trkpt lat="47.66323" lon="13.77363"><ele>1772</ele><time>2026-10-02T14:03:42Z</time></trkpt>
    <trkpt lat="47.66347" lon="13.77382"><ele>1770</ele><time>2026-10-02T14:04:11Z</time></trkpt>
    <trkpt lat="47.66356" lon="13.77407"><ele>1764</ele><time>2026-10-02T14:04:41Z</time></trkpt>
    <trkpt lat="47.66358" lon="13.77427"><ele>1762</ele><time>2026-10-02T14:05:10Z</time></trkpt>
    <trkpt lat="47.66361" lon="13.77459"><ele>1754</ele><time>2026-10-02T14:06:09Z</time></trkpt>
    <trkpt lat="47.66358" lon="13.77489"><ele>1749</ele><time>2026-10-02T14:06:38Z</time></trkpt>
    <trkpt lat="47.66347" lon="13.77515"><ele>1744</ele><time>2026-10-02T14:07:07Z</time></trkpt>
    <trkpt lat="47.66325" lon="13.77516"><ele>1739</ele><time>2026-10-02T14:07:37Z</time></trkpt>
    <trkpt lat="47.66298" lon="13.77515"><ele>1730</ele><time>2026-10-02T14:08:35Z</time></trkpt>
    <trkpt lat="47.66268" lon="13.77507"><ele>1722</ele><time>2026-10-02T14:09:05Z</time></trkpt>
    <trkpt lat="47.66239" lon="13.77493"><ele>1719</ele><time>2026-10-02T14:09:34Z</time></trkpt>
    <trkpt lat="47.66209" lon="13.77487"><ele>1719</ele><time>2026-10-02T14:10:03Z</time></trkpt>
    <trkpt lat="47.66176" lon="13.77481"><ele>1718</ele><time>2026-10-02T14:10:33Z</time></trkpt>
    <trkpt lat="47.66147" lon="13.77484"><ele>1715</ele><time>2026-10-02T14:11:02Z</time></trkpt>
    <trkpt lat="47.66118" lon="13.77494"><ele>1706</ele><time>2026-10-02T14:11:31Z</time></trkpt>
    <trkpt lat="47.66095" lon="13.77498"><ele>1701</ele><time>2026-10-02T14:12:01Z</time></trkpt>
    <trkpt lat="47.66072" lon="13.77496"><ele>1697</ele><time>2026-10-02T14:12:30Z</time></trkpt>
    <trkpt lat="47.66057" lon="13.77490"><ele>1698</ele><time>2026-10-02T14:12:59Z</time></trkpt>
    <trkpt lat="47.66044" lon="13.77502"><ele>1692</ele><time>2026-10-02T14:13:29Z</time></trkpt>
    <trkpt lat="47.66033" lon="13.77512"><ele>1686</ele><time>2026-10-02T14:13:58Z</time></trkpt>
    <trkpt lat="47.66021" lon="13.77528"><ele>1682</ele><time>2026-10-02T14:14:27Z</time></trkpt>
    <trkpt lat="47.66004" lon="13.77539"><ele>1675</ele><time>2026-10-02T14:14:57Z</time></trkpt>
    <trkpt lat="47.65994" lon="13.77545"><ele>1669</ele><time>2026-10-02T14:15:26Z</time></trkpt>
    <trkpt lat="47.65978" lon="13.77550"><ele>1667</ele><time>2026-10-02T14:15:55Z</time></trkpt>
    <trkpt lat="47.65967" lon="13.77556"><ele>1661</ele><time>2026-10-02T14:16:25Z</time></trkpt>
    <trkpt lat="47.65961" lon="13.77575"><ele>1657</ele><time>2026-10-02T14:16:54Z</time></trkpt>
    <trkpt lat="47.65964" lon="13.77603"><ele>1651</ele><time>2026-10-02T14:17:23Z</time></trkpt>
    <trkpt lat="47.65964" lon="13.77639"><ele>1649</ele><time>2026-10-02T14:17:53Z</time></trkpt>
    <trkpt lat="47.65957" lon="13.77669"><ele>1646</ele><time>2026-10-02T14:18:22Z</time></trkpt>
    <trkpt lat="47.65954" lon="13.77706"><ele>1641</ele><time>2026-10-02T14:18:51Z</time></trkpt>
    <trkpt lat="47.65945" lon="13.77733"><ele>1635</ele><time>2026-10-02T14:19:21Z</time></trkpt>
    <trkpt lat="47.65934" lon="13.77750"><ele>1629</ele><time>2026-10-02T14:19:50Z</time></trkpt>
    <trkpt lat="47.65922" lon="13.77779"><ele>1625</ele><time>2026-10-02T14:20:19Z</time></trkpt>
    <trkpt lat="47.65913" lon="13.77788"><ele>1616</ele><time>2026-10-02T14:20:49Z</time></trkpt>
    <trkpt lat="47.65903" lon="13.77806"><ele>1613</ele><time>2026-10-02T14:21:18Z</time></trkpt>
    <trkpt lat="47.65893" lon="13.77818"><ele>1607</ele><time>2026-10-02T14:21:47Z</time></trkpt>
    <trkpt lat="47.65881" lon="13.77845"><ele>1605</ele><time>2026-10-02T14:22:17Z</time></trkpt>
    <trkpt lat="47.65870" lon="13.77861"><ele>1599</ele><time>2026-10-02T14:22:46Z</time></trkpt>
    <trkpt lat="47.65858" lon="13.77887"><ele>1598</ele><time>2026-10-02T14:23:15Z</time></trkpt>
    <trkpt lat="47.65852" lon="13.77909"><ele>1598</ele><time>2026-10-02T14:23:45Z</time></trkpt>
    <trkpt lat="47.65844" lon="13.77940"><ele>1596</ele><time>2026-10-02T14:24:14Z</time></trkpt>
    <trkpt lat="47.65820" lon="13.77965"><ele>1586</ele><time>2026-10-02T14:25:13Z</time></trkpt>
    <trkpt lat="47.65805" lon="13.77968"><ele>1580</ele><time>2026-10-02T14:25:42Z</time></trkpt>
    <trkpt lat="47.65795" lon="13.77965"><ele>1573</ele><time>2026-10-02T14:26:11Z</time></trkpt>
    <trkpt lat="47.65782" lon="13.77994"><ele>1571</ele><time>2026-10-02T14:26:41Z</time></trkpt>
    <trkpt lat="47.65764" lon="13.78014"><ele>1568</ele><time>2026-10-02T14:27:10Z</time></trkpt>
    <trkpt lat="47.65751" lon="13.78031"><ele>1563</ele><time>2026-10-02T14:27:39Z</time></trkpt>
    <trkpt lat="47.65744" lon="13.78057"><ele>1560</ele><time>2026-10-02T14:28:09Z</time></trkpt>
    <trkpt lat="47.65735" lon="13.78091"><ele>1558</ele><time>2026-10-02T14:28:38Z</time></trkpt>
    <trkpt lat="47.65728" lon="13.78123"><ele>1555</ele><time>2026-10-02T14:29:07Z</time></trkpt>
    <trkpt lat="47.65718" lon="13.78160"><ele>1555</ele><time>2026-10-02T14:29:37Z</time></trkpt>
    <trkpt lat="47.65721" lon="13.78213"><ele>1557</ele><time>2026-10-02T14:30:06Z</time></trkpt>
    <trkpt lat="47.65725" lon="13.78233"><ele>1555</ele><time>2026-10-02T14:30:35Z</time></trkpt>
    <trkpt lat="47.65717" lon="13.78224"><ele>1554</ele><time>2026-10-02T14:31:05Z</time></trkpt>
    <trkpt lat="47.65764" lon="13.78376"><ele>1555</ele><time>2026-10-02T14:33:02Z</time></trkpt>
    <trkpt lat="47.65675" lon="13.78342"><ele>1555</ele><time>2026-10-02T14:33:31Z</time></trkpt>
    <trkpt lat="47.65631" lon="13.78260"><ele>1541</ele><time>2026-10-02T14:34:30Z</time></trkpt>
    <trkpt lat="47.65670" lon="13.78393"><ele>1517</ele><time>2026-10-02T14:34:59Z</time></trkpt>
    <trkpt lat="47.65575" lon="13.78400"><ele>1497</ele><time>2026-10-02T14:35:29Z</time></trkpt>
    <trkpt lat="47.65630" lon="13.77810"><ele>1466</ele><time>2026-10-02T14:35:58Z</time></trkpt>
    <trkpt lat="47.65564" lon="13.77357"><ele>1410</ele><time>2026-10-02T14:36:27Z</time></trkpt>
    <trkpt lat="47.65550" lon="13.77210"><ele>1401</ele><time>2026-10-02T14:36:57Z</time></trkpt>
    <trkpt lat="47.65566" lon="13.77084"><ele>1393</ele><time>2026-10-02T14:37:26Z</time></trkpt>
    <trkpt lat="47.65580" lon="13.76975"><ele>1385</ele><time>2026-10-02T14:37:55Z</time></trkpt>
    <trkpt lat="47.65576" lon="13.76960"><ele>1382</ele><time>2026-10-02T14:38:54Z</time></trkpt>
    <trkpt lat="47.65580" lon="13.76833"><ele>1371</ele><time>2026-10-02T14:39:23Z</time></trkpt>
    <trkpt lat="47.65582" lon="13.76711"><ele>1357</ele><time>2026-10-02T14:39:53Z</time></trkpt>
    <trkpt lat="47.65426" lon="13.76895"><ele>1334</ele><time>2026-10-02T14:40:22Z</time></trkpt>
    <trkpt lat="47.65324" lon="13.77032"><ele>1319</ele><time>2026-10-02T14:40:51Z</time></trkpt>
    <trkpt lat="47.65341" lon="13.76903"><ele>1313</ele><time>2026-10-02T14:41:21Z</time></trkpt>
    <trkpt lat="47.65357" lon="13.76774"><ele>1301</ele><time>2026-10-02T14:41:50Z</time></trkpt>
    <trkpt lat="47.65372" lon="13.76647"><ele>1287</ele><time>2026-10-02T14:42:19Z</time></trkpt>
    <trkpt lat="47.65364" lon="13.76588"><ele>1271</ele><time>2026-10-02T14:42:49Z</time></trkpt>
    <trkpt lat="47.65451" lon="13.76399"><ele>1253</ele><time>2026-10-02T14:43:18Z</time></trkpt>
    <trkpt lat="47.65609" lon="13.76087"><ele>1228</ele><time>2026-10-02T14:43:47Z</time></trkpt>
    <trkpt lat="47.65486" lon="13.76214"><ele>1196</ele><time>2026-10-02T14:44:17Z</time></trkpt>
    <trkpt lat="47.65295" lon="13.76317"><ele>1164</ele><time>2026-10-02T14:44:46Z</time></trkpt>
    <trkpt lat="47.65519" lon="13.75927"><ele>1140</ele><time>2026-10-02T14:45:15Z</time></trkpt>
    <trkpt lat="47.65458" lon="13.75931"><ele>1126</ele><time>2026-10-02T14:45:45Z</time></trkpt>
    <trkpt lat="47.65463" lon="13.75871"><ele>1118</ele><time>2026-10-02T14:46:14Z</time></trkpt>
    <trkpt lat="47.65475" lon="13.75817"><ele>1105</ele><time>2026-10-02T14:46:43Z</time></trkpt>
    <trkpt lat="47.65563" lon="13.75739"><ele>1098</ele><time>2026-10-02T14:47:13Z</time></trkpt>
    <trkpt lat="47.65541" lon="13.75698"><ele>1085</ele><time>2026-10-02T14:47:42Z</time></trkpt>
    <trkpt lat="47.65575" lon="13.75640"><ele>1068</ele><time>2026-10-02T14:48:11Z</time></trkpt>
    <trkpt lat="47.65657" lon="13.75542"><ele>1061</ele><time>2026-10-02T14:48:41Z</time></trkpt>
    <trkpt lat="47.65687" lon="13.75477"><ele>1047</ele><time>2026-10-02T14:49:10Z</time></trkpt>
    <trkpt lat="47.65725" lon="13.75417"><ele>1034</ele><time>2026-10-02T14:49:39Z</time></trkpt>
    <trkpt lat="47.65731" lon="13.75357"><ele>1023</ele><time>2026-10-02T14:50:09Z</time></trkpt>
    <trkpt lat="47.65792" lon="13.75135"><ele>1006</ele><time>2026-10-02T14:50:38Z</time></trkpt>
    <trkpt lat="47.65782" lon="13.75045"><ele>979</ele><time>2026-10-02T14:51:07Z</time></trkpt>
    <trkpt lat="47.66057" lon="13.75025"><ele>963</ele><time>2026-10-02T14:51:37Z</time></trkpt>
    <trkpt lat="47.66392" lon="13.74828"><ele>945</ele><time>2026-10-02T14:52:06Z</time></trkpt>
    <trkpt lat="47.66442" lon="13.74840"><ele>942</ele><time>2026-10-02T14:52:35Z</time></trkpt>
    <trkpt lat="47.66439" lon="13.74744"><ele>941</ele><time>2026-10-02T14:53:05Z</time></trkpt>
    <trkpt lat="47.66651" lon="13.74591"><ele>926</ele><time>2026-10-02T14:53:34Z</time></trkpt>
    <trkpt lat="47.66199" lon="13.74467"><ele>887</ele><time>2026-10-02T14:54:03Z</time></trkpt>
  </trkseg>
</trk>
</gpx>