<?xml version="1.0" encoding="UTF-8"?>
<gpx version="1.1" creator="GPX-Pro" xmlns="http://www.topografix.com/GPX/1/1">
<trk>
  <name>Mtb_Summerau-Freistadt-Linz</name>
  <trkseg>
    <trkpt lat="48.55731" lon="14.44924"><ele>681</ele><time>2026-10-04T08:49:15Z</time></trkpt>
    <trkpt lat="48.55692" lon="14.44853"><ele>664</ele><time>2026-10-04T08:49:45Z</time></trkpt>
    <trkpt lat="48.55723" lon="14.45026"><ele>666</ele><time>2026-10-04T08:50:14Z</time></trkpt>
    <trkpt lat="48.55738" lon="14.45105"><ele>668</ele><time>2026-10-04T08:50:43Z</time></trkpt>
    <trkpt lat="48.55568" lon="14.45205"><ele>668</ele><time>2026-10-04T08:51:12Z</time></trkpt>
    <trkpt lat="48.55473" lon="14.45257"><ele>668</ele><time>2026-10-04T08:51:42Z</time></trkpt>
    <trkpt lat="48.55489" lon="14.45494"><ele>670</ele><time>2026-10-04T08:52:11Z</time></trkpt>
    <trkpt lat="48.55392" lon="14.45562"><ele>672</ele><time>2026-10-04T08:52:40Z</time></trkpt>
    <trkpt lat="48.55444" lon="14.45816"><ele>670</ele><time>2026-10-04T08:53:10Z</time></trkpt>
    <trkpt lat="48.55506" lon="14.46234"><ele>653</ele><time>2026-10-04T08:53:39Z</time></trkpt>
    <trkpt lat="48.55602" lon="14.46455"><ele>657</ele><time>2026-10-04T08:54:08Z</time></trkpt>
    <trkpt lat="48.55648" lon="14.46650"><ele>665</ele><time>2026-10-04T08:54:38Z</time></trkpt>
    <trkpt lat="48.55613" lon="14.46796"><ele>669</ele><time>2026-10-04T08:55:07Z</time></trkpt>
    <trkpt lat="48.55602" lon="14.46909"><ele>671</ele><time>2026-10-04T08:55:36Z</time></trkpt>
    <trkpt lat="48.55667" lon="14.47060"><ele>676</ele><time>2026-10-04T08:56:06Z</time></trkpt>
    <trkpt lat="48.55691" lon="14.47150"><ele>682</ele><time>2026-10-04T08:56:35Z</time></trkpt>
    <trkpt lat="48.55708" lon="14.47239"><ele>688</ele><time>2026-10-04T08:57:04Z</time></trkpt>
    <trkpt lat="48.55719" lon="14.47336"><ele>695</ele><time>2026-10-04T08:57:34Z</time></trkpt>
    <trkpt lat="48.55747" lon="14.47439"><ele>697</ele><time>2026-10-04T08:58:03Z</time></trkpt>
    <trkpt lat="48.55776" lon="14.47550"><ele>701</ele><time>2026-10-04T08:58:32Z</time></trkpt>
    <trkpt lat="48.55822" lon="14.47695"><ele>702</ele><time>2026-10-04T08:59:02Z</time></trkpt>
    <trkpt lat="48.55781" lon="14.47769"><ele>706</ele><time>2026-10-04T08:59:31Z</time></trkpt>
    <trkpt lat="48.55796" lon="14.47811"><ele>704</ele><time>2026-10-04T09:00:00Z</time></trkpt>
    <trkpt lat="48.55769" lon="14.48444"><ele>694</ele><time>2026-10-04T09:00:30Z</time></trkpt>
    <trkpt lat="48.55719" lon="14.48650"><ele>676</ele><time>2026-10-04T09:00:59Z</time></trkpt>
    <trkpt lat="48.55708" lon="14.48696"><ele>673</ele><time>2026-10-04T09:01:28Z</time></trkpt>
    <trkpt lat="48.55636" lon="14.48737"><ele>673</ele><time>2026-10-04T09:01:58Z</time></trkpt>
    <trkpt lat="48.55555" lon="14.48809"><ele>671</ele><time>2026-10-04T09:02:27Z</time></trkpt>
    <trkpt lat="48.55487" lon="14.48762"><ele>674</ele><time>2026-10-04T09:02:56Z</time></trkpt>
    <trkpt lat="48.55418" lon="14.48739"><ele>669</ele><time>2026-10-04T09:03:26Z</time></trkpt>
    <trkpt lat="48.55309" lon="14.48883"><ele>666</ele><time>2026-10-04T09:03:55Z</time></trkpt>
    <trkpt lat="48.55266" lon="14.48860"><ele>663</ele><time>2026-10-04T09:04:24Z</time></trkpt>
    <trkpt lat="48.55195" lon="14.48886"><ele>666</ele><time>2026-10-04T09:04:54Z</time></trkpt>
    <trkpt lat="48.55057" lon="14.49017"><ele>662</ele><time>2026-10-04T09:05:23Z</time></trkpt>
    <trkpt lat="48.55022" lon="14.49004"><ele>666</ele><time>2026-10-04T09:05:52Z</time></trkpt>
    <trkpt lat="48.54986" lon="14.48858"><ele>667</ele><time>2026-10-04T09:06:22Z</time></trkpt>
    <trkpt lat="48.54912" lon="14.48822"><ele>661</ele><time>2026-10-04T09:06:51Z</time></trkpt>
    <trkpt lat="48.54803" lon="14.49015"><ele>660</ele><time>2026-10-04T09:07:20Z</time></trkpt>
    <trkpt lat="48.54767" lon="14.49065"><ele>660</ele><time>2026-10-04T09:07:50Z</time></trkpt>
    <trkpt lat="48.54761" lon="14.49099"><ele>658</ele><time>2026-10-04T09:08:19Z</time></trkpt>
    <trkpt lat="48.54720" lon="14.49175"><ele>661</ele><time>2026-10-04T09:08:48Z</time></trkpt>
    <trkpt lat="48.54660" lon="14.49370"><ele>653</ele><time>2026-10-04T09:09:18Z</time></trkpt>
    <trkpt lat="48.54655" lon="14.49426"><ele>641</ele><time>2026-10-04T09:14:11Z</time></trkpt>
    <trkpt lat="48.54671" lon="14.49467"><ele>647</ele><time>2026-10-04T09:14:40Z</time></trkpt>
    <trkpt lat="48.54699" lon="14.49501"><ele>653</ele><time>2026-10-04T09:15:10Z</time></trkpt>
    <trkpt lat="48.54737" lon="14.49491"><ele>662</ele><time>2026-10-04T09:15:39Z</time></trkpt>
    <trkpt lat="48.54753" lon="14.49521"><ele>670</ele><time>2026-10-04T09:16:08Z</time></trkpt>
    <trkpt lat="48.54776" lon="14.49546"><ele>673</ele><time>2026-10-04T09:16:38Z</time></trkpt>
    <trkpt lat="48.54769" lon="14.49597"><ele>678</ele><time>2026-10-04T09:17:07Z</time></trkpt>
    <trkpt lat="48.54746" lon="14.49623"><ele>682</ele><time>2026-10-04T09:17:36Z</time></trkpt>
    <trkpt lat="48.54708" lon="14.49628"><ele>682</ele><time>2026-10-04T09:18:06Z</time></trkpt>
    <trkpt lat="48.54705" lon="14.49643"><ele>684</ele><time>2026-10-04T09:22:59Z</time></trkpt>
    <trkpt lat="48.54699" lon="14.49668"><ele>686</ele><time>2026-10-04T09:23:28Z</time></trkpt>
    <trkpt lat="48.54679" lon="14.49747"><ele>686</ele><time>2026-10-04T09:23:58Z</time></trkpt>
    <trkpt lat="48.54671" lon="14.49841"><ele>683</ele><time>2026-10-04T09:24:27Z</time></trkpt>
    <trkpt lat="48.54643" lon="14.49823"><ele>678</ele><time>2026-10-04T09:24:56Z</time></trkpt>
    <trkpt lat="48.54636" lon="14.49875"><ele>676</ele><time>2026-10-04T09:25:26Z</time></trkpt>
    <trkpt lat="48.54619" lon="14.50018"><ele>674</ele><time>2026-10-04T09:25:55Z</time></trkpt>
    <trkpt lat="48.54581" lon="14.50084"><ele>674</ele><time>2026-10-04T09:26:24Z</time></trkpt>
    <trkpt lat="48.54488" lon="14.49947"><ele>671</ele><time>2026-10-04T09:26:54Z</time></trkpt>
    <trkpt lat="48.54330" lon="14.49833"><ele>666</ele><time>2026-10-04T09:27:23Z</time></trkpt>
    <trkpt lat="48.54227" lon="14.49757"><ele>667</ele><time>2026-10-04T09:27:52Z</time></trkpt>
    <trkpt lat="48.54212" lon="14.49683"><ele>666</ele><time>2026-10-04T09:28:22Z</time></trkpt>
    <trkpt lat="48.54297" lon="14.49485"><ele>653</ele><time>2026-10-04T09:28:51Z</time></trkpt>
    <trkpt lat="48.54331" lon="14.49286"><ele>643</ele><time>2026-10-04T09:29:20Z</time></trkpt>
    <trkpt lat="48.54284" lon="14.49210"><ele>642</ele><time>2026-10-04T09:29:50Z</time></trkpt>
    <trkpt lat="48.54158" lon="14.49225"><ele>639</ele><time>2026-10-04T09:30:19Z</time></trkpt>
    <trkpt lat="48.54047" lon="14.49454"><ele>628</ele><time>2026-10-04T09:30:48Z</time></trkpt>
    <trkpt lat="48.53978" lon="14.49586"><ele>627</ele><time>2026-10-04T09:31:18Z</time></trkpt>
    <trkpt lat="48.53958" lon="14.49560"><ele>630</ele><time>2026-10-04T09:31:47Z</time></trkpt>
    <trkpt lat="48.53914" lon="14.49686"><ele>636</ele><time>2026-10-04T09:32:16Z</time></trkpt>
    <trkpt lat="48.53874" lon="14.49790"><ele>640</ele><time>2026-10-04T09:32:46Z</time></trkpt>
    <trkpt lat="48.53846" lon="14.49872"><ele>646</ele><time>2026-10-04T09:33:15Z</time></trkpt>
    <trkpt lat="48.53794" lon="14.50055"><ele>646</ele><time>2026-10-04T09:33:44Z</time></trkpt>
    <trkpt lat="48.53820" lon="14.50229"><ele>630</ele><time>2026-10-04T09:34:14Z</time></trkpt>
    <trkpt lat="48.53717" lon="14.50558"><ele>627</ele><time>2026-10-04T09:34:43Z</time></trkpt>
    <trkpt lat="48.53581" lon="14.50631"><ele>632</ele><time>2026-10-04T09:35:12Z</time></trkpt>
    <trkpt lat="48.53500" lon="14.50653"><ele>636</ele><time>2026-10-04T09:35:42Z</time></trkpt>
    <trkpt lat="48.53490" lon="14.50733"><ele>637</ele><time>2026-10-04T09:36:11Z</time></trkpt>
    <trkpt lat="48.53468" lon="14.50806"><ele>641</ele><time>2026-10-04T09:36:40Z</time></trkpt>
    <trkpt lat="48.53423" lon="14.50861"><ele>646</ele><time>2026-10-04T09:37:10Z</time></trkpt>
    <trkpt lat="48.53362" lon="14.50850"><ele>644</ele><time>2026-10-04T09:37:39Z</time></trkpt>
    <trkpt lat="48.53284" lon="14.50917"><ele>647</ele><time>2026-10-04T09:38:08Z</time></trkpt>
    <trkpt lat="48.53258" lon="14.51010"><ele>650</ele><time>2026-10-04T09:38:38Z</time></trkpt>
    <trkpt lat="48.53205" lon="14.50980"><ele>638</ele><time>2026-10-04T09:39:07Z</time></trkpt>
    <trkpt lat="48.53148" lon="14.51064"><ele>630</ele><time>2026-10-04T09:39:36Z</time></trkpt>
    <trkpt lat="48.53011" lon="14.51106"><ele>614</ele><time>2026-10-04T09:40:06Z</time></trkpt>
    <trkpt lat="48.52951" lon="14.50877"><ele>610</ele><time>2026-10-04T09:40:35Z</time></trkpt>
    <trkpt lat="48.52880" lon="14.50830"><ele>613</ele><time>2026-10-04T09:41:04Z</time></trkpt>
    <trkpt lat="48.52833" lon="14.50885"><ele>600</ele><time>2026-10-04T09:41:34Z</time></trkpt>
    <trkpt lat="48.52815" lon="14.50933"><ele>602</ele><time>2026-10-04T09:46:56Z</time></trkpt>
    <trkpt lat="48.52720" lon="14.51095"><ele>600</ele><time>2026-10-04T09:47:26Z</time></trkpt>
    <trkpt lat="48.52693" lon="14.51229"><ele>603</ele><time>2026-10-04T09:47:55Z</time></trkpt>
    <trkpt lat="48.52624" lon="14.51320"><ele>597</ele><time>2026-10-04T09:48:24Z</time></trkpt>
    <trkpt lat="48.52611" lon="14.51493"><ele>592</ele><time>2026-10-04T09:48:54Z</time></trkpt>
    <trkpt lat="48.52532" lon="14.51477"><ele>589</ele><time>2026-10-04T09:49:23Z</time></trkpt>
    <trkpt lat="48.52508" lon="14.51373"><ele>588</ele><time>2026-10-04T09:49:52Z</time></trkpt>
    <trkpt lat="48.52309" lon="14.51376"><ele>589</ele><time>2026-10-04T09:50:22Z</time></trkpt>
    <trkpt lat="48.52185" lon="14.51428"><ele>590</ele><time>2026-10-04T09:50:51Z</time></trkpt>
    <trkpt lat="48.52058" lon="14.51723"><ele>584</ele><time>2026-10-04T09:51:20Z</time></trkpt>
    <trkpt lat="48.52007" lon="14.51663"><ele>575</ele><time>2026-10-04T09:51:50Z</time></trkpt>
    <trkpt lat="48.51977" lon="14.51659"><ele>577</ele><time>2026-10-04T09:52:19Z</time></trkpt>
    <trkpt lat="48.51952" lon="14.51425"><ele>570</ele><time>2026-10-04T09:52:48Z</time></trkpt>
    <trkpt lat="48.51757" lon="14.51313"><ele>560</ele><time>2026-10-04T09:53:18Z</time></trkpt>
    <trkpt lat="48.51663" lon="14.51339"><ele>558</ele><time>2026-10-04T09:53:47Z</time></trkpt>
    <trkpt lat="48.51503" lon="14.51203"><ele>560</ele><time>2026-10-04T09:54:16Z</time></trkpt>
    <trkpt lat="48.51440" lon="14.51157"><ele>557</ele><time>2026-10-04T09:54:46Z</time></trkpt>
    <trkpt lat="48.51394" lon="14.50935"><ele>557</ele><time>2026-10-04T09:55:15Z</time></trkpt>
    <trkpt lat="48.51270" lon="14.50810"><ele>556</ele><time>2026-10-04T09:55:44Z</time></trkpt>
    <trkpt lat="48.51234" lon="14.50773"><ele>556</ele><time>2026-10-04T09:56:14Z</time></trkpt>
    <trkpt lat="48.51170" lon="14.50748"><ele>555</ele><time>2026-10-04T09:56:43Z</time></trkpt>
    <trkpt lat="48.51148" lon="14.50732"><ele>556</ele><time>2026-10-04T09:57:12Z</time></trkpt>
    <trkpt lat="48.51084" lon="14.50726"><ele>553</ele><time>2026-10-04T09:58:40Z</time></trkpt>
    <trkpt lat="48.51083" lon="14.50676"><ele>554</ele><time>2026-10-04T09:59:10Z</time></trkpt>
    <trkpt lat="48.51068" lon="14.50625"><ele>556</ele><time>2026-10-04T10:02:06Z</time></trkpt>
    <trkpt lat="48.51017" lon="14.50442"><ele>555</ele><time>2026-10-04T10:02:35Z</time></trkpt>
    <trkpt lat="48.50993" lon="14.50433"><ele>555</ele><time>2026-10-04T10:03:04Z</time></trkpt>
    <trkpt lat="48.50980" lon="14.50429"><ele>556</ele><time>2026-10-04T10:04:32Z</time></trkpt>
    <trkpt lat="48.50955" lon="14.50311"><ele>557</ele><time>2026-10-04T10:05:02Z</time></trkpt>
    <trkpt lat="48.50982" lon="14.50196"><ele>561</ele><time>2026-10-04T10:05:31Z</time></trkpt>
    <trkpt lat="48.50981" lon="14.50153"><ele>563</ele><time>2026-10-04T10:06:00Z</time></trkpt>
    <trkpt lat="48.50978" lon="14.50090"><ele>558</ele><time>2026-10-04T10:06:30Z</time></trkpt>
    <trkpt lat="48.50740" lon="14.49994"><ele>556</ele><time>2026-10-04T10:06:59Z</time></trkpt>
    <trkpt lat="48.50602" lon="14.49925"><ele>558</ele><time>2026-10-04T10:07:28Z</time></trkpt>
    <trkpt lat="48.50499" lon="14.49854"><ele>561</ele><time>2026-10-04T10:07:58Z</time></trkpt>
    <trkpt lat="48.50338" lon="14.49762"><ele>558</ele><time>2026-10-04T10:08:27Z</time></trkpt>
    <trkpt lat="48.50254" lon="14.49646"><ele>563</ele><time>2026-10-04T10:08:56Z</time></trkpt>
    <trkpt lat="48.50200" lon="14.49561"><ele>567</ele><time>2026-10-04T10:09:26Z</time></trkpt>
    <trkpt lat="48.50163" lon="14.49499"><ele>572</ele><time>2026-10-04T10:09:55Z</time></trkpt>
    <trkpt lat="48.50138" lon="14.49415"><ele>575</ele><time>2026-10-04T10:10:24Z</time></trkpt>
    <trkpt lat="48.50119" lon="14.49363"><ele>581</ele><time>2026-10-04T10:10:54Z</time></trkpt>
    <trkpt lat="48.50030" lon="14.49331"><ele>581</ele><time>2026-10-04T10:11:23Z</time></trkpt>
    <trkpt lat="48.50009" lon="14.49462"><ele>578</ele><time>2026-10-04T10:11:52Z</time></trkpt>
    <trkpt lat="48.49751" lon="14.49401"><ele>569</ele><time>2026-10-04T10:12:22Z</time></trkpt>
    <trkpt lat="48.49629" lon="14.49189"><ele>550</ele><time>2026-10-04T10:12:51Z</time></trkpt>
    <trkpt lat="48.49539" lon="14.49284"><ele>554</ele><time>2026-10-04T10:13:20Z</time></trkpt>
    <trkpt lat="48.49372" lon="14.49138"><ele>557</ele><time>2026-10-04T10:13:50Z</time></trkpt>
    <trkpt lat="48.49266" lon="14.49206"><ele>562</ele><time>2026-10-04T10:14:19Z</time></trkpt>
    <trkpt lat="48.49262" lon="14.49144"><ele>568</ele><time>2026-10-04T10:14:48Z</time></trkpt>
    <trkpt lat="48.49312" lon="14.48997"><ele>568</ele><time>2026-10-04T10:15:18Z</time></trkpt>
    <trkpt lat="48.49348" lon="14.48772"><ele>571</ele><time>2026-10-04T10:15:47Z</time></trkpt>
    <trkpt lat="48.49235" lon="14.48737"><ele>570</ele><time>2026-10-04T10:16:16Z</time></trkpt>
    <trkpt lat="48.49122" lon="14.48616"><ele>563</ele><time>2026-10-04T10:16:46Z</time></trkpt>
    <trkpt lat="48.49090" lon="14.48494"><ele>556</ele><time>2026-10-04T10:17:15Z</time></trkpt>
    <trkpt lat="48.48768" lon="14.48532"><ele>551</ele><time>2026-10-04T10:17:44Z</time></trkpt>
    <trkpt lat="48.48615" lon="14.48563"><ele>551</ele><time>2026-10-04T10:18:14Z</time></trkpt>
    <trkpt lat="48.48527" lon="14.48591"><ele>554</ele><time>2026-10-04T10:18:43Z</time></trkpt>
    <trkpt lat="48.48485" lon="14.48578"><ele>557</ele><time>2026-10-04T10:19:12Z</time></trkpt>
    <trkpt lat="48.48449" lon="14.48422"><ele>562</ele><time>2026-10-04T10:19:42Z</time></trkpt>
    <trkpt lat="48.48435" lon="14.48339"><ele>562</ele><time>2026-10-04T10:20:11Z</time></trkpt>
    <trkpt lat="48.48491" lon="14.48224"><ele>562</ele><time>2026-10-04T10:20:40Z</time></trkpt>
    <trkpt lat="48.48552" lon="14.48139"><ele>562</ele><time>2026-10-04T10:21:10Z</time></trkpt>
    <trkpt lat="48.48635" lon="14.48053"><ele>565</ele><time>2026-10-04T10:21:39Z</time></trkpt>
    <trkpt lat="48.48728" lon="14.47998"><ele>564</ele><time>2026-10-04T10:22:08Z</time></trkpt>
    <trkpt lat="48.48791" lon="14.47887"><ele>569</ele><time>2026-10-04T10:22:38Z</time></trkpt>
    <trkpt lat="48.48742" lon="14.47918"><ele>568</ele><time>2026-10-04T10:23:07Z</time></trkpt>
    <trkpt lat="48.48692" lon="14.47894"><ele>575</ele><time>2026-10-04T10:23:36Z</time></trkpt>
    <trkpt lat="48.48648" lon="14.47846"><ele>581</ele><time>2026-10-04T10:24:06Z</time></trkpt>
    <trkpt lat="48.48597" lon="14.47848"><ele>587</ele><time>2026-10-04T10:24:35Z</time></trkpt>
    <trkpt lat="48.48527" lon="14.47869"><ele>590</ele><time>2026-10-04T10:25:04Z</time></trkpt>
    <trkpt lat="48.48520" lon="14.47822"><ele>598</ele><time>2026-10-04T10:25:34Z</time></trkpt>
    <trkpt lat="48.48500" lon="14.47764"><ele>605</ele><time>2026-10-04T10:26:03Z</time></trkpt>
    <trkpt lat="48.48471" lon="14.47723"><ele>608</ele><time>2026-10-04T10:26:32Z</time></trkpt>
    <trkpt lat="48.48446" lon="14.47680"><ele>614</ele><time>2026-10-04T10:27:02Z</time></trkpt>
    <trkpt lat="48.48421" lon="14.47628"><ele>618</ele><time>2026-10-04T10:27:31Z</time></trkpt>
    <trkpt lat="48.48372" lon="14.47559"><ele>621</ele><time>2026-10-04T10:28:00Z</time></trkpt>
    <trkpt lat="48.48363" lon="14.47441"><ele>625</ele><time>2026-10-04T10:28:30Z</time></trkpt>
    <trkpt lat="48.48355" lon="14.47335"><ele>630</ele><time>2026-10-04T10:28:59Z</time></trkpt>
    <trkpt lat="48.48358" lon="14.47241"><ele>637</ele><time>2026-10-04T10:29:28Z</time></trkpt>
    <trkpt lat="48.48338" lon="14.47163"><ele>640</ele><time>2026-10-04T10:29:58Z</time></trkpt>
    <trkpt lat="48.48321" lon="14.47123"><ele>646</ele><time>2026-10-04T10:30:27Z</time></trkpt>
    <trkpt lat="48.48271" lon="14.47099"><ele>649</ele><time>2026-10-04T10:30:56Z</time></trkpt>
    <trkpt lat="48.48251" lon="14.46961"><ele>655</ele><time>2026-10-04T10:31:26Z</time></trkpt>
    <trkpt lat="48.48250" lon="14.46872"><ele>661</ele><time>2026-10-04T10:31:55Z</time></trkpt>
    <trkpt lat="48.48238" lon="14.46786"><ele>667</ele><time>2026-10-04T10:32:24Z</time></trkpt>
    <trkpt lat="48.48214" lon="14.46705"><ele>668</ele><time>2026-10-04T10:32:54Z</time></trkpt>
    <trkpt lat="48.48177" lon="14.46571"><ele>668</ele><time>2026-10-04T10:33:23Z</time></trkpt>
    <trkpt lat="48.48210" lon="14.46457"><ele>673</ele><time>2026-10-04T10:33:52Z</time></trkpt>
    <trkpt lat="48.48244" lon="14.46353"><ele>680</ele><time>2026-10-04T10:34:22Z</time></trkpt>
    <trkpt lat="48.48281" lon="14.46274"><ele>683</ele><time>2026-10-04T10:34:51Z</time></trkpt>
    <trkpt lat="48.48271" lon="14.46338"><ele>683</ele><time>2026-10-04T10:35:20Z</time></trkpt>
    <trkpt lat="48.48285" lon="14.46456"><ele>684</ele><time>2026-10-04T10:35:50Z</time></trkpt>
    <trkpt lat="48.48305" lon="14.46522"><ele>682</ele><time>2026-10-04T10:36:19Z</time></trkpt>
    <trkpt lat="48.48282" lon="14.46431"><ele>684</ele><time>2026-10-04T10:48:03Z</time></trkpt>
    <trkpt lat="48.48274" lon="14.46321"><ele>684</ele><time>2026-10-04T10:48:32Z</time></trkpt>
    <trkpt lat="48.48260" lon="14.46311"><ele>683</ele><time>2026-10-04T10:49:02Z</time></trkpt>
    <trkpt lat="48.48174" lon="14.46549"><ele>670</ele><time>2026-10-04T10:49:31Z</time></trkpt>
    <trkpt lat="48.48166" lon="14.46419"><ele>671</ele><time>2026-10-04T10:50:00Z</time></trkpt>
    <trkpt lat="48.48164" lon="14.46304"><ele>673</ele><time>2026-10-04T10:50:30Z</time></trkpt>
    <trkpt lat="48.48174" lon="14.46149"><ele>672</ele><time>2026-10-04T10:50:59Z</time></trkpt>
    <trkpt lat="48.48193" lon="14.45873"><ele>662</ele><time>2026-10-04T10:51:28Z</time></trkpt>
    <trkpt lat="48.48058" lon="14.45641"><ele>652</ele><time>2026-10-04T10:51:58Z</time></trkpt>
    <trkpt lat="48.47950" lon="14.45717"><ele>638</ele><time>2026-10-04T10:52:27Z</time></trkpt>
    <trkpt lat="48.47667" lon="14.45646"><ele>612</ele><time>2026-10-04T10:52:56Z</time></trkpt>
    <trkpt lat="48.47643" lon="14.45622"><ele>597</ele><time>2026-10-04T10:53:26Z</time></trkpt>
    <trkpt lat="48.47353" lon="14.45657"><ele>589</ele><time>2026-10-04T10:53:55Z</time></trkpt>
    <trkpt lat="48.47253" lon="14.45627"><ele>589</ele><time>2026-10-04T10:54:24Z</time></trkpt>
    <trkpt lat="48.47163" lon="14.45581"><ele>589</ele><time>2026-10-04T10:54:54Z</time></trkpt>
    <trkpt lat="48.47097" lon="14.45604"><ele>592</ele><time>2026-10-04T10:55:23Z</time></trkpt>
    <trkpt lat="48.47044" lon="14.45619"><ele>598</ele><time>2026-10-04T10:55:52Z</time></trkpt>
    <trkpt lat="48.46992" lon="14.45635"><ele>602</ele><time>2026-10-04T10:56:22Z</time></trkpt>
    <trkpt lat="48.46942" lon="14.45645"><ele>605</ele><time>2026-10-04T10:56:51Z</time></trkpt>
    <trkpt lat="48.46901" lon="14.45646"><ele>611</ele><time>2026-10-04T10:57:20Z</time></trkpt>
    <trkpt lat="48.46855" lon="14.45641"><ele>616</ele><time>2026-10-04T10:57:50Z</time></trkpt>
    <trkpt lat="48.46818" lon="14.45640"><ele>620</ele><time>2026-10-04T10:58:19Z</time></trkpt>
    <trkpt lat="48.46781" lon="14.45641"><ele>626</ele><time>2026-10-04T10:58:48Z</time></trkpt>
    <trkpt lat="48.46743" lon="14.45644"><ele>632</ele><time>2026-10-04T10:59:18Z</time></trkpt>
    <trkpt lat="48.46709" lon="14.45654"><ele>639</ele><time>2026-10-04T10:59:47Z</time></trkpt>
    <trkpt lat="48.46676" lon="14.45664"><ele>642</ele><time>2026-10-04T11:00:16Z</time></trkpt>
    <trkpt lat="48.46641" lon="14.45678"><ele>648</ele><time>2026-10-04T11:00:46Z</time></trkpt>
    <trkpt lat="48.46612" lon="14.45703"><ele>654</ele><time>2026-10-04T11:01:15Z</time></trkpt>
    <trkpt lat="48.46580" lon="14.45718"><ele>658</ele><time>2026-10-04T11:01:44Z</time></trkpt>
    <trkpt lat="48.46547" lon="14.45730"><ele>664</ele><time>2026-10-04T11:02:14Z</time></trkpt>
    <trkpt lat="48.46533" lon="14.45783"><ele>668</ele><time>2026-10-04T11:02:43Z</time></trkpt>
    <trkpt lat="48.46503" lon="14.45737"><ele>673</ele><time>2026-10-04T11:03:12Z</time></trkpt>
    <trkpt lat="48.46467" lon="14.45691"><ele>679</ele><time>2026-10-04T11:03:42Z</time></trkpt>
    <trkpt lat="48.46355" lon="14.45650"><ele>680</ele><time>2026-10-04T11:04:11Z</time></trkpt>
    <trkpt lat="48.46257" lon="14.45709"><ele>684</ele><time>2026-10-04T11:04:40Z</time></trkpt>
    <trkpt lat="48.46169" lon="14.45793"><ele>684</ele><time>2026-10-04T11:05:10Z</time></trkpt>
    <trkpt lat="48.46069" lon="14.45889"><ele>684</ele><time>2026-10-04T11:05:39Z</time></trkpt>
    <trkpt lat="48.46008" lon="14.45862"><ele>676</ele><time>2026-10-04T11:06:08Z</time></trkpt>
    <trkpt lat="48.45976" lon="14.46029"><ele>672</ele><time>2026-10-04T11:06:38Z</time></trkpt>
    <trkpt lat="48.45816" lon="14.46135"><ele>672</ele><time>2026-10-04T11:07:07Z</time></trkpt>
    <trkpt lat="48.45822" lon="14.46110"><ele>672</ele><time>2026-10-04T11:07:36Z</time></trkpt>
    <trkpt lat="48.45824" lon="14.46033"><ele>678</ele><time>2026-10-04T11:08:06Z</time></trkpt>
    <trkpt lat="48.45830" lon="14.45969"><ele>684</ele><time>2026-10-04T11:08:35Z</time></trkpt>
    <trkpt lat="48.45848" lon="14.45915"><ele>690</ele><time>2026-10-04T11:09:04Z</time></trkpt>
    <trkpt lat="48.45862" lon="14.45860"><ele>695</ele><time>2026-10-04T11:09:34Z</time></trkpt>
    <trkpt lat="48.45871" lon="14.45808"><ele>702</ele><time>2026-10-04T11:10:03Z</time></trkpt>
    <trkpt lat="48.45863" lon="14.45762"><ele>709</ele><time>2026-10-04T11:10:32Z</time></trkpt>
    <trkpt lat="48.45853" lon="14.45706"><ele>713</ele><time>2026-10-04T11:11:02Z</time></trkpt>
    <trkpt lat="48.45844" lon="14.45664"><ele>720</ele><time>2026-10-04T11:11:31Z</time></trkpt>
    <trkpt lat="48.45871" lon="14.45616"><ele>726</ele><time>2026-10-04T11:12:00Z</time></trkpt>
    <trkpt lat="48.45865" lon="14.45561"><ele>730</ele><time>2026-10-04T11:12:30Z</time></trkpt>
    <trkpt lat="48.45861" lon="14.45528"><ele>733</ele><time>2026-10-04T11:12:59Z</time></trkpt>
    <trkpt lat="48.45859" lon="14.45431"><ele>731</ele><time>2026-10-04T11:13:28Z</time></trkpt>
    <trkpt lat="48.45859" lon="14.45335"><ele>733</ele><time>2026-10-04T11:13:58Z</time></trkpt>
    <trkpt lat="48.45862" lon="14.45281"><ele>738</ele><time>2026-10-04T11:14:27Z</time></trkpt>
    <trkpt lat="48.45872" lon="14.45261"><ele>744</ele><time>2026-10-04T11:14:56Z</time></trkpt>
    <trkpt lat="48.45909" lon="14.45231"><ele>750</ele><time>2026-10-04T11:15:55Z</time></trkpt>
    <trkpt lat="48.45923" lon="14.45281"><ele>757</ele><time>2026-10-04T11:16:24Z</time></trkpt>
    <trkpt lat="48.45933" lon="14.45339"><ele>765</ele><time>2026-10-04T11:16:54Z</time></trkpt>
    <trkpt lat="48.45945" lon="14.45388"><ele>769</ele><time>2026-10-04T11:17:23Z</time></trkpt>
    <trkpt lat="48.45959" lon="14.45436"><ele>775</ele><time>2026-10-04T11:17:52Z</time></trkpt>
    <trkpt lat="48.45973" lon="14.45423"><ele>777</ele><time>2026-10-04T11:18:22Z</time></trkpt>
    <trkpt lat="48.45990" lon="14.45381"><ele>784</ele><time>2026-10-04T11:18:51Z</time></trkpt>
    <trkpt lat="48.45999" lon="14.45325"><ele>785</ele><time>2026-10-04T11:19:20Z</time></trkpt>
    <trkpt lat="48.46018" lon="14.45280"><ele>793</ele><time>2026-10-04T11:19:50Z</time></trkpt>
    <trkpt lat="48.46038" lon="14.45252"><ele>797</ele><time>2026-10-04T11:20:19Z</time></trkpt>
    <trkpt lat="48.46041" lon="14.45271"><ele>799</ele><time>2026-10-04T11:21:18Z</time></trkpt>
    <trkpt lat="48.46053" lon="14.45285"><ele>804</ele><time>2026-10-04T11:21:47Z</time></trkpt>
    <trkpt lat="48.46041" lon="14.45295"><ele>807</ele><time>2026-10-04T11:23:15Z</time></trkpt>
    <trkpt lat="48.46035" lon="14.45271"><ele>804</ele><time>2026-10-04T11:23:44Z</time></trkpt>
    <trkpt lat="48.46037" lon="14.45248"><ele>796</ele><time>2026-10-04T11:24:14Z</time></trkpt>
    <trkpt lat="48.45956" lon="14.45453"><ele>781</ele><time>2026-10-04T11:33:31Z</time></trkpt>
    <trkpt lat="48.45918" lon="14.45233"><ele>760</ele><time>2026-10-04T11:34:00Z</time></trkpt>
    <trkpt lat="48.45883" lon="14.45222"><ele>749</ele><time>2026-10-04T11:34:30Z</time></trkpt>
    <trkpt lat="48.45878" lon="14.45206"><ele>752</ele><time>2026-10-04T11:35:28Z</time></trkpt>
    <trkpt lat="48.45932" lon="14.45061"><ele>742</ele><time>2026-10-04T11:35:58Z</time></trkpt>
    <trkpt lat="48.45920" lon="14.44958"><ele>730</ele><time>2026-10-04T11:36:27Z</time></trkpt>
    <trkpt lat="48.45918" lon="14.44810"><ele>707</ele><time>2026-10-04T11:36:56Z</time></trkpt>
    <trkpt lat="48.45946" lon="14.44709"><ele>691</ele><time>2026-10-04T11:37:26Z</time></trkpt>
    <trkpt lat="48.45988" lon="14.44719"><ele>684</ele><time>2026-10-04T11:37:55Z</time></trkpt>
    <trkpt lat="48.46040" lon="14.44775"><ele>677</ele><time>2026-10-04T11:38:24Z</time></trkpt>
    <trkpt lat="48.45946" lon="14.44576"><ele>663</ele><time>2026-10-04T11:38:54Z</time></trkpt>
    <trkpt lat="48.45929" lon="14.44430"><ele>655</ele><time>2026-10-04T11:39:23Z</time></trkpt>
    <trkpt lat="48.46139" lon="14.44635"><ele>633</ele><time>2026-10-04T11:39:52Z</time></trkpt>
    <trkpt lat="48.46405" lon="14.44709"><ele>618</ele><time>2026-10-04T11:40:22Z</time></trkpt>
    <trkpt lat="48.46621" lon="14.44668"><ele>607</ele><time>2026-10-04T11:40:51Z</time></trkpt>
    <trkpt lat="48.46449" lon="14.44549"><ele>598</ele><time>2026-10-04T11:41:20Z</time></trkpt>
    <trkpt lat="48.46440" lon="14.44436"><ele>568</ele><time>2026-10-04T11:41:50Z</time></trkpt>
    <trkpt lat="48.46281" lon="14.44284"><ele>552</ele><time>2026-10-04T11:42:19Z</time></trkpt>
    <trkpt lat="48.46202" lon="14.44161"><ele>542</ele><time>2026-10-04T11:42:48Z</time></trkpt>
    <trkpt lat="48.46079" lon="14.43987"><ele>536</ele><time>2026-10-04T11:43:18Z</time></trkpt>
    <trkpt lat="48.45951" lon="14.43936"><ele>527</ele><time>2026-10-04T11:43:47Z</time></trkpt>
    <trkpt lat="48.45878" lon="14.44005"><ele>527</ele><time>2026-10-04T11:44:16Z</time></trkpt>
    <trkpt lat="48.45771" lon="14.44094"><ele>525</ele><time>2026-10-04T11:44:46Z</time></trkpt>
    <trkpt lat="48.45641" lon="14.44136"><ele>521</ele><time>2026-10-04T11:45:15Z</time></trkpt>
    <trkpt lat="48.45629" lon="14.44020"><ele>518</ele><time>2026-10-04T11:45:44Z</time></trkpt>
    <trkpt lat="48.45550" lon="14.43966"><ele>521</ele><time>2026-10-04T11:46:14Z</time></trkpt>
    <trkpt lat="48.45506" lon="14.43941"><ele>520</ele><time>2026-10-04T11:46:43Z</time></trkpt>
    <trkpt lat="48.45438" lon="14.43948"><ele>522</ele><time>2026-10-04T11:47:12Z</time></trkpt>
    <trkpt lat="48.45395" lon="14.44036"><ele>525</ele><time>2026-10-04T11:47:42Z</time></trkpt>
    <trkpt lat="48.45206" lon="14.44109"><ele>515</ele><time>2026-10-04T11:48:11Z</time></trkpt>
    <trkpt lat="48.45058" lon="14.44193"><ele>511</ele><time>2026-10-04T11:48:40Z</time></trkpt>
    <trkpt lat="48.44929" lon="14.44280"><ele>512</ele><time>2026-10-04T11:49:10Z</time></trkpt>
    <trkpt lat="48.44814" lon="14.44377"><ele>510</ele><time>2026-10-04T11:49:39Z</time></trkpt>
    <trkpt lat="48.44698" lon="14.44426"><ele>511</ele><time>2026-10-04T11:50:08Z</time></trkpt>
    <trkpt lat="48.44563" lon="14.44482"><ele>511</ele><time>2026-10-04T11:50:38Z</time></trkpt>
    <trkpt lat="48.44565" lon="14.44581"><ele>510</ele><time>2026-10-04T11:51:07Z</time></trkpt>
    <trkpt lat="48.44412" lon="14.44687"><ele>510</ele><time>2026-10-04T11:51:36Z</time></trkpt>
    <trkpt lat="48.44333" lon="14.44769"><ele>514</ele><time>2026-10-04T11:52:06Z</time></trkpt>
    <trkpt lat="48.44280" lon="14.44844"><ele>519</ele><time>2026-10-04T11:52:35Z</time></trkpt>
    <trkpt lat="48.44191" lon="14.44945"><ele>519</ele><time>2026-10-04T11:53:04Z</time></trkpt>
    <trkpt lat="48.44046" lon="14.45158"><ele>505</ele><time>2026-10-04T11:53:34Z</time></trkpt>
    <trkpt lat="48.44002" lon="14.45303"><ele>501</ele><time>2026-10-04T11:54:03Z</time></trkpt>
    <trkpt lat="48.43843" lon="14.45436"><ele>500</ele><time>2026-10-04T11:54:32Z</time></trkpt>
    <trkpt lat="48.43647" lon="14.45455"><ele>499</ele><time>2026-10-04T11:55:02Z</time></trkpt>
    <trkpt lat="48.43601" lon="14.45447"><ele>504</ele><time>2026-10-04T11:55:31Z</time></trkpt>
    <trkpt lat="48.43567" lon="14.45473"><ele>511</ele><time>2026-10-04T11:56:00Z</time></trkpt>
    <trkpt lat="48.43521" lon="14.45507"><ele>514</ele><time>2026-10-04T11:56:30Z</time></trkpt>
    <trkpt lat="48.43457" lon="14.45552"><ele>514</ele><time>2026-10-04T11:56:59Z</time></trkpt>
    <trkpt lat="48.43390" lon="14.45577"><ele>517</ele><time>2026-10-04T11:57:28Z</time></trkpt>
    <trkpt lat="48.43251" lon="14.45574"><ele>516</ele><time>2026-10-04T11:57:58Z</time></trkpt>
    <trkpt lat="48.43095" lon="14.45616"><ele>510</ele><time>2026-10-04T11:58:27Z</time></trkpt>
    <trkpt lat="48.43055" lon="14.45581"><ele>511</ele><time>2026-10-04T11:58:56Z</time></trkpt>
    <trkpt lat="48.43027" lon="14.45585"><ele>514</ele><time>2026-10-04T11:59:26Z</time></trkpt>
    <trkpt lat="48.42966" lon="14.45658"><ele>518</ele><time>2026-10-04T11:59:55Z</time></trkpt>
    <trkpt lat="48.42871" lon="14.45633"><ele>514</ele><time>2026-10-04T12:00:24Z</time></trkpt>
    <trkpt lat="48.42930" lon="14.45919"><ele>494</ele><time>2026-10-04T12:00:54Z</time></trkpt>
    <trkpt lat="48.42862" lon="14.46223"><ele>489</ele><time>2026-10-04T12:01:23Z</time></trkpt>
    <trkpt lat="48.42778" lon="14.46359"><ele>494</ele><time>2026-10-04T12:01:52Z</time></trkpt>
    <trkpt lat="48.42682" lon="14.46546"><ele>492</ele><time>2026-10-04T12:02:22Z</time></trkpt>
    <trkpt lat="48.42559" lon="14.46723"><ele>493</ele><time>2026-10-04T12:02:51Z</time></trkpt>
    <trkpt lat="48.42446" lon="14.46894"><ele>495</ele><time>2026-10-04T12:03:20Z</time></trkpt>
    <trkpt lat="48.42330" lon="14.47002"><ele>492</ele><time>2026-10-04T12:03:50Z</time></trkpt>
    <trkpt lat="48.42230" lon="14.47108"><ele>492</ele><time>2026-10-04T12:04:19Z</time></trkpt>
    <trkpt lat="48.42120" lon="14.47243"><ele>489</ele><time>2026-10-04T12:04:48Z</time></trkpt>
    <trkpt lat="48.42012" lon="14.47389"><ele>485</ele><time>2026-10-04T12:05:18Z</time></trkpt>
    <trkpt lat="48.41907" lon="14.47538"><ele>485</ele><time>2026-10-04T12:05:47Z</time></trkpt>
    <trkpt lat="48.41851" lon="14.47676"><ele>486</ele><time>2026-10-04T12:06:16Z</time></trkpt>
    <trkpt lat="48.41769" lon="14.47665"><ele>485</ele><time>2026-10-04T12:06:46Z</time></trkpt>
    <trkpt lat="48.41712" lon="14.47509"><ele>488</ele><time>2026-10-04T12:07:15Z</time></trkpt>
    <trkpt lat="48.41712" lon="14.47369"><ele>490</ele><time>2026-10-04T12:07:44Z</time></trkpt>
    <trkpt lat="48.41660" lon="14.47299"><ele>487</ele><time>2026-10-04T12:08:14Z</time></trkpt>
    <trkpt lat="48.41575" lon="14.47310"><ele>485</ele><time>2026-10-04T12:08:43Z</time></trkpt>
    <trkpt lat="48.41419" lon="14.47487"><ele>485</ele><time>2026-10-04T12:09:12Z</time></trkpt>
    <trkpt lat="48.41258" lon="14.47609"><ele>482</ele><time>2026-10-04T12:09:42Z</time></trkpt>
    <trkpt lat="48.41197" lon="14.47602"><ele>482</ele><time>2026-10-04T12:10:11Z</time></trkpt>
    <trkpt lat="48.41131" lon="14.47535"><ele>483</ele><time>2026-10-04T12:10:40Z</time></trkpt>
    <trkpt lat="48.40979" lon="14.47554"><ele>480</ele><time>2026-10-04T12:11:10Z</time></trkpt>
    <trkpt lat="48.40939" lon="14.47536"><ele>487</ele><time>2026-10-04T12:11:39Z</time></trkpt>
    <trkpt lat="48.40946" lon="14.47544"><ele>485</ele><time>2026-10-04T12:12:08Z</time></trkpt>
    <trkpt lat="48.40950" lon="14.47568"><ele>488</ele><time>2026-10-04T12:12:38Z</time></trkpt>
    <trkpt lat="48.40924" lon="14.47553"><ele>495</ele><time>2026-10-04T12:13:07Z</time></trkpt>
    <trkpt lat="48.40881" lon="14.47530"><ele>503</ele><time>2026-10-04T12:13:36Z</time></trkpt>
    <trkpt lat="48.40828" lon="14.47508"><ele>505</ele><time>2026-10-04T12:14:06Z</time></trkpt>
    <trkpt lat="48.40784" lon="14.47483"><ele>507</ele><time>2026-10-04T12:14:35Z</time></trkpt>
    <trkpt lat="48.40745" lon="14.47442"><ele>508</ele><time>2026-10-04T12:15:04Z</time></trkpt>
    <trkpt lat="48.40692" lon="14.47426"><ele>511</ele><time>2026-10-04T12:15:34Z</time></trkpt>
    <trkpt lat="48.40629" lon="14.47395"><ele>514</ele><time>2026-10-04T12:16:03Z</time></trkpt>
    <trkpt lat="48.40617" lon="14.47443"><ele>518</ele><time>2026-10-04T12:16:32Z</time></trkpt>
    <trkpt lat="48.40592" lon="14.47517"><ele>520</ele><time>2026-10-04T12:17:02Z</time></trkpt>
    <trkpt lat="48.40555" lon="14.47580"><ele>523</ele><time>2026-10-04T12:17:31Z</time></trkpt>
    <trkpt lat="48.40509" lon="14.47628"><ele>527</ele><time>2026-10-04T12:18:00Z</time></trkpt>
    <trkpt lat="48.40460" lon="14.47666"><ele>535</ele><time>2026-10-04T12:18:30Z</time></trkpt>
    <trkpt lat="48.40410" lon="14.47683"><ele>538</ele><time>2026-10-04T12:18:59Z</time></trkpt>
    <trkpt lat="48.40360" lon="14.47701"><ele>545</ele><time>2026-10-04T12:19:28Z</time></trkpt>
    <trkpt lat="48.40310" lon="14.47674"><ele>545</ele><time>2026-10-04T12:19:58Z</time></trkpt>
    <trkpt lat="48.40260" lon="14.47653"><ele>545</ele><time>2026-10-04T12:20:27Z</time></trkpt>
    <trkpt lat="48.40049" lon="14.47775"><ele>532</ele><time>2026-10-04T12:20:56Z</time></trkpt>
    <trkpt lat="48.39911" lon="14.47699"><ele>532</ele><time>2026-10-04T12:21:26Z</time></trkpt>
    <trkpt lat="48.39853" lon="14.47492"><ele>529</ele><time>2026-10-04T12:21:55Z</time></trkpt>
    <trkpt lat="48.39717" lon="14.47379"><ele>519</ele><time>2026-10-04T12:22:24Z</time></trkpt>
    <trkpt lat="48.39633" lon="14.47493"><ele>509</ele><time>2026-10-04T12:22:54Z</time></trkpt>
    <trkpt lat="48.39453" lon="14.47120"><ele>488</ele><time>2026-10-04T12:23:23Z</time></trkpt>
    <trkpt lat="48.39346" lon="14.46914"><ele>473</ele><time>2026-10-04T12:23:52Z</time></trkpt>
    <trkpt lat="48.39340" lon="14.46896"><ele>472</ele><time>2026-10-04T12:24:22Z</time></trkpt>
    <trkpt lat="48.39323" lon="14.46826"><ele>473</ele><time>2026-10-04T12:24:51Z</time></trkpt>
    <trkpt lat="48.39296" lon="14.46776"><ele>478</ele><time>2026-10-04T12:25:20Z</time></trkpt>
    <trkpt lat="48.39248" lon="14.46753"><ele>483</ele><time>2026-10-04T12:25:50Z</time></trkpt>
    <trkpt lat="48.39199" lon="14.46727"><ele>488</ele><time>2026-10-04T12:26:19Z</time></trkpt>
    <trkpt lat="48.39145" lon="14.46818"><ele>485</ele><time>2026-10-04T12:26:48Z</time></trkpt>
    <trkpt lat="48.39072" lon="14.46874"><ele>487</ele><time>2026-10-04T12:27:18Z</time></trkpt>
    <trkpt lat="48.39021" lon="14.46889"><ele>494</ele><time>2026-10-04T12:27:47Z</time></trkpt>
    <trkpt lat="48.38976" lon="14.46904"><ele>498</ele><time>2026-10-04T12:28:16Z</time></trkpt>
    <trkpt lat="48.38923" lon="14.46923"><ele>501</ele><time>2026-10-04T12:28:46Z</time></trkpt>
    <trkpt lat="48.38881" lon="14.46922"><ele>506</ele><time>2026-10-04T12:29:15Z</time></trkpt>
    <trkpt lat="48.38835" lon="14.46914"><ele>507</ele><time>2026-10-04T12:29:44Z</time></trkpt>
    <trkpt lat="48.38789" lon="14.46932"><ele>511</ele><time>2026-10-04T12:30:14Z</time></trkpt>
    <trkpt lat="48.38745" lon="14.46970"><ele>515</ele><time>2026-10-04T12:30:43Z</time></trkpt>
    <trkpt lat="48.38707" lon="14.47007"><ele>517</ele><time>2026-10-04T12:31:12Z</time></trkpt>
    <trkpt lat="48.38679" lon="14.47058"><ele>522</ele><time>2026-10-04T12:31:42Z</time></trkpt>
    <trkpt lat="48.38701" lon="14.47116"><ele>525</ele><time>2026-10-04T12:32:11Z</time></trkpt>
    <trkpt lat="48.38715" lon="14.47202"><ele>525</ele><time>2026-10-04T12:32:40Z</time></trkpt>
    <trkpt lat="48.38681" lon="14.47327"><ele>528</ele><time>2026-10-04T12:33:10Z</time></trkpt>
    <trkpt lat="48.38649" lon="14.47444"><ele>531</ele><time>2026-10-04T12:33:39Z</time></trkpt>
    <trkpt lat="48.38642" lon="14.47543"><ele>532</ele><time>2026-10-04T12:34:08Z</time></trkpt>
    <trkpt lat="48.38635" lon="14.47605"><ele>533</ele><time>2026-10-04T12:35:36Z</time></trkpt>
    <trkpt lat="48.38634" lon="14.47621"><ele>534</ele><time>2026-10-04T12:36:06Z</time></trkpt>
    <trkpt lat="48.38626" lon="14.47742"><ele>535</ele><time>2026-10-04T12:36:35Z</time></trkpt>
    <trkpt lat="48.38662" lon="14.48259"><ele>532</ele><time>2026-10-04T12:37:04Z</time></trkpt>
    <trkpt lat="48.38555" lon="14.48277"><ele>519</ele><time>2026-10-04T12:37:34Z</time></trkpt>
    <trkpt lat="48.38443" lon="14.48088"><ele>508</ele><time>2026-10-04T12:38:03Z</time></trkpt>
    <trkpt lat="48.38381" lon="14.47830"><ele>499</ele><time>2026-10-04T12:38:32Z</time></trkpt>
    <trkpt lat="48.38303" lon="14.47812"><ele>487</ele><time>2026-10-04T12:39:02Z</time></trkpt>
    <trkpt lat="48.38272" lon="14.47742"><ele>478</ele><time>2026-10-04T12:39:31Z</time></trkpt>
    <trkpt lat="48.38251" lon="14.47758"><ele>476</ele><time>2026-10-04T12:40:00Z</time></trkpt>
    <trkpt lat="48.38295" lon="14.47854"><ele>473</ele><time>2026-10-04T12:40:30Z</time></trkpt>
    <trkpt lat="48.38314" lon="14.47984"><ele>474</ele><time>2026-10-04T12:40:59Z</time></trkpt>
    <trkpt lat="48.38289" lon="14.47997"><ele>475</ele><time>2026-10-04T12:41:28Z</time></trkpt>
    <trkpt lat="48.38250" lon="14.47973"><ele>481</ele><time>2026-10-04T12:41:58Z</time></trkpt>
    <trkpt lat="48.38223" lon="14.47932"><ele>488</ele><time>2026-10-04T12:42:27Z</time></trkpt>
    <trkpt lat="48.38192" lon="14.47922"><ele>491</ele><time>2026-10-04T12:42:56Z</time></trkpt>
    <trkpt lat="48.38147" lon="14.47681"><ele>479</ele><time>2026-10-04T12:43:26Z</time></trkpt>
    <trkpt lat="48.38153" lon="14.47700"><ele>477</ele><time>2026-10-04T12:43:55Z</time></trkpt>
    <trkpt lat="48.38177" lon="14.47712"><ele>478</ele><time>2026-10-04T12:44:24Z</time></trkpt>
    <trkpt lat="48.38191" lon="14.47646"><ele>474</ele><time>2026-10-04T12:45:52Z</time></trkpt>
    <trkpt lat="48.38186" lon="14.47605"><ele>466</ele><time>2026-10-04T12:46:22Z</time></trkpt>
    <trkpt lat="48.38068" lon="14.47347"><ele>456</ele><time>2026-10-04T12:46:51Z</time></trkpt>
    <trkpt lat="48.38021" lon="14.47245"><ele>455</ele><time>2026-10-04T12:47:20Z</time></trkpt>
    <trkpt lat="48.37967" lon="14.47144"><ele>453</ele><time>2026-10-04T12:47:50Z</time></trkpt>
    <trkpt lat="48.37895" lon="14.47241"><ele>442</ele><time>2026-10-04T12:48:19Z</time></trkpt>
    <trkpt lat="48.37868" lon="14.47264"><ele>438</ele><time>2026-10-04T12:48:48Z</time></trkpt>
    <trkpt lat="48.37848" lon="14.47175"><ele>437</ele><time>2026-10-04T12:49:18Z</time></trkpt>
    <trkpt lat="48.37851" lon="14.47085"><ele>438</ele><time>2026-10-04T12:49:47Z</time></trkpt>
    <trkpt lat="48.37849" lon="14.47041"><ele>441</ele><time>2026-10-04T12:50:16Z</time></trkpt>
    <trkpt lat="48.37864" lon="14.46949"><ele>442</ele><time>2026-10-04T12:50:46Z</time></trkpt>
    <trkpt lat="48.37812" lon="14.46820"><ele>433</ele><time>2026-10-04T12:51:15Z</time></trkpt>
    <trkpt lat="48.37670" lon="14.46794"><ele>414</ele><time>2026-10-04T12:51:44Z</time></trkpt>
    <trkpt lat="48.37585" lon="14.46883"><ele>412</ele><time>2026-10-04T12:52:14Z</time></trkpt>
    <trkpt lat="48.37585" lon="14.47039"><ele>413</ele><time>2026-10-04T12:52:43Z</time></trkpt>
    <trkpt lat="48.37599" lon="14.47148"><ele>416</ele><time>2026-10-04T12:53:12Z</time></trkpt>
    <trkpt lat="48.37511" lon="14.47200"><ele>418</ele><time>2026-10-04T12:53:42Z</time></trkpt>
    <trkpt lat="48.37434" lon="14.47131"><ele>420</ele><time>2026-10-04T12:54:11Z</time></trkpt>
    <trkpt lat="48.37380" lon="14.46973"><ele>408</ele><time>2026-10-04T12:54:40Z</time></trkpt>
    <trkpt lat="48.37248" lon="14.46795"><ele>388</ele><time>2026-10-04T12:55:10Z</time></trkpt>
    <trkpt lat="48.37181" lon="14.46656"><ele>360</ele><time>2026-10-04T12:55:39Z</time></trkpt>
    <trkpt lat="48.36943" lon="14.46641"><ele>339</ele><time>2026-10-04T12:56:08Z</time></trkpt>
    <trkpt lat="48.36859" lon="14.46706"><ele>338</ele><time>2026-10-04T12:56:38Z</time></trkpt>
    <trkpt lat="48.36785" lon="14.46750"><ele>337</ele><time>2026-10-04T12:57:07Z</time></trkpt>
    <trkpt lat="48.36689" lon="14.46784"><ele>336</ele><time>2026-10-04T12:57:36Z</time></trkpt>
    <trkpt lat="48.36579" lon="14.46809"><ele>337</ele><time>2026-10-04T12:58:06Z</time></trkpt>
    <trkpt lat="48.36404" lon="14.46767"><ele>332</ele><time>2026-10-04T12:58:35Z</time></trkpt>
    <trkpt lat="48.36253" lon="14.46770"><ele>334</ele><time>2026-10-04T12:59:04Z</time></trkpt>
    <trkpt lat="48.36102" lon="14.46714"><ele>333</ele><time>2026-10-04T12:59:34Z</time></trkpt>
    <trkpt lat="48.35955" lon="14.46610"><ele>329</ele><time>2026-10-04T13:00:03Z</time></trkpt>
    <trkpt lat="48.35923" lon="14.46745"><ele>330</ele><time>2026-10-04T13:00:32Z</time></trkpt>
    <trkpt lat="48.35829" lon="14.46792"><ele>334</ele><time>2026-10-04T13:01:02Z</time></trkpt>
    <trkpt lat="48.35684" lon="14.46787"><ele>330</ele><time>2026-10-04T13:01:31Z</time></trkpt>
    <trkpt lat="48.35682" lon="14.46551"><ele>334</ele><time>2026-10-04T13:02:00Z</time></trkpt>
    <trkpt lat="48.35652" lon="14.46555"><ele>339</ele><time>2026-10-04T13:02:30Z</time></trkpt>
    <trkpt lat="48.35548" lon="14.46501"><ele>337</ele><time>2026-10-04T13:02:59Z</time></trkpt>
    <trkpt lat="48.35441" lon="14.46301"><ele>323</ele><time>2026-10-04T13:03:28Z</time></trkpt>
    <trkpt lat="48.35387" lon="14.46332"><ele>323</ele><time>2026-10-04T13:03:58Z</time></trkpt>
    <trkpt lat="48.35358" lon="14.46448"><ele>324</ele><time>2026-10-04T13:04:27Z</time></trkpt>
    <trkpt lat="48.35313" lon="14.46523"><ele>325</ele><time>2026-10-04T13:04:56Z</time></trkpt>
    <trkpt lat="48.35367" lon="14.46343"><ele>326</ele><time>2026-10-04T13:05:26Z</time></trkpt>
    <trkpt lat="48.35317" lon="14.46132"><ele>324</ele><time>2026-10-04T13:05:55Z</time></trkpt>
    <trkpt lat="48.35248" lon="14.46061"><ele>323</ele><time>2026-10-04T13:06:24Z</time></trkpt>
    <trkpt lat="48.35155" lon="14.46184"><ele>324</ele><time>2026-10-04T13:06:54Z</time></trkpt>
    <trkpt lat="48.35021" lon="14.46163"><ele>324</ele><time>2026-10-04T13:07:23Z</time></trkpt>
    <trkpt lat="48.34954" lon="14.46080"><ele>324</ele><time>2026-10-04T13:07:52Z</time></trkpt>
    <trkpt lat="48.34907" lon="14.45959"><ele>315</ele><time>2026-10-04T13:08:22Z</time></trkpt>
    <trkpt lat="48.34844" lon="14.45998"><ele>313</ele><time>2026-10-04T13:08:51Z</time></trkpt>
    <trkpt lat="48.34776" lon="14.46118"><ele>312</ele><time>2026-10-04T13:09:20Z</time></trkpt>
    <trkpt lat="48.34671" lon="14.46143"><ele>309</ele><time>2026-10-04T13:09:50Z</time></trkpt>
    <trkpt lat="48.34583" lon="14.46142"><ele>303</ele><time>2026-10-04T13:10:19Z</time></trkpt>
    <trkpt lat="48.34549" lon="14.46152"><ele>303</ele><time>2026-10-04T13:10:48Z</time></trkpt>
    <trkpt lat="48.34491" lon="14.46295"><ele>298</ele><time>2026-10-04T13:11:18Z</time></trkpt>
    <trkpt lat="48.34481" lon="14.46331"><ele>299</ele><time>2026-10-04T13:11:47Z</time></trkpt>
    <trkpt lat="48.34453" lon="14.46353"><ele>304</ele><time>2026-10-04T13:12:16Z</time></trkpt>
    <trkpt lat="48.34426" lon="14.46360"><ele>303</ele><time>2026-10-04T13:12:46Z</time></trkpt>
    <trkpt lat="48.34402" lon="14.46352"><ele>301</ele><time>2026-10-04T13:13:15Z</time></trkpt>
    <trkpt lat="48.34383" lon="14.46349"><ele>301</ele><time>2026-10-04T13:13:44Z</time></trkpt>
    <trkpt lat="48.34362" lon="14.46338"><ele>303</ele><time>2026-10-04T13:14:14Z</time></trkpt>
    <trkpt lat="48.34293" lon="14.46311"><ele>299</ele><time>2026-10-04T13:14:43Z</time></trkpt>
    <trkpt lat="48.34238" lon="14.46399"><ele>298</ele><time>2026-10-04T13:15:12Z</time></trkpt>
    <trkpt lat="48.34164" lon="14.46472"><ele>295</ele><time>2026-10-04T13:15:42Z</time></trkpt>
    <trkpt lat="48.34071" lon="14.46518"><ele>293</ele><time>2026-10-04T13:16:11Z</time></trkpt>
    <trkpt lat="48.34015" lon="14.46602"><ele>293</ele><time>2026-10-04T13:16:40Z</time></trkpt>
    <trkpt lat="48.34040" lon="14.46671"><ele>294</ele><time>2026-10-04T13:17:10Z</time></trkpt>
    <trkpt lat="48.33987" lon="14.46892"><ele>294</ele><time>2026-10-04T13:17:39Z</time></trkpt>
    <trkpt lat="48.33823" lon="14.46887"><ele>293</ele><time>2026-10-04T13:18:08Z</time></trkpt>
    <trkpt lat="48.33772" lon="14.46807"><ele>291</ele><time>2026-10-04T13:18:38Z</time></trkpt>
    <trkpt lat="48.33693" lon="14.46807"><ele>290</ele><time>2026-10-04T13:19:07Z</time></trkpt>
    <trkpt lat="48.33515" lon="14.47005"><ele>289</ele><time>2026-10-04T13:19:36Z</time></trkpt>
    <trkpt lat="48.33469" lon="14.46829"><ele>290</ele><time>2026-10-04T13:20:06Z</time></trkpt>
    <trkpt lat="48.33400" lon="14.46858"><ele>292</ele><time>2026-10-04T13:21:04Z</time></trkpt>
    <trkpt lat="48.33373" lon="14.46751"><ele>296</ele><time>2026-10-04T13:21:34Z</time></trkpt>
    <trkpt lat="48.33353" lon="14.46635"><ele>300</ele><time>2026-10-04T13:22:03Z</time></trkpt>
    <trkpt lat="48.33340" lon="14.46560"><ele>306</ele><time>2026-10-04T13:22:32Z</time></trkpt>
    <trkpt lat="48.33330" lon="14.46493"><ele>312</ele><time>2026-10-04T13:23:02Z</time></trkpt>
    <trkpt lat="48.33320" lon="14.46422"><ele>319</ele><time>2026-10-04T13:23:31Z</time></trkpt>
    <trkpt lat="48.33314" lon="14.46361"><ele>324</ele><time>2026-10-04T13:24:00Z</time></trkpt>
    <trkpt lat="48.33301" lon="14.46138"><ele>328</ele><time>2026-10-04T13:24:30Z</time></trkpt>
    <trkpt lat="48.33273" lon="14.46138"><ele>334</ele><time>2026-10-04T13:25:28Z</time></trkpt>
    <trkpt lat="48.33232" lon="14.46054"><ele>334</ele><time>2026-10-04T13:25:58Z</time></trkpt>
    <trkpt lat="48.33175" lon="14.46011"><ele>331</ele><time>2026-10-04T13:26:27Z</time></trkpt>
    <trkpt lat="48.33163" lon="14.45995"><ele>329</ele><time>2026-10-04T13:26:56Z</time></trkpt>
    <trkpt lat="48.33144" lon="14.45978"><ele>331</ele><time>2026-10-04T13:27:26Z</time></trkpt>
    <trkpt lat="48.33116" lon="14.45943"><ele>332</ele><time>2026-10-04T13:27:55Z</time></trkpt>
    <trkpt lat="48.33091" lon="14.45880"><ele>328</ele><time>2026-10-04T13:28:54Z</time></trkpt>
    <trkpt lat="48.33121" lon="14.45788"><ele>314</ele><time>2026-10-04T13:29:23Z</time></trkpt>
    <trkpt lat="48.33021" lon="14.45730"><ele>312</ele><time>2026-10-04T13:29:52Z</time></trkpt>
    <trkpt lat="48.32955" lon="14.45556"><ele>318</ele><time>2026-10-04T13:30:22Z</time></trkpt>
    <trkpt lat="48.32935" lon="14.45505"><ele>323</ele><time>2026-10-04T13:30:51Z</time></trkpt>
    <trkpt lat="48.32912" lon="14.45456"><ele>325</ele><time>2026-10-04T13:31:20Z</time></trkpt>
    <trkpt lat="48.32894" lon="14.45404"><ele>330</ele><time>2026-10-04T13:31:50Z</time></trkpt>
    <trkpt lat="48.32870" lon="14.45361"><ele>334</ele><time>2026-10-04T13:32:19Z</time></trkpt>
    <trkpt lat="48.32837" lon="14.45310"><ele>338</ele><time>2026-10-04T13:32:48Z</time></trkpt>
    <trkpt lat="48.32776" lon="14.45274"><ele>337</ele><time>2026-10-04T13:33:18Z</time></trkpt>
    <trkpt lat="48.32551" lon="14.45081"><ele>315</ele><time>2026-10-04T13:33:47Z</time></trkpt>
    <trkpt lat="48.32406" lon="14.44912"><ele>313</ele><time>2026-10-04T13:34:16Z</time></trkpt>
    <trkpt lat="48.32297" lon="14.44774"><ele>316</ele><time>2026-10-04T13:34:46Z</time></trkpt>
    <trkpt lat="48.32265" lon="14.44641"><ele>318</ele><time>2026-10-04T13:35:15Z</time></trkpt>
    <trkpt lat="48.32130" lon="14.44611"><ele>315</ele><time>2026-10-04T13:35:44Z</time></trkpt>
    <trkpt lat="48.32044" lon="14.44592"><ele>320</ele><time>2026-10-04T13:36:14Z</time></trkpt>
    <trkpt lat="48.31973" lon="14.44579"><ele>322</ele><time>2026-10-04T13:36:43Z</time></trkpt>
    <trkpt lat="48.31903" lon="14.44566"><ele>326</ele><time>2026-10-04T13:37:12Z</time></trkpt>
    <trkpt lat="48.31835" lon="14.44552"><ele>331</ele><time>2026-10-04T13:37:42Z</time></trkpt>
    <trkpt lat="48.31782" lon="14.44544"><ele>336</ele><time>2026-10-04T13:38:11Z</time></trkpt>
    <trkpt lat="48.31730" lon="14.44532"><ele>342</ele><time>2026-10-04T13:38:40Z</time></trkpt>
    <trkpt lat="48.31676" lon="14.44521"><ele>345</ele><time>2026-10-04T13:39:10Z</time></trkpt>
    <trkpt lat="48.31615" lon="14.44509"><ele>349</ele><time>2026-10-04T13:39:39Z</time></trkpt>
    <trkpt lat="48.31550" lon="14.44498"><ele>355</ele><time>2026-10-04T13:40:08Z</time></trkpt>
    <trkpt lat="48.31490" lon="14.44485"><ele>362</ele><time>2026-10-04T13:40:38Z</time></trkpt>
    <trkpt lat="48.31449" lon="14.44469"><ele>368</ele><time>2026-10-04T13:41:07Z</time></trkpt>
    <trkpt lat="48.31438" lon="14.44378"><ele>371</ele><time>2026-10-04T13:41:36Z</time></trkpt>
    <trkpt lat="48.31370" lon="14.44259"><ele>371</ele><time>2026-10-04T13:42:06Z</time></trkpt>
    <trkpt lat="48.31248" lon="14.44233"><ele>370</ele><time>2026-10-04T13:42:35Z</time></trkpt>
    <trkpt lat="48.31181" lon="14.44249"><ele>375</ele><time>2026-10-04T13:43:04Z</time></trkpt>
    <trkpt lat="48.31128" lon="14.44255"><ele>378</ele><time>2026-10-04T13:43:34Z</time></trkpt>
    <trkpt lat="48.31114" lon="14.44224"><ele>385</ele><time>2026-10-04T13:44:03Z</time></trkpt>
    <trkpt lat="48.31141" lon="14.44176"><ele>389</ele><time>2026-10-04T13:44:32Z</time></trkpt>
    <trkpt lat="48.31170" lon="14.44134"><ele>395</ele><time>2026-10-04T13:45:02Z</time></trkpt>
    <trkpt lat="48.31202" lon="14.44100"><ele>401</ele><time>2026-10-04T13:45:31Z</time></trkpt>
    <trkpt lat="48.31242" lon="14.44077"><ele>406</ele><time>2026-10-04T13:46:00Z</time></trkpt>
    <trkpt lat="48.31289" lon="14.44039"><ele>409</ele><time>2026-10-04T13:46:30Z</time></trkpt>
    <trkpt lat="48.31318" lon="14.43969"><ele>413</ele><time>2026-10-04T13:46:59Z</time></trkpt>
    <trkpt lat="48.31376" lon="14.43913"><ele>417</ele><time>2026-10-04T13:47:28Z</time></trkpt>
    <trkpt lat="48.31422" lon="14.43825"><ele>423</ele><time>2026-10-04T13:47:58Z</time></trkpt>
    <trkpt lat="48.31437" lon="14.43716"><ele>427</ele><time>2026-10-04T13:48:27Z</time></trkpt>
    <trkpt lat="48.31383" lon="14.43607"><ele>426</ele><time>2026-10-04T13:48:56Z</time></trkpt>
    <trkpt lat="48.31367" lon="14.43482"><ele>429</ele><time>2026-10-04T13:49:26Z</time></trkpt>
    <trkpt lat="48.31332" lon="14.43376"><ele>431</ele><time>2026-10-04T13:49:55Z</time></trkpt>
    <trkpt lat="48.31294" lon="14.43297"><ele>434</ele><time>2026-10-04T13:50:24Z</time></trkpt>
    <trkpt lat="48.31299" lon="14.43054"><ele>425</ele><time>2026-10-04T13:50:54Z</time></trkpt>
    <trkpt lat="48.31382" lon="14.42774"><ele>406</ele><time>2026-10-04T13:51:23Z</time></trkpt>
    <trkpt lat="48.31439" lon="14.42669"><ele>390</ele><time>2026-10-04T13:51:52Z</time></trkpt>
    <trkpt lat="48.31380" lon="14.42440"><ele>394</ele><time>2026-10-04T13:52:22Z</time></trkpt>
    <trkpt lat="48.31372" lon="14.42310"><ele>398</ele><time>2026-10-04T13:52:51Z</time></trkpt>
    <trkpt lat="48.31332" lon="14.42147"><ele>391</ele><time>2026-10-04T13:53:20Z</time></trkpt>
    <trkpt lat="48.31549" lon="14.41856"><ele>388</ele><time>2026-10-04T13:53:50Z</time></trkpt>
    <trkpt lat="48.31595" lon="14.41560"><ele>362</ele><time>2026-10-04T13:54:19Z</time></trkpt>
    <trkpt lat="48.31424" lon="14.41472"><ele>351</ele><time>2026-10-04T13:54:48Z</time></trkpt>
    <trkpt lat="48.31332" lon="14.41222"><ele>328</ele><time>2026-10-04T13:55:18Z</time></trkpt>
    <trkpt lat="48.31047" lon="14.41024"><ele>319</ele><time>2026-10-04T13:55:47Z</time></trkpt>
    <trkpt lat="48.30960" lon="14.40927"><ele>312</ele><time>2026-10-04T13:56:16Z</time></trkpt>
    <trkpt lat="48.30803" lon="14.40739"><ele>291</ele><time>2026-10-04T13:56:46Z</time></trkpt>
    <trkpt lat="48.30735" lon="14.40616"><ele>286</ele><time>2026-10-04T13:57:15Z</time></trkpt>
    <trkpt lat="48.30647" lon="14.40569"><ele>286</ele><time>2026-10-04T13:57:44Z</time></trkpt>
    <trkpt lat="48.30538" lon="14.40551"><ele>284</ele><time>2026-10-04T13:58:14Z</time></trkpt>
    <trkpt lat="48.30425" lon="14.40524"><ele>283</ele><time>2026-10-04T13:58:43Z</time></trkpt>
    <trkpt lat="48.30292" lon="14.40462"><ele>281</ele><time>2026-10-04T13:59:12Z</time></trkpt>
    <trkpt lat="48.30200" lon="14.40400"><ele>282</ele><time>2026-10-04T13:59:42Z</time></trkpt>
    <trkpt lat="48.30146" lon="14.40296"><ele>284</ele><time>2026-10-04T14:00:11Z</time></trkpt>
    <trkpt lat="48.30064" lon="14.40167"><ele>277</ele><time>2026-10-04T14:00:40Z</time></trkpt>
    <trkpt lat="48.29948" lon="14.40116"><ele>276</ele><time>2026-10-04T14:01:10Z</time></trkpt>
    <trkpt lat="48.29843" lon="14.40071"><ele>275</ele><time>2026-10-04T14:01:39Z</time></trkpt>
    <trkpt lat="48.29726" lon="14.40058"><ele>276</ele><time>2026-10-04T14:02:08Z</time></trkpt>
    <trkpt lat="48.29612" lon="14.40093"><ele>278</ele><time>2026-10-04T14:02:38Z</time></trkpt>
    <trkpt lat="48.29508" lon="14.40148"><ele>279</ele><time>2026-10-04T14:03:07Z</time></trkpt>
    <trkpt lat="48.29422" lon="14.40277"><ele>275</ele><time>2026-10-04T14:03:36Z</time></trkpt>
    <trkpt lat="48.29370" lon="14.40377"><ele>274</ele><time>2026-10-04T14:04:06Z</time></trkpt>
    <trkpt lat="48.29264" lon="14.40432"><ele>281</ele><time>2026-10-04T14:04:35Z</time></trkpt>
    <trkpt lat="48.29146" lon="14.40350"><ele>275</ele><time>2026-10-04T14:05:04Z</time></trkpt>
    <trkpt lat="48.29056" lon="14.40321"><ele>276</ele><time>2026-10-04T14:05:34Z</time></trkpt>
    <trkpt lat="48.28975" lon="14.40355"><ele>279</ele><time>2026-10-04T14:06:03Z</time></trkpt>
    <trkpt lat="48.28933" lon="14.40395"><ele>280</ele><time>2026-10-04T14:06:32Z</time></trkpt>
    <trkpt lat="48.28894" lon="14.40408"><ele>285</ele><time>2026-10-04T14:07:02Z</time></trkpt>
    <trkpt lat="48.28802" lon="14.40423"><ele>290</ele><time>2026-10-04T14:07:31Z</time></trkpt>
    <trkpt lat="48.28635" lon="14.40349"><ele>279</ele><time>2026-10-04T14:08:00Z</time></trkpt>
    <trkpt lat="48.28393" lon="14.40296"><ele>266</ele><time>2026-10-04T14:08:30Z</time></trkpt>
    <trkpt lat="48.28238" lon="14.40323"><ele>265</ele><time>2026-10-04T14:08:59Z</time></trkpt>
    <trkpt lat="48.28070" lon="14.40109"><ele>259</ele><time>2026-10-04T14:09:28Z</time></trkpt>
    <trkpt lat="48.28084" lon="14.40011"><ele>257</ele><time>2026-10-04T14:09:58Z</time></trkpt>
    <trkpt lat="48.28093" lon="14.39810"><ele>258</ele><time>2026-10-04T14:10:27Z</time></trkpt>
    <trkpt lat="48.28155" lon="14.39651"><ele>258</ele><time>2026-10-04T14:10:56Z</time></trkpt>
    <trkpt lat="48.28190" lon="14.39539"><ele>261</ele><time>2026-10-04T14:11:26Z</time></trkpt>
    <trkpt lat="48.28193" lon="14.39438"><ele>266</ele><time>2026-10-04T14:11:55Z</time></trkpt>
    <trkpt lat="48.28158" lon="14.39298"><ele>267</ele><time>2026-10-04T14:12:24Z</time></trkpt>
    <trkpt lat="48.28113" lon="14.39218"><ele>264</ele><time>2026-10-04T14:13:23Z</time></trkpt>
    <trkpt lat="48.28126" lon="14.39035"><ele>263</ele><time>2026-10-04T14:13:52Z</time></trkpt>
    <trkpt lat="48.28128" lon="14.38988"><ele>262</ele><time>2026-10-04T14:14:22Z</time></trkpt>
    <trkpt lat="48.28118" lon="14.38931"><ele>259</ele><time>2026-10-04T14:20:43Z</time></trkpt>
    <trkpt lat="48.28070" lon="14.38719"><ele>259</ele><time>2026-10-04T14:21:12Z</time></trkpt>
    <trkpt lat="48.28072" lon="14.38507"><ele>261</ele><time>2026-10-04T14:21:42Z</time></trkpt>
    <trkpt lat="48.28041" lon="14.38314"><ele>260</ele><time>2026-10-04T14:22:11Z</time></trkpt>
    <trkpt lat="48.28039" lon="14.38153"><ele>262</ele><time>2026-10-04T14:22:40Z</time></trkpt>
    <trkpt lat="48.28045" lon="14.37924"><ele>258</ele><time>2026-10-04T14:23:10Z</time></trkpt>
    <trkpt lat="48.28109" lon="14.37696"><ele>257</ele><time>2026-10-04T14:23:39Z</time></trkpt>
    <trkpt lat="48.28202" lon="14.37506"><ele>256</ele><time>2026-10-04T14:24:08Z</time></trkpt>
    <trkpt lat="48.28302" lon="14.37326"><ele>256</ele><time>2026-10-04T14:24:38Z</time></trkpt>
    <trkpt lat="48.28366" lon="14.37152"><ele>257</ele><time>2026-10-04T14:25:07Z</time></trkpt>
    <trkpt lat="48.28402" lon="14.36965"><ele>256</ele><time>2026-10-04T14:25:36Z</time></trkpt>
    <trkpt lat="48.28351" lon="14.36943"><ele>258</ele><time>2026-10-04T14:26:06Z</time></trkpt>
    <trkpt lat="48.28367" lon="14.36803"><ele>261</ele><time>2026-10-04T14:26:35Z</time></trkpt>
    <trkpt lat="48.28282" lon="14.36778"><ele>257</ele><time>2026-10-04T14:27:04Z</time></trkpt>
    <trkpt lat="48.28321" lon="14.36455"><ele>256</ele><time>2026-10-04T14:27:34Z</time></trkpt>
    <trkpt lat="48.28350" lon="14.36252"><ele>259</ele><time>2026-10-04T14:28:03Z</time></trkpt>
    <trkpt lat="48.28388" lon="14.36056"><ele>256</ele><time>2026-10-04T14:28:32Z</time></trkpt>
    <trkpt lat="48.28428" lon="14.35852"><ele>254</ele><time>2026-10-04T14:29:02Z</time></trkpt>
    <trkpt lat="48.28460" lon="14.35658"><ele>257</ele><time>2026-10-04T14:29:31Z</time></trkpt>
    <trkpt lat="48.28474" lon="14.35460"><ele>257</ele><time>2026-10-04T14:30:00Z</time></trkpt>
    <trkpt lat="48.28502" lon="14.35255"><ele>259</ele><time>2026-10-04T14:30:30Z</time></trkpt>
    <trkpt lat="48.28552" lon="14.35092"><ele>255</ele><time>2026-10-04T14:30:59Z</time></trkpt>
    <trkpt lat="48.28566" lon="14.34896"><ele>254</ele><time>2026-10-04T14:31:28Z</time></trkpt>
    <trkpt lat="48.28615" lon="14.34713"><ele>257</ele><time>2026-10-04T14:31:58Z</time></trkpt>
    <trkpt lat="48.28732" lon="14.34629"><ele>254</ele><time>2026-10-04T14:32:27Z</time></trkpt>
    <trkpt lat="48.28921" lon="14.34551"><ele>254</ele><time>2026-10-04T14:32:56Z</time></trkpt>
    <trkpt lat="48.28917" lon="14.34602"><ele>258</ele><time>2026-10-04T14:33:26Z</time></trkpt>
    <trkpt lat="48.28831" lon="14.34658"><ele>262</ele><time>2026-10-04T14:33:55Z</time></trkpt>
    <trkpt lat="48.28774" lon="14.34556"><ele>266</ele><time>2026-10-04T14:34:24Z</time></trkpt>
    <trkpt lat="48.28737" lon="14.34414"><ele>267</ele><time>2026-10-04T14:34:54Z</time></trkpt>
    <trkpt lat="48.28694" lon="14.34249"><ele>270</ele><time>2026-10-04T14:35:23Z</time></trkpt>
    <trkpt lat="48.28645" lon="14.34052"><ele>267</ele><time>2026-10-04T14:35:52Z</time></trkpt>
    <trkpt lat="48.28584" lon="14.33765"><ele>261</ele><time>2026-10-04T14:36:22Z</time></trkpt>
    <trkpt lat="48.28544" lon="14.33518"><ele>258</ele><time>2026-10-04T14:36:51Z</time></trkpt>
    <trkpt lat="48.28513" lon="14.33281"><ele>258</ele><time>2026-10-04T14:37:20Z</time></trkpt>
    <trkpt lat="48.28507" lon="14.33047"><ele>259</ele><time>2026-10-04T14:37:50Z</time></trkpt>
    <trkpt lat="48.28529" lon="14.32838"><ele>262</ele><time>2026-10-04T14:38:19Z</time></trkpt>
    <trkpt lat="48.28559" lon="14.32676"><ele>265</ele><time>2026-10-04T14:38:48Z</time></trkpt>
    <trkpt lat="48.28588" lon="14.32525"><ele>268</ele><time>2026-10-04T14:39:18Z</time></trkpt>
    <trkpt lat="48.28620" lon="14.32367"><ele>270</ele><time>2026-10-04T14:39:47Z</time></trkpt>
    <trkpt lat="48.28671" lon="14.32168"><ele>266</ele><time>2026-10-04T14:40:16Z</time></trkpt>
    <trkpt lat="48.28686" lon="14.32029"><ele>258</ele><time>2026-10-04T14:40:46Z</time></trkpt>
    <trkpt lat="48.28576" lon="14.31962"><ele>260</ele><time>2026-10-04T14:41:15Z</time></trkpt>
    <trkpt lat="48.28544" lon="14.31926"><ele>262</ele><time>2026-10-04T14:41:44Z</time></trkpt>
    <trkpt lat="48.28527" lon="14.31904"><ele>262</ele><time>2026-10-04T14:42:14Z</time></trkpt>
    <trkpt lat="48.28514" lon="14.31845"><ele>262</ele><time>2026-10-04T14:43:12Z</time></trkpt>
    <trkpt lat="48.28527" lon="14.31720"><ele>265</ele><time>2026-10-04T14:43:42Z</time></trkpt>
    <trkpt lat="48.28519" lon="14.31600"><ele>268</ele><time>2026-10-04T14:44:11Z</time></trkpt>
    <trkpt lat="48.28485" lon="14.31485"><ele>270</ele><time>2026-10-04T14:44:40Z</time></trkpt>
    <trkpt lat="48.28447" lon="14.31317"><ele>271</ele><time>2026-10-04T14:45:10Z</time></trkpt>
    <trkpt lat="48.28399" lon="14.31150"><ele>272</ele><time>2026-10-04T14:45:39Z</time></trkpt>
    <trkpt lat="48.28296" lon="14.30962"><ele>268</ele><time>2026-10-04T14:46:08Z</time></trkpt>
    <trkpt lat="48.28263" lon="14.30773"><ele>264</ele><time>2026-10-04T14:46:38Z</time></trkpt>
    <trkpt lat="48.28282" lon="14.30657"><ele>264</ele><time>2026-10-04T14:47:07Z</time></trkpt>
    <trkpt lat="48.28353" lon="14.30536"><ele>265</ele><time>2026-10-04T14:47:36Z</time></trkpt>
    <trkpt lat="48.28418" lon="14.30426"><ele>265</ele><time>2026-10-04T14:48:06Z</time></trkpt>
    <trkpt lat="48.28406" lon="14.30415"><ele>265</ele><time>2026-10-04T14:49:04Z</time></trkpt>
    <trkpt lat="48.28366" lon="14.30335"><ele>266</ele><time>2026-10-04T14:49:34Z</time></trkpt>
    <trkpt lat="48.28358" lon="14.30281"><ele>267</ele><time>2026-10-04T14:50:03Z</time></trkpt>
    <trkpt lat="48.28278" lon="14.30280"><ele>268</ele><time>2026-10-04T14:51:02Z</time></trkpt>
    <trkpt lat="48.28270" lon="14.29946"><ele>269</ele><time>2026-10-04T14:51:31Z</time></trkpt>
    <trkpt lat="48.28289" lon="14.29750"><ele>268</ele><time>2026-10-04T14:52:00Z</time></trkpt>
    <trkpt lat="48.28294" lon="14.29552"><ele>267</ele><time>2026-10-04T14:52:30Z</time></trkpt>
    <trkpt lat="48.28285" lon="14.29356"><ele>268</ele><time>2026-10-04T14:52:59Z</time></trkpt>
    <trkpt lat="48.28276" lon="14.29214"><ele>268</ele><time>2026-10-04T14:53:28Z</time></trkpt>
    <trkpt lat="48.28261" lon="14.29024"><ele>268</ele><time>2026-10-04T14:53:58Z</time></trkpt>
    <trkpt lat="48.28223" lon="14.28725"><ele>267</ele><time>2026-10-04T14:54:27Z</time></trkpt>
    <trkpt lat="48.28255" lon="14.28672"><ele>267</ele><time>2026-10-04T14:54:56Z</time></trkpt>
    <trkpt lat="48.28255" lon="14.28653"><ele>268</ele><time>2026-10-04T14:55:26Z</time></trkpt>
    <trkpt lat="48.28221" lon="14.28550"><ele>269</ele><time>2026-10-04T14:55:55Z</time></trkpt>
    <trkpt lat="48.28204" lon="14.28519"><ele>268</ele><time>2026-10-04T14:56:24Z</time></trkpt>
    <trkpt lat="48.28186" lon="14.28470"><ele>268</ele><time>2026-10-04T14:56:54Z</time></trkpt>
    <trkpt lat="48.28113" lon="14.28316"><ele>271</ele><time>2026-10-04T14:57:23Z</time></trkpt>
    <trkpt lat="48.28022" lon="14.28190"><ele>270</ele><time>2026-10-04T14:57:52Z</time></trkpt>
    <trkpt lat="48.27965" lon="14.28143"><ele>269</ele><time>2026-10-04T14:58:22Z</time></trkpt>
    <trkpt lat="48.28058" lon="14.28027"><ele>282</ele><time>2026-10-04T14:58:54Z</time></trkpt>
    <trkpt lat="48.28039" lon="14.28029"><ele>268</ele><time>2026-10-04T14:59:03Z</time></trkpt>
    <trkpt lat="48.28051" lon="14.28015"><ele>270</ele><time>2026-10-04T14:59:36Z</time></trkpt>
    <trkpt lat="48.28107" lon="14.27930"><ele>273</ele><time>2026-10-04T15:00:05Z</time></trkpt>
    <trkpt lat="48.28156" lon="14.27840"><ele>276</ele><time>2026-10-04T15:00:35Z</time></trkpt>
    <trkpt lat="48.28216" lon="14.27772"><ele>280</ele><time>2026-10-04T15:01:04Z</time></trkpt>
    <trkpt lat="48.28265" lon="14.27689"><ele>284</ele><time>2026-10-04T15:01:33Z</time></trkpt>
    <trkpt lat="48.28311" lon="14.27615"><ele>290</ele><time>2026-10-04T15:02:03Z</time></trkpt>
    <trkpt lat="48.28359" lon="14.27540"><ele>293</ele><time>2026-10-04T15:02:32Z</time></trkpt>
    <trkpt lat="48.28409" lon="14.27452"><ele>296</ele><time>2026-10-04T15:03:01Z</time></trkpt>
    <trkpt lat="48.28472" lon="14.27421"><ele>297</ele><time>2026-10-04T15:03:31Z</time></trkpt>
    <trkpt lat="48.28527" lon="14.27380"><ele>305</ele><time>2026-10-04T15:04:00Z</time></trkpt>
    <trkpt lat="48.28579" lon="14.27318"><ele>307</ele><time>2026-10-04T15:04:29Z</time></trkpt>
    <trkpt lat="48.28625" lon="14.27263"><ele>311</ele><time>2026-10-04T15:04:59Z</time></trkpt>
    <trkpt lat="48.28681" lon="14.27184"><ele>315</ele><time>2026-10-04T15:05:28Z</time></trkpt>
    <trkpt lat="48.28748" lon="14.27152"><ele>321</ele><time>2026-10-04T15:05:57Z</time></trkpt>
    <trkpt lat="48.28769" lon="14.27192"><ele>324</ele><time>2026-10-04T15:06:27Z</time></trkpt>
    <trkpt lat="48.28592" lon="14.27472"><ele>318</ele><time>2026-10-04T15:06:56Z</time></trkpt>
    <trkpt lat="48.28527" lon="14.27528"><ele>318</ele><time>2026-10-04T15:07:25Z</time></trkpt>
  </trkseg>
</trk>
</gpx>