<?xml version="1.0" encoding="UTF-8"?>
<gpx version="1.1" creator="Gpx-Optimizer" xmlns="http://www.topografix.com/GPX/1/1">
<trk>
  <name>Ski_Hochschwungrunde</name>
  <type>ski</type>
  <trkseg>
    <trkpt lat="47.42819" lon="14.28969"><ele>1092</ele></trkpt>
    <trkpt lat="47.42810" lon="14.28960"><ele>1082</ele></trkpt>
    <trkpt lat="47.42780" lon="14.28940"><ele>1082</ele></trkpt>
    <trkpt lat="47.42734" lon="14.28962"><ele>1112</ele></trkpt>
    <trkpt lat="47.42701" lon="14.28937"><ele>1100</ele></trkpt>
    <trkpt lat="47.42674" lon="14.28921"><ele>1099</ele></trkpt>
    <trkpt lat="47.42642" lon="14.28913"><ele>1098</ele></trkpt>
    <trkpt lat="47.42617" lon="14.28897"><ele>1089</ele></trkpt>
    <trkpt lat="47.42590" lon="14.28889"><ele>1086</ele></trkpt>
    <trkpt lat="47.42558" lon="14.28892"><ele>1090</ele></trkpt>
    <trkpt lat="47.42530" lon="14.28887"><ele>1095</ele></trkpt>
    <trkpt lat="47.42507" lon="14.28889"><ele>1094</ele></trkpt>
    <trkpt lat="47.42481" lon="14.28897"><ele>1099</ele></trkpt>
    <trkpt lat="47.42468" lon="14.28873"><ele>1122</ele></trkpt>
    <trkpt lat="47.42428" lon="14.28986"><ele>1102</ele></trkpt>
    <trkpt lat="47.42415" lon="14.28998"><ele>1121</ele></trkpt>
    <trkpt lat="47.42400" lon="14.29030"><ele>1125</ele></trkpt>
    <trkpt lat="47.42386" lon="14.29035"><ele>1137</ele></trkpt>
    <trkpt lat="47.42374" lon="14.29056"><ele>1132</ele></trkpt>
    <trkpt lat="47.42345" lon="14.29112"><ele>1122</ele></trkpt>
    <trkpt lat="47.42320" lon="14.29136"><ele>1139</ele></trkpt>
    <trkpt lat="47.42309" lon="14.29159"><ele>1136</ele></trkpt>
    <trkpt lat="47.42286" lon="14.29166"><ele>1163</ele></trkpt>
    <trkpt lat="47.42255" lon="14.29190"><ele>1160</ele></trkpt>
    <trkpt lat="47.42243" lon="14.29197"><ele>1151</ele></trkpt>
    <trkpt lat="47.42207" lon="14.29206"><ele>1164</ele></trkpt>
    <trkpt lat="47.42197" lon="14.29213"><ele>1173</ele></trkpt>
    <trkpt lat="47.42143" lon="14.29269"><ele>1176</ele></trkpt>
    <trkpt lat="47.42136" lon="14.29286"><ele>1195</ele></trkpt>
    <trkpt lat="47.42109" lon="14.29313"><ele>1208</ele></trkpt>
    <trkpt lat="47.42099" lon="14.29340"><ele>1194</ele></trkpt>
    <trkpt lat="47.42090" lon="14.29369"><ele>1231</ele></trkpt>
    <trkpt lat="47.42079" lon="14.29368"><ele>1215</ele></trkpt>
    <trkpt lat="47.42070" lon="14.29403"><ele>1226</ele></trkpt>
    <trkpt lat="47.42054" lon="14.29447"><ele>1218</ele></trkpt>
    <trkpt lat="47.42034" lon="14.29474"><ele>1174</ele></trkpt>
    <trkpt lat="47.42015" lon="14.29474"><ele>1178</ele></trkpt>
    <trkpt lat="47.41998" lon="14.29565"><ele>1211</ele></trkpt>
    <trkpt lat="47.42003" lon="14.29595"><ele>1246</ele></trkpt>
    <trkpt lat="47.41996" lon="14.29623"><ele>1240</ele></trkpt>
    <trkpt lat="47.41953" lon="14.29638"><ele>1233</ele></trkpt>
    <trkpt lat="47.41940" lon="14.29643"><ele>1276</ele></trkpt>
    <trkpt lat="47.41929" lon="14.29647"><ele>1285</ele></trkpt>
    <trkpt lat="47.41934" lon="14.29669"><ele>1287</ele></trkpt>
    <trkpt lat="47.41906" lon="14.29663"><ele>1266</ele></trkpt>
    <trkpt lat="47.41937" lon="14.29678"><ele>1277</ele></trkpt>
    <trkpt lat="47.41904" lon="14.29703"><ele>1284</ele></trkpt>
    <trkpt lat="47.41923" lon="14.29712"><ele>1306</ele></trkpt>
    <trkpt lat="47.41901" lon="14.29731"><ele>1336</ele></trkpt>
    <trkpt lat="47.41887" lon="14.29785"><ele>1328</ele></trkpt>
    <trkpt lat="47.41889" lon="14.29766"><ele>1323</ele></trkpt>
    <trkpt lat="47.41845" lon="14.29773"><ele>1350</ele></trkpt>
    <trkpt lat="47.41822" lon="14.29837"><ele>1342</ele></trkpt>
    <trkpt lat="47.41821" lon="14.29813"><ele>1350</ele></trkpt>
    <trkpt lat="47.41799" lon="14.29882"><ele>1357</ele></trkpt>
    <trkpt lat="47.41790" lon="14.29898"><ele>1360</ele></trkpt>
    <trkpt lat="47.41760" lon="14.29996"><ele>1389</ele></trkpt>
    <trkpt lat="47.41713" lon="14.30120"><ele>1364</ele></trkpt>
    <trkpt lat="47.41702" lon="14.30178"><ele>1400</ele></trkpt>
    <trkpt lat="47.41677" lon="14.30237"><ele>1414</ele></trkpt>
    <trkpt lat="47.41658" lon="14.30254"><ele>1407</ele></trkpt>
    <trkpt lat="47.41640" lon="14.30286"><ele>1420</ele></trkpt>
    <trkpt lat="47.41612" lon="14.30341"><ele>1444</ele></trkpt>
    <trkpt lat="47.41607" lon="14.30315"><ele>1412</ele></trkpt>
    <trkpt lat="47.41585" lon="14.30407"><ele>1437</ele></trkpt>
    <trkpt lat="47.41554" lon="14.30495"><ele>1445</ele></trkpt>
    <trkpt lat="47.41541" lon="14.30526"><ele>1419</ele></trkpt>
    <trkpt lat="47.41499" lon="14.30600"><ele>1429</ele></trkpt>
    <trkpt lat="47.41459" lon="14.30611"><ele>1476</ele></trkpt>
    <trkpt lat="47.41394" lon="14.30720"><ele>1468</ele></trkpt>
    <trkpt lat="47.41395" lon="14.30807"><ele>1503</ele></trkpt>
    <trkpt lat="47.41397" lon="14.30828"><ele>1490</ele></trkpt>
    <trkpt lat="47.41410" lon="14.30858"><ele>1491</ele></trkpt>
    <trkpt lat="47.41424" lon="14.30882"><ele>1491</ele></trkpt>
    <trkpt lat="47.41455" lon="14.30882"><ele>1510</ele></trkpt>
    <trkpt lat="47.41502" lon="14.30915"><ele>1516</ele></trkpt>
    <trkpt lat="47.41509" lon="14.30961"><ele>1511</ele></trkpt>
    <trkpt lat="47.41507" lon="14.30990"><ele>1516</ele></trkpt>
    <trkpt lat="47.41521" lon="14.31052"><ele>1536</ele></trkpt>
    <trkpt lat="47.41509" lon="14.31118"><ele>1489</ele></trkpt>
    <trkpt lat="47.41511" lon="14.31145"><ele>1500</ele></trkpt>
    <trkpt lat="47.41510" lon="14.31209"><ele>1520</ele></trkpt>
    <trkpt lat="47.41511" lon="14.31265"><ele>1538</ele></trkpt>
    <trkpt lat="47.41491" lon="14.31335"><ele>1510</ele></trkpt>
    <trkpt lat="47.41500" lon="14.31369"><ele>1533</ele></trkpt>
    <trkpt lat="47.41500" lon="14.31425"><ele>1555</ele></trkpt>
    <trkpt lat="47.41482" lon="14.31445"><ele>1563</ele></trkpt>
    <trkpt lat="47.41449" lon="14.31509"><ele>1565</ele></trkpt>
    <trkpt lat="47.41444" lon="14.31572"><ele>1605</ele></trkpt>
    <trkpt lat="47.41458" lon="14.31608"><ele>1580</ele></trkpt>
    <trkpt lat="47.41458" lon="14.31637"><ele>1571</ele></trkpt>
    <trkpt lat="47.41456" lon="14.31684"><ele>1596</ele></trkpt>
    <trkpt lat="47.41451" lon="14.31714"><ele>1602</ele></trkpt>
    <trkpt lat="47.41464" lon="14.31734"><ele>1595</ele></trkpt>
    <trkpt lat="47.41482" lon="14.31743"><ele>1619</ele></trkpt>
    <trkpt lat="47.41496" lon="14.31772"><ele>1614</ele></trkpt>
    <trkpt lat="47.41490" lon="14.31791"><ele>1609</ele></trkpt>
    <trkpt lat="47.41476" lon="14.31826"><ele>1631</ele></trkpt>
    <trkpt lat="47.41453" lon="14.31842"><ele>1604</ele></trkpt>
    <trkpt lat="47.41441" lon="14.31868"><ele>1649</ele></trkpt>
    <trkpt lat="47.41449" lon="14.31911"><ele>1647</ele></trkpt>
    <trkpt lat="47.41439" lon="14.31921"><ele>1648</ele></trkpt>
    <trkpt lat="47.41427" lon="14.31941"><ele>1630</ele></trkpt>
    <trkpt lat="47.41405" lon="14.31980"><ele>1644</ele></trkpt>
    <trkpt lat="47.41420" lon="14.31981"><ele>1670</ele></trkpt>
    <trkpt lat="47.41428" lon="14.31998"><ele>1676</ele></trkpt>
    <trkpt lat="47.41429" lon="14.32111"><ele>1673</ele></trkpt>
    <trkpt lat="47.41443" lon="14.32118"><ele>1673</ele></trkpt>
    <trkpt lat="47.41425" lon="14.32173"><ele>1705</ele></trkpt>
    <trkpt lat="47.41403" lon="14.32217"><ele>1709</ele></trkpt>
    <trkpt lat="47.41408" lon="14.32262"><ele>1712</ele></trkpt>
    <trkpt lat="47.41394" lon="14.32291"><ele>1730</ele></trkpt>
    <trkpt lat="47.41380" lon="14.32283"><ele>1714</ele></trkpt>
    <trkpt lat="47.41381" lon="14.32359"><ele>1747</ele></trkpt>
    <trkpt lat="47.41361" lon="14.32407"><ele>1756</ele></trkpt>
    <trkpt lat="47.41350" lon="14.32434"><ele>1759</ele></trkpt>
    <trkpt lat="47.41343" lon="14.32460"><ele>1763</ele></trkpt>
    <trkpt lat="47.41328" lon="14.32457"><ele>1769</ele></trkpt>
    <trkpt lat="47.41320" lon="14.32486"><ele>1772</ele></trkpt>
    <trkpt lat="47.41309" lon="14.32526"><ele>1793</ele></trkpt>
    <trkpt lat="47.41299" lon="14.32554"><ele>1791</ele></trkpt>
    <trkpt lat="47.41281" lon="14.32594"><ele>1815</ele></trkpt>
    <trkpt lat="47.41271" lon="14.32623"><ele>1814</ele></trkpt>
    <trkpt lat="47.41254" lon="14.32644"><ele>1805</ele></trkpt>
    <trkpt lat="47.41224" lon="14.32670"><ele>1813</ele></trkpt>
    <trkpt lat="47.41206" lon="14.32686"><ele>1815</ele></trkpt>
    <trkpt lat="47.41187" lon="14.32713"><ele>1834</ele></trkpt>
    <trkpt lat="47.41162" lon="14.32699"><ele>1837</ele></trkpt>
    <trkpt lat="47.41142" lon="14.32708"><ele>1851</ele></trkpt>
    <trkpt lat="47.41120" lon="14.32701"><ele>1867</ele></trkpt>
    <trkpt lat="47.41112" lon="14.32694"><ele>1865</ele></trkpt>
    <trkpt lat="47.41105" lon="14.32679"><ele>1867</ele></trkpt>
    <trkpt lat="47.41104" lon="14.32659"><ele>1863</ele></trkpt>
    <trkpt lat="47.41087" lon="14.32646"><ele>1870</ele></trkpt>
    <trkpt lat="47.41078" lon="14.32632"><ele>1880</ele></trkpt>
    <trkpt lat="47.41049" lon="14.32651"><ele>1879</ele></trkpt>
    <trkpt lat="47.41031" lon="14.32664"><ele>1886</ele></trkpt>
    <trkpt lat="47.41013" lon="14.32667"><ele>1878</ele></trkpt>
    <trkpt lat="47.40991" lon="14.32732"><ele>1881</ele></trkpt>
    <trkpt lat="47.40982" lon="14.32760"><ele>1908</ele></trkpt>
    <trkpt lat="47.40968" lon="14.32789"><ele>1917</ele></trkpt>
    <trkpt lat="47.40946" lon="14.32801"><ele>1935</ele></trkpt>
    <trkpt lat="47.40941" lon="14.32789"><ele>1921</ele></trkpt>
    <trkpt lat="47.40896" lon="14.32815"><ele>1941</ele></trkpt>
    <trkpt lat="47.40908" lon="14.32841"><ele>1946</ele></trkpt>
    <trkpt lat="47.40901" lon="14.32861"><ele>1927</ele></trkpt>
    <trkpt lat="47.40906" lon="14.32878"><ele>1945</ele></trkpt>
    <trkpt lat="47.40937" lon="14.32905"><ele>1955</ele></trkpt>
    <trkpt lat="47.40942" lon="14.32945"><ele>1977</ele></trkpt>
    <trkpt lat="47.40913" lon="14.32937"><ele>1956</ele></trkpt>
    <trkpt lat="47.40879" lon="14.32952"><ele>1975</ele></trkpt>
    <trkpt lat="47.40892" lon="14.32968"><ele>1982</ele></trkpt>
    <trkpt lat="47.40896" lon="14.32994"><ele>1941</ele></trkpt>
    <trkpt lat="47.40878" lon="14.33050"><ele>1999</ele></trkpt>
    <trkpt lat="47.40881" lon="14.33065"><ele>2008</ele></trkpt>
    <trkpt lat="47.40864" lon="14.33080"><ele>2012</ele></trkpt>
    <trkpt lat="47.40849" lon="14.33093"><ele>2015</ele></trkpt>
    <trkpt lat="47.40851" lon="14.33112"><ele>2026</ele></trkpt>
    <trkpt lat="47.40849" lon="14.33130"><ele>2029</ele></trkpt>
    <trkpt lat="47.40838" lon="14.33159"><ele>2044</ele></trkpt>
    <trkpt lat="47.40831" lon="14.33180"><ele>2041</ele></trkpt>
    <trkpt lat="47.40848" lon="14.33221"><ele>2051</ele></trkpt>
    <trkpt lat="47.40846" lon="14.33287"><ele>2074</ele></trkpt>
    <trkpt lat="47.40831" lon="14.33308"><ele>2076</ele></trkpt>
    <trkpt lat="47.40835" lon="14.33341"><ele>2091</ele></trkpt>
    <trkpt lat="47.40819" lon="14.33356"><ele>2098</ele></trkpt>
    <trkpt lat="47.40812" lon="14.33365"><ele>2106</ele></trkpt>
    <trkpt lat="47.40795" lon="14.33410"><ele>2119</ele></trkpt>
    <trkpt lat="47.40790" lon="14.33430"><ele>2122</ele></trkpt>
    <trkpt lat="47.40775" lon="14.33479"><ele>2131</ele></trkpt>
    <trkpt lat="47.40752" lon="14.33495"><ele>2150</ele></trkpt>
    <trkpt lat="47.40743" lon="14.33517"><ele>2144</ele></trkpt>
    <trkpt lat="47.40754" lon="14.33545"><ele>2140</ele></trkpt>
    <trkpt lat="47.40747" lon="14.33566"><ele>2154</ele></trkpt>
    <trkpt lat="47.40746" lon="14.33583"><ele>2156</ele></trkpt>
    <trkpt lat="47.40760" lon="14.33577"><ele>2140</ele></trkpt>
    <trkpt lat="47.40748" lon="14.33660"><ele>2176</ele></trkpt>
    <trkpt lat="47.40753" lon="14.33735"><ele>2181</ele></trkpt>
    <trkpt lat="47.40761" lon="14.33741"><ele>2176</ele></trkpt>
    <trkpt lat="47.40740" lon="14.33793"><ele>2173</ele></trkpt>
    <trkpt lat="47.40724" lon="14.33794"><ele>2159</ele></trkpt>
    <trkpt lat="47.40741" lon="14.33826"><ele>2182</ele></trkpt>
    <trkpt lat="47.40746" lon="14.33838"><ele>2175</ele></trkpt>
    <trkpt lat="47.40741" lon="14.33858"><ele>2191</ele></trkpt>
    <trkpt lat="47.40740" lon="14.33899"><ele>2200</ele></trkpt>
    <trkpt lat="47.40735" lon="14.33875"><ele>2193</ele></trkpt>
    <trkpt lat="47.40707" lon="14.33861"><ele>2169</ele></trkpt>
    <trkpt lat="47.40728" lon="14.33861"><ele>2174</ele></trkpt>
    <trkpt lat="47.40745" lon="14.33863"><ele>2180</ele></trkpt>
    <trkpt lat="47.40739" lon="14.33842"><ele>2182</ele></trkpt>
    <trkpt lat="47.40741" lon="14.33859"><ele>2188</ele></trkpt>
    <trkpt lat="47.40766" lon="14.33792"><ele>2168</ele></trkpt>
    <trkpt lat="47.40768" lon="14.33716"><ele>2176</ele></trkpt>
    <trkpt lat="47.40800" lon="14.33668"><ele>2170</ele></trkpt>
    <trkpt lat="47.40891" lon="14.33669"><ele>2141</ele></trkpt>
    <trkpt lat="47.40910" lon="14.33664"><ele>2124</ele></trkpt>
    <trkpt lat="47.40959" lon="14.33738"><ele>2091</ele></trkpt>
    <trkpt lat="47.40961" lon="14.33770"><ele>2078</ele></trkpt>
    <trkpt lat="47.41014" lon="14.33779"><ele>2055</ele></trkpt>
    <trkpt lat="47.41078" lon="14.33746"><ele>2020</ele></trkpt>
    <trkpt lat="47.41117" lon="14.33720"><ele>2000</ele></trkpt>
    <trkpt lat="47.41165" lon="14.33753"><ele>1941</ele></trkpt>
    <trkpt lat="47.41176" lon="14.33773"><ele>1962</ele></trkpt>
    <trkpt lat="47.41193" lon="14.33789"><ele>1927</ele></trkpt>
    <trkpt lat="47.41212" lon="14.33834"><ele>1942</ele></trkpt>
    <trkpt lat="47.41245" lon="14.33910"><ele>1860</ele></trkpt>
    <trkpt lat="47.41292" lon="14.33965"><ele>1835</ele></trkpt>
    <trkpt lat="47.41319" lon="14.33971"><ele>1817</ele></trkpt>
    <trkpt lat="47.41334" lon="14.34000"><ele>1809</ele></trkpt>
    <trkpt lat="47.41456" lon="14.34009"><ele>1753</ele></trkpt>
    <trkpt lat="47.41486" lon="14.34030"><ele>1735</ele></trkpt>
    <trkpt lat="47.41491" lon="14.34016"><ele>1744</ele></trkpt>
    <trkpt lat="47.41507" lon="14.34021"><ele>1775</ele></trkpt>
    <trkpt lat="47.41524" lon="14.33963"><ele>1740</ele></trkpt>
    <trkpt lat="47.41538" lon="14.33948"><ele>1733</ele></trkpt>
    <trkpt lat="47.41571" lon="14.33945"><ele>1758</ele></trkpt>
    <trkpt lat="47.41574" lon="14.33926"><ele>1771</ele></trkpt>
    <trkpt lat="47.41586" lon="14.33923"><ele>1788</ele></trkpt>
    <trkpt lat="47.41599" lon="14.33897"><ele>1809</ele></trkpt>
    <trkpt lat="47.41616" lon="14.33902"><ele>1815</ele></trkpt>
    <trkpt lat="47.41663" lon="14.33878"><ele>1767</ele></trkpt>
    <trkpt lat="47.41674" lon="14.33817"><ele>1771</ele></trkpt>
    <trkpt lat="47.41673" lon="14.33783"><ele>1780</ele></trkpt>
    <trkpt lat="47.41701" lon="14.33772"><ele>1794</ele></trkpt>
    <trkpt lat="47.41722" lon="14.33755"><ele>1810</ele></trkpt>
    <trkpt lat="47.41742" lon="14.33736"><ele>1805</ele></trkpt>
    <trkpt lat="47.41782" lon="14.33751"><ele>1814</ele></trkpt>
    <trkpt lat="47.41795" lon="14.33762"><ele>1786</ele></trkpt>
    <trkpt lat="47.41825" lon="14.33736"><ele>1839</ele></trkpt>
    <trkpt lat="47.41831" lon="14.33748"><ele>1838</ele></trkpt>
    <trkpt lat="47.41874" lon="14.33762"><ele>1852</ele></trkpt>
    <trkpt lat="47.41906" lon="14.33774"><ele>1860</ele></trkpt>
    <trkpt lat="47.41904" lon="14.33751"><ele>1865</ele></trkpt>
    <trkpt lat="47.41930" lon="14.33747"><ele>1876</ele></trkpt>
    <trkpt lat="47.41934" lon="14.33707"><ele>1867</ele></trkpt>
    <trkpt lat="47.41936" lon="14.33680"><ele>1869</ele></trkpt>
    <trkpt lat="47.41937" lon="14.33655"><ele>1876</ele></trkpt>
    <trkpt lat="47.41938" lon="14.33627"><ele>1860</ele></trkpt>
    <trkpt lat="47.41958" lon="14.33564"><ele>1900</ele></trkpt>
    <trkpt lat="47.41965" lon="14.33545"><ele>1907</ele></trkpt>
    <trkpt lat="47.41982" lon="14.33564"><ele>1882</ele></trkpt>
    <trkpt lat="47.41986" lon="14.33511"><ele>1895</ele></trkpt>
    <trkpt lat="47.42008" lon="14.33510"><ele>1889</ele></trkpt>
    <trkpt lat="47.42029" lon="14.33495"><ele>1908</ele></trkpt>
    <trkpt lat="47.42055" lon="14.33478"><ele>1903</ele></trkpt>
    <trkpt lat="47.42072" lon="14.33460"><ele>1942</ele></trkpt>
    <trkpt lat="47.42078" lon="14.33448"><ele>1935</ele></trkpt>
    <trkpt lat="47.42112" lon="14.33439"><ele>1954</ele></trkpt>
    <trkpt lat="47.42126" lon="14.33445"><ele>1950</ele></trkpt>
    <trkpt lat="47.42155" lon="14.33417"><ele>1948</ele></trkpt>
    <trkpt lat="47.42171" lon="14.33414"><ele>1936</ele></trkpt>
    <trkpt lat="47.42202" lon="14.33411"><ele>1954</ele></trkpt>
    <trkpt lat="47.42214" lon="14.33428"><ele>1939</ele></trkpt>
    <trkpt lat="47.42208" lon="14.33379"><ele>1969</ele></trkpt>
    <trkpt lat="47.42209" lon="14.33299"><ele>1980</ele></trkpt>
    <trkpt lat="47.42217" lon="14.33272"><ele>1984</ele></trkpt>
    <trkpt lat="47.42234" lon="14.33235"><ele>1971</ele></trkpt>
    <trkpt lat="47.42242" lon="14.33199"><ele>1991</ele></trkpt>
    <trkpt lat="47.42264" lon="14.33171"><ele>1999</ele></trkpt>
    <trkpt lat="47.42283" lon="14.33182"><ele>1965</ele></trkpt>
    <trkpt lat="47.42281" lon="14.33129"><ele>2006</ele></trkpt>
    <trkpt lat="47.42270" lon="14.33109"><ele>1982</ele></trkpt>
    <trkpt lat="47.42272" lon="14.33067"><ele>2006</ele></trkpt>
    <trkpt lat="47.42268" lon="14.33038"><ele>2014</ele></trkpt>
    <trkpt lat="47.42230" lon="14.33022"><ele>2001</ele></trkpt>
    <trkpt lat="47.42214" lon="14.32985"><ele>2011</ele></trkpt>
    <trkpt lat="47.42189" lon="14.32952"><ele>2006</ele></trkpt>
    <trkpt lat="47.42190" lon="14.32926"><ele>2012</ele></trkpt>
    <trkpt lat="47.42175" lon="14.32912"><ele>2029</ele></trkpt>
    <trkpt lat="47.42170" lon="14.32900"><ele>2022</ele></trkpt>
    <trkpt lat="47.42148" lon="14.32894"><ele>2007</ele></trkpt>
    <trkpt lat="47.42137" lon="14.32888"><ele>2034</ele></trkpt>
    <trkpt lat="47.42121" lon="14.32873"><ele>2014</ele></trkpt>
    <trkpt lat="47.42110" lon="14.32857"><ele>2031</ele></trkpt>
    <trkpt lat="47.42104" lon="14.32841"><ele>2016</ele></trkpt>
    <trkpt lat="47.42069" lon="14.32822"><ele>2030</ele></trkpt>
    <trkpt lat="47.42065" lon="14.32806"><ele>2030</ele></trkpt>
    <trkpt lat="47.42058" lon="14.32790"><ele>2038</ele></trkpt>
    <trkpt lat="47.42045" lon="14.32786"><ele>2026</ele></trkpt>
    <trkpt lat="47.42029" lon="14.32777"><ele>2046</ele></trkpt>
    <trkpt lat="47.42012" lon="14.32775"><ele>2046</ele></trkpt>
    <trkpt lat="47.41994" lon="14.32772"><ele>2045</ele></trkpt>
    <trkpt lat="47.41980" lon="14.32776"><ele>2041</ele></trkpt>
    <trkpt lat="47.41966" lon="14.32777"><ele>2031</ele></trkpt>
    <trkpt lat="47.41954" lon="14.32799"><ele>2036</ele></trkpt>
    <trkpt lat="47.41943" lon="14.32804"><ele>2042</ele></trkpt>
    <trkpt lat="47.41924" lon="14.32820"><ele>2064</ele></trkpt>
    <trkpt lat="47.41917" lon="14.32844"><ele>2058</ele></trkpt>
    <trkpt lat="47.41938" lon="14.32842"><ele>2045</ele></trkpt>
    <trkpt lat="47.41910" lon="14.32864"><ele>2055</ele></trkpt>
    <trkpt lat="47.41931" lon="14.32857"><ele>2068</ele></trkpt>
    <trkpt lat="47.41931" lon="14.32899"><ele>2082</ele></trkpt>
    <trkpt lat="47.41916" lon="14.32916"><ele>2066</ele></trkpt>
    <trkpt lat="47.41897" lon="14.32918"><ele>2077</ele></trkpt>
    <trkpt lat="47.41917" lon="14.32917"><ele>2106</ele></trkpt>
    <trkpt lat="47.41908" lon="14.32901"><ele>2097</ele></trkpt>
    <trkpt lat="47.41904" lon="14.32915"><ele>2101</ele></trkpt>
    <trkpt lat="47.41915" lon="14.32919"><ele>2097</ele></trkpt>
    <trkpt lat="47.41928" lon="14.32884"><ele>2083</ele></trkpt>
    <trkpt lat="47.41927" lon="14.32923"><ele>2108</ele></trkpt>
    <trkpt lat="47.41925" lon="14.32828"><ele>2058</ele></trkpt>
    <trkpt lat="47.41928" lon="14.32694"><ele>1988</ele></trkpt>
    <trkpt lat="47.41944" lon="14.32627"><ele>1945</ele></trkpt>
    <trkpt lat="47.41872" lon="14.32425"><ele>1935</ele></trkpt>
    <trkpt lat="47.41907" lon="14.32333"><ele>1941</ele></trkpt>
    <trkpt lat="47.41924" lon="14.32243"><ele>1935</ele></trkpt>
    <trkpt lat="47.41903" lon="14.32136"><ele>1892</ele></trkpt>
    <trkpt lat="47.41833" lon="14.32096"><ele>1813</ele></trkpt>
    <trkpt lat="47.41834" lon="14.32034"><ele>1824</ele></trkpt>
    <trkpt lat="47.41821" lon="14.32003"><ele>1807</ele></trkpt>
    <trkpt lat="47.41807" lon="14.31941"><ele>1815</ele></trkpt>
    <trkpt lat="47.41763" lon="14.31866"><ele>1746</ele></trkpt>
    <trkpt lat="47.41769" lon="14.31784"><ele>1750</ele></trkpt>
    <trkpt lat="47.41751" lon="14.31759"><ele>1753</ele></trkpt>
    <trkpt lat="47.41736" lon="14.31746"><ele>1741</ele></trkpt>
    <trkpt lat="47.41721" lon="14.31742"><ele>1706</ele></trkpt>
    <trkpt lat="47.41666" lon="14.31723"><ele>1649</ele></trkpt>
    <trkpt lat="47.41671" lon="14.31710"><ele>1660</ele></trkpt>
    <trkpt lat="47.41635" lon="14.31598"><ele>1615</ele></trkpt>
    <trkpt lat="47.41623" lon="14.31623"><ele>1606</ele></trkpt>
    <trkpt lat="47.41574" lon="14.31478"><ele>1518</ele></trkpt>
    <trkpt lat="47.41519" lon="14.31422"><ele>1581</ele></trkpt>
    <trkpt lat="47.41506" lon="14.31398"><ele>1546</ele></trkpt>
    <trkpt lat="47.41505" lon="14.31339"><ele>1552</ele></trkpt>
    <trkpt lat="47.41502" lon="14.31321"><ele>1598</ele></trkpt>
    <trkpt lat="47.41506" lon="14.31144"><ele>1531</ele></trkpt>
    <trkpt lat="47.41395" lon="14.30839"><ele>1489</ele></trkpt>
    <trkpt lat="47.41516" lon="14.30558"><ele>1452</ele></trkpt>
    <trkpt lat="47.41629" lon="14.30294"><ele>1429</ele></trkpt>
    <trkpt lat="47.41699" lon="14.30145"><ele>1484</ele></trkpt>
    <trkpt lat="47.41728" lon="14.30067"><ele>1383</ele></trkpt>
    <trkpt lat="47.41799" lon="14.29865"><ele>1369</ele></trkpt>
    <trkpt lat="47.41829" lon="14.29799"><ele>1342</ele></trkpt>
    <trkpt lat="47.41867" lon="14.29753"><ele>1326</ele></trkpt>
    <trkpt lat="47.41886" lon="14.29750"><ele>1307</ele></trkpt>
    <trkpt lat="47.41903" lon="14.29698"><ele>1306</ele></trkpt>
    <trkpt lat="47.41932" lon="14.29654"><ele>1295</ele></trkpt>
    <trkpt lat="47.41980" lon="14.29665"><ele>1238</ele></trkpt>
    <trkpt lat="47.42002" lon="14.29576"><ele>1218</ele></trkpt>
    <trkpt lat="47.42053" lon="14.29441"><ele>1202</ele></trkpt>
    <trkpt lat="47.42098" lon="14.29304"><ele>1182</ele></trkpt>
    <trkpt lat="47.42131" lon="14.29344"><ele>1206</ele></trkpt>
    <trkpt lat="47.42275" lon="14.29169"><ele>1125</ele></trkpt>
    <trkpt lat="47.42567" lon="14.28886"><ele>1089</ele></trkpt>
    <trkpt lat="47.42673" lon="14.28923"><ele>1074</ele></trkpt>
    <trkpt lat="47.42789" lon="14.28958"><ele>1089</ele></trkpt>
    <trkpt lat="47.42875" lon="14.28965"><ele>1164</ele></trkpt>
    <trkpt lat="47.42869" lon="14.28976"><ele>1127</ele></trkpt>
    <trkpt lat="47.42861" lon="14.29000"><ele>1097</ele></trkpt>
    <trkpt lat="47.42860" lon="14.28983"><ele>1081</ele></trkpt>
    <trkpt lat="47.42863" lon="14.28988"><ele>1091</ele></trkpt>
  </trkseg>
</trk>
</gpx>