<?xml version="1.0" encoding="UTF-8"?>
<gpx version="1.1" creator="Gpx-Optimizer" xmlns="http://www.topografix.com/GPX/1/1">
<trk>
  <name>Ski_Zischken</name>
  <type>skimo</type>
  <trkseg>
    <trkpt lat="47.34437" lon="13.92606"><ele>1018</ele></trkpt>
    <trkpt lat="47.34399" lon="13.92546"><ele>965</ele></trkpt>
    <trkpt lat="47.34359" lon="13.92533"><ele>984</ele></trkpt>
    <trkpt lat="47.34262" lon="13.92489"><ele>999</ele></trkpt>
    <trkpt lat="47.34177" lon="13.92277"><ele>984</ele></trkpt>
    <trkpt lat="47.34115" lon="13.92159"><ele>979</ele></trkpt>
    <trkpt lat="47.34015" lon="13.91993"><ele>1008</ele></trkpt>
    <trkpt lat="47.33979" lon="13.91896"><ele>1022</ele></trkpt>
    <trkpt lat="47.33920" lon="13.91654"><ele>969</ele></trkpt>
    <trkpt lat="47.33926" lon="13.91570"><ele>956</ele></trkpt>
    <trkpt lat="47.33893" lon="13.91446"><ele>972</ele></trkpt>
    <trkpt lat="47.33852" lon="13.91399"><ele>1029</ele></trkpt>
    <trkpt lat="47.33850" lon="13.91301"><ele>1056</ele></trkpt>
    <trkpt lat="47.33837" lon="13.91269"><ele>984</ele></trkpt>
    <trkpt lat="47.33750" lon="13.91026"><ele>1009</ele></trkpt>
    <trkpt lat="47.33688" lon="13.90871"><ele>1026</ele></trkpt>
    <trkpt lat="47.33713" lon="13.90711"><ele>1064</ele></trkpt>
    <trkpt lat="47.33632" lon="13.90551"><ele>1040</ele></trkpt>
    <trkpt lat="47.33528" lon="13.90267"><ele>1053</ele></trkpt>
    <trkpt lat="47.33442" lon="13.90136"><ele>1034</ele></trkpt>
    <trkpt lat="47.33306" lon="13.89902"><ele>1042</ele></trkpt>
    <trkpt lat="47.33225" lon="13.89789"><ele>1034</ele></trkpt>
    <trkpt lat="47.33103" lon="13.89779"><ele>1015</ele></trkpt>
    <trkpt lat="47.33037" lon="13.89639"><ele>1041</ele></trkpt>
    <trkpt lat="47.32954" lon="13.89501"><ele>999</ele></trkpt>
    <trkpt lat="47.32843" lon="13.89450"><ele>1038</ele></trkpt>
    <trkpt lat="47.32649" lon="13.89341"><ele>1043</ele></trkpt>
    <trkpt lat="47.32530" lon="13.89271"><ele>1033</ele></trkpt>
    <trkpt lat="47.32485" lon="13.89240"><ele>982</ele></trkpt>
    <trkpt lat="47.32307" lon="13.89098"><ele>1068</ele></trkpt>
    <trkpt lat="47.32235" lon="13.89071"><ele>1057</ele></trkpt>
    <trkpt lat="47.32114" lon="13.89065"><ele>1039</ele></trkpt>
    <trkpt lat="47.32007" lon="13.89033"><ele>1051</ele></trkpt>
    <trkpt lat="47.31769" lon="13.89008"><ele>1035</ele></trkpt>
    <trkpt lat="47.31677" lon="13.88946"><ele>1063</ele></trkpt>
    <trkpt lat="47.31508" lon="13.88731"><ele>978</ele></trkpt>
    <trkpt lat="47.31454" lon="13.88650"><ele>1049</ele></trkpt>
    <trkpt lat="47.31380" lon="13.88655"><ele>1109</ele></trkpt>
    <trkpt lat="47.31287" lon="13.88685"><ele>1072</ele></trkpt>
    <trkpt lat="47.31210" lon="13.88626"><ele>1103</ele></trkpt>
    <trkpt lat="47.31119" lon="13.88584"><ele>1074</ele></trkpt>
    <trkpt lat="47.31037" lon="13.88554"><ele>1065</ele></trkpt>
    <trkpt lat="47.30954" lon="13.88508"><ele>1083</ele></trkpt>
    <trkpt lat="47.30806" lon="13.88517"><ele>1107</ele></trkpt>
    <trkpt lat="47.30698" lon="13.88506"><ele>1057</ele></trkpt>
    <trkpt lat="47.30639" lon="13.88433"><ele>1096</ele></trkpt>
    <trkpt lat="47.30552" lon="13.88430"><ele>1099</ele></trkpt>
    <trkpt lat="47.30436" lon="13.88372"><ele>1089</ele></trkpt>
    <trkpt lat="47.30349" lon="13.88350"><ele>1097</ele></trkpt>
    <trkpt lat="47.30207" lon="13.88229"><ele>1079</ele></trkpt>
    <trkpt lat="47.30158" lon="13.88169"><ele>1095</ele></trkpt>
    <trkpt lat="47.30086" lon="13.88079"><ele>1132</ele></trkpt>
    <trkpt lat="47.30040" lon="13.88001"><ele>1113</ele></trkpt>
    <trkpt lat="47.29976" lon="13.87961"><ele>1101</ele></trkpt>
    <trkpt lat="47.29929" lon="13.87893"><ele>1124</ele></trkpt>
    <trkpt lat="47.29824" lon="13.87846"><ele>1116</ele></trkpt>
    <trkpt lat="47.29786" lon="13.87827"><ele>1137</ele></trkpt>
    <trkpt lat="47.29714" lon="13.87786"><ele>1143</ele></trkpt>
    <trkpt lat="47.29698" lon="13.87791"><ele>1164</ele></trkpt>
    <trkpt lat="47.29691" lon="13.87781"><ele>1157</ele></trkpt>
    <trkpt lat="47.29670" lon="13.87763"><ele>1167</ele></trkpt>
    <trkpt lat="47.29647" lon="13.87689"><ele>1158</ele></trkpt>
    <trkpt lat="47.29608" lon="13.87630"><ele>1184</ele></trkpt>
    <trkpt lat="47.29573" lon="13.87618"><ele>1174</ele></trkpt>
    <trkpt lat="47.29537" lon="13.87560"><ele>1185</ele></trkpt>
    <trkpt lat="47.29496" lon="13.87575"><ele>1168</ele></trkpt>
    <trkpt lat="47.29424" lon="13.87548"><ele>1195</ele></trkpt>
    <trkpt lat="47.29401" lon="13.87531"><ele>1187</ele></trkpt>
    <trkpt lat="47.29394" lon="13.87540"><ele>1185</ele></trkpt>
    <trkpt lat="47.29345" lon="13.87565"><ele>1151</ele></trkpt>
    <trkpt lat="47.29322" lon="13.87557"><ele>1159</ele></trkpt>
    <trkpt lat="47.29255" lon="13.87600"><ele>1180</ele></trkpt>
    <trkpt lat="47.29256" lon="13.87566"><ele>1186</ele></trkpt>
    <trkpt lat="47.29174" lon="13.87517"><ele>1175</ele></trkpt>
    <trkpt lat="47.29154" lon="13.87487"><ele>1173</ele></trkpt>
    <trkpt lat="47.29126" lon="13.87443"><ele>1187</ele></trkpt>
    <trkpt lat="47.29109" lon="13.87443"><ele>1156</ele></trkpt>
    <trkpt lat="47.29071" lon="13.87421"><ele>1173</ele></trkpt>
    <trkpt lat="47.29005" lon="13.87427"><ele>1194</ele></trkpt>
    <trkpt lat="47.28965" lon="13.87481"><ele>1178</ele></trkpt>
    <trkpt lat="47.28921" lon="13.87483"><ele>1182</ele></trkpt>
    <trkpt lat="47.28900" lon="13.87482"><ele>1158</ele></trkpt>
    <trkpt lat="47.28863" lon="13.87464"><ele>1164</ele></trkpt>
    <trkpt lat="47.28877" lon="13.87454"><ele>1169</ele></trkpt>
    <trkpt lat="47.28874" lon="13.87427"><ele>1196</ele></trkpt>
    <trkpt lat="47.28854" lon="13.87391"><ele>1172</ele></trkpt>
    <trkpt lat="47.28801" lon="13.87362"><ele>1203</ele></trkpt>
    <trkpt lat="47.28820" lon="13.87309"><ele>1195</ele></trkpt>
    <trkpt lat="47.28792" lon="13.87248"><ele>1190</ele></trkpt>
    <trkpt lat="47.28779" lon="13.87258"><ele>1167</ele></trkpt>
    <trkpt lat="47.28752" lon="13.87189"><ele>1186</ele></trkpt>
    <trkpt lat="47.28724" lon="13.87174"><ele>1188</ele></trkpt>
    <trkpt lat="47.28704" lon="13.87111"><ele>1191</ele></trkpt>
    <trkpt lat="47.28694" lon="13.87089"><ele>1176</ele></trkpt>
    <trkpt lat="47.28693" lon="13.87036"><ele>1185</ele></trkpt>
    <trkpt lat="47.28664" lon="13.86996"><ele>1150</ele></trkpt>
    <trkpt lat="47.28657" lon="13.86936"><ele>1193</ele></trkpt>
    <trkpt lat="47.28661" lon="13.86915"><ele>1173</ele></trkpt>
    <trkpt lat="47.28626" lon="13.86907"><ele>1175</ele></trkpt>
    <trkpt lat="47.28621" lon="13.86881"><ele>1175</ele></trkpt>
    <trkpt lat="47.28606" lon="13.86894"><ele>1116</ele></trkpt>
    <trkpt lat="47.28552" lon="13.86849"><ele>1166</ele></trkpt>
    <trkpt lat="47.28501" lon="13.86747"><ele>1169</ele></trkpt>
    <trkpt lat="47.28456" lon="13.86766"><ele>1187</ele></trkpt>
    <trkpt lat="47.28358" lon="13.86695"><ele>1187</ele></trkpt>
    <trkpt lat="47.28318" lon="13.86658"><ele>1172</ele></trkpt>
    <trkpt lat="47.28277" lon="13.86665"><ele>1180</ele></trkpt>
    <trkpt lat="47.28223" lon="13.86664"><ele>1189</ele></trkpt>
    <trkpt lat="47.28199" lon="13.86669"><ele>1218</ele></trkpt>
    <trkpt lat="47.28166" lon="13.86685"><ele>1209</ele></trkpt>
    <trkpt lat="47.28117" lon="13.86692"><ele>1192</ele></trkpt>
    <trkpt lat="47.28013" lon="13.86644"><ele>1220</ele></trkpt>
    <trkpt lat="47.27951" lon="13.86623"><ele>1218</ele></trkpt>
    <trkpt lat="47.27868" lon="13.86544"><ele>1266</ele></trkpt>
    <trkpt lat="47.27792" lon="13.86410"><ele>1268</ele></trkpt>
    <trkpt lat="47.27771" lon="13.86390"><ele>1297</ele></trkpt>
    <trkpt lat="47.27773" lon="13.86412"><ele>1307</ele></trkpt>
    <trkpt lat="47.27763" lon="13.86393"><ele>1295</ele></trkpt>
    <trkpt lat="47.27743" lon="13.86367"><ele>1340</ele></trkpt>
    <trkpt lat="47.27708" lon="13.86286"><ele>1300</ele></trkpt>
    <trkpt lat="47.27677" lon="13.86226"><ele>1312</ele></trkpt>
    <trkpt lat="47.27655" lon="13.86198"><ele>1304</ele></trkpt>
    <trkpt lat="47.27644" lon="13.86176"><ele>1344</ele></trkpt>
    <trkpt lat="47.27583" lon="13.86018"><ele>1324</ele></trkpt>
    <trkpt lat="47.27536" lon="13.86011"><ele>1287</ele></trkpt>
    <trkpt lat="47.27529" lon="13.86001"><ele>1333</ele></trkpt>
    <trkpt lat="47.27492" lon="13.85942"><ele>1316</ele></trkpt>
    <trkpt lat="47.27457" lon="13.85937"><ele>1374</ele></trkpt>
    <trkpt lat="47.27425" lon="13.85888"><ele>1359</ele></trkpt>
    <trkpt lat="47.27403" lon="13.85851"><ele>1362</ele></trkpt>
    <trkpt lat="47.27385" lon="13.85861"><ele>1372</ele></trkpt>
    <trkpt lat="47.27376" lon="13.85839"><ele>1355</ele></trkpt>
    <trkpt lat="47.27343" lon="13.85807"><ele>1333</ele></trkpt>
    <trkpt lat="47.27319" lon="13.85771"><ele>1356</ele></trkpt>
    <trkpt lat="47.27302" lon="13.85775"><ele>1371</ele></trkpt>
    <trkpt lat="47.27261" lon="13.85723"><ele>1350</ele></trkpt>
    <trkpt lat="47.27248" lon="13.85713"><ele>1381</ele></trkpt>
    <trkpt lat="47.27234" lon="13.85697"><ele>1380</ele></trkpt>
    <trkpt lat="47.27202" lon="13.85608"><ele>1404</ele></trkpt>
    <trkpt lat="47.27190" lon="13.85604"><ele>1391</ele></trkpt>
    <trkpt lat="47.27183" lon="13.85586"><ele>1427</ele></trkpt>
    <trkpt lat="47.27156" lon="13.85565"><ele>1392</ele></trkpt>
    <trkpt lat="47.27149" lon="13.85552"><ele>1418</ele></trkpt>
    <trkpt lat="47.27126" lon="13.85557"><ele>1460</ele></trkpt>
    <trkpt lat="47.27115" lon="13.85551"><ele>1466</ele></trkpt>
    <trkpt lat="47.27106" lon="13.85544"><ele>1439</ele></trkpt>
    <trkpt lat="47.27073" lon="13.85516"><ele>1446</ele></trkpt>
    <trkpt lat="47.27053" lon="13.85511"><ele>1435</ele></trkpt>
    <trkpt lat="47.27040" lon="13.85482"><ele>1439</ele></trkpt>
    <trkpt lat="47.27031" lon="13.85446"><ele>1496</ele></trkpt>
    <trkpt lat="47.27032" lon="13.85377"><ele>1444</ele></trkpt>
    <trkpt lat="47.27004" lon="13.85350"><ele>1520</ele></trkpt>
    <trkpt lat="47.27012" lon="13.85295"><ele>1576</ele></trkpt>
    <trkpt lat="47.27018" lon="13.85279"><ele>1482</ele></trkpt>
    <trkpt lat="47.27040" lon="13.85238"><ele>1526</ele></trkpt>
    <trkpt lat="47.27043" lon="13.85210"><ele>1521</ele></trkpt>
    <trkpt lat="47.27048" lon="13.85170"><ele>1569</ele></trkpt>
    <trkpt lat="47.27055" lon="13.85151"><ele>1574</ele></trkpt>
    <trkpt lat="47.27050" lon="13.85123"><ele>1615</ele></trkpt>
    <trkpt lat="47.27022" lon="13.85113"><ele>1584</ele></trkpt>
    <trkpt lat="47.27021" lon="13.85076"><ele>1616</ele></trkpt>
    <trkpt lat="47.27002" lon="13.85096"><ele>1615</ele></trkpt>
    <trkpt lat="47.26989" lon="13.85034"><ele>1668</ele></trkpt>
    <trkpt lat="47.27002" lon="13.85013"><ele>1611</ele></trkpt>
    <trkpt lat="47.27014" lon="13.85004"><ele>1647</ele></trkpt>
    <trkpt lat="47.27013" lon="13.84986"><ele>1693</ele></trkpt>
    <trkpt lat="47.27010" lon="13.84970"><ele>1670</ele></trkpt>
    <trkpt lat="47.27029" lon="13.84943"><ele>1687</ele></trkpt>
    <trkpt lat="47.27040" lon="13.84916"><ele>1673</ele></trkpt>
    <trkpt lat="47.27027" lon="13.84901"><ele>1694</ele></trkpt>
    <trkpt lat="47.27014" lon="13.84880"><ele>1709</ele></trkpt>
    <trkpt lat="47.26997" lon="13.84887"><ele>1717</ele></trkpt>
    <trkpt lat="47.26975" lon="13.84866"><ele>1711</ele></trkpt>
    <trkpt lat="47.26968" lon="13.84850"><ele>1714</ele></trkpt>
    <trkpt lat="47.26958" lon="13.84789"><ele>1772</ele></trkpt>
    <trkpt lat="47.26967" lon="13.84745"><ele>1784</ele></trkpt>
    <trkpt lat="47.26983" lon="13.84735"><ele>1774</ele></trkpt>
    <trkpt lat="47.27000" lon="13.84721"><ele>1780</ele></trkpt>
    <trkpt lat="47.27012" lon="13.84726"><ele>1786</ele></trkpt>
    <trkpt lat="47.27025" lon="13.84725"><ele>1792</ele></trkpt>
    <trkpt lat="47.27032" lon="13.84692"><ele>1796</ele></trkpt>
    <trkpt lat="47.27026" lon="13.84650"><ele>1814</ele></trkpt>
    <trkpt lat="47.27011" lon="13.84640"><ele>1808</ele></trkpt>
    <trkpt lat="47.27008" lon="13.84599"><ele>1821</ele></trkpt>
    <trkpt lat="47.27007" lon="13.84579"><ele>1839</ele></trkpt>
    <trkpt lat="47.27016" lon="13.84572"><ele>1829</ele></trkpt>
    <trkpt lat="47.27035" lon="13.84541"><ele>1863</ele></trkpt>
    <trkpt lat="47.27061" lon="13.84477"><ele>1883</ele></trkpt>
    <trkpt lat="47.27086" lon="13.84450"><ele>1891</ele></trkpt>
    <trkpt lat="47.27112" lon="13.84417"><ele>1891</ele></trkpt>
    <trkpt lat="47.27128" lon="13.84384"><ele>1902</ele></trkpt>
    <trkpt lat="47.27147" lon="13.84323"><ele>1914</ele></trkpt>
    <trkpt lat="47.27163" lon="13.84297"><ele>1926</ele></trkpt>
    <trkpt lat="47.27186" lon="13.84268"><ele>1903</ele></trkpt>
    <trkpt lat="47.27178" lon="13.84220"><ele>1927</ele></trkpt>
    <trkpt lat="47.27188" lon="13.84213"><ele>1940</ele></trkpt>
    <trkpt lat="47.27202" lon="13.84187"><ele>1957</ele></trkpt>
    <trkpt lat="47.27226" lon="13.84186"><ele>1958</ele></trkpt>
    <trkpt lat="47.27244" lon="13.84171"><ele>1960</ele></trkpt>
    <trkpt lat="47.27251" lon="13.84153"><ele>1952</ele></trkpt>
    <trkpt lat="47.27260" lon="13.84102"><ele>1978</ele></trkpt>
    <trkpt lat="47.27253" lon="13.84085"><ele>1968</ele></trkpt>
    <trkpt lat="47.27253" lon="13.84021"><ele>1970</ele></trkpt>
    <trkpt lat="47.27251" lon="13.83998"><ele>2003</ele></trkpt>
    <trkpt lat="47.27264" lon="13.83971"><ele>1997</ele></trkpt>
    <trkpt lat="47.27262" lon="13.83954"><ele>1998</ele></trkpt>
    <trkpt lat="47.27264" lon="13.83935"><ele>2029</ele></trkpt>
    <trkpt lat="47.27264" lon="13.83918"><ele>2027</ele></trkpt>
    <trkpt lat="47.27268" lon="13.83906"><ele>2086</ele></trkpt>
    <trkpt lat="47.27256" lon="13.83840"><ele>2027</ele></trkpt>
    <trkpt lat="47.27262" lon="13.83823"><ele>2091</ele></trkpt>
    <trkpt lat="47.27275" lon="13.83795"><ele>2063</ele></trkpt>
    <trkpt lat="47.27282" lon="13.83772"><ele>2076</ele></trkpt>
    <trkpt lat="47.27282" lon="13.83731"><ele>2069</ele></trkpt>
    <trkpt lat="47.27275" lon="13.83717"><ele>2087</ele></trkpt>
    <trkpt lat="47.27271" lon="13.83694"><ele>2087</ele></trkpt>
    <trkpt lat="47.27281" lon="13.83676"><ele>2094</ele></trkpt>
    <trkpt lat="47.27296" lon="13.83628"><ele>2098</ele></trkpt>
    <trkpt lat="47.27301" lon="13.83603"><ele>2071</ele></trkpt>
    <trkpt lat="47.27307" lon="13.83553"><ele>2131</ele></trkpt>
    <trkpt lat="47.27314" lon="13.83502"><ele>2141</ele></trkpt>
    <trkpt lat="47.27308" lon="13.83460"><ele>2168</ele></trkpt>
    <trkpt lat="47.27298" lon="13.83426"><ele>2166</ele></trkpt>
    <trkpt lat="47.27284" lon="13.83401"><ele>2167</ele></trkpt>
    <trkpt lat="47.27249" lon="13.83376"><ele>2183</ele></trkpt>
    <trkpt lat="47.27220" lon="13.83366"><ele>2213</ele></trkpt>
    <trkpt lat="47.27203" lon="13.83374"><ele>2213</ele></trkpt>
    <trkpt lat="47.27188" lon="13.83390"><ele>2239</ele></trkpt>
    <trkpt lat="47.27170" lon="13.83377"><ele>2219</ele></trkpt>
    <trkpt lat="47.27169" lon="13.83352"><ele>2228</ele></trkpt>
    <trkpt lat="47.27165" lon="13.83326"><ele>2223</ele></trkpt>
    <trkpt lat="47.27138" lon="13.83267"><ele>2236</ele></trkpt>
    <trkpt lat="47.27121" lon="13.83251"><ele>2253</ele></trkpt>
    <trkpt lat="47.27103" lon="13.83229"><ele>2259</ele></trkpt>
    <trkpt lat="47.27091" lon="13.83225"><ele>2256</ele></trkpt>
    <trkpt lat="47.27064" lon="13.83198"><ele>2267</ele></trkpt>
    <trkpt lat="47.27061" lon="13.83175"><ele>2265</ele></trkpt>
    <trkpt lat="47.27030" lon="13.83122"><ele>2283</ele></trkpt>
    <trkpt lat="47.27027" lon="13.83082"><ele>2300</ele></trkpt>
    <trkpt lat="47.27018" lon="13.83044"><ele>2320</ele></trkpt>
    <trkpt lat="47.26991" lon="13.82971"><ele>2320</ele></trkpt>
    <trkpt lat="47.26973" lon="13.82949"><ele>2316</ele></trkpt>
    <trkpt lat="47.26970" lon="13.82930"><ele>2287</ele></trkpt>
    <trkpt lat="47.26970" lon="13.82897"><ele>2336</ele></trkpt>
    <trkpt lat="47.26977" lon="13.82836"><ele>2320</ele></trkpt>
    <trkpt lat="47.26997" lon="13.82835"><ele>2305</ele></trkpt>
    <trkpt lat="47.27006" lon="13.82781"><ele>2334</ele></trkpt>
    <trkpt lat="47.27015" lon="13.82761"><ele>2341</ele></trkpt>
    <trkpt lat="47.27018" lon="13.82736"><ele>2377</ele></trkpt>
    <trkpt lat="47.27028" lon="13.82718"><ele>2366</ele></trkpt>
    <trkpt lat="47.27045" lon="13.82678"><ele>2369</ele></trkpt>
    <trkpt lat="47.27047" lon="13.82664"><ele>2328</ele></trkpt>
    <trkpt lat="47.27049" lon="13.82643"><ele>2366</ele></trkpt>
    <trkpt lat="47.27043" lon="13.82629"><ele>2335</ele></trkpt>
    <trkpt lat="47.27029" lon="13.82625"><ele>2372</ele></trkpt>
    <trkpt lat="47.27016" lon="13.82619"><ele>2375</ele></trkpt>
    <trkpt lat="47.27013" lon="13.82603"><ele>2365</ele></trkpt>
    <trkpt lat="47.27022" lon="13.82564"><ele>2459</ele></trkpt>
    <trkpt lat="47.26996" lon="13.82481"><ele>2432</ele></trkpt>
    <trkpt lat="47.26998" lon="13.82467"><ele>2404</ele></trkpt>
    <trkpt lat="47.27005" lon="13.82407"><ele>2381</ele></trkpt>
    <trkpt lat="47.26987" lon="13.82393"><ele>2433</ele></trkpt>
    <trkpt lat="47.26973" lon="13.82342"><ele>2533</ele></trkpt>
    <trkpt lat="47.26960" lon="13.82313"><ele>2535</ele></trkpt>
    <trkpt lat="47.26949" lon="13.82314"><ele>2546</ele></trkpt>
    <trkpt lat="47.26944" lon="13.82277"><ele>2577</ele></trkpt>
    <trkpt lat="47.26935" lon="13.82267"><ele>2580</ele></trkpt>
    <trkpt lat="47.26931" lon="13.82243"><ele>2572</ele></trkpt>
    <trkpt lat="47.26929" lon="13.82229"><ele>2547</ele></trkpt>
    <trkpt lat="47.26892" lon="13.82245"><ele>2652</ele></trkpt>
    <trkpt lat="47.26905" lon="13.82225"><ele>2637</ele></trkpt>
    <trkpt lat="47.26894" lon="13.82226"><ele>2627</ele></trkpt>
    <trkpt lat="47.26867" lon="13.82221"><ele>2657</ele></trkpt>
    <trkpt lat="47.26869" lon="13.82234"><ele>2625</ele></trkpt>
    <trkpt lat="47.26901" lon="13.82217"><ele>2636</ele></trkpt>
    <trkpt lat="47.26912" lon="13.82220"><ele>2629</ele></trkpt>
    <trkpt lat="47.26910" lon="13.82316"><ele>2594</ele></trkpt>
    <trkpt lat="47.26913" lon="13.82329"><ele>2385</ele></trkpt>
    <trkpt lat="47.26854" lon="13.82537"><ele>2420</ele></trkpt>
    <trkpt lat="47.26857" lon="13.82651"><ele>2344</ele></trkpt>
    <trkpt lat="47.26891" lon="13.82838"><ele>2341</ele></trkpt>
    <trkpt lat="47.26879" lon="13.82909"><ele>2435</ele></trkpt>
    <trkpt lat="47.26889" lon="13.83001"><ele>2337</ele></trkpt>
    <trkpt lat="47.26817" lon="13.83158"><ele>2288</ele></trkpt>
    <trkpt lat="47.26761" lon="13.83475"><ele>2269</ele></trkpt>
    <trkpt lat="47.26626" lon="13.83863"><ele>2181</ele></trkpt>
    <trkpt lat="47.26639" lon="13.83895"><ele>2191</ele></trkpt>
    <trkpt lat="47.26671" lon="13.84011"><ele>2133</ele></trkpt>
    <trkpt lat="47.26655" lon="13.84140"><ele>2108</ele></trkpt>
    <trkpt lat="47.26557" lon="13.84209"><ele>2087</ele></trkpt>
    <trkpt lat="47.26623" lon="13.84339"><ele>2045</ele></trkpt>
    <trkpt lat="47.26634" lon="13.84373"><ele>2012</ele></trkpt>
    <trkpt lat="47.26636" lon="13.84387"><ele>2028</ele></trkpt>
    <trkpt lat="47.26654" lon="13.84594"><ele>2093</ele></trkpt>
    <trkpt lat="47.26652" lon="13.84614"><ele>1914</ele></trkpt>
    <trkpt lat="47.26673" lon="13.84688"><ele>1943</ele></trkpt>
    <trkpt lat="47.26688" lon="13.84732"><ele>1901</ele></trkpt>
    <trkpt lat="47.26719" lon="13.84877"><ele>1871</ele></trkpt>
    <trkpt lat="47.26758" lon="13.84969"><ele>1798</ele></trkpt>
    <trkpt lat="47.26706" lon="13.85058"><ele>1785</ele></trkpt>
    <trkpt lat="47.26722" lon="13.85106"><ele>1779</ele></trkpt>
    <trkpt lat="47.26770" lon="13.85345"><ele>1665</ele></trkpt>
    <trkpt lat="47.26824" lon="13.85505"><ele>1630</ele></trkpt>
    <trkpt lat="47.26835" lon="13.85574"><ele>1594</ele></trkpt>
    <trkpt lat="47.26869" lon="13.85588"><ele>1580</ele></trkpt>
    <trkpt lat="47.26926" lon="13.85586"><ele>1604</ele></trkpt>
    <trkpt lat="47.26996" lon="13.85629"><ele>1506</ele></trkpt>
    <trkpt lat="47.27017" lon="13.85579"><ele>1493</ele></trkpt>
    <trkpt lat="47.27051" lon="13.85583"><ele>1540</ele></trkpt>
    <trkpt lat="47.27226" lon="13.85719"><ele>1328</ele></trkpt>
    <trkpt lat="47.27259" lon="13.85783"><ele>1313</ele></trkpt>
    <trkpt lat="47.27349" lon="13.85894"><ele>1288</ele></trkpt>
    <trkpt lat="47.27723" lon="13.86303"><ele>1306</ele></trkpt>
    <trkpt lat="47.27836" lon="13.86514"><ele>1247</ele></trkpt>
    <trkpt lat="47.27936" lon="13.86619"><ele>1153</ele></trkpt>
    <trkpt lat="47.28143" lon="13.86665"><ele>1161</ele></trkpt>
    <trkpt lat="47.28172" lon="13.86606"><ele>1093</ele></trkpt>
    <trkpt lat="47.28185" lon="13.86638"><ele>1090</ele></trkpt>
    <trkpt lat="47.28456" lon="13.86746"><ele>1222</ele></trkpt>
    <trkpt lat="47.28475" lon="13.86769"><ele>1174</ele></trkpt>
    <trkpt lat="47.28557" lon="13.86878"><ele>1126</ele></trkpt>
    <trkpt lat="47.28567" lon="13.86885"><ele>1128</ele></trkpt>
    <trkpt lat="47.28589" lon="13.86924"><ele>1116</ele></trkpt>
    <trkpt lat="47.28663" lon="13.86941"><ele>1207</ele></trkpt>
    <trkpt lat="47.28673" lon="13.87004"><ele>1192</ele></trkpt>
    <trkpt lat="47.28687" lon="13.87062"><ele>1159</ele></trkpt>
    <trkpt lat="47.28738" lon="13.87076"><ele>1225</ele></trkpt>
    <trkpt lat="47.28730" lon="13.87122"><ele>1218</ele></trkpt>
    <trkpt lat="47.28721" lon="13.87154"><ele>1174</ele></trkpt>
    <trkpt lat="47.28778" lon="13.87199"><ele>1200</ele></trkpt>
    <trkpt lat="47.28773" lon="13.87222"><ele>1169</ele></trkpt>
    <trkpt lat="47.28794" lon="13.87254"><ele>1180</ele></trkpt>
    <trkpt lat="47.28851" lon="13.87345"><ele>1218</ele></trkpt>
    <trkpt lat="47.28847" lon="13.87393"><ele>1134</ele></trkpt>
    <trkpt lat="47.28896" lon="13.87425"><ele>1132</ele></trkpt>
    <trkpt lat="47.28925" lon="13.87444"><ele>1204</ele></trkpt>
    <trkpt lat="47.28944" lon="13.87479"><ele>1193</ele></trkpt>
    <trkpt lat="47.28958" lon="13.87453"><ele>1141</ele></trkpt>
    <trkpt lat="47.28988" lon="13.87492"><ele>1048</ele></trkpt>
    <trkpt lat="47.29012" lon="13.87435"><ele>1177</ele></trkpt>
    <trkpt lat="47.29094" lon="13.87419"><ele>1217</ele></trkpt>
    <trkpt lat="47.29131" lon="13.87443"><ele>1202</ele></trkpt>
    <trkpt lat="47.29127" lon="13.87467"><ele>1147</ele></trkpt>
    <trkpt lat="47.29186" lon="13.87477"><ele>1131</ele></trkpt>
    <trkpt lat="47.29172" lon="13.87537"><ele>1156</ele></trkpt>
    <trkpt lat="47.29227" lon="13.87567"><ele>1186</ele></trkpt>
    <trkpt lat="47.29238" lon="13.87608"><ele>1192</ele></trkpt>
    <trkpt lat="47.29259" lon="13.87598"><ele>1169</ele></trkpt>
    <trkpt lat="47.29272" lon="13.87550"><ele>1058</ele></trkpt>
    <trkpt lat="47.29332" lon="13.87567"><ele>1135</ele></trkpt>
    <trkpt lat="47.29361" lon="13.87560"><ele>1146</ele></trkpt>
    <trkpt lat="47.29396" lon="13.87542"><ele>1149</ele></trkpt>
    <trkpt lat="47.29466" lon="13.87567"><ele>1229</ele></trkpt>
    <trkpt lat="47.29501" lon="13.87562"><ele>1228</ele></trkpt>
    <trkpt lat="47.29544" lon="13.87577"><ele>1187</ele></trkpt>
    <trkpt lat="47.29678" lon="13.87714"><ele>1170</ele></trkpt>
    <trkpt lat="47.29698" lon="13.87778"><ele>1166</ele></trkpt>
    <trkpt lat="47.29685" lon="13.87772"><ele>1181</ele></trkpt>
    <trkpt lat="47.29680" lon="13.87759"><ele>1143</ele></trkpt>
    <trkpt lat="47.29689" lon="13.87774"><ele>1137</ele></trkpt>
    <trkpt lat="47.29698" lon="13.87779"><ele>1132</ele></trkpt>
    <trkpt lat="47.29705" lon="13.87766"><ele>1144</ele></trkpt>
    <trkpt lat="47.29717" lon="13.87776"><ele>1160</ele></trkpt>
    <trkpt lat="47.29811" lon="13.87823"><ele>1163</ele></trkpt>
    <trkpt lat="47.30030" lon="13.87987"><ele>1140</ele></trkpt>
    <trkpt lat="47.30096" lon="13.88066"><ele>983</ele></trkpt>
    <trkpt lat="47.30085" lon="13.88095"><ele>1160</ele></trkpt>
    <trkpt lat="47.30130" lon="13.88107"><ele>1137</ele></trkpt>
    <trkpt lat="47.30229" lon="13.88236"><ele>1105</ele></trkpt>
    <trkpt lat="47.30309" lon="13.88365"><ele>1104</ele></trkpt>
    <trkpt lat="47.30435" lon="13.88342"><ele>1082</ele></trkpt>
    <trkpt lat="47.30578" lon="13.88431"><ele>1107</ele></trkpt>
    <trkpt lat="47.30690" lon="13.88480"><ele>1100</ele></trkpt>
    <trkpt lat="47.30810" lon="13.88533"><ele>1097</ele></trkpt>
    <trkpt lat="47.30921" lon="13.88498"><ele>1081</ele></trkpt>
    <trkpt lat="47.31014" lon="13.88543"><ele>1078</ele></trkpt>
    <trkpt lat="47.31099" lon="13.88582"><ele>1075</ele></trkpt>
    <trkpt lat="47.31181" lon="13.88649"><ele>1087</ele></trkpt>
    <trkpt lat="47.31280" lon="13.88694"><ele>1088</ele></trkpt>
    <trkpt lat="47.31475" lon="13.88655"><ele>1094</ele></trkpt>
    <trkpt lat="47.31586" lon="13.88729"><ele>1075</ele></trkpt>
    <trkpt lat="47.31640" lon="13.88843"><ele>1090</ele></trkpt>
    <trkpt lat="47.31673" lon="13.88921"><ele>1071</ele></trkpt>
    <trkpt lat="47.31808" lon="13.89027"><ele>1038</ele></trkpt>
    <trkpt lat="47.31885" lon="13.88994"><ele>1017</ele></trkpt>
    <trkpt lat="47.32042" lon="13.89016"><ele>1077</ele></trkpt>
    <trkpt lat="47.32142" lon="13.89041"><ele>1072</ele></trkpt>
    <trkpt lat="47.32215" lon="13.89104"><ele>1078</ele></trkpt>
    <trkpt lat="47.32275" lon="13.89101"><ele>1060</ele></trkpt>
    <trkpt lat="47.32425" lon="13.89169"><ele>1057</ele></trkpt>
    <trkpt lat="47.32530" lon="13.89246"><ele>1060</ele></trkpt>
    <trkpt lat="47.32568" lon="13.89316"><ele>1059</ele></trkpt>
    <trkpt lat="47.32662" lon="13.89337"><ele>1059</ele></trkpt>
    <trkpt lat="47.32753" lon="13.89384"><ele>1040</ele></trkpt>
    <trkpt lat="47.32887" lon="13.89444"><ele>1055</ele></trkpt>
    <trkpt lat="47.33045" lon="13.89559"><ele>1077</ele></trkpt>
    <trkpt lat="47.33152" lon="13.89750"><ele>1065</ele></trkpt>
    <trkpt lat="47.33195" lon="13.89762"><ele>1027</ele></trkpt>
    <trkpt lat="47.33305" lon="13.89893"><ele>1041</ele></trkpt>
    <trkpt lat="47.33427" lon="13.89977"><ele>1089</ele></trkpt>
    <trkpt lat="47.33554" lon="13.90250"><ele>1030</ele></trkpt>
    <trkpt lat="47.33646" lon="13.90561"><ele>1042</ele></trkpt>
    <trkpt lat="47.33703" lon="13.90693"><ele>1011</ele></trkpt>
    <trkpt lat="47.33715" lon="13.90862"><ele>1043</ele></trkpt>
    <trkpt lat="47.33731" lon="13.91011"><ele>1026</ele></trkpt>
    <trkpt lat="47.33826" lon="13.91145"><ele>1019</ele></trkpt>
    <trkpt lat="47.33864" lon="13.91367"><ele>1030</ele></trkpt>
    <trkpt lat="47.33949" lon="13.91675"><ele>1014</ele></trkpt>
    <trkpt lat="47.33981" lon="13.91946"><ele>1010</ele></trkpt>
    <trkpt lat="47.34106" lon="13.92161"><ele>983</ele></trkpt>
    <trkpt lat="47.34275" lon="13.92486"><ele>995</ele></trkpt>
    <trkpt lat="47.34450" lon="13.92561"><ele>988</ele></trkpt>
    <trkpt lat="47.34443" lon="13.92586"><ele>973</ele></trkpt>
    <trkpt lat="47.34447" lon="13.92599"><ele>951</ele></trkpt>
    <trkpt lat="47.34447" lon="13.92599"><ele>950</ele></trkpt>
  </trkseg>
</trk>
</gpx>