<?xml version="1.0" encoding="UTF-8"?>
<gpx version="1.1" creator="Gpx-Optimizer" xmlns="http://www.topografix.com/GPX/1/1">
<trk>
  <name>Nixriedel</name>
  <type>Ski</type>
  <trkseg>
    <trkpt lat="47.41030" lon="13.12887"><ele>1513</ele></trkpt>
    <trkpt lat="47.41043" lon="13.12888"><ele>1516</ele></trkpt>
    <trkpt lat="47.41048" lon="13.12898"><ele>1519</ele></trkpt>
    <trkpt lat="47.41058" lon="13.12913"><ele>1522</ele></trkpt>
    <trkpt lat="47.41069" lon="13.12924"><ele>1487</ele></trkpt>
    <trkpt lat="47.41079" lon="13.12928"><ele>1531</ele></trkpt>
    <trkpt lat="47.41089" lon="13.12936"><ele>1534</ele></trkpt>
    <trkpt lat="47.41099" lon="13.12942"><ele>1538</ele></trkpt>
    <trkpt lat="47.41114" lon="13.12954"><ele>1542</ele></trkpt>
    <trkpt lat="47.41123" lon="13.12958"><ele>1540</ele></trkpt>
    <trkpt lat="47.41137" lon="13.12963"><ele>1546</ele></trkpt>
    <trkpt lat="47.41147" lon="13.12965"><ele>1549</ele></trkpt>
    <trkpt lat="47.41164" lon="13.12972"><ele>1551</ele></trkpt>
    <trkpt lat="47.41175" lon="13.12980"><ele>1551</ele></trkpt>
    <trkpt lat="47.41181" lon="13.12995"><ele>1552</ele></trkpt>
    <trkpt lat="47.41187" lon="13.13007"><ele>1550</ele></trkpt>
    <trkpt lat="47.41193" lon="13.13019"><ele>1551</ele></trkpt>
    <trkpt lat="47.41199" lon="13.13031"><ele>1553</ele></trkpt>
    <trkpt lat="47.41207" lon="13.13044"><ele>1550</ele></trkpt>
    <trkpt lat="47.41218" lon="13.13052"><ele>1548</ele></trkpt>
    <trkpt lat="47.41225" lon="13.13078"><ele>1551</ele></trkpt>
    <trkpt lat="47.41232" lon="13.13103"><ele>1551</ele></trkpt>
    <trkpt lat="47.41240" lon="13.13110"><ele>1549</ele></trkpt>
    <trkpt lat="47.41250" lon="13.13128"><ele>1553</ele></trkpt>
    <trkpt lat="47.41251" lon="13.13143"><ele>1554</ele></trkpt>
    <trkpt lat="47.41251" lon="13.13165"><ele>1553</ele></trkpt>
    <trkpt lat="47.41256" lon="13.13187"><ele>1552</ele></trkpt>
    <trkpt lat="47.41261" lon="13.13199"><ele>1555</ele></trkpt>
    <trkpt lat="47.41266" lon="13.13213"><ele>1561</ele></trkpt>
    <trkpt lat="47.41274" lon="13.13222"><ele>1564</ele></trkpt>
    <trkpt lat="47.41281" lon="13.13233"><ele>1563</ele></trkpt>
    <trkpt lat="47.41297" lon="13.13241"><ele>1583</ele></trkpt>
    <trkpt lat="47.41309" lon="13.13251"><ele>1574</ele></trkpt>
    <trkpt lat="47.41323" lon="13.13258"><ele>1572</ele></trkpt>
    <trkpt lat="47.41334" lon="13.13258"><ele>1572</ele></trkpt>
    <trkpt lat="47.41346" lon="13.13261"><ele>1561</ele></trkpt>
    <trkpt lat="47.41356" lon="13.13265"><ele>1578</ele></trkpt>
    <trkpt lat="47.41371" lon="13.13273"><ele>1602</ele></trkpt>
    <trkpt lat="47.41380" lon="13.13284"><ele>1590</ele></trkpt>
    <trkpt lat="47.41378" lon="13.13298"><ele>1587</ele></trkpt>
    <trkpt lat="47.41373" lon="13.13321"><ele>1591</ele></trkpt>
    <trkpt lat="47.41373" lon="13.13338"><ele>1587</ele></trkpt>
    <trkpt lat="47.41372" lon="13.13355"><ele>1590</ele></trkpt>
    <trkpt lat="47.41381" lon="13.13376"><ele>1597</ele></trkpt>
    <trkpt lat="47.41392" lon="13.13395"><ele>1597</ele></trkpt>
    <trkpt lat="47.41404" lon="13.13411"><ele>1596</ele></trkpt>
    <trkpt lat="47.41418" lon="13.13421"><ele>1604</ele></trkpt>
    <trkpt lat="47.41435" lon="13.13425"><ele>1614</ele></trkpt>
    <trkpt lat="47.41445" lon="13.13436"><ele>1611</ele></trkpt>
    <trkpt lat="47.41448" lon="13.13455"><ele>1611</ele></trkpt>
    <trkpt lat="47.41455" lon="13.13470"><ele>1619</ele></trkpt>
    <trkpt lat="47.41469" lon="13.13472"><ele>1620</ele></trkpt>
    <trkpt lat="47.41480" lon="13.13472"><ele>1616</ele></trkpt>
    <trkpt lat="47.41489" lon="13.13475"><ele>1615</ele></trkpt>
    <trkpt lat="47.41496" lon="13.13488"><ele>1613</ele></trkpt>
    <trkpt lat="47.41498" lon="13.13509"><ele>1616</ele></trkpt>
    <trkpt lat="47.41508" lon="13.13516"><ele>1615</ele></trkpt>
    <trkpt lat="47.41520" lon="13.13522"><ele>1616</ele></trkpt>
    <trkpt lat="47.41531" lon="13.13526"><ele>1614</ele></trkpt>
    <trkpt lat="47.41552" lon="13.13527"><ele>1610</ele></trkpt>
    <trkpt lat="47.41562" lon="13.13538"><ele>1618</ele></trkpt>
    <trkpt lat="47.41571" lon="13.13544"><ele>1614</ele></trkpt>
    <trkpt lat="47.41575" lon="13.13561"><ele>1615</ele></trkpt>
    <trkpt lat="47.41585" lon="13.13569"><ele>1613</ele></trkpt>
    <trkpt lat="47.41600" lon="13.13573"><ele>1612</ele></trkpt>
    <trkpt lat="47.41605" lon="13.13585"><ele>1612</ele></trkpt>
    <trkpt lat="47.41610" lon="13.13610"><ele>1611</ele></trkpt>
    <trkpt lat="47.41618" lon="13.13620"><ele>1613</ele></trkpt>
    <trkpt lat="47.41631" lon="13.13625"><ele>1613</ele></trkpt>
    <trkpt lat="47.41637" lon="13.13636"><ele>1617</ele></trkpt>
    <trkpt lat="47.41649" lon="13.13658"><ele>1614</ele></trkpt>
    <trkpt lat="47.41658" lon="13.13667"><ele>1615</ele></trkpt>
    <trkpt lat="47.41667" lon="13.13686"><ele>1608</ele></trkpt>
    <trkpt lat="47.41678" lon="13.13708"><ele>1611</ele></trkpt>
    <trkpt lat="47.41688" lon="13.13724"><ele>1593</ele></trkpt>
    <trkpt lat="47.41697" lon="13.13732"><ele>1613</ele></trkpt>
    <trkpt lat="47.41711" lon="13.13744"><ele>1614</ele></trkpt>
    <trkpt lat="47.41722" lon="13.13749"><ele>1613</ele></trkpt>
    <trkpt lat="47.41732" lon="13.13757"><ele>1616</ele></trkpt>
    <trkpt lat="47.41736" lon="13.13770"><ele>1614</ele></trkpt>
    <trkpt lat="47.41748" lon="13.13791"><ele>1616</ele></trkpt>
    <trkpt lat="47.41763" lon="13.13801"><ele>1613</ele></trkpt>
    <trkpt lat="47.41774" lon="13.13808"><ele>1615</ele></trkpt>
    <trkpt lat="47.41785" lon="13.13810"><ele>1615</ele></trkpt>
    <trkpt lat="47.41802" lon="13.13812"><ele>1618</ele></trkpt>
    <trkpt lat="47.41818" lon="13.13815"><ele>1615</ele></trkpt>
    <trkpt lat="47.41829" lon="13.13820"><ele>1620</ele></trkpt>
    <trkpt lat="47.41838" lon="13.13826"><ele>1621</ele></trkpt>
    <trkpt lat="47.41850" lon="13.13833"><ele>1626</ele></trkpt>
    <trkpt lat="47.41858" lon="13.13850"><ele>1623</ele></trkpt>
    <trkpt lat="47.41869" lon="13.13864"><ele>1618</ele></trkpt>
    <trkpt lat="47.41878" lon="13.13881"><ele>1618</ele></trkpt>
    <trkpt lat="47.41887" lon="13.13896"><ele>1617</ele></trkpt>
    <trkpt lat="47.41894" lon="13.13910"><ele>1622</ele></trkpt>
    <trkpt lat="47.41902" lon="13.13931"><ele>1626</ele></trkpt>
    <trkpt lat="47.41907" lon="13.13944"><ele>1633</ele></trkpt>
    <trkpt lat="47.41914" lon="13.13957"><ele>1636</ele></trkpt>
    <trkpt lat="47.41922" lon="13.13964"><ele>1638</ele></trkpt>
    <trkpt lat="47.41931" lon="13.13975"><ele>1639</ele></trkpt>
    <trkpt lat="47.41939" lon="13.13989"><ele>1639</ele></trkpt>
    <trkpt lat="47.41945" lon="13.14002"><ele>1636</ele></trkpt>
    <trkpt lat="47.41954" lon="13.14017"><ele>1639</ele></trkpt>
    <trkpt lat="47.41962" lon="13.14030"><ele>1648</ele></trkpt>
    <trkpt lat="47.41969" lon="13.14044"><ele>1650</ele></trkpt>
    <trkpt lat="47.41978" lon="13.14056"><ele>1655</ele></trkpt>
    <trkpt lat="47.41985" lon="13.14067"><ele>1659</ele></trkpt>
    <trkpt lat="47.41996" lon="13.14083"><ele>1663</ele></trkpt>
    <trkpt lat="47.42006" lon="13.14091"><ele>1664</ele></trkpt>
    <trkpt lat="47.42016" lon="13.14103"><ele>1669</ele></trkpt>
    <trkpt lat="47.42026" lon="13.14114"><ele>1667</ele></trkpt>
    <trkpt lat="47.42039" lon="13.14128"><ele>1671</ele></trkpt>
    <trkpt lat="47.42049" lon="13.14146"><ele>1678</ele></trkpt>
    <trkpt lat="47.42055" lon="13.14157"><ele>1674</ele></trkpt>
    <trkpt lat="47.42066" lon="13.14177"><ele>1678</ele></trkpt>
    <trkpt lat="47.42082" lon="13.14187"><ele>1674</ele></trkpt>
    <trkpt lat="47.42096" lon="13.14179"><ele>1678</ele></trkpt>
    <trkpt lat="47.42111" lon="13.14170"><ele>1680</ele></trkpt>
    <trkpt lat="47.42123" lon="13.14167"><ele>1682</ele></trkpt>
    <trkpt lat="47.42135" lon="13.14159"><ele>1682</ele></trkpt>
    <trkpt lat="47.42145" lon="13.14152"><ele>1683</ele></trkpt>
    <trkpt lat="47.42156" lon="13.14145"><ele>1683</ele></trkpt>
    <trkpt lat="47.42169" lon="13.14130"><ele>1679</ele></trkpt>
    <trkpt lat="47.42182" lon="13.14114"><ele>1679</ele></trkpt>
    <trkpt lat="47.42188" lon="13.14101"><ele>1683</ele></trkpt>
    <trkpt lat="47.42196" lon="13.14091"><ele>1685</ele></trkpt>
    <trkpt lat="47.42208" lon="13.14072"><ele>1681</ele></trkpt>
    <trkpt lat="47.42216" lon="13.14060"><ele>1682</ele></trkpt>
    <trkpt lat="47.42231" lon="13.14047"><ele>1678</ele></trkpt>
    <trkpt lat="47.42244" lon="13.14038"><ele>1675</ele></trkpt>
    <trkpt lat="47.42262" lon="13.14026"><ele>1679</ele></trkpt>
    <trkpt lat="47.42272" lon="13.14018"><ele>1683</ele></trkpt>
    <trkpt lat="47.42280" lon="13.14011"><ele>1684</ele></trkpt>
    <trkpt lat="47.42289" lon="13.14000"><ele>1684</ele></trkpt>
    <trkpt lat="47.42299" lon="13.13993"><ele>1685</ele></trkpt>
    <trkpt lat="47.42308" lon="13.13979"><ele>1687</ele></trkpt>
    <trkpt lat="47.42314" lon="13.13969"><ele>1685</ele></trkpt>
    <trkpt lat="47.42328" lon="13.13956"><ele>1688</ele></trkpt>
    <trkpt lat="47.42340" lon="13.13941"><ele>1687</ele></trkpt>
    <trkpt lat="47.42353" lon="13.13925"><ele>1689</ele></trkpt>
    <trkpt lat="47.42364" lon="13.13910"><ele>1688</ele></trkpt>
    <trkpt lat="47.42372" lon="13.13899"><ele>1690</ele></trkpt>
    <trkpt lat="47.42377" lon="13.13875"><ele>1692</ele></trkpt>
    <trkpt lat="47.42377" lon="13.13861"><ele>1692</ele></trkpt>
    <trkpt lat="47.42372" lon="13.13811"><ele>1683</ele></trkpt>
    <trkpt lat="47.42369" lon="13.13776"><ele>1676</ele></trkpt>
    <trkpt lat="47.42374" lon="13.13733"><ele>1671</ele></trkpt>
    <trkpt lat="47.42380" lon="13.13709"><ele>1669</ele></trkpt>
    <trkpt lat="47.42386" lon="13.13699"><ele>1670</ele></trkpt>
    <trkpt lat="47.42393" lon="13.13690"><ele>1670</ele></trkpt>
    <trkpt lat="47.42404" lon="13.13670"><ele>1670</ele></trkpt>
    <trkpt lat="47.42414" lon="13.13659"><ele>1674</ele></trkpt>
    <trkpt lat="47.42424" lon="13.13644"><ele>1668</ele></trkpt>
    <trkpt lat="47.42434" lon="13.13633"><ele>1670</ele></trkpt>
    <trkpt lat="47.42448" lon="13.13615"><ele>1669</ele></trkpt>
    <trkpt lat="47.42471" lon="13.13597"><ele>1660</ele></trkpt>
    <trkpt lat="47.42484" lon="13.13585"><ele>1666</ele></trkpt>
    <trkpt lat="47.42500" lon="13.13565"><ele>1661</ele></trkpt>
    <trkpt lat="47.42509" lon="13.13548"><ele>1658</ele></trkpt>
    <trkpt lat="47.42520" lon="13.13534"><ele>1656</ele></trkpt>
    <trkpt lat="47.42531" lon="13.13515"><ele>1652</ele></trkpt>
    <trkpt lat="47.42537" lon="13.13488"><ele>1650</ele></trkpt>
    <trkpt lat="47.42543" lon="13.13469"><ele>1655</ele></trkpt>
    <trkpt lat="47.42547" lon="13.13456"><ele>1653</ele></trkpt>
    <trkpt lat="47.42557" lon="13.13448"><ele>1654</ele></trkpt>
    <trkpt lat="47.42564" lon="13.13438"><ele>1655</ele></trkpt>
    <trkpt lat="47.42576" lon="13.13423"><ele>1657</ele></trkpt>
    <trkpt lat="47.42584" lon="13.13420"><ele>1658</ele></trkpt>
    <trkpt lat="47.42596" lon="13.13413"><ele>1657</ele></trkpt>
    <trkpt lat="47.42605" lon="13.13403"><ele>1662</ele></trkpt>
    <trkpt lat="47.42613" lon="13.13396"><ele>1670</ele></trkpt>
    <trkpt lat="47.42622" lon="13.13376"><ele>1671</ele></trkpt>
    <trkpt lat="47.42627" lon="13.13363"><ele>1667</ele></trkpt>
    <trkpt lat="47.42630" lon="13.13350"><ele>1666</ele></trkpt>
    <trkpt lat="47.42639" lon="13.13325"><ele>1668</ele></trkpt>
    <trkpt lat="47.42643" lon="13.13297"><ele>1672</ele></trkpt>
    <trkpt lat="47.42647" lon="13.13281"><ele>1671</ele></trkpt>
    <trkpt lat="47.42648" lon="13.13266"><ele>1668</ele></trkpt>
    <trkpt lat="47.42651" lon="13.13253"><ele>1665</ele></trkpt>
    <trkpt lat="47.42656" lon="13.13228"><ele>1674</ele></trkpt>
    <trkpt lat="47.42660" lon="13.13197"><ele>1678</ele></trkpt>
    <trkpt lat="47.42672" lon="13.13171"><ele>1684</ele></trkpt>
    <trkpt lat="47.42685" lon="13.13160"><ele>1690</ele></trkpt>
    <trkpt lat="47.42698" lon="13.13139"><ele>1693</ele></trkpt>
    <trkpt lat="47.42700" lon="13.13123"><ele>1690</ele></trkpt>
    <trkpt lat="47.42710" lon="13.13110"><ele>1692</ele></trkpt>
    <trkpt lat="47.42718" lon="13.13091"><ele>1698</ele></trkpt>
    <trkpt lat="47.42725" lon="13.13076"><ele>1702</ele></trkpt>
    <trkpt lat="47.42733" lon="13.13065"><ele>1713</ele></trkpt>
    <trkpt lat="47.42738" lon="13.13052"><ele>1719</ele></trkpt>
    <trkpt lat="47.42745" lon="13.13040"><ele>1721</ele></trkpt>
    <trkpt lat="47.42749" lon="13.13024"><ele>1723</ele></trkpt>
    <trkpt lat="47.42749" lon="13.13007"><ele>1719</ele></trkpt>
    <trkpt lat="47.42752" lon="13.12991"><ele>1723</ele></trkpt>
    <trkpt lat="47.42757" lon="13.12978"><ele>1727</ele></trkpt>
    <trkpt lat="47.42763" lon="13.12965"><ele>1733</ele></trkpt>
    <trkpt lat="47.42768" lon="13.12951"><ele>1738</ele></trkpt>
    <trkpt lat="47.42776" lon="13.12931"><ele>1746</ele></trkpt>
    <trkpt lat="47.42782" lon="13.12919"><ele>1745</ele></trkpt>
    <trkpt lat="47.42788" lon="13.12904"><ele>1748</ele></trkpt>
    <trkpt lat="47.42792" lon="13.12888"><ele>1748</ele></trkpt>
    <trkpt lat="47.42794" lon="13.12873"><ele>1754</ele></trkpt>
    <trkpt lat="47.42800" lon="13.12854"><ele>1757</ele></trkpt>
    <trkpt lat="47.42804" lon="13.12836"><ele>1760</ele></trkpt>
    <trkpt lat="47.42806" lon="13.12823"><ele>1765</ele></trkpt>
    <trkpt lat="47.42808" lon="13.12809"><ele>1769</ele></trkpt>
    <trkpt lat="47.42816" lon="13.12792"><ele>1775</ele></trkpt>
    <trkpt lat="47.42817" lon="13.12774"><ele>1776</ele></trkpt>
    <trkpt lat="47.42819" lon="13.12758"><ele>1775</ele></trkpt>
    <trkpt lat="47.42828" lon="13.12743"><ele>1784</ele></trkpt>
    <trkpt lat="47.42828" lon="13.12728"><ele>1780</ele></trkpt>
    <trkpt lat="47.42825" lon="13.12714"><ele>1776</ele></trkpt>
    <trkpt lat="47.42823" lon="13.12695"><ele>1781</ele></trkpt>
    <trkpt lat="47.42821" lon="13.12682"><ele>1779</ele></trkpt>
    <trkpt lat="47.42819" lon="13.12654"><ele>1776</ele></trkpt>
    <trkpt lat="47.42821" lon="13.12634"><ele>1784</ele></trkpt>
    <trkpt lat="47.42827" lon="13.12615"><ele>1780</ele></trkpt>
    <trkpt lat="47.42826" lon="13.12597"><ele>1776</ele></trkpt>
    <trkpt lat="47.42833" lon="13.12585"><ele>1779</ele></trkpt>
    <trkpt lat="47.42842" lon="13.12578"><ele>1782</ele></trkpt>
    <trkpt lat="47.42853" lon="13.12563"><ele>1778</ele></trkpt>
    <trkpt lat="47.42868" lon="13.12554"><ele>1780</ele></trkpt>
    <trkpt lat="47.42880" lon="13.12559"><ele>1785</ele></trkpt>
    <trkpt lat="47.42890" lon="13.12564"><ele>1789</ele></trkpt>
    <trkpt lat="47.42900" lon="13.12575"><ele>1795</ele></trkpt>
    <trkpt lat="47.42911" lon="13.12587"><ele>1795</ele></trkpt>
    <trkpt lat="47.42930" lon="13.12603"><ele>1799</ele></trkpt>
    <trkpt lat="47.42928" lon="13.12590"><ele>1802</ele></trkpt>
    <trkpt lat="47.42919" lon="13.12569"><ele>1800</ele></trkpt>
    <trkpt lat="47.42932" lon="13.12569"><ele>1811</ele></trkpt>
    <trkpt lat="47.42932" lon="13.12553"><ele>1812</ele></trkpt>
    <trkpt lat="47.42930" lon="13.12536"><ele>1820</ele></trkpt>
    <trkpt lat="47.42927" lon="13.12518"><ele>1820</ele></trkpt>
    <trkpt lat="47.42937" lon="13.12512"><ele>1824</ele></trkpt>
    <trkpt lat="47.42935" lon="13.12493"><ele>1823</ele></trkpt>
    <trkpt lat="47.42934" lon="13.12477"><ele>1827</ele></trkpt>
    <trkpt lat="47.42938" lon="13.12455"><ele>1834</ele></trkpt>
    <trkpt lat="47.42938" lon="13.12436"><ele>1830</ele></trkpt>
    <trkpt lat="47.42949" lon="13.12427"><ele>1838</ele></trkpt>
    <trkpt lat="47.42960" lon="13.12421"><ele>1838</ele></trkpt>
    <trkpt lat="47.42968" lon="13.12413"><ele>1838</ele></trkpt>
    <trkpt lat="47.42972" lon="13.12395"><ele>1837</ele></trkpt>
    <trkpt lat="47.42976" lon="13.12381"><ele>1844</ele></trkpt>
    <trkpt lat="47.42989" lon="13.12387"><ele>1845</ele></trkpt>
    <trkpt lat="47.43003" lon="13.12381"><ele>1849</ele></trkpt>
    <trkpt lat="47.43015" lon="13.12375"><ele>1855</ele></trkpt>
    <trkpt lat="47.43025" lon="13.12370"><ele>1855</ele></trkpt>
    <trkpt lat="47.43037" lon="13.12369"><ele>1856</ele></trkpt>
    <trkpt lat="47.43045" lon="13.12359"><ele>1859</ele></trkpt>
    <trkpt lat="47.43055" lon="13.12347"><ele>1864</ele></trkpt>
    <trkpt lat="47.43068" lon="13.12348"><ele>1863</ele></trkpt>
    <trkpt lat="47.43082" lon="13.12346"><ele>1872</ele></trkpt>
    <trkpt lat="47.43079" lon="13.12322"><ele>1881</ele></trkpt>
    <trkpt lat="47.43091" lon="13.12315"><ele>1883</ele></trkpt>
    <trkpt lat="47.43090" lon="13.12291"><ele>1885</ele></trkpt>
    <trkpt lat="47.43089" lon="13.12271"><ele>1885</ele></trkpt>
    <trkpt lat="47.43084" lon="13.12256"><ele>1885</ele></trkpt>
    <trkpt lat="47.43075" lon="13.12239"><ele>1891</ele></trkpt>
    <trkpt lat="47.43066" lon="13.12230"><ele>1894</ele></trkpt>
    <trkpt lat="47.43047" lon="13.12222"><ele>1900</ele></trkpt>
    <trkpt lat="47.43038" lon="13.12217"><ele>1908</ele></trkpt>
    <trkpt lat="47.43030" lon="13.12205"><ele>1916</ele></trkpt>
    <trkpt lat="47.43023" lon="13.12196"><ele>1914</ele></trkpt>
    <trkpt lat="47.43016" lon="13.12179"><ele>1913</ele></trkpt>
    <trkpt lat="47.43007" lon="13.12159"><ele>1917</ele></trkpt>
    <trkpt lat="47.43016" lon="13.12156"><ele>1921</ele></trkpt>
    <trkpt lat="47.43026" lon="13.12158"><ele>1924</ele></trkpt>
    <trkpt lat="47.43041" lon="13.12145"><ele>1933</ele></trkpt>
    <trkpt lat="47.43049" lon="13.12129"><ele>1904</ele></trkpt>
    <trkpt lat="47.43055" lon="13.12116"><ele>1935</ele></trkpt>
    <trkpt lat="47.43050" lon="13.12096"><ele>1942</ele></trkpt>
    <trkpt lat="47.43045" lon="13.12075"><ele>1943</ele></trkpt>
    <trkpt lat="47.43038" lon="13.12055"><ele>1945</ele></trkpt>
    <trkpt lat="47.43031" lon="13.12042"><ele>1951</ele></trkpt>
    <trkpt lat="47.43021" lon="13.12027"><ele>1954</ele></trkpt>
    <trkpt lat="47.43019" lon="13.12008"><ele>1957</ele></trkpt>
    <trkpt lat="47.43025" lon="13.11987"><ele>1966</ele></trkpt>
    <trkpt lat="47.43034" lon="13.11975"><ele>1971</ele></trkpt>
    <trkpt lat="47.43033" lon="13.11960"><ele>1972</ele></trkpt>
    <trkpt lat="47.43032" lon="13.11946"><ele>1977</ele></trkpt>
    <trkpt lat="47.43031" lon="13.11928"><ele>1982</ele></trkpt>
    <trkpt lat="47.43034" lon="13.11913"><ele>1984</ele></trkpt>
    <trkpt lat="47.43024" lon="13.11908"><ele>1987</ele></trkpt>
    <trkpt lat="47.43011" lon="13.11901"><ele>1990</ele></trkpt>
    <trkpt lat="47.43009" lon="13.11887"><ele>1988</ele></trkpt>
    <trkpt lat="47.43012" lon="13.11871"><ele>1991</ele></trkpt>
    <trkpt lat="47.43019" lon="13.11858"><ele>1991</ele></trkpt>
    <trkpt lat="47.43023" lon="13.11837"><ele>2001</ele></trkpt>
    <trkpt lat="47.43032" lon="13.11832"><ele>2010</ele></trkpt>
    <trkpt lat="47.43048" lon="13.11836"><ele>2018</ele></trkpt>
    <trkpt lat="47.43056" lon="13.11826"><ele>2023</ele></trkpt>
    <trkpt lat="47.43059" lon="13.11812"><ele>2026</ele></trkpt>
    <trkpt lat="47.43068" lon="13.11803"><ele>2031</ele></trkpt>
    <trkpt lat="47.43073" lon="13.11789"><ele>2037</ele></trkpt>
    <trkpt lat="47.43069" lon="13.11775"><ele>2042</ele></trkpt>
    <trkpt lat="47.43082" lon="13.11774"><ele>2043</ele></trkpt>
    <trkpt lat="47.43078" lon="13.11754"><ele>2043</ele></trkpt>
    <trkpt lat="47.43072" lon="13.11742"><ele>2042</ele></trkpt>
    <trkpt lat="47.43074" lon="13.11724"><ele>2051</ele></trkpt>
    <trkpt lat="47.43083" lon="13.11718"><ele>2056</ele></trkpt>
    <trkpt lat="47.43080" lon="13.11704"><ele>2060</ele></trkpt>
    <trkpt lat="47.43070" lon="13.11689"><ele>2061</ele></trkpt>
    <trkpt lat="47.43061" lon="13.11685"><ele>2064</ele></trkpt>
    <trkpt lat="47.43056" lon="13.11673"><ele>2071</ele></trkpt>
    <trkpt lat="47.43050" lon="13.11656"><ele>2070</ele></trkpt>
    <trkpt lat="47.43045" lon="13.11644"><ele>2071</ele></trkpt>
    <trkpt lat="47.43035" lon="13.11636"><ele>2074</ele></trkpt>
    <trkpt lat="47.43027" lon="13.11623"><ele>2077</ele></trkpt>
    <trkpt lat="47.43023" lon="13.11608"><ele>2080</ele></trkpt>
    <trkpt lat="47.43019" lon="13.11587"><ele>2087</ele></trkpt>
    <trkpt lat="47.43018" lon="13.11572"><ele>2090</ele></trkpt>
    <trkpt lat="47.43013" lon="13.11554"><ele>2087</ele></trkpt>
    <trkpt lat="47.43007" lon="13.11540"><ele>2089</ele></trkpt>
    <trkpt lat="47.43000" lon="13.11517"><ele>2087</ele></trkpt>
    <trkpt lat="47.42997" lon="13.11496"><ele>2104</ele></trkpt>
    <trkpt lat="47.42995" lon="13.11475"><ele>2094</ele></trkpt>
    <trkpt lat="47.42996" lon="13.11455"><ele>2102</ele></trkpt>
    <trkpt lat="47.42995" lon="13.11437"><ele>2105</ele></trkpt>
    <trkpt lat="47.42983" lon="13.11432"><ele>2110</ele></trkpt>
    <trkpt lat="47.42973" lon="13.11427"><ele>2112</ele></trkpt>
    <trkpt lat="47.42964" lon="13.11417"><ele>2113</ele></trkpt>
    <trkpt lat="47.42955" lon="13.11411"><ele>2117</ele></trkpt>
    <trkpt lat="47.42950" lon="13.11397"><ele>2120</ele></trkpt>
    <trkpt lat="47.42947" lon="13.11383"><ele>2122</ele></trkpt>
    <trkpt lat="47.42954" lon="13.11366"><ele>2127</ele></trkpt>
    <trkpt lat="47.42959" lon="13.11352"><ele>2135</ele></trkpt>
    <trkpt lat="47.42963" lon="13.11336"><ele>2143</ele></trkpt>
    <trkpt lat="47.42964" lon="13.11322"><ele>2147</ele></trkpt>
    <trkpt lat="47.42960" lon="13.11306"><ele>2147</ele></trkpt>
    <trkpt lat="47.42956" lon="13.11293"><ele>2147</ele></trkpt>
    <trkpt lat="47.42950" lon="13.11274"><ele>2152</ele></trkpt>
    <trkpt lat="47.42944" lon="13.11264"><ele>2161</ele></trkpt>
    <trkpt lat="47.42937" lon="13.11254"><ele>2161</ele></trkpt>
    <trkpt lat="47.42927" lon="13.11244"><ele>2165</ele></trkpt>
    <trkpt lat="47.42917" lon="13.11234"><ele>2166</ele></trkpt>
    <trkpt lat="47.42917" lon="13.11215"><ele>2173</ele></trkpt>
    <trkpt lat="47.42920" lon="13.11199"><ele>2175</ele></trkpt>
    <trkpt lat="47.42919" lon="13.11182"><ele>2180</ele></trkpt>
    <trkpt lat="47.42911" lon="13.11174"><ele>2185</ele></trkpt>
    <trkpt lat="47.42902" lon="13.11177"><ele>2190</ele></trkpt>
    <trkpt lat="47.42906" lon="13.11157"><ele>2196</ele></trkpt>
    <trkpt lat="47.42897" lon="13.11145"><ele>2193</ele></trkpt>
    <trkpt lat="47.42887" lon="13.11137"><ele>2196</ele></trkpt>
    <trkpt lat="47.42882" lon="13.11119"><ele>2196</ele></trkpt>
    <trkpt lat="47.42867" lon="13.11110"><ele>2199</ele></trkpt>
    <trkpt lat="47.42861" lon="13.11091"><ele>2200</ele></trkpt>
    <trkpt lat="47.42854" lon="13.11077"><ele>2202</ele></trkpt>
    <trkpt lat="47.42847" lon="13.11062"><ele>2209</ele></trkpt>
    <trkpt lat="47.42842" lon="13.11045"><ele>2208</ele></trkpt>
    <trkpt lat="47.42837" lon="13.11025"><ele>2212</ele></trkpt>
    <trkpt lat="47.42833" lon="13.11005"><ele>2220</ele></trkpt>
    <trkpt lat="47.42827" lon="13.10987"><ele>2223</ele></trkpt>
    <trkpt lat="47.42819" lon="13.10977"><ele>2220</ele></trkpt>
    <trkpt lat="47.42809" lon="13.10968"><ele>2223</ele></trkpt>
    <trkpt lat="47.42801" lon="13.10955"><ele>2231</ele></trkpt>
    <trkpt lat="47.42794" lon="13.10944"><ele>2239</ele></trkpt>
    <trkpt lat="47.42787" lon="13.10935"><ele>2244</ele></trkpt>
    <trkpt lat="47.42779" lon="13.10927"><ele>2247</ele></trkpt>
    <trkpt lat="47.42771" lon="13.10918"><ele>2247</ele></trkpt>
    <trkpt lat="47.42764" lon="13.10909"><ele>2249</ele></trkpt>
    <trkpt lat="47.42753" lon="13.10896"><ele>2247</ele></trkpt>
    <trkpt lat="47.42746" lon="13.10882"><ele>2242</ele></trkpt>
    <trkpt lat="47.42744" lon="13.10866"><ele>2242</ele></trkpt>
    <trkpt lat="47.42737" lon="13.10851"><ele>2243</ele></trkpt>
    <trkpt lat="47.42727" lon="13.10829"><ele>2244</ele></trkpt>
    <trkpt lat="47.42723" lon="13.10811"><ele>2203</ele></trkpt>
    <trkpt lat="47.42717" lon="13.10791"><ele>2239</ele></trkpt>
    <trkpt lat="47.42714" lon="13.10777"><ele>2249</ele></trkpt>
    <trkpt lat="47.42715" lon="13.10761"><ele>2223</ele></trkpt>
    <trkpt lat="47.42712" lon="13.10744"><ele>2250</ele></trkpt>
    <trkpt lat="47.42711" lon="13.10725"><ele>2251</ele></trkpt>
    <trkpt lat="47.42712" lon="13.10711"><ele>2245</ele></trkpt>
    <trkpt lat="47.42715" lon="13.10692"><ele>2255</ele></trkpt>
    <trkpt lat="47.42720" lon="13.10679"><ele>2252</ele></trkpt>
    <trkpt lat="47.42721" lon="13.10659"><ele>2251</ele></trkpt>
    <trkpt lat="47.42716" lon="13.10638"><ele>2253</ele></trkpt>
    <trkpt lat="47.42710" lon="13.10616"><ele>2259</ele></trkpt>
    <trkpt lat="47.42706" lon="13.10591"><ele>2265</ele></trkpt>
    <trkpt lat="47.42700" lon="13.10571"><ele>2266</ele></trkpt>
    <trkpt lat="47.42691" lon="13.10566"><ele>2233</ele></trkpt>
    <trkpt lat="47.42684" lon="13.10557"><ele>2259</ele></trkpt>
    <trkpt lat="47.42680" lon="13.10540"><ele>2265</ele></trkpt>
    <trkpt lat="47.42679" lon="13.10516"><ele>2273</ele></trkpt>
    <trkpt lat="47.42680" lon="13.10499"><ele>2278</ele></trkpt>
    <trkpt lat="47.42681" lon="13.10485"><ele>2282</ele></trkpt>
    <trkpt lat="47.42683" lon="13.10471"><ele>2293</ele></trkpt>
    <trkpt lat="47.42681" lon="13.10450"><ele>2292</ele></trkpt>
    <trkpt lat="47.42677" lon="13.10436"><ele>2284</ele></trkpt>
    <trkpt lat="47.42673" lon="13.10424"><ele>2285</ele></trkpt>
    <trkpt lat="47.42666" lon="13.10412"><ele>2290</ele></trkpt>
    <trkpt lat="47.42661" lon="13.10401"><ele>2287</ele></trkpt>
    <trkpt lat="47.42647" lon="13.10384"><ele>2285</ele></trkpt>
    <trkpt lat="47.42639" lon="13.10364"><ele>2292</ele></trkpt>
    <trkpt lat="47.42633" lon="13.10353"><ele>2290</ele></trkpt>
    <trkpt lat="47.42621" lon="13.10344"><ele>2299</ele></trkpt>
    <trkpt lat="47.42607" lon="13.10332"><ele>2307</ele></trkpt>
    <trkpt lat="47.42591" lon="13.10332"><ele>2313</ele></trkpt>
    <trkpt lat="47.42586" lon="13.10321"><ele>2309</ele></trkpt>
    <trkpt lat="47.42579" lon="13.10302"><ele>2305</ele></trkpt>
    <trkpt lat="47.42577" lon="13.10288"><ele>2312</ele></trkpt>
    <trkpt lat="47.42576" lon="13.10270"><ele>2306</ele></trkpt>
    <trkpt lat="47.42565" lon="13.10264"><ele>2303</ele></trkpt>
    <trkpt lat="47.42556" lon="13.10243"><ele>2313</ele></trkpt>
    <trkpt lat="47.42551" lon="13.10229"><ele>2307</ele></trkpt>
    <trkpt lat="47.42542" lon="13.10226"><ele>2305</ele></trkpt>
    <trkpt lat="47.42541" lon="13.10205"><ele>2231</ele></trkpt>
    <trkpt lat="47.42549" lon="13.10187"><ele>2276</ele></trkpt>
    <trkpt lat="47.42556" lon="13.10169"><ele>2296</ele></trkpt>
    <trkpt lat="47.42559" lon="13.10151"><ele>2298</ele></trkpt>
    <trkpt lat="47.42559" lon="13.10132"><ele>2306</ele></trkpt>
    <trkpt lat="47.42558" lon="13.10116"><ele>2310</ele></trkpt>
    <trkpt lat="47.42566" lon="13.10095"><ele>2313</ele></trkpt>
    <trkpt lat="47.42569" lon="13.10077"><ele>2322</ele></trkpt>
    <trkpt lat="47.42572" lon="13.10064"><ele>2313</ele></trkpt>
    <trkpt lat="47.42571" lon="13.10049"><ele>2317</ele></trkpt>
    <trkpt lat="47.42582" lon="13.10011"><ele>2271</ele></trkpt>
    <trkpt lat="47.42579" lon="13.09996"><ele>2289</ele></trkpt>
    <trkpt lat="47.42580" lon="13.09977"><ele>2321</ele></trkpt>
    <trkpt lat="47.42580" lon="13.09959"><ele>2329</ele></trkpt>
    <trkpt lat="47.42581" lon="13.09943"><ele>2280</ele></trkpt>
    <trkpt lat="47.42582" lon="13.09927"><ele>2278</ele></trkpt>
    <trkpt lat="47.42590" lon="13.09917"><ele>2120</ele></trkpt>
    <trkpt lat="47.42591" lon="13.09903"><ele>2264</ele></trkpt>
    <trkpt lat="47.42588" lon="13.09887"><ele>2335</ele></trkpt>
    <trkpt lat="47.42584" lon="13.09869"><ele>2348</ele></trkpt>
    <trkpt lat="47.42584" lon="13.09853"><ele>2355</ele></trkpt>
    <trkpt lat="47.42587" lon="13.09836"><ele>2367</ele></trkpt>
    <trkpt lat="47.42589" lon="13.09822"><ele>2371</ele></trkpt>
    <trkpt lat="47.42584" lon="13.09807"><ele>2365</ele></trkpt>
    <trkpt lat="47.42586" lon="13.09791"><ele>2369</ele></trkpt>
    <trkpt lat="47.42595" lon="13.09773"><ele>2377</ele></trkpt>
    <trkpt lat="47.42601" lon="13.09761"><ele>2386</ele></trkpt>
    <trkpt lat="47.42606" lon="13.09747"><ele>2394</ele></trkpt>
    <trkpt lat="47.42605" lon="13.09734"><ele>2400</ele></trkpt>
    <trkpt lat="47.42605" lon="13.09716"><ele>2402</ele></trkpt>
    <trkpt lat="47.42605" lon="13.09702"><ele>2410</ele></trkpt>
    <trkpt lat="47.42606" lon="13.09686"><ele>2409</ele></trkpt>
    <trkpt lat="47.42610" lon="13.09666"><ele>2414</ele></trkpt>
    <trkpt lat="47.42617" lon="13.09649"><ele>2418</ele></trkpt>
    <trkpt lat="47.42625" lon="13.09632"><ele>2426</ele></trkpt>
    <trkpt lat="47.42635" lon="13.09619"><ele>2432</ele></trkpt>
    <trkpt lat="47.42641" lon="13.09601"><ele>2436</ele></trkpt>
    <trkpt lat="47.42643" lon="13.09587"><ele>2441</ele></trkpt>
    <trkpt lat="47.42650" lon="13.09571"><ele>2440</ele></trkpt>
    <trkpt lat="47.42655" lon="13.09556"><ele>2440</ele></trkpt>
    <trkpt lat="47.42662" lon="13.09539"><ele>2444</ele></trkpt>
    <trkpt lat="47.42669" lon="13.09525"><ele>2443</ele></trkpt>
    <trkpt lat="47.42675" lon="13.09511"><ele>2448</ele></trkpt>
    <trkpt lat="47.42684" lon="13.09501"><ele>2451</ele></trkpt>
    <trkpt lat="47.42690" lon="13.09490"><ele>2458</ele></trkpt>
    <trkpt lat="47.42700" lon="13.09480"><ele>2465</ele></trkpt>
    <trkpt lat="47.42709" lon="13.09468"><ele>2468</ele></trkpt>
    <trkpt lat="47.42720" lon="13.09461"><ele>2475</ele></trkpt>
    <trkpt lat="47.42728" lon="13.09452"><ele>2478</ele></trkpt>
    <trkpt lat="47.42736" lon="13.09441"><ele>2482</ele></trkpt>
    <trkpt lat="47.42744" lon="13.09432"><ele>2487</ele></trkpt>
    <trkpt lat="47.42753" lon="13.09423"><ele>2493</ele></trkpt>
    <trkpt lat="47.42761" lon="13.09417"><ele>2495</ele></trkpt>
    <trkpt lat="47.42771" lon="13.09407"><ele>2500</ele></trkpt>
    <trkpt lat="47.42779" lon="13.09398"><ele>2505</ele></trkpt>
    <trkpt lat="47.42785" lon="13.09388"><ele>2508</ele></trkpt>
    <trkpt lat="47.42795" lon="13.09380"><ele>2514</ele></trkpt>
    <trkpt lat="47.42805" lon="13.09378"><ele>2516</ele></trkpt>
    <trkpt lat="47.42816" lon="13.09374"><ele>2520</ele></trkpt>
    <trkpt lat="47.42825" lon="13.09381"><ele>2522</ele></trkpt>
    <trkpt lat="47.42826" lon="13.09364"><ele>2533</ele></trkpt>
    <trkpt lat="47.42822" lon="13.09349"><ele>2539</ele></trkpt>
    <trkpt lat="47.42816" lon="13.09333"><ele>2534</ele></trkpt>
    <trkpt lat="47.42806" lon="13.09321"><ele>2542</ele></trkpt>
    <trkpt lat="47.42806" lon="13.09303"><ele>2547</ele></trkpt>
    <trkpt lat="47.42803" lon="13.09286"><ele>2550</ele></trkpt>
    <trkpt lat="47.42799" lon="13.09272"><ele>2558</ele></trkpt>
    <trkpt lat="47.42804" lon="13.09256"><ele>2563</ele></trkpt>
    <trkpt lat="47.42797" lon="13.09242"><ele>2566</ele></trkpt>
    <trkpt lat="47.42791" lon="13.09227"><ele>2564</ele></trkpt>
    <trkpt lat="47.42796" lon="13.09205"><ele>2568</ele></trkpt>
    <trkpt lat="47.42803" lon="13.09194"><ele>2573</ele></trkpt>
    <trkpt lat="47.42810" lon="13.09184"><ele>2576</ele></trkpt>
    <trkpt lat="47.42817" lon="13.09174"><ele>2577</ele></trkpt>
    <trkpt lat="47.42829" lon="13.09161"><ele>2582</ele></trkpt>
    <trkpt lat="47.42839" lon="13.09158"><ele>2500</ele></trkpt>
    <trkpt lat="47.42857" lon="13.09151"><ele>2581</ele></trkpt>
    <trkpt lat="47.42870" lon="13.09155"><ele>2242</ele></trkpt>
    <trkpt lat="47.42882" lon="13.09156"><ele>2472</ele></trkpt>
    <trkpt lat="47.42892" lon="13.09168"><ele>2575</ele></trkpt>
    <trkpt lat="47.42902" lon="13.09178"><ele>2570</ele></trkpt>
    <trkpt lat="47.42914" lon="13.09187"><ele>2570</ele></trkpt>
    <trkpt lat="47.42925" lon="13.09193"><ele>2572</ele></trkpt>
    <trkpt lat="47.42938" lon="13.09197"><ele>2571</ele></trkpt>
    <trkpt lat="47.42947" lon="13.09202"><ele>2573</ele></trkpt>
    <trkpt lat="47.42959" lon="13.09202"><ele>2569</ele></trkpt>
    <trkpt lat="47.42969" lon="13.09205"><ele>2571</ele></trkpt>
    <trkpt lat="47.42978" lon="13.09207"><ele>2574</ele></trkpt>
    <trkpt lat="47.42991" lon="13.09213"><ele>2578</ele></trkpt>
    <trkpt lat="47.43001" lon="13.09206"><ele>2580</ele></trkpt>
    <trkpt lat="47.43012" lon="13.09204"><ele>2581</ele></trkpt>
    <trkpt lat="47.43022" lon="13.09203"><ele>2584</ele></trkpt>
    <trkpt lat="47.43032" lon="13.09207"><ele>2583</ele></trkpt>
    <trkpt lat="47.43043" lon="13.09205"><ele>2587</ele></trkpt>
    <trkpt lat="47.43057" lon="13.09212"><ele>2589</ele></trkpt>
    <trkpt lat="47.43068" lon="13.09214"><ele>2591</ele></trkpt>
    <trkpt lat="47.43077" lon="13.09212"><ele>2592</ele></trkpt>
    <trkpt lat="47.43086" lon="13.09217"><ele>2597</ele></trkpt>
    <trkpt lat="47.43097" lon="13.09222"><ele>2595</ele></trkpt>
    <trkpt lat="47.43108" lon="13.09219"><ele>2597</ele></trkpt>
    <trkpt lat="47.43121" lon="13.09220"><ele>2603</ele></trkpt>
    <trkpt lat="47.43133" lon="13.09213"><ele>2609</ele></trkpt>
    <trkpt lat="47.43143" lon="13.09205"><ele>2611</ele></trkpt>
    <trkpt lat="47.43150" lon="13.09195"><ele>2609</ele></trkpt>
    <trkpt lat="47.43163" lon="13.09198"><ele>2608</ele></trkpt>
    <trkpt lat="47.43160" lon="13.09212"><ele>2616</ele></trkpt>
    <trkpt lat="47.43170" lon="13.09218"><ele>2620</ele></trkpt>
    <trkpt lat="47.43183" lon="13.09227"><ele>2626</ele></trkpt>
    <trkpt lat="47.43190" lon="13.09239"><ele>2625</ele></trkpt>
    <trkpt lat="47.43198" lon="13.09252"><ele>2628</ele></trkpt>
    <trkpt lat="47.43195" lon="13.09269"><ele>2633</ele></trkpt>
    <trkpt lat="47.43186" lon="13.09269"><ele>2638</ele></trkpt>
    <trkpt lat="47.43190" lon="13.09284"><ele>2642</ele></trkpt>
    <trkpt lat="47.43196" lon="13.09298"><ele>2642</ele></trkpt>
    <trkpt lat="47.43201" lon="13.09314"><ele>2638</ele></trkpt>
    <trkpt lat="47.43209" lon="13.09320"><ele>2639</ele></trkpt>
    <trkpt lat="47.43216" lon="13.09334"><ele>2640</ele></trkpt>
    <trkpt lat="47.43225" lon="13.09347"><ele>2642</ele></trkpt>
    <trkpt lat="47.43235" lon="13.09359"><ele>2644</ele></trkpt>
    <trkpt lat="47.43246" lon="13.09372"><ele>2641</ele></trkpt>
    <trkpt lat="47.43256" lon="13.09379"><ele>2642</ele></trkpt>
    <trkpt lat="47.43266" lon="13.09394"><ele>2647</ele></trkpt>
    <trkpt lat="47.43275" lon="13.09399"><ele>2648</ele></trkpt>
    <trkpt lat="47.43284" lon="13.09406"><ele>2652</ele></trkpt>
    <trkpt lat="47.43300" lon="13.09413"><ele>2650</ele></trkpt>
    <trkpt lat="47.43310" lon="13.09416"><ele>2654</ele></trkpt>
    <trkpt lat="47.43320" lon="13.09420"><ele>2660</ele></trkpt>
    <trkpt lat="47.43326" lon="13.09432"><ele>2662</ele></trkpt>
    <trkpt lat="47.43336" lon="13.09441"><ele>2655</ele></trkpt>
    <trkpt lat="47.43349" lon="13.09441"><ele>2659</ele></trkpt>
    <trkpt lat="47.43357" lon="13.09428"><ele>2667</ele></trkpt>
    <trkpt lat="47.43363" lon="13.09413"><ele>2668</ele></trkpt>
    <trkpt lat="47.43369" lon="13.09397"><ele>2672</ele></trkpt>
    <trkpt lat="47.43375" lon="13.09386"><ele>2676</ele></trkpt>
    <trkpt lat="47.43385" lon="13.09373"><ele>2681</ele></trkpt>
    <trkpt lat="47.43394" lon="13.09362"><ele>2684</ele></trkpt>
    <trkpt lat="47.43403" lon="13.09355"><ele>2685</ele></trkpt>
    <trkpt lat="47.43415" lon="13.09345"><ele>2688</ele></trkpt>
    <trkpt lat="47.43424" lon="13.09337"><ele>2689</ele></trkpt>
    <trkpt lat="47.43434" lon="13.09332"><ele>2690</ele></trkpt>
    <trkpt lat="47.43442" lon="13.09346"><ele>2697</ele></trkpt>
    <trkpt lat="47.43451" lon="13.09359"><ele>2694</ele></trkpt>
    <trkpt lat="47.43460" lon="13.09361"><ele>2697</ele></trkpt>
    <trkpt lat="47.43472" lon="13.09370"><ele>2697</ele></trkpt>
    <trkpt lat="47.43482" lon="13.09371"><ele>2697</ele></trkpt>
    <trkpt lat="47.43494" lon="13.09381"><ele>2700</ele></trkpt>
    <trkpt lat="47.43504" lon="13.09381"><ele>2705</ele></trkpt>
    <trkpt lat="47.43517" lon="13.09384"><ele>2706</ele></trkpt>
    <trkpt lat="47.43524" lon="13.09375"><ele>2662</ele></trkpt>
    <trkpt lat="47.43525" lon="13.09359"><ele>2701</ele></trkpt>
    <trkpt lat="47.43534" lon="13.09347"><ele>2691</ele></trkpt>
    <trkpt lat="47.43541" lon="13.09333"><ele>2687</ele></trkpt>
    <trkpt lat="47.43538" lon="13.09317"><ele>2698</ele></trkpt>
    <trkpt lat="47.43554" lon="13.09301"><ele>2693</ele></trkpt>
    <trkpt lat="47.43598" lon="13.09253"><ele>2692</ele></trkpt>
    <trkpt lat="47.43636" lon="13.09234"><ele>2689</ele></trkpt>
    <trkpt lat="47.43655" lon="13.09230"><ele>2679</ele></trkpt>
    <trkpt lat="47.43670" lon="13.09215"><ele>2671</ele></trkpt>
    <trkpt lat="47.43679" lon="13.09206"><ele>2668</ele></trkpt>
    <trkpt lat="47.43695" lon="13.09208"><ele>2668</ele></trkpt>
    <trkpt lat="47.43707" lon="13.09211"><ele>2660</ele></trkpt>
    <trkpt lat="47.43716" lon="13.09223"><ele>2646</ele></trkpt>
    <trkpt lat="47.43734" lon="13.09229"><ele>2640</ele></trkpt>
    <trkpt lat="47.43765" lon="13.09225"><ele>2631</ele></trkpt>
    <trkpt lat="47.43774" lon="13.09224"><ele>2624</ele></trkpt>
    <trkpt lat="47.43787" lon="13.09252"><ele>2615</ele></trkpt>
    <trkpt lat="47.43793" lon="13.09283"><ele>2605</ele></trkpt>
    <trkpt lat="47.43789" lon="13.09343"><ele>2606</ele></trkpt>
    <trkpt lat="47.43810" lon="13.09420"><ele>2560</ele></trkpt>
    <trkpt lat="47.43833" lon="13.09463"><ele>2545</ele></trkpt>
    <trkpt lat="47.43848" lon="13.09467"><ele>2539</ele></trkpt>
    <trkpt lat="47.43867" lon="13.09466"><ele>2555</ele></trkpt>
    <trkpt lat="47.43884" lon="13.09466"><ele>2534</ele></trkpt>
    <trkpt lat="47.43894" lon="13.09467"><ele>2532</ele></trkpt>
    <trkpt lat="47.43910" lon="13.09478"><ele>2532</ele></trkpt>
    <trkpt lat="47.43925" lon="13.09500"><ele>2523</ele></trkpt>
    <trkpt lat="47.43978" lon="13.09521"><ele>2513</ele></trkpt>
    <trkpt lat="47.43980" lon="13.09538"><ele>2505</ele></trkpt>
    <trkpt lat="47.44018" lon="13.09542"><ele>2494</ele></trkpt>
    <trkpt lat="47.44050" lon="13.09576"><ele>2489</ele></trkpt>
    <trkpt lat="47.44059" lon="13.09601"><ele>2487</ele></trkpt>
    <trkpt lat="47.44039" lon="13.09651"><ele>2475</ele></trkpt>
    <trkpt lat="47.44033" lon="13.09673"><ele>2476</ele></trkpt>
    <trkpt lat="47.44032" lon="13.09689"><ele>2481</ele></trkpt>
    <trkpt lat="47.44022" lon="13.09704"><ele>2477</ele></trkpt>
    <trkpt lat="47.44021" lon="13.09770"><ele>2456</ele></trkpt>
    <trkpt lat="47.44051" lon="13.09820"><ele>2443</ele></trkpt>
    <trkpt lat="47.44086" lon="13.09873"><ele>2421</ele></trkpt>
    <trkpt lat="47.44092" lon="13.09887"><ele>2409</ele></trkpt>
    <trkpt lat="47.44093" lon="13.09905"><ele>2401</ele></trkpt>
    <trkpt lat="47.44097" lon="13.09921"><ele>2398</ele></trkpt>
    <trkpt lat="47.44096" lon="13.09937"><ele>2399</ele></trkpt>
    <trkpt lat="47.44097" lon="13.09964"><ele>2393</ele></trkpt>
    <trkpt lat="47.44098" lon="13.09979"><ele>2393</ele></trkpt>
    <trkpt lat="47.44099" lon="13.09997"><ele>2395</ele></trkpt>
    <trkpt lat="47.44098" lon="13.10012"><ele>2395</ele></trkpt>
    <trkpt lat="47.44101" lon="13.10032"><ele>2394</ele></trkpt>
    <trkpt lat="47.44102" lon="13.10049"><ele>2393</ele></trkpt>
    <trkpt lat="47.44105" lon="13.10066"><ele>2392</ele></trkpt>
    <trkpt lat="47.44111" lon="13.10091"><ele>2388</ele></trkpt>
    <trkpt lat="47.44117" lon="13.10129"><ele>2381</ele></trkpt>
    <trkpt lat="47.44142" lon="13.10184"><ele>2372</ele></trkpt>
    <trkpt lat="47.44136" lon="13.10205"><ele>2368</ele></trkpt>
    <trkpt lat="47.44131" lon="13.10219"><ele>2367</ele></trkpt>
    <trkpt lat="47.44124" lon="13.10236"><ele>2368</ele></trkpt>
    <trkpt lat="47.44127" lon="13.10253"><ele>2368</ele></trkpt>
    <trkpt lat="47.44127" lon="13.10276"><ele>2366</ele></trkpt>
    <trkpt lat="47.44121" lon="13.10293"><ele>2365</ele></trkpt>
    <trkpt lat="47.44127" lon="13.10311"><ele>2367</ele></trkpt>
    <trkpt lat="47.44131" lon="13.10324"><ele>2366</ele></trkpt>
    <trkpt lat="47.44133" lon="13.10339"><ele>2365</ele></trkpt>
    <trkpt lat="47.44136" lon="13.10361"><ele>2364</ele></trkpt>
    <trkpt lat="47.44133" lon="13.10379"><ele>2364</ele></trkpt>
    <trkpt lat="47.44138" lon="13.10396"><ele>2368</ele></trkpt>
    <trkpt lat="47.44146" lon="13.10406"><ele>2373</ele></trkpt>
    <trkpt lat="47.44153" lon="13.10416"><ele>2376</ele></trkpt>
    <trkpt lat="47.44160" lon="13.10428"><ele>2377</ele></trkpt>
    <trkpt lat="47.44165" lon="13.10442"><ele>2378</ele></trkpt>
    <trkpt lat="47.44164" lon="13.10457"><ele>2377</ele></trkpt>
    <trkpt lat="47.44158" lon="13.10475"><ele>2379</ele></trkpt>
    <trkpt lat="47.44155" lon="13.10493"><ele>2379</ele></trkpt>
    <trkpt lat="47.44153" lon="13.10512"><ele>2382</ele></trkpt>
    <trkpt lat="47.44142" lon="13.10504"><ele>2391</ele></trkpt>
    <trkpt lat="47.44134" lon="13.10495"><ele>2396</ele></trkpt>
    <trkpt lat="47.44121" lon="13.10484"><ele>2400</ele></trkpt>
    <trkpt lat="47.44120" lon="13.10498"><ele>2401</ele></trkpt>
    <trkpt lat="47.44122" lon="13.10516"><ele>2404</ele></trkpt>
    <trkpt lat="47.44123" lon="13.10530"><ele>2406</ele></trkpt>
    <trkpt lat="47.44113" lon="13.10531"><ele>2410</ele></trkpt>
    <trkpt lat="47.44103" lon="13.10525"><ele>2416</ele></trkpt>
    <trkpt lat="47.44098" lon="13.10537"><ele>2419</ele></trkpt>
    <trkpt lat="47.44090" lon="13.10552"><ele>2423</ele></trkpt>
    <trkpt lat="47.44083" lon="13.10560"><ele>2425</ele></trkpt>
    <trkpt lat="47.44073" lon="13.10572"><ele>2429</ele></trkpt>
    <trkpt lat="47.44062" lon="13.10582"><ele>2433</ele></trkpt>
    <trkpt lat="47.44053" lon="13.10585"><ele>2433</ele></trkpt>
    <trkpt lat="47.44042" lon="13.10590"><ele>2435</ele></trkpt>
    <trkpt lat="47.44033" lon="13.10596"><ele>2435</ele></trkpt>
    <trkpt lat="47.44021" lon="13.10606"><ele>2434</ele></trkpt>
    <trkpt lat="47.44011" lon="13.10614"><ele>2438</ele></trkpt>
    <trkpt lat="47.44003" lon="13.10622"><ele>2440</ele></trkpt>
    <trkpt lat="47.43994" lon="13.10635"><ele>2439</ele></trkpt>
    <trkpt lat="47.43985" lon="13.10657"><ele>2443</ele></trkpt>
    <trkpt lat="47.43991" lon="13.10667"><ele>2442</ele></trkpt>
    <trkpt lat="47.44002" lon="13.10676"><ele>2447</ele></trkpt>
    <trkpt lat="47.43996" lon="13.10687"><ele>2449</ele></trkpt>
    <trkpt lat="47.43987" lon="13.10694"><ele>2452</ele></trkpt>
    <trkpt lat="47.43974" lon="13.10695"><ele>2453</ele></trkpt>
    <trkpt lat="47.43969" lon="13.10711"><ele>2455</ele></trkpt>
    <trkpt lat="47.43959" lon="13.10722"><ele>2458</ele></trkpt>
    <trkpt lat="47.43952" lon="13.10732"><ele>2459</ele></trkpt>
    <trkpt lat="47.43952" lon="13.10748"><ele>2463</ele></trkpt>
    <trkpt lat="47.43952" lon="13.10766"><ele>2464</ele></trkpt>
    <trkpt lat="47.43958" lon="13.10779"><ele>2467</ele></trkpt>
    <trkpt lat="47.43950" lon="13.10795"><ele>2399</ele></trkpt>
    <trkpt lat="47.43965" lon="13.10855"><ele>2459</ele></trkpt>
    <trkpt lat="47.43987" lon="13.10870"><ele>2457</ele></trkpt>
    <trkpt lat="47.43996" lon="13.10889"><ele>2453</ele></trkpt>
    <trkpt lat="47.44007" lon="13.10925"><ele>2425</ele></trkpt>
    <trkpt lat="47.44008" lon="13.10980"><ele>2410</ele></trkpt>
    <trkpt lat="47.44027" lon="13.11037"><ele>2351</ele></trkpt>
    <trkpt lat="47.44086" lon="13.11114"><ele>2313</ele></trkpt>
    <trkpt lat="47.44092" lon="13.11200"><ele>2293</ele></trkpt>
    <trkpt lat="47.44091" lon="13.11215"><ele>2287</ele></trkpt>
    <trkpt lat="47.44092" lon="13.11244"><ele>2279</ele></trkpt>
    <trkpt lat="47.44083" lon="13.11271"><ele>2270</ele></trkpt>
    <trkpt lat="47.44071" lon="13.11287"><ele>2263</ele></trkpt>
    <trkpt lat="47.44072" lon="13.11309"><ele>2253</ele></trkpt>
    <trkpt lat="47.44099" lon="13.11337"><ele>2231</ele></trkpt>
    <trkpt lat="47.44101" lon="13.11367"><ele>2220</ele></trkpt>
    <trkpt lat="47.44101" lon="13.11385"><ele>2214</ele></trkpt>
    <trkpt lat="47.44111" lon="13.11432"><ele>2193</ele></trkpt>
    <trkpt lat="47.44115" lon="13.11488"><ele>2162</ele></trkpt>
    <trkpt lat="47.44133" lon="13.11541"><ele>2109</ele></trkpt>
    <trkpt lat="47.44160" lon="13.11605"><ele>2103</ele></trkpt>
    <trkpt lat="47.44164" lon="13.11643"><ele>2102</ele></trkpt>
    <trkpt lat="47.44172" lon="13.11661"><ele>2102</ele></trkpt>
    <trkpt lat="47.44203" lon="13.11724"><ele>2081</ele></trkpt>
    <trkpt lat="47.44236" lon="13.11782"><ele>2061</ele></trkpt>
    <trkpt lat="47.44271" lon="13.11850"><ele>2043</ele></trkpt>
    <trkpt lat="47.44295" lon="13.11907"><ele>2024</ele></trkpt>
    <trkpt lat="47.44284" lon="13.11900"><ele>2026</ele></trkpt>
    <trkpt lat="47.44272" lon="13.11889"><ele>2025</ele></trkpt>
    <trkpt lat="47.44268" lon="13.11876"><ele>2027</ele></trkpt>
    <trkpt lat="47.44279" lon="13.11868"><ele>2024</ele></trkpt>
    <trkpt lat="47.44272" lon="13.11856"><ele>2039</ele></trkpt>
    <trkpt lat="47.44254" lon="13.11845"><ele>2054</ele></trkpt>
    <trkpt lat="47.44242" lon="13.11853"><ele>2056</ele></trkpt>
    <trkpt lat="47.44231" lon="13.11856"><ele>1886</ele></trkpt>
    <trkpt lat="47.44217" lon="13.11851"><ele>2055</ele></trkpt>
    <trkpt lat="47.44214" lon="13.11832"><ele>2070</ele></trkpt>
    <trkpt lat="47.44190" lon="13.11832"><ele>2072</ele></trkpt>
    <trkpt lat="47.44181" lon="13.11850"><ele>2073</ele></trkpt>
    <trkpt lat="47.44168" lon="13.11863"><ele>2074</ele></trkpt>
    <trkpt lat="47.44162" lon="13.11875"><ele>2076</ele></trkpt>
    <trkpt lat="47.44153" lon="13.11893"><ele>2079</ele></trkpt>
    <trkpt lat="47.44148" lon="13.11908"><ele>2081</ele></trkpt>
    <trkpt lat="47.44141" lon="13.11936"><ele>2105</ele></trkpt>
    <trkpt lat="47.44138" lon="13.11948"><ele>2102</ele></trkpt>
    <trkpt lat="47.44133" lon="13.11962"><ele>2094</ele></trkpt>
    <trkpt lat="47.44133" lon="13.11977"><ele>2092</ele></trkpt>
    <trkpt lat="47.44133" lon="13.11991"><ele>2095</ele></trkpt>
    <trkpt lat="47.44130" lon="13.12006"><ele>2096</ele></trkpt>
    <trkpt lat="47.44119" lon="13.12015"><ele>2094</ele></trkpt>
    <trkpt lat="47.44111" lon="13.12022"><ele>2098</ele></trkpt>
    <trkpt lat="47.44097" lon="13.12022"><ele>2107</ele></trkpt>
    <trkpt lat="47.44090" lon="13.12013"><ele>2107</ele></trkpt>
    <trkpt lat="47.44079" lon="13.12006"><ele>2112</ele></trkpt>
    <trkpt lat="47.44070" lon="13.12000"><ele>2118</ele></trkpt>
    <trkpt lat="47.44059" lon="13.11992"><ele>2118</ele></trkpt>
    <trkpt lat="47.44050" lon="13.11979"><ele>2120</ele></trkpt>
    <trkpt lat="47.44037" lon="13.11970"><ele>2122</ele></trkpt>
    <trkpt lat="47.44025" lon="13.11961"><ele>2135</ele></trkpt>
    <trkpt lat="47.44022" lon="13.11948"><ele>2130</ele></trkpt>
    <trkpt lat="47.44017" lon="13.11933"><ele>2122</ele></trkpt>
    <trkpt lat="47.44011" lon="13.11922"><ele>2123</ele></trkpt>
    <trkpt lat="47.44011" lon="13.11901"><ele>2118</ele></trkpt>
    <trkpt lat="47.44006" lon="13.11883"><ele>2039</ele></trkpt>
    <trkpt lat="47.44001" lon="13.11863"><ele>2120</ele></trkpt>
    <trkpt lat="47.43994" lon="13.11845"><ele>2124</ele></trkpt>
    <trkpt lat="47.43990" lon="13.11826"><ele>2120</ele></trkpt>
    <trkpt lat="47.43983" lon="13.11806"><ele>2119</ele></trkpt>
    <trkpt lat="47.43980" lon="13.11783"><ele>2119</ele></trkpt>
    <trkpt lat="47.43970" lon="13.11775"><ele>2124</ele></trkpt>
    <trkpt lat="47.43959" lon="13.11771"><ele>2125</ele></trkpt>
    <trkpt lat="47.43950" lon="13.11772"><ele>2127</ele></trkpt>
    <trkpt lat="47.43939" lon="13.11770"><ele>2131</ele></trkpt>
    <trkpt lat="47.43929" lon="13.11768"><ele>2131</ele></trkpt>
    <trkpt lat="47.43918" lon="13.11767"><ele>2137</ele></trkpt>
    <trkpt lat="47.43907" lon="13.11763"><ele>2137</ele></trkpt>
    <trkpt lat="47.43908" lon="13.11746"><ele>2133</ele></trkpt>
    <trkpt lat="47.43898" lon="13.11747"><ele>2142</ele></trkpt>
    <trkpt lat="47.43890" lon="13.11754"><ele>2146</ele></trkpt>
    <trkpt lat="47.43882" lon="13.11759"><ele>2148</ele></trkpt>
    <trkpt lat="47.43870" lon="13.11755"><ele>2153</ele></trkpt>
    <trkpt lat="47.43860" lon="13.11753"><ele>2154</ele></trkpt>
    <trkpt lat="47.43848" lon="13.11748"><ele>2158</ele></trkpt>
    <trkpt lat="47.43839" lon="13.11745"><ele>2159</ele></trkpt>
    <trkpt lat="47.43829" lon="13.11738"><ele>2162</ele></trkpt>
    <trkpt lat="47.43817" lon="13.11730"><ele>2152</ele></trkpt>
    <trkpt lat="47.43808" lon="13.11725"><ele>2166</ele></trkpt>
    <trkpt lat="47.43802" lon="13.11708"><ele>2162</ele></trkpt>
    <trkpt lat="47.43792" lon="13.11661"><ele>2166</ele></trkpt>
    <trkpt lat="47.43762" lon="13.11628"><ele>2162</ele></trkpt>
    <trkpt lat="47.43755" lon="13.11619"><ele>2161</ele></trkpt>
    <trkpt lat="47.43720" lon="13.11634"><ele>2145</ele></trkpt>
    <trkpt lat="47.43673" lon="13.11639"><ele>2134</ele></trkpt>
    <trkpt lat="47.43651" lon="13.11644"><ele>2126</ele></trkpt>
    <trkpt lat="47.43637" lon="13.11649"><ele>2123</ele></trkpt>
    <trkpt lat="47.43627" lon="13.11650"><ele>2131</ele></trkpt>
    <trkpt lat="47.43621" lon="13.11636"><ele>2132</ele></trkpt>
    <trkpt lat="47.43615" lon="13.11614"><ele>2125</ele></trkpt>
    <trkpt lat="47.43609" lon="13.11605"><ele>2124</ele></trkpt>
    <trkpt lat="47.43593" lon="13.11604"><ele>2120</ele></trkpt>
    <trkpt lat="47.43577" lon="13.11618"><ele>2118</ele></trkpt>
    <trkpt lat="47.43573" lon="13.11643"><ele>2105</ele></trkpt>
    <trkpt lat="47.43569" lon="13.11674"><ele>2100</ele></trkpt>
    <trkpt lat="47.43537" lon="13.11674"><ele>2089</ele></trkpt>
    <trkpt lat="47.43520" lon="13.11661"><ele>2070</ele></trkpt>
    <trkpt lat="47.43484" lon="13.11641"><ele>2063</ele></trkpt>
    <trkpt lat="47.43457" lon="13.11645"><ele>2044</ele></trkpt>
    <trkpt lat="47.43423" lon="13.11652"><ele>2101</ele></trkpt>
    <trkpt lat="47.43401" lon="13.11674"><ele>2036</ele></trkpt>
    <trkpt lat="47.43381" lon="13.11736"><ele>2033</ele></trkpt>
    <trkpt lat="47.43379" lon="13.11770"><ele>2030</ele></trkpt>
    <trkpt lat="47.43366" lon="13.11805"><ele>2045</ele></trkpt>
    <trkpt lat="47.43360" lon="13.11816"><ele>2015</ele></trkpt>
    <trkpt lat="47.43351" lon="13.11834"><ele>2003</ele></trkpt>
    <trkpt lat="47.43344" lon="13.11842"><ele>1999</ele></trkpt>
    <trkpt lat="47.43335" lon="13.11849"><ele>1996</ele></trkpt>
    <trkpt lat="47.43313" lon="13.11875"><ele>1990</ele></trkpt>
    <trkpt lat="47.43298" lon="13.11875"><ele>1990</ele></trkpt>
    <trkpt lat="47.43287" lon="13.11871"><ele>1989</ele></trkpt>
    <trkpt lat="47.43274" lon="13.11868"><ele>1991</ele></trkpt>
    <trkpt lat="47.43259" lon="13.11867"><ele>1984</ele></trkpt>
    <trkpt lat="47.43246" lon="13.11869"><ele>1882</ele></trkpt>
    <trkpt lat="47.43237" lon="13.11879"><ele>1969</ele></trkpt>
    <trkpt lat="47.43229" lon="13.11896"><ele>1981</ele></trkpt>
    <trkpt lat="47.43226" lon="13.11916"><ele>2010</ele></trkpt>
    <trkpt lat="47.43229" lon="13.11930"><ele>1988</ele></trkpt>
    <trkpt lat="47.43230" lon="13.11945"><ele>1985</ele></trkpt>
    <trkpt lat="47.43233" lon="13.11959"><ele>1983</ele></trkpt>
    <trkpt lat="47.43235" lon="13.11973"><ele>1979</ele></trkpt>
    <trkpt lat="47.43242" lon="13.11986"><ele>1977</ele></trkpt>
    <trkpt lat="47.43245" lon="13.12002"><ele>1980</ele></trkpt>
    <trkpt lat="47.43246" lon="13.12020"><ele>1983</ele></trkpt>
    <trkpt lat="47.43242" lon="13.12035"><ele>1977</ele></trkpt>
    <trkpt lat="47.43233" lon="13.12042"><ele>1983</ele></trkpt>
    <trkpt lat="47.43227" lon="13.12066"><ele>1988</ele></trkpt>
    <trkpt lat="47.43227" lon="13.12090"><ele>1984</ele></trkpt>
    <trkpt lat="47.43230" lon="13.12106"><ele>1983</ele></trkpt>
    <trkpt lat="47.43225" lon="13.12215"><ele>1973</ele></trkpt>
    <trkpt lat="47.43223" lon="13.12245"><ele>1975</ele></trkpt>
    <trkpt lat="47.43224" lon="13.12275"><ele>1971</ele></trkpt>
    <trkpt lat="47.43223" lon="13.12300"><ele>1969</ele></trkpt>
    <trkpt lat="47.43204" lon="13.12305"><ele>1957</ele></trkpt>
    <trkpt lat="47.43184" lon="13.12295"><ele>1955</ele></trkpt>
    <trkpt lat="47.43164" lon="13.12278"><ele>1820</ele></trkpt>
    <trkpt lat="47.43136" lon="13.12279"><ele>1906</ele></trkpt>
    <trkpt lat="47.43105" lon="13.12337"><ele>1900</ele></trkpt>
    <trkpt lat="47.43082" lon="13.12370"><ele>1915</ele></trkpt>
    <trkpt lat="47.43032" lon="13.12397"><ele>1876</ele></trkpt>
    <trkpt lat="47.42999" lon="13.12386"><ele>1954</ele></trkpt>
    <trkpt lat="47.42971" lon="13.12436"><ele>1846</ele></trkpt>
    <trkpt lat="47.42962" lon="13.12509"><ele>1825</ele></trkpt>
    <trkpt lat="47.42960" lon="13.12564"><ele>1814</ele></trkpt>
    <trkpt lat="47.42957" lon="13.12583"><ele>1807</ele></trkpt>
    <trkpt lat="47.42977" lon="13.12638"><ele>1792</ele></trkpt>
    <trkpt lat="47.42971" lon="13.12665"><ele>1775</ele></trkpt>
    <trkpt lat="47.42958" lon="13.12703"><ele>1751</ele></trkpt>
    <trkpt lat="47.42972" lon="13.12731"><ele>1740</ele></trkpt>
    <trkpt lat="47.42982" lon="13.12757"><ele>1718</ele></trkpt>
    <trkpt lat="47.42975" lon="13.12768"><ele>1697</ele></trkpt>
    <trkpt lat="47.42971" lon="13.12814"><ele>1683</ele></trkpt>
    <trkpt lat="47.42977" lon="13.12848"><ele>1672</ele></trkpt>
    <trkpt lat="47.42990" lon="13.12892"><ele>1640</ele></trkpt>
    <trkpt lat="47.43013" lon="13.12955"><ele>1619</ele></trkpt>
    <trkpt lat="47.43031" lon="13.13002"><ele>1603</ele></trkpt>
    <trkpt lat="47.43028" lon="13.13025"><ele>1597</ele></trkpt>
    <trkpt lat="47.43022" lon="13.13034"><ele>1601</ele></trkpt>
    <trkpt lat="47.43014" lon="13.13055"><ele>1596</ele></trkpt>
    <trkpt lat="47.43007" lon="13.13069"><ele>1592</ele></trkpt>
    <trkpt lat="47.42995" lon="13.13093"><ele>1589</ele></trkpt>
    <trkpt lat="47.42983" lon="13.13121"><ele>1584</ele></trkpt>
    <trkpt lat="47.42974" lon="13.13145"><ele>1583</ele></trkpt>
    <trkpt lat="47.42971" lon="13.13170"><ele>1580</ele></trkpt>
    <trkpt lat="47.42986" lon="13.13250"><ele>1551</ele></trkpt>
    <trkpt lat="47.42973" lon="13.13292"><ele>1545</ele></trkpt>
    <trkpt lat="47.42967" lon="13.13303"><ele>1539</ele></trkpt>
    <trkpt lat="47.42955" lon="13.13343"><ele>1527</ele></trkpt>
    <trkpt lat="47.42941" lon="13.13385"><ele>1523</ele></trkpt>
    <trkpt lat="47.42932" lon="13.13442"><ele>1513</ele></trkpt>
    <trkpt lat="47.42919" lon="13.13469"><ele>1504</ele></trkpt>
    <trkpt lat="47.42909" lon="13.13502"><ele>1501</ele></trkpt>
    <trkpt lat="47.42908" lon="13.13519"><ele>1527</ele></trkpt>
    <trkpt lat="47.42903" lon="13.13565"><ele>1518</ele></trkpt>
    <trkpt lat="47.42905" lon="13.13644"><ele>1602</ele></trkpt>
    <trkpt lat="47.42894" lon="13.13645"><ele>1464</ele></trkpt>
    <trkpt lat="47.42882" lon="13.13653"><ele>1460</ele></trkpt>
    <trkpt lat="47.42872" lon="13.13669"><ele>1462</ele></trkpt>
    <trkpt lat="47.42866" lon="13.13683"><ele>1461</ele></trkpt>
    <trkpt lat="47.42854" lon="13.13699"><ele>1463</ele></trkpt>
    <trkpt lat="47.42848" lon="13.13713"><ele>1465</ele></trkpt>
    <trkpt lat="47.42837" lon="13.13716"><ele>1469</ele></trkpt>
    <trkpt lat="47.42829" lon="13.13725"><ele>1470</ele></trkpt>
    <trkpt lat="47.42821" lon="13.13739"><ele>1472</ele></trkpt>
    <trkpt lat="47.42807" lon="13.13737"><ele>1479</ele></trkpt>
    <trkpt lat="47.42802" lon="13.13758"><ele>1480</ele></trkpt>
    <trkpt lat="47.42799" lon="13.13776"><ele>1502</ele></trkpt>
    <trkpt lat="47.42788" lon="13.13774"><ele>1488</ele></trkpt>
    <trkpt lat="47.42775" lon="13.13769"><ele>1492</ele></trkpt>
    <trkpt lat="47.42767" lon="13.13774"><ele>1497</ele></trkpt>
    <trkpt lat="47.42759" lon="13.13786"><ele>1500</ele></trkpt>
    <trkpt lat="47.42765" lon="13.13801"><ele>1499</ele></trkpt>
    <trkpt lat="47.42759" lon="13.13813"><ele>1507</ele></trkpt>
    <trkpt lat="47.42758" lon="13.13827"><ele>1506</ele></trkpt>
    <trkpt lat="47.42749" lon="13.13832"><ele>1510</ele></trkpt>
    <trkpt lat="47.42738" lon="13.13841"><ele>1520</ele></trkpt>
    <trkpt lat="47.42725" lon="13.13842"><ele>1524</ele></trkpt>
    <trkpt lat="47.42730" lon="13.13857"><ele>1527</ele></trkpt>
    <trkpt lat="47.42719" lon="13.13864"><ele>1532</ele></trkpt>
    <trkpt lat="47.42718" lon="13.13881"><ele>1537</ele></trkpt>
    <trkpt lat="47.42713" lon="13.13900"><ele>1540</ele></trkpt>
    <trkpt lat="47.42701" lon="13.13899"><ele>1542</ele></trkpt>
    <trkpt lat="47.42691" lon="13.13896"><ele>1546</ele></trkpt>
    <trkpt lat="47.42678" lon="13.13893"><ele>1550</ele></trkpt>
    <trkpt lat="47.42668" lon="13.13892"><ele>1552</ele></trkpt>
    <trkpt lat="47.42655" lon="13.13907"><ele>1555</ele></trkpt>
    <trkpt lat="47.42648" lon="13.13918"><ele>1560</ele></trkpt>
    <trkpt lat="47.42646" lon="13.13936"><ele>1564</ele></trkpt>
    <trkpt lat="47.42641" lon="13.13952"><ele>1565</ele></trkpt>
    <trkpt lat="47.42636" lon="13.13964"><ele>1569</ele></trkpt>
    <trkpt lat="47.42631" lon="13.13981"><ele>1574</ele></trkpt>
    <trkpt lat="47.42622" lon="13.13985"><ele>1577</ele></trkpt>
    <trkpt lat="47.42620" lon="13.14000"><ele>1583</ele></trkpt>
    <trkpt lat="47.42612" lon="13.14013"><ele>1584</ele></trkpt>
    <trkpt lat="47.42602" lon="13.14007"><ele>1588</ele></trkpt>
    <trkpt lat="47.42593" lon="13.13996"><ele>1593</ele></trkpt>
    <trkpt lat="47.42594" lon="13.14009"><ele>1593</ele></trkpt>
    <trkpt lat="47.42593" lon="13.14025"><ele>1598</ele></trkpt>
    <trkpt lat="47.42588" lon="13.14041"><ele>1605</ele></trkpt>
    <trkpt lat="47.42582" lon="13.14057"><ele>1605</ele></trkpt>
    <trkpt lat="47.42572" lon="13.14066"><ele>1602</ele></trkpt>
    <trkpt lat="47.42562" lon="13.14051"><ele>1615</ele></trkpt>
    <trkpt lat="47.42552" lon="13.14049"><ele>1617</ele></trkpt>
    <trkpt lat="47.42540" lon="13.14040"><ele>1618</ele></trkpt>
    <trkpt lat="47.42539" lon="13.14024"><ele>1620</ele></trkpt>
    <trkpt lat="47.42533" lon="13.14013"><ele>1624</ele></trkpt>
    <trkpt lat="47.42524" lon="13.14005"><ele>1626</ele></trkpt>
    <trkpt lat="47.42513" lon="13.13998"><ele>1628</ele></trkpt>
    <trkpt lat="47.42506" lon="13.13980"><ele>1633</ele></trkpt>
    <trkpt lat="47.42499" lon="13.13968"><ele>1635</ele></trkpt>
    <trkpt lat="47.42489" lon="13.13965"><ele>1640</ele></trkpt>
    <trkpt lat="47.42479" lon="13.13974"><ele>1647</ele></trkpt>
    <trkpt lat="47.42468" lon="13.13980"><ele>1650</ele></trkpt>
    <trkpt lat="47.42456" lon="13.13980"><ele>1655</ele></trkpt>
    <trkpt lat="47.42443" lon="13.13973"><ele>1658</ele></trkpt>
    <trkpt lat="47.42438" lon="13.13961"><ele>1658</ele></trkpt>
    <trkpt lat="47.42433" lon="13.13950"><ele>1661</ele></trkpt>
    <trkpt lat="47.42430" lon="13.13936"><ele>1665</ele></trkpt>
    <trkpt lat="47.42419" lon="13.13934"><ele>1667</ele></trkpt>
    <trkpt lat="47.42409" lon="13.13931"><ele>1671</ele></trkpt>
    <trkpt lat="47.42392" lon="13.13924"><ele>1674</ele></trkpt>
    <trkpt lat="47.42378" lon="13.13922"><ele>1675</ele></trkpt>
    <trkpt lat="47.42367" lon="13.13926"><ele>1677</ele></trkpt>
    <trkpt lat="47.42354" lon="13.13929"><ele>1679</ele></trkpt>
    <trkpt lat="47.42339" lon="13.13938"><ele>1681</ele></trkpt>
    <trkpt lat="47.42328" lon="13.13950"><ele>1681</ele></trkpt>
    <trkpt lat="47.42319" lon="13.13959"><ele>1680</ele></trkpt>
    <trkpt lat="47.42311" lon="13.13970"><ele>1679</ele></trkpt>
    <trkpt lat="47.42307" lon="13.13982"><ele>1681</ele></trkpt>
    <trkpt lat="47.42295" lon="13.13997"><ele>1681</ele></trkpt>
    <trkpt lat="47.42281" lon="13.14007"><ele>1680</ele></trkpt>
    <trkpt lat="47.42270" lon="13.14016"><ele>1679</ele></trkpt>
    <trkpt lat="47.42261" lon="13.14025"><ele>1677</ele></trkpt>
    <trkpt lat="47.42252" lon="13.14034"><ele>1676</ele></trkpt>
    <trkpt lat="47.42240" lon="13.14041"><ele>1674</ele></trkpt>
    <trkpt lat="47.42228" lon="13.14049"><ele>1675</ele></trkpt>
    <trkpt lat="47.42219" lon="13.14057"><ele>1676</ele></trkpt>
    <trkpt lat="47.42206" lon="13.14076"><ele>1676</ele></trkpt>
    <trkpt lat="47.42197" lon="13.14087"><ele>1676</ele></trkpt>
    <trkpt lat="47.42188" lon="13.14098"><ele>1678</ele></trkpt>
    <trkpt lat="47.42183" lon="13.14112"><ele>1678</ele></trkpt>
    <trkpt lat="47.42178" lon="13.14128"><ele>1679</ele></trkpt>
    <trkpt lat="47.42166" lon="13.14138"><ele>1677</ele></trkpt>
    <trkpt lat="47.42156" lon="13.14145"><ele>1673</ele></trkpt>
    <trkpt lat="47.42140" lon="13.14156"><ele>1672</ele></trkpt>
    <trkpt lat="47.42131" lon="13.14161"><ele>1671</ele></trkpt>
    <trkpt lat="47.42118" lon="13.14170"><ele>1673</ele></trkpt>
    <trkpt lat="47.42108" lon="13.14173"><ele>1672</ele></trkpt>
    <trkpt lat="47.42100" lon="13.14179"><ele>1673</ele></trkpt>
    <trkpt lat="47.42089" lon="13.14185"><ele>1672</ele></trkpt>
    <trkpt lat="47.42077" lon="13.14182"><ele>1673</ele></trkpt>
    <trkpt lat="47.42066" lon="13.14172"><ele>1676</ele></trkpt>
    <trkpt lat="47.42057" lon="13.14157"><ele>1676</ele></trkpt>
    <trkpt lat="47.42037" lon="13.14137"><ele>1676</ele></trkpt>
    <trkpt lat="47.42028" lon="13.14113"><ele>1675</ele></trkpt>
    <trkpt lat="47.42016" lon="13.14099"><ele>1675</ele></trkpt>
    <trkpt lat="47.42001" lon="13.14078"><ele>1662</ele></trkpt>
    <trkpt lat="47.41989" lon="13.14069"><ele>1654</ele></trkpt>
    <trkpt lat="47.41975" lon="13.14055"><ele>1652</ele></trkpt>
    <trkpt lat="47.41954" lon="13.14022"><ele>1645</ele></trkpt>
    <trkpt lat="47.41925" lon="13.13968"><ele>1655</ele></trkpt>
    <trkpt lat="47.41886" lon="13.13900"><ele>1630</ele></trkpt>
    <trkpt lat="47.41817" lon="13.13817"><ele>1622</ele></trkpt>
    <trkpt lat="47.41785" lon="13.13811"><ele>1619</ele></trkpt>
    <trkpt lat="47.41773" lon="13.13808"><ele>1614</ele></trkpt>
    <trkpt lat="47.41747" lon="13.13792"><ele>1616</ele></trkpt>
    <trkpt lat="47.41737" lon="13.13774"><ele>1615</ele></trkpt>
    <trkpt lat="47.41727" lon="13.13751"><ele>1613</ele></trkpt>
    <trkpt lat="47.41715" lon="13.13748"><ele>1612</ele></trkpt>
    <trkpt lat="47.41703" lon="13.13740"><ele>1613</ele></trkpt>
    <trkpt lat="47.41689" lon="13.13727"><ele>1615</ele></trkpt>
    <trkpt lat="47.41674" lon="13.13710"><ele>1615</ele></trkpt>
    <trkpt lat="47.41666" lon="13.13694"><ele>1615</ele></trkpt>
    <trkpt lat="47.41651" lon="13.13658"><ele>1611</ele></trkpt>
    <trkpt lat="47.41643" lon="13.13644"><ele>1610</ele></trkpt>
    <trkpt lat="47.41624" lon="13.13618"><ele>1611</ele></trkpt>
    <trkpt lat="47.41615" lon="13.13619"><ele>1611</ele></trkpt>
    <trkpt lat="47.41604" lon="13.13590"><ele>1612</ele></trkpt>
    <trkpt lat="47.41584" lon="13.13566"><ele>1611</ele></trkpt>
    <trkpt lat="47.41575" lon="13.13559"><ele>1608</ele></trkpt>
    <trkpt lat="47.41571" lon="13.13542"><ele>1609</ele></trkpt>
    <trkpt lat="47.41562" lon="13.13537"><ele>1609</ele></trkpt>
    <trkpt lat="47.41543" lon="13.13525"><ele>1612</ele></trkpt>
    <trkpt lat="47.41533" lon="13.13527"><ele>1613</ele></trkpt>
    <trkpt lat="47.41516" lon="13.13518"><ele>1610</ele></trkpt>
    <trkpt lat="47.41503" lon="13.13514"><ele>1612</ele></trkpt>
    <trkpt lat="47.41494" lon="13.13503"><ele>1610</ele></trkpt>
    <trkpt lat="47.41492" lon="13.13477"><ele>1609</ele></trkpt>
    <trkpt lat="47.41472" lon="13.13466"><ele>1608</ele></trkpt>
    <trkpt lat="47.41458" lon="13.13473"><ele>1610</ele></trkpt>
    <trkpt lat="47.41434" lon="13.13425"><ele>1606</ele></trkpt>
    <trkpt lat="47.41386" lon="13.13393"><ele>1598</ele></trkpt>
    <trkpt lat="47.41373" lon="13.13363"><ele>1597</ele></trkpt>
    <trkpt lat="47.41373" lon="13.13299"><ele>1590</ele></trkpt>
    <trkpt lat="47.41363" lon="13.13273"><ele>1585</ele></trkpt>
    <trkpt lat="47.41337" lon="13.13262"><ele>1578</ele></trkpt>
    <trkpt lat="47.41303" lon="13.13260"><ele>1572</ele></trkpt>
    <trkpt lat="47.41286" lon="13.13244"><ele>1567</ele></trkpt>
    <trkpt lat="47.41261" lon="13.13218"><ele>1565</ele></trkpt>
    <trkpt lat="47.41246" lon="13.13160"><ele>1561</ele></trkpt>
    <trkpt lat="47.41226" lon="13.13093"><ele>1556</ele></trkpt>
    <trkpt lat="47.41202" lon="13.13059"><ele>1549</ele></trkpt>
    <trkpt lat="47.41129" lon="13.13120"><ele>1530</ele></trkpt>
    <trkpt lat="47.41064" lon="13.13158"><ele>1520</ele></trkpt>
    <trkpt lat="47.41049" lon="13.13131"><ele>1518</ele></trkpt>
    <trkpt lat="47.41046" lon="13.13114"><ele>1519</ele></trkpt>
    <trkpt lat="47.41031" lon="13.13092"><ele>1517</ele></trkpt>
    <trkpt lat="47.41022" lon="13.13067"><ele>1517</ele></trkpt>
    <trkpt lat="47.41014" lon="13.13033"><ele>1512</ele></trkpt>
    <trkpt lat="47.41003" lon="13.12999"><ele>1513</ele></trkpt>
    <trkpt lat="47.41000" lon="13.12968"><ele>1518</ele></trkpt>
    <trkpt lat="47.41006" lon="13.12946"><ele>1511</ele></trkpt>
    <trkpt lat="47.41014" lon="13.12923"><ele>1510</ele></trkpt>
    <trkpt lat="47.41020" lon="13.12910"><ele>1505</ele></trkpt>
    <trkpt lat="47.41027" lon="13.12894"><ele>1505</ele></trkpt>
    <trkpt lat="47.41030" lon="13.12886"><ele>1516</ele></trkpt>
  </trkseg>
</trk>
</gpx>