<?xml version="1.0" encoding="UTF-8"?>
<gpx version="1.1" creator="Gpx-Optimizer" xmlns="http://www.topografix.com/GPX/1/1">
<trk>
  <name>Ski_Klingspitz</name>
  <type>skimo</type>
  <trkseg>
    <trkpt lat="47.38338" lon="12.94527"><ele>967</ele></trkpt>
    <trkpt lat="47.38310" lon="12.94529"><ele>982</ele></trkpt>
    <trkpt lat="47.38289" lon="12.94552"><ele>976</ele></trkpt>
    <trkpt lat="47.38255" lon="12.94565"><ele>971</ele></trkpt>
    <trkpt lat="47.38184" lon="12.94646"><ele>965</ele></trkpt>
    <trkpt lat="47.38174" lon="12.94694"><ele>982</ele></trkpt>
    <trkpt lat="47.38161" lon="12.94723"><ele>992</ele></trkpt>
    <trkpt lat="47.38171" lon="12.94729"><ele>1000</ele></trkpt>
    <trkpt lat="47.38140" lon="12.94741"><ele>977</ele></trkpt>
    <trkpt lat="47.38151" lon="12.94728"><ele>962</ele></trkpt>
    <trkpt lat="47.38140" lon="12.94724"><ele>958</ele></trkpt>
    <trkpt lat="47.38072" lon="12.94683"><ele>1013</ele></trkpt>
    <trkpt lat="47.38056" lon="12.94667"><ele>1002</ele></trkpt>
    <trkpt lat="47.38030" lon="12.94665"><ele>1022</ele></trkpt>
    <trkpt lat="47.38013" lon="12.94656"><ele>1031</ele></trkpt>
    <trkpt lat="47.37989" lon="12.94654"><ele>1032</ele></trkpt>
    <trkpt lat="47.37970" lon="12.94641"><ele>1024</ele></trkpt>
    <trkpt lat="47.37923" lon="12.94639"><ele>1006</ele></trkpt>
    <trkpt lat="47.37905" lon="12.94625"><ele>1030</ele></trkpt>
    <trkpt lat="47.37896" lon="12.94649"><ele>1048</ele></trkpt>
    <trkpt lat="47.37913" lon="12.94681"><ele>1055</ele></trkpt>
    <trkpt lat="47.37918" lon="12.94732"><ele>1095</ele></trkpt>
    <trkpt lat="47.37899" lon="12.94739"><ele>1064</ele></trkpt>
    <trkpt lat="47.37870" lon="12.94785"><ele>1077</ele></trkpt>
    <trkpt lat="47.37833" lon="12.94789"><ele>1076</ele></trkpt>
    <trkpt lat="47.37811" lon="12.94772"><ele>1085</ele></trkpt>
    <trkpt lat="47.37816" lon="12.94741"><ele>1056</ele></trkpt>
    <trkpt lat="47.37785" lon="12.94766"><ele>1096</ele></trkpt>
    <trkpt lat="47.37778" lon="12.94789"><ele>1109</ele></trkpt>
    <trkpt lat="47.37768" lon="12.94798"><ele>1125</ele></trkpt>
    <trkpt lat="47.37744" lon="12.94816"><ele>1116</ele></trkpt>
    <trkpt lat="47.37760" lon="12.94840"><ele>1127</ele></trkpt>
    <trkpt lat="47.37747" lon="12.94847"><ele>1122</ele></trkpt>
    <trkpt lat="47.37727" lon="12.94883"><ele>1130</ele></trkpt>
    <trkpt lat="47.37682" lon="12.94858"><ele>1138</ele></trkpt>
    <trkpt lat="47.37712" lon="12.94933"><ele>1155</ele></trkpt>
    <trkpt lat="47.37684" lon="12.94904"><ele>1155</ele></trkpt>
    <trkpt lat="47.37662" lon="12.94864"><ele>1165</ele></trkpt>
    <trkpt lat="47.37628" lon="12.94837"><ele>1175</ele></trkpt>
    <trkpt lat="47.37618" lon="12.94852"><ele>1179</ele></trkpt>
    <trkpt lat="47.37614" lon="12.94897"><ele>1187</ele></trkpt>
    <trkpt lat="47.37623" lon="12.94916"><ele>1213</ele></trkpt>
    <trkpt lat="47.37604" lon="12.94945"><ele>1199</ele></trkpt>
    <trkpt lat="47.37611" lon="12.94921"><ele>1201</ele></trkpt>
    <trkpt lat="47.37583" lon="12.94978"><ele>1206</ele></trkpt>
    <trkpt lat="47.37595" lon="12.94977"><ele>1239</ele></trkpt>
    <trkpt lat="47.37573" lon="12.95008"><ele>1231</ele></trkpt>
    <trkpt lat="47.37564" lon="12.95035"><ele>1237</ele></trkpt>
    <trkpt lat="47.37572" lon="12.95057"><ele>1280</ele></trkpt>
    <trkpt lat="47.37573" lon="12.95080"><ele>1241</ele></trkpt>
    <trkpt lat="47.37583" lon="12.95109"><ele>1248</ele></trkpt>
    <trkpt lat="47.37572" lon="12.95125"><ele>1248</ele></trkpt>
    <trkpt lat="47.37554" lon="12.95143"><ele>1254</ele></trkpt>
    <trkpt lat="47.37566" lon="12.95171"><ele>1251</ele></trkpt>
    <trkpt lat="47.37555" lon="12.95193"><ele>1238</ele></trkpt>
    <trkpt lat="47.37579" lon="12.95244"><ele>1277</ele></trkpt>
    <trkpt lat="47.37564" lon="12.95213"><ele>1278</ele></trkpt>
    <trkpt lat="47.37526" lon="12.95229"><ele>1283</ele></trkpt>
    <trkpt lat="47.37516" lon="12.95246"><ele>1277</ele></trkpt>
    <trkpt lat="47.37514" lon="12.95273"><ele>1288</ele></trkpt>
    <trkpt lat="47.37498" lon="12.95259"><ele>1297</ele></trkpt>
    <trkpt lat="47.37470" lon="12.95312"><ele>1298</ele></trkpt>
    <trkpt lat="47.37477" lon="12.95300"><ele>1303</ele></trkpt>
    <trkpt lat="47.37414" lon="12.95337"><ele>1324</ele></trkpt>
    <trkpt lat="47.37372" lon="12.95356"><ele>1341</ele></trkpt>
    <trkpt lat="47.37353" lon="12.95349"><ele>1348</ele></trkpt>
    <trkpt lat="47.37324" lon="12.95386"><ele>1343</ele></trkpt>
    <trkpt lat="47.37313" lon="12.95368"><ele>1342</ele></trkpt>
    <trkpt lat="47.37294" lon="12.95408"><ele>1342</ele></trkpt>
    <trkpt lat="47.37303" lon="12.95420"><ele>1353</ele></trkpt>
    <trkpt lat="47.37295" lon="12.95449"><ele>1364</ele></trkpt>
    <trkpt lat="47.37248" lon="12.95481"><ele>1328</ele></trkpt>
    <trkpt lat="47.37257" lon="12.95485"><ele>1354</ele></trkpt>
    <trkpt lat="47.37228" lon="12.95526"><ele>1390</ele></trkpt>
    <trkpt lat="47.37232" lon="12.95545"><ele>1418</ele></trkpt>
    <trkpt lat="47.37211" lon="12.95550"><ele>1420</ele></trkpt>
    <trkpt lat="47.37192" lon="12.95592"><ele>1422</ele></trkpt>
    <trkpt lat="47.37180" lon="12.95624"><ele>1367</ele></trkpt>
    <trkpt lat="47.37197" lon="12.95632"><ele>1367</ele></trkpt>
    <trkpt lat="47.37199" lon="12.95655"><ele>1427</ele></trkpt>
    <trkpt lat="47.37189" lon="12.95730"><ele>1461</ele></trkpt>
    <trkpt lat="47.37147" lon="12.95718"><ele>1415</ele></trkpt>
    <trkpt lat="47.37137" lon="12.95710"><ele>1474</ele></trkpt>
    <trkpt lat="47.37135" lon="12.95685"><ele>1475</ele></trkpt>
    <trkpt lat="47.37096" lon="12.95718"><ele>1501</ele></trkpt>
    <trkpt lat="47.37080" lon="12.95725"><ele>1483</ele></trkpt>
    <trkpt lat="47.37062" lon="12.95776"><ele>1489</ele></trkpt>
    <trkpt lat="47.37052" lon="12.95782"><ele>1501</ele></trkpt>
    <trkpt lat="47.37038" lon="12.95830"><ele>1482</ele></trkpt>
    <trkpt lat="47.37023" lon="12.95856"><ele>1545</ele></trkpt>
    <trkpt lat="47.37008" lon="12.95859"><ele>1526</ele></trkpt>
    <trkpt lat="47.36950" lon="12.95951"><ele>1517</ele></trkpt>
    <trkpt lat="47.36937" lon="12.95958"><ele>1593</ele></trkpt>
    <trkpt lat="47.36909" lon="12.95971"><ele>1531</ele></trkpt>
    <trkpt lat="47.36893" lon="12.95983"><ele>1554</ele></trkpt>
    <trkpt lat="47.36868" lon="12.96012"><ele>1547</ele></trkpt>
    <trkpt lat="47.36823" lon="12.96084"><ele>1591</ele></trkpt>
    <trkpt lat="47.36798" lon="12.96087"><ele>1561</ele></trkpt>
    <trkpt lat="47.36769" lon="12.96100"><ele>1560</ele></trkpt>
    <trkpt lat="47.36758" lon="12.96149"><ele>1576</ele></trkpt>
    <trkpt lat="47.36739" lon="12.96174"><ele>1628</ele></trkpt>
    <trkpt lat="47.36674" lon="12.96173"><ele>1612</ele></trkpt>
    <trkpt lat="47.36649" lon="12.96172"><ele>1633</ele></trkpt>
    <trkpt lat="47.36608" lon="12.96180"><ele>1620</ele></trkpt>
    <trkpt lat="47.36599" lon="12.96174"><ele>1638</ele></trkpt>
    <trkpt lat="47.36577" lon="12.96167"><ele>1645</ele></trkpt>
    <trkpt lat="47.36554" lon="12.96183"><ele>1644</ele></trkpt>
    <trkpt lat="47.36542" lon="12.96199"><ele>1649</ele></trkpt>
    <trkpt lat="47.36513" lon="12.96205"><ele>1621</ele></trkpt>
    <trkpt lat="47.36503" lon="12.96211"><ele>1664</ele></trkpt>
    <trkpt lat="47.36481" lon="12.96224"><ele>1679</ele></trkpt>
    <trkpt lat="47.36462" lon="12.96239"><ele>1692</ele></trkpt>
    <trkpt lat="47.36420" lon="12.96232"><ele>1694</ele></trkpt>
    <trkpt lat="47.36400" lon="12.96235"><ele>1694</ele></trkpt>
    <trkpt lat="47.36390" lon="12.96235"><ele>1720</ele></trkpt>
    <trkpt lat="47.36346" lon="12.96253"><ele>1695</ele></trkpt>
    <trkpt lat="47.36295" lon="12.96245"><ele>1710</ele></trkpt>
    <trkpt lat="47.36269" lon="12.96213"><ele>1662</ele></trkpt>
    <trkpt lat="47.36253" lon="12.96235"><ele>1729</ele></trkpt>
    <trkpt lat="47.36261" lon="12.96246"><ele>1766</ele></trkpt>
    <trkpt lat="47.36254" lon="12.96283"><ele>1715</ele></trkpt>
    <trkpt lat="47.36272" lon="12.96344"><ele>1761</ele></trkpt>
    <trkpt lat="47.36292" lon="12.96379"><ele>1780</ele></trkpt>
    <trkpt lat="47.36280" lon="12.96380"><ele>1745</ele></trkpt>
    <trkpt lat="47.36261" lon="12.96383"><ele>1767</ele></trkpt>
    <trkpt lat="47.36250" lon="12.96364"><ele>1795</ele></trkpt>
    <trkpt lat="47.36227" lon="12.96375"><ele>1796</ele></trkpt>
    <trkpt lat="47.36194" lon="12.96352"><ele>1788</ele></trkpt>
    <trkpt lat="47.36185" lon="12.96342"><ele>1792</ele></trkpt>
    <trkpt lat="47.36162" lon="12.96333"><ele>1799</ele></trkpt>
    <trkpt lat="47.36150" lon="12.96325"><ele>1812</ele></trkpt>
    <trkpt lat="47.36126" lon="12.96334"><ele>1814</ele></trkpt>
    <trkpt lat="47.36111" lon="12.96325"><ele>1807</ele></trkpt>
    <trkpt lat="47.36071" lon="12.96320"><ele>1828</ele></trkpt>
    <trkpt lat="47.36038" lon="12.96303"><ele>1834</ele></trkpt>
    <trkpt lat="47.35975" lon="12.96278"><ele>1811</ele></trkpt>
    <trkpt lat="47.35965" lon="12.96241"><ele>1818</ele></trkpt>
    <trkpt lat="47.35934" lon="12.96228"><ele>1820</ele></trkpt>
    <trkpt lat="47.35877" lon="12.96210"><ele>1821</ele></trkpt>
    <trkpt lat="47.35855" lon="12.96219"><ele>1821</ele></trkpt>
    <trkpt lat="47.35812" lon="12.96234"><ele>1817</ele></trkpt>
    <trkpt lat="47.35788" lon="12.96210"><ele>1828</ele></trkpt>
    <trkpt lat="47.35747" lon="12.96177"><ele>1830</ele></trkpt>
    <trkpt lat="47.35718" lon="12.96173"><ele>1827</ele></trkpt>
    <trkpt lat="47.35713" lon="12.96155"><ele>1818</ele></trkpt>
    <trkpt lat="47.35715" lon="12.96122"><ele>1807</ele></trkpt>
    <trkpt lat="47.35664" lon="12.96160"><ele>1833</ele></trkpt>
    <trkpt lat="47.35630" lon="12.96154"><ele>1820</ele></trkpt>
    <trkpt lat="47.35618" lon="12.96146"><ele>1843</ele></trkpt>
    <trkpt lat="47.35602" lon="12.96137"><ele>1831</ele></trkpt>
    <trkpt lat="47.35584" lon="12.96135"><ele>1846</ele></trkpt>
    <trkpt lat="47.35546" lon="12.96133"><ele>1847</ele></trkpt>
    <trkpt lat="47.35516" lon="12.96119"><ele>1835</ele></trkpt>
    <trkpt lat="47.35500" lon="12.96113"><ele>1868</ele></trkpt>
    <trkpt lat="47.35488" lon="12.96085"><ele>1875</ele></trkpt>
    <trkpt lat="47.35449" lon="12.96086"><ele>1848</ele></trkpt>
    <trkpt lat="47.35392" lon="12.96043"><ele>1821</ele></trkpt>
    <trkpt lat="47.35358" lon="12.96047"><ele>1838</ele></trkpt>
    <trkpt lat="47.35350" lon="12.96021"><ele>1851</ele></trkpt>
    <trkpt lat="47.35325" lon="12.96027"><ele>1855</ele></trkpt>
    <trkpt lat="47.35306" lon="12.96006"><ele>1850</ele></trkpt>
    <trkpt lat="47.35279" lon="12.96006"><ele>1860</ele></trkpt>
    <trkpt lat="47.35270" lon="12.95980"><ele>1855</ele></trkpt>
    <trkpt lat="47.35257" lon="12.95974"><ele>1862</ele></trkpt>
    <trkpt lat="47.35251" lon="12.95958"><ele>1852</ele></trkpt>
    <trkpt lat="47.35231" lon="12.95942"><ele>1884</ele></trkpt>
    <trkpt lat="47.35231" lon="12.95905"><ele>1888</ele></trkpt>
    <trkpt lat="47.35208" lon="12.95890"><ele>1879</ele></trkpt>
    <trkpt lat="47.35198" lon="12.95899"><ele>1887</ele></trkpt>
    <trkpt lat="47.35185" lon="12.95920"><ele>1926</ele></trkpt>
    <trkpt lat="47.35178" lon="12.95894"><ele>1917</ele></trkpt>
    <trkpt lat="47.35170" lon="12.95876"><ele>1925</ele></trkpt>
    <trkpt lat="47.35164" lon="12.95859"><ele>1921</ele></trkpt>
    <trkpt lat="47.35143" lon="12.95871"><ele>1941</ele></trkpt>
    <trkpt lat="47.35132" lon="12.95854"><ele>1941</ele></trkpt>
    <trkpt lat="47.35120" lon="12.95848"><ele>1931</ele></trkpt>
    <trkpt lat="47.35110" lon="12.95865"><ele>1950</ele></trkpt>
    <trkpt lat="47.35093" lon="12.95854"><ele>1940</ele></trkpt>
    <trkpt lat="47.35039" lon="12.95845"><ele>1965</ele></trkpt>
    <trkpt lat="47.35020" lon="12.95842"><ele>1979</ele></trkpt>
    <trkpt lat="47.35010" lon="12.95835"><ele>1985</ele></trkpt>
    <trkpt lat="47.34996" lon="12.95837"><ele>1992</ele></trkpt>
    <trkpt lat="47.34980" lon="12.95847"><ele>1984</ele></trkpt>
    <trkpt lat="47.34972" lon="12.95861"><ele>1989</ele></trkpt>
    <trkpt lat="47.34958" lon="12.95894"><ele>1978</ele></trkpt>
    <trkpt lat="47.34964" lon="12.95878"><ele>1996</ele></trkpt>
    <trkpt lat="47.34938" lon="12.95793"><ele>1990</ele></trkpt>
    <trkpt lat="47.34923" lon="12.95715"><ele>1987</ele></trkpt>
    <trkpt lat="47.34917" lon="12.95654"><ele>1978</ele></trkpt>
    <trkpt lat="47.34913" lon="12.95599"><ele>1990</ele></trkpt>
    <trkpt lat="47.34916" lon="12.95500"><ele>1991</ele></trkpt>
    <trkpt lat="47.34911" lon="12.95459"><ele>1982</ele></trkpt>
    <trkpt lat="47.34905" lon="12.95427"><ele>1998</ele></trkpt>
    <trkpt lat="47.34912" lon="12.95359"><ele>1995</ele></trkpt>
    <trkpt lat="47.34900" lon="12.95314"><ele>2010</ele></trkpt>
    <trkpt lat="47.34895" lon="12.95278"><ele>2006</ele></trkpt>
    <trkpt lat="47.34880" lon="12.95243"><ele>2027</ele></trkpt>
    <trkpt lat="47.34886" lon="12.95226"><ele>2030</ele></trkpt>
    <trkpt lat="47.34877" lon="12.95202"><ele>2026</ele></trkpt>
    <trkpt lat="47.34867" lon="12.95177"><ele>2025</ele></trkpt>
    <trkpt lat="47.34860" lon="12.95157"><ele>2026</ele></trkpt>
    <trkpt lat="47.34846" lon="12.95192"><ele>2020</ele></trkpt>
    <trkpt lat="47.34810" lon="12.95355"><ele>1882</ele></trkpt>
    <trkpt lat="47.34798" lon="12.95364"><ele>1916</ele></trkpt>
    <trkpt lat="47.34717" lon="12.95480"><ele>1875</ele></trkpt>
    <trkpt lat="47.34668" lon="12.95461"><ele>1834</ele></trkpt>
    <trkpt lat="47.34640" lon="12.95459"><ele>1817</ele></trkpt>
    <trkpt lat="47.34551" lon="12.95424"><ele>1809</ele></trkpt>
    <trkpt lat="47.34527" lon="12.95391"><ele>1811</ele></trkpt>
    <trkpt lat="47.34530" lon="12.95332"><ele>1785</ele></trkpt>
    <trkpt lat="47.34518" lon="12.95301"><ele>1779</ele></trkpt>
    <trkpt lat="47.34512" lon="12.95282"><ele>1795</ele></trkpt>
    <trkpt lat="47.34511" lon="12.95236"><ele>1783</ele></trkpt>
    <trkpt lat="47.34480" lon="12.95201"><ele>1794</ele></trkpt>
    <trkpt lat="47.34468" lon="12.95193"><ele>1812</ele></trkpt>
    <trkpt lat="47.34472" lon="12.95176"><ele>1839</ele></trkpt>
    <trkpt lat="47.34480" lon="12.95153"><ele>1815</ele></trkpt>
    <trkpt lat="47.34485" lon="12.95120"><ele>1808</ele></trkpt>
    <trkpt lat="47.34464" lon="12.95112"><ele>1828</ele></trkpt>
    <trkpt lat="47.34473" lon="12.95085"><ele>1840</ele></trkpt>
    <trkpt lat="47.34483" lon="12.95089"><ele>1842</ele></trkpt>
    <trkpt lat="47.34503" lon="12.95091"><ele>1836</ele></trkpt>
    <trkpt lat="47.34497" lon="12.95079"><ele>1862</ele></trkpt>
    <trkpt lat="47.34500" lon="12.95037"><ele>1857</ele></trkpt>
    <trkpt lat="47.34495" lon="12.95021"><ele>1877</ele></trkpt>
    <trkpt lat="47.34505" lon="12.95015"><ele>1849</ele></trkpt>
    <trkpt lat="47.34513" lon="12.95028"><ele>1865</ele></trkpt>
    <trkpt lat="47.34542" lon="12.95016"><ele>1910</ele></trkpt>
    <trkpt lat="47.34554" lon="12.95005"><ele>1893</ele></trkpt>
    <trkpt lat="47.34564" lon="12.94995"><ele>1892</ele></trkpt>
    <trkpt lat="47.34568" lon="12.94980"><ele>1896</ele></trkpt>
    <trkpt lat="47.34575" lon="12.94965"><ele>1898</ele></trkpt>
    <trkpt lat="47.34579" lon="12.94937"><ele>1917</ele></trkpt>
    <trkpt lat="47.34591" lon="12.94928"><ele>1904</ele></trkpt>
    <trkpt lat="47.34605" lon="12.94908"><ele>1915</ele></trkpt>
    <trkpt lat="47.34615" lon="12.94910"><ele>1914</ele></trkpt>
    <trkpt lat="47.34632" lon="12.94897"><ele>1908</ele></trkpt>
    <trkpt lat="47.34646" lon="12.94888"><ele>1905</ele></trkpt>
    <trkpt lat="47.34655" lon="12.94910"><ele>1932</ele></trkpt>
    <trkpt lat="47.34669" lon="12.94923"><ele>1934</ele></trkpt>
    <trkpt lat="47.34678" lon="12.94928"><ele>1928</ele></trkpt>
    <trkpt lat="47.34692" lon="12.94935"><ele>1942</ele></trkpt>
    <trkpt lat="47.34701" lon="12.94954"><ele>1956</ele></trkpt>
    <trkpt lat="47.34718" lon="12.94980"><ele>1945</ele></trkpt>
    <trkpt lat="47.34743" lon="12.94982"><ele>1953</ele></trkpt>
    <trkpt lat="47.34754" lon="12.95005"><ele>1960</ele></trkpt>
    <trkpt lat="47.34761" lon="12.95032"><ele>1971</ele></trkpt>
    <trkpt lat="47.34768" lon="12.95053"><ele>1974</ele></trkpt>
    <trkpt lat="47.34776" lon="12.95067"><ele>1980</ele></trkpt>
    <trkpt lat="47.34790" lon="12.95081"><ele>1982</ele></trkpt>
    <trkpt lat="47.34788" lon="12.95094"><ele>1985</ele></trkpt>
    <trkpt lat="47.34795" lon="12.95103"><ele>1992</ele></trkpt>
    <trkpt lat="47.34803" lon="12.95123"><ele>2004</ele></trkpt>
    <trkpt lat="47.34817" lon="12.95125"><ele>2003</ele></trkpt>
    <trkpt lat="47.34824" lon="12.95139"><ele>2007</ele></trkpt>
    <trkpt lat="47.34837" lon="12.95117"><ele>2013</ele></trkpt>
    <trkpt lat="47.34864" lon="12.95106"><ele>2016</ele></trkpt>
    <trkpt lat="47.34871" lon="12.95093"><ele>2016</ele></trkpt>
    <trkpt lat="47.34879" lon="12.95076"><ele>2024</ele></trkpt>
    <trkpt lat="47.34880" lon="12.95054"><ele>2024</ele></trkpt>
    <trkpt lat="47.34875" lon="12.95007"><ele>2020</ele></trkpt>
    <trkpt lat="47.34868" lon="12.94973"><ele>2016</ele></trkpt>
    <trkpt lat="47.34864" lon="12.94940"><ele>2016</ele></trkpt>
    <trkpt lat="47.34865" lon="12.94910"><ele>1997</ele></trkpt>
    <trkpt lat="47.35022" lon="12.94909"><ele>1911</ele></trkpt>
    <trkpt lat="47.35225" lon="12.94957"><ele>1808</ele></trkpt>
    <trkpt lat="47.35212" lon="12.94964"><ele>1791</ele></trkpt>
    <trkpt lat="47.35288" lon="12.95028"><ele>1750</ele></trkpt>
    <trkpt lat="47.35356" lon="12.95076"><ele>1676</ele></trkpt>
    <trkpt lat="47.35441" lon="12.95118"><ele>1721</ele></trkpt>
    <trkpt lat="47.35479" lon="12.95134"><ele>1644</ele></trkpt>
    <trkpt lat="47.35615" lon="12.95158"><ele>1553</ele></trkpt>
    <trkpt lat="47.35606" lon="12.95152"><ele>1550</ele></trkpt>
    <trkpt lat="47.35614" lon="12.95109"><ele>1543</ele></trkpt>
    <trkpt lat="47.35634" lon="12.95105"><ele>1549</ele></trkpt>
    <trkpt lat="47.35672" lon="12.95090"><ele>1547</ele></trkpt>
    <trkpt lat="47.35720" lon="12.94984"><ele>1554</ele></trkpt>
    <trkpt lat="47.35822" lon="12.94934"><ele>1471</ele></trkpt>
    <trkpt lat="47.35835" lon="12.94852"><ele>1437</ele></trkpt>
    <trkpt lat="47.35844" lon="12.94857"><ele>1418</ele></trkpt>
    <trkpt lat="47.35977" lon="12.94818"><ele>1367</ele></trkpt>
    <trkpt lat="47.36035" lon="12.94800"><ele>1389</ele></trkpt>
    <trkpt lat="47.36044" lon="12.94813"><ele>1399</ele></trkpt>
    <trkpt lat="47.36087" lon="12.94819"><ele>1360</ele></trkpt>
    <trkpt lat="47.36289" lon="12.94856"><ele>1332</ele></trkpt>
    <trkpt lat="47.36247" lon="12.94853"><ele>1337</ele></trkpt>
    <trkpt lat="47.36251" lon="12.94839"><ele>1409</ele></trkpt>
    <trkpt lat="47.36427" lon="12.94621"><ele>1249</ele></trkpt>
    <trkpt lat="47.36510" lon="12.94658"><ele>1247</ele></trkpt>
    <trkpt lat="47.36574" lon="12.94672"><ele>1265</ele></trkpt>
    <trkpt lat="47.36632" lon="12.94687"><ele>1228</ele></trkpt>
    <trkpt lat="47.36808" lon="12.94860"><ele>1205</ele></trkpt>
    <trkpt lat="47.36925" lon="12.94755"><ele>1183</ele></trkpt>
    <trkpt lat="47.37052" lon="12.94743"><ele>1142</ele></trkpt>
    <trkpt lat="47.37175" lon="12.94623"><ele>1137</ele></trkpt>
    <trkpt lat="47.37440" lon="12.94509"><ele>1129</ele></trkpt>
    <trkpt lat="47.37548" lon="12.94519"><ele>1094</ele></trkpt>
    <trkpt lat="47.37676" lon="12.94552"><ele>1056</ele></trkpt>
    <trkpt lat="47.37749" lon="12.94549"><ele>1055</ele></trkpt>
    <trkpt lat="47.37797" lon="12.94535"><ele>1064</ele></trkpt>
    <trkpt lat="47.37834" lon="12.94546"><ele>1053</ele></trkpt>
    <trkpt lat="47.37850" lon="12.94552"><ele>1042</ele></trkpt>
    <trkpt lat="47.37874" lon="12.94519"><ele>1019</ele></trkpt>
    <trkpt lat="47.37919" lon="12.94548"><ele>1018</ele></trkpt>
    <trkpt lat="47.37953" lon="12.94569"><ele>1010</ele></trkpt>
    <trkpt lat="47.37991" lon="12.94592"><ele>1015</ele></trkpt>
    <trkpt lat="47.38003" lon="12.94599"><ele>1033</ele></trkpt>
    <trkpt lat="47.38074" lon="12.94618"><ele>1046</ele></trkpt>
    <trkpt lat="47.38077" lon="12.94659"><ele>973</ele></trkpt>
    <trkpt lat="47.38119" lon="12.94697"><ele>1006</ele></trkpt>
    <trkpt lat="47.38147" lon="12.94725"><ele>993</ele></trkpt>
    <trkpt lat="47.38169" lon="12.94684"><ele>979</ele></trkpt>
    <trkpt lat="47.38181" lon="12.94635"><ele>973</ele></trkpt>
    <trkpt lat="47.38203" lon="12.94587"><ele>967</ele></trkpt>
    <trkpt lat="47.38231" lon="12.94563"><ele>963</ele></trkpt>
    <trkpt lat="47.38270" lon="12.94559"><ele>978</ele></trkpt>
    <trkpt lat="47.38301" lon="12.94538"><ele>964</ele></trkpt>
    <trkpt lat="47.38326" lon="12.94514"><ele>971</ele></trkpt>
    <trkpt lat="47.38341" lon="12.94523"><ele>955</ele></trkpt>
  </trkseg>
</trk>
</gpx>