<?xml version="1.0" encoding="UTF-8"?>
<gpx version="1.1" creator="GPX-Pro" xmlns="http://www.topografix.com/GPX/1/1">
<trk>
  <name>Mtb_StNikola-Mauthausen</name>
  <trkseg>
    <trkpt lat="48.23354" lon="14.90915"><ele>237</ele><time>2024-04-12T07:58:02Z</time></trkpt>
    <trkpt lat="48.23326" lon="14.90784"><ele>240</ele><time>2024-04-12T07:59:03Z</time></trkpt>
    <trkpt lat="48.23337" lon="14.90693"><ele>260</ele><time>2024-04-12T07:59:34Z</time></trkpt>
    <trkpt lat="48.23280" lon="14.90691"><ele>239</ele><time>2024-04-12T08:00:04Z</time></trkpt>
    <trkpt lat="48.23245" lon="14.90634"><ele>222</ele><time>2024-04-12T08:00:34Z</time></trkpt>
    <trkpt lat="48.23280" lon="14.90501"><ele>225</ele><time>2024-04-12T08:01:04Z</time></trkpt>
    <trkpt lat="48.23368" lon="14.90478"><ele>232</ele><time>2024-04-12T08:01:34Z</time></trkpt>
    <trkpt lat="48.23323" lon="14.90425"><ele>231</ele><time>2024-04-12T08:02:04Z</time></trkpt>
    <trkpt lat="48.23285" lon="14.90345"><ele>218</ele><time>2024-04-12T08:02:40Z</time></trkpt>
    <trkpt lat="48.23280" lon="14.90288"><ele>248</ele><time>2024-04-12T08:03:10Z</time></trkpt>
    <trkpt lat="48.23227" lon="14.90316"><ele>237</ele><time>2024-04-12T08:03:40Z</time></trkpt>
    <trkpt lat="48.23178" lon="14.90187"><ele>222</ele><time>2024-04-12T08:04:10Z</time></trkpt>
    <trkpt lat="48.23124" lon="14.90022"><ele>217</ele><time>2024-04-12T08:04:40Z</time></trkpt>
    <trkpt lat="48.23127" lon="14.89863"><ele>219</ele><time>2024-04-12T08:05:10Z</time></trkpt>
    <trkpt lat="48.23233" lon="14.89847"><ele>235</ele><time>2024-04-12T08:06:07Z</time></trkpt>
    <trkpt lat="48.23201" lon="14.89994"><ele>251</ele><time>2024-04-12T08:07:36Z</time></trkpt>
    <trkpt lat="48.23230" lon="14.90105"><ele>264</ele><time>2024-04-12T08:08:06Z</time></trkpt>
    <trkpt lat="48.23275" lon="14.90149"><ele>256</ele><time>2024-04-12T08:08:36Z</time></trkpt>
    <trkpt lat="48.23277" lon="14.90082"><ele>271</ele><time>2024-04-12T08:09:06Z</time></trkpt>
    <trkpt lat="48.23294" lon="14.89995"><ele>271</ele><time>2024-04-12T08:09:54Z</time></trkpt>
    <trkpt lat="48.23343" lon="14.89893"><ele>288</ele><time>2024-04-12T08:11:24Z</time></trkpt>
    <trkpt lat="48.23386" lon="14.89880"><ele>301</ele><time>2024-04-12T08:11:54Z</time></trkpt>
    <trkpt lat="48.23394" lon="14.89795"><ele>300</ele><time>2024-04-12T08:12:25Z</time></trkpt>
    <trkpt lat="48.23355" lon="14.89766"><ele>348</ele><time>2024-04-12T08:12:55Z</time></trkpt>
    <trkpt lat="48.23291" lon="14.89690"><ele>318</ele><time>2024-04-12T08:13:45Z</time></trkpt>
    <trkpt lat="48.23318" lon="14.89689"><ele>331</ele><time>2024-04-12T08:14:15Z</time></trkpt>
    <trkpt lat="48.23283" lon="14.89654"><ele>325</ele><time>2024-04-12T08:14:45Z</time></trkpt>
    <trkpt lat="48.23328" lon="14.89610"><ele>321</ele><time>2024-04-12T08:15:15Z</time></trkpt>
    <trkpt lat="48.23387" lon="14.89642"><ele>361</ele><time>2024-04-12T08:15:50Z</time></trkpt>
    <trkpt lat="48.23478" lon="14.89663"><ele>335</ele><time>2024-04-12T08:16:49Z</time></trkpt>
    <trkpt lat="48.23523" lon="14.89655"><ele>361</ele><time>2024-04-12T08:17:19Z</time></trkpt>
    <trkpt lat="48.23602" lon="14.89625"><ele>389</ele><time>2024-04-12T08:17:57Z</time></trkpt>
    <trkpt lat="48.23622" lon="14.89619"><ele>352</ele><time>2024-04-12T08:18:27Z</time></trkpt>
    <trkpt lat="48.23633" lon="14.89663"><ele>365</ele><time>2024-04-12T08:18:57Z</time></trkpt>
    <trkpt lat="48.23575" lon="14.89790"><ele>370</ele><time>2024-04-12T08:19:56Z</time></trkpt>
    <trkpt lat="48.23585" lon="14.89819"><ele>386</ele><time>2024-04-12T08:20:26Z</time></trkpt>
    <trkpt lat="48.23676" lon="14.89993"><ele>381</ele><time>2024-04-12T08:22:30Z</time></trkpt>
    <trkpt lat="48.23737" lon="14.90036"><ele>399</ele><time>2024-04-12T08:23:22Z</time></trkpt>
    <trkpt lat="48.23818" lon="14.90031"><ele>481</ele><time>2024-04-12T08:24:22Z</time></trkpt>
    <trkpt lat="48.23892" lon="14.90095"><ele>418</ele><time>2024-04-12T08:24:52Z</time></trkpt>
    <trkpt lat="48.23937" lon="14.90117"><ele>416</ele><time>2024-04-12T08:25:22Z</time></trkpt>
    <trkpt lat="48.23959" lon="14.90091"><ele>409</ele><time>2024-04-12T08:25:52Z</time></trkpt>
    <trkpt lat="48.24035" lon="14.90022"><ele>436</ele><time>2024-04-12T08:26:34Z</time></trkpt>
    <trkpt lat="48.24094" lon="14.90025"><ele>457</ele><time>2024-04-12T08:27:04Z</time></trkpt>
    <trkpt lat="48.24171" lon="14.90057"><ele>407</ele><time>2024-04-12T08:27:34Z</time></trkpt>
    <trkpt lat="48.24156" lon="14.90105"><ele>433</ele><time>2024-04-12T08:28:04Z</time></trkpt>
    <trkpt lat="48.24175" lon="14.90154"><ele>437</ele><time>2024-04-12T08:28:34Z</time></trkpt>
    <trkpt lat="48.24216" lon="14.90133"><ele>446</ele><time>2024-04-12T08:29:04Z</time></trkpt>
    <trkpt lat="48.24243" lon="14.90103"><ele>449</ele><time>2024-04-12T08:29:34Z</time></trkpt>
    <trkpt lat="48.24274" lon="14.90039"><ele>455</ele><time>2024-04-12T08:30:10Z</time></trkpt>
    <trkpt lat="48.24355" lon="14.90079"><ele>474</ele><time>2024-04-12T08:30:40Z</time></trkpt>
    <trkpt lat="48.24400" lon="14.90047"><ele>457</ele><time>2024-04-12T08:31:26Z</time></trkpt>
    <trkpt lat="48.24407" lon="14.90028"><ele>464</ele><time>2024-04-12T08:31:56Z</time></trkpt>
    <trkpt lat="48.24425" lon="14.90027"><ele>463</ele><time>2024-04-12T08:32:26Z</time></trkpt>
    <trkpt lat="48.24487" lon="14.89920"><ele>466</ele><time>2024-04-12T08:32:56Z</time></trkpt>
    <trkpt lat="48.24592" lon="14.90033"><ele>432</ele><time>2024-04-12T08:33:26Z</time></trkpt>
    <trkpt lat="48.24602" lon="14.90069"><ele>443</ele><time>2024-04-12T08:33:56Z</time></trkpt>
    <trkpt lat="48.24605" lon="14.90017"><ele>453</ele><time>2024-04-12T08:34:26Z</time></trkpt>
    <trkpt lat="48.24599" lon="14.89965"><ele>440</ele><time>2024-04-12T08:34:56Z</time></trkpt>
    <trkpt lat="48.24560" lon="14.89937"><ele>462</ele><time>2024-04-12T08:35:26Z</time></trkpt>
    <trkpt lat="48.24491" lon="14.89869"><ele>455</ele><time>2024-04-12T08:35:56Z</time></trkpt>
    <trkpt lat="48.24459" lon="14.89835"><ele>469</ele><time>2024-04-12T08:36:26Z</time></trkpt>
    <trkpt lat="48.24440" lon="14.89787"><ele>470</ele><time>2024-04-12T08:36:56Z</time></trkpt>
    <trkpt lat="48.24434" lon="14.89726"><ele>475</ele><time>2024-04-12T08:37:26Z</time></trkpt>
    <trkpt lat="48.24447" lon="14.89685"><ele>476</ele><time>2024-04-12T08:37:56Z</time></trkpt>
    <trkpt lat="48.24446" lon="14.89617"><ele>497</ele><time>2024-04-12T08:43:25Z</time></trkpt>
    <trkpt lat="48.24458" lon="14.89588"><ele>492</ele><time>2024-04-12T08:43:56Z</time></trkpt>
    <trkpt lat="48.24480" lon="14.89575"><ele>495</ele><time>2024-04-12T08:44:26Z</time></trkpt>
    <trkpt lat="48.24533" lon="14.89526"><ele>502</ele><time>2024-04-12T08:44:56Z</time></trkpt>
    <trkpt lat="48.24573" lon="14.89459"><ele>511</ele><time>2024-04-12T08:45:26Z</time></trkpt>
    <trkpt lat="48.24677" lon="14.89403"><ele>513</ele><time>2024-04-12T08:46:14Z</time></trkpt>
    <trkpt lat="48.24686" lon="14.89428"><ele>486</ele><time>2024-04-12T08:46:44Z</time></trkpt>
    <trkpt lat="48.24705" lon="14.89529"><ele>509</ele><time>2024-04-12T08:47:14Z</time></trkpt>
    <trkpt lat="48.24736" lon="14.89589"><ele>503</ele><time>2024-04-12T08:47:44Z</time></trkpt>
    <trkpt lat="48.24713" lon="14.89786"><ele>490</ele><time>2024-04-12T08:48:14Z</time></trkpt>
    <trkpt lat="48.24842" lon="14.89924"><ele>475</ele><time>2024-04-12T08:48:44Z</time></trkpt>
    <trkpt lat="48.25010" lon="14.89817"><ele>446</ele><time>2024-04-12T08:49:14Z</time></trkpt>
    <trkpt lat="48.25107" lon="14.89544"><ele>448</ele><time>2024-04-12T08:50:15Z</time></trkpt>
    <trkpt lat="48.25131" lon="14.89447"><ele>469</ele><time>2024-04-12T08:50:45Z</time></trkpt>
    <trkpt lat="48.25140" lon="14.89279"><ele>470</ele><time>2024-04-12T08:51:42Z</time></trkpt>
    <trkpt lat="48.25217" lon="14.89201"><ele>470</ele><time>2024-04-12T08:52:20Z</time></trkpt>
    <trkpt lat="48.25293" lon="14.89167"><ele>473</ele><time>2024-04-12T08:52:50Z</time></trkpt>
    <trkpt lat="48.25400" lon="14.88985"><ele>460</ele><time>2024-04-12T08:53:20Z</time></trkpt>
    <trkpt lat="48.25501" lon="14.88726"><ele>447</ele><time>2024-04-12T08:53:50Z</time></trkpt>
    <trkpt lat="48.25635" lon="14.88463"><ele>428</ele><time>2024-04-12T08:54:20Z</time></trkpt>
    <trkpt lat="48.25857" lon="14.88400"><ele>421</ele><time>2024-04-12T08:55:08Z</time></trkpt>
    <trkpt lat="48.25969" lon="14.88305"><ele>414</ele><time>2024-04-12T08:55:38Z</time></trkpt>
    <trkpt lat="48.26089" lon="14.88317"><ele>411</ele><time>2024-04-12T08:56:08Z</time></trkpt>
    <trkpt lat="48.26122" lon="14.88417"><ele>417</ele><time>2024-04-12T08:56:38Z</time></trkpt>
    <trkpt lat="48.26196" lon="14.88363"><ele>419</ele><time>2024-04-12T08:57:08Z</time></trkpt>
    <trkpt lat="48.26307" lon="14.88164"><ele>415</ele><time>2024-04-12T08:57:38Z</time></trkpt>
    <trkpt lat="48.26392" lon="14.88141"><ele>423</ele><time>2024-04-12T08:58:08Z</time></trkpt>
    <trkpt lat="48.26457" lon="14.88216"><ele>411</ele><time>2024-04-12T08:58:38Z</time></trkpt>
    <trkpt lat="48.26547" lon="14.88110"><ele>416</ele><time>2024-04-12T08:59:15Z</time></trkpt>
    <trkpt lat="48.26614" lon="14.87992"><ele>418</ele><time>2024-04-12T08:59:46Z</time></trkpt>
    <trkpt lat="48.26685" lon="14.87930"><ele>429</ele><time>2024-04-12T09:00:16Z</time></trkpt>
    <trkpt lat="48.26792" lon="14.87890"><ele>417</ele><time>2024-04-12T09:00:46Z</time></trkpt>
    <trkpt lat="48.26858" lon="14.87853"><ele>423</ele><time>2024-04-12T09:01:16Z</time></trkpt>
    <trkpt lat="48.26905" lon="14.87819"><ele>442</ele><time>2024-04-12T09:01:46Z</time></trkpt>
    <trkpt lat="48.26985" lon="14.87789"><ele>429</ele><time>2024-04-12T09:02:35Z</time></trkpt>
    <trkpt lat="48.26965" lon="14.87733"><ele>457</ele><time>2024-04-12T09:03:05Z</time></trkpt>
    <trkpt lat="48.26967" lon="14.87669"><ele>461</ele><time>2024-04-12T09:03:35Z</time></trkpt>
    <trkpt lat="48.26959" lon="14.87594"><ele>468</ele><time>2024-04-12T09:04:05Z</time></trkpt>
    <trkpt lat="48.26960" lon="14.87455"><ele>460</ele><time>2024-04-12T09:04:57Z</time></trkpt>
    <trkpt lat="48.26947" lon="14.87403"><ele>474</ele><time>2024-04-12T09:05:27Z</time></trkpt>
    <trkpt lat="48.26961" lon="14.87334"><ele>506</ele><time>2024-04-12T09:06:11Z</time></trkpt>
    <trkpt lat="48.26990" lon="14.87238"><ele>509</ele><time>2024-04-12T09:07:11Z</time></trkpt>
    <trkpt lat="48.26960" lon="14.87203"><ele>520</ele><time>2024-04-12T09:07:41Z</time></trkpt>
    <trkpt lat="48.26932" lon="14.87228"><ele>483</ele><time>2024-04-12T09:08:40Z</time></trkpt>
    <trkpt lat="48.26883" lon="14.87200"><ele>488</ele><time>2024-04-12T09:09:11Z</time></trkpt>
    <trkpt lat="48.26865" lon="14.87216"><ele>527</ele><time>2024-04-12T09:09:41Z</time></trkpt>
    <trkpt lat="48.26822" lon="14.87207"><ele>541</ele><time>2024-04-12T09:10:36Z</time></trkpt>
    <trkpt lat="48.26793" lon="14.87204"><ele>555</ele><time>2024-04-12T09:11:07Z</time></trkpt>
    <trkpt lat="48.26720" lon="14.87210"><ele>551</ele><time>2024-04-12T09:12:06Z</time></trkpt>
    <trkpt lat="48.26715" lon="14.87112"><ele>530</ele><time>2024-04-12T09:13:36Z</time></trkpt>
    <trkpt lat="48.26747" lon="14.87086"><ele>581</ele><time>2024-04-12T09:14:06Z</time></trkpt>
    <trkpt lat="48.26743" lon="14.87073"><ele>599</ele><time>2024-04-12T09:14:37Z</time></trkpt>
    <trkpt lat="48.26713" lon="14.86988"><ele>605</ele><time>2024-04-12T09:15:36Z</time></trkpt>
    <trkpt lat="48.26709" lon="14.86947"><ele>595</ele><time>2024-04-12T09:16:06Z</time></trkpt>
    <trkpt lat="48.26699" lon="14.86908"><ele>611</ele><time>2024-04-12T09:16:36Z</time></trkpt>
    <trkpt lat="48.26686" lon="14.86864"><ele>619</ele><time>2024-04-12T09:17:06Z</time></trkpt>
    <trkpt lat="48.26668" lon="14.86796"><ele>618</ele><time>2024-04-12T09:17:36Z</time></trkpt>
    <trkpt lat="48.26657" lon="14.86743"><ele>620</ele><time>2024-04-12T09:18:06Z</time></trkpt>
    <trkpt lat="48.26631" lon="14.86628"><ele>613</ele><time>2024-04-12T09:18:36Z</time></trkpt>
    <trkpt lat="48.26619" lon="14.86557"><ele>605</ele><time>2024-04-12T09:19:23Z</time></trkpt>
    <trkpt lat="48.26664" lon="14.86380"><ele>598</ele><time>2024-04-12T09:24:23Z</time></trkpt>
    <trkpt lat="48.26708" lon="14.86034"><ele>576</ele><time>2024-04-12T09:24:53Z</time></trkpt>
    <trkpt lat="48.26724" lon="14.85874"><ele>578</ele><time>2024-04-12T09:25:23Z</time></trkpt>
    <trkpt lat="48.26685" lon="14.85773"><ele>568</ele><time>2024-04-12T09:25:53Z</time></trkpt>
    <trkpt lat="48.26659" lon="14.85658"><ele>552</ele><time>2024-04-12T09:26:23Z</time></trkpt>
    <trkpt lat="48.26675" lon="14.85484"><ele>548</ele><time>2024-04-12T09:26:53Z</time></trkpt>
    <trkpt lat="48.26621" lon="14.85326"><ele>554</ele><time>2024-04-12T09:27:23Z</time></trkpt>
    <trkpt lat="48.26557" lon="14.85219"><ele>545</ele><time>2024-04-12T09:27:53Z</time></trkpt>
    <trkpt lat="48.26510" lon="14.85111"><ele>537</ele><time>2024-04-12T09:28:23Z</time></trkpt>
    <trkpt lat="48.26483" lon="14.84902"><ele>575</ele><time>2024-04-12T09:28:53Z</time></trkpt>
    <trkpt lat="48.26392" lon="14.84798"><ele>511</ele><time>2024-04-12T09:29:23Z</time></trkpt>
    <trkpt lat="48.26319" lon="14.84621"><ele>488</ele><time>2024-04-12T09:29:53Z</time></trkpt>
    <trkpt lat="48.26375" lon="14.84508"><ele>502</ele><time>2024-04-12T09:30:30Z</time></trkpt>
    <trkpt lat="48.26360" lon="14.84294"><ele>500</ele><time>2024-04-12T09:31:16Z</time></trkpt>
    <trkpt lat="48.26380" lon="14.84197"><ele>504</ele><time>2024-04-12T09:31:46Z</time></trkpt>
    <trkpt lat="48.26425" lon="14.84025"><ele>549</ele><time>2024-04-12T09:32:45Z</time></trkpt>
    <trkpt lat="48.26437" lon="14.83944"><ele>519</ele><time>2024-04-12T09:33:15Z</time></trkpt>
    <trkpt lat="48.26591" lon="14.83562"><ele>501</ele><time>2024-04-12T09:34:01Z</time></trkpt>
    <trkpt lat="48.26585" lon="14.83466"><ele>494</ele><time>2024-04-12T09:34:31Z</time></trkpt>
    <trkpt lat="48.26582" lon="14.83353"><ele>496</ele><time>2024-04-12T09:35:01Z</time></trkpt>
    <trkpt lat="48.26670" lon="14.83387"><ele>510</ele><time>2024-04-12T09:35:53Z</time></trkpt>
    <trkpt lat="48.26709" lon="14.83398"><ele>505</ele><time>2024-04-12T09:36:24Z</time></trkpt>
    <trkpt lat="48.26762" lon="14.83338"><ele>521</ele><time>2024-04-12T09:36:57Z</time></trkpt>
    <trkpt lat="48.26782" lon="14.83194"><ele>518</ele><time>2024-04-12T09:37:28Z</time></trkpt>
    <trkpt lat="48.26815" lon="14.83020"><ele>517</ele><time>2024-04-12T09:37:58Z</time></trkpt>
    <trkpt lat="48.26832" lon="14.82573"><ele>542</ele><time>2024-04-12T09:38:57Z</time></trkpt>
    <trkpt lat="48.26823" lon="14.82438"><ele>486</ele><time>2024-04-12T09:39:27Z</time></trkpt>
    <trkpt lat="48.26809" lon="14.82468"><ele>465</ele><time>2024-04-12T09:40:28Z</time></trkpt>
    <trkpt lat="48.26818" lon="14.82454"><ele>445</ele><time>2024-04-12T09:40:58Z</time></trkpt>
    <trkpt lat="48.26835" lon="14.82352"><ele>462</ele><time>2024-04-12T09:42:57Z</time></trkpt>
    <trkpt lat="48.26862" lon="14.82274"><ele>495</ele><time>2024-04-12T09:43:59Z</time></trkpt>
    <trkpt lat="48.26839" lon="14.82290"><ele>474</ele><time>2024-04-12T09:44:29Z</time></trkpt>
    <trkpt lat="48.26831" lon="14.82241"><ele>470</ele><time>2024-04-12T09:44:59Z</time></trkpt>
    <trkpt lat="48.26827" lon="14.82172"><ele>500</ele><time>2024-04-12T09:45:29Z</time></trkpt>
    <trkpt lat="48.26820" lon="14.82135"><ele>506</ele><time>2024-04-12T09:45:59Z</time></trkpt>
    <trkpt lat="48.26823" lon="14.82089"><ele>558</ele><time>2024-04-12T09:46:29Z</time></trkpt>
    <trkpt lat="48.26817" lon="14.82029"><ele>500</ele><time>2024-04-12T09:47:00Z</time></trkpt>
    <trkpt lat="48.26830" lon="14.81934"><ele>514</ele><time>2024-04-12T09:47:31Z</time></trkpt>
    <trkpt lat="48.26797" lon="14.81692"><ele>495</ele><time>2024-04-12T09:48:01Z</time></trkpt>
    <trkpt lat="48.26754" lon="14.81496"><ele>470</ele><time>2024-04-12T09:48:31Z</time></trkpt>
    <trkpt lat="48.26733" lon="14.81453"><ele>486</ele><time>2024-04-12T09:49:01Z</time></trkpt>
    <trkpt lat="48.26748" lon="14.81392"><ele>510</ele><time>2024-04-12T09:49:31Z</time></trkpt>
    <trkpt lat="48.26698" lon="14.81298"><ele>446</ele><time>2024-04-12T09:50:01Z</time></trkpt>
    <trkpt lat="48.26692" lon="14.81278"><ele>518</ele><time>2024-04-12T09:50:48Z</time></trkpt>
    <trkpt lat="48.26699" lon="14.81288"><ele>471</ele><time>2024-04-12T09:52:48Z</time></trkpt>
    <trkpt lat="48.26726" lon="14.81206"><ele>567</ele><time>2024-04-12T09:53:48Z</time></trkpt>
    <trkpt lat="48.26691" lon="14.81113"><ele>439</ele><time>2024-04-12T09:54:18Z</time></trkpt>
    <trkpt lat="48.26678" lon="14.81065"><ele>454</ele><time>2024-04-12T09:54:48Z</time></trkpt>
    <trkpt lat="48.26676" lon="14.81024"><ele>454</ele><time>2024-04-12T09:55:18Z</time></trkpt>
    <trkpt lat="48.26668" lon="14.80969"><ele>451</ele><time>2024-04-12T09:55:48Z</time></trkpt>
    <trkpt lat="48.26706" lon="14.80856"><ele>483</ele><time>2024-04-12T09:56:49Z</time></trkpt>
    <trkpt lat="48.26749" lon="14.80841"><ele>468</ele><time>2024-04-12T09:57:19Z</time></trkpt>
    <trkpt lat="48.26764" lon="14.80773"><ele>574</ele><time>2024-04-12T09:57:49Z</time></trkpt>
    <trkpt lat="48.26759" lon="14.80713"><ele>478</ele><time>2024-04-12T09:58:19Z</time></trkpt>
    <trkpt lat="48.26772" lon="14.80656"><ele>487</ele><time>2024-04-12T09:58:49Z</time></trkpt>
    <trkpt lat="48.26781" lon="14.80600"><ele>496</ele><time>2024-04-12T09:59:19Z</time></trkpt>
    <trkpt lat="48.26812" lon="14.80564"><ele>491</ele><time>2024-04-12T09:59:49Z</time></trkpt>
    <trkpt lat="48.26816" lon="14.80370"><ele>485</ele><time>2024-04-12T10:00:19Z</time></trkpt>
    <trkpt lat="48.26814" lon="14.80154"><ele>472</ele><time>2024-04-12T10:00:49Z</time></trkpt>
    <trkpt lat="48.26783" lon="14.80097"><ele>462</ele><time>2024-04-12T10:01:19Z</time></trkpt>
    <trkpt lat="48.26855" lon="14.80022"><ele>460</ele><time>2024-04-12T10:01:49Z</time></trkpt>
    <trkpt lat="48.26904" lon="14.79939"><ele>453</ele><time>2024-04-12T10:02:19Z</time></trkpt>
    <trkpt lat="48.26913" lon="14.79870"><ele>457</ele><time>2024-04-12T10:02:49Z</time></trkpt>
    <trkpt lat="48.26897" lon="14.79833"><ele>462</ele><time>2024-04-12T10:03:19Z</time></trkpt>
    <trkpt lat="48.26931" lon="14.79803"><ele>459</ele><time>2024-04-12T10:03:49Z</time></trkpt>
    <trkpt lat="48.26946" lon="14.79682"><ele>478</ele><time>2024-04-12T10:04:19Z</time></trkpt>
    <trkpt lat="48.26940" lon="14.79597"><ele>457</ele><time>2024-04-12T10:04:49Z</time></trkpt>
    <trkpt lat="48.27030" lon="14.79535"><ele>596</ele><time>2024-04-12T10:05:38Z</time></trkpt>
    <trkpt lat="48.27042" lon="14.79378"><ele>474</ele><time>2024-04-12T10:06:08Z</time></trkpt>
    <trkpt lat="48.27146" lon="14.79146"><ele>420</ele><time>2024-04-12T10:06:38Z</time></trkpt>
    <trkpt lat="48.27191" lon="14.78940"><ele>410</ele><time>2024-04-12T10:07:08Z</time></trkpt>
    <trkpt lat="48.27175" lon="14.78980"><ele>350</ele><time>2024-04-12T10:07:38Z</time></trkpt>
    <trkpt lat="48.27198" lon="14.78969"><ele>345</ele><time>2024-04-12T10:08:08Z</time></trkpt>
    <trkpt lat="48.27419" lon="14.78804"><ele>342</ele><time>2024-04-12T10:08:57Z</time></trkpt>
    <trkpt lat="48.27664" lon="14.78638"><ele>347</ele><time>2024-04-12T10:09:56Z</time></trkpt>
    <trkpt lat="48.27748" lon="14.78496"><ele>351</ele><time>2024-04-12T10:10:26Z</time></trkpt>
    <trkpt lat="48.27840" lon="14.78369"><ele>357</ele><time>2024-04-12T10:10:58Z</time></trkpt>
    <trkpt lat="48.28091" lon="14.78149"><ele>380</ele><time>2024-04-12T10:11:57Z</time></trkpt>
    <trkpt lat="48.28233" lon="14.78105"><ele>362</ele><time>2024-04-12T10:12:27Z</time></trkpt>
    <trkpt lat="48.28309" lon="14.78120"><ele>363</ele><time>2024-04-12T10:12:57Z</time></trkpt>
    <trkpt lat="48.28357" lon="14.78162"><ele>368</ele><time>2024-04-12T10:13:27Z</time></trkpt>
    <trkpt lat="48.28422" lon="14.78170"><ele>368</ele><time>2024-04-12T10:13:57Z</time></trkpt>
    <trkpt lat="48.28487" lon="14.78139"><ele>366</ele><time>2024-04-12T10:14:27Z</time></trkpt>
    <trkpt lat="48.28601" lon="14.78140"><ele>370</ele><time>2024-04-12T10:14:57Z</time></trkpt>
    <trkpt lat="48.28763" lon="14.78101"><ele>373</ele><time>2024-04-12T10:15:47Z</time></trkpt>
    <trkpt lat="48.28842" lon="14.78171"><ele>407</ele><time>2024-04-12T10:16:18Z</time></trkpt>
    <trkpt lat="48.28921" lon="14.78294"><ele>369</ele><time>2024-04-12T10:16:48Z</time></trkpt>
    <trkpt lat="48.28998" lon="14.78296"><ele>396</ele><time>2024-04-12T10:17:18Z</time></trkpt>
    <trkpt lat="48.29048" lon="14.78287"><ele>412</ele><time>2024-04-12T10:17:48Z</time></trkpt>
    <trkpt lat="48.29083" lon="14.78326"><ele>398</ele><time>2024-04-12T10:18:18Z</time></trkpt>
    <trkpt lat="48.29138" lon="14.78335"><ele>393</ele><time>2024-04-12T10:18:48Z</time></trkpt>
    <trkpt lat="48.29196" lon="14.78377"><ele>525</ele><time>2024-04-12T10:19:18Z</time></trkpt>
    <trkpt lat="48.29270" lon="14.78419"><ele>434</ele><time>2024-04-12T10:19:48Z</time></trkpt>
    <trkpt lat="48.29411" lon="14.78537"><ele>402</ele><time>2024-04-12T10:20:45Z</time></trkpt>
    <trkpt lat="48.29481" lon="14.78575"><ele>469</ele><time>2024-04-12T10:21:30Z</time></trkpt>
    <trkpt lat="48.29546" lon="14.78601"><ele>456</ele><time>2024-04-12T10:22:01Z</time></trkpt>
    <trkpt lat="48.29677" lon="14.78597"><ele>381</ele><time>2024-04-12T10:22:44Z</time></trkpt>
    <trkpt lat="48.29737" lon="14.78583"><ele>437</ele><time>2024-04-12T10:23:24Z</time></trkpt>
    <trkpt lat="48.29837" lon="14.78573"><ele>457</ele><time>2024-04-12T10:24:24Z</time></trkpt>
    <trkpt lat="48.29883" lon="14.78584"><ele>445</ele><time>2024-04-12T10:24:54Z</time></trkpt>
    <trkpt lat="48.29900" lon="14.78646"><ele>436</ele><time>2024-04-12T10:25:24Z</time></trkpt>
    <trkpt lat="48.29944" lon="14.78676"><ele>437</ele><time>2024-04-12T10:25:54Z</time></trkpt>
    <trkpt lat="48.29964" lon="14.78752"><ele>443</ele><time>2024-04-12T10:27:08Z</time></trkpt>
    <trkpt lat="48.29968" lon="14.78816"><ele>449</ele><time>2024-04-12T10:27:38Z</time></trkpt>
    <trkpt lat="48.30040" lon="14.78810"><ele>445</ele><time>2024-04-12T10:28:08Z</time></trkpt>
    <trkpt lat="48.30088" lon="14.78808"><ele>450</ele><time>2024-04-12T10:28:38Z</time></trkpt>
    <trkpt lat="48.30122" lon="14.78839"><ele>459</ele><time>2024-04-12T10:31:09Z</time></trkpt>
    <trkpt lat="48.30218" lon="14.78814"><ele>444</ele><time>2024-04-12T10:31:39Z</time></trkpt>
    <trkpt lat="48.30362" lon="14.78795"><ele>452</ele><time>2024-04-12T10:32:21Z</time></trkpt>
    <trkpt lat="48.30470" lon="14.78768"><ele>440</ele><time>2024-04-12T10:32:51Z</time></trkpt>
    <trkpt lat="48.30575" lon="14.78770"><ele>460</ele><time>2024-04-12T10:33:21Z</time></trkpt>
    <trkpt lat="48.30634" lon="14.78785"><ele>478</ele><time>2024-04-12T10:33:51Z</time></trkpt>
    <trkpt lat="48.30678" lon="14.78818"><ele>491</ele><time>2024-04-12T10:34:21Z</time></trkpt>
    <trkpt lat="48.30800" lon="14.78828"><ele>515</ele><time>2024-04-12T10:34:52Z</time></trkpt>
    <trkpt lat="48.30894" lon="14.78793"><ele>488</ele><time>2024-04-12T10:35:22Z</time></trkpt>
    <trkpt lat="48.30900" lon="14.78843"><ele>439</ele><time>2024-04-12T10:35:53Z</time></trkpt>
    <trkpt lat="48.30905" lon="14.78812"><ele>469</ele><time>2024-04-12T10:36:25Z</time></trkpt>
    <trkpt lat="48.30901" lon="14.78759"><ele>441</ele><time>2024-04-12T10:39:52Z</time></trkpt>
    <trkpt lat="48.30897" lon="14.78783"><ele>493</ele><time>2024-04-12T10:40:22Z</time></trkpt>
    <trkpt lat="48.31059" lon="14.78752"><ele>475</ele><time>2024-04-12T10:41:52Z</time></trkpt>
    <trkpt lat="48.31146" lon="14.78694"><ele>464</ele><time>2024-04-12T10:42:40Z</time></trkpt>
    <trkpt lat="48.31231" lon="14.78682"><ele>474</ele><time>2024-04-12T10:43:11Z</time></trkpt>
    <trkpt lat="48.31370" lon="14.78586"><ele>463</ele><time>2024-04-12T10:44:10Z</time></trkpt>
    <trkpt lat="48.31417" lon="14.78487"><ele>486</ele><time>2024-04-12T10:44:40Z</time></trkpt>
    <trkpt lat="48.31505" lon="14.78550"><ele>476</ele><time>2024-04-12T10:45:10Z</time></trkpt>
    <trkpt lat="48.31561" lon="14.78514"><ele>493</ele><time>2024-04-12T10:46:14Z</time></trkpt>
    <trkpt lat="48.31614" lon="14.78479"><ele>518</ele><time>2024-04-12T10:46:44Z</time></trkpt>
    <trkpt lat="48.31645" lon="14.78474"><ele>501</ele><time>2024-04-12T10:47:14Z</time></trkpt>
    <trkpt lat="48.31682" lon="14.78477"><ele>512</ele><time>2024-04-12T10:47:44Z</time></trkpt>
    <trkpt lat="48.31724" lon="14.78442"><ele>529</ele><time>2024-04-12T10:48:19Z</time></trkpt>
    <trkpt lat="48.31782" lon="14.78324"><ele>528</ele><time>2024-04-12T10:49:18Z</time></trkpt>
    <trkpt lat="48.31813" lon="14.78264"><ele>525</ele><time>2024-04-12T10:49:48Z</time></trkpt>
    <trkpt lat="48.31845" lon="14.78212"><ele>528</ele><time>2024-04-12T10:50:18Z</time></trkpt>
    <trkpt lat="48.31870" lon="14.78134"><ele>563</ele><time>2024-04-12T10:50:49Z</time></trkpt>
    <trkpt lat="48.31900" lon="14.78055"><ele>566</ele><time>2024-04-12T10:51:19Z</time></trkpt>
    <trkpt lat="48.31937" lon="14.78030"><ele>551</ele><time>2024-04-12T10:51:49Z</time></trkpt>
    <trkpt lat="48.31964" lon="14.78017"><ele>554</ele><time>2024-04-12T10:52:19Z</time></trkpt>
    <trkpt lat="48.32031" lon="14.77970"><ele>564</ele><time>2024-04-12T10:53:18Z</time></trkpt>
    <trkpt lat="48.32059" lon="14.77903"><ele>600</ele><time>2024-04-12T10:53:49Z</time></trkpt>
    <trkpt lat="48.32103" lon="14.77892"><ele>533</ele><time>2024-04-12T10:54:19Z</time></trkpt>
    <trkpt lat="48.32139" lon="14.77881"><ele>576</ele><time>2024-04-12T10:54:49Z</time></trkpt>
    <trkpt lat="48.32176" lon="14.77854"><ele>594</ele><time>2024-04-12T10:55:19Z</time></trkpt>
    <trkpt lat="48.32254" lon="14.77859"><ele>574</ele><time>2024-04-12T10:55:49Z</time></trkpt>
    <trkpt lat="48.32331" lon="14.77788"><ele>577</ele><time>2024-04-12T10:56:19Z</time></trkpt>
    <trkpt lat="48.32340" lon="14.77764"><ele>579</ele><time>2024-04-12T10:56:49Z</time></trkpt>
    <trkpt lat="48.32404" lon="14.77621"><ele>599</ele><time>2024-04-12T10:57:41Z</time></trkpt>
    <trkpt lat="48.32464" lon="14.77558"><ele>591</ele><time>2024-04-12T10:58:11Z</time></trkpt>
    <trkpt lat="48.32617" lon="14.77498"><ele>586</ele><time>2024-04-12T10:58:41Z</time></trkpt>
    <trkpt lat="48.32760" lon="14.77543"><ele>577</ele><time>2024-04-12T10:59:37Z</time></trkpt>
    <trkpt lat="48.32868" lon="14.77590"><ele>597</ele><time>2024-04-12T11:00:37Z</time></trkpt>
    <trkpt lat="48.32836" lon="14.77677"><ele>602</ele><time>2024-04-12T11:01:34Z</time></trkpt>
    <trkpt lat="48.32882" lon="14.77772"><ele>638</ele><time>2024-04-12T11:02:33Z</time></trkpt>
    <trkpt lat="48.32882" lon="14.77821"><ele>636</ele><time>2024-04-12T11:03:03Z</time></trkpt>
    <trkpt lat="48.32885" lon="14.77852"><ele>640</ele><time>2024-04-12T11:03:33Z</time></trkpt>
    <trkpt lat="48.32871" lon="14.77903"><ele>632</ele><time>2024-04-12T11:05:00Z</time></trkpt>
    <trkpt lat="48.32866" lon="14.77952"><ele>630</ele><time>2024-04-12T11:05:30Z</time></trkpt>
    <trkpt lat="48.32914" lon="14.77895"><ele>644</ele><time>2024-04-12T11:06:13Z</time></trkpt>
    <trkpt lat="48.32932" lon="14.77850"><ele>651</ele><time>2024-04-12T11:06:44Z</time></trkpt>
    <trkpt lat="48.32978" lon="14.77733"><ele>662</ele><time>2024-04-12T11:07:34Z</time></trkpt>
    <trkpt lat="48.32975" lon="14.77746"><ele>664</ele><time>2024-04-12T11:08:04Z</time></trkpt>
    <trkpt lat="48.33063" lon="14.77576"><ele>656</ele><time>2024-04-12T11:08:52Z</time></trkpt>
    <trkpt lat="48.33114" lon="14.77422"><ele>645</ele><time>2024-04-12T11:09:22Z</time></trkpt>
    <trkpt lat="48.33228" lon="14.77388"><ele>646</ele><time>2024-04-12T11:09:52Z</time></trkpt>
    <trkpt lat="48.33313" lon="14.77315"><ele>657</ele><time>2024-04-12T11:10:22Z</time></trkpt>
    <trkpt lat="48.33302" lon="14.77214"><ele>665</ele><time>2024-04-12T11:10:52Z</time></trkpt>
    <trkpt lat="48.33258" lon="14.77132"><ele>661</ele><time>2024-04-12T11:11:22Z</time></trkpt>
    <trkpt lat="48.33220" lon="14.77082"><ele>669</ele><time>2024-04-12T11:11:52Z</time></trkpt>
    <trkpt lat="48.33186" lon="14.77036"><ele>668</ele><time>2024-04-12T11:12:22Z</time></trkpt>
    <trkpt lat="48.33160" lon="14.76976"><ele>674</ele><time>2024-04-12T11:12:52Z</time></trkpt>
    <trkpt lat="48.33126" lon="14.76950"><ele>683</ele><time>2024-04-12T11:13:22Z</time></trkpt>
    <trkpt lat="48.33248" lon="14.77121"><ele>666</ele><time>2024-04-12T11:15:22Z</time></trkpt>
    <trkpt lat="48.33353" lon="14.77004"><ele>648</ele><time>2024-04-12T11:15:52Z</time></trkpt>
    <trkpt lat="48.33388" lon="14.76975"><ele>649</ele><time>2024-04-12T11:16:22Z</time></trkpt>
    <trkpt lat="48.33440" lon="14.76926"><ele>637</ele><time>2024-04-12T11:16:52Z</time></trkpt>
    <trkpt lat="48.33454" lon="14.76761"><ele>605</ele><time>2024-04-12T11:17:22Z</time></trkpt>
    <trkpt lat="48.33454" lon="14.76658"><ele>591</ele><time>2024-04-12T11:17:52Z</time></trkpt>
    <trkpt lat="48.33451" lon="14.76517"><ele>638</ele><time>2024-04-12T11:18:38Z</time></trkpt>
    <trkpt lat="48.33515" lon="14.76444"><ele>671</ele><time>2024-04-12T11:19:09Z</time></trkpt>
    <trkpt lat="48.33523" lon="14.76338"><ele>630</ele><time>2024-04-12T11:20:08Z</time></trkpt>
    <trkpt lat="48.33538" lon="14.76272"><ele>615</ele><time>2024-04-12T11:20:38Z</time></trkpt>
    <trkpt lat="48.33690" lon="14.76062"><ele>634</ele><time>2024-04-12T11:25:44Z</time></trkpt>
    <trkpt lat="48.33691" lon="14.76011"><ele>599</ele><time>2024-04-12T11:26:14Z</time></trkpt>
    <trkpt lat="48.33750" lon="14.75963"><ele>577</ele><time>2024-04-12T11:26:44Z</time></trkpt>
    <trkpt lat="48.33793" lon="14.75866"><ele>578</ele><time>2024-04-12T11:27:14Z</time></trkpt>
    <trkpt lat="48.33851" lon="14.75778"><ele>585</ele><time>2024-04-12T11:27:44Z</time></trkpt>
    <trkpt lat="48.33864" lon="14.75682"><ele>586</ele><time>2024-04-12T11:28:14Z</time></trkpt>
    <trkpt lat="48.33894" lon="14.75580"><ele>583</ele><time>2024-04-12T11:28:44Z</time></trkpt>
    <trkpt lat="48.34054" lon="14.75411"><ele>576</ele><time>2024-04-12T11:29:14Z</time></trkpt>
    <trkpt lat="48.34125" lon="14.75314"><ele>575</ele><time>2024-04-12T11:29:44Z</time></trkpt>
    <trkpt lat="48.34219" lon="14.75388"><ele>579</ele><time>2024-04-12T11:30:14Z</time></trkpt>
    <trkpt lat="48.34352" lon="14.75457"><ele>569</ele><time>2024-04-12T11:30:44Z</time></trkpt>
    <trkpt lat="48.34347" lon="14.75656"><ele>561</ele><time>2024-04-12T11:31:14Z</time></trkpt>
    <trkpt lat="48.34381" lon="14.75831"><ele>533</ele><time>2024-04-12T11:31:44Z</time></trkpt>
    <trkpt lat="48.34522" lon="14.75834"><ele>517</ele><time>2024-04-12T11:32:14Z</time></trkpt>
    <trkpt lat="48.34737" lon="14.75888"><ele>506</ele><time>2024-04-12T11:32:44Z</time></trkpt>
    <trkpt lat="48.34771" lon="14.75871"><ele>505</ele><time>2024-04-12T11:33:14Z</time></trkpt>
    <trkpt lat="48.34817" lon="14.75690"><ele>497</ele><time>2024-04-12T11:33:44Z</time></trkpt>
    <trkpt lat="48.34881" lon="14.75489"><ele>493</ele><time>2024-04-12T11:34:14Z</time></trkpt>
    <trkpt lat="48.34958" lon="14.75444"><ele>490</ele><time>2024-04-12T11:34:44Z</time></trkpt>
    <trkpt lat="48.35026" lon="14.75361"><ele>491</ele><time>2024-04-12T11:35:14Z</time></trkpt>
    <trkpt lat="48.34971" lon="14.75428"><ele>491</ele><time>2024-04-12T11:35:44Z</time></trkpt>
    <trkpt lat="48.34893" lon="14.75460"><ele>493</ele><time>2024-04-12T11:36:14Z</time></trkpt>
    <trkpt lat="48.34846" lon="14.75341"><ele>492</ele><time>2024-04-12T11:36:44Z</time></trkpt>
    <trkpt lat="48.34838" lon="14.75155"><ele>488</ele><time>2024-04-12T11:37:14Z</time></trkpt>
    <trkpt lat="48.34810" lon="14.74941"><ele>487</ele><time>2024-04-12T11:37:44Z</time></trkpt>
    <trkpt lat="48.34811" lon="14.74813"><ele>488</ele><time>2024-04-12T11:38:14Z</time></trkpt>
    <trkpt lat="48.34880" lon="14.74795"><ele>489</ele><time>2024-04-12T11:38:44Z</time></trkpt>
    <trkpt lat="48.34893" lon="14.74817"><ele>488</ele><time>2024-04-12T11:39:14Z</time></trkpt>
    <trkpt lat="48.34773" lon="14.74761"><ele>499</ele><time>2024-04-12T11:41:30Z</time></trkpt>
    <trkpt lat="48.34713" lon="14.74645"><ele>494</ele><time>2024-04-12T11:42:01Z</time></trkpt>
    <trkpt lat="48.34583" lon="14.74658"><ele>482</ele><time>2024-04-12T11:42:32Z</time></trkpt>
    <trkpt lat="48.34343" lon="14.74529"><ele>485</ele><time>2024-04-12T11:43:31Z</time></trkpt>
    <trkpt lat="48.34214" lon="14.74248"><ele>483</ele><time>2024-04-12T11:44:30Z</time></trkpt>
    <trkpt lat="48.34204" lon="14.73994"><ele>470</ele><time>2024-04-12T11:45:12Z</time></trkpt>
    <trkpt lat="48.34227" lon="14.73807"><ele>482</ele><time>2024-04-12T11:45:42Z</time></trkpt>
    <trkpt lat="48.34220" lon="14.73723"><ele>484</ele><time>2024-04-12T11:46:12Z</time></trkpt>
    <trkpt lat="48.34171" lon="14.73521"><ele>484</ele><time>2024-04-12T11:46:42Z</time></trkpt>
    <trkpt lat="48.34258" lon="14.73230"><ele>477</ele><time>2024-04-12T11:47:39Z</time></trkpt>
    <trkpt lat="48.34292" lon="14.73094"><ele>545</ele><time>2024-04-12T11:48:09Z</time></trkpt>
    <trkpt lat="48.34386" lon="14.72768"><ele>476</ele><time>2024-04-12T11:48:57Z</time></trkpt>
    <trkpt lat="48.34459" lon="14.72607"><ele>478</ele><time>2024-04-12T11:49:27Z</time></trkpt>
    <trkpt lat="48.34490" lon="14.72388"><ele>479</ele><time>2024-04-12T11:49:57Z</time></trkpt>
    <trkpt lat="48.34593" lon="14.72233"><ele>481</ele><time>2024-04-12T11:50:27Z</time></trkpt>
    <trkpt lat="48.34625" lon="14.72089"><ele>489</ele><time>2024-04-12T11:50:57Z</time></trkpt>
    <trkpt lat="48.34621" lon="14.72028"><ele>506</ele><time>2024-04-12T11:51:27Z</time></trkpt>
    <trkpt lat="48.34534" lon="14.71981"><ele>485</ele><time>2024-04-12T11:51:57Z</time></trkpt>
    <trkpt lat="48.34586" lon="14.71730"><ele>502</ele><time>2024-04-12T11:52:27Z</time></trkpt>
    <trkpt lat="48.34614" lon="14.71639"><ele>484</ele><time>2024-04-12T11:52:57Z</time></trkpt>
    <trkpt lat="48.34721" lon="14.71848"><ele>480</ele><time>2024-04-12T11:53:27Z</time></trkpt>
    <trkpt lat="48.34880" lon="14.71897"><ele>580</ele><time>2024-04-12T11:53:57Z</time></trkpt>
    <trkpt lat="48.35032" lon="14.71780"><ele>481</ele><time>2024-04-12T11:54:27Z</time></trkpt>
    <trkpt lat="48.35131" lon="14.71845"><ele>484</ele><time>2024-04-12T11:54:57Z</time></trkpt>
    <trkpt lat="48.35247" lon="14.72092"><ele>486</ele><time>2024-04-12T11:55:27Z</time></trkpt>
    <trkpt lat="48.35326" lon="14.72322"><ele>487</ele><time>2024-04-12T11:55:57Z</time></trkpt>
    <trkpt lat="48.35426" lon="14.72499"><ele>486</ele><time>2024-04-12T11:56:27Z</time></trkpt>
    <trkpt lat="48.35589" lon="14.72548"><ele>534</ele><time>2024-04-12T11:57:00Z</time></trkpt>
    <trkpt lat="48.35742" lon="14.72530"><ele>650</ele><time>2024-04-12T11:57:42Z</time></trkpt>
    <trkpt lat="48.35841" lon="14.72653"><ele>529</ele><time>2024-04-12T11:58:13Z</time></trkpt>
    <trkpt lat="48.36049" lon="14.72914"><ele>504</ele><time>2024-04-12T11:59:11Z</time></trkpt>
    <trkpt lat="48.36137" lon="14.73093"><ele>488</ele><time>2024-04-12T11:59:41Z</time></trkpt>
    <trkpt lat="48.36251" lon="14.73030"><ele>505</ele><time>2024-04-12T12:00:11Z</time></trkpt>
    <trkpt lat="48.36278" lon="14.73025"><ele>524</ele><time>2024-04-12T12:00:41Z</time></trkpt>
    <trkpt lat="48.36310" lon="14.72982"><ele>643</ele><time>2024-04-12T12:01:38Z</time></trkpt>
    <trkpt lat="48.36241" lon="14.72997"><ele>506</ele><time>2024-04-12T12:02:33Z</time></trkpt>
    <trkpt lat="48.36229" lon="14.72951"><ele>588</ele><time>2024-04-12T12:03:03Z</time></trkpt>
    <trkpt lat="48.36211" lon="14.72926"><ele>542</ele><time>2024-04-12T12:03:33Z</time></trkpt>
    <trkpt lat="48.36180" lon="14.72943"><ele>540</ele><time>2024-04-12T12:04:03Z</time></trkpt>
    <trkpt lat="48.36164" lon="14.72898"><ele>547</ele><time>2024-04-12T12:04:33Z</time></trkpt>
    <trkpt lat="48.36142" lon="14.72862"><ele>554</ele><time>2024-04-12T12:05:03Z</time></trkpt>
    <trkpt lat="48.36137" lon="14.72808"><ele>561</ele><time>2024-04-12T12:05:33Z</time></trkpt>
    <trkpt lat="48.36142" lon="14.72778"><ele>559</ele><time>2024-04-12T12:06:03Z</time></trkpt>
    <trkpt lat="48.36217" lon="14.72805"><ele>585</ele><time>2024-04-12T12:07:02Z</time></trkpt>
    <trkpt lat="48.36268" lon="14.72813"><ele>571</ele><time>2024-04-12T12:07:32Z</time></trkpt>
    <trkpt lat="48.36332" lon="14.72796"><ele>572</ele><time>2024-04-12T12:08:02Z</time></trkpt>
    <trkpt lat="48.36415" lon="14.72757"><ele>570</ele><time>2024-04-12T12:08:32Z</time></trkpt>
    <trkpt lat="48.36491" lon="14.72764"><ele>579</ele><time>2024-04-12T12:09:02Z</time></trkpt>
    <trkpt lat="48.36545" lon="14.72705"><ele>574</ele><time>2024-04-12T12:09:32Z</time></trkpt>
    <trkpt lat="48.36660" lon="14.72623"><ele>616</ele><time>2024-04-12T12:10:06Z</time></trkpt>
    <trkpt lat="48.36725" lon="14.72609"><ele>614</ele><time>2024-04-12T12:10:36Z</time></trkpt>
    <trkpt lat="48.36787" lon="14.72580"><ele>596</ele><time>2024-04-12T12:11:06Z</time></trkpt>
    <trkpt lat="48.36839" lon="14.72478"><ele>595</ele><time>2024-04-12T12:11:36Z</time></trkpt>
    <trkpt lat="48.36831" lon="14.72389"><ele>611</ele><time>2024-04-12T12:12:20Z</time></trkpt>
    <trkpt lat="48.36846" lon="14.72326"><ele>595</ele><time>2024-04-12T12:12:50Z</time></trkpt>
    <trkpt lat="48.36872" lon="14.72216"><ele>611</ele><time>2024-04-12T12:13:49Z</time></trkpt>
    <trkpt lat="48.36876" lon="14.72180"><ele>615</ele><time>2024-04-12T12:14:19Z</time></trkpt>
    <trkpt lat="48.36867" lon="14.72167"><ele>626</ele><time>2024-04-12T12:14:50Z</time></trkpt>
    <trkpt lat="48.36891" lon="14.72106"><ele>611</ele><time>2024-04-12T12:27:19Z</time></trkpt>
    <trkpt lat="48.36890" lon="14.72044"><ele>624</ele><time>2024-04-12T12:27:49Z</time></trkpt>
    <trkpt lat="48.36899" lon="14.71969"><ele>626</ele><time>2024-04-12T12:28:19Z</time></trkpt>
    <trkpt lat="48.36892" lon="14.71879"><ele>648</ele><time>2024-04-12T12:28:49Z</time></trkpt>
    <trkpt lat="48.36859" lon="14.71826"><ele>644</ele><time>2024-04-12T12:29:19Z</time></trkpt>
    <trkpt lat="48.36803" lon="14.71808"><ele>650</ele><time>2024-04-12T12:29:49Z</time></trkpt>
    <trkpt lat="48.36731" lon="14.71758"><ele>646</ele><time>2024-04-12T12:30:19Z</time></trkpt>
    <trkpt lat="48.36677" lon="14.71651"><ele>665</ele><time>2024-04-12T12:31:04Z</time></trkpt>
    <trkpt lat="48.36628" lon="14.71541"><ele>661</ele><time>2024-04-12T12:31:51Z</time></trkpt>
    <trkpt lat="48.36604" lon="14.71498"><ele>669</ele><time>2024-04-12T12:32:21Z</time></trkpt>
    <trkpt lat="48.36587" lon="14.71454"><ele>675</ele><time>2024-04-12T12:32:51Z</time></trkpt>
    <trkpt lat="48.36632" lon="14.71373"><ele>678</ele><time>2024-04-12T12:33:26Z</time></trkpt>
    <trkpt lat="48.36634" lon="14.71281"><ele>616</ele><time>2024-04-12T12:34:25Z</time></trkpt>
    <trkpt lat="48.36628" lon="14.71227"><ele>717</ele><time>2024-04-12T12:34:56Z</time></trkpt>
    <trkpt lat="48.36653" lon="14.71185"><ele>660</ele><time>2024-04-12T12:35:26Z</time></trkpt>
    <trkpt lat="48.36650" lon="14.71111"><ele>572</ele><time>2024-04-12T12:36:26Z</time></trkpt>
    <trkpt lat="48.36631" lon="14.71052"><ele>624</ele><time>2024-04-12T12:37:25Z</time></trkpt>
    <trkpt lat="48.36601" lon="14.71046"><ele>691</ele><time>2024-04-12T12:46:24Z</time></trkpt>
    <trkpt lat="48.36586" lon="14.71001"><ele>726</ele><time>2024-04-12T12:46:56Z</time></trkpt>
    <trkpt lat="48.36583" lon="14.71016"><ele>695</ele><time>2024-04-12T12:49:26Z</time></trkpt>
    <trkpt lat="48.36507" lon="14.71027"><ele>633</ele><time>2024-04-12T12:50:56Z</time></trkpt>
    <trkpt lat="48.36507" lon="14.71006"><ele>708</ele><time>2024-04-12T12:51:26Z</time></trkpt>
    <trkpt lat="48.36519" lon="14.70962"><ele>694</ele><time>2024-04-12T12:51:56Z</time></trkpt>
    <trkpt lat="48.36455" lon="14.70918"><ele>678</ele><time>2024-04-12T12:52:26Z</time></trkpt>
    <trkpt lat="48.36280" lon="14.70917"><ele>609</ele><time>2024-04-12T12:52:56Z</time></trkpt>
    <trkpt lat="48.36200" lon="14.70822"><ele>635</ele><time>2024-04-12T12:53:26Z</time></trkpt>
    <trkpt lat="48.36169" lon="14.70444"><ele>620</ele><time>2024-04-12T12:53:56Z</time></trkpt>
    <trkpt lat="48.36061" lon="14.70480"><ele>597</ele><time>2024-04-12T12:54:26Z</time></trkpt>
    <trkpt lat="48.35883" lon="14.70455"><ele>585</ele><time>2024-04-12T12:54:56Z</time></trkpt>
    <trkpt lat="48.35957" lon="14.70362"><ele>576</ele><time>2024-04-12T12:55:26Z</time></trkpt>
    <trkpt lat="48.35931" lon="14.70129"><ele>567</ele><time>2024-04-12T12:55:56Z</time></trkpt>
    <trkpt lat="48.35849" lon="14.70005"><ele>570</ele><time>2024-04-12T12:56:26Z</time></trkpt>
    <trkpt lat="48.35742" lon="14.69916"><ele>567</ele><time>2024-04-12T12:56:56Z</time></trkpt>
    <trkpt lat="48.35730" lon="14.69683"><ele>555</ele><time>2024-04-12T12:57:26Z</time></trkpt>
    <trkpt lat="48.35639" lon="14.69597"><ele>569</ele><time>2024-04-12T12:57:56Z</time></trkpt>
    <trkpt lat="48.35616" lon="14.69546"><ele>556</ele><time>2024-04-12T12:58:26Z</time></trkpt>
    <trkpt lat="48.35555" lon="14.69469"><ele>546</ele><time>2024-04-12T12:58:56Z</time></trkpt>
    <trkpt lat="48.35517" lon="14.69410"><ele>551</ele><time>2024-04-12T12:59:26Z</time></trkpt>
    <trkpt lat="48.35530" lon="14.69326"><ele>546</ele><time>2024-04-12T12:59:56Z</time></trkpt>
    <trkpt lat="48.35550" lon="14.69279"><ele>555</ele><time>2024-04-12T13:00:26Z</time></trkpt>
    <trkpt lat="48.35561" lon="14.69240"><ele>563</ele><time>2024-04-12T13:00:56Z</time></trkpt>
    <trkpt lat="48.35590" lon="14.69239"><ele>563</ele><time>2024-04-12T13:01:26Z</time></trkpt>
    <trkpt lat="48.35619" lon="14.69066"><ele>561</ele><time>2024-04-12T13:01:56Z</time></trkpt>
    <trkpt lat="48.35615" lon="14.68847"><ele>553</ele><time>2024-04-12T13:02:26Z</time></trkpt>
    <trkpt lat="48.35540" lon="14.68767"><ele>557</ele><time>2024-04-12T13:02:56Z</time></trkpt>
    <trkpt lat="48.35471" lon="14.68803"><ele>552</ele><time>2024-04-12T13:03:26Z</time></trkpt>
    <trkpt lat="48.35389" lon="14.68783"><ele>558</ele><time>2024-04-12T13:03:56Z</time></trkpt>
    <trkpt lat="48.35404" lon="14.68583"><ele>555</ele><time>2024-04-12T13:04:26Z</time></trkpt>
    <trkpt lat="48.35439" lon="14.68438"><ele>553</ele><time>2024-04-12T13:04:56Z</time></trkpt>
    <trkpt lat="48.35445" lon="14.68240"><ele>554</ele><time>2024-04-12T13:05:26Z</time></trkpt>
    <trkpt lat="48.35424" lon="14.67948"><ele>528</ele><time>2024-04-12T13:05:56Z</time></trkpt>
    <trkpt lat="48.35325" lon="14.67683"><ele>532</ele><time>2024-04-12T13:06:26Z</time></trkpt>
    <trkpt lat="48.35244" lon="14.67466"><ele>523</ele><time>2024-04-12T13:06:56Z</time></trkpt>
    <trkpt lat="48.35122" lon="14.67321"><ele>509</ele><time>2024-04-12T13:07:26Z</time></trkpt>
    <trkpt lat="48.35080" lon="14.67096"><ele>498</ele><time>2024-04-12T13:07:56Z</time></trkpt>
    <trkpt lat="48.35004" lon="14.67025"><ele>504</ele><time>2024-04-12T13:08:26Z</time></trkpt>
    <trkpt lat="48.34907" lon="14.66901"><ele>495</ele><time>2024-04-12T13:08:56Z</time></trkpt>
    <trkpt lat="48.34792" lon="14.66792"><ele>502</ele><time>2024-04-12T13:09:26Z</time></trkpt>
    <trkpt lat="48.34690" lon="14.66769"><ele>501</ele><time>2024-04-12T13:09:56Z</time></trkpt>
    <trkpt lat="48.34659" lon="14.66927"><ele>496</ele><time>2024-04-12T13:10:26Z</time></trkpt>
    <trkpt lat="48.34623" lon="14.66966"><ele>506</ele><time>2024-04-12T13:10:56Z</time></trkpt>
    <trkpt lat="48.34590" lon="14.66885"><ele>515</ele><time>2024-04-12T13:11:26Z</time></trkpt>
    <trkpt lat="48.34568" lon="14.66716"><ele>513</ele><time>2024-04-12T13:11:56Z</time></trkpt>
    <trkpt lat="48.34544" lon="14.66552"><ele>531</ele><time>2024-04-12T13:12:26Z</time></trkpt>
    <trkpt lat="48.34495" lon="14.66425"><ele>509</ele><time>2024-04-12T13:12:56Z</time></trkpt>
    <trkpt lat="48.34458" lon="14.66392"><ele>506</ele><time>2024-04-12T13:13:26Z</time></trkpt>
    <trkpt lat="48.34373" lon="14.66372"><ele>505</ele><time>2024-04-12T13:14:16Z</time></trkpt>
    <trkpt lat="48.34342" lon="14.66354"><ele>525</ele><time>2024-04-12T13:14:46Z</time></trkpt>
    <trkpt lat="48.34327" lon="14.66321"><ele>534</ele><time>2024-04-12T13:15:16Z</time></trkpt>
    <trkpt lat="48.34291" lon="14.66312"><ele>551</ele><time>2024-04-12T13:15:46Z</time></trkpt>
    <trkpt lat="48.34247" lon="14.66343"><ele>558</ele><time>2024-04-12T13:16:16Z</time></trkpt>
    <trkpt lat="48.34198" lon="14.66306"><ele>558</ele><time>2024-04-12T13:16:46Z</time></trkpt>
    <trkpt lat="48.34032" lon="14.66273"><ele>547</ele><time>2024-04-12T13:17:35Z</time></trkpt>
    <trkpt lat="48.33937" lon="14.66237"><ele>566</ele><time>2024-04-12T13:18:29Z</time></trkpt>
    <trkpt lat="48.33899" lon="14.66259"><ele>553</ele><time>2024-04-12T13:18:59Z</time></trkpt>
    <trkpt lat="48.33901" lon="14.66132"><ele>513</ele><time>2024-04-12T13:19:30Z</time></trkpt>
    <trkpt lat="48.33856" lon="14.66035"><ele>572</ele><time>2024-04-12T13:20:29Z</time></trkpt>
    <trkpt lat="48.33857" lon="14.66007"><ele>561</ele><time>2024-04-12T13:20:59Z</time></trkpt>
    <trkpt lat="48.33838" lon="14.65927"><ele>574</ele><time>2024-04-12T13:21:30Z</time></trkpt>
    <trkpt lat="48.33818" lon="14.65725"><ele>562</ele><time>2024-04-12T13:22:00Z</time></trkpt>
    <trkpt lat="48.33808" lon="14.65427"><ele>555</ele><time>2024-04-12T13:22:30Z</time></trkpt>
    <trkpt lat="48.33809" lon="14.65291"><ele>544</ele><time>2024-04-12T13:23:00Z</time></trkpt>
    <trkpt lat="48.33871" lon="14.65124"><ele>535</ele><time>2024-04-12T13:23:30Z</time></trkpt>
    <trkpt lat="48.33915" lon="14.64770"><ele>511</ele><time>2024-04-12T13:24:00Z</time></trkpt>
    <trkpt lat="48.33940" lon="14.64672"><ele>502</ele><time>2024-04-12T13:24:30Z</time></trkpt>
    <trkpt lat="48.33858" lon="14.64562"><ele>491</ele><time>2024-04-12T13:25:00Z</time></trkpt>
    <trkpt lat="48.33736" lon="14.64617"><ele>457</ele><time>2024-04-12T13:25:30Z</time></trkpt>
    <trkpt lat="48.33861" lon="14.64447"><ele>448</ele><time>2024-04-12T13:26:00Z</time></trkpt>
    <trkpt lat="48.33888" lon="14.64277"><ele>446</ele><time>2024-04-12T13:26:30Z</time></trkpt>
    <trkpt lat="48.33882" lon="14.64052"><ele>450</ele><time>2024-04-12T13:27:00Z</time></trkpt>
    <trkpt lat="48.33857" lon="14.63707"><ele>443</ele><time>2024-04-12T13:27:30Z</time></trkpt>
    <trkpt lat="48.33707" lon="14.63337"><ele>416</ele><time>2024-04-12T13:28:00Z</time></trkpt>
    <trkpt lat="48.33635" lon="14.63122"><ele>414</ele><time>2024-04-12T13:28:30Z</time></trkpt>
    <trkpt lat="48.33680" lon="14.63033"><ele>420</ele><time>2024-04-12T13:29:00Z</time></trkpt>
    <trkpt lat="48.33708" lon="14.62983"><ele>405</ele><time>2024-04-12T13:29:30Z</time></trkpt>
    <trkpt lat="48.33731" lon="14.62928"><ele>414</ele><time>2024-04-12T13:30:00Z</time></trkpt>
    <trkpt lat="48.33744" lon="14.62881"><ele>427</ele><time>2024-04-12T13:30:30Z</time></trkpt>
    <trkpt lat="48.33754" lon="14.62836"><ele>430</ele><time>2024-04-12T13:31:00Z</time></trkpt>
    <trkpt lat="48.33787" lon="14.62818"><ele>439</ele><time>2024-04-12T13:31:30Z</time></trkpt>
    <trkpt lat="48.33806" lon="14.62778"><ele>460</ele><time>2024-04-12T13:32:00Z</time></trkpt>
    <trkpt lat="48.33821" lon="14.62725"><ele>468</ele><time>2024-04-12T13:32:30Z</time></trkpt>
    <trkpt lat="48.33840" lon="14.62660"><ele>460</ele><time>2024-04-12T13:33:00Z</time></trkpt>
    <trkpt lat="48.33864" lon="14.62583"><ele>471</ele><time>2024-04-12T13:33:30Z</time></trkpt>
    <trkpt lat="48.33901" lon="14.62530"><ele>469</ele><time>2024-04-12T13:34:00Z</time></trkpt>
    <trkpt lat="48.33937" lon="14.62466"><ele>478</ele><time>2024-04-12T13:34:30Z</time></trkpt>
    <trkpt lat="48.33953" lon="14.62407"><ele>486</ele><time>2024-04-12T13:35:00Z</time></trkpt>
    <trkpt lat="48.33956" lon="14.62345"><ele>483</ele><time>2024-04-12T13:35:30Z</time></trkpt>
    <trkpt lat="48.33954" lon="14.62276"><ele>494</ele><time>2024-04-12T13:36:02Z</time></trkpt>
    <trkpt lat="48.33948" lon="14.62197"><ele>476</ele><time>2024-04-12T13:36:33Z</time></trkpt>
    <trkpt lat="48.33887" lon="14.62164"><ele>499</ele><time>2024-04-12T13:37:03Z</time></trkpt>
    <trkpt lat="48.33822" lon="14.62112"><ele>498</ele><time>2024-04-12T13:37:33Z</time></trkpt>
    <trkpt lat="48.33755" lon="14.61888"><ele>493</ele><time>2024-04-12T13:38:03Z</time></trkpt>
    <trkpt lat="48.33747" lon="14.61687"><ele>492</ele><time>2024-04-12T13:38:33Z</time></trkpt>
    <trkpt lat="48.33642" lon="14.61765"><ele>486</ele><time>2024-04-12T13:39:03Z</time></trkpt>
    <trkpt lat="48.33554" lon="14.61745"><ele>487</ele><time>2024-04-12T13:39:33Z</time></trkpt>
    <trkpt lat="48.33542" lon="14.61608"><ele>484</ele><time>2024-04-12T13:40:03Z</time></trkpt>
    <trkpt lat="48.33552" lon="14.61104"><ele>465</ele><time>2024-04-12T13:40:51Z</time></trkpt>
    <trkpt lat="48.33559" lon="14.60921"><ele>461</ele><time>2024-04-12T13:41:21Z</time></trkpt>
    <trkpt lat="48.33617" lon="14.60996"><ele>438</ele><time>2024-04-12T13:41:51Z</time></trkpt>
    <trkpt lat="48.33637" lon="14.60934"><ele>440</ele><time>2024-04-12T13:42:21Z</time></trkpt>
    <trkpt lat="48.33610" lon="14.60785"><ele>421</ele><time>2024-04-12T13:42:51Z</time></trkpt>
    <trkpt lat="48.33477" lon="14.60507"><ele>395</ele><time>2024-04-12T13:43:21Z</time></trkpt>
    <trkpt lat="48.33378" lon="14.60308"><ele>386</ele><time>2024-04-12T13:43:51Z</time></trkpt>
    <trkpt lat="48.33229" lon="14.60156"><ele>378</ele><time>2024-04-12T13:44:21Z</time></trkpt>
    <trkpt lat="48.33176" lon="14.59941"><ele>379</ele><time>2024-04-12T13:44:51Z</time></trkpt>
    <trkpt lat="48.33067" lon="14.59756"><ele>374</ele><time>2024-04-12T13:45:21Z</time></trkpt>
    <trkpt lat="48.33107" lon="14.59787"><ele>367</ele><time>2024-04-12T13:45:51Z</time></trkpt>
    <trkpt lat="48.33174" lon="14.59712"><ele>374</ele><time>2024-04-12T13:46:21Z</time></trkpt>
    <trkpt lat="48.33206" lon="14.59680"><ele>399</ele><time>2024-04-12T13:46:51Z</time></trkpt>
    <trkpt lat="48.33238" lon="14.59652"><ele>386</ele><time>2024-04-12T13:47:21Z</time></trkpt>
    <trkpt lat="48.33277" lon="14.59617"><ele>401</ele><time>2024-04-12T13:47:51Z</time></trkpt>
    <trkpt lat="48.33279" lon="14.59564"><ele>403</ele><time>2024-04-12T13:48:21Z</time></trkpt>
    <trkpt lat="48.33275" lon="14.59498"><ele>413</ele><time>2024-04-12T13:48:51Z</time></trkpt>
    <trkpt lat="48.33264" lon="14.59315"><ele>407</ele><time>2024-04-12T13:49:21Z</time></trkpt>
    <trkpt lat="48.33309" lon="14.59092"><ele>407</ele><time>2024-04-12T13:49:51Z</time></trkpt>
    <trkpt lat="48.33337" lon="14.59057"><ele>405</ele><time>2024-04-12T13:50:21Z</time></trkpt>
    <trkpt lat="48.33376" lon="14.59038"><ele>408</ele><time>2024-04-12T13:50:51Z</time></trkpt>
    <trkpt lat="48.33429" lon="14.58989"><ele>417</ele><time>2024-04-12T13:51:21Z</time></trkpt>
    <trkpt lat="48.33479" lon="14.58865"><ele>424</ele><time>2024-04-12T13:51:58Z</time></trkpt>
    <trkpt lat="48.33298" lon="14.58781"><ele>390</ele><time>2024-04-12T13:52:47Z</time></trkpt>
    <trkpt lat="48.33158" lon="14.58693"><ele>400</ele><time>2024-04-12T13:53:31Z</time></trkpt>
    <trkpt lat="48.33105" lon="14.58763"><ele>382</ele><time>2024-04-12T13:54:01Z</time></trkpt>
    <trkpt lat="48.32937" lon="14.58798"><ele>364</ele><time>2024-04-12T13:54:31Z</time></trkpt>
    <trkpt lat="48.32726" lon="14.58847"><ele>356</ele><time>2024-04-12T13:55:01Z</time></trkpt>
    <trkpt lat="48.32716" lon="14.58621"><ele>360</ele><time>2024-04-12T13:55:50Z</time></trkpt>
    <trkpt lat="48.32723" lon="14.58558"><ele>368</ele><time>2024-04-12T13:56:20Z</time></trkpt>
    <trkpt lat="48.32759" lon="14.58475"><ele>377</ele><time>2024-04-12T13:56:50Z</time></trkpt>
    <trkpt lat="48.32756" lon="14.58451"><ele>378</ele><time>2024-04-12T13:57:20Z</time></trkpt>
    <trkpt lat="48.32795" lon="14.58420"><ele>372</ele><time>2024-04-12T13:57:50Z</time></trkpt>
    <trkpt lat="48.32881" lon="14.58264"><ele>378</ele><time>2024-04-12T13:58:20Z</time></trkpt>
    <trkpt lat="48.32919" lon="14.58150"><ele>354</ele><time>2024-04-12T13:58:50Z</time></trkpt>
    <trkpt lat="48.32942" lon="14.58032"><ele>361</ele><time>2024-04-12T13:59:20Z</time></trkpt>
    <trkpt lat="48.32921" lon="14.57962"><ele>357</ele><time>2024-04-12T13:59:50Z</time></trkpt>
    <trkpt lat="48.32874" lon="14.57968"><ele>356</ele><time>2024-04-12T14:00:20Z</time></trkpt>
    <trkpt lat="48.32823" lon="14.57952"><ele>361</ele><time>2024-04-12T14:00:50Z</time></trkpt>
    <trkpt lat="48.32765" lon="14.57971"><ele>364</ele><time>2024-04-12T14:01:20Z</time></trkpt>
    <trkpt lat="48.32634" lon="14.57917"><ele>362</ele><time>2024-04-12T14:01:50Z</time></trkpt>
    <trkpt lat="48.32678" lon="14.57661"><ele>365</ele><time>2024-04-12T14:02:20Z</time></trkpt>
    <trkpt lat="48.32709" lon="14.57424"><ele>364</ele><time>2024-04-12T14:02:50Z</time></trkpt>
    <trkpt lat="48.32626" lon="14.57271"><ele>358</ele><time>2024-04-12T14:03:20Z</time></trkpt>
    <trkpt lat="48.32430" lon="14.57173"><ele>325</ele><time>2024-04-12T14:03:50Z</time></trkpt>
    <trkpt lat="48.32335" lon="14.57018"><ele>361</ele><time>2024-04-12T14:05:05Z</time></trkpt>
    <trkpt lat="48.32281" lon="14.56873"><ele>393</ele><time>2024-04-12T14:05:35Z</time></trkpt>
    <trkpt lat="48.32151" lon="14.56566"><ele>315</ele><time>2024-04-12T14:06:34Z</time></trkpt>
    <trkpt lat="48.32093" lon="14.56427"><ele>381</ele><time>2024-04-12T14:07:05Z</time></trkpt>
    <trkpt lat="48.32144" lon="14.56340"><ele>314</ele><time>2024-04-12T14:07:35Z</time></trkpt>
    <trkpt lat="48.32200" lon="14.56390"><ele>320</ele><time>2024-04-12T14:08:05Z</time></trkpt>
    <trkpt lat="48.32272" lon="14.56410"><ele>327</ele><time>2024-04-12T14:08:35Z</time></trkpt>
    <trkpt lat="48.32351" lon="14.56427"><ele>333</ele><time>2024-04-12T14:09:05Z</time></trkpt>
    <trkpt lat="48.32417" lon="14.56425"><ele>335</ele><time>2024-04-12T14:09:35Z</time></trkpt>
    <trkpt lat="48.32479" lon="14.56397"><ele>343</ele><time>2024-04-12T14:10:05Z</time></trkpt>
    <trkpt lat="48.32473" lon="14.56021"><ele>317</ele><time>2024-04-12T14:10:35Z</time></trkpt>
    <trkpt lat="48.32493" lon="14.55709"><ele>315</ele><time>2024-04-12T14:11:05Z</time></trkpt>
    <trkpt lat="48.32486" lon="14.55472"><ele>321</ele><time>2024-04-12T14:11:49Z</time></trkpt>
    <trkpt lat="48.32458" lon="14.55384"><ele>337</ele><time>2024-04-12T14:12:19Z</time></trkpt>
    <trkpt lat="48.32378" lon="14.55275"><ele>320</ele><time>2024-04-12T14:12:49Z</time></trkpt>
    <trkpt lat="48.32302" lon="14.55208"><ele>317</ele><time>2024-04-12T14:13:19Z</time></trkpt>
    <trkpt lat="48.32211" lon="14.55162"><ele>319</ele><time>2024-04-12T14:13:49Z</time></trkpt>
    <trkpt lat="48.32131" lon="14.55094"><ele>334</ele><time>2024-04-12T14:14:19Z</time></trkpt>
    <trkpt lat="48.32073" lon="14.55013"><ele>328</ele><time>2024-04-12T14:14:49Z</time></trkpt>
    <trkpt lat="48.32022" lon="14.54974"><ele>330</ele><time>2024-04-12T14:15:19Z</time></trkpt>
    <trkpt lat="48.31948" lon="14.54926"><ele>334</ele><time>2024-04-12T14:15:49Z</time></trkpt>
    <trkpt lat="48.31857" lon="14.54870"><ele>331</ele><time>2024-04-12T14:16:19Z</time></trkpt>
    <trkpt lat="48.31772" lon="14.54920"><ele>330</ele><time>2024-04-12T14:16:49Z</time></trkpt>
    <trkpt lat="48.31661" lon="14.54980"><ele>337</ele><time>2024-04-12T14:17:33Z</time></trkpt>
    <trkpt lat="48.31597" lon="14.54981"><ele>334</ele><time>2024-04-12T14:18:03Z</time></trkpt>
    <trkpt lat="48.31525" lon="14.54970"><ele>355</ele><time>2024-04-12T14:18:33Z</time></trkpt>
    <trkpt lat="48.31464" lon="14.55001"><ele>355</ele><time>2024-04-12T14:19:03Z</time></trkpt>
    <trkpt lat="48.31421" lon="14.55026"><ele>361</ele><time>2024-04-12T14:19:33Z</time></trkpt>
    <trkpt lat="48.31375" lon="14.55053"><ele>364</ele><time>2024-04-12T14:20:03Z</time></trkpt>
    <trkpt lat="48.31328" lon="14.55095"><ele>371</ele><time>2024-04-12T14:20:33Z</time></trkpt>
    <trkpt lat="48.31242" lon="14.55177"><ele>359</ele><time>2024-04-12T14:21:13Z</time></trkpt>
    <trkpt lat="48.31200" lon="14.55284"><ele>378</ele><time>2024-04-12T14:21:43Z</time></trkpt>
    <trkpt lat="48.31098" lon="14.55226"><ele>380</ele><time>2024-04-12T14:22:13Z</time></trkpt>
    <trkpt lat="48.31036" lon="14.55164"><ele>383</ele><time>2024-04-12T14:22:43Z</time></trkpt>
    <trkpt lat="48.31055" lon="14.55005"><ele>389</ele><time>2024-04-12T14:23:13Z</time></trkpt>
    <trkpt lat="48.31056" lon="14.54907"><ele>394</ele><time>2024-04-12T14:23:43Z</time></trkpt>
    <trkpt lat="48.31055" lon="14.54835"><ele>401</ele><time>2024-04-12T14:24:13Z</time></trkpt>
    <trkpt lat="48.31038" lon="14.54767"><ele>405</ele><time>2024-04-12T14:24:43Z</time></trkpt>
    <trkpt lat="48.31037" lon="14.54698"><ele>400</ele><time>2024-04-12T14:25:13Z</time></trkpt>
    <trkpt lat="48.31052" lon="14.54629"><ele>404</ele><time>2024-04-12T14:25:43Z</time></trkpt>
    <trkpt lat="48.31072" lon="14.54545"><ele>363</ele><time>2024-04-12T14:26:21Z</time></trkpt>
    <trkpt lat="48.31088" lon="14.54470"><ele>409</ele><time>2024-04-12T14:26:52Z</time></trkpt>
    <trkpt lat="48.31113" lon="14.54407"><ele>438</ele><time>2024-04-12T14:27:22Z</time></trkpt>
    <trkpt lat="48.31116" lon="14.54352"><ele>440</ele><time>2024-04-12T14:27:53Z</time></trkpt>
    <trkpt lat="48.31126" lon="14.54274"><ele>440</ele><time>2024-04-12T14:28:23Z</time></trkpt>
    <trkpt lat="48.31165" lon="14.54222"><ele>447</ele><time>2024-04-12T14:28:53Z</time></trkpt>
    <trkpt lat="48.31223" lon="14.54148"><ele>451</ele><time>2024-04-12T14:29:23Z</time></trkpt>
    <trkpt lat="48.31252" lon="14.54041"><ele>451</ele><time>2024-04-12T14:29:53Z</time></trkpt>
    <trkpt lat="48.31297" lon="14.53995"><ele>458</ele><time>2024-04-12T14:30:23Z</time></trkpt>
    <trkpt lat="48.31303" lon="14.53909"><ele>457</ele><time>2024-04-12T14:30:53Z</time></trkpt>
    <trkpt lat="48.31284" lon="14.53734"><ele>443</ele><time>2024-04-12T14:31:23Z</time></trkpt>
    <trkpt lat="48.31326" lon="14.53589"><ele>456</ele><time>2024-04-12T14:31:53Z</time></trkpt>
    <trkpt lat="48.31386" lon="14.53398"><ele>447</ele><time>2024-04-12T14:32:23Z</time></trkpt>
    <trkpt lat="48.31481" lon="14.53109"><ele>426</ele><time>2024-04-12T14:32:53Z</time></trkpt>
    <trkpt lat="48.31618" lon="14.52955"><ele>390</ele><time>2024-04-12T14:33:23Z</time></trkpt>
    <trkpt lat="48.31636" lon="14.52893"><ele>410</ele><time>2024-04-12T14:33:53Z</time></trkpt>
    <trkpt lat="48.31565" lon="14.52984"><ele>404</ele><time>2024-04-12T14:34:23Z</time></trkpt>
    <trkpt lat="48.31360" lon="14.52786"><ele>386</ele><time>2024-04-12T14:34:53Z</time></trkpt>
    <trkpt lat="48.31225" lon="14.52788"><ele>382</ele><time>2024-04-12T14:35:23Z</time></trkpt>
    <trkpt lat="48.31187" lon="14.52662"><ele>378</ele><time>2024-04-12T14:35:53Z</time></trkpt>
    <trkpt lat="48.31125" lon="14.52456"><ele>374</ele><time>2024-04-12T14:36:23Z</time></trkpt>
    <trkpt lat="48.31054" lon="14.52392"><ele>365</ele><time>2024-04-12T14:36:53Z</time></trkpt>
    <trkpt lat="48.31025" lon="14.52381"><ele>362</ele><time>2024-04-12T14:37:33Z</time></trkpt>
    <trkpt lat="48.31016" lon="14.52372"><ele>370</ele><time>2024-04-12T14:38:03Z</time></trkpt>
    <trkpt lat="48.30975" lon="14.52463"><ele>326</ele><time>2024-04-12T14:39:02Z</time></trkpt>
    <trkpt lat="48.30849" lon="14.52609"><ele>340</ele><time>2024-04-12T14:39:32Z</time></trkpt>
    <trkpt lat="48.30795" lon="14.52772"><ele>349</ele><time>2024-04-12T14:40:02Z</time></trkpt>
    <trkpt lat="48.30643" lon="14.52829"><ele>320</ele><time>2024-04-12T14:40:32Z</time></trkpt>
    <trkpt lat="48.30488" lon="14.52925"><ele>332</ele><time>2024-04-12T14:41:02Z</time></trkpt>
    <trkpt lat="48.30303" lon="14.52924"><ele>334</ele><time>2024-04-12T14:41:32Z</time></trkpt>
    <trkpt lat="48.30122" lon="14.53049"><ele>332</ele><time>2024-04-12T14:42:02Z</time></trkpt>
    <trkpt lat="48.29941" lon="14.53158"><ele>330</ele><time>2024-04-12T14:42:32Z</time></trkpt>
    <trkpt lat="48.29815" lon="14.53210"><ele>330</ele><time>2024-04-12T14:43:02Z</time></trkpt>
    <trkpt lat="48.29750" lon="14.53356"><ele>335</ele><time>2024-04-12T14:43:32Z</time></trkpt>
    <trkpt lat="48.29707" lon="14.53487"><ele>339</ele><time>2024-04-12T14:44:02Z</time></trkpt>
    <trkpt lat="48.29548" lon="14.53637"><ele>333</ele><time>2024-04-12T14:44:32Z</time></trkpt>
    <trkpt lat="48.29357" lon="14.53763"><ele>328</ele><time>2024-04-12T14:45:02Z</time></trkpt>
    <trkpt lat="48.29223" lon="14.53900"><ele>325</ele><time>2024-04-12T14:45:32Z</time></trkpt>
    <trkpt lat="48.29000" lon="14.53929"><ele>320</ele><time>2024-04-12T14:46:02Z</time></trkpt>
    <trkpt lat="48.28835" lon="14.54025"><ele>324</ele><time>2024-04-12T14:46:32Z</time></trkpt>
    <trkpt lat="48.28701" lon="14.54123"><ele>321</ele><time>2024-04-12T14:47:02Z</time></trkpt>
    <trkpt lat="48.28554" lon="14.54233"><ele>323</ele><time>2024-04-12T14:47:32Z</time></trkpt>
    <trkpt lat="48.28448" lon="14.54324"><ele>329</ele><time>2024-04-12T14:48:02Z</time></trkpt>
    <trkpt lat="48.28364" lon="14.54415"><ele>335</ele><time>2024-04-12T14:48:32Z</time></trkpt>
    <trkpt lat="48.28282" lon="14.54507"><ele>339</ele><time>2024-04-12T14:49:02Z</time></trkpt>
    <trkpt lat="48.28197" lon="14.54603"><ele>344</ele><time>2024-04-12T14:49:32Z</time></trkpt>
    <trkpt lat="48.28060" lon="14.54672"><ele>341</ele><time>2024-04-12T14:50:02Z</time></trkpt>
    <trkpt lat="48.27852" lon="14.54698"><ele>340</ele><time>2024-04-12T14:50:32Z</time></trkpt>
    <trkpt lat="48.27635" lon="14.54653"><ele>339</ele><time>2024-04-12T14:51:02Z</time></trkpt>
    <trkpt lat="48.27453" lon="14.54587"><ele>339</ele><time>2024-04-12T14:51:32Z</time></trkpt>
    <trkpt lat="48.27149" lon="14.54578"><ele>314</ele><time>2024-04-12T14:52:02Z</time></trkpt>
    <trkpt lat="48.26793" lon="14.54664"><ele>289</ele><time>2024-04-12T14:52:32Z</time></trkpt>
    <trkpt lat="48.26582" lon="14.54572"><ele>290</ele><time>2024-04-12T14:53:02Z</time></trkpt>
    <trkpt lat="48.26371" lon="14.54421"><ele>281</ele><time>2024-04-12T14:53:32Z</time></trkpt>
    <trkpt lat="48.26181" lon="14.54284"><ele>283</ele><time>2024-04-12T14:54:02Z</time></trkpt>
    <trkpt lat="48.25978" lon="14.54179"><ele>273</ele><time>2024-04-12T14:54:32Z</time></trkpt>
    <trkpt lat="48.25774" lon="14.54008"><ele>273</ele><time>2024-04-12T14:55:02Z</time></trkpt>
    <trkpt lat="48.25555" lon="14.54007"><ele>270</ele><time>2024-04-12T14:55:32Z</time></trkpt>
    <trkpt lat="48.25347" lon="14.54119"><ele>259</ele><time>2024-04-12T14:56:02Z</time></trkpt>
    <trkpt lat="48.25157" lon="14.54044"><ele>260</ele><time>2024-04-12T14:56:32Z</time></trkpt>
    <trkpt lat="48.25062" lon="14.53792"><ele>262</ele><time>2024-04-12T14:57:02Z</time></trkpt>
    <trkpt lat="48.24965" lon="14.53586"><ele>261</ele><time>2024-04-12T14:57:32Z</time></trkpt>
    <trkpt lat="48.24846" lon="14.53470"><ele>263</ele><time>2024-04-12T14:58:02Z</time></trkpt>
    <trkpt lat="48.24681" lon="14.53361"><ele>259</ele><time>2024-04-12T14:58:32Z</time></trkpt>
    <trkpt lat="48.24538" lon="14.53274"><ele>263</ele><time>2024-04-12T14:59:02Z</time></trkpt>
    <trkpt lat="48.24541" lon="14.53357"><ele>263</ele><time>2024-04-12T14:59:32Z</time></trkpt>
    <trkpt lat="48.24463" lon="14.53426"><ele>255</ele><time>2024-04-12T15:00:02Z</time></trkpt>
    <trkpt lat="48.24340" lon="14.53377"><ele>253</ele><time>2024-04-12T15:00:32Z</time></trkpt>
    <trkpt lat="48.24204" lon="14.53249"><ele>252</ele><time>2024-04-12T15:01:02Z</time></trkpt>
    <trkpt lat="48.24322" lon="14.53267"><ele>232</ele><time>2024-04-12T15:03:21Z</time></trkpt>
    <trkpt lat="48.24315" lon="14.53268"><ele>236</ele><time>2024-04-12T15:03:52Z</time></trkpt>
  </trkseg>
</trk>
</gpx>