<?xml version="1.0" encoding="UTF-8"?>
<gpx version="1.1" creator="Gpx-Optimizer" xmlns="http://www.topografix.com/GPX/1/1">
<trk>
  <name>Ski_Schreiberwand</name>
  <type>skimo</type>
  <trkseg>
    <trkpt lat="47.53301" lon="13.49780"><ele>947</ele></trkpt>
    <trkpt lat="47.53286" lon="13.49857"><ele>929</ele></trkpt>
    <trkpt lat="47.53267" lon="13.50032"><ele>908</ele></trkpt>
    <trkpt lat="47.53275" lon="13.50260"><ele>915</ele></trkpt>
    <trkpt lat="47.53207" lon="13.50494"><ele>978</ele></trkpt>
    <trkpt lat="47.52970" lon="13.50817"><ele>930</ele></trkpt>
    <trkpt lat="47.52926" lon="13.50987"><ele>944</ele></trkpt>
    <trkpt lat="47.52822" lon="13.51155"><ele>940</ele></trkpt>
    <trkpt lat="47.52639" lon="13.51532"><ele>908</ele></trkpt>
    <trkpt lat="47.52509" lon="13.51674"><ele>924</ele></trkpt>
    <trkpt lat="47.52308" lon="13.51947"><ele>982</ele></trkpt>
    <trkpt lat="47.52258" lon="13.51979"><ele>976</ele></trkpt>
    <trkpt lat="47.52141" lon="13.52040"><ele>942</ele></trkpt>
    <trkpt lat="47.52061" lon="13.52150"><ele>992</ele></trkpt>
    <trkpt lat="47.52028" lon="13.52161"><ele>986</ele></trkpt>
    <trkpt lat="47.52000" lon="13.52333"><ele>983</ele></trkpt>
    <trkpt lat="47.51937" lon="13.52503"><ele>950</ele></trkpt>
    <trkpt lat="47.51897" lon="13.52705"><ele>937</ele></trkpt>
    <trkpt lat="47.51811" lon="13.52835"><ele>922</ele></trkpt>
    <trkpt lat="47.51770" lon="13.52959"><ele>941</ele></trkpt>
    <trkpt lat="47.51695" lon="13.53090"><ele>978</ele></trkpt>
    <trkpt lat="47.51565" lon="13.53232"><ele>992</ele></trkpt>
    <trkpt lat="47.51515" lon="13.53242"><ele>963</ele></trkpt>
    <trkpt lat="47.51384" lon="13.53367"><ele>996</ele></trkpt>
    <trkpt lat="47.51324" lon="13.53364"><ele>1038</ele></trkpt>
    <trkpt lat="47.51292" lon="13.53436"><ele>1032</ele></trkpt>
    <trkpt lat="47.51233" lon="13.53353"><ele>1007</ele></trkpt>
    <trkpt lat="47.51211" lon="13.53370"><ele>1014</ele></trkpt>
    <trkpt lat="47.51121" lon="13.53410"><ele>993</ele></trkpt>
    <trkpt lat="47.51097" lon="13.53453"><ele>1059</ele></trkpt>
    <trkpt lat="47.51091" lon="13.53511"><ele>1023</ele></trkpt>
    <trkpt lat="47.51079" lon="13.53532"><ele>990</ele></trkpt>
    <trkpt lat="47.51062" lon="13.53569"><ele>1044</ele></trkpt>
    <trkpt lat="47.51054" lon="13.53607"><ele>1048</ele></trkpt>
    <trkpt lat="47.51068" lon="13.53629"><ele>1102</ele></trkpt>
    <trkpt lat="47.51033" lon="13.53649"><ele>1118</ele></trkpt>
    <trkpt lat="47.51076" lon="13.53742"><ele>1085</ele></trkpt>
    <trkpt lat="47.51008" lon="13.53811"><ele>1094</ele></trkpt>
    <trkpt lat="47.50982" lon="13.53944"><ele>1118</ele></trkpt>
    <trkpt lat="47.50919" lon="13.53917"><ele>1136</ele></trkpt>
    <trkpt lat="47.50883" lon="13.53905"><ele>1117</ele></trkpt>
    <trkpt lat="47.50863" lon="13.53915"><ele>1147</ele></trkpt>
    <trkpt lat="47.50773" lon="13.54048"><ele>1154</ele></trkpt>
    <trkpt lat="47.50744" lon="13.54043"><ele>1172</ele></trkpt>
    <trkpt lat="47.50704" lon="13.54131"><ele>1153</ele></trkpt>
    <trkpt lat="47.50633" lon="13.54188"><ele>1140</ele></trkpt>
    <trkpt lat="47.50603" lon="13.54267"><ele>1142</ele></trkpt>
    <trkpt lat="47.50525" lon="13.54422"><ele>1133</ele></trkpt>
    <trkpt lat="47.50480" lon="13.54476"><ele>1138</ele></trkpt>
    <trkpt lat="47.50437" lon="13.54405"><ele>1122</ele></trkpt>
    <trkpt lat="47.50292" lon="13.54456"><ele>1149</ele></trkpt>
    <trkpt lat="47.50217" lon="13.54456"><ele>1145</ele></trkpt>
    <trkpt lat="47.50165" lon="13.54458"><ele>1152</ele></trkpt>
    <trkpt lat="47.50127" lon="13.54499"><ele>1152</ele></trkpt>
    <trkpt lat="47.50121" lon="13.54544"><ele>1156</ele></trkpt>
    <trkpt lat="47.50124" lon="13.54590"><ele>1152</ele></trkpt>
    <trkpt lat="47.50103" lon="13.54634"><ele>1150</ele></trkpt>
    <trkpt lat="47.50078" lon="13.54654"><ele>1152</ele></trkpt>
    <trkpt lat="47.50056" lon="13.54693"><ele>1152</ele></trkpt>
    <trkpt lat="47.50042" lon="13.54729"><ele>1151</ele></trkpt>
    <trkpt lat="47.50022" lon="13.54780"><ele>1159</ele></trkpt>
    <trkpt lat="47.50027" lon="13.54826"><ele>1160</ele></trkpt>
    <trkpt lat="47.49986" lon="13.54869"><ele>1152</ele></trkpt>
    <trkpt lat="47.49971" lon="13.54898"><ele>1173</ele></trkpt>
    <trkpt lat="47.49939" lon="13.54923"><ele>1175</ele></trkpt>
    <trkpt lat="47.49905" lon="13.54955"><ele>1176</ele></trkpt>
    <trkpt lat="47.49862" lon="13.54966"><ele>1189</ele></trkpt>
    <trkpt lat="47.49858" lon="13.55008"><ele>1200</ele></trkpt>
    <trkpt lat="47.49816" lon="13.55046"><ele>1171</ele></trkpt>
    <trkpt lat="47.49766" lon="13.55074"><ele>1212</ele></trkpt>
    <trkpt lat="47.49696" lon="13.55133"><ele>1170</ele></trkpt>
    <trkpt lat="47.49698" lon="13.55155"><ele>1228</ele></trkpt>
    <trkpt lat="47.49671" lon="13.55160"><ele>1234</ele></trkpt>
    <trkpt lat="47.49647" lon="13.55194"><ele>1235</ele></trkpt>
    <trkpt lat="47.49645" lon="13.55223"><ele>1274</ele></trkpt>
    <trkpt lat="47.49650" lon="13.55255"><ele>1251</ele></trkpt>
    <trkpt lat="47.49634" lon="13.55233"><ele>1261</ele></trkpt>
    <trkpt lat="47.49615" lon="13.55250"><ele>1232</ele></trkpt>
    <trkpt lat="47.49600" lon="13.55268"><ele>1241</ele></trkpt>
    <trkpt lat="47.49618" lon="13.55283"><ele>1298</ele></trkpt>
    <trkpt lat="47.49605" lon="13.55295"><ele>1290</ele></trkpt>
    <trkpt lat="47.49571" lon="13.55293"><ele>1306</ele></trkpt>
    <trkpt lat="47.49558" lon="13.55308"><ele>1287</ele></trkpt>
    <trkpt lat="47.49497" lon="13.55366"><ele>1321</ele></trkpt>
    <trkpt lat="47.49489" lon="13.55396"><ele>1294</ele></trkpt>
    <trkpt lat="47.49514" lon="13.55418"><ele>1333</ele></trkpt>
    <trkpt lat="47.49496" lon="13.55454"><ele>1300</ele></trkpt>
    <trkpt lat="47.49468" lon="13.55506"><ele>1326</ele></trkpt>
    <trkpt lat="47.49451" lon="13.55577"><ele>1335</ele></trkpt>
    <trkpt lat="47.49456" lon="13.55603"><ele>1344</ele></trkpt>
    <trkpt lat="47.49429" lon="13.55635"><ele>1327</ele></trkpt>
    <trkpt lat="47.49441" lon="13.55649"><ele>1340</ele></trkpt>
    <trkpt lat="47.49456" lon="13.55646"><ele>1364</ele></trkpt>
    <trkpt lat="47.49454" lon="13.55677"><ele>1243</ele></trkpt>
    <trkpt lat="47.49470" lon="13.55680"><ele>1368</ele></trkpt>
    <trkpt lat="47.49467" lon="13.55709"><ele>1351</ele></trkpt>
    <trkpt lat="47.49457" lon="13.55733"><ele>1211</ele></trkpt>
    <trkpt lat="47.49470" lon="13.55771"><ele>1300</ele></trkpt>
    <trkpt lat="47.49476" lon="13.55791"><ele>1401</ele></trkpt>
    <trkpt lat="47.49460" lon="13.55818"><ele>1389</ele></trkpt>
    <trkpt lat="47.49449" lon="13.55842"><ele>1376</ele></trkpt>
    <trkpt lat="47.49465" lon="13.55858"><ele>1388</ele></trkpt>
    <trkpt lat="47.49445" lon="13.55865"><ele>1201</ele></trkpt>
    <trkpt lat="47.49444" lon="13.55900"><ele>1341</ele></trkpt>
    <trkpt lat="47.49471" lon="13.55911"><ele>1278</ele></trkpt>
    <trkpt lat="47.49487" lon="13.55908"><ele>1382</ele></trkpt>
    <trkpt lat="47.49500" lon="13.55920"><ele>1280</ele></trkpt>
    <trkpt lat="47.49492" lon="13.55944"><ele>1392</ele></trkpt>
    <trkpt lat="47.49509" lon="13.55934"><ele>1482</ele></trkpt>
    <trkpt lat="47.49548" lon="13.55924"><ele>1518</ele></trkpt>
    <trkpt lat="47.49562" lon="13.55944"><ele>1535</ele></trkpt>
    <trkpt lat="47.49563" lon="13.56011"><ele>1474</ele></trkpt>
    <trkpt lat="47.49577" lon="13.56038"><ele>1474</ele></trkpt>
    <trkpt lat="47.49567" lon="13.56061"><ele>1564</ele></trkpt>
    <trkpt lat="47.49556" lon="13.56073"><ele>1565</ele></trkpt>
    <trkpt lat="47.49547" lon="13.56091"><ele>1563</ele></trkpt>
    <trkpt lat="47.49540" lon="13.56119"><ele>1553</ele></trkpt>
    <trkpt lat="47.49582" lon="13.56197"><ele>1557</ele></trkpt>
    <trkpt lat="47.49566" lon="13.56194"><ele>1625</ele></trkpt>
    <trkpt lat="47.49565" lon="13.56253"><ele>1584</ele></trkpt>
    <trkpt lat="47.49624" lon="13.56313"><ele>1633</ele></trkpt>
    <trkpt lat="47.49582" lon="13.56346"><ele>1609</ele></trkpt>
    <trkpt lat="47.49532" lon="13.56338"><ele>1610</ele></trkpt>
    <trkpt lat="47.49513" lon="13.56333"><ele>1619</ele></trkpt>
    <trkpt lat="47.49498" lon="13.56344"><ele>1642</ele></trkpt>
    <trkpt lat="47.49457" lon="13.56412"><ele>1669</ele></trkpt>
    <trkpt lat="47.49418" lon="13.56397"><ele>1658</ele></trkpt>
    <trkpt lat="47.49397" lon="13.56457"><ele>1682</ele></trkpt>
    <trkpt lat="47.49352" lon="13.56465"><ele>1685</ele></trkpt>
    <trkpt lat="47.49307" lon="13.56466"><ele>1681</ele></trkpt>
    <trkpt lat="47.49280" lon="13.56490"><ele>1736</ele></trkpt>
    <trkpt lat="47.49256" lon="13.56400"><ele>1752</ele></trkpt>
    <trkpt lat="47.49242" lon="13.56401"><ele>1730</ele></trkpt>
    <trkpt lat="47.49213" lon="13.56380"><ele>1694</ele></trkpt>
    <trkpt lat="47.49219" lon="13.56430"><ele>1790</ele></trkpt>
    <trkpt lat="47.49220" lon="13.56497"><ele>1770</ele></trkpt>
    <trkpt lat="47.49189" lon="13.56493"><ele>1768</ele></trkpt>
    <trkpt lat="47.49171" lon="13.56525"><ele>1831</ele></trkpt>
    <trkpt lat="47.49170" lon="13.56550"><ele>1830</ele></trkpt>
    <trkpt lat="47.49155" lon="13.56610"><ele>1850</ele></trkpt>
    <trkpt lat="47.49143" lon="13.56595"><ele>1824</ele></trkpt>
    <trkpt lat="47.49136" lon="13.56614"><ele>1816</ele></trkpt>
    <trkpt lat="47.49145" lon="13.56699"><ele>1835</ele></trkpt>
    <trkpt lat="47.49108" lon="13.56713"><ele>1829</ele></trkpt>
    <trkpt lat="47.49190" lon="13.56771"><ele>1845</ele></trkpt>
    <trkpt lat="47.49205" lon="13.56771"><ele>1905</ele></trkpt>
    <trkpt lat="47.49195" lon="13.56851"><ele>1917</ele></trkpt>
    <trkpt lat="47.49178" lon="13.56825"><ele>1868</ele></trkpt>
    <trkpt lat="47.49177" lon="13.56917"><ele>1904</ele></trkpt>
    <trkpt lat="47.49187" lon="13.56955"><ele>1908</ele></trkpt>
    <trkpt lat="47.49195" lon="13.56977"><ele>1910</ele></trkpt>
    <trkpt lat="47.49215" lon="13.57013"><ele>1916</ele></trkpt>
    <trkpt lat="47.49228" lon="13.57055"><ele>1947</ele></trkpt>
    <trkpt lat="47.49263" lon="13.57066"><ele>1916</ele></trkpt>
    <trkpt lat="47.49258" lon="13.57099"><ele>1940</ele></trkpt>
    <trkpt lat="47.49274" lon="13.57119"><ele>1943</ele></trkpt>
    <trkpt lat="47.49268" lon="13.57146"><ele>1939</ele></trkpt>
    <trkpt lat="47.49298" lon="13.57247"><ele>1943</ele></trkpt>
    <trkpt lat="47.49322" lon="13.57286"><ele>1926</ele></trkpt>
    <trkpt lat="47.49319" lon="13.57326"><ele>1953</ele></trkpt>
    <trkpt lat="47.49301" lon="13.57357"><ele>1972</ele></trkpt>
    <trkpt lat="47.49317" lon="13.57404"><ele>1960</ele></trkpt>
    <trkpt lat="47.49310" lon="13.57439"><ele>1944</ele></trkpt>
    <trkpt lat="47.49319" lon="13.57457"><ele>1986</ele></trkpt>
    <trkpt lat="47.49334" lon="13.57459"><ele>1960</ele></trkpt>
    <trkpt lat="47.49357" lon="13.57513"><ele>1969</ele></trkpt>
    <trkpt lat="47.49396" lon="13.57543"><ele>2008</ele></trkpt>
    <trkpt lat="47.49422" lon="13.57541"><ele>1978</ele></trkpt>
    <trkpt lat="47.49451" lon="13.57531"><ele>2004</ele></trkpt>
    <trkpt lat="47.49480" lon="13.57494"><ele>2024</ele></trkpt>
    <trkpt lat="47.49499" lon="13.57498"><ele>2043</ele></trkpt>
    <trkpt lat="47.49513" lon="13.57494"><ele>2013</ele></trkpt>
    <trkpt lat="47.49533" lon="13.57492"><ele>2009</ele></trkpt>
    <trkpt lat="47.49555" lon="13.57488"><ele>2021</ele></trkpt>
    <trkpt lat="47.49606" lon="13.57499"><ele>2018</ele></trkpt>
    <trkpt lat="47.49609" lon="13.57542"><ele>2026</ele></trkpt>
    <trkpt lat="47.49651" lon="13.57521"><ele>2038</ele></trkpt>
    <trkpt lat="47.49655" lon="13.57489"><ele>2038</ele></trkpt>
    <trkpt lat="47.49679" lon="13.57475"><ele>2027</ele></trkpt>
    <trkpt lat="47.49709" lon="13.57479"><ele>2025</ele></trkpt>
    <trkpt lat="47.49765" lon="13.57433"><ele>2047</ele></trkpt>
    <trkpt lat="47.49817" lon="13.57434"><ele>1960</ele></trkpt>
    <trkpt lat="47.49898" lon="13.57437"><ele>2073</ele></trkpt>
    <trkpt lat="47.49915" lon="13.57482"><ele>2040</ele></trkpt>
    <trkpt lat="47.49956" lon="13.57514"><ele>2047</ele></trkpt>
    <trkpt lat="47.49964" lon="13.57532"><ele>2043</ele></trkpt>
    <trkpt lat="47.49976" lon="13.57555"><ele>2042</ele></trkpt>
    <trkpt lat="47.49991" lon="13.57583"><ele>2029</ele></trkpt>
    <trkpt lat="47.50027" lon="13.57645"><ele>2039</ele></trkpt>
    <trkpt lat="47.50055" lon="13.57670"><ele>2096</ele></trkpt>
    <trkpt lat="47.50037" lon="13.57672"><ele>2073</ele></trkpt>
    <trkpt lat="47.50010" lon="13.57686"><ele>2029</ele></trkpt>
    <trkpt lat="47.50022" lon="13.57723"><ele>2019</ele></trkpt>
    <trkpt lat="47.50054" lon="13.57777"><ele>2033</ele></trkpt>
    <trkpt lat="47.50066" lon="13.57804"><ele>2045</ele></trkpt>
    <trkpt lat="47.50057" lon="13.57826"><ele>2045</ele></trkpt>
    <trkpt lat="47.50043" lon="13.57869"><ele>2039</ele></trkpt>
    <trkpt lat="47.50037" lon="13.57902"><ele>2080</ele></trkpt>
    <trkpt lat="47.50026" lon="13.57964"><ele>2135</ele></trkpt>
    <trkpt lat="47.50034" lon="13.57987"><ele>2125</ele></trkpt>
    <trkpt lat="47.50014" lon="13.58009"><ele>2122</ele></trkpt>
    <trkpt lat="47.50000" lon="13.58056"><ele>2031</ele></trkpt>
    <trkpt lat="47.50042" lon="13.58147"><ele>2124</ele></trkpt>
    <trkpt lat="47.50068" lon="13.58208"><ele>2065</ele></trkpt>
    <trkpt lat="47.50088" lon="13.58305"><ele>1946</ele></trkpt>
    <trkpt lat="47.50104" lon="13.58357"><ele>1884</ele></trkpt>
    <trkpt lat="47.50085" lon="13.58459"><ele>2084</ele></trkpt>
    <trkpt lat="47.50066" lon="13.58502"><ele>1988</ele></trkpt>
    <trkpt lat="47.50057" lon="13.58526"><ele>2065</ele></trkpt>
    <trkpt lat="47.50053" lon="13.58560"><ele>2000</ele></trkpt>
    <trkpt lat="47.50015" lon="13.58593"><ele>2091</ele></trkpt>
    <trkpt lat="47.50003" lon="13.58622"><ele>2078</ele></trkpt>
    <trkpt lat="47.49998" lon="13.58645"><ele>2091</ele></trkpt>
    <trkpt lat="47.49978" lon="13.58701"><ele>2127</ele></trkpt>
    <trkpt lat="47.49971" lon="13.58725"><ele>2104</ele></trkpt>
    <trkpt lat="47.49983" lon="13.58739"><ele>2119</ele></trkpt>
    <trkpt lat="47.49958" lon="13.58752"><ele>2113</ele></trkpt>
    <trkpt lat="47.49970" lon="13.58775"><ele>2104</ele></trkpt>
    <trkpt lat="47.49950" lon="13.58797"><ele>2090</ele></trkpt>
    <trkpt lat="47.49959" lon="13.58830"><ele>2098</ele></trkpt>
    <trkpt lat="47.49946" lon="13.58865"><ele>2154</ele></trkpt>
    <trkpt lat="47.49946" lon="13.58901"><ele>2140</ele></trkpt>
    <trkpt lat="47.49964" lon="13.58914"><ele>2095</ele></trkpt>
    <trkpt lat="47.49912" lon="13.58977"><ele>2104</ele></trkpt>
    <trkpt lat="47.49886" lon="13.58966"><ele>2118</ele></trkpt>
    <trkpt lat="47.49864" lon="13.59031"><ele>2151</ele></trkpt>
    <trkpt lat="47.49892" lon="13.59090"><ele>2168</ele></trkpt>
    <trkpt lat="47.49909" lon="13.59168"><ele>2187</ele></trkpt>
    <trkpt lat="47.49889" lon="13.59271"><ele>2173</ele></trkpt>
    <trkpt lat="47.49865" lon="13.59265"><ele>2169</ele></trkpt>
    <trkpt lat="47.49862" lon="13.59301"><ele>2189</ele></trkpt>
    <trkpt lat="47.49842" lon="13.59335"><ele>2189</ele></trkpt>
    <trkpt lat="47.49853" lon="13.59361"><ele>2204</ele></trkpt>
    <trkpt lat="47.49819" lon="13.59396"><ele>2161</ele></trkpt>
    <trkpt lat="47.49802" lon="13.59477"><ele>2181</ele></trkpt>
    <trkpt lat="47.49772" lon="13.59526"><ele>2137</ele></trkpt>
    <trkpt lat="47.49782" lon="13.59558"><ele>2145</ele></trkpt>
    <trkpt lat="47.49742" lon="13.59613"><ele>2162</ele></trkpt>
    <trkpt lat="47.49701" lon="13.59644"><ele>2111</ele></trkpt>
    <trkpt lat="47.49681" lon="13.59665"><ele>2139</ele></trkpt>
    <trkpt lat="47.49692" lon="13.59697"><ele>2169</ele></trkpt>
    <trkpt lat="47.49669" lon="13.59763"><ele>2185</ele></trkpt>
    <trkpt lat="47.49678" lon="13.59806"><ele>2175</ele></trkpt>
    <trkpt lat="47.49673" lon="13.59828"><ele>2115</ele></trkpt>
    <trkpt lat="47.49623" lon="13.59885"><ele>2161</ele></trkpt>
    <trkpt lat="47.49596" lon="13.59923"><ele>2169</ele></trkpt>
    <trkpt lat="47.49595" lon="13.59962"><ele>2207</ele></trkpt>
    <trkpt lat="47.49584" lon="13.60013"><ele>2185</ele></trkpt>
    <trkpt lat="47.49581" lon="13.60039"><ele>2178</ele></trkpt>
    <trkpt lat="47.49538" lon="13.60153"><ele>2185</ele></trkpt>
    <trkpt lat="47.49530" lon="13.60122"><ele>2214</ele></trkpt>
    <trkpt lat="47.49516" lon="13.60111"><ele>2224</ele></trkpt>
    <trkpt lat="47.49464" lon="13.60096"><ele>2268</ele></trkpt>
    <trkpt lat="47.49439" lon="13.60082"><ele>2268</ele></trkpt>
    <trkpt lat="47.49470" lon="13.60236"><ele>2237</ele></trkpt>
    <trkpt lat="47.49448" lon="13.60191"><ele>2319</ele></trkpt>
    <trkpt lat="47.49454" lon="13.60278"><ele>2253</ele></trkpt>
    <trkpt lat="47.49433" lon="13.60245"><ele>2316</ele></trkpt>
    <trkpt lat="47.49415" lon="13.60227"><ele>2328</ele></trkpt>
    <trkpt lat="47.49417" lon="13.60263"><ele>2272</ele></trkpt>
    <trkpt lat="47.49420" lon="13.60283"><ele>2239</ele></trkpt>
    <trkpt lat="47.49406" lon="13.60268"><ele>2277</ele></trkpt>
    <trkpt lat="47.49374" lon="13.60273"><ele>2334</ele></trkpt>
    <trkpt lat="47.49342" lon="13.60277"><ele>2310</ele></trkpt>
    <trkpt lat="47.49357" lon="13.60283"><ele>2365</ele></trkpt>
    <trkpt lat="47.49362" lon="13.60308"><ele>2381</ele></trkpt>
    <trkpt lat="47.49344" lon="13.60307"><ele>2362</ele></trkpt>
    <trkpt lat="47.49357" lon="13.60289"><ele>2402</ele></trkpt>
    <trkpt lat="47.49384" lon="13.60227"><ele>2384</ele></trkpt>
    <trkpt lat="47.49427" lon="13.60157"><ele>2302</ele></trkpt>
    <trkpt lat="47.49459" lon="13.60010"><ele>2252</ele></trkpt>
    <trkpt lat="47.49490" lon="13.60015"><ele>2272</ele></trkpt>
    <trkpt lat="47.49565" lon="13.59732"><ele>2134</ele></trkpt>
    <trkpt lat="47.49614" lon="13.59642"><ele>2155</ele></trkpt>
    <trkpt lat="47.49792" lon="13.59454"><ele>2192</ele></trkpt>
    <trkpt lat="47.49784" lon="13.59353"><ele>2063</ele></trkpt>
    <trkpt lat="47.49844" lon="13.59284"><ele>2100</ele></trkpt>
    <trkpt lat="47.49912" lon="13.59147"><ele>2209</ele></trkpt>
    <trkpt lat="47.49912" lon="13.59114"><ele>2131</ele></trkpt>
    <trkpt lat="47.50086" lon="13.58971"><ele>1844</ele></trkpt>
    <trkpt lat="47.50068" lon="13.58906"><ele>2074</ele></trkpt>
    <trkpt lat="47.50096" lon="13.58702"><ele>1814</ele></trkpt>
    <trkpt lat="47.50087" lon="13.58597"><ele>2052</ele></trkpt>
    <trkpt lat="47.50078" lon="13.58448"><ele>2001</ele></trkpt>
    <trkpt lat="47.50074" lon="13.58253"><ele>2055</ele></trkpt>
    <trkpt lat="47.50043" lon="13.58196"><ele>2036</ele></trkpt>
    <trkpt lat="47.50041" lon="13.58171"><ele>2055</ele></trkpt>
    <trkpt lat="47.50065" lon="13.58164"><ele>2082</ele></trkpt>
    <trkpt lat="47.50020" lon="13.58099"><ele>2093</ele></trkpt>
    <trkpt lat="47.50025" lon="13.58039"><ele>2129</ele></trkpt>
    <trkpt lat="47.50000" lon="13.58018"><ele>2120</ele></trkpt>
    <trkpt lat="47.49972" lon="13.58030"><ele>2103</ele></trkpt>
    <trkpt lat="47.49958" lon="13.58054"><ele>2107</ele></trkpt>
    <trkpt lat="47.49957" lon="13.58088"><ele>2144</ele></trkpt>
    <trkpt lat="47.49945" lon="13.58107"><ele>2112</ele></trkpt>
    <trkpt lat="47.49943" lon="13.58140"><ele>2149</ele></trkpt>
    <trkpt lat="47.49927" lon="13.58124"><ele>2127</ele></trkpt>
    <trkpt lat="47.49909" lon="13.58105"><ele>2154</ele></trkpt>
    <trkpt lat="47.49908" lon="13.58140"><ele>2170</ele></trkpt>
    <trkpt lat="47.49902" lon="13.58171"><ele>2169</ele></trkpt>
    <trkpt lat="47.49896" lon="13.58207"><ele>2198</ele></trkpt>
    <trkpt lat="47.49891" lon="13.58251"><ele>2214</ele></trkpt>
    <trkpt lat="47.49870" lon="13.58240"><ele>2228</ele></trkpt>
    <trkpt lat="47.49869" lon="13.58266"><ele>2228</ele></trkpt>
    <trkpt lat="47.49868" lon="13.58292"><ele>2236</ele></trkpt>
    <trkpt lat="47.49857" lon="13.58269"><ele>2233</ele></trkpt>
    <trkpt lat="47.49848" lon="13.58230"><ele>2254</ele></trkpt>
    <trkpt lat="47.49838" lon="13.58259"><ele>2257</ele></trkpt>
    <trkpt lat="47.49829" lon="13.58274"><ele>2272</ele></trkpt>
    <trkpt lat="47.49817" lon="13.58259"><ele>2288</ele></trkpt>
    <trkpt lat="47.49805" lon="13.58275"><ele>2258</ele></trkpt>
    <trkpt lat="47.49786" lon="13.58258"><ele>2257</ele></trkpt>
    <trkpt lat="47.49780" lon="13.58240"><ele>2310</ele></trkpt>
    <trkpt lat="47.49789" lon="13.58223"><ele>2313</ele></trkpt>
    <trkpt lat="47.49825" lon="13.58169"><ele>2336</ele></trkpt>
    <trkpt lat="47.49777" lon="13.58238"><ele>2312</ele></trkpt>
    <trkpt lat="47.49793" lon="13.58261"><ele>2270</ele></trkpt>
    <trkpt lat="47.49827" lon="13.58297"><ele>2298</ele></trkpt>
    <trkpt lat="47.49833" lon="13.58318"><ele>2340</ele></trkpt>
    <trkpt lat="47.49850" lon="13.58317"><ele>2344</ele></trkpt>
    <trkpt lat="47.49866" lon="13.58307"><ele>2300</ele></trkpt>
    <trkpt lat="47.49880" lon="13.58282"><ele>2267</ele></trkpt>
    <trkpt lat="47.49894" lon="13.58240"><ele>2246</ele></trkpt>
    <trkpt lat="47.49904" lon="13.58224"><ele>2204</ele></trkpt>
    <trkpt lat="47.49951" lon="13.58082"><ele>2203</ele></trkpt>
    <trkpt lat="47.49953" lon="13.58039"><ele>2140</ele></trkpt>
    <trkpt lat="47.49999" lon="13.57982"><ele>2072</ele></trkpt>
    <trkpt lat="47.50027" lon="13.57679"><ele>2047</ele></trkpt>
    <trkpt lat="47.49992" lon="13.57547"><ele>2046</ele></trkpt>
    <trkpt lat="47.49956" lon="13.57512"><ele>2024</ele></trkpt>
    <trkpt lat="47.49881" lon="13.57457"><ele>2000</ele></trkpt>
    <trkpt lat="47.49838" lon="13.57438"><ele>2034</ele></trkpt>
    <trkpt lat="47.49840" lon="13.57350"><ele>2011</ele></trkpt>
    <trkpt lat="47.49826" lon="13.57330"><ele>2019</ele></trkpt>
    <trkpt lat="47.49801" lon="13.57301"><ele>1979</ele></trkpt>
    <trkpt lat="47.49704" lon="13.57090"><ele>1974</ele></trkpt>
    <trkpt lat="47.49693" lon="13.57028"><ele>1965</ele></trkpt>
    <trkpt lat="47.49675" lon="13.57027"><ele>1996</ele></trkpt>
    <trkpt lat="47.49635" lon="13.56982"><ele>1698</ele></trkpt>
    <trkpt lat="47.49580" lon="13.56825"><ele>1871</ele></trkpt>
    <trkpt lat="47.49572" lon="13.56844"><ele>1906</ele></trkpt>
    <trkpt lat="47.49496" lon="13.56717"><ele>1806</ele></trkpt>
    <trkpt lat="47.49488" lon="13.56545"><ele>1777</ele></trkpt>
    <trkpt lat="47.49466" lon="13.56465"><ele>1751</ele></trkpt>
    <trkpt lat="47.49424" lon="13.56438"><ele>1664</ele></trkpt>
    <trkpt lat="47.49356" lon="13.56423"><ele>1725</ele></trkpt>
    <trkpt lat="47.49356" lon="13.56377"><ele>1728</ele></trkpt>
    <trkpt lat="47.49353" lon="13.56313"><ele>1701</ele></trkpt>
    <trkpt lat="47.49351" lon="13.56237"><ele>1684</ele></trkpt>
    <trkpt lat="47.49337" lon="13.56225"><ele>1678</ele></trkpt>
    <trkpt lat="47.49324" lon="13.56213"><ele>1684</ele></trkpt>
    <trkpt lat="47.49288" lon="13.56153"><ele>1673</ele></trkpt>
    <trkpt lat="47.49209" lon="13.56023"><ele>1689</ele></trkpt>
    <trkpt lat="47.49181" lon="13.55963"><ele>1699</ele></trkpt>
    <trkpt lat="47.49261" lon="13.55982"><ele>1674</ele></trkpt>
    <trkpt lat="47.49240" lon="13.55967"><ele>1651</ele></trkpt>
    <trkpt lat="47.49174" lon="13.55802"><ele>1726</ele></trkpt>
    <trkpt lat="47.49184" lon="13.55755"><ele>1571</ele></trkpt>
    <trkpt lat="47.49240" lon="13.55560"><ele>1561</ele></trkpt>
    <trkpt lat="47.49276" lon="13.55487"><ele>1533</ele></trkpt>
    <trkpt lat="47.49296" lon="13.55407"><ele>1426</ele></trkpt>
    <trkpt lat="47.49355" lon="13.55405"><ele>1461</ele></trkpt>
    <trkpt lat="47.49347" lon="13.55368"><ele>1173</ele></trkpt>
    <trkpt lat="47.49361" lon="13.55261"><ele>1442</ele></trkpt>
    <trkpt lat="47.49351" lon="13.55246"><ele>1425</ele></trkpt>
    <trkpt lat="47.49368" lon="13.55236"><ele>1420</ele></trkpt>
    <trkpt lat="47.49399" lon="13.55222"><ele>1429</ele></trkpt>
    <trkpt lat="47.49433" lon="13.55124"><ele>1425</ele></trkpt>
    <trkpt lat="47.49448" lon="13.55166"><ele>1378</ele></trkpt>
    <trkpt lat="47.49455" lon="13.55137"><ele>1464</ele></trkpt>
    <trkpt lat="47.49453" lon="13.55114"><ele>1419</ele></trkpt>
    <trkpt lat="47.49545" lon="13.55137"><ele>1337</ele></trkpt>
    <trkpt lat="47.49567" lon="13.55210"><ele>1454</ele></trkpt>
    <trkpt lat="47.49547" lon="13.55278"><ele>1309</ele></trkpt>
    <trkpt lat="47.49588" lon="13.55378"><ele>1308</ele></trkpt>
    <trkpt lat="47.49575" lon="13.55266"><ele>1278</ele></trkpt>
    <trkpt lat="47.49586" lon="13.55244"><ele>1170</ele></trkpt>
    <trkpt lat="47.49693" lon="13.55126"><ele>1232</ele></trkpt>
    <trkpt lat="47.49675" lon="13.55130"><ele>1434</ele></trkpt>
    <trkpt lat="47.49709" lon="13.55125"><ele>1380</ele></trkpt>
    <trkpt lat="47.49746" lon="13.55106"><ele>1202</ele></trkpt>
    <trkpt lat="47.49766" lon="13.55088"><ele>1218</ele></trkpt>
    <trkpt lat="47.49789" lon="13.55075"><ele>1209</ele></trkpt>
    <trkpt lat="47.49812" lon="13.55056"><ele>1204</ele></trkpt>
    <trkpt lat="47.49837" lon="13.55029"><ele>1199</ele></trkpt>
    <trkpt lat="47.49850" lon="13.55007"><ele>1187</ele></trkpt>
    <trkpt lat="47.49864" lon="13.54968"><ele>1184</ele></trkpt>
    <trkpt lat="47.49896" lon="13.54953"><ele>1183</ele></trkpt>
    <trkpt lat="47.49924" lon="13.54934"><ele>1082</ele></trkpt>
    <trkpt lat="47.49947" lon="13.54912"><ele>1174</ele></trkpt>
    <trkpt lat="47.49970" lon="13.54889"><ele>1170</ele></trkpt>
    <trkpt lat="47.49986" lon="13.54858"><ele>1160</ele></trkpt>
    <trkpt lat="47.50019" lon="13.54824"><ele>1149</ele></trkpt>
    <trkpt lat="47.50019" lon="13.54775"><ele>1147</ele></trkpt>
    <trkpt lat="47.50043" lon="13.54711"><ele>1151</ele></trkpt>
    <trkpt lat="47.50071" lon="13.54647"><ele>1157</ele></trkpt>
    <trkpt lat="47.50106" lon="13.54633"><ele>1178</ele></trkpt>
    <trkpt lat="47.50120" lon="13.54595"><ele>1170</ele></trkpt>
    <trkpt lat="47.50121" lon="13.54515"><ele>1125</ele></trkpt>
    <trkpt lat="47.50160" lon="13.54471"><ele>1124</ele></trkpt>
    <trkpt lat="47.50191" lon="13.54463"><ele>1127</ele></trkpt>
    <trkpt lat="47.50207" lon="13.54456"><ele>1161</ele></trkpt>
    <trkpt lat="47.50226" lon="13.54451"><ele>1281</ele></trkpt>
    <trkpt lat="47.50373" lon="13.54436"><ele>1236</ele></trkpt>
    <trkpt lat="47.50458" lon="13.54453"><ele>1227</ele></trkpt>
    <trkpt lat="47.50560" lon="13.54371"><ele>1408</ele></trkpt>
    <trkpt lat="47.50616" lon="13.54241"><ele>1323</ele></trkpt>
    <trkpt lat="47.50692" lon="13.54153"><ele>1173</ele></trkpt>
    <trkpt lat="47.50796" lon="13.54022"><ele>1143</ele></trkpt>
    <trkpt lat="47.50835" lon="13.53893"><ele>1257</ele></trkpt>
    <trkpt lat="47.50918" lon="13.53928"><ele>1161</ele></trkpt>
    <trkpt lat="47.50949" lon="13.53815"><ele>1152</ele></trkpt>
    <trkpt lat="47.51033" lon="13.53761"><ele>1142</ele></trkpt>
    <trkpt lat="47.51088" lon="13.53470"><ele>1079</ele></trkpt>
    <trkpt lat="47.51236" lon="13.53385"><ele>1008</ele></trkpt>
    <trkpt lat="47.51463" lon="13.53372"><ele>1041</ele></trkpt>
    <trkpt lat="47.51544" lon="13.53263"><ele>970</ele></trkpt>
    <trkpt lat="47.51731" lon="13.53054"><ele>1009</ele></trkpt>
    <trkpt lat="47.51762" lon="13.52932"><ele>989</ele></trkpt>
    <trkpt lat="47.51893" lon="13.52670"><ele>978</ele></trkpt>
    <trkpt lat="47.51959" lon="13.52406"><ele>991</ele></trkpt>
    <trkpt lat="47.51991" lon="13.52270"><ele>972</ele></trkpt>
    <trkpt lat="47.52075" lon="13.52107"><ele>1002</ele></trkpt>
    <trkpt lat="47.52286" lon="13.51907"><ele>986</ele></trkpt>
    <trkpt lat="47.52446" lon="13.51749"><ele>951</ele></trkpt>
    <trkpt lat="47.52601" lon="13.51590"><ele>909</ele></trkpt>
    <trkpt lat="47.52675" lon="13.51454"><ele>909</ele></trkpt>
    <trkpt lat="47.52756" lon="13.51318"><ele>899</ele></trkpt>
    <trkpt lat="47.52879" lon="13.51092"><ele>921</ele></trkpt>
    <trkpt lat="47.52917" lon="13.50911"><ele>932</ele></trkpt>
    <trkpt lat="47.52991" lon="13.50791"><ele>1148</ele></trkpt>
    <trkpt lat="47.53145" lon="13.50588"><ele>936</ele></trkpt>
    <trkpt lat="47.53240" lon="13.50346"><ele>932</ele></trkpt>
    <trkpt lat="47.53252" lon="13.50237"><ele>1096</ele></trkpt>
    <trkpt lat="47.53251" lon="13.50047"><ele>1052</ele></trkpt>
    <trkpt lat="47.53295" lon="13.49718"><ele>1018</ele></trkpt>
    <trkpt lat="47.53329" lon="13.49688"><ele>1058</ele></trkpt>
    <trkpt lat="47.53324" lon="13.49700"><ele>1129</ele></trkpt>
  </trkseg>
</trk>
</gpx>