<?xml version="1.0" encoding="UTF-8"?>
<gpx version="1.1" creator="GPX-Pro" xmlns="http://www.topografix.com/GPX/1/1">
<trk>
  <name>Mtb_Elisabethwarte</name>
  <trkseg>
    <trkpt lat="48.07502" lon="14.61301"><ele>338</ele><time>2024-04-07T06:34:24Z</time></trkpt>
    <trkpt lat="48.07484" lon="14.61312"><ele>335</ele><time>2024-04-07T06:34:54Z</time></trkpt>
    <trkpt lat="48.07447" lon="14.61331"><ele>334</ele><time>2024-04-07T06:36:24Z</time></trkpt>
    <trkpt lat="48.07351" lon="14.61219"><ele>334</ele><time>2024-04-07T06:36:54Z</time></trkpt>
    <trkpt lat="48.07271" lon="14.61073"><ele>330</ele><time>2024-04-07T06:37:24Z</time></trkpt>
    <trkpt lat="48.07261" lon="14.60949"><ele>334</ele><time>2024-04-07T06:37:54Z</time></trkpt>
    <trkpt lat="48.07270" lon="14.60839"><ele>339</ele><time>2024-04-07T06:38:24Z</time></trkpt>
    <trkpt lat="48.07242" lon="14.60781"><ele>342</ele><time>2024-04-07T06:38:54Z</time></trkpt>
    <trkpt lat="48.07210" lon="14.60748"><ele>344</ele><time>2024-04-07T06:39:24Z</time></trkpt>
    <trkpt lat="48.07165" lon="14.60731"><ele>349</ele><time>2024-04-07T06:39:54Z</time></trkpt>
    <trkpt lat="48.07107" lon="14.60751"><ele>354</ele><time>2024-04-07T06:40:24Z</time></trkpt>
    <trkpt lat="48.07042" lon="14.60697"><ele>353</ele><time>2024-04-07T06:40:54Z</time></trkpt>
    <trkpt lat="48.07006" lon="14.60611"><ele>356</ele><time>2024-04-07T06:41:24Z</time></trkpt>
    <trkpt lat="48.06981" lon="14.60536"><ele>354</ele><time>2024-04-07T06:41:54Z</time></trkpt>
    <trkpt lat="48.06966" lon="14.60470"><ele>356</ele><time>2024-04-07T06:42:24Z</time></trkpt>
    <trkpt lat="48.06939" lon="14.60390"><ele>364</ele><time>2024-04-07T06:42:54Z</time></trkpt>
    <trkpt lat="48.06908" lon="14.60318"><ele>358</ele><time>2024-04-07T06:43:24Z</time></trkpt>
    <trkpt lat="48.06898" lon="14.60241"><ele>363</ele><time>2024-04-07T06:43:54Z</time></trkpt>
    <trkpt lat="48.06877" lon="14.60169"><ele>357</ele><time>2024-04-07T06:44:24Z</time></trkpt>
    <trkpt lat="48.06872" lon="14.60097"><ele>353</ele><time>2024-04-07T06:44:54Z</time></trkpt>
    <trkpt lat="48.06833" lon="14.59954"><ele>353</ele><time>2024-04-07T06:45:24Z</time></trkpt>
    <trkpt lat="48.06797" lon="14.59777"><ele>355</ele><time>2024-04-07T06:45:54Z</time></trkpt>
    <trkpt lat="48.06759" lon="14.59616"><ele>355</ele><time>2024-04-07T06:46:24Z</time></trkpt>
    <trkpt lat="48.06731" lon="14.59413"><ele>354</ele><time>2024-04-07T06:46:54Z</time></trkpt>
    <trkpt lat="48.06671" lon="14.59234"><ele>349</ele><time>2024-04-07T06:47:24Z</time></trkpt>
    <trkpt lat="48.06705" lon="14.59083"><ele>354</ele><time>2024-04-07T06:47:54Z</time></trkpt>
    <trkpt lat="48.06675" lon="14.58885"><ele>351</ele><time>2024-04-07T06:48:38Z</time></trkpt>
    <trkpt lat="48.06725" lon="14.58732"><ele>342</ele><time>2024-04-07T06:49:08Z</time></trkpt>
    <trkpt lat="48.06796" lon="14.58631"><ele>348</ele><time>2024-04-07T06:49:38Z</time></trkpt>
    <trkpt lat="48.06662" lon="14.58530"><ele>351</ele><time>2024-04-07T06:50:14Z</time></trkpt>
    <trkpt lat="48.06465" lon="14.58368"><ele>356</ele><time>2024-04-07T06:51:14Z</time></trkpt>
    <trkpt lat="48.06230" lon="14.58410"><ele>356</ele><time>2024-04-07T06:52:13Z</time></trkpt>
    <trkpt lat="48.06169" lon="14.58436"><ele>358</ele><time>2024-04-07T06:52:43Z</time></trkpt>
    <trkpt lat="48.06080" lon="14.58463"><ele>358</ele><time>2024-04-07T06:53:14Z</time></trkpt>
    <trkpt lat="48.05947" lon="14.58523"><ele>349</ele><time>2024-04-07T06:53:44Z</time></trkpt>
    <trkpt lat="48.05763" lon="14.58528"><ele>340</ele><time>2024-04-07T06:54:14Z</time></trkpt>
    <trkpt lat="48.05667" lon="14.58425"><ele>342</ele><time>2024-04-07T06:54:44Z</time></trkpt>
    <trkpt lat="48.05569" lon="14.58398"><ele>346</ele><time>2024-04-07T06:55:14Z</time></trkpt>
    <trkpt lat="48.05490" lon="14.58422"><ele>348</ele><time>2024-04-07T06:55:44Z</time></trkpt>
    <trkpt lat="48.05383" lon="14.58387"><ele>345</ele><time>2024-04-07T06:56:14Z</time></trkpt>
    <trkpt lat="48.05278" lon="14.58420"><ele>347</ele><time>2024-04-07T06:56:44Z</time></trkpt>
    <trkpt lat="48.05194" lon="14.58392"><ele>349</ele><time>2024-04-07T06:57:14Z</time></trkpt>
    <trkpt lat="48.05070" lon="14.58264"><ele>347</ele><time>2024-04-07T06:57:44Z</time></trkpt>
    <trkpt lat="48.04976" lon="14.58182"><ele>350</ele><time>2024-04-07T06:58:14Z</time></trkpt>
    <trkpt lat="48.04886" lon="14.58156"><ele>353</ele><time>2024-04-07T06:58:44Z</time></trkpt>
    <trkpt lat="48.04808" lon="14.58077"><ele>363</ele><time>2024-04-07T06:59:14Z</time></trkpt>
    <trkpt lat="48.04674" lon="14.58009"><ele>359</ele><time>2024-04-07T06:59:54Z</time></trkpt>
    <trkpt lat="48.04595" lon="14.58019"><ele>371</ele><time>2024-04-07T07:00:25Z</time></trkpt>
    <trkpt lat="48.04407" lon="14.58043"><ele>357</ele><time>2024-04-07T07:01:25Z</time></trkpt>
    <trkpt lat="48.04319" lon="14.57958"><ele>356</ele><time>2024-04-07T07:02:08Z</time></trkpt>
    <trkpt lat="48.04235" lon="14.57906"><ele>374</ele><time>2024-04-07T07:03:06Z</time></trkpt>
    <trkpt lat="48.04193" lon="14.57912"><ele>391</ele><time>2024-04-07T07:03:36Z</time></trkpt>
    <trkpt lat="48.04156" lon="14.57902"><ele>376</ele><time>2024-04-07T07:04:07Z</time></trkpt>
    <trkpt lat="48.04080" lon="14.57893"><ele>374</ele><time>2024-04-07T07:05:06Z</time></trkpt>
    <trkpt lat="48.04050" lon="14.57845"><ele>368</ele><time>2024-04-07T07:05:36Z</time></trkpt>
    <trkpt lat="48.04019" lon="14.57850"><ele>415</ele><time>2024-04-07T07:07:36Z</time></trkpt>
    <trkpt lat="48.03983" lon="14.57868"><ele>400</ele><time>2024-04-07T07:08:06Z</time></trkpt>
    <trkpt lat="48.03919" lon="14.57862"><ele>427</ele><time>2024-04-07T07:09:06Z</time></trkpt>
    <trkpt lat="48.03892" lon="14.57843"><ele>430</ele><time>2024-04-07T07:09:36Z</time></trkpt>
    <trkpt lat="48.03867" lon="14.57802"><ele>422</ele><time>2024-04-07T07:10:06Z</time></trkpt>
    <trkpt lat="48.03809" lon="14.57769"><ele>440</ele><time>2024-04-07T07:11:07Z</time></trkpt>
    <trkpt lat="48.03758" lon="14.57758"><ele>441</ele><time>2024-04-07T07:11:37Z</time></trkpt>
    <trkpt lat="48.03751" lon="14.57681"><ele>437</ele><time>2024-04-07T07:12:37Z</time></trkpt>
    <trkpt lat="48.03694" lon="14.57475"><ele>423</ele><time>2024-04-07T07:13:07Z</time></trkpt>
    <trkpt lat="48.03430" lon="14.57323"><ele>397</ele><time>2024-04-07T07:13:37Z</time></trkpt>
    <trkpt lat="48.03423" lon="14.57300"><ele>394</ele><time>2024-04-07T07:14:07Z</time></trkpt>
    <trkpt lat="48.03458" lon="14.57020"><ele>389</ele><time>2024-04-07T07:15:23Z</time></trkpt>
    <trkpt lat="48.03381" lon="14.56974"><ele>385</ele><time>2024-04-07T07:15:53Z</time></trkpt>
    <trkpt lat="48.03353" lon="14.56972"><ele>396</ele><time>2024-04-07T07:16:23Z</time></trkpt>
    <trkpt lat="48.03370" lon="14.56946"><ele>382</ele><time>2024-04-07T07:16:53Z</time></trkpt>
    <trkpt lat="48.03380" lon="14.56938"><ele>387</ele><time>2024-04-07T07:17:23Z</time></trkpt>
    <trkpt lat="48.03376" lon="14.56821"><ele>389</ele><time>2024-04-07T07:20:15Z</time></trkpt>
    <trkpt lat="48.03355" lon="14.56786"><ele>395</ele><time>2024-04-07T07:20:45Z</time></trkpt>
    <trkpt lat="48.03357" lon="14.56731"><ele>400</ele><time>2024-04-07T07:21:15Z</time></trkpt>
    <trkpt lat="48.03367" lon="14.56674"><ele>411</ele><time>2024-04-07T07:21:45Z</time></trkpt>
    <trkpt lat="48.03362" lon="14.56620"><ele>407</ele><time>2024-04-07T07:22:15Z</time></trkpt>
    <trkpt lat="48.03352" lon="14.56571"><ele>412</ele><time>2024-04-07T07:22:45Z</time></trkpt>
    <trkpt lat="48.03382" lon="14.56528"><ele>416</ele><time>2024-04-07T07:23:15Z</time></trkpt>
    <trkpt lat="48.03383" lon="14.56477"><ele>410</ele><time>2024-04-07T07:24:04Z</time></trkpt>
    <trkpt lat="48.03330" lon="14.56430"><ele>422</ele><time>2024-04-07T07:24:34Z</time></trkpt>
    <trkpt lat="48.03262" lon="14.56415"><ele>424</ele><time>2024-04-07T07:25:04Z</time></trkpt>
    <trkpt lat="48.03195" lon="14.56405"><ele>427</ele><time>2024-04-07T07:25:34Z</time></trkpt>
    <trkpt lat="48.03148" lon="14.56399"><ele>434</ele><time>2024-04-07T07:26:04Z</time></trkpt>
    <trkpt lat="48.03108" lon="14.56395"><ele>440</ele><time>2024-04-07T07:26:34Z</time></trkpt>
    <trkpt lat="48.03085" lon="14.56396"><ele>438</ele><time>2024-04-07T07:27:04Z</time></trkpt>
    <trkpt lat="48.03069" lon="14.56388"><ele>443</ele><time>2024-04-07T07:28:04Z</time></trkpt>
    <trkpt lat="48.03020" lon="14.56372"><ele>463</ele><time>2024-04-07T07:29:25Z</time></trkpt>
    <trkpt lat="48.02979" lon="14.56357"><ele>461</ele><time>2024-04-07T07:30:22Z</time></trkpt>
    <trkpt lat="48.02911" lon="14.56330"><ele>486</ele><time>2024-04-07T07:31:22Z</time></trkpt>
    <trkpt lat="48.02872" lon="14.56293"><ele>474</ele><time>2024-04-07T07:33:52Z</time></trkpt>
    <trkpt lat="48.02830" lon="14.56245"><ele>477</ele><time>2024-04-07T07:34:22Z</time></trkpt>
    <trkpt lat="48.02813" lon="14.56180"><ele>424</ele><time>2024-04-07T07:34:52Z</time></trkpt>
    <trkpt lat="48.02796" lon="14.56109"><ele>492</ele><time>2024-04-07T07:35:22Z</time></trkpt>
    <trkpt lat="48.02764" lon="14.56068"><ele>501</ele><time>2024-04-07T07:35:52Z</time></trkpt>
    <trkpt lat="48.02712" lon="14.56024"><ele>491</ele><time>2024-04-07T07:36:22Z</time></trkpt>
    <trkpt lat="48.02655" lon="14.56014"><ele>462</ele><time>2024-04-07T07:36:52Z</time></trkpt>
    <trkpt lat="48.02625" lon="14.55992"><ele>521</ele><time>2024-04-07T07:37:22Z</time></trkpt>
    <trkpt lat="48.02583" lon="14.55977"><ele>514</ele><time>2024-04-07T07:37:52Z</time></trkpt>
    <trkpt lat="48.02516" lon="14.55951"><ele>493</ele><time>2024-04-07T07:38:24Z</time></trkpt>
    <trkpt lat="48.02501" lon="14.55987"><ele>492</ele><time>2024-04-07T07:39:09Z</time></trkpt>
    <trkpt lat="48.02478" lon="14.55976"><ele>519</ele><time>2024-04-07T07:39:39Z</time></trkpt>
    <trkpt lat="48.02439" lon="14.55958"><ele>526</ele><time>2024-04-07T07:40:09Z</time></trkpt>
    <trkpt lat="48.02403" lon="14.55918"><ele>531</ele><time>2024-04-07T07:40:39Z</time></trkpt>
    <trkpt lat="48.02381" lon="14.55875"><ele>527</ele><time>2024-04-07T07:41:09Z</time></trkpt>
    <trkpt lat="48.02347" lon="14.55818"><ele>543</ele><time>2024-04-07T07:41:55Z</time></trkpt>
    <trkpt lat="48.02325" lon="14.55747"><ele>477</ele><time>2024-04-07T07:42:55Z</time></trkpt>
    <trkpt lat="48.02312" lon="14.55702"><ele>502</ele><time>2024-04-07T07:43:25Z</time></trkpt>
    <trkpt lat="48.02304" lon="14.55669"><ele>412</ele><time>2024-04-07T07:43:55Z</time></trkpt>
    <trkpt lat="48.02287" lon="14.55639"><ele>572</ele><time>2024-04-07T07:44:25Z</time></trkpt>
    <trkpt lat="48.02284" lon="14.55522"><ele>529</ele><time>2024-04-07T07:44:56Z</time></trkpt>
    <trkpt lat="48.02274" lon="14.55598"><ele>606</ele><time>2024-04-07T07:45:26Z</time></trkpt>
    <trkpt lat="48.02292" lon="14.55571"><ele>518</ele><time>2024-04-07T07:46:55Z</time></trkpt>
    <trkpt lat="48.02281" lon="14.55611"><ele>441</ele><time>2024-04-07T07:49:36Z</time></trkpt>
    <trkpt lat="48.02280" lon="14.55558"><ele>417</ele><time>2024-04-07T07:50:35Z</time></trkpt>
    <trkpt lat="48.02274" lon="14.55505"><ele>585</ele><time>2024-04-07T07:51:05Z</time></trkpt>
    <trkpt lat="48.02252" lon="14.55466"><ele>579</ele><time>2024-04-07T07:51:35Z</time></trkpt>
    <trkpt lat="48.02243" lon="14.55421"><ele>570</ele><time>2024-04-07T07:52:05Z</time></trkpt>
    <trkpt lat="48.02228" lon="14.55381"><ele>447</ele><time>2024-04-07T07:52:35Z</time></trkpt>
    <trkpt lat="48.02198" lon="14.55353"><ele>591</ele><time>2024-04-07T07:53:06Z</time></trkpt>
    <trkpt lat="48.02141" lon="14.55362"><ele>595</ele><time>2024-04-07T07:54:05Z</time></trkpt>
    <trkpt lat="48.02115" lon="14.55335"><ele>589</ele><time>2024-04-07T07:54:36Z</time></trkpt>
    <trkpt lat="48.02052" lon="14.55318"><ele>618</ele><time>2024-04-07T07:55:35Z</time></trkpt>
    <trkpt lat="48.02016" lon="14.55302"><ele>639</ele><time>2024-04-07T07:56:06Z</time></trkpt>
    <trkpt lat="48.01998" lon="14.55326"><ele>630</ele><time>2024-04-07T07:56:36Z</time></trkpt>
    <trkpt lat="48.01979" lon="14.55288"><ele>639</ele><time>2024-04-07T07:57:06Z</time></trkpt>
    <trkpt lat="48.01942" lon="14.55266"><ele>656</ele><time>2024-04-07T07:57:36Z</time></trkpt>
    <trkpt lat="48.01893" lon="14.55255"><ele>678</ele><time>2024-04-07T07:58:06Z</time></trkpt>
    <trkpt lat="48.01888" lon="14.55229"><ele>667</ele><time>2024-04-07T07:58:36Z</time></trkpt>
    <trkpt lat="48.01852" lon="14.55197"><ele>664</ele><time>2024-04-07T07:59:06Z</time></trkpt>
    <trkpt lat="48.01837" lon="14.55180"><ele>658</ele><time>2024-04-07T07:59:36Z</time></trkpt>
    <trkpt lat="48.01813" lon="14.55169"><ele>670</ele><time>2024-04-07T08:00:06Z</time></trkpt>
    <trkpt lat="48.01803" lon="14.55166"><ele>666</ele><time>2024-04-07T08:00:36Z</time></trkpt>
    <trkpt lat="48.01765" lon="14.55139"><ele>478</ele><time>2024-04-07T08:01:07Z</time></trkpt>
    <trkpt lat="48.01778" lon="14.55142"><ele>663</ele><time>2024-04-07T08:01:37Z</time></trkpt>
    <trkpt lat="48.01778" lon="14.55164"><ele>640</ele><time>2024-04-07T08:03:38Z</time></trkpt>
    <trkpt lat="48.01743" lon="14.55219"><ele>670</ele><time>2024-04-07T08:04:08Z</time></trkpt>
    <trkpt lat="48.01766" lon="14.55320"><ele>721</ele><time>2024-04-07T08:05:07Z</time></trkpt>
    <trkpt lat="48.01754" lon="14.55355"><ele>707</ele><time>2024-04-07T08:05:38Z</time></trkpt>
    <trkpt lat="48.01783" lon="14.55416"><ele>729</ele><time>2024-04-07T08:06:08Z</time></trkpt>
    <trkpt lat="48.01798" lon="14.55493"><ele>706</ele><time>2024-04-07T08:07:08Z</time></trkpt>
    <trkpt lat="48.01807" lon="14.55545"><ele>687</ele><time>2024-04-07T08:08:07Z</time></trkpt>
    <trkpt lat="48.01794" lon="14.55588"><ele>657</ele><time>2024-04-07T08:08:38Z</time></trkpt>
    <trkpt lat="48.01833" lon="14.55577"><ele>639</ele><time>2024-04-07T08:09:38Z</time></trkpt>
    <trkpt lat="48.01832" lon="14.55690"><ele>486</ele><time>2024-04-07T08:10:38Z</time></trkpt>
    <trkpt lat="48.01772" lon="14.55930"><ele>699</ele><time>2024-04-07T08:11:38Z</time></trkpt>
    <trkpt lat="48.01710" lon="14.56034"><ele>709</ele><time>2024-04-07T08:12:37Z</time></trkpt>
    <trkpt lat="48.01692" lon="14.55965"><ele>488</ele><time>2024-04-07T08:13:08Z</time></trkpt>
    <trkpt lat="48.01700" lon="14.55842"><ele>736</ele><time>2024-04-07T08:14:07Z</time></trkpt>
    <trkpt lat="48.01686" lon="14.55784"><ele>727</ele><time>2024-04-07T08:14:37Z</time></trkpt>
    <trkpt lat="48.01694" lon="14.55718"><ele>721</ele><time>2024-04-07T08:15:07Z</time></trkpt>
    <trkpt lat="48.01673" lon="14.55673"><ele>749</ele><time>2024-04-07T08:15:37Z</time></trkpt>
    <trkpt lat="48.01692" lon="14.55596"><ele>742</ele><time>2024-04-07T08:16:07Z</time></trkpt>
    <trkpt lat="48.01673" lon="14.55535"><ele>745</ele><time>2024-04-07T08:16:38Z</time></trkpt>
    <trkpt lat="48.01655" lon="14.55462"><ele>734</ele><time>2024-04-07T08:17:08Z</time></trkpt>
    <trkpt lat="48.01631" lon="14.55369"><ele>763</ele><time>2024-04-07T08:17:38Z</time></trkpt>
    <trkpt lat="48.01566" lon="14.55119"><ele>727</ele><time>2024-04-07T08:18:37Z</time></trkpt>
    <trkpt lat="48.01531" lon="14.55040"><ele>753</ele><time>2024-04-07T08:19:07Z</time></trkpt>
    <trkpt lat="48.01510" lon="14.54964"><ele>765</ele><time>2024-04-07T08:19:37Z</time></trkpt>
    <trkpt lat="48.01487" lon="14.54874"><ele>766</ele><time>2024-04-07T08:20:07Z</time></trkpt>
    <trkpt lat="48.01478" lon="14.54850"><ele>751</ele><time>2024-04-07T08:20:37Z</time></trkpt>
    <trkpt lat="48.01466" lon="14.54849"><ele>752</ele><time>2024-04-07T08:21:28Z</time></trkpt>
    <trkpt lat="48.01475" lon="14.54834"><ele>733</ele><time>2024-04-07T08:22:58Z</time></trkpt>
    <trkpt lat="48.01470" lon="14.54850"><ele>737</ele><time>2024-04-07T08:23:58Z</time></trkpt>
    <trkpt lat="48.01485" lon="14.54833"><ele>763</ele><time>2024-04-07T08:51:25Z</time></trkpt>
    <trkpt lat="48.01476" lon="14.54851"><ele>761</ele><time>2024-04-07T08:52:24Z</time></trkpt>
    <trkpt lat="48.01528" lon="14.55025"><ele>758</ele><time>2024-04-07T08:57:20Z</time></trkpt>
    <trkpt lat="48.01638" lon="14.55187"><ele>743</ele><time>2024-04-07T08:57:50Z</time></trkpt>
    <trkpt lat="48.01642" lon="14.55294"><ele>741</ele><time>2024-04-07T08:58:20Z</time></trkpt>
    <trkpt lat="48.01660" lon="14.55371"><ele>726</ele><time>2024-04-07T08:58:50Z</time></trkpt>
    <trkpt lat="48.01685" lon="14.55619"><ele>751</ele><time>2024-04-07T08:59:30Z</time></trkpt>
    <trkpt lat="48.01704" lon="14.55981"><ele>714</ele><time>2024-04-07T09:00:31Z</time></trkpt>
    <trkpt lat="48.01689" lon="14.56019"><ele>735</ele><time>2024-04-07T09:01:01Z</time></trkpt>
    <trkpt lat="48.01676" lon="14.56159"><ele>717</ele><time>2024-04-07T09:01:31Z</time></trkpt>
    <trkpt lat="48.01627" lon="14.56379"><ele>682</ele><time>2024-04-07T09:02:01Z</time></trkpt>
    <trkpt lat="48.01617" lon="14.56473"><ele>678</ele><time>2024-04-07T09:02:31Z</time></trkpt>
    <trkpt lat="48.01664" lon="14.56577"><ele>622</ele><time>2024-04-07T09:03:31Z</time></trkpt>
    <trkpt lat="48.01647" lon="14.56642"><ele>648</ele><time>2024-04-07T09:04:01Z</time></trkpt>
    <trkpt lat="48.01661" lon="14.56586"><ele>654</ele><time>2024-04-07T09:05:01Z</time></trkpt>
    <trkpt lat="48.01668" lon="14.56548"><ele>656</ele><time>2024-04-07T09:05:31Z</time></trkpt>
    <trkpt lat="48.01655" lon="14.56599"><ele>650</ele><time>2024-04-07T09:06:01Z</time></trkpt>
    <trkpt lat="48.01649" lon="14.56641"><ele>648</ele><time>2024-04-07T09:06:31Z</time></trkpt>
    <trkpt lat="48.01616" lon="14.56698"><ele>637</ele><time>2024-04-07T09:08:01Z</time></trkpt>
    <trkpt lat="48.01525" lon="14.56744"><ele>620</ele><time>2024-04-07T09:08:31Z</time></trkpt>
    <trkpt lat="48.01503" lon="14.56739"><ele>629</ele><time>2024-04-07T09:09:01Z</time></trkpt>
    <trkpt lat="48.01590" lon="14.56765"><ele>588</ele><time>2024-04-07T09:09:31Z</time></trkpt>
    <trkpt lat="48.01633" lon="14.56720"><ele>595</ele><time>2024-04-07T09:10:51Z</time></trkpt>
    <trkpt lat="48.01657" lon="14.56706"><ele>625</ele><time>2024-04-07T09:11:21Z</time></trkpt>
    <trkpt lat="48.01660" lon="14.56744"><ele>472</ele><time>2024-04-07T09:11:53Z</time></trkpt>
    <trkpt lat="48.01654" lon="14.56731"><ele>578</ele><time>2024-04-07T09:12:52Z</time></trkpt>
    <trkpt lat="48.01706" lon="14.56648"><ele>576</ele><time>2024-04-07T09:14:14Z</time></trkpt>
    <trkpt lat="48.01767" lon="14.56568"><ele>594</ele><time>2024-04-07T09:14:44Z</time></trkpt>
    <trkpt lat="48.01765" lon="14.56845"><ele>519</ele><time>2024-04-07T09:16:44Z</time></trkpt>
    <trkpt lat="48.01851" lon="14.56932"><ele>569</ele><time>2024-04-07T09:17:14Z</time></trkpt>
    <trkpt lat="48.01804" lon="14.56894"><ele>534</ele><time>2024-04-07T09:17:49Z</time></trkpt>
    <trkpt lat="48.01708" lon="14.57112"><ele>509</ele><time>2024-04-07T09:18:19Z</time></trkpt>
    <trkpt lat="48.01615" lon="14.57372"><ele>467</ele><time>2024-04-07T09:18:49Z</time></trkpt>
    <trkpt lat="48.01572" lon="14.57383"><ele>458</ele><time>2024-04-07T09:19:19Z</time></trkpt>
    <trkpt lat="48.01579" lon="14.57484"><ele>488</ele><time>2024-04-07T09:19:49Z</time></trkpt>
    <trkpt lat="48.01616" lon="14.57576"><ele>482</ele><time>2024-04-07T09:20:19Z</time></trkpt>
    <trkpt lat="48.01639" lon="14.57673"><ele>471</ele><time>2024-04-07T09:20:49Z</time></trkpt>
    <trkpt lat="48.01653" lon="14.57774"><ele>481</ele><time>2024-04-07T09:21:19Z</time></trkpt>
    <trkpt lat="48.01692" lon="14.57804"><ele>467</ele><time>2024-04-07T09:21:49Z</time></trkpt>
    <trkpt lat="48.01741" lon="14.57789"><ele>479</ele><time>2024-04-07T09:22:19Z</time></trkpt>
    <trkpt lat="48.01784" lon="14.57769"><ele>489</ele><time>2024-04-07T09:22:49Z</time></trkpt>
    <trkpt lat="48.01825" lon="14.57724"><ele>492</ele><time>2024-04-07T09:23:19Z</time></trkpt>
    <trkpt lat="48.01858" lon="14.57689"><ele>496</ele><time>2024-04-07T09:23:49Z</time></trkpt>
    <trkpt lat="48.01898" lon="14.57648"><ele>517</ele><time>2024-04-07T09:24:38Z</time></trkpt>
    <trkpt lat="48.01975" lon="14.57690"><ele>498</ele><time>2024-04-07T09:25:37Z</time></trkpt>
    <trkpt lat="48.02002" lon="14.57668"><ele>510</ele><time>2024-04-07T09:26:08Z</time></trkpt>
    <trkpt lat="48.02105" lon="14.57737"><ele>497</ele><time>2024-04-07T09:28:07Z</time></trkpt>
    <trkpt lat="48.02140" lon="14.57800"><ele>500</ele><time>2024-04-07T09:28:37Z</time></trkpt>
    <trkpt lat="48.02236" lon="14.57859"><ele>430</ele><time>2024-04-07T09:29:08Z</time></trkpt>
    <trkpt lat="48.02368" lon="14.57940"><ele>491</ele><time>2024-04-07T09:30:07Z</time></trkpt>
    <trkpt lat="48.02428" lon="14.57949"><ele>504</ele><time>2024-04-07T09:30:37Z</time></trkpt>
    <trkpt lat="48.02482" lon="14.57936"><ele>523</ele><time>2024-04-07T09:31:07Z</time></trkpt>
    <trkpt lat="48.02526" lon="14.57935"><ele>533</ele><time>2024-04-07T09:31:37Z</time></trkpt>
    <trkpt lat="48.02565" lon="14.57945"><ele>541</ele><time>2024-04-07T09:32:07Z</time></trkpt>
    <trkpt lat="48.02631" lon="14.57927"><ele>537</ele><time>2024-04-07T09:32:38Z</time></trkpt>
    <trkpt lat="48.02613" lon="14.57944"><ele>532</ele><time>2024-04-07T09:33:08Z</time></trkpt>
    <trkpt lat="48.02661" lon="14.57933"><ele>528</ele><time>2024-04-07T09:34:07Z</time></trkpt>
    <trkpt lat="48.02677" lon="14.57989"><ele>565</ele><time>2024-04-07T09:34:38Z</time></trkpt>
    <trkpt lat="48.02696" lon="14.58033"><ele>548</ele><time>2024-04-07T09:35:08Z</time></trkpt>
    <trkpt lat="48.02715" lon="14.58049"><ele>543</ele><time>2024-04-07T09:35:38Z</time></trkpt>
    <trkpt lat="48.02754" lon="14.58130"><ele>550</ele><time>2024-04-07T09:36:38Z</time></trkpt>
    <trkpt lat="48.02778" lon="14.58234"><ele>550</ele><time>2024-04-07T09:37:08Z</time></trkpt>
    <trkpt lat="48.02789" lon="14.58231"><ele>538</ele><time>2024-04-07T09:37:38Z</time></trkpt>
    <trkpt lat="48.02815" lon="14.58314"><ele>528</ele><time>2024-04-07T09:38:38Z</time></trkpt>
    <trkpt lat="48.02889" lon="14.58468"><ele>460</ele><time>2024-04-07T09:39:08Z</time></trkpt>
    <trkpt lat="48.02972" lon="14.58608"><ele>473</ele><time>2024-04-07T09:40:07Z</time></trkpt>
    <trkpt lat="48.02935" lon="14.58701"><ele>499</ele><time>2024-04-07T09:40:37Z</time></trkpt>
    <trkpt lat="48.02945" lon="14.58701"><ele>486</ele><time>2024-04-07T09:41:38Z</time></trkpt>
    <trkpt lat="48.03018" lon="14.58759"><ele>483</ele><time>2024-04-07T09:42:37Z</time></trkpt>
    <trkpt lat="48.03140" lon="14.58963"><ele>440</ele><time>2024-04-07T09:43:07Z</time></trkpt>
    <trkpt lat="48.03117" lon="14.59182"><ele>421</ele><time>2024-04-07T09:43:38Z</time></trkpt>
    <trkpt lat="48.03104" lon="14.59210"><ele>394</ele><time>2024-04-07T09:44:08Z</time></trkpt>
    <trkpt lat="48.03115" lon="14.59225"><ele>408</ele><time>2024-04-07T09:45:20Z</time></trkpt>
    <trkpt lat="48.03148" lon="14.59247"><ele>424</ele><time>2024-04-07T09:45:50Z</time></trkpt>
    <trkpt lat="48.03171" lon="14.59249"><ele>412</ele><time>2024-04-07T09:46:20Z</time></trkpt>
    <trkpt lat="48.03192" lon="14.59365"><ele>421</ele><time>2024-04-07T09:50:37Z</time></trkpt>
    <trkpt lat="48.03444" lon="14.59552"><ele>388</ele><time>2024-04-07T09:51:07Z</time></trkpt>
    <trkpt lat="48.03549" lon="14.59741"><ele>383</ele><time>2024-04-07T09:51:37Z</time></trkpt>
    <trkpt lat="48.03499" lon="14.59775"><ele>389</ele><time>2024-04-07T09:52:07Z</time></trkpt>
    <trkpt lat="48.03359" lon="14.59949"><ele>369</ele><time>2024-04-07T09:53:01Z</time></trkpt>
    <trkpt lat="48.03416" lon="14.60213"><ele>374</ele><time>2024-04-07T09:54:01Z</time></trkpt>
    <trkpt lat="48.03410" lon="14.60225"><ele>367</ele><time>2024-04-07T09:54:31Z</time></trkpt>
    <trkpt lat="48.03425" lon="14.60237"><ele>379</ele><time>2024-04-07T09:55:01Z</time></trkpt>
    <trkpt lat="48.03437" lon="14.60310"><ele>376</ele><time>2024-04-07T09:55:31Z</time></trkpt>
    <trkpt lat="48.03493" lon="14.60397"><ele>374</ele><time>2024-04-07T09:56:01Z</time></trkpt>
    <trkpt lat="48.03519" lon="14.60443"><ele>385</ele><time>2024-04-07T09:57:01Z</time></trkpt>
    <trkpt lat="48.03569" lon="14.60547"><ele>382</ele><time>2024-04-07T09:57:31Z</time></trkpt>
    <trkpt lat="48.03612" lon="14.60667"><ele>404</ele><time>2024-04-07T09:58:01Z</time></trkpt>
    <trkpt lat="48.03626" lon="14.60772"><ele>395</ele><time>2024-04-07T09:58:31Z</time></trkpt>
    <trkpt lat="48.03642" lon="14.60808"><ele>388</ele><time>2024-04-07T09:59:27Z</time></trkpt>
    <trkpt lat="48.03645" lon="14.60826"><ele>382</ele><time>2024-04-07T10:00:55Z</time></trkpt>
    <trkpt lat="48.03688" lon="14.60768"><ele>377</ele><time>2024-04-07T10:01:26Z</time></trkpt>
    <trkpt lat="48.03690" lon="14.60794"><ele>363</ele><time>2024-04-07T10:05:30Z</time></trkpt>
    <trkpt lat="48.03786" lon="14.60880"><ele>338</ele><time>2024-04-07T10:06:00Z</time></trkpt>
    <trkpt lat="48.03884" lon="14.60890"><ele>360</ele><time>2024-04-07T10:06:30Z</time></trkpt>
    <trkpt lat="48.03978" lon="14.60951"><ele>363</ele><time>2024-04-07T10:07:00Z</time></trkpt>
    <trkpt lat="48.04084" lon="14.61012"><ele>362</ele><time>2024-04-07T10:07:30Z</time></trkpt>
    <trkpt lat="48.04195" lon="14.61123"><ele>364</ele><time>2024-04-07T10:08:00Z</time></trkpt>
    <trkpt lat="48.04282" lon="14.61211"><ele>360</ele><time>2024-04-07T10:08:30Z</time></trkpt>
    <trkpt lat="48.04333" lon="14.61253"><ele>356</ele><time>2024-04-07T10:09:00Z</time></trkpt>
    <trkpt lat="48.04386" lon="14.61457"><ele>358</ele><time>2024-04-07T10:09:30Z</time></trkpt>
    <trkpt lat="48.04402" lon="14.61705"><ele>351</ele><time>2024-04-07T10:10:00Z</time></trkpt>
    <trkpt lat="48.04497" lon="14.61821"><ele>349</ele><time>2024-04-07T10:10:30Z</time></trkpt>
    <trkpt lat="48.04500" lon="14.62007"><ele>354</ele><time>2024-04-07T10:11:00Z</time></trkpt>
    <trkpt lat="48.04490" lon="14.62215"><ele>351</ele><time>2024-04-07T10:11:30Z</time></trkpt>
    <trkpt lat="48.04506" lon="14.62371"><ele>350</ele><time>2024-04-07T10:12:00Z</time></trkpt>
    <trkpt lat="48.04683" lon="14.62528"><ele>351</ele><time>2024-04-07T10:12:30Z</time></trkpt>
    <trkpt lat="48.04897" lon="14.62660"><ele>344</ele><time>2024-04-07T10:13:00Z</time></trkpt>
    <trkpt lat="48.05033" lon="14.62809"><ele>339</ele><time>2024-04-07T10:13:30Z</time></trkpt>
    <trkpt lat="48.05082" lon="14.63033"><ele>332</ele><time>2024-04-07T10:14:00Z</time></trkpt>
    <trkpt lat="48.05242" lon="14.63143"><ele>328</ele><time>2024-04-07T10:14:30Z</time></trkpt>
    <trkpt lat="48.05387" lon="14.63314"><ele>329</ele><time>2024-04-07T10:15:00Z</time></trkpt>
    <trkpt lat="48.05449" lon="14.63566"><ele>339</ele><time>2024-04-07T10:15:30Z</time></trkpt>
    <trkpt lat="48.05463" lon="14.63819"><ele>326</ele><time>2024-04-07T10:16:00Z</time></trkpt>
    <trkpt lat="48.05399" lon="14.64033"><ele>324</ele><time>2024-04-07T10:16:30Z</time></trkpt>
    <trkpt lat="48.05421" lon="14.64296"><ele>325</ele><time>2024-04-07T10:17:00Z</time></trkpt>
    <trkpt lat="48.05448" lon="14.64527"><ele>328</ele><time>2024-04-07T10:17:30Z</time></trkpt>
    <trkpt lat="48.05459" lon="14.64555"><ele>326</ele><time>2024-04-07T10:18:00Z</time></trkpt>
    <trkpt lat="48.05479" lon="14.64536"><ele>336</ele><time>2024-04-07T10:19:30Z</time></trkpt>
    <trkpt lat="48.05479" lon="14.64535"><ele>341</ele><time>2024-04-07T10:23:41Z</time></trkpt>
  </trkseg>
</trk>
</gpx>