<?xml version="1.0" encoding="UTF-8"?>
<gpx version="1.1" creator="Gpx-Optimizer" xmlns="http://www.topografix.com/GPX/1/1">
<trk>
  <name>Rettenkogel-Rinnkogel</name>
  <type>trail</type>
  <trkseg>
    <trkpt lat="47.70827" lon="13.49674"><ele>576</ele></trkpt>
    <trkpt lat="47.70807" lon="13.49642"><ele>573</ele></trkpt>
    <trkpt lat="47.70799" lon="13.49685"><ele>570</ele></trkpt>
    <trkpt lat="47.70811" lon="13.49740"><ele>571</ele></trkpt>
    <trkpt lat="47.70798" lon="13.49739"><ele>568</ele></trkpt>
    <trkpt lat="47.70759" lon="13.49799"><ele>599</ele></trkpt>
    <trkpt lat="47.70691" lon="13.49813"><ele>601</ele></trkpt>
    <trkpt lat="47.70670" lon="13.49921"><ele>608</ele></trkpt>
    <trkpt lat="47.70687" lon="13.49957"><ele>609</ele></trkpt>
    <trkpt lat="47.70645" lon="13.49917"><ele>614</ele></trkpt>
    <trkpt lat="47.70628" lon="13.49857"><ele>612</ele></trkpt>
    <trkpt lat="47.70624" lon="13.49786"><ele>625</ele></trkpt>
    <trkpt lat="47.70617" lon="13.49716"><ele>620</ele></trkpt>
    <trkpt lat="47.70566" lon="13.49723"><ele>606</ele></trkpt>
    <trkpt lat="47.70511" lon="13.49726"><ele>594</ele></trkpt>
    <trkpt lat="47.70496" lon="13.49767"><ele>594</ele></trkpt>
    <trkpt lat="47.70496" lon="13.49799"><ele>639</ele></trkpt>
    <trkpt lat="47.70491" lon="13.49844"><ele>645</ele></trkpt>
    <trkpt lat="47.70478" lon="13.49814"><ele>673</ele></trkpt>
    <trkpt lat="47.70482" lon="13.49907"><ele>620</ele></trkpt>
    <trkpt lat="47.70463" lon="13.49981"><ele>688</ele></trkpt>
    <trkpt lat="47.70432" lon="13.49989"><ele>707</ele></trkpt>
    <trkpt lat="47.70418" lon="13.49999"><ele>722</ele></trkpt>
    <trkpt lat="47.70418" lon="13.50028"><ele>700</ele></trkpt>
    <trkpt lat="47.70441" lon="13.50064"><ele>690</ele></trkpt>
    <trkpt lat="47.70437" lon="13.50092"><ele>682</ele></trkpt>
    <trkpt lat="47.70450" lon="13.50131"><ele>678</ele></trkpt>
    <trkpt lat="47.70440" lon="13.50096"><ele>727</ele></trkpt>
    <trkpt lat="47.70459" lon="13.50127"><ele>738</ele></trkpt>
    <trkpt lat="47.70474" lon="13.50171"><ele>728</ele></trkpt>
    <trkpt lat="47.70450" lon="13.50202"><ele>757</ele></trkpt>
    <trkpt lat="47.70455" lon="13.50223"><ele>734</ele></trkpt>
    <trkpt lat="47.70449" lon="13.50298"><ele>762</ele></trkpt>
    <trkpt lat="47.70446" lon="13.50320"><ele>774</ele></trkpt>
    <trkpt lat="47.70417" lon="13.50341"><ele>788</ele></trkpt>
    <trkpt lat="47.70413" lon="13.50359"><ele>721</ele></trkpt>
    <trkpt lat="47.70406" lon="13.50370"><ele>761</ele></trkpt>
    <trkpt lat="47.70394" lon="13.50416"><ele>754</ele></trkpt>
    <trkpt lat="47.70402" lon="13.50478"><ele>819</ele></trkpt>
    <trkpt lat="47.70394" lon="13.50496"><ele>659</ele></trkpt>
    <trkpt lat="47.70384" lon="13.50484"><ele>801</ele></trkpt>
    <trkpt lat="47.70374" lon="13.50500"><ele>821</ele></trkpt>
    <trkpt lat="47.70360" lon="13.50499"><ele>849</ele></trkpt>
    <trkpt lat="47.70315" lon="13.50525"><ele>809</ele></trkpt>
    <trkpt lat="47.70314" lon="13.50564"><ele>825</ele></trkpt>
    <trkpt lat="47.70292" lon="13.50545"><ele>837</ele></trkpt>
    <trkpt lat="47.70265" lon="13.50566"><ele>598</ele></trkpt>
    <trkpt lat="47.70238" lon="13.50568"><ele>815</ele></trkpt>
    <trkpt lat="47.70206" lon="13.50611"><ele>893</ele></trkpt>
    <trkpt lat="47.70195" lon="13.50611"><ele>750</ele></trkpt>
    <trkpt lat="47.70217" lon="13.50634"><ele>896</ele></trkpt>
    <trkpt lat="47.70202" lon="13.50636"><ele>836</ele></trkpt>
    <trkpt lat="47.70183" lon="13.50649"><ele>678</ele></trkpt>
    <trkpt lat="47.70136" lon="13.50656"><ele>935</ele></trkpt>
    <trkpt lat="47.70122" lon="13.50636"><ele>954</ele></trkpt>
    <trkpt lat="47.70074" lon="13.50676"><ele>900</ele></trkpt>
    <trkpt lat="47.70056" lon="13.50683"><ele>908</ele></trkpt>
    <trkpt lat="47.70036" lon="13.50689"><ele>946</ele></trkpt>
    <trkpt lat="47.70015" lon="13.50707"><ele>933</ele></trkpt>
    <trkpt lat="47.69977" lon="13.50744"><ele>942</ele></trkpt>
    <trkpt lat="47.69946" lon="13.50766"><ele>961</ele></trkpt>
    <trkpt lat="47.69926" lon="13.50793"><ele>949</ele></trkpt>
    <trkpt lat="47.69892" lon="13.50825"><ele>809</ele></trkpt>
    <trkpt lat="47.69871" lon="13.50864"><ele>907</ele></trkpt>
    <trkpt lat="47.69828" lon="13.50881"><ele>882</ele></trkpt>
    <trkpt lat="47.69809" lon="13.50872"><ele>820</ele></trkpt>
    <trkpt lat="47.69770" lon="13.50900"><ele>948</ele></trkpt>
    <trkpt lat="47.69761" lon="13.50952"><ele>880</ele></trkpt>
    <trkpt lat="47.69732" lon="13.50954"><ele>830</ele></trkpt>
    <trkpt lat="47.69730" lon="13.50979"><ele>971</ele></trkpt>
    <trkpt lat="47.69657" lon="13.50998"><ele>983</ele></trkpt>
    <trkpt lat="47.69640" lon="13.51019"><ele>900</ele></trkpt>
    <trkpt lat="47.69627" lon="13.51048"><ele>861</ele></trkpt>
    <trkpt lat="47.69596" lon="13.51062"><ele>981</ele></trkpt>
    <trkpt lat="47.69564" lon="13.51078"><ele>953</ele></trkpt>
    <trkpt lat="47.69534" lon="13.51092"><ele>1041</ele></trkpt>
    <trkpt lat="47.69500" lon="13.51111"><ele>1076</ele></trkpt>
    <trkpt lat="47.69485" lon="13.51173"><ele>1042</ele></trkpt>
    <trkpt lat="47.69470" lon="13.51195"><ele>1007</ele></trkpt>
    <trkpt lat="47.69453" lon="13.51211"><ele>1063</ele></trkpt>
    <trkpt lat="47.69467" lon="13.51244"><ele>1088</ele></trkpt>
    <trkpt lat="47.69433" lon="13.51258"><ele>911</ele></trkpt>
    <trkpt lat="47.69390" lon="13.51279"><ele>1011</ele></trkpt>
    <trkpt lat="47.69359" lon="13.51269"><ele>1096</ele></trkpt>
    <trkpt lat="47.69345" lon="13.51240"><ele>918</ele></trkpt>
    <trkpt lat="47.69323" lon="13.51212"><ele>957</ele></trkpt>
    <trkpt lat="47.69304" lon="13.51202"><ele>1130</ele></trkpt>
    <trkpt lat="47.69250" lon="13.51172"><ele>1125</ele></trkpt>
    <trkpt lat="47.69221" lon="13.51164"><ele>1166</ele></trkpt>
    <trkpt lat="47.69215" lon="13.51148"><ele>855</ele></trkpt>
    <trkpt lat="47.69188" lon="13.51154"><ele>1057</ele></trkpt>
    <trkpt lat="47.69161" lon="13.51156"><ele>1162</ele></trkpt>
    <trkpt lat="47.69122" lon="13.51166"><ele>1146</ele></trkpt>
    <trkpt lat="47.69120" lon="13.51183"><ele>1186</ele></trkpt>
    <trkpt lat="47.69082" lon="13.51169"><ele>1199</ele></trkpt>
    <trkpt lat="47.69049" lon="13.51187"><ele>1173</ele></trkpt>
    <trkpt lat="47.69007" lon="13.51153"><ele>1204</ele></trkpt>
    <trkpt lat="47.68987" lon="13.51155"><ele>1188</ele></trkpt>
    <trkpt lat="47.68948" lon="13.51198"><ele>1180</ele></trkpt>
    <trkpt lat="47.68924" lon="13.51196"><ele>1181</ele></trkpt>
    <trkpt lat="47.68940" lon="13.51112"><ele>1202</ele></trkpt>
    <trkpt lat="47.68941" lon="13.51063"><ele>1199</ele></trkpt>
    <trkpt lat="47.68924" lon="13.51016"><ele>1219</ele></trkpt>
    <trkpt lat="47.68915" lon="13.51018"><ele>1209</ele></trkpt>
    <trkpt lat="47.68900" lon="13.51006"><ele>1199</ele></trkpt>
    <trkpt lat="47.68889" lon="13.50997"><ele>1195</ele></trkpt>
    <trkpt lat="47.68827" lon="13.50919"><ele>1159</ele></trkpt>
    <trkpt lat="47.68818" lon="13.50834"><ele>1177</ele></trkpt>
    <trkpt lat="47.68808" lon="13.50817"><ele>1172</ele></trkpt>
    <trkpt lat="47.68803" lon="13.50805"><ele>1179</ele></trkpt>
    <trkpt lat="47.68793" lon="13.50796"><ele>1170</ele></trkpt>
    <trkpt lat="47.68788" lon="13.50691"><ele>1233</ele></trkpt>
    <trkpt lat="47.68747" lon="13.50695"><ele>1235</ele></trkpt>
    <trkpt lat="47.68769" lon="13.50730"><ele>1268</ele></trkpt>
    <trkpt lat="47.68760" lon="13.50701"><ele>1257</ele></trkpt>
    <trkpt lat="47.68753" lon="13.50691"><ele>1254</ele></trkpt>
    <trkpt lat="47.68743" lon="13.50682"><ele>1244</ele></trkpt>
    <trkpt lat="47.68734" lon="13.50678"><ele>1220</ele></trkpt>
    <trkpt lat="47.68724" lon="13.50675"><ele>1215</ele></trkpt>
    <trkpt lat="47.68687" lon="13.50624"><ele>1271</ele></trkpt>
    <trkpt lat="47.68676" lon="13.50611"><ele>1272</ele></trkpt>
    <trkpt lat="47.68664" lon="13.50602"><ele>1264</ele></trkpt>
    <trkpt lat="47.68677" lon="13.50611"><ele>1270</ele></trkpt>
    <trkpt lat="47.68691" lon="13.50609"><ele>1274</ele></trkpt>
    <trkpt lat="47.68702" lon="13.50602"><ele>1288</ele></trkpt>
    <trkpt lat="47.68705" lon="13.50578"><ele>1292</ele></trkpt>
    <trkpt lat="47.68724" lon="13.50569"><ele>1296</ele></trkpt>
    <trkpt lat="47.68734" lon="13.50550"><ele>1132</ele></trkpt>
    <trkpt lat="47.68751" lon="13.50532"><ele>1320</ele></trkpt>
    <trkpt lat="47.68751" lon="13.50516"><ele>1310</ele></trkpt>
    <trkpt lat="47.68733" lon="13.50494"><ele>1347</ele></trkpt>
    <trkpt lat="47.68727" lon="13.50470"><ele>1252</ele></trkpt>
    <trkpt lat="47.68707" lon="13.50454"><ele>1054</ele></trkpt>
    <trkpt lat="47.68729" lon="13.50440"><ele>1342</ele></trkpt>
    <trkpt lat="47.68707" lon="13.50431"><ele>1356</ele></trkpt>
    <trkpt lat="47.68701" lon="13.50398"><ele>1380</ele></trkpt>
    <trkpt lat="47.68682" lon="13.50406"><ele>1026</ele></trkpt>
    <trkpt lat="47.68666" lon="13.50394"><ele>1180</ele></trkpt>
    <trkpt lat="47.68654" lon="13.50359"><ele>1407</ele></trkpt>
    <trkpt lat="47.68649" lon="13.50373"><ele>1405</ele></trkpt>
    <trkpt lat="47.68644" lon="13.50334"><ele>1409</ele></trkpt>
    <trkpt lat="47.68667" lon="13.50333"><ele>1395</ele></trkpt>
    <trkpt lat="47.68637" lon="13.50327"><ele>1243</ele></trkpt>
    <trkpt lat="47.68616" lon="13.50303"><ele>1210</ele></trkpt>
    <trkpt lat="47.68613" lon="13.50267"><ele>1418</ele></trkpt>
    <trkpt lat="47.68604" lon="13.50267"><ele>1409</ele></trkpt>
    <trkpt lat="47.68552" lon="13.50239"><ele>1347</ele></trkpt>
    <trkpt lat="47.68560" lon="13.50216"><ele>1243</ele></trkpt>
    <trkpt lat="47.68521" lon="13.50226"><ele>1441</ele></trkpt>
    <trkpt lat="47.68453" lon="13.50203"><ele>1463</ele></trkpt>
    <trkpt lat="47.68438" lon="13.50212"><ele>1511</ele></trkpt>
    <trkpt lat="47.68425" lon="13.50229"><ele>1513</ele></trkpt>
    <trkpt lat="47.68417" lon="13.50255"><ele>1519</ele></trkpt>
    <trkpt lat="47.68399" lon="13.50280"><ele>1508</ele></trkpt>
    <trkpt lat="47.68412" lon="13.50277"><ele>1528</ele></trkpt>
    <trkpt lat="47.68379" lon="13.50301"><ele>1222</ele></trkpt>
    <trkpt lat="47.68374" lon="13.50314"><ele>1214</ele></trkpt>
    <trkpt lat="47.68349" lon="13.50336"><ele>1533</ele></trkpt>
    <trkpt lat="47.68340" lon="13.50348"><ele>1386</ele></trkpt>
    <trkpt lat="47.68324" lon="13.50351"><ele>1447</ele></trkpt>
    <trkpt lat="47.68307" lon="13.50360"><ele>1396</ele></trkpt>
    <trkpt lat="47.68291" lon="13.50379"><ele>1591</ele></trkpt>
    <trkpt lat="47.68287" lon="13.50395"><ele>1576</ele></trkpt>
    <trkpt lat="47.68293" lon="13.50418"><ele>1604</ele></trkpt>
    <trkpt lat="47.68284" lon="13.50423"><ele>1576</ele></trkpt>
    <trkpt lat="47.68264" lon="13.50460"><ele>1614</ele></trkpt>
    <trkpt lat="47.68254" lon="13.50463"><ele>1604</ele></trkpt>
    <trkpt lat="47.68254" lon="13.50489"><ele>1601</ele></trkpt>
    <trkpt lat="47.68222" lon="13.50527"><ele>1594</ele></trkpt>
    <trkpt lat="47.68211" lon="13.50532"><ele>1637</ele></trkpt>
    <trkpt lat="47.68210" lon="13.50547"><ele>1649</ele></trkpt>
    <trkpt lat="47.68205" lon="13.50576"><ele>1585</ele></trkpt>
    <trkpt lat="47.68195" lon="13.50601"><ele>1649</ele></trkpt>
    <trkpt lat="47.68208" lon="13.50615"><ele>1603</ele></trkpt>
    <trkpt lat="47.68211" lon="13.50666"><ele>1666</ele></trkpt>
    <trkpt lat="47.68220" lon="13.50695"><ele>1618</ele></trkpt>
    <trkpt lat="47.68204" lon="13.50724"><ele>1655</ele></trkpt>
    <trkpt lat="47.68194" lon="13.50724"><ele>1708</ele></trkpt>
    <trkpt lat="47.68186" lon="13.50718"><ele>1701</ele></trkpt>
    <trkpt lat="47.68168" lon="13.50716"><ele>1635</ele></trkpt>
    <trkpt lat="47.68161" lon="13.50702"><ele>1733</ele></trkpt>
    <trkpt lat="47.68147" lon="13.50692"><ele>1754</ele></trkpt>
    <trkpt lat="47.68139" lon="13.50681"><ele>1723</ele></trkpt>
    <trkpt lat="47.68116" lon="13.50665"><ele>1694</ele></trkpt>
    <trkpt lat="47.68096" lon="13.50641"><ele>1749</ele></trkpt>
    <trkpt lat="47.68076" lon="13.50655"><ele>1729</ele></trkpt>
    <trkpt lat="47.68049" lon="13.50676"><ele>1739</ele></trkpt>
    <trkpt lat="47.68037" lon="13.50666"><ele>1730</ele></trkpt>
    <trkpt lat="47.68025" lon="13.50667"><ele>1751</ele></trkpt>
    <trkpt lat="47.67990" lon="13.50670"><ele>1710</ele></trkpt>
    <trkpt lat="47.67975" lon="13.50685"><ele>1734</ele></trkpt>
    <trkpt lat="47.67948" lon="13.50693"><ele>1722</ele></trkpt>
    <trkpt lat="47.67918" lon="13.50700"><ele>1719</ele></trkpt>
    <trkpt lat="47.67895" lon="13.50702"><ele>1702</ele></trkpt>
    <trkpt lat="47.67885" lon="13.50705"><ele>1715</ele></trkpt>
    <trkpt lat="47.67869" lon="13.50714"><ele>1704</ele></trkpt>
    <trkpt lat="47.67859" lon="13.50723"><ele>1732</ele></trkpt>
    <trkpt lat="47.67817" lon="13.50737"><ele>1694</ele></trkpt>
    <trkpt lat="47.67826" lon="13.50752"><ele>1747</ele></trkpt>
    <trkpt lat="47.67813" lon="13.50763"><ele>1739</ele></trkpt>
    <trkpt lat="47.67795" lon="13.50777"><ele>1726</ele></trkpt>
    <trkpt lat="47.67784" lon="13.50786"><ele>1639</ele></trkpt>
    <trkpt lat="47.67772" lon="13.50802"><ele>1736</ele></trkpt>
    <trkpt lat="47.67747" lon="13.50790"><ele>1723</ele></trkpt>
    <trkpt lat="47.67740" lon="13.50823"><ele>1746</ele></trkpt>
    <trkpt lat="47.67740" lon="13.50845"><ele>1746</ele></trkpt>
    <trkpt lat="47.67727" lon="13.50868"><ele>1736</ele></trkpt>
    <trkpt lat="47.67717" lon="13.50893"><ele>1732</ele></trkpt>
    <trkpt lat="47.67703" lon="13.50921"><ele>1742</ele></trkpt>
    <trkpt lat="47.67683" lon="13.50925"><ele>1737</ele></trkpt>
    <trkpt lat="47.67665" lon="13.50941"><ele>1764</ele></trkpt>
    <trkpt lat="47.67643" lon="13.50919"><ele>1769</ele></trkpt>
    <trkpt lat="47.67631" lon="13.50918"><ele>1769</ele></trkpt>
    <trkpt lat="47.67645" lon="13.50919"><ele>1775</ele></trkpt>
    <trkpt lat="47.67629" lon="13.50949"><ele>1716</ele></trkpt>
    <trkpt lat="47.67624" lon="13.50934"><ele>1715</ele></trkpt>
    <trkpt lat="47.67618" lon="13.50914"><ele>1713</ele></trkpt>
    <trkpt lat="47.67609" lon="13.50898"><ele>1711</ele></trkpt>
    <trkpt lat="47.67605" lon="13.50884"><ele>1711</ele></trkpt>
    <trkpt lat="47.67597" lon="13.50871"><ele>1706</ele></trkpt>
    <trkpt lat="47.67587" lon="13.50842"><ele>1692</ele></trkpt>
    <trkpt lat="47.67584" lon="13.50824"><ele>1666</ele></trkpt>
    <trkpt lat="47.67547" lon="13.50810"><ele>1675</ele></trkpt>
    <trkpt lat="47.67543" lon="13.50823"><ele>1714</ele></trkpt>
    <trkpt lat="47.67539" lon="13.50790"><ele>1691</ele></trkpt>
    <trkpt lat="47.67529" lon="13.50775"><ele>1684</ele></trkpt>
    <trkpt lat="47.67503" lon="13.50777"><ele>1695</ele></trkpt>
    <trkpt lat="47.67498" lon="13.50749"><ele>1651</ele></trkpt>
    <trkpt lat="47.67488" lon="13.50734"><ele>1683</ele></trkpt>
    <trkpt lat="47.67468" lon="13.50752"><ele>1712</ele></trkpt>
    <trkpt lat="47.67440" lon="13.50705"><ele>1681</ele></trkpt>
    <trkpt lat="47.67427" lon="13.50699"><ele>1677</ele></trkpt>
    <trkpt lat="47.67410" lon="13.50686"><ele>1646</ele></trkpt>
    <trkpt lat="47.67399" lon="13.50683"><ele>1705</ele></trkpt>
    <trkpt lat="47.67402" lon="13.50703"><ele>1691</ele></trkpt>
    <trkpt lat="47.67381" lon="13.50709"><ele>1676</ele></trkpt>
    <trkpt lat="47.67354" lon="13.50701"><ele>1652</ele></trkpt>
    <trkpt lat="47.67335" lon="13.50678"><ele>1653</ele></trkpt>
    <trkpt lat="47.67316" lon="13.50678"><ele>1581</ele></trkpt>
    <trkpt lat="47.67320" lon="13.50652"><ele>1675</ele></trkpt>
    <trkpt lat="47.67295" lon="13.50665"><ele>1670</ele></trkpt>
    <trkpt lat="47.67280" lon="13.50659"><ele>1674</ele></trkpt>
    <trkpt lat="47.67288" lon="13.50650"><ele>1683</ele></trkpt>
    <trkpt lat="47.67296" lon="13.50638"><ele>1602</ele></trkpt>
    <trkpt lat="47.67293" lon="13.50620"><ele>1667</ele></trkpt>
    <trkpt lat="47.67280" lon="13.50604"><ele>1680</ele></trkpt>
    <trkpt lat="47.67261" lon="13.50600"><ele>1670</ele></trkpt>
    <trkpt lat="47.67256" lon="13.50579"><ele>1645</ele></trkpt>
    <trkpt lat="47.67248" lon="13.50570"><ele>1688</ele></trkpt>
    <trkpt lat="47.67239" lon="13.50563"><ele>1706</ele></trkpt>
    <trkpt lat="47.67224" lon="13.50541"><ele>1694</ele></trkpt>
    <trkpt lat="47.67203" lon="13.50533"><ele>1689</ele></trkpt>
    <trkpt lat="47.67196" lon="13.50509"><ele>1671</ele></trkpt>
    <trkpt lat="47.67207" lon="13.50507"><ele>1678</ele></trkpt>
    <trkpt lat="47.67217" lon="13.50513"><ele>1672</ele></trkpt>
    <trkpt lat="47.67227" lon="13.50512"><ele>1665</ele></trkpt>
    <trkpt lat="47.67233" lon="13.50480"><ele>1640</ele></trkpt>
    <trkpt lat="47.67210" lon="13.50476"><ele>1646</ele></trkpt>
    <trkpt lat="47.67222" lon="13.50471"><ele>1563</ele></trkpt>
    <trkpt lat="47.67214" lon="13.50440"><ele>1566</ele></trkpt>
    <trkpt lat="47.67201" lon="13.50433"><ele>1613</ele></trkpt>
    <trkpt lat="47.67204" lon="13.50406"><ele>1615</ele></trkpt>
    <trkpt lat="47.67203" lon="13.50385"><ele>1618</ele></trkpt>
    <trkpt lat="47.67207" lon="13.50360"><ele>1571</ele></trkpt>
    <trkpt lat="47.67202" lon="13.50347"><ele>1602</ele></trkpt>
    <trkpt lat="47.67191" lon="13.50340"><ele>1563</ele></trkpt>
    <trkpt lat="47.67181" lon="13.50343"><ele>1583</ele></trkpt>
    <trkpt lat="47.67177" lon="13.50357"><ele>1588</ele></trkpt>
    <trkpt lat="47.67161" lon="13.50348"><ele>1587</ele></trkpt>
    <trkpt lat="47.67145" lon="13.50344"><ele>1575</ele></trkpt>
    <trkpt lat="47.67109" lon="13.50316"><ele>1580</ele></trkpt>
    <trkpt lat="47.67086" lon="13.50311"><ele>1606</ele></trkpt>
    <trkpt lat="47.67070" lon="13.50295"><ele>1557</ele></trkpt>
    <trkpt lat="47.67028" lon="13.50272"><ele>1561</ele></trkpt>
    <trkpt lat="47.67007" lon="13.50257"><ele>1556</ele></trkpt>
    <trkpt lat="47.67023" lon="13.50227"><ele>1560</ele></trkpt>
    <trkpt lat="47.67011" lon="13.50186"><ele>1541</ele></trkpt>
    <trkpt lat="47.67025" lon="13.50169"><ele>1526</ele></trkpt>
    <trkpt lat="47.67028" lon="13.50145"><ele>1518</ele></trkpt>
    <trkpt lat="47.67030" lon="13.50116"><ele>1514</ele></trkpt>
    <trkpt lat="47.67021" lon="13.50103"><ele>1527</ele></trkpt>
    <trkpt lat="47.67028" lon="13.50079"><ele>1705</ele></trkpt>
    <trkpt lat="47.67014" lon="13.50088"><ele>1552</ele></trkpt>
    <trkpt lat="47.66995" lon="13.50064"><ele>1550</ele></trkpt>
    <trkpt lat="47.66980" lon="13.50042"><ele>1560</ele></trkpt>
    <trkpt lat="47.66974" lon="13.50019"><ele>1565</ele></trkpt>
    <trkpt lat="47.66958" lon="13.50015"><ele>1512</ele></trkpt>
    <trkpt lat="47.66943" lon="13.50000"><ele>1497</ele></trkpt>
    <trkpt lat="47.66929" lon="13.49987"><ele>1582</ele></trkpt>
    <trkpt lat="47.66917" lon="13.49982"><ele>1562</ele></trkpt>
    <trkpt lat="47.66904" lon="13.49983"><ele>1555</ele></trkpt>
    <trkpt lat="47.66890" lon="13.49978"><ele>1543</ele></trkpt>
    <trkpt lat="47.66875" lon="13.49986"><ele>1528</ele></trkpt>
    <trkpt lat="47.66849" lon="13.49968"><ele>1579</ele></trkpt>
    <trkpt lat="47.66827" lon="13.49923"><ele>1500</ele></trkpt>
    <trkpt lat="47.66814" lon="13.49889"><ele>1505</ele></trkpt>
    <trkpt lat="47.66794" lon="13.49845"><ele>1529</ele></trkpt>
    <trkpt lat="47.66777" lon="13.49803"><ele>1520</ele></trkpt>
    <trkpt lat="47.66771" lon="13.49782"><ele>1494</ele></trkpt>
    <trkpt lat="47.66770" lon="13.49740"><ele>1504</ele></trkpt>
    <trkpt lat="47.66752" lon="13.49727"><ele>1490</ele></trkpt>
    <trkpt lat="47.66760" lon="13.49683"><ele>1501</ele></trkpt>
    <trkpt lat="47.66754" lon="13.49672"><ele>1537</ele></trkpt>
    <trkpt lat="47.66736" lon="13.49647"><ele>1547</ele></trkpt>
    <trkpt lat="47.66742" lon="13.49626"><ele>1382</ele></trkpt>
    <trkpt lat="47.66740" lon="13.49591"><ele>1541</ele></trkpt>
    <trkpt lat="47.66743" lon="13.49574"><ele>1548</ele></trkpt>
    <trkpt lat="47.66744" lon="13.49560"><ele>1536</ele></trkpt>
    <trkpt lat="47.66760" lon="13.49516"><ele>1546</ele></trkpt>
    <trkpt lat="47.66795" lon="13.49511"><ele>1581</ele></trkpt>
    <trkpt lat="47.66778" lon="13.49476"><ele>1546</ele></trkpt>
    <trkpt lat="47.66769" lon="13.49468"><ele>1548</ele></trkpt>
    <trkpt lat="47.66768" lon="13.49454"><ele>1565</ele></trkpt>
    <trkpt lat="47.66757" lon="13.49442"><ele>1573</ele></trkpt>
    <trkpt lat="47.66753" lon="13.49425"><ele>1583</ele></trkpt>
    <trkpt lat="47.66745" lon="13.49412"><ele>1594</ele></trkpt>
    <trkpt lat="47.66737" lon="13.49400"><ele>1599</ele></trkpt>
    <trkpt lat="47.66722" lon="13.49387"><ele>1606</ele></trkpt>
    <trkpt lat="47.66728" lon="13.49376"><ele>1636</ele></trkpt>
    <trkpt lat="47.66728" lon="13.49361"><ele>1643</ele></trkpt>
    <trkpt lat="47.66728" lon="13.49345"><ele>1649</ele></trkpt>
    <trkpt lat="47.66716" lon="13.49335"><ele>1653</ele></trkpt>
    <trkpt lat="47.66713" lon="13.49319"><ele>1661</ele></trkpt>
    <trkpt lat="47.66708" lon="13.49307"><ele>1661</ele></trkpt>
    <trkpt lat="47.66706" lon="13.49288"><ele>1668</ele></trkpt>
    <trkpt lat="47.66701" lon="13.49264"><ele>1664</ele></trkpt>
    <trkpt lat="47.66697" lon="13.49240"><ele>1671</ele></trkpt>
    <trkpt lat="47.66693" lon="13.49219"><ele>1676</ele></trkpt>
    <trkpt lat="47.66701" lon="13.49210"><ele>1678</ele></trkpt>
    <trkpt lat="47.66710" lon="13.49202"><ele>1650</ele></trkpt>
    <trkpt lat="47.66710" lon="13.49182"><ele>1688</ele></trkpt>
    <trkpt lat="47.66707" lon="13.49157"><ele>1691</ele></trkpt>
    <trkpt lat="47.66709" lon="13.49143"><ele>1693</ele></trkpt>
    <trkpt lat="47.66710" lon="13.49115"><ele>1693</ele></trkpt>
    <trkpt lat="47.66708" lon="13.49098"><ele>1696</ele></trkpt>
    <trkpt lat="47.66711" lon="13.49083"><ele>1695</ele></trkpt>
    <trkpt lat="47.66711" lon="13.49061"><ele>1690</ele></trkpt>
    <trkpt lat="47.66717" lon="13.49048"><ele>1683</ele></trkpt>
    <trkpt lat="47.66722" lon="13.49012"><ele>1681</ele></trkpt>
    <trkpt lat="47.66725" lon="13.48998"><ele>1678</ele></trkpt>
    <trkpt lat="47.66732" lon="13.48988"><ele>1671</ele></trkpt>
    <trkpt lat="47.66736" lon="13.48967"><ele>1673</ele></trkpt>
    <trkpt lat="47.66739" lon="13.48952"><ele>1673</ele></trkpt>
    <trkpt lat="47.66743" lon="13.48921"><ele>1673</ele></trkpt>
    <trkpt lat="47.66744" lon="13.48907"><ele>1641</ele></trkpt>
    <trkpt lat="47.66746" lon="13.48887"><ele>1677</ele></trkpt>
    <trkpt lat="47.66736" lon="13.48863"><ele>1683</ele></trkpt>
    <trkpt lat="47.66739" lon="13.48846"><ele>1682</ele></trkpt>
    <trkpt lat="47.66730" lon="13.48830"><ele>1696</ele></trkpt>
    <trkpt lat="47.66720" lon="13.48828"><ele>1669</ele></trkpt>
    <trkpt lat="47.66712" lon="13.48813"><ele>1700</ele></trkpt>
    <trkpt lat="47.66710" lon="13.48787"><ele>1704</ele></trkpt>
    <trkpt lat="47.66711" lon="13.48773"><ele>1715</ele></trkpt>
    <trkpt lat="47.66712" lon="13.48750"><ele>1701</ele></trkpt>
    <trkpt lat="47.66710" lon="13.48734"><ele>1397</ele></trkpt>
    <trkpt lat="47.66709" lon="13.48720"><ele>1736</ele></trkpt>
    <trkpt lat="47.66701" lon="13.48710"><ele>1705</ele></trkpt>
    <trkpt lat="47.66693" lon="13.48699"><ele>1737</ele></trkpt>
    <trkpt lat="47.66688" lon="13.48688"><ele>1740</ele></trkpt>
    <trkpt lat="47.66678" lon="13.48666"><ele>1763</ele></trkpt>
    <trkpt lat="47.66675" lon="13.48654"><ele>1782</ele></trkpt>
    <trkpt lat="47.66678" lon="13.48633"><ele>1776</ele></trkpt>
    <trkpt lat="47.66682" lon="13.48617"><ele>1803</ele></trkpt>
    <trkpt lat="47.66684" lon="13.48603"><ele>1781</ele></trkpt>
    <trkpt lat="47.66686" lon="13.48589"><ele>1817</ele></trkpt>
    <trkpt lat="47.66686" lon="13.48563"><ele>1771</ele></trkpt>
    <trkpt lat="47.66694" lon="13.48527"><ele>1754</ele></trkpt>
    <trkpt lat="47.66694" lon="13.48497"><ele>1712</ele></trkpt>
    <trkpt lat="47.66691" lon="13.48466"><ele>1724</ele></trkpt>
    <trkpt lat="47.66688" lon="13.48450"><ele>1669</ele></trkpt>
    <trkpt lat="47.66686" lon="13.48430"><ele>1652</ele></trkpt>
    <trkpt lat="47.66685" lon="13.48400"><ele>1755</ele></trkpt>
    <trkpt lat="47.66676" lon="13.48387"><ele>1762</ele></trkpt>
    <trkpt lat="47.66672" lon="13.48367"><ele>1663</ele></trkpt>
    <trkpt lat="47.66664" lon="13.48334"><ele>1692</ele></trkpt>
    <trkpt lat="47.66658" lon="13.48309"><ele>1738</ele></trkpt>
    <trkpt lat="47.66667" lon="13.48258"><ele>1732</ele></trkpt>
    <trkpt lat="47.66659" lon="13.48239"><ele>1707</ele></trkpt>
    <trkpt lat="47.66646" lon="13.48262"><ele>1623</ele></trkpt>
    <trkpt lat="47.66637" lon="13.48257"><ele>1675</ele></trkpt>
    <trkpt lat="47.66619" lon="13.48257"><ele>1675</ele></trkpt>
    <trkpt lat="47.66610" lon="13.48272"><ele>1647</ele></trkpt>
    <trkpt lat="47.66601" lon="13.48276"><ele>1636</ele></trkpt>
    <trkpt lat="47.66562" lon="13.48276"><ele>1643</ele></trkpt>
    <trkpt lat="47.66539" lon="13.48277"><ele>1632</ele></trkpt>
    <trkpt lat="47.66529" lon="13.48259"><ele>1607</ele></trkpt>
    <trkpt lat="47.66506" lon="13.48272"><ele>1621</ele></trkpt>
    <trkpt lat="47.66502" lon="13.48308"><ele>1613</ele></trkpt>
    <trkpt lat="47.66491" lon="13.48325"><ele>1578</ele></trkpt>
    <trkpt lat="47.66486" lon="13.48353"><ele>1590</ele></trkpt>
    <trkpt lat="47.66468" lon="13.48357"><ele>1580</ele></trkpt>
    <trkpt lat="47.66457" lon="13.48372"><ele>1621</ele></trkpt>
    <trkpt lat="47.66449" lon="13.48388"><ele>1555</ele></trkpt>
    <trkpt lat="47.66428" lon="13.48403"><ele>1552</ele></trkpt>
    <trkpt lat="47.66408" lon="13.48392"><ele>1548</ele></trkpt>
    <trkpt lat="47.66360" lon="13.48368"><ele>1535</ele></trkpt>
    <trkpt lat="47.66350" lon="13.48368"><ele>1527</ele></trkpt>
    <trkpt lat="47.66331" lon="13.48344"><ele>1527</ele></trkpt>
    <trkpt lat="47.66296" lon="13.48343"><ele>1465</ele></trkpt>
    <trkpt lat="47.66281" lon="13.48348"><ele>1454</ele></trkpt>
    <trkpt lat="47.66276" lon="13.48368"><ele>1486</ele></trkpt>
    <trkpt lat="47.66266" lon="13.48385"><ele>1473</ele></trkpt>
    <trkpt lat="47.66244" lon="13.48384"><ele>1517</ele></trkpt>
    <trkpt lat="47.66224" lon="13.48385"><ele>1474</ele></trkpt>
    <trkpt lat="47.66206" lon="13.48368"><ele>1487</ele></trkpt>
    <trkpt lat="47.66169" lon="13.48367"><ele>1459</ele></trkpt>
    <trkpt lat="47.66161" lon="13.48383"><ele>1487</ele></trkpt>
    <trkpt lat="47.66141" lon="13.48386"><ele>1505</ele></trkpt>
    <trkpt lat="47.66120" lon="13.48360"><ele>1510</ele></trkpt>
    <trkpt lat="47.66101" lon="13.48351"><ele>1521</ele></trkpt>
    <trkpt lat="47.66070" lon="13.48343"><ele>1502</ele></trkpt>
    <trkpt lat="47.65997" lon="13.48286"><ele>1511</ele></trkpt>
    <trkpt lat="47.65985" lon="13.48252"><ele>1490</ele></trkpt>
    <trkpt lat="47.65976" lon="13.48235"><ele>1458</ele></trkpt>
    <trkpt lat="47.65947" lon="13.48238"><ele>1439</ele></trkpt>
    <trkpt lat="47.65921" lon="13.48237"><ele>1461</ele></trkpt>
    <trkpt lat="47.65892" lon="13.48249"><ele>1409</ele></trkpt>
    <trkpt lat="47.65886" lon="13.48224"><ele>1417</ele></trkpt>
    <trkpt lat="47.65875" lon="13.48236"><ele>1404</ele></trkpt>
    <trkpt lat="47.65861" lon="13.48200"><ele>1391</ele></trkpt>
    <trkpt lat="47.65857" lon="13.48159"><ele>1402</ele></trkpt>
    <trkpt lat="47.65856" lon="13.48119"><ele>1378</ele></trkpt>
    <trkpt lat="47.65861" lon="13.48081"><ele>1370</ele></trkpt>
    <trkpt lat="47.65859" lon="13.48037"><ele>1367</ele></trkpt>
    <trkpt lat="47.65849" lon="13.48002"><ele>1331</ele></trkpt>
    <trkpt lat="47.65838" lon="13.47978"><ele>1334</ele></trkpt>
    <trkpt lat="47.65843" lon="13.47944"><ele>1333</ele></trkpt>
    <trkpt lat="47.65843" lon="13.47905"><ele>1353</ele></trkpt>
    <trkpt lat="47.65852" lon="13.47871"><ele>1311</ele></trkpt>
    <trkpt lat="47.65853" lon="13.47794"><ele>1298</ele></trkpt>
    <trkpt lat="47.65859" lon="13.47736"><ele>1298</ele></trkpt>
    <trkpt lat="47.65856" lon="13.47693"><ele>1256</ele></trkpt>
    <trkpt lat="47.65860" lon="13.47638"><ele>1288</ele></trkpt>
    <trkpt lat="47.65873" lon="13.47601"><ele>1267</ele></trkpt>
    <trkpt lat="47.65878" lon="13.47579"><ele>1261</ele></trkpt>
    <trkpt lat="47.65881" lon="13.47558"><ele>1224</ele></trkpt>
    <trkpt lat="47.65883" lon="13.47536"><ele>1220</ele></trkpt>
    <trkpt lat="47.65882" lon="13.47516"><ele>1190</ele></trkpt>
    <trkpt lat="47.65876" lon="13.47497"><ele>1214</ele></trkpt>
    <trkpt lat="47.65869" lon="13.47483"><ele>1210</ele></trkpt>
    <trkpt lat="47.65862" lon="13.47468"><ele>1180</ele></trkpt>
    <trkpt lat="47.65847" lon="13.47439"><ele>1189</ele></trkpt>
    <trkpt lat="47.65838" lon="13.47409"><ele>1183</ele></trkpt>
    <trkpt lat="47.65822" lon="13.47387"><ele>1172</ele></trkpt>
    <trkpt lat="47.65798" lon="13.47347"><ele>1157</ele></trkpt>
    <trkpt lat="47.65788" lon="13.47305"><ele>1173</ele></trkpt>
    <trkpt lat="47.65789" lon="13.47265"><ele>1145</ele></trkpt>
    <trkpt lat="47.65779" lon="13.47215"><ele>1203</ele></trkpt>
    <trkpt lat="47.65772" lon="13.47136"><ele>1161</ele></trkpt>
    <trkpt lat="47.65784" lon="13.47117"><ele>1109</ele></trkpt>
    <trkpt lat="47.65778" lon="13.47092"><ele>1121</ele></trkpt>
    <trkpt lat="47.65770" lon="13.47069"><ele>1105</ele></trkpt>
    <trkpt lat="47.65774" lon="13.47039"><ele>1115</ele></trkpt>
    <trkpt lat="47.65801" lon="13.47042"><ele>1088</ele></trkpt>
    <trkpt lat="47.65799" lon="13.47014"><ele>1071</ele></trkpt>
    <trkpt lat="47.65805" lon="13.47002"><ele>1045</ele></trkpt>
    <trkpt lat="47.65823" lon="13.46999"><ele>1055</ele></trkpt>
    <trkpt lat="47.65852" lon="13.46976"><ele>1010</ele></trkpt>
    <trkpt lat="47.65872" lon="13.46989"><ele>1045</ele></trkpt>
    <trkpt lat="47.65886" lon="13.46989"><ele>1039</ele></trkpt>
    <trkpt lat="47.65913" lon="13.46999"><ele>1017</ele></trkpt>
    <trkpt lat="47.65936" lon="13.46968"><ele>1017</ele></trkpt>
    <trkpt lat="47.65948" lon="13.46977"><ele>976</ele></trkpt>
    <trkpt lat="47.65959" lon="13.46975"><ele>984</ele></trkpt>
    <trkpt lat="47.65973" lon="13.46946"><ele>976</ele></trkpt>
    <trkpt lat="47.65981" lon="13.46954"><ele>973</ele></trkpt>
    <trkpt lat="47.65987" lon="13.46967"><ele>972</ele></trkpt>
    <trkpt lat="47.65995" lon="13.46985"><ele>951</ele></trkpt>
    <trkpt lat="47.66012" lon="13.46989"><ele>995</ele></trkpt>
    <trkpt lat="47.66065" lon="13.46995"><ele>941</ele></trkpt>
    <trkpt lat="47.66102" lon="13.46989"><ele>954</ele></trkpt>
    <trkpt lat="47.66118" lon="13.46930"><ele>901</ele></trkpt>
    <trkpt lat="47.66129" lon="13.46939"><ele>903</ele></trkpt>
    <trkpt lat="47.66150" lon="13.46910"><ele>875</ele></trkpt>
    <trkpt lat="47.66138" lon="13.46872"><ele>902</ele></trkpt>
    <trkpt lat="47.66108" lon="13.46853"><ele>871</ele></trkpt>
    <trkpt lat="47.66050" lon="13.46792"><ele>878</ele></trkpt>
    <trkpt lat="47.66055" lon="13.46731"><ele>874</ele></trkpt>
    <trkpt lat="47.66079" lon="13.46702"><ele>927</ele></trkpt>
    <trkpt lat="47.66069" lon="13.46699"><ele>855</ele></trkpt>
    <trkpt lat="47.66066" lon="13.46659"><ele>843</ele></trkpt>
    <trkpt lat="47.66078" lon="13.46651"><ele>846</ele></trkpt>
    <trkpt lat="47.66069" lon="13.46648"><ele>829</ele></trkpt>
    <trkpt lat="47.66033" lon="13.46625"><ele>820</ele></trkpt>
    <trkpt lat="47.66037" lon="13.46675"><ele>823</ele></trkpt>
    <trkpt lat="47.66006" lon="13.46607"><ele>829</ele></trkpt>
    <trkpt lat="47.65954" lon="13.46587"><ele>806</ele></trkpt>
    <trkpt lat="47.65985" lon="13.46562"><ele>817</ele></trkpt>
    <trkpt lat="47.65962" lon="13.46603"><ele>783</ele></trkpt>
    <trkpt lat="47.65971" lon="13.46605"><ele>774</ele></trkpt>
    <trkpt lat="47.65966" lon="13.46522"><ele>812</ele></trkpt>
    <trkpt lat="47.65983" lon="13.46491"><ele>766</ele></trkpt>
    <trkpt lat="47.66032" lon="13.46404"><ele>806</ele></trkpt>
    <trkpt lat="47.66057" lon="13.46429"><ele>813</ele></trkpt>
    <trkpt lat="47.66074" lon="13.46401"><ele>806</ele></trkpt>
    <trkpt lat="47.66119" lon="13.46307"><ele>763</ele></trkpt>
    <trkpt lat="47.66106" lon="13.46315"><ele>746</ele></trkpt>
    <trkpt lat="47.66162" lon="13.46343"><ele>786</ele></trkpt>
    <trkpt lat="47.66223" lon="13.46346"><ele>747</ele></trkpt>
    <trkpt lat="47.66252" lon="13.46351"><ele>753</ele></trkpt>
    <trkpt lat="47.66264" lon="13.46341"><ele>742</ele></trkpt>
    <trkpt lat="47.66361" lon="13.46305"><ele>786</ele></trkpt>
    <trkpt lat="47.66386" lon="13.46342"><ele>789</ele></trkpt>
    <trkpt lat="47.66436" lon="13.46360"><ele>816</ele></trkpt>
    <trkpt lat="47.66466" lon="13.46380"><ele>815</ele></trkpt>
    <trkpt lat="47.66466" lon="13.46405"><ele>745</ele></trkpt>
    <trkpt lat="47.66509" lon="13.46419"><ele>738</ele></trkpt>
    <trkpt lat="47.66504" lon="13.46364"><ele>766</ele></trkpt>
    <trkpt lat="47.66598" lon="13.46347"><ele>738</ele></trkpt>
    <trkpt lat="47.66615" lon="13.46331"><ele>754</ele></trkpt>
    <trkpt lat="47.66660" lon="13.46274"><ele>722</ele></trkpt>
    <trkpt lat="47.66732" lon="13.46256"><ele>727</ele></trkpt>
    <trkpt lat="47.66851" lon="13.46332"><ele>785</ele></trkpt>
    <trkpt lat="47.66960" lon="13.46343"><ele>876</ele></trkpt>
    <trkpt lat="47.67003" lon="13.46365"><ele>755</ele></trkpt>
    <trkpt lat="47.67036" lon="13.46388"><ele>771</ele></trkpt>
    <trkpt lat="47.67083" lon="13.46383"><ele>771</ele></trkpt>
    <trkpt lat="47.67085" lon="13.46369"><ele>740</ele></trkpt>
    <trkpt lat="47.67127" lon="13.46362"><ele>754</ele></trkpt>
    <trkpt lat="47.67154" lon="13.46365"><ele>752</ele></trkpt>
    <trkpt lat="47.67179" lon="13.46385"><ele>782</ele></trkpt>
    <trkpt lat="47.67189" lon="13.46394"><ele>755</ele></trkpt>
    <trkpt lat="47.67188" lon="13.46430"><ele>779</ele></trkpt>
    <trkpt lat="47.67217" lon="13.46457"><ele>791</ele></trkpt>
    <trkpt lat="47.67266" lon="13.46512"><ele>812</ele></trkpt>
    <trkpt lat="47.67244" lon="13.46547"><ele>789</ele></trkpt>
    <trkpt lat="47.67274" lon="13.46574"><ele>757</ele></trkpt>
    <trkpt lat="47.67323" lon="13.46648"><ele>757</ele></trkpt>
    <trkpt lat="47.67332" lon="13.46714"><ele>752</ele></trkpt>
    <trkpt lat="47.67496" lon="13.46902"><ele>655</ele></trkpt>
    <trkpt lat="47.67518" lon="13.46963"><ele>721</ele></trkpt>
    <trkpt lat="47.67528" lon="13.47023"><ele>706</ele></trkpt>
    <trkpt lat="47.67591" lon="13.47069"><ele>781</ele></trkpt>
    <trkpt lat="47.67612" lon="13.47099"><ele>734</ele></trkpt>
    <trkpt lat="47.67666" lon="13.47162"><ele>732</ele></trkpt>
    <trkpt lat="47.67691" lon="13.47134"><ele>695</ele></trkpt>
    <trkpt lat="47.67726" lon="13.47227"><ele>717</ele></trkpt>
    <trkpt lat="47.67755" lon="13.47303"><ele>728</ele></trkpt>
    <trkpt lat="47.67788" lon="13.47398"><ele>697</ele></trkpt>
    <trkpt lat="47.67806" lon="13.47440"><ele>705</ele></trkpt>
    <trkpt lat="47.67829" lon="13.47490"><ele>697</ele></trkpt>
    <trkpt lat="47.67858" lon="13.47510"><ele>697</ele></trkpt>
    <trkpt lat="47.67895" lon="13.47501"><ele>702</ele></trkpt>
    <trkpt lat="47.67938" lon="13.47490"><ele>698</ele></trkpt>
    <trkpt lat="47.67936" lon="13.47567"><ele>706</ele></trkpt>
    <trkpt lat="47.67953" lon="13.47570"><ele>689</ele></trkpt>
    <trkpt lat="47.67991" lon="13.47547"><ele>700</ele></trkpt>
    <trkpt lat="47.68016" lon="13.47519"><ele>701</ele></trkpt>
    <trkpt lat="47.68047" lon="13.47479"><ele>696</ele></trkpt>
    <trkpt lat="47.68056" lon="13.47377"><ele>707</ele></trkpt>
    <trkpt lat="47.68083" lon="13.47405"><ele>686</ele></trkpt>
    <trkpt lat="47.68113" lon="13.47407"><ele>675</ele></trkpt>
    <trkpt lat="47.68125" lon="13.47363"><ele>663</ele></trkpt>
    <trkpt lat="47.68115" lon="13.47719"><ele>677</ele></trkpt>
    <trkpt lat="47.68270" lon="13.47866"><ele>929</ele></trkpt>
    <trkpt lat="47.68370" lon="13.48083"><ele>749</ele></trkpt>
    <trkpt lat="47.68534" lon="13.48343"><ele>641</ele></trkpt>
    <trkpt lat="47.68719" lon="13.48377"><ele>661</ele></trkpt>
    <trkpt lat="47.68831" lon="13.48297"><ele>654</ele></trkpt>
    <trkpt lat="47.69031" lon="13.48540"><ele>807</ele></trkpt>
    <trkpt lat="47.69154" lon="13.48570"><ele>665</ele></trkpt>
    <trkpt lat="47.69246" lon="13.48794"><ele>766</ele></trkpt>
    <trkpt lat="47.69601" lon="13.48874"><ele>660</ele></trkpt>
    <trkpt lat="47.69920" lon="13.49194"><ele>580</ele></trkpt>
    <trkpt lat="47.70140" lon="13.49324"><ele>582</ele></trkpt>
    <trkpt lat="47.70387" lon="13.49252"><ele>1092</ele></trkpt>
    <trkpt lat="47.70706" lon="13.49326"><ele>578</ele></trkpt>
    <trkpt lat="47.70889" lon="13.49484"><ele>756</ele></trkpt>
    <trkpt lat="47.70860" lon="13.49689"><ele>618</ele></trkpt>
  </trkseg>
</trk>
</gpx>