<?xml version="1.0" encoding="UTF-8"?>
<gpx version="1.1" creator="Gpx-Optimizer" xmlns="http://www.topografix.com/GPX/1/1">
<trk>
  <name>Ski_Schlappereben</name>
  <type>skimo</type>
  <trkseg>
    <trkpt lat="47.04784" lon="13.05288"><ele>1583</ele></trkpt>
    <trkpt lat="47.04811" lon="13.05278"><ele>1651</ele></trkpt>
    <trkpt lat="47.04793" lon="13.05269"><ele>1678</ele></trkpt>
    <trkpt lat="47.04775" lon="13.05284"><ele>1691</ele></trkpt>
    <trkpt lat="47.04747" lon="13.05272"><ele>1581</ele></trkpt>
    <trkpt lat="47.04713" lon="13.05276"><ele>1659</ele></trkpt>
    <trkpt lat="47.04709" lon="13.05295"><ele>1591</ele></trkpt>
    <trkpt lat="47.04663" lon="13.05279"><ele>1578</ele></trkpt>
    <trkpt lat="47.04622" lon="13.05291"><ele>1593</ele></trkpt>
    <trkpt lat="47.04590" lon="13.05269"><ele>1648</ele></trkpt>
    <trkpt lat="47.04560" lon="13.05286"><ele>1713</ele></trkpt>
    <trkpt lat="47.04549" lon="13.05305"><ele>1741</ele></trkpt>
    <trkpt lat="47.04515" lon="13.05310"><ele>1787</ele></trkpt>
    <trkpt lat="47.04504" lon="13.05277"><ele>1742</ele></trkpt>
    <trkpt lat="47.04480" lon="13.05209"><ele>1757</ele></trkpt>
    <trkpt lat="47.04455" lon="13.05161"><ele>1747</ele></trkpt>
    <trkpt lat="47.04437" lon="13.05142"><ele>1759</ele></trkpt>
    <trkpt lat="47.04446" lon="13.05107"><ele>1773</ele></trkpt>
    <trkpt lat="47.04449" lon="13.05088"><ele>1768</ele></trkpt>
    <trkpt lat="47.04415" lon="13.05063"><ele>1811</ele></trkpt>
    <trkpt lat="47.04413" lon="13.05078"><ele>1797</ele></trkpt>
    <trkpt lat="47.04403" lon="13.05093"><ele>1834</ele></trkpt>
    <trkpt lat="47.04375" lon="13.05074"><ele>1840</ele></trkpt>
    <trkpt lat="47.04338" lon="13.05086"><ele>1810</ele></trkpt>
    <trkpt lat="47.04307" lon="13.05109"><ele>1890</ele></trkpt>
    <trkpt lat="47.04306" lon="13.05091"><ele>1893</ele></trkpt>
    <trkpt lat="47.04283" lon="13.05070"><ele>1883</ele></trkpt>
    <trkpt lat="47.04268" lon="13.05065"><ele>1869</ele></trkpt>
    <trkpt lat="47.04248" lon="13.05057"><ele>1864</ele></trkpt>
    <trkpt lat="47.04194" lon="13.05008"><ele>1898</ele></trkpt>
    <trkpt lat="47.04189" lon="13.05026"><ele>1945</ele></trkpt>
    <trkpt lat="47.04169" lon="13.05074"><ele>1910</ele></trkpt>
    <trkpt lat="47.04204" lon="13.05127"><ele>1924</ele></trkpt>
    <trkpt lat="47.04199" lon="13.05148"><ele>1940</ele></trkpt>
    <trkpt lat="47.04192" lon="13.05161"><ele>1945</ele></trkpt>
    <trkpt lat="47.04183" lon="13.05155"><ele>1958</ele></trkpt>
    <trkpt lat="47.04171" lon="13.05158"><ele>1964</ele></trkpt>
    <trkpt lat="47.04152" lon="13.05177"><ele>1984</ele></trkpt>
    <trkpt lat="47.04138" lon="13.05175"><ele>2018</ele></trkpt>
    <trkpt lat="47.04124" lon="13.05189"><ele>2006</ele></trkpt>
    <trkpt lat="47.04115" lon="13.05198"><ele>2015</ele></trkpt>
    <trkpt lat="47.04118" lon="13.05225"><ele>2018</ele></trkpt>
    <trkpt lat="47.04107" lon="13.05258"><ele>2028</ele></trkpt>
    <trkpt lat="47.04130" lon="13.05238"><ele>2061</ele></trkpt>
    <trkpt lat="47.04131" lon="13.05277"><ele>2076</ele></trkpt>
    <trkpt lat="47.04132" lon="13.05294"><ele>2062</ele></trkpt>
    <trkpt lat="47.04115" lon="13.05310"><ele>2061</ele></trkpt>
    <trkpt lat="47.04079" lon="13.05282"><ele>2101</ele></trkpt>
    <trkpt lat="47.04049" lon="13.05330"><ele>2092</ele></trkpt>
    <trkpt lat="47.04037" lon="13.05356"><ele>2087</ele></trkpt>
    <trkpt lat="47.04018" lon="13.05335"><ele>2119</ele></trkpt>
    <trkpt lat="47.04022" lon="13.05361"><ele>2167</ele></trkpt>
    <trkpt lat="47.03990" lon="13.05350"><ele>2130</ele></trkpt>
    <trkpt lat="47.03936" lon="13.05363"><ele>2135</ele></trkpt>
    <trkpt lat="47.03919" lon="13.05374"><ele>2134</ele></trkpt>
    <trkpt lat="47.03895" lon="13.05366"><ele>2141</ele></trkpt>
    <trkpt lat="47.03877" lon="13.05388"><ele>2141</ele></trkpt>
    <trkpt lat="47.03866" lon="13.05357"><ele>2133</ele></trkpt>
    <trkpt lat="47.03862" lon="13.05372"><ele>2145</ele></trkpt>
    <trkpt lat="47.03862" lon="13.05354"><ele>2148</ele></trkpt>
    <trkpt lat="47.03847" lon="13.05310"><ele>2166</ele></trkpt>
    <trkpt lat="47.03825" lon="13.05284"><ele>2164</ele></trkpt>
    <trkpt lat="47.03828" lon="13.05259"><ele>2170</ele></trkpt>
    <trkpt lat="47.03814" lon="13.05244"><ele>2179</ele></trkpt>
    <trkpt lat="47.03793" lon="13.05242"><ele>2178</ele></trkpt>
    <trkpt lat="47.03782" lon="13.05226"><ele>2177</ele></trkpt>
    <trkpt lat="47.03768" lon="13.05210"><ele>2191</ele></trkpt>
    <trkpt lat="47.03760" lon="13.05193"><ele>2196</ele></trkpt>
    <trkpt lat="47.03745" lon="13.05175"><ele>2192</ele></trkpt>
    <trkpt lat="47.03727" lon="13.05140"><ele>2209</ele></trkpt>
    <trkpt lat="47.03704" lon="13.05128"><ele>2208</ele></trkpt>
    <trkpt lat="47.03689" lon="13.05085"><ele>2200</ele></trkpt>
    <trkpt lat="47.03677" lon="13.05064"><ele>2218</ele></trkpt>
    <trkpt lat="47.03676" lon="13.05038"><ele>2216</ele></trkpt>
    <trkpt lat="47.03637" lon="13.05034"><ele>2207</ele></trkpt>
    <trkpt lat="47.03635" lon="13.05010"><ele>2237</ele></trkpt>
    <trkpt lat="47.03637" lon="13.04952"><ele>2287</ele></trkpt>
    <trkpt lat="47.03581" lon="13.04942"><ele>2222</ele></trkpt>
    <trkpt lat="47.03564" lon="13.04917"><ele>2215</ele></trkpt>
    <trkpt lat="47.03560" lon="13.04899"><ele>2287</ele></trkpt>
    <trkpt lat="47.03519" lon="13.04885"><ele>2258</ele></trkpt>
    <trkpt lat="47.03524" lon="13.04867"><ele>2252</ele></trkpt>
    <trkpt lat="47.03527" lon="13.04846"><ele>2291</ele></trkpt>
    <trkpt lat="47.03493" lon="13.04840"><ele>2337</ele></trkpt>
    <trkpt lat="47.03476" lon="13.04859"><ele>2283</ele></trkpt>
    <trkpt lat="47.03450" lon="13.04881"><ele>2304</ele></trkpt>
    <trkpt lat="47.03436" lon="13.04883"><ele>2284</ele></trkpt>
    <trkpt lat="47.03413" lon="13.04885"><ele>2319</ele></trkpt>
    <trkpt lat="47.03380" lon="13.04883"><ele>2322</ele></trkpt>
    <trkpt lat="47.03360" lon="13.04896"><ele>2313</ele></trkpt>
    <trkpt lat="47.03344" lon="13.04915"><ele>2339</ele></trkpt>
    <trkpt lat="47.03287" lon="13.04878"><ele>2300</ele></trkpt>
    <trkpt lat="47.03224" lon="13.04844"><ele>2332</ele></trkpt>
    <trkpt lat="47.03202" lon="13.04834"><ele>2372</ele></trkpt>
    <trkpt lat="47.03188" lon="13.04821"><ele>2356</ele></trkpt>
    <trkpt lat="47.03144" lon="13.04832"><ele>2387</ele></trkpt>
    <trkpt lat="47.03136" lon="13.04840"><ele>2379</ele></trkpt>
    <trkpt lat="47.03097" lon="13.04855"><ele>2320</ele></trkpt>
    <trkpt lat="47.03051" lon="13.04820"><ele>2367</ele></trkpt>
    <trkpt lat="47.03001" lon="13.04814"><ele>2403</ele></trkpt>
    <trkpt lat="47.02978" lon="13.04804"><ele>2395</ele></trkpt>
    <trkpt lat="47.02936" lon="13.04795"><ele>2422</ele></trkpt>
    <trkpt lat="47.02926" lon="13.04797"><ele>2400</ele></trkpt>
    <trkpt lat="47.02905" lon="13.04765"><ele>2426</ele></trkpt>
    <trkpt lat="47.02908" lon="13.04782"><ele>2452</ele></trkpt>
    <trkpt lat="47.02901" lon="13.04752"><ele>2196</ele></trkpt>
    <trkpt lat="47.02911" lon="13.04746"><ele>2474</ele></trkpt>
    <trkpt lat="47.02905" lon="13.04714"><ele>2491</ele></trkpt>
    <trkpt lat="47.02922" lon="13.04714"><ele>2482</ele></trkpt>
    <trkpt lat="47.02911" lon="13.04692"><ele>2462</ele></trkpt>
    <trkpt lat="47.02921" lon="13.04646"><ele>2497</ele></trkpt>
    <trkpt lat="47.02919" lon="13.04616"><ele>2525</ele></trkpt>
    <trkpt lat="47.02920" lon="13.04600"><ele>2523</ele></trkpt>
    <trkpt lat="47.02923" lon="13.04579"><ele>2549</ele></trkpt>
    <trkpt lat="47.02928" lon="13.04566"><ele>2548</ele></trkpt>
    <trkpt lat="47.02910" lon="13.04546"><ele>2535</ele></trkpt>
    <trkpt lat="47.02922" lon="13.04526"><ele>2596</ele></trkpt>
    <trkpt lat="47.02923" lon="13.04510"><ele>2592</ele></trkpt>
    <trkpt lat="47.02908" lon="13.04463"><ele>2391</ele></trkpt>
    <trkpt lat="47.02925" lon="13.04467"><ele>2568</ele></trkpt>
    <trkpt lat="47.02925" lon="13.04438"><ele>2579</ele></trkpt>
    <trkpt lat="47.02927" lon="13.04411"><ele>2580</ele></trkpt>
    <trkpt lat="47.02937" lon="13.04393"><ele>2603</ele></trkpt>
    <trkpt lat="47.02927" lon="13.04375"><ele>2579</ele></trkpt>
    <trkpt lat="47.02918" lon="13.04369"><ele>2590</ele></trkpt>
    <trkpt lat="47.02914" lon="13.04349"><ele>2585</ele></trkpt>
    <trkpt lat="47.02920" lon="13.04270"><ele>2573</ele></trkpt>
    <trkpt lat="47.02907" lon="13.04258"><ele>2643</ele></trkpt>
    <trkpt lat="47.02932" lon="13.04229"><ele>2651</ele></trkpt>
    <trkpt lat="47.02916" lon="13.04225"><ele>2649</ele></trkpt>
    <trkpt lat="47.02909" lon="13.04215"><ele>2650</ele></trkpt>
    <trkpt lat="47.02902" lon="13.04187"><ele>2650</ele></trkpt>
    <trkpt lat="47.02875" lon="13.04196"><ele>2656</ele></trkpt>
    <trkpt lat="47.02858" lon="13.04168"><ele>2654</ele></trkpt>
    <trkpt lat="47.02870" lon="13.04151"><ele>2682</ele></trkpt>
    <trkpt lat="47.02848" lon="13.04138"><ele>2690</ele></trkpt>
    <trkpt lat="47.02866" lon="13.04119"><ele>2687</ele></trkpt>
    <trkpt lat="47.02878" lon="13.04077"><ele>2706</ele></trkpt>
    <trkpt lat="47.02869" lon="13.04044"><ele>2715</ele></trkpt>
    <trkpt lat="47.02878" lon="13.04027"><ele>2737</ele></trkpt>
    <trkpt lat="47.02885" lon="13.03980"><ele>2730</ele></trkpt>
    <trkpt lat="47.02882" lon="13.04004"><ele>2503</ele></trkpt>
    <trkpt lat="47.02885" lon="13.03961"><ele>2737</ele></trkpt>
    <trkpt lat="47.02870" lon="13.03941"><ele>2737</ele></trkpt>
    <trkpt lat="47.02859" lon="13.03916"><ele>2735</ele></trkpt>
    <trkpt lat="47.02853" lon="13.03905"><ele>2691</ele></trkpt>
    <trkpt lat="47.02845" lon="13.03912"><ele>2752</ele></trkpt>
    <trkpt lat="47.02826" lon="13.03923"><ele>2745</ele></trkpt>
    <trkpt lat="47.02823" lon="13.03885"><ele>2803</ele></trkpt>
    <trkpt lat="47.02816" lon="13.03866"><ele>2762</ele></trkpt>
    <trkpt lat="47.02807" lon="13.03846"><ele>2821</ele></trkpt>
    <trkpt lat="47.02804" lon="13.03819"><ele>2790</ele></trkpt>
    <trkpt lat="47.02799" lon="13.03798"><ele>2776</ele></trkpt>
    <trkpt lat="47.02800" lon="13.03776"><ele>2811</ele></trkpt>
    <trkpt lat="47.02809" lon="13.03754"><ele>2814</ele></trkpt>
    <trkpt lat="47.02808" lon="13.03739"><ele>2809</ele></trkpt>
    <trkpt lat="47.02797" lon="13.03726"><ele>2831</ele></trkpt>
    <trkpt lat="47.02803" lon="13.03706"><ele>2814</ele></trkpt>
    <trkpt lat="47.02825" lon="13.03665"><ele>2850</ele></trkpt>
    <trkpt lat="47.02842" lon="13.03627"><ele>2846</ele></trkpt>
    <trkpt lat="47.02830" lon="13.03614"><ele>2857</ele></trkpt>
    <trkpt lat="47.02814" lon="13.03608"><ele>2865</ele></trkpt>
    <trkpt lat="47.02822" lon="13.03587"><ele>2862</ele></trkpt>
    <trkpt lat="47.02786" lon="13.03575"><ele>2856</ele></trkpt>
    <trkpt lat="47.02797" lon="13.03561"><ele>2881</ele></trkpt>
    <trkpt lat="47.02786" lon="13.03543"><ele>2893</ele></trkpt>
    <trkpt lat="47.02771" lon="13.03521"><ele>2688</ele></trkpt>
    <trkpt lat="47.02801" lon="13.03503"><ele>2866</ele></trkpt>
    <trkpt lat="47.02829" lon="13.03498"><ele>2858</ele></trkpt>
    <trkpt lat="47.02838" lon="13.03503"><ele>2909</ele></trkpt>
    <trkpt lat="47.02838" lon="13.03490"><ele>2915</ele></trkpt>
    <trkpt lat="47.02829" lon="13.03467"><ele>2888</ele></trkpt>
    <trkpt lat="47.02801" lon="13.03441"><ele>2934</ele></trkpt>
    <trkpt lat="47.02806" lon="13.03430"><ele>2945</ele></trkpt>
    <trkpt lat="47.02807" lon="13.03409"><ele>2882</ele></trkpt>
    <trkpt lat="47.02794" lon="13.03410"><ele>2727</ele></trkpt>
    <trkpt lat="47.02774" lon="13.03397"><ele>2973</ele></trkpt>
    <trkpt lat="47.02764" lon="13.03354"><ele>2970</ele></trkpt>
    <trkpt lat="47.02751" lon="13.03327"><ele>2977</ele></trkpt>
    <trkpt lat="47.02745" lon="13.03294"><ele>2976</ele></trkpt>
    <trkpt lat="47.02733" lon="13.03257"><ele>2981</ele></trkpt>
    <trkpt lat="47.02727" lon="13.03206"><ele>3003</ele></trkpt>
    <trkpt lat="47.02725" lon="13.03220"><ele>3004</ele></trkpt>
    <trkpt lat="47.02733" lon="13.03227"><ele>3014</ele></trkpt>
    <trkpt lat="47.02755" lon="13.03348"><ele>2979</ele></trkpt>
    <trkpt lat="47.02789" lon="13.03389"><ele>2991</ele></trkpt>
    <trkpt lat="47.02841" lon="13.03473"><ele>2940</ele></trkpt>
    <trkpt lat="47.02846" lon="13.03492"><ele>2933</ele></trkpt>
    <trkpt lat="47.02843" lon="13.03505"><ele>2918</ele></trkpt>
    <trkpt lat="47.02829" lon="13.03645"><ele>2853</ele></trkpt>
    <trkpt lat="47.02812" lon="13.03680"><ele>2813</ele></trkpt>
    <trkpt lat="47.02909" lon="13.03992"><ele>2773</ele></trkpt>
    <trkpt lat="47.02877" lon="13.04007"><ele>2795</ele></trkpt>
    <trkpt lat="47.02877" lon="13.04193"><ele>2862</ele></trkpt>
    <trkpt lat="47.02909" lon="13.04361"><ele>2987</ele></trkpt>
    <trkpt lat="47.02919" lon="13.04462"><ele>2945</ele></trkpt>
    <trkpt lat="47.02917" lon="13.04631"><ele>2788</ele></trkpt>
    <trkpt lat="47.02915" lon="13.04719"><ele>2324</ele></trkpt>
    <trkpt lat="47.02907" lon="13.04778"><ele>2438</ele></trkpt>
    <trkpt lat="47.02913" lon="13.04788"><ele>2454</ele></trkpt>
    <trkpt lat="47.02967" lon="13.04773"><ele>2410</ele></trkpt>
    <trkpt lat="47.02978" lon="13.04796"><ele>2661</ele></trkpt>
    <trkpt lat="47.02994" lon="13.04843"><ele>2516</ele></trkpt>
    <trkpt lat="47.02942" lon="13.04953"><ele>2459</ele></trkpt>
    <trkpt lat="47.03039" lon="13.05063"><ele>2293</ele></trkpt>
    <trkpt lat="47.03049" lon="13.05127"><ele>2214</ele></trkpt>
    <trkpt lat="47.03049" lon="13.05148"><ele>2246</ele></trkpt>
    <trkpt lat="47.03106" lon="13.05513"><ele>2913</ele></trkpt>
    <trkpt lat="47.03195" lon="13.05557"><ele>2164</ele></trkpt>
    <trkpt lat="47.03261" lon="13.05500"><ele>2488</ele></trkpt>
    <trkpt lat="47.03352" lon="13.05453"><ele>2208</ele></trkpt>
    <trkpt lat="47.03386" lon="13.05439"><ele>2434</ele></trkpt>
    <trkpt lat="47.03375" lon="13.05417"><ele>2147</ele></trkpt>
    <trkpt lat="47.03385" lon="13.05423"><ele>2153</ele></trkpt>
    <trkpt lat="47.03388" lon="13.05404"><ele>2178</ele></trkpt>
    <trkpt lat="47.03438" lon="13.05347"><ele>2195</ele></trkpt>
    <trkpt lat="47.03447" lon="13.05337"><ele>2190</ele></trkpt>
    <trkpt lat="47.03472" lon="13.05291"><ele>2138</ele></trkpt>
    <trkpt lat="47.03501" lon="13.05281"><ele>2175</ele></trkpt>
    <trkpt lat="47.03488" lon="13.05250"><ele>2167</ele></trkpt>
    <trkpt lat="47.03508" lon="13.05199"><ele>2173</ele></trkpt>
    <trkpt lat="47.03526" lon="13.05169"><ele>2189</ele></trkpt>
    <trkpt lat="47.03562" lon="13.05136"><ele>2169</ele></trkpt>
    <trkpt lat="47.03575" lon="13.05147"><ele>2201</ele></trkpt>
    <trkpt lat="47.03593" lon="13.05117"><ele>2221</ele></trkpt>
    <trkpt lat="47.03627" lon="13.05090"><ele>2198</ele></trkpt>
    <trkpt lat="47.03639" lon="13.05070"><ele>2196</ele></trkpt>
    <trkpt lat="47.03650" lon="13.05100"><ele>2237</ele></trkpt>
    <trkpt lat="47.03751" lon="13.05150"><ele>2183</ele></trkpt>
    <trkpt lat="47.03852" lon="13.05264"><ele>2182</ele></trkpt>
    <trkpt lat="47.03859" lon="13.05289"><ele>2166</ele></trkpt>
    <trkpt lat="47.03896" lon="13.05348"><ele>2180</ele></trkpt>
    <trkpt lat="47.04023" lon="13.05350"><ele>2137</ele></trkpt>
    <trkpt lat="47.04071" lon="13.05290"><ele>2105</ele></trkpt>
    <trkpt lat="47.04094" lon="13.05270"><ele>2122</ele></trkpt>
    <trkpt lat="47.04117" lon="13.05314"><ele>2091</ele></trkpt>
    <trkpt lat="47.04126" lon="13.05301"><ele>2073</ele></trkpt>
    <trkpt lat="47.04173" lon="13.05309"><ele>2116</ele></trkpt>
    <trkpt lat="47.04184" lon="13.05279"><ele>2021</ele></trkpt>
    <trkpt lat="47.04197" lon="13.05235"><ele>2034</ele></trkpt>
    <trkpt lat="47.04172" lon="13.05227"><ele>2000</ele></trkpt>
    <trkpt lat="47.04156" lon="13.05246"><ele>2028</ele></trkpt>
    <trkpt lat="47.04152" lon="13.05219"><ele>2012</ele></trkpt>
    <trkpt lat="47.04121" lon="13.05165"><ele>2016</ele></trkpt>
    <trkpt lat="47.04155" lon="13.05181"><ele>1994</ele></trkpt>
    <trkpt lat="47.04171" lon="13.05167"><ele>1994</ele></trkpt>
    <trkpt lat="47.04197" lon="13.05136"><ele>1917</ele></trkpt>
    <trkpt lat="47.04185" lon="13.05044"><ele>1886</ele></trkpt>
    <trkpt lat="47.04251" lon="13.05002"><ele>1879</ele></trkpt>
    <trkpt lat="47.04282" lon="13.05051"><ele>1915</ele></trkpt>
    <trkpt lat="47.04324" lon="13.05084"><ele>1840</ele></trkpt>
    <trkpt lat="47.04336" lon="13.05080"><ele>1844</ele></trkpt>
    <trkpt lat="47.04351" lon="13.05076"><ele>1798</ele></trkpt>
    <trkpt lat="47.04398" lon="13.05183"><ele>1800</ele></trkpt>
    <trkpt lat="47.04462" lon="13.05191"><ele>1804</ele></trkpt>
    <trkpt lat="47.04476" lon="13.05172"><ele>1799</ele></trkpt>
    <trkpt lat="47.04499" lon="13.05305"><ele>1715</ele></trkpt>
    <trkpt lat="47.04554" lon="13.05286"><ele>1650</ele></trkpt>
    <trkpt lat="47.04607" lon="13.05317"><ele>1655</ele></trkpt>
    <trkpt lat="47.04622" lon="13.05332"><ele>1656</ele></trkpt>
    <trkpt lat="47.04649" lon="13.05328"><ele>1651</ele></trkpt>
    <trkpt lat="47.04693" lon="13.05355"><ele>1652</ele></trkpt>
    <trkpt lat="47.04712" lon="13.05357"><ele>1632</ele></trkpt>
    <trkpt lat="47.04738" lon="13.05345"><ele>1612</ele></trkpt>
    <trkpt lat="47.04757" lon="13.05350"><ele>1623</ele></trkpt>
    <trkpt lat="47.04778" lon="13.05313"><ele>1619</ele></trkpt>
    <trkpt lat="47.04816" lon="13.05301"><ele>1690</ele></trkpt>
    <trkpt lat="47.04831" lon="13.05340"><ele>1695</ele></trkpt>
    <trkpt lat="47.04805" lon="13.05335"><ele>1633</ele></trkpt>
    <trkpt lat="47.04815" lon="13.05332"><ele>1630</ele></trkpt>
    <trkpt lat="47.04834" lon="13.05463"><ele>2155</ele></trkpt>
    <trkpt lat="47.04985" lon="13.05412"><ele>1591</ele></trkpt>
    <trkpt lat="47.05157" lon="13.05578"><ele>1591</ele></trkpt>
    <trkpt lat="47.05204" lon="13.05629"><ele>1568</ele></trkpt>
    <trkpt lat="47.05203" lon="13.05698"><ele>1593</ele></trkpt>
    <trkpt lat="47.05279" lon="13.05595"><ele>1582</ele></trkpt>
    <trkpt lat="47.05568" lon="13.05472"><ele>1571</ele></trkpt>
    <trkpt lat="47.05683" lon="13.05563"><ele>1773</ele></trkpt>
    <trkpt lat="47.05778" lon="13.05643"><ele>1671</ele></trkpt>
    <trkpt lat="47.05934" lon="13.05748"><ele>1589</ele></trkpt>
    <trkpt lat="47.06049" lon="13.05792"><ele>1580</ele></trkpt>
    <trkpt lat="47.06115" lon="13.05818"><ele>1576</ele></trkpt>
    <trkpt lat="47.06110" lon="13.05837"><ele>1569</ele></trkpt>
    <trkpt lat="47.06105" lon="13.05832"><ele>1583</ele></trkpt>
  </trkseg>
</trk>
</gpx>