<?xml version="1.0" encoding="UTF-8"?>
<gpx version="1.1" creator="GPX-Pro" xmlns="http://www.topografix.com/GPX/1/1">
<trk>
  <name>Mtb_Summerau--PE-Viehberg-Kefermarkt</name>
  <trkseg>
    <trkpt lat="48.55730" lon="14.44887"><ele>668</ele><time>2024-06-21T05:53:25Z</time></trkpt>
    <trkpt lat="48.55695" lon="14.44898"><ele>669</ele><time>2024-06-21T05:53:55Z</time></trkpt>
    <trkpt lat="48.55647" lon="14.44722"><ele>663</ele><time>2024-06-21T05:54:25Z</time></trkpt>
    <trkpt lat="48.55728" lon="14.44582"><ele>658</ele><time>2024-06-21T05:54:56Z</time></trkpt>
    <trkpt lat="48.55754" lon="14.44690"><ele>670</ele><time>2024-06-21T05:55:26Z</time></trkpt>
    <trkpt lat="48.55781" lon="14.44874"><ele>668</ele><time>2024-06-21T05:55:56Z</time></trkpt>
    <trkpt lat="48.55800" lon="14.45066"><ele>672</ele><time>2024-06-21T05:56:26Z</time></trkpt>
    <trkpt lat="48.55907" lon="14.45114"><ele>687</ele><time>2024-06-21T05:57:09Z</time></trkpt>
    <trkpt lat="48.56001" lon="14.45071"><ele>676</ele><time>2024-06-21T05:57:39Z</time></trkpt>
    <trkpt lat="48.56135" lon="14.44962"><ele>683</ele><time>2024-06-21T05:58:21Z</time></trkpt>
    <trkpt lat="48.56242" lon="14.44907"><ele>702</ele><time>2024-06-21T05:58:51Z</time></trkpt>
    <trkpt lat="48.56384" lon="14.44871"><ele>684</ele><time>2024-06-21T05:59:21Z</time></trkpt>
    <trkpt lat="48.56543" lon="14.44888"><ele>682</ele><time>2024-06-21T05:59:51Z</time></trkpt>
    <trkpt lat="48.56703" lon="14.44789"><ele>671</ele><time>2024-06-21T06:00:34Z</time></trkpt>
    <trkpt lat="48.56787" lon="14.44655"><ele>676</ele><time>2024-06-21T06:01:05Z</time></trkpt>
    <trkpt lat="48.56849" lon="14.44636"><ele>672</ele><time>2024-06-21T06:01:35Z</time></trkpt>
    <trkpt lat="48.56916" lon="14.44662"><ele>710</ele><time>2024-06-21T06:02:34Z</time></trkpt>
    <trkpt lat="48.56932" lon="14.44686"><ele>718</ele><time>2024-06-21T06:03:05Z</time></trkpt>
    <trkpt lat="48.56940" lon="14.44711"><ele>706</ele><time>2024-06-21T06:03:35Z</time></trkpt>
    <trkpt lat="48.56974" lon="14.44703"><ele>668</ele><time>2024-06-21T06:04:05Z</time></trkpt>
    <trkpt lat="48.57015" lon="14.44794"><ele>707</ele><time>2024-06-21T06:05:05Z</time></trkpt>
    <trkpt lat="48.57047" lon="14.44888"><ele>684</ele><time>2024-06-21T06:05:35Z</time></trkpt>
    <trkpt lat="48.57108" lon="14.44853"><ele>673</ele><time>2024-06-21T06:06:05Z</time></trkpt>
    <trkpt lat="48.57119" lon="14.44932"><ele>672</ele><time>2024-06-21T06:06:35Z</time></trkpt>
    <trkpt lat="48.57112" lon="14.45062"><ele>682</ele><time>2024-06-21T06:07:05Z</time></trkpt>
    <trkpt lat="48.57235" lon="14.45050"><ele>673</ele><time>2024-06-21T06:07:35Z</time></trkpt>
    <trkpt lat="48.57222" lon="14.45115"><ele>672</ele><time>2024-06-21T06:08:05Z</time></trkpt>
    <trkpt lat="48.57159" lon="14.45170"><ele>681</ele><time>2024-06-21T06:08:35Z</time></trkpt>
    <trkpt lat="48.57119" lon="14.45246"><ele>683</ele><time>2024-06-21T06:09:05Z</time></trkpt>
    <trkpt lat="48.57094" lon="14.45386"><ele>702</ele><time>2024-06-21T06:09:44Z</time></trkpt>
    <trkpt lat="48.57070" lon="14.45527"><ele>697</ele><time>2024-06-21T06:10:15Z</time></trkpt>
    <trkpt lat="48.57015" lon="14.45748"><ele>680</ele><time>2024-06-21T06:11:14Z</time></trkpt>
    <trkpt lat="48.56966" lon="14.45883"><ele>680</ele><time>2024-06-21T06:11:44Z</time></trkpt>
    <trkpt lat="48.56868" lon="14.46200"><ele>683</ele><time>2024-06-21T06:12:44Z</time></trkpt>
    <trkpt lat="48.56814" lon="14.46361"><ele>698</ele><time>2024-06-21T06:13:14Z</time></trkpt>
    <trkpt lat="48.56804" lon="14.46491"><ele>700</ele><time>2024-06-21T06:13:44Z</time></trkpt>
    <trkpt lat="48.56792" lon="14.46596"><ele>703</ele><time>2024-06-21T06:14:14Z</time></trkpt>
    <trkpt lat="48.56773" lon="14.46723"><ele>706</ele><time>2024-06-21T06:14:44Z</time></trkpt>
    <trkpt lat="48.56759" lon="14.46838"><ele>708</ele><time>2024-06-21T06:15:14Z</time></trkpt>
    <trkpt lat="48.56818" lon="14.46772"><ele>708</ele><time>2024-06-21T06:16:14Z</time></trkpt>
    <trkpt lat="48.56803" lon="14.46783"><ele>708</ele><time>2024-06-21T06:16:44Z</time></trkpt>
    <trkpt lat="48.56779" lon="14.46899"><ele>707</ele><time>2024-06-21T06:17:14Z</time></trkpt>
    <trkpt lat="48.56870" lon="14.46790"><ele>709</ele><time>2024-06-21T06:17:44Z</time></trkpt>
    <trkpt lat="48.56931" lon="14.46868"><ele>706</ele><time>2024-06-21T06:18:14Z</time></trkpt>
    <trkpt lat="48.57033" lon="14.46846"><ele>706</ele><time>2024-06-21T06:18:44Z</time></trkpt>
    <trkpt lat="48.57135" lon="14.46797"><ele>706</ele><time>2024-06-21T06:19:14Z</time></trkpt>
    <trkpt lat="48.57211" lon="14.46751"><ele>709</ele><time>2024-06-21T06:19:44Z</time></trkpt>
    <trkpt lat="48.57278" lon="14.46696"><ele>710</ele><time>2024-06-21T06:20:14Z</time></trkpt>
    <trkpt lat="48.57359" lon="14.46620"><ele>711</ele><time>2024-06-21T06:20:44Z</time></trkpt>
    <trkpt lat="48.57440" lon="14.46560"><ele>712</ele><time>2024-06-21T06:21:14Z</time></trkpt>
    <trkpt lat="48.57510" lon="14.46570"><ele>708</ele><time>2024-06-21T06:21:44Z</time></trkpt>
    <trkpt lat="48.57567" lon="14.46590"><ele>710</ele><time>2024-06-21T06:22:14Z</time></trkpt>
    <trkpt lat="48.57639" lon="14.46586"><ele>695</ele><time>2024-06-21T06:22:44Z</time></trkpt>
    <trkpt lat="48.57700" lon="14.46575"><ele>705</ele><time>2024-06-21T06:23:14Z</time></trkpt>
    <trkpt lat="48.57743" lon="14.46579"><ele>698</ele><time>2024-06-21T06:23:44Z</time></trkpt>
    <trkpt lat="48.57737" lon="14.46655"><ele>695</ele><time>2024-06-21T06:24:14Z</time></trkpt>
    <trkpt lat="48.57712" lon="14.46767"><ele>704</ele><time>2024-06-21T06:24:44Z</time></trkpt>
    <trkpt lat="48.57734" lon="14.46865"><ele>698</ele><time>2024-06-21T06:25:14Z</time></trkpt>
    <trkpt lat="48.57831" lon="14.46915"><ele>706</ele><time>2024-06-21T06:25:44Z</time></trkpt>
    <trkpt lat="48.57869" lon="14.46923"><ele>712</ele><time>2024-06-21T06:26:14Z</time></trkpt>
    <trkpt lat="48.57976" lon="14.46939"><ele>713</ele><time>2024-06-21T06:30:15Z</time></trkpt>
    <trkpt lat="48.58060" lon="14.46940"><ele>729</ele><time>2024-06-21T06:30:45Z</time></trkpt>
    <trkpt lat="48.58153" lon="14.46944"><ele>721</ele><time>2024-06-21T06:31:15Z</time></trkpt>
    <trkpt lat="48.58273" lon="14.46960"><ele>721</ele><time>2024-06-21T06:31:45Z</time></trkpt>
    <trkpt lat="48.58415" lon="14.46915"><ele>718</ele><time>2024-06-21T06:32:15Z</time></trkpt>
    <trkpt lat="48.58511" lon="14.46965"><ele>717</ele><time>2024-06-21T06:32:45Z</time></trkpt>
    <trkpt lat="48.58504" lon="14.47066"><ele>720</ele><time>2024-06-21T06:33:15Z</time></trkpt>
    <trkpt lat="48.58539" lon="14.47177"><ele>721</ele><time>2024-06-21T06:37:18Z</time></trkpt>
    <trkpt lat="48.58564" lon="14.47204"><ele>718</ele><time>2024-06-21T06:37:48Z</time></trkpt>
    <trkpt lat="48.58585" lon="14.47377"><ele>718</ele><time>2024-06-21T06:38:18Z</time></trkpt>
    <trkpt lat="48.58711" lon="14.47451"><ele>712</ele><time>2024-06-21T06:38:48Z</time></trkpt>
    <trkpt lat="48.58774" lon="14.47312"><ele>712</ele><time>2024-06-21T06:39:18Z</time></trkpt>
    <trkpt lat="48.58878" lon="14.47362"><ele>714</ele><time>2024-06-21T06:40:09Z</time></trkpt>
    <trkpt lat="48.58943" lon="14.47389"><ele>726</ele><time>2024-06-21T06:40:39Z</time></trkpt>
    <trkpt lat="48.58999" lon="14.47412"><ele>739</ele><time>2024-06-21T06:41:10Z</time></trkpt>
    <trkpt lat="48.59080" lon="14.47425"><ele>734</ele><time>2024-06-21T06:41:40Z</time></trkpt>
    <trkpt lat="48.59200" lon="14.47452"><ele>729</ele><time>2024-06-21T06:42:10Z</time></trkpt>
    <trkpt lat="48.59277" lon="14.47520"><ele>742</ele><time>2024-06-21T06:42:40Z</time></trkpt>
    <trkpt lat="48.59340" lon="14.47547"><ele>734</ele><time>2024-06-21T06:43:10Z</time></trkpt>
    <trkpt lat="48.59475" lon="14.47661"><ele>721</ele><time>2024-06-21T06:43:40Z</time></trkpt>
    <trkpt lat="48.59573" lon="14.47712"><ele>721</ele><time>2024-06-21T06:44:10Z</time></trkpt>
    <trkpt lat="48.59692" lon="14.47706"><ele>717</ele><time>2024-06-21T06:44:40Z</time></trkpt>
    <trkpt lat="48.59707" lon="14.47714"><ele>722</ele><time>2024-06-21T06:49:25Z</time></trkpt>
    <trkpt lat="48.59708" lon="14.47729"><ele>716</ele><time>2024-06-21T06:52:26Z</time></trkpt>
    <trkpt lat="48.59680" lon="14.47838"><ele>717</ele><time>2024-06-21T06:52:56Z</time></trkpt>
    <trkpt lat="48.59728" lon="14.47942"><ele>714</ele><time>2024-06-21T06:53:26Z</time></trkpt>
    <trkpt lat="48.59830" lon="14.48016"><ele>716</ele><time>2024-06-21T06:53:56Z</time></trkpt>
    <trkpt lat="48.59770" lon="14.48174"><ele>713</ele><time>2024-06-21T06:54:26Z</time></trkpt>
    <trkpt lat="48.59716" lon="14.48382"><ele>714</ele><time>2024-06-21T06:54:56Z</time></trkpt>
    <trkpt lat="48.59737" lon="14.48610"><ele>718</ele><time>2024-06-21T06:55:26Z</time></trkpt>
    <trkpt lat="48.59772" lon="14.48919"><ele>715</ele><time>2024-06-21T06:55:56Z</time></trkpt>
    <trkpt lat="48.59715" lon="14.48980"><ele>719</ele><time>2024-06-21T06:56:26Z</time></trkpt>
    <trkpt lat="48.59637" lon="14.49142"><ele>719</ele><time>2024-06-21T06:56:56Z</time></trkpt>
    <trkpt lat="48.59605" lon="14.49366"><ele>721</ele><time>2024-06-21T06:57:26Z</time></trkpt>
    <trkpt lat="48.59595" lon="14.49529"><ele>724</ele><time>2024-06-21T06:57:56Z</time></trkpt>
    <trkpt lat="48.59635" lon="14.49599"><ele>730</ele><time>2024-06-21T06:58:26Z</time></trkpt>
    <trkpt lat="48.59670" lon="14.49670"><ele>733</ele><time>2024-06-21T06:58:56Z</time></trkpt>
    <trkpt lat="48.59697" lon="14.49759"><ele>741</ele><time>2024-06-21T06:59:26Z</time></trkpt>
    <trkpt lat="48.59716" lon="14.49839"><ele>744</ele><time>2024-06-21T06:59:56Z</time></trkpt>
    <trkpt lat="48.59737" lon="14.49905"><ele>749</ele><time>2024-06-21T07:00:26Z</time></trkpt>
    <trkpt lat="48.59740" lon="14.49984"><ele>751</ele><time>2024-06-21T07:00:56Z</time></trkpt>
    <trkpt lat="48.59756" lon="14.50074"><ele>750</ele><time>2024-06-21T07:01:26Z</time></trkpt>
    <trkpt lat="48.59782" lon="14.50150"><ele>754</ele><time>2024-06-21T07:01:56Z</time></trkpt>
    <trkpt lat="48.59796" lon="14.50233"><ele>760</ele><time>2024-06-21T07:02:26Z</time></trkpt>
    <trkpt lat="48.59845" lon="14.50309"><ele>779</ele><time>2024-06-21T07:03:08Z</time></trkpt>
    <trkpt lat="48.59854" lon="14.50355"><ele>799</ele><time>2024-06-21T07:03:38Z</time></trkpt>
    <trkpt lat="48.59896" lon="14.50422"><ele>785</ele><time>2024-06-21T07:04:08Z</time></trkpt>
    <trkpt lat="48.59908" lon="14.50511"><ele>797</ele><time>2024-06-21T07:05:08Z</time></trkpt>
    <trkpt lat="48.59968" lon="14.50565"><ele>805</ele><time>2024-06-21T07:06:04Z</time></trkpt>
    <trkpt lat="48.59963" lon="14.50600"><ele>836</ele><time>2024-06-21T07:06:34Z</time></trkpt>
    <trkpt lat="48.59961" lon="14.50709"><ele>901</ele><time>2024-06-21T07:07:05Z</time></trkpt>
    <trkpt lat="48.59945" lon="14.50805"><ele>821</ele><time>2024-06-21T07:08:04Z</time></trkpt>
    <trkpt lat="48.59954" lon="14.50825"><ele>825</ele><time>2024-06-21T07:08:34Z</time></trkpt>
    <trkpt lat="48.59962" lon="14.50860"><ele>825</ele><time>2024-06-21T07:09:04Z</time></trkpt>
    <trkpt lat="48.59978" lon="14.50871"><ele>814</ele><time>2024-06-21T07:09:34Z</time></trkpt>
    <trkpt lat="48.59995" lon="14.50887"><ele>830</ele><time>2024-06-21T07:10:34Z</time></trkpt>
    <trkpt lat="48.60019" lon="14.50903"><ele>828</ele><time>2024-06-21T07:11:04Z</time></trkpt>
    <trkpt lat="48.60043" lon="14.50916"><ele>837</ele><time>2024-06-21T07:11:34Z</time></trkpt>
    <trkpt lat="48.60053" lon="14.50924"><ele>847</ele><time>2024-06-21T07:12:04Z</time></trkpt>
    <trkpt lat="48.60072" lon="14.50923"><ele>852</ele><time>2024-06-21T07:12:34Z</time></trkpt>
    <trkpt lat="48.60092" lon="14.50925"><ele>859</ele><time>2024-06-21T07:13:04Z</time></trkpt>
    <trkpt lat="48.60111" lon="14.50965"><ele>885</ele><time>2024-06-21T07:13:55Z</time></trkpt>
    <trkpt lat="48.60135" lon="14.50996"><ele>830</ele><time>2024-06-21T07:14:25Z</time></trkpt>
    <trkpt lat="48.60140" lon="14.51025"><ele>864</ele><time>2024-06-21T07:14:55Z</time></trkpt>
    <trkpt lat="48.60143" lon="14.51051"><ele>878</ele><time>2024-06-21T07:15:25Z</time></trkpt>
    <trkpt lat="48.60140" lon="14.51064"><ele>891</ele><time>2024-06-21T07:16:55Z</time></trkpt>
    <trkpt lat="48.60119" lon="14.51032"><ele>877</ele><time>2024-06-21T07:20:54Z</time></trkpt>
    <trkpt lat="48.60059" lon="14.50944"><ele>824</ele><time>2024-06-21T07:21:25Z</time></trkpt>
    <trkpt lat="48.59985" lon="14.50892"><ele>822</ele><time>2024-06-21T07:21:55Z</time></trkpt>
    <trkpt lat="48.59928" lon="14.50872"><ele>854</ele><time>2024-06-21T07:22:47Z</time></trkpt>
    <trkpt lat="48.59917" lon="14.50913"><ele>829</ele><time>2024-06-21T07:23:17Z</time></trkpt>
    <trkpt lat="48.59893" lon="14.51034"><ele>835</ele><time>2024-06-21T07:24:10Z</time></trkpt>
    <trkpt lat="48.59894" lon="14.51144"><ele>844</ele><time>2024-06-21T07:24:47Z</time></trkpt>
    <trkpt lat="48.59869" lon="14.51254"><ele>837</ele><time>2024-06-21T07:25:18Z</time></trkpt>
    <trkpt lat="48.59838" lon="14.51352"><ele>835</ele><time>2024-06-21T07:25:48Z</time></trkpt>
    <trkpt lat="48.59823" lon="14.51532"><ele>838</ele><time>2024-06-21T07:26:18Z</time></trkpt>
    <trkpt lat="48.59773" lon="14.51630"><ele>840</ele><time>2024-06-21T07:26:48Z</time></trkpt>
    <trkpt lat="48.59732" lon="14.51715"><ele>840</ele><time>2024-06-21T07:27:18Z</time></trkpt>
    <trkpt lat="48.59614" lon="14.51725"><ele>822</ele><time>2024-06-21T07:27:48Z</time></trkpt>
    <trkpt lat="48.59603" lon="14.51729"><ele>827</ele><time>2024-06-21T07:28:18Z</time></trkpt>
    <trkpt lat="48.59561" lon="14.51728"><ele>822</ele><time>2024-06-21T07:28:48Z</time></trkpt>
    <trkpt lat="48.59498" lon="14.51696"><ele>818</ele><time>2024-06-21T07:29:18Z</time></trkpt>
    <trkpt lat="48.59429" lon="14.51774"><ele>819</ele><time>2024-06-21T07:29:48Z</time></trkpt>
    <trkpt lat="48.59295" lon="14.51824"><ele>751</ele><time>2024-06-21T07:30:18Z</time></trkpt>
    <trkpt lat="48.59275" lon="14.51868"><ele>807</ele><time>2024-06-21T07:30:48Z</time></trkpt>
    <trkpt lat="48.59283" lon="14.51954"><ele>800</ele><time>2024-06-21T07:31:18Z</time></trkpt>
    <trkpt lat="48.59245" lon="14.52115"><ele>797</ele><time>2024-06-21T07:31:48Z</time></trkpt>
    <trkpt lat="48.59229" lon="14.52293"><ele>769</ele><time>2024-06-21T07:32:18Z</time></trkpt>
    <trkpt lat="48.59236" lon="14.52388"><ele>774</ele><time>2024-06-21T07:32:48Z</time></trkpt>
    <trkpt lat="48.59236" lon="14.52402"><ele>769</ele><time>2024-06-21T07:33:48Z</time></trkpt>
    <trkpt lat="48.59211" lon="14.52623"><ele>770</ele><time>2024-06-21T07:34:18Z</time></trkpt>
    <trkpt lat="48.59129" lon="14.52682"><ele>759</ele><time>2024-06-21T07:34:48Z</time></trkpt>
    <trkpt lat="48.59198" lon="14.52678"><ele>762</ele><time>2024-06-21T07:35:18Z</time></trkpt>
    <trkpt lat="48.59268" lon="14.52840"><ele>757</ele><time>2024-06-21T07:35:48Z</time></trkpt>
    <trkpt lat="48.59384" lon="14.52861"><ele>752</ele><time>2024-06-21T07:36:18Z</time></trkpt>
    <trkpt lat="48.59484" lon="14.52930"><ele>748</ele><time>2024-06-21T07:36:48Z</time></trkpt>
    <trkpt lat="48.59726" lon="14.52982"><ele>741</ele><time>2024-06-21T07:37:18Z</time></trkpt>
    <trkpt lat="48.59716" lon="14.53032"><ele>722</ele><time>2024-06-21T07:37:48Z</time></trkpt>
    <trkpt lat="48.59846" lon="14.53094"><ele>707</ele><time>2024-06-21T07:38:18Z</time></trkpt>
    <trkpt lat="48.59866" lon="14.53108"><ele>697</ele><time>2024-06-21T07:39:11Z</time></trkpt>
    <trkpt lat="48.59878" lon="14.53105"><ele>696</ele><time>2024-06-21T07:41:42Z</time></trkpt>
    <trkpt lat="48.59927" lon="14.53110"><ele>696</ele><time>2024-06-21T07:42:42Z</time></trkpt>
    <trkpt lat="48.59954" lon="14.53086"><ele>701</ele><time>2024-06-21T07:44:10Z</time></trkpt>
    <trkpt lat="48.60130" lon="14.53132"><ele>682</ele><time>2024-06-21T07:44:40Z</time></trkpt>
    <trkpt lat="48.60338" lon="14.53126"><ele>667</ele><time>2024-06-21T07:45:41Z</time></trkpt>
    <trkpt lat="48.60371" lon="14.53078"><ele>654</ele><time>2024-06-21T07:47:36Z</time></trkpt>
    <trkpt lat="48.60473" lon="14.52918"><ele>655</ele><time>2024-06-21T07:48:06Z</time></trkpt>
    <trkpt lat="48.60502" lon="14.53077"><ele>652</ele><time>2024-06-21T07:48:36Z</time></trkpt>
    <trkpt lat="48.60549" lon="14.53127"><ele>658</ele><time>2024-06-21T07:49:06Z</time></trkpt>
    <trkpt lat="48.60593" lon="14.53155"><ele>662</ele><time>2024-06-21T07:49:36Z</time></trkpt>
    <trkpt lat="48.60598" lon="14.53247"><ele>668</ele><time>2024-06-21T07:50:06Z</time></trkpt>
    <trkpt lat="48.60602" lon="14.53368"><ele>671</ele><time>2024-06-21T07:50:36Z</time></trkpt>
    <trkpt lat="48.60635" lon="14.53444"><ele>676</ele><time>2024-06-21T07:51:06Z</time></trkpt>
    <trkpt lat="48.60656" lon="14.53526"><ele>677</ele><time>2024-06-21T07:51:36Z</time></trkpt>
    <trkpt lat="48.60672" lon="14.53702"><ele>676</ele><time>2024-06-21T07:52:06Z</time></trkpt>
    <trkpt lat="48.60693" lon="14.53904"><ele>673</ele><time>2024-06-21T07:52:36Z</time></trkpt>
    <trkpt lat="48.60727" lon="14.54092"><ele>671</ele><time>2024-06-21T07:53:06Z</time></trkpt>
    <trkpt lat="48.60734" lon="14.54286"><ele>666</ele><time>2024-06-21T07:53:36Z</time></trkpt>
    <trkpt lat="48.60760" lon="14.54370"><ele>674</ele><time>2024-06-21T07:54:06Z</time></trkpt>
    <trkpt lat="48.60810" lon="14.54457"><ele>677</ele><time>2024-06-21T07:54:36Z</time></trkpt>
    <trkpt lat="48.60878" lon="14.54536"><ele>681</ele><time>2024-06-21T07:55:06Z</time></trkpt>
    <trkpt lat="48.61017" lon="14.54720"><ele>673</ele><time>2024-06-21T07:55:36Z</time></trkpt>
    <trkpt lat="48.61238" lon="14.54651"><ele>658</ele><time>2024-06-21T07:56:06Z</time></trkpt>
    <trkpt lat="48.61358" lon="14.54452"><ele>650</ele><time>2024-06-21T07:56:36Z</time></trkpt>
    <trkpt lat="48.61399" lon="14.54475"><ele>649</ele><time>2024-06-21T07:57:34Z</time></trkpt>
    <trkpt lat="48.61406" lon="14.54518"><ele>656</ele><time>2024-06-21T08:00:34Z</time></trkpt>
    <trkpt lat="48.61464" lon="14.54612"><ele>658</ele><time>2024-06-21T08:01:04Z</time></trkpt>
    <trkpt lat="48.61520" lon="14.54738"><ele>657</ele><time>2024-06-21T08:01:34Z</time></trkpt>
    <trkpt lat="48.61516" lon="14.54915"><ele>656</ele><time>2024-06-21T08:02:04Z</time></trkpt>
    <trkpt lat="48.61485" lon="14.55025"><ele>654</ele><time>2024-06-21T08:02:34Z</time></trkpt>
    <trkpt lat="48.61401" lon="14.55052"><ele>651</ele><time>2024-06-21T08:04:34Z</time></trkpt>
    <trkpt lat="48.61321" lon="14.54996"><ele>651</ele><time>2024-06-21T08:05:04Z</time></trkpt>
    <trkpt lat="48.61182" lon="14.55063"><ele>643</ele><time>2024-06-21T08:05:34Z</time></trkpt>
    <trkpt lat="48.61096" lon="14.55158"><ele>645</ele><time>2024-06-21T08:06:04Z</time></trkpt>
    <trkpt lat="48.60956" lon="14.55194"><ele>647</ele><time>2024-06-21T08:06:34Z</time></trkpt>
    <trkpt lat="48.60851" lon="14.55229"><ele>657</ele><time>2024-06-21T08:07:04Z</time></trkpt>
    <trkpt lat="48.60770" lon="14.55292"><ele>659</ele><time>2024-06-21T08:07:34Z</time></trkpt>
    <trkpt lat="48.60653" lon="14.55396"><ele>671</ele><time>2024-06-21T08:08:18Z</time></trkpt>
    <trkpt lat="48.60616" lon="14.55614"><ele>676</ele><time>2024-06-21T08:08:49Z</time></trkpt>
    <trkpt lat="48.60631" lon="14.55719"><ele>653</ele><time>2024-06-21T08:09:19Z</time></trkpt>
    <trkpt lat="48.60438" lon="14.55996"><ele>678</ele><time>2024-06-21T08:10:18Z</time></trkpt>
    <trkpt lat="48.60380" lon="14.56170"><ele>665</ele><time>2024-06-21T08:10:49Z</time></trkpt>
    <trkpt lat="48.60356" lon="14.56264"><ele>676</ele><time>2024-06-21T08:11:19Z</time></trkpt>
    <trkpt lat="48.60361" lon="14.56317"><ele>673</ele><time>2024-06-21T08:11:49Z</time></trkpt>
    <trkpt lat="48.60403" lon="14.56367"><ele>677</ele><time>2024-06-21T08:12:19Z</time></trkpt>
    <trkpt lat="48.60462" lon="14.56401"><ele>651</ele><time>2024-06-21T08:12:54Z</time></trkpt>
    <trkpt lat="48.60543" lon="14.56424"><ele>689</ele><time>2024-06-21T08:13:24Z</time></trkpt>
    <trkpt lat="48.60631" lon="14.56416"><ele>677</ele><time>2024-06-21T08:13:54Z</time></trkpt>
    <trkpt lat="48.60728" lon="14.56411"><ele>672</ele><time>2024-06-21T08:14:24Z</time></trkpt>
    <trkpt lat="48.60795" lon="14.56440"><ele>681</ele><time>2024-06-21T08:14:54Z</time></trkpt>
    <trkpt lat="48.60825" lon="14.56528"><ele>686</ele><time>2024-06-21T08:15:24Z</time></trkpt>
    <trkpt lat="48.60829" lon="14.56561"><ele>691</ele><time>2024-06-21T08:16:23Z</time></trkpt>
    <trkpt lat="48.60822" lon="14.56675"><ele>670</ele><time>2024-06-21T08:18:23Z</time></trkpt>
    <trkpt lat="48.60830" lon="14.56707"><ele>684</ele><time>2024-06-21T08:18:53Z</time></trkpt>
    <trkpt lat="48.60812" lon="14.56719"><ele>695</ele><time>2024-06-21T08:19:25Z</time></trkpt>
    <trkpt lat="48.60852" lon="14.56806"><ele>718</ele><time>2024-06-21T08:20:24Z</time></trkpt>
    <trkpt lat="48.60917" lon="14.56834"><ele>675</ele><time>2024-06-21T08:20:54Z</time></trkpt>
    <trkpt lat="48.60930" lon="14.56887"><ele>713</ele><time>2024-06-21T08:21:25Z</time></trkpt>
    <trkpt lat="48.60940" lon="14.56886"><ele>725</ele><time>2024-06-21T08:22:26Z</time></trkpt>
    <trkpt lat="48.60937" lon="14.56799"><ele>689</ele><time>2024-06-21T08:23:25Z</time></trkpt>
    <trkpt lat="48.60941" lon="14.56820"><ele>712</ele><time>2024-06-21T08:24:25Z</time></trkpt>
    <trkpt lat="48.60948" lon="14.56832"><ele>712</ele><time>2024-06-21T08:27:25Z</time></trkpt>
    <trkpt lat="48.61012" lon="14.56935"><ele>693</ele><time>2024-06-21T08:28:55Z</time></trkpt>
    <trkpt lat="48.61025" lon="14.56940"><ele>686</ele><time>2024-06-21T08:29:25Z</time></trkpt>
    <trkpt lat="48.60999" lon="14.56977"><ele>732</ele><time>2024-06-21T08:34:36Z</time></trkpt>
    <trkpt lat="48.60981" lon="14.57101"><ele>751</ele><time>2024-06-21T08:35:35Z</time></trkpt>
    <trkpt lat="48.60976" lon="14.57136"><ele>717</ele><time>2024-06-21T08:36:05Z</time></trkpt>
    <trkpt lat="48.61058" lon="14.57185"><ele>709</ele><time>2024-06-21T08:36:35Z</time></trkpt>
    <trkpt lat="48.61126" lon="14.57234"><ele>712</ele><time>2024-06-21T08:37:05Z</time></trkpt>
    <trkpt lat="48.61133" lon="14.57322"><ele>709</ele><time>2024-06-21T08:37:35Z</time></trkpt>
    <trkpt lat="48.61094" lon="14.57506"><ele>718</ele><time>2024-06-21T08:38:31Z</time></trkpt>
    <trkpt lat="48.61152" lon="14.57604"><ele>714</ele><time>2024-06-21T08:39:02Z</time></trkpt>
    <trkpt lat="48.61205" lon="14.57661"><ele>726</ele><time>2024-06-21T08:39:32Z</time></trkpt>
    <trkpt lat="48.61282" lon="14.57634"><ele>718</ele><time>2024-06-21T08:40:04Z</time></trkpt>
    <trkpt lat="48.61314" lon="14.57712"><ele>721</ele><time>2024-06-21T08:40:34Z</time></trkpt>
    <trkpt lat="48.61365" lon="14.57757"><ele>771</ele><time>2024-06-21T08:41:05Z</time></trkpt>
    <trkpt lat="48.61486" lon="14.57884"><ele>722</ele><time>2024-06-21T08:42:03Z</time></trkpt>
    <trkpt lat="48.61501" lon="14.57997"><ele>723</ele><time>2024-06-21T08:42:33Z</time></trkpt>
    <trkpt lat="48.61576" lon="14.58003"><ele>721</ele><time>2024-06-21T08:43:03Z</time></trkpt>
    <trkpt lat="48.61629" lon="14.58062"><ele>717</ele><time>2024-06-21T08:43:33Z</time></trkpt>
    <trkpt lat="48.61645" lon="14.58145"><ele>725</ele><time>2024-06-21T08:44:03Z</time></trkpt>
    <trkpt lat="48.61644" lon="14.58250"><ele>726</ele><time>2024-06-21T08:44:33Z</time></trkpt>
    <trkpt lat="48.61617" lon="14.58317"><ele>731</ele><time>2024-06-21T08:45:03Z</time></trkpt>
    <trkpt lat="48.61670" lon="14.58383"><ele>728</ele><time>2024-06-21T08:45:33Z</time></trkpt>
    <trkpt lat="48.61718" lon="14.58425"><ele>725</ele><time>2024-06-21T08:46:03Z</time></trkpt>
    <trkpt lat="48.61748" lon="14.58490"><ele>728</ele><time>2024-06-21T08:46:33Z</time></trkpt>
    <trkpt lat="48.61772" lon="14.58561"><ele>691</ele><time>2024-06-21T08:47:03Z</time></trkpt>
    <trkpt lat="48.61769" lon="14.58635"><ele>729</ele><time>2024-06-21T08:47:33Z</time></trkpt>
    <trkpt lat="48.61749" lon="14.58710"><ele>734</ele><time>2024-06-21T08:48:03Z</time></trkpt>
    <trkpt lat="48.61719" lon="14.58707"><ele>744</ele><time>2024-06-21T08:48:33Z</time></trkpt>
    <trkpt lat="48.61689" lon="14.58766"><ele>746</ele><time>2024-06-21T08:49:03Z</time></trkpt>
    <trkpt lat="48.61687" lon="14.58935"><ele>747</ele><time>2024-06-21T08:49:33Z</time></trkpt>
    <trkpt lat="48.61760" lon="14.59123"><ele>743</ele><time>2024-06-21T08:50:03Z</time></trkpt>
    <trkpt lat="48.61740" lon="14.59318"><ele>753</ele><time>2024-06-21T08:50:55Z</time></trkpt>
    <trkpt lat="48.61723" lon="14.59400"><ele>770</ele><time>2024-06-21T08:51:25Z</time></trkpt>
    <trkpt lat="48.61668" lon="14.59530"><ele>773</ele><time>2024-06-21T08:52:24Z</time></trkpt>
    <trkpt lat="48.61635" lon="14.59617"><ele>782</ele><time>2024-06-21T08:52:54Z</time></trkpt>
    <trkpt lat="48.61603" lon="14.59687"><ele>748</ele><time>2024-06-21T08:53:24Z</time></trkpt>
    <trkpt lat="48.61568" lon="14.59758"><ele>784</ele><time>2024-06-21T08:53:54Z</time></trkpt>
    <trkpt lat="48.61478" lon="14.59919"><ele>785</ele><time>2024-06-21T08:54:47Z</time></trkpt>
    <trkpt lat="48.61387" lon="14.60053"><ele>795</ele><time>2024-06-21T08:55:17Z</time></trkpt>
    <trkpt lat="48.61338" lon="14.59960"><ele>794</ele><time>2024-06-21T08:55:47Z</time></trkpt>
    <trkpt lat="48.61330" lon="14.59821"><ele>800</ele><time>2024-06-21T08:56:17Z</time></trkpt>
    <trkpt lat="48.61325" lon="14.59753"><ele>804</ele><time>2024-06-21T08:56:47Z</time></trkpt>
    <trkpt lat="48.61187" lon="14.59864"><ele>816</ele><time>2024-06-21T08:58:04Z</time></trkpt>
    <trkpt lat="48.61148" lon="14.59897"><ele>709</ele><time>2024-06-21T08:58:34Z</time></trkpt>
    <trkpt lat="48.61111" lon="14.59914"><ele>799</ele><time>2024-06-21T08:59:04Z</time></trkpt>
    <trkpt lat="48.61068" lon="14.59970"><ele>840</ele><time>2024-06-21T08:59:34Z</time></trkpt>
    <trkpt lat="48.61020" lon="14.60000"><ele>839</ele><time>2024-06-21T09:00:04Z</time></trkpt>
    <trkpt lat="48.60926" lon="14.60042"><ele>831</ele><time>2024-06-21T09:01:01Z</time></trkpt>
    <trkpt lat="48.60891" lon="14.60116"><ele>856</ele><time>2024-06-21T09:01:31Z</time></trkpt>
    <trkpt lat="48.60859" lon="14.60216"><ele>857</ele><time>2024-06-21T09:02:01Z</time></trkpt>
    <trkpt lat="48.60828" lon="14.60349"><ele>855</ele><time>2024-06-21T09:02:31Z</time></trkpt>
    <trkpt lat="48.60783" lon="14.60446"><ele>859</ele><time>2024-06-21T09:03:01Z</time></trkpt>
    <trkpt lat="48.60768" lon="14.60395"><ele>865</ele><time>2024-06-21T09:03:31Z</time></trkpt>
    <trkpt lat="48.60774" lon="14.60315"><ele>871</ele><time>2024-06-21T09:04:01Z</time></trkpt>
    <trkpt lat="48.60750" lon="14.60223"><ele>883</ele><time>2024-06-21T09:04:36Z</time></trkpt>
    <trkpt lat="48.60733" lon="14.60130"><ele>913</ele><time>2024-06-21T09:05:06Z</time></trkpt>
    <trkpt lat="48.60729" lon="14.60157"><ele>777</ele><time>2024-06-21T09:05:36Z</time></trkpt>
    <trkpt lat="48.60709" lon="14.60250"><ele>873</ele><time>2024-06-21T09:06:06Z</time></trkpt>
    <trkpt lat="48.60692" lon="14.60346"><ele>889</ele><time>2024-06-21T09:06:36Z</time></trkpt>
    <trkpt lat="48.60673" lon="14.60264"><ele>896</ele><time>2024-06-21T09:07:06Z</time></trkpt>
    <trkpt lat="48.60658" lon="14.60086"><ele>890</ele><time>2024-06-21T09:08:06Z</time></trkpt>
    <trkpt lat="48.60655" lon="14.60072"><ele>913</ele><time>2024-06-21T09:08:36Z</time></trkpt>
    <trkpt lat="48.60662" lon="14.60058"><ele>917</ele><time>2024-06-21T09:09:06Z</time></trkpt>
    <trkpt lat="48.60664" lon="14.60004"><ele>904</ele><time>2024-06-21T09:09:36Z</time></trkpt>
    <trkpt lat="48.60622" lon="14.60014"><ele>905</ele><time>2024-06-21T09:10:06Z</time></trkpt>
    <trkpt lat="48.60603" lon="14.60035"><ele>881</ele><time>2024-06-21T09:10:36Z</time></trkpt>
    <trkpt lat="48.60571" lon="14.60031"><ele>918</ele><time>2024-06-21T09:17:39Z</time></trkpt>
    <trkpt lat="48.60565" lon="14.60004"><ele>916</ele><time>2024-06-21T09:18:09Z</time></trkpt>
    <trkpt lat="48.60497" lon="14.59945"><ele>895</ele><time>2024-06-21T09:18:48Z</time></trkpt>
    <trkpt lat="48.60474" lon="14.59890"><ele>698</ele><time>2024-06-21T09:19:19Z</time></trkpt>
    <trkpt lat="48.60389" lon="14.59888"><ele>914</ele><time>2024-06-21T09:19:49Z</time></trkpt>
    <trkpt lat="48.60340" lon="14.59867"><ele>853</ele><time>2024-06-21T09:20:19Z</time></trkpt>
    <trkpt lat="48.60274" lon="14.59962"><ele>922</ele><time>2024-06-21T09:21:12Z</time></trkpt>
    <trkpt lat="48.60244" lon="14.60035"><ele>940</ele><time>2024-06-21T09:21:42Z</time></trkpt>
    <trkpt lat="48.60225" lon="14.60081"><ele>934</ele><time>2024-06-21T09:22:12Z</time></trkpt>
    <trkpt lat="48.60180" lon="14.60166"><ele>932</ele><time>2024-06-21T09:22:58Z</time></trkpt>
    <trkpt lat="48.60133" lon="14.60180"><ele>947</ele><time>2024-06-21T09:23:28Z</time></trkpt>
    <trkpt lat="48.60086" lon="14.60205"><ele>939</ele><time>2024-06-21T09:23:58Z</time></trkpt>
    <trkpt lat="48.60050" lon="14.60237"><ele>950</ele><time>2024-06-21T09:24:28Z</time></trkpt>
    <trkpt lat="48.60018" lon="14.60275"><ele>947</ele><time>2024-06-21T09:24:58Z</time></trkpt>
    <trkpt lat="48.59974" lon="14.60357"><ele>950</ele><time>2024-06-21T09:25:57Z</time></trkpt>
    <trkpt lat="48.59903" lon="14.60437"><ele>975</ele><time>2024-06-21T09:26:57Z</time></trkpt>
    <trkpt lat="48.59818" lon="14.60453"><ele>962</ele><time>2024-06-21T09:27:56Z</time></trkpt>
    <trkpt lat="48.59750" lon="14.60439"><ele>989</ele><time>2024-06-21T09:28:26Z</time></trkpt>
    <trkpt lat="48.59753" lon="14.60452"><ele>987</ele><time>2024-06-21T09:28:56Z</time></trkpt>
    <trkpt lat="48.59754" lon="14.60468"><ele>984</ele><time>2024-06-21T09:29:26Z</time></trkpt>
    <trkpt lat="48.59796" lon="14.60506"><ele>992</ele><time>2024-06-21T09:29:56Z</time></trkpt>
    <trkpt lat="48.59821" lon="14.60518"><ele>995</ele><time>2024-06-21T09:30:26Z</time></trkpt>
    <trkpt lat="48.59796" lon="14.60518"><ele>996</ele><time>2024-06-21T09:30:56Z</time></trkpt>
    <trkpt lat="48.59785" lon="14.60544"><ele>1002</ele><time>2024-06-21T09:31:26Z</time></trkpt>
    <trkpt lat="48.59788" lon="14.60579"><ele>999</ele><time>2024-06-21T09:31:56Z</time></trkpt>
    <trkpt lat="48.59793" lon="14.60591"><ele>1008</ele><time>2024-06-21T09:32:26Z</time></trkpt>
    <trkpt lat="48.59803" lon="14.60602"><ele>889</ele><time>2024-06-21T09:33:10Z</time></trkpt>
    <trkpt lat="48.59803" lon="14.60579"><ele>973</ele><time>2024-06-21T09:34:10Z</time></trkpt>
    <trkpt lat="48.59816" lon="14.60558"><ele>1005</ele><time>2024-06-21T09:35:10Z</time></trkpt>
    <trkpt lat="48.59824" lon="14.60565"><ele>852</ele><time>2024-06-21T09:37:40Z</time></trkpt>
    <trkpt lat="48.59814" lon="14.60572"><ele>1010</ele><time>2024-06-21T09:38:10Z</time></trkpt>
    <trkpt lat="48.59803" lon="14.60564"><ele>1023</ele><time>2024-06-21T09:39:16Z</time></trkpt>
    <trkpt lat="48.59819" lon="14.60550"><ele>998</ele><time>2024-06-21T09:40:16Z</time></trkpt>
    <trkpt lat="48.59813" lon="14.60577"><ele>1028</ele><time>2024-06-21T09:41:17Z</time></trkpt>
    <trkpt lat="48.59782" lon="14.60595"><ele>998</ele><time>2024-06-21T09:42:04Z</time></trkpt>
    <trkpt lat="48.59857" lon="14.60634"><ele>1016</ele><time>2024-06-21T09:43:04Z</time></trkpt>
    <trkpt lat="48.59891" lon="14.60623"><ele>1014</ele><time>2024-06-21T09:43:34Z</time></trkpt>
    <trkpt lat="48.59944" lon="14.60684"><ele>949</ele><time>2024-06-21T09:44:04Z</time></trkpt>
    <trkpt lat="48.59959" lon="14.60647"><ele>1023</ele><time>2024-06-21T09:44:35Z</time></trkpt>
    <trkpt lat="48.59958" lon="14.60676"><ele>1037</ele><time>2024-06-21T09:45:05Z</time></trkpt>
    <trkpt lat="48.59940" lon="14.60702"><ele>1017</ele><time>2024-06-21T09:46:03Z</time></trkpt>
    <trkpt lat="48.59947" lon="14.60717"><ele>742</ele><time>2024-06-21T09:46:34Z</time></trkpt>
    <trkpt lat="48.59967" lon="14.60708"><ele>1035</ele><time>2024-06-21T09:47:04Z</time></trkpt>
    <trkpt lat="48.59967" lon="14.60664"><ele>1029</ele><time>2024-06-21T09:48:05Z</time></trkpt>
    <trkpt lat="48.59942" lon="14.60640"><ele>940</ele><time>2024-06-21T09:49:34Z</time></trkpt>
    <trkpt lat="48.59951" lon="14.60624"><ele>820</ele><time>2024-06-21T09:51:35Z</time></trkpt>
    <trkpt lat="48.59891" lon="14.60642"><ele>1018</ele><time>2024-06-21T09:53:05Z</time></trkpt>
    <trkpt lat="48.59831" lon="14.60625"><ele>1019</ele><time>2024-06-21T09:53:35Z</time></trkpt>
    <trkpt lat="48.59798" lon="14.60603"><ele>1014</ele><time>2024-06-21T09:54:05Z</time></trkpt>
    <trkpt lat="48.59725" lon="14.60669"><ele>1007</ele><time>2024-06-21T09:57:05Z</time></trkpt>
    <trkpt lat="48.59677" lon="14.60726"><ele>791</ele><time>2024-06-21T09:57:35Z</time></trkpt>
    <trkpt lat="48.59636" lon="14.60777"><ele>995</ele><time>2024-06-21T09:58:05Z</time></trkpt>
    <trkpt lat="48.59624" lon="14.60794"><ele>1002</ele><time>2024-06-21T09:58:35Z</time></trkpt>
    <trkpt lat="48.59614" lon="14.60806"><ele>1007</ele><time>2024-06-21T10:00:35Z</time></trkpt>
    <trkpt lat="48.59608" lon="14.60818"><ele>1005</ele><time>2024-06-21T10:01:05Z</time></trkpt>
    <trkpt lat="48.59541" lon="14.60866"><ele>1008</ele><time>2024-06-21T10:01:35Z</time></trkpt>
    <trkpt lat="48.59507" lon="14.60922"><ele>1006</ele><time>2024-06-21T10:02:05Z</time></trkpt>
    <trkpt lat="48.59459" lon="14.61051"><ele>1004</ele><time>2024-06-21T10:02:35Z</time></trkpt>
    <trkpt lat="48.59452" lon="14.61219"><ele>987</ele><time>2024-06-21T10:03:05Z</time></trkpt>
    <trkpt lat="48.59377" lon="14.61245"><ele>987</ele><time>2024-06-21T10:03:35Z</time></trkpt>
    <trkpt lat="48.59321" lon="14.61486"><ele>987</ele><time>2024-06-21T10:04:05Z</time></trkpt>
    <trkpt lat="48.59269" lon="14.61561"><ele>994</ele><time>2024-06-21T10:04:35Z</time></trkpt>
    <trkpt lat="48.59221" lon="14.61604"><ele>988</ele><time>2024-06-21T10:05:05Z</time></trkpt>
    <trkpt lat="48.59186" lon="14.61668"><ele>1000</ele><time>2024-06-21T10:05:35Z</time></trkpt>
    <trkpt lat="48.59171" lon="14.61730"><ele>927</ele><time>2024-06-21T10:06:05Z</time></trkpt>
    <trkpt lat="48.59130" lon="14.61790"><ele>1004</ele><time>2024-06-21T10:06:35Z</time></trkpt>
    <trkpt lat="48.59080" lon="14.61906"><ele>975</ele><time>2024-06-21T10:07:05Z</time></trkpt>
    <trkpt lat="48.58993" lon="14.62109"><ele>890</ele><time>2024-06-21T10:07:35Z</time></trkpt>
    <trkpt lat="48.58998" lon="14.62267"><ele>981</ele><time>2024-06-21T10:08:05Z</time></trkpt>
    <trkpt lat="48.58997" lon="14.62451"><ele>994</ele><time>2024-06-21T10:08:35Z</time></trkpt>
    <trkpt lat="48.58893" lon="14.62693"><ele>978</ele><time>2024-06-21T10:09:05Z</time></trkpt>
    <trkpt lat="48.58945" lon="14.62646"><ele>987</ele><time>2024-06-21T10:10:35Z</time></trkpt>
    <trkpt lat="48.58964" lon="14.62569"><ele>995</ele><time>2024-06-21T10:11:05Z</time></trkpt>
    <trkpt lat="48.58985" lon="14.62495"><ele>1001</ele><time>2024-06-21T10:11:35Z</time></trkpt>
    <trkpt lat="48.59000" lon="14.62415"><ele>1006</ele><time>2024-06-21T10:12:05Z</time></trkpt>
    <trkpt lat="48.59004" lon="14.62333"><ele>1005</ele><time>2024-06-21T10:12:35Z</time></trkpt>
    <trkpt lat="48.58989" lon="14.62249"><ele>1005</ele><time>2024-06-21T10:13:05Z</time></trkpt>
    <trkpt lat="48.58859" lon="14.62395"><ele>1008</ele><time>2024-06-21T10:14:05Z</time></trkpt>
    <trkpt lat="48.58806" lon="14.62412"><ele>1006</ele><time>2024-06-21T10:14:35Z</time></trkpt>
    <trkpt lat="48.58757" lon="14.62420"><ele>1011</ele><time>2024-06-21T10:15:05Z</time></trkpt>
    <trkpt lat="48.58706" lon="14.62424"><ele>1007</ele><time>2024-06-21T10:15:35Z</time></trkpt>
    <trkpt lat="48.58614" lon="14.62515"><ele>1004</ele><time>2024-06-21T10:16:05Z</time></trkpt>
    <trkpt lat="48.58536" lon="14.62565"><ele>1004</ele><time>2024-06-21T10:16:35Z</time></trkpt>
    <trkpt lat="48.58462" lon="14.62651"><ele>994</ele><time>2024-06-21T10:17:05Z</time></trkpt>
    <trkpt lat="48.58367" lon="14.62761"><ele>981</ele><time>2024-06-21T10:17:35Z</time></trkpt>
    <trkpt lat="48.58343" lon="14.62815"><ele>977</ele><time>2024-06-21T10:18:05Z</time></trkpt>
    <trkpt lat="48.58243" lon="14.62892"><ele>961</ele><time>2024-06-21T10:18:35Z</time></trkpt>
    <trkpt lat="48.58187" lon="14.62932"><ele>956</ele><time>2024-06-21T10:21:05Z</time></trkpt>
    <trkpt lat="48.58085" lon="14.62719"><ele>958</ele><time>2024-06-21T10:21:35Z</time></trkpt>
    <trkpt lat="48.58015" lon="14.62667"><ele>963</ele><time>2024-06-21T10:22:05Z</time></trkpt>
    <trkpt lat="48.57925" lon="14.62642"><ele>959</ele><time>2024-06-21T10:22:42Z</time></trkpt>
    <trkpt lat="48.57769" lon="14.62707"><ele>979</ele><time>2024-06-21T10:23:42Z</time></trkpt>
    <trkpt lat="48.57682" lon="14.62748"><ele>982</ele><time>2024-06-21T10:24:12Z</time></trkpt>
    <trkpt lat="48.57621" lon="14.62735"><ele>984</ele><time>2024-06-21T10:24:42Z</time></trkpt>
    <trkpt lat="48.57549" lon="14.62702"><ele>978</ele><time>2024-06-21T10:25:12Z</time></trkpt>
    <trkpt lat="48.57474" lon="14.62708"><ele>982</ele><time>2024-06-21T10:25:43Z</time></trkpt>
    <trkpt lat="48.57385" lon="14.62748"><ele>991</ele><time>2024-06-21T10:26:13Z</time></trkpt>
    <trkpt lat="48.57314" lon="14.62762"><ele>973</ele><time>2024-06-21T10:26:44Z</time></trkpt>
    <trkpt lat="48.57257" lon="14.62758"><ele>1009</ele><time>2024-06-21T10:27:14Z</time></trkpt>
    <trkpt lat="48.57204" lon="14.62800"><ele>983</ele><time>2024-06-21T10:27:45Z</time></trkpt>
    <trkpt lat="48.57172" lon="14.62829"><ele>990</ele><time>2024-06-21T10:28:15Z</time></trkpt>
    <trkpt lat="48.57161" lon="14.62829"><ele>1021</ele><time>2024-06-21T10:28:45Z</time></trkpt>
    <trkpt lat="48.57145" lon="14.62900"><ele>1003</ele><time>2024-06-21T10:29:15Z</time></trkpt>
    <trkpt lat="48.57105" lon="14.63004"><ele>997</ele><time>2024-06-21T10:29:45Z</time></trkpt>
    <trkpt lat="48.57031" lon="14.63057"><ele>982</ele><time>2024-06-21T10:30:15Z</time></trkpt>
    <trkpt lat="48.56973" lon="14.63079"><ele>982</ele><time>2024-06-21T10:30:45Z</time></trkpt>
    <trkpt lat="48.56851" lon="14.63199"><ele>976</ele><time>2024-06-21T10:31:15Z</time></trkpt>
    <trkpt lat="48.56851" lon="14.63221"><ele>978</ele><time>2024-06-21T10:31:45Z</time></trkpt>
    <trkpt lat="48.56749" lon="14.63300"><ele>972</ele><time>2024-06-21T10:32:15Z</time></trkpt>
    <trkpt lat="48.56722" lon="14.63314"><ele>964</ele><time>2024-06-21T10:32:45Z</time></trkpt>
    <trkpt lat="48.56758" lon="14.63278"><ele>974</ele><time>2024-06-21T10:33:15Z</time></trkpt>
    <trkpt lat="48.56731" lon="14.63190"><ele>969</ele><time>2024-06-21T10:33:45Z</time></trkpt>
    <trkpt lat="48.56714" lon="14.63094"><ele>971</ele><time>2024-06-21T10:34:45Z</time></trkpt>
    <trkpt lat="48.56725" lon="14.63000"><ele>975</ele><time>2024-06-21T10:35:15Z</time></trkpt>
    <trkpt lat="48.56743" lon="14.62916"><ele>986</ele><time>2024-06-21T10:35:45Z</time></trkpt>
    <trkpt lat="48.56727" lon="14.62836"><ele>984</ele><time>2024-06-21T10:36:15Z</time></trkpt>
    <trkpt lat="48.56682" lon="14.62789"><ele>970</ele><time>2024-06-21T10:36:45Z</time></trkpt>
    <trkpt lat="48.56628" lon="14.62751"><ele>1002</ele><time>2024-06-21T10:37:21Z</time></trkpt>
    <trkpt lat="48.56543" lon="14.62701"><ele>1000</ele><time>2024-06-21T10:38:20Z</time></trkpt>
    <trkpt lat="48.56524" lon="14.62689"><ele>1010</ele><time>2024-06-21T10:39:18Z</time></trkpt>
    <trkpt lat="48.56495" lon="14.62760"><ele>1012</ele><time>2024-06-21T10:40:49Z</time></trkpt>
    <trkpt lat="48.56452" lon="14.62746"><ele>1018</ele><time>2024-06-21T10:41:19Z</time></trkpt>
    <trkpt lat="48.56413" lon="14.62767"><ele>1014</ele><time>2024-06-21T10:41:49Z</time></trkpt>
    <trkpt lat="48.56405" lon="14.62732"><ele>1018</ele><time>2024-06-21T10:42:19Z</time></trkpt>
    <trkpt lat="48.56419" lon="14.62667"><ele>1006</ele><time>2024-06-21T10:42:49Z</time></trkpt>
    <trkpt lat="48.56432" lon="14.62596"><ele>1027</ele><time>2024-06-21T10:43:19Z</time></trkpt>
    <trkpt lat="48.56474" lon="14.62472"><ele>1032</ele><time>2024-06-21T10:43:49Z</time></trkpt>
    <trkpt lat="48.56489" lon="14.62396"><ele>945</ele><time>2024-06-21T10:44:19Z</time></trkpt>
    <trkpt lat="48.56466" lon="14.62408"><ele>937</ele><time>2024-06-21T10:44:49Z</time></trkpt>
    <trkpt lat="48.56443" lon="14.62412"><ele>1036</ele><time>2024-06-21T10:45:19Z</time></trkpt>
    <trkpt lat="48.56460" lon="14.62270"><ele>1032</ele><time>2024-06-21T10:45:49Z</time></trkpt>
    <trkpt lat="48.56456" lon="14.62053"><ele>1031</ele><time>2024-06-21T10:46:19Z</time></trkpt>
    <trkpt lat="48.56409" lon="14.61829"><ele>904</ele><time>2024-06-21T10:46:49Z</time></trkpt>
    <trkpt lat="48.56322" lon="14.61680"><ele>956</ele><time>2024-06-21T10:47:19Z</time></trkpt>
    <trkpt lat="48.56242" lon="14.61641"><ele>969</ele><time>2024-06-21T10:47:49Z</time></trkpt>
    <trkpt lat="48.56183" lon="14.61622"><ele>1036</ele><time>2024-06-21T10:48:19Z</time></trkpt>
    <trkpt lat="48.56127" lon="14.61626"><ele>1045</ele><time>2024-06-21T10:48:49Z</time></trkpt>
    <trkpt lat="48.56070" lon="14.61655"><ele>1016</ele><time>2024-06-21T10:49:19Z</time></trkpt>
    <trkpt lat="48.56015" lon="14.61692"><ele>1042</ele><time>2024-06-21T10:49:49Z</time></trkpt>
    <trkpt lat="48.55958" lon="14.61745"><ele>1025</ele><time>2024-06-21T10:50:19Z</time></trkpt>
    <trkpt lat="48.55880" lon="14.61787"><ele>1047</ele><time>2024-06-21T10:50:49Z</time></trkpt>
    <trkpt lat="48.55799" lon="14.61855"><ele>1061</ele><time>2024-06-21T10:51:19Z</time></trkpt>
    <trkpt lat="48.55725" lon="14.61932"><ele>1054</ele><time>2024-06-21T10:51:49Z</time></trkpt>
    <trkpt lat="48.55621" lon="14.62021"><ele>1057</ele><time>2024-06-21T10:52:19Z</time></trkpt>
    <trkpt lat="48.55525" lon="14.62180"><ele>1052</ele><time>2024-06-21T10:52:49Z</time></trkpt>
    <trkpt lat="48.55506" lon="14.62326"><ele>1051</ele><time>2024-06-21T10:53:19Z</time></trkpt>
    <trkpt lat="48.55515" lon="14.62386"><ele>1061</ele><time>2024-06-21T10:53:49Z</time></trkpt>
    <trkpt lat="48.55524" lon="14.62440"><ele>1066</ele><time>2024-06-21T10:54:19Z</time></trkpt>
    <trkpt lat="48.55534" lon="14.62509"><ele>1064</ele><time>2024-06-21T10:54:49Z</time></trkpt>
    <trkpt lat="48.55551" lon="14.62530"><ele>1070</ele><time>2024-06-21T10:55:19Z</time></trkpt>
    <trkpt lat="48.55575" lon="14.62525"><ele>1074</ele><time>2024-06-21T10:55:49Z</time></trkpt>
    <trkpt lat="48.55598" lon="14.62524"><ele>1082</ele><time>2024-06-21T10:56:19Z</time></trkpt>
    <trkpt lat="48.55612" lon="14.62579"><ele>1081</ele><time>2024-06-21T10:56:49Z</time></trkpt>
    <trkpt lat="48.55625" lon="14.62634"><ele>1085</ele><time>2024-06-21T10:57:19Z</time></trkpt>
    <trkpt lat="48.55639" lon="14.62698"><ele>1087</ele><time>2024-06-21T10:57:49Z</time></trkpt>
    <trkpt lat="48.55647" lon="14.62757"><ele>1090</ele><time>2024-06-21T10:58:19Z</time></trkpt>
    <trkpt lat="48.55655" lon="14.62783"><ele>1094</ele><time>2024-06-21T10:58:49Z</time></trkpt>
    <trkpt lat="48.55688" lon="14.62828"><ele>1092</ele><time>2024-06-21T10:59:19Z</time></trkpt>
    <trkpt lat="48.55699" lon="14.62808"><ele>1087</ele><time>2024-06-21T10:59:49Z</time></trkpt>
    <trkpt lat="48.55700" lon="14.62793"><ele>1070</ele><time>2024-06-21T11:00:19Z</time></trkpt>
    <trkpt lat="48.55715" lon="14.62771"><ele>1094</ele><time>2024-06-21T11:00:49Z</time></trkpt>
    <trkpt lat="48.55719" lon="14.62737"><ele>996</ele><time>2024-06-21T11:01:19Z</time></trkpt>
    <trkpt lat="48.55746" lon="14.62684"><ele>1094</ele><time>2024-06-21T11:01:49Z</time></trkpt>
    <trkpt lat="48.55754" lon="14.62641"><ele>1093</ele><time>2024-06-21T11:02:19Z</time></trkpt>
    <trkpt lat="48.55773" lon="14.62606"><ele>1094</ele><time>2024-06-21T11:02:49Z</time></trkpt>
    <trkpt lat="48.55805" lon="14.62543"><ele>1093</ele><time>2024-06-21T11:03:19Z</time></trkpt>
    <trkpt lat="48.55833" lon="14.62513"><ele>1093</ele><time>2024-06-21T11:03:49Z</time></trkpt>
    <trkpt lat="48.55863" lon="14.62503"><ele>1097</ele><time>2024-06-21T11:04:19Z</time></trkpt>
    <trkpt lat="48.55870" lon="14.62470"><ele>1083</ele><time>2024-06-21T11:04:49Z</time></trkpt>
    <trkpt lat="48.55857" lon="14.62413"><ele>1063</ele><time>2024-06-21T11:05:19Z</time></trkpt>
    <trkpt lat="48.55841" lon="14.62348"><ele>1095</ele><time>2024-06-21T11:05:49Z</time></trkpt>
    <trkpt lat="48.55837" lon="14.62319"><ele>1090</ele><time>2024-06-21T11:06:19Z</time></trkpt>
    <trkpt lat="48.55854" lon="14.62308"><ele>1094</ele><time>2024-06-21T11:06:49Z</time></trkpt>
    <trkpt lat="48.55870" lon="14.62333"><ele>1099</ele><time>2024-06-21T11:07:19Z</time></trkpt>
    <trkpt lat="48.55886" lon="14.62346"><ele>1098</ele><time>2024-06-21T11:07:49Z</time></trkpt>
    <trkpt lat="48.55903" lon="14.62362"><ele>1012</ele><time>2024-06-21T11:08:19Z</time></trkpt>
    <trkpt lat="48.55914" lon="14.62401"><ele>1101</ele><time>2024-06-21T11:08:49Z</time></trkpt>
    <trkpt lat="48.55928" lon="14.62434"><ele>1075</ele><time>2024-06-21T11:09:19Z</time></trkpt>
    <trkpt lat="48.55952" lon="14.62449"><ele>1106</ele><time>2024-06-21T11:09:49Z</time></trkpt>
    <trkpt lat="48.55979" lon="14.62476"><ele>1107</ele><time>2024-06-21T11:12:19Z</time></trkpt>
    <trkpt lat="48.56007" lon="14.62545"><ele>1098</ele><time>2024-06-21T11:12:49Z</time></trkpt>
    <trkpt lat="48.56057" lon="14.62729"><ele>1089</ele><time>2024-06-21T11:13:19Z</time></trkpt>
    <trkpt lat="48.55995" lon="14.62987"><ele>1082</ele><time>2024-06-21T11:13:49Z</time></trkpt>
    <trkpt lat="48.55983" lon="14.63226"><ele>1011</ele><time>2024-06-21T11:14:19Z</time></trkpt>
    <trkpt lat="48.55816" lon="14.63388"><ele>1016</ele><time>2024-06-21T11:14:49Z</time></trkpt>
    <trkpt lat="48.55660" lon="14.63460"><ele>1001</ele><time>2024-06-21T11:15:19Z</time></trkpt>
    <trkpt lat="48.55588" lon="14.63553"><ele>1007</ele><time>2024-06-21T11:15:49Z</time></trkpt>
    <trkpt lat="48.55553" lon="14.63502"><ele>1012</ele><time>2024-06-21T11:16:19Z</time></trkpt>
    <trkpt lat="48.55508" lon="14.63446"><ele>1011</ele><time>2024-06-21T11:16:49Z</time></trkpt>
    <trkpt lat="48.55478" lon="14.63385"><ele>1016</ele><time>2024-06-21T11:17:19Z</time></trkpt>
    <trkpt lat="48.55468" lon="14.63293"><ele>1006</ele><time>2024-06-21T11:17:49Z</time></trkpt>
    <trkpt lat="48.55456" lon="14.63221"><ele>1022</ele><time>2024-06-21T11:18:19Z</time></trkpt>
    <trkpt lat="48.55436" lon="14.63134"><ele>1027</ele><time>2024-06-21T11:18:49Z</time></trkpt>
    <trkpt lat="48.55418" lon="14.63091"><ele>1030</ele><time>2024-06-21T11:19:19Z</time></trkpt>
    <trkpt lat="48.55404" lon="14.63036"><ele>1025</ele><time>2024-06-21T11:21:19Z</time></trkpt>
    <trkpt lat="48.55405" lon="14.62998"><ele>1024</ele><time>2024-06-21T11:21:49Z</time></trkpt>
    <trkpt lat="48.55417" lon="14.63073"><ele>1030</ele><time>2024-06-21T11:22:19Z</time></trkpt>
    <trkpt lat="48.55456" lon="14.63200"><ele>1032</ele><time>2024-06-21T11:22:49Z</time></trkpt>
    <trkpt lat="48.55415" lon="14.63186"><ele>1017</ele><time>2024-06-21T11:23:19Z</time></trkpt>
    <trkpt lat="48.55360" lon="14.63066"><ele>1024</ele><time>2024-06-21T11:23:49Z</time></trkpt>
    <trkpt lat="48.55346" lon="14.62999"><ele>1023</ele><time>2024-06-21T11:24:19Z</time></trkpt>
    <trkpt lat="48.55310" lon="14.62895"><ele>1025</ele><time>2024-06-21T11:24:49Z</time></trkpt>
    <trkpt lat="48.55262" lon="14.62774"><ele>1011</ele><time>2024-06-21T11:25:19Z</time></trkpt>
    <trkpt lat="48.55244" lon="14.62649"><ele>1011</ele><time>2024-06-21T11:25:49Z</time></trkpt>
    <trkpt lat="48.55242" lon="14.62511"><ele>1011</ele><time>2024-06-21T11:26:19Z</time></trkpt>
    <trkpt lat="48.55248" lon="14.62379"><ele>1007</ele><time>2024-06-21T11:26:49Z</time></trkpt>
    <trkpt lat="48.55198" lon="14.62162"><ele>993</ele><time>2024-06-21T11:27:19Z</time></trkpt>
    <trkpt lat="48.55196" lon="14.61965"><ele>985</ele><time>2024-06-21T11:27:49Z</time></trkpt>
    <trkpt lat="48.55084" lon="14.61725"><ele>964</ele><time>2024-06-21T11:28:19Z</time></trkpt>
    <trkpt lat="48.55014" lon="14.61423"><ele>952</ele><time>2024-06-21T11:28:49Z</time></trkpt>
    <trkpt lat="48.55007" lon="14.61316"><ele>956</ele><time>2024-06-21T11:29:19Z</time></trkpt>
    <trkpt lat="48.54990" lon="14.61207"><ele>952</ele><time>2024-06-21T11:29:49Z</time></trkpt>
    <trkpt lat="48.54947" lon="14.61028"><ele>936</ele><time>2024-06-21T11:30:19Z</time></trkpt>
    <trkpt lat="48.54879" lon="14.61097"><ele>926</ele><time>2024-06-21T11:30:49Z</time></trkpt>
    <trkpt lat="48.54789" lon="14.61240"><ele>934</ele><time>2024-06-21T11:31:19Z</time></trkpt>
    <trkpt lat="48.54704" lon="14.61377"><ele>922</ele><time>2024-06-21T11:31:49Z</time></trkpt>
    <trkpt lat="48.54515" lon="14.61250"><ele>921</ele><time>2024-06-21T11:32:19Z</time></trkpt>
    <trkpt lat="48.54410" lon="14.61220"><ele>920</ele><time>2024-06-21T11:32:49Z</time></trkpt>
    <trkpt lat="48.54352" lon="14.61210"><ele>917</ele><time>2024-06-21T11:33:19Z</time></trkpt>
    <trkpt lat="48.54322" lon="14.61281"><ele>928</ele><time>2024-06-21T11:33:49Z</time></trkpt>
    <trkpt lat="48.54295" lon="14.61362"><ele>930</ele><time>2024-06-21T11:34:19Z</time></trkpt>
    <trkpt lat="48.54251" lon="14.61455"><ele>961</ele><time>2024-06-21T11:34:49Z</time></trkpt>
    <trkpt lat="48.54220" lon="14.61546"><ele>931</ele><time>2024-06-21T11:35:19Z</time></trkpt>
    <trkpt lat="48.54182" lon="14.61618"><ele>934</ele><time>2024-06-21T11:35:49Z</time></trkpt>
    <trkpt lat="48.54152" lon="14.61690"><ele>936</ele><time>2024-06-21T11:36:19Z</time></trkpt>
    <trkpt lat="48.54111" lon="14.61752"><ele>942</ele><time>2024-06-21T11:36:49Z</time></trkpt>
    <trkpt lat="48.54049" lon="14.61773"><ele>942</ele><time>2024-06-21T11:37:19Z</time></trkpt>
    <trkpt lat="48.53982" lon="14.61754"><ele>941</ele><time>2024-06-21T11:37:49Z</time></trkpt>
    <trkpt lat="48.53979" lon="14.61775"><ele>942</ele><time>2024-06-21T11:38:19Z</time></trkpt>
    <trkpt lat="48.54034" lon="14.61855"><ele>946</ele><time>2024-06-21T11:38:49Z</time></trkpt>
    <trkpt lat="48.54057" lon="14.61978"><ele>950</ele><time>2024-06-21T11:39:19Z</time></trkpt>
    <trkpt lat="48.54060" lon="14.62174"><ele>944</ele><time>2024-06-21T11:39:49Z</time></trkpt>
    <trkpt lat="48.53953" lon="14.62328"><ele>938</ele><time>2024-06-21T11:40:19Z</time></trkpt>
    <trkpt lat="48.53916" lon="14.62348"><ele>939</ele><time>2024-06-21T11:40:49Z</time></trkpt>
    <trkpt lat="48.53932" lon="14.62369"><ele>935</ele><time>2024-06-21T11:41:19Z</time></trkpt>
    <trkpt lat="48.53863" lon="14.62469"><ele>942</ele><time>2024-06-21T11:41:49Z</time></trkpt>
    <trkpt lat="48.53888" lon="14.62611"><ele>937</ele><time>2024-06-21T11:42:19Z</time></trkpt>
    <trkpt lat="48.53804" lon="14.62753"><ele>924</ele><time>2024-06-21T11:42:49Z</time></trkpt>
    <trkpt lat="48.53653" lon="14.62866"><ele>908</ele><time>2024-06-21T11:43:19Z</time></trkpt>
    <trkpt lat="48.53557" lon="14.62772"><ele>916</ele><time>2024-06-21T11:43:49Z</time></trkpt>
    <trkpt lat="48.53459" lon="14.62722"><ele>920</ele><time>2024-06-21T11:44:19Z</time></trkpt>
    <trkpt lat="48.53372" lon="14.62733"><ele>919</ele><time>2024-06-21T11:44:49Z</time></trkpt>
    <trkpt lat="48.53280" lon="14.62989"><ele>914</ele><time>2024-06-21T11:45:19Z</time></trkpt>
    <trkpt lat="48.53225" lon="14.63144"><ele>914</ele><time>2024-06-21T11:45:49Z</time></trkpt>
    <trkpt lat="48.53125" lon="14.63268"><ele>912</ele><time>2024-06-21T11:46:19Z</time></trkpt>
    <trkpt lat="48.53049" lon="14.63400"><ele>914</ele><time>2024-06-21T11:46:49Z</time></trkpt>
    <trkpt lat="48.52921" lon="14.63454"><ele>915</ele><time>2024-06-21T11:47:19Z</time></trkpt>
    <trkpt lat="48.52803" lon="14.63533"><ele>912</ele><time>2024-06-21T11:47:49Z</time></trkpt>
    <trkpt lat="48.52798" lon="14.63545"><ele>911</ele><time>2024-06-21T11:48:19Z</time></trkpt>
    <trkpt lat="48.52747" lon="14.63504"><ele>914</ele><time>2024-06-21T11:48:49Z</time></trkpt>
    <trkpt lat="48.52682" lon="14.63527"><ele>919</ele><time>2024-06-21T11:49:19Z</time></trkpt>
    <trkpt lat="48.52621" lon="14.63586"><ele>931</ele><time>2024-06-21T11:49:49Z</time></trkpt>
    <trkpt lat="48.52590" lon="14.63593"><ele>926</ele><time>2024-06-21T11:50:19Z</time></trkpt>
    <trkpt lat="48.52547" lon="14.63582"><ele>932</ele><time>2024-06-21T11:50:49Z</time></trkpt>
    <trkpt lat="48.52479" lon="14.63564"><ele>932</ele><time>2024-06-21T11:51:19Z</time></trkpt>
    <trkpt lat="48.52424" lon="14.63614"><ele>931</ele><time>2024-06-21T11:51:49Z</time></trkpt>
    <trkpt lat="48.52375" lon="14.63538"><ele>924</ele><time>2024-06-21T11:52:19Z</time></trkpt>
    <trkpt lat="48.52357" lon="14.63509"><ele>936</ele><time>2024-06-21T11:53:11Z</time></trkpt>
    <trkpt lat="48.52232" lon="14.63320"><ele>936</ele><time>2024-06-21T12:05:16Z</time></trkpt>
    <trkpt lat="48.52199" lon="14.63177"><ele>995</ele><time>2024-06-21T12:05:47Z</time></trkpt>
    <trkpt lat="48.52128" lon="14.63109"><ele>997</ele><time>2024-06-21T12:06:45Z</time></trkpt>
    <trkpt lat="48.52026" lon="14.62940"><ele>942</ele><time>2024-06-21T12:07:15Z</time></trkpt>
    <trkpt lat="48.51996" lon="14.62888"><ele>965</ele><time>2024-06-21T12:07:45Z</time></trkpt>
    <trkpt lat="48.51936" lon="14.62829"><ele>924</ele><time>2024-06-21T12:08:15Z</time></trkpt>
    <trkpt lat="48.51873" lon="14.62812"><ele>924</ele><time>2024-06-21T12:08:45Z</time></trkpt>
    <trkpt lat="48.51766" lon="14.62807"><ele>922</ele><time>2024-06-21T12:09:15Z</time></trkpt>
    <trkpt lat="48.51673" lon="14.62809"><ele>921</ele><time>2024-06-21T12:09:45Z</time></trkpt>
    <trkpt lat="48.51599" lon="14.62806"><ele>929</ele><time>2024-06-21T12:10:15Z</time></trkpt>
    <trkpt lat="48.51544" lon="14.62782"><ele>937</ele><time>2024-06-21T12:10:45Z</time></trkpt>
    <trkpt lat="48.51501" lon="14.62907"><ele>931</ele><time>2024-06-21T12:11:15Z</time></trkpt>
    <trkpt lat="48.51425" lon="14.63200"><ele>914</ele><time>2024-06-21T12:11:45Z</time></trkpt>
    <trkpt lat="48.51301" lon="14.63472"><ele>913</ele><time>2024-06-21T12:12:15Z</time></trkpt>
    <trkpt lat="48.51252" lon="14.63672"><ele>923</ele><time>2024-06-21T12:12:45Z</time></trkpt>
    <trkpt lat="48.51195" lon="14.63698"><ele>893</ele><time>2024-06-21T12:13:15Z</time></trkpt>
    <trkpt lat="48.51156" lon="14.63535"><ele>912</ele><time>2024-06-21T12:14:07Z</time></trkpt>
    <trkpt lat="48.51135" lon="14.63445"><ele>961</ele><time>2024-06-21T12:14:37Z</time></trkpt>
    <trkpt lat="48.51118" lon="14.63197"><ele>908</ele><time>2024-06-21T12:15:08Z</time></trkpt>
    <trkpt lat="48.51105" lon="14.62823"><ele>909</ele><time>2024-06-21T12:15:38Z</time></trkpt>
    <trkpt lat="48.51082" lon="14.62815"><ele>891</ele><time>2024-06-21T12:16:08Z</time></trkpt>
    <trkpt lat="48.51007" lon="14.62977"><ele>893</ele><time>2024-06-21T12:16:38Z</time></trkpt>
    <trkpt lat="48.50702" lon="14.62829"><ele>849</ele><time>2024-06-21T12:17:08Z</time></trkpt>
    <trkpt lat="48.50549" lon="14.62796"><ele>842</ele><time>2024-06-21T12:17:38Z</time></trkpt>
    <trkpt lat="48.50505" lon="14.62718"><ele>837</ele><time>2024-06-21T12:18:08Z</time></trkpt>
    <trkpt lat="48.50454" lon="14.62491"><ele>829</ele><time>2024-06-21T12:18:38Z</time></trkpt>
    <trkpt lat="48.50453" lon="14.62437"><ele>821</ele><time>2024-06-21T12:19:08Z</time></trkpt>
    <trkpt lat="48.50385" lon="14.62457"><ele>811</ele><time>2024-06-21T12:19:38Z</time></trkpt>
    <trkpt lat="48.50312" lon="14.62451"><ele>795</ele><time>2024-06-21T12:20:08Z</time></trkpt>
    <trkpt lat="48.50211" lon="14.62478"><ele>789</ele><time>2024-06-21T12:20:38Z</time></trkpt>
    <trkpt lat="48.50192" lon="14.62561"><ele>792</ele><time>2024-06-21T12:21:08Z</time></trkpt>
    <trkpt lat="48.50167" lon="14.62627"><ele>795</ele><time>2024-06-21T12:21:38Z</time></trkpt>
    <trkpt lat="48.50114" lon="14.62666"><ele>801</ele><time>2024-06-21T12:22:08Z</time></trkpt>
    <trkpt lat="48.50065" lon="14.62714"><ele>806</ele><time>2024-06-21T12:22:38Z</time></trkpt>
    <trkpt lat="48.50028" lon="14.62750"><ele>812</ele><time>2024-06-21T12:23:08Z</time></trkpt>
    <trkpt lat="48.49989" lon="14.62780"><ele>812</ele><time>2024-06-21T12:23:38Z</time></trkpt>
    <trkpt lat="48.49957" lon="14.62803"><ele>824</ele><time>2024-06-21T12:24:08Z</time></trkpt>
    <trkpt lat="48.49924" lon="14.62844"><ele>830</ele><time>2024-06-21T12:24:38Z</time></trkpt>
    <trkpt lat="48.49890" lon="14.62857"><ele>840</ele><time>2024-06-21T12:25:08Z</time></trkpt>
    <trkpt lat="48.49851" lon="14.62841"><ele>834</ele><time>2024-06-21T12:25:38Z</time></trkpt>
    <trkpt lat="48.49790" lon="14.62809"><ele>837</ele><time>2024-06-21T12:26:08Z</time></trkpt>
    <trkpt lat="48.49731" lon="14.62773"><ele>847</ele><time>2024-06-21T12:26:38Z</time></trkpt>
    <trkpt lat="48.49667" lon="14.62733"><ele>851</ele><time>2024-06-21T12:27:08Z</time></trkpt>
    <trkpt lat="48.49583" lon="14.62676"><ele>856</ele><time>2024-06-21T12:27:38Z</time></trkpt>
    <trkpt lat="48.49494" lon="14.62655"><ele>844</ele><time>2024-06-21T12:28:08Z</time></trkpt>
    <trkpt lat="48.49437" lon="14.62580"><ele>849</ele><time>2024-06-21T12:28:38Z</time></trkpt>
    <trkpt lat="48.49395" lon="14.62508"><ele>864</ele><time>2024-06-21T12:29:08Z</time></trkpt>
    <trkpt lat="48.49348" lon="14.62453"><ele>851</ele><time>2024-06-21T12:29:38Z</time></trkpt>
    <trkpt lat="48.49276" lon="14.62444"><ele>848</ele><time>2024-06-21T12:30:08Z</time></trkpt>
    <trkpt lat="48.49232" lon="14.62380"><ele>860</ele><time>2024-06-21T12:30:38Z</time></trkpt>
    <trkpt lat="48.49207" lon="14.62317"><ele>878</ele><time>2024-06-21T12:31:08Z</time></trkpt>
    <trkpt lat="48.49195" lon="14.62265"><ele>894</ele><time>2024-06-21T12:31:38Z</time></trkpt>
    <trkpt lat="48.49205" lon="14.62193"><ele>923</ele><time>2024-06-21T12:32:08Z</time></trkpt>
    <trkpt lat="48.49199" lon="14.62133"><ele>918</ele><time>2024-06-21T12:32:38Z</time></trkpt>
    <trkpt lat="48.49150" lon="14.62147"><ele>895</ele><time>2024-06-21T12:33:08Z</time></trkpt>
    <trkpt lat="48.49113" lon="14.62108"><ele>890</ele><time>2024-06-21T12:33:38Z</time></trkpt>
    <trkpt lat="48.49063" lon="14.62088"><ele>915</ele><time>2024-06-21T12:34:08Z</time></trkpt>
    <trkpt lat="48.49036" lon="14.62076"><ele>936</ele><time>2024-06-21T12:34:38Z</time></trkpt>
    <trkpt lat="48.49056" lon="14.62030"><ele>913</ele><time>2024-06-21T12:35:08Z</time></trkpt>
    <trkpt lat="48.49075" lon="14.61904"><ele>900</ele><time>2024-06-21T12:35:38Z</time></trkpt>
    <trkpt lat="48.49079" lon="14.61803"><ele>900</ele><time>2024-06-21T12:36:08Z</time></trkpt>
    <trkpt lat="48.49015" lon="14.61704"><ele>890</ele><time>2024-06-21T12:36:38Z</time></trkpt>
    <trkpt lat="48.48835" lon="14.61660"><ele>877</ele><time>2024-06-21T12:37:08Z</time></trkpt>
    <trkpt lat="48.48813" lon="14.61616"><ele>871</ele><time>2024-06-21T12:37:38Z</time></trkpt>
    <trkpt lat="48.48704" lon="14.61649"><ele>859</ele><time>2024-06-21T12:38:08Z</time></trkpt>
    <trkpt lat="48.48672" lon="14.61684"><ele>860</ele><time>2024-06-21T12:38:38Z</time></trkpt>
    <trkpt lat="48.48615" lon="14.61797"><ele>852</ele><time>2024-06-21T12:39:08Z</time></trkpt>
    <trkpt lat="48.48417" lon="14.61783"><ele>836</ele><time>2024-06-21T12:39:38Z</time></trkpt>
    <trkpt lat="48.48363" lon="14.61850"><ele>840</ele><time>2024-06-21T12:40:08Z</time></trkpt>
    <trkpt lat="48.48354" lon="14.61866"><ele>851</ele><time>2024-06-21T12:41:00Z</time></trkpt>
    <trkpt lat="48.48271" lon="14.61821"><ele>836</ele><time>2024-06-21T12:43:24Z</time></trkpt>
    <trkpt lat="48.48223" lon="14.61678"><ele>838</ele><time>2024-06-21T12:43:54Z</time></trkpt>
    <trkpt lat="48.48214" lon="14.61591"><ele>843</ele><time>2024-06-21T12:44:24Z</time></trkpt>
    <trkpt lat="48.48209" lon="14.61521"><ele>849</ele><time>2024-06-21T12:44:54Z</time></trkpt>
    <trkpt lat="48.48215" lon="14.61438"><ele>868</ele><time>2024-06-21T12:45:24Z</time></trkpt>
    <trkpt lat="48.48186" lon="14.61233"><ele>871</ele><time>2024-06-21T12:45:54Z</time></trkpt>
    <trkpt lat="48.48143" lon="14.60914"><ele>854</ele><time>2024-06-21T12:46:24Z</time></trkpt>
    <trkpt lat="48.48093" lon="14.60588"><ele>825</ele><time>2024-06-21T12:46:54Z</time></trkpt>
    <trkpt lat="48.48009" lon="14.60177"><ele>802</ele><time>2024-06-21T12:47:24Z</time></trkpt>
    <trkpt lat="48.47906" lon="14.60087"><ele>808</ele><time>2024-06-21T12:47:54Z</time></trkpt>
    <trkpt lat="48.47876" lon="14.60019"><ele>851</ele><time>2024-06-21T12:48:24Z</time></trkpt>
    <trkpt lat="48.47912" lon="14.59951"><ele>818</ele><time>2024-06-21T12:48:54Z</time></trkpt>
    <trkpt lat="48.47941" lon="14.59889"><ele>893</ele><time>2024-06-21T12:49:24Z</time></trkpt>
    <trkpt lat="48.47953" lon="14.59810"><ele>834</ele><time>2024-06-21T12:49:54Z</time></trkpt>
    <trkpt lat="48.47937" lon="14.59742"><ele>842</ele><time>2024-06-21T12:50:24Z</time></trkpt>
    <trkpt lat="48.47896" lon="14.59687"><ele>845</ele><time>2024-06-21T12:50:54Z</time></trkpt>
    <trkpt lat="48.47852" lon="14.59641"><ele>843</ele><time>2024-06-21T12:51:24Z</time></trkpt>
    <trkpt lat="48.47820" lon="14.59573"><ele>873</ele><time>2024-06-21T12:51:54Z</time></trkpt>
    <trkpt lat="48.47756" lon="14.59444"><ele>850</ele><time>2024-06-21T12:52:24Z</time></trkpt>
    <trkpt lat="48.47738" lon="14.59187"><ele>840</ele><time>2024-06-21T12:52:54Z</time></trkpt>
    <trkpt lat="48.47769" lon="14.58965"><ele>834</ele><time>2024-06-21T12:53:24Z</time></trkpt>
    <trkpt lat="48.47644" lon="14.58708"><ele>803</ele><time>2024-06-21T12:53:54Z</time></trkpt>
    <trkpt lat="48.47526" lon="14.58484"><ele>794</ele><time>2024-06-21T12:54:24Z</time></trkpt>
    <trkpt lat="48.47319" lon="14.58418"><ele>774</ele><time>2024-06-21T12:54:54Z</time></trkpt>
    <trkpt lat="48.47041" lon="14.58353"><ele>740</ele><time>2024-06-21T12:55:24Z</time></trkpt>
    <trkpt lat="48.46855" lon="14.58057"><ele>713</ele><time>2024-06-21T12:55:54Z</time></trkpt>
    <trkpt lat="48.46926" lon="14.57439"><ele>690</ele><time>2024-06-21T12:56:54Z</time></trkpt>
    <trkpt lat="48.46829" lon="14.57521"><ele>661</ele><time>2024-06-21T12:57:24Z</time></trkpt>
    <trkpt lat="48.46650" lon="14.57317"><ele>642</ele><time>2024-06-21T12:57:54Z</time></trkpt>
    <trkpt lat="48.46564" lon="14.57406"><ele>620</ele><time>2024-06-21T12:58:24Z</time></trkpt>
    <trkpt lat="48.46427" lon="14.57282"><ele>676</ele><time>2024-06-21T12:58:54Z</time></trkpt>
    <trkpt lat="48.46426" lon="14.57261"><ele>623</ele><time>2024-06-21T12:59:24Z</time></trkpt>
    <trkpt lat="48.46434" lon="14.57244"><ele>672</ele><time>2024-06-21T12:59:54Z</time></trkpt>
    <trkpt lat="48.46447" lon="14.57213"><ele>636</ele><time>2024-06-21T13:00:24Z</time></trkpt>
    <trkpt lat="48.46443" lon="14.57187"><ele>643</ele><time>2024-06-21T13:00:54Z</time></trkpt>
    <trkpt lat="48.46428" lon="14.57160"><ele>705</ele><time>2024-06-21T13:01:24Z</time></trkpt>
    <trkpt lat="48.46408" lon="14.57129"><ele>653</ele><time>2024-06-21T13:01:54Z</time></trkpt>
    <trkpt lat="48.46394" lon="14.57091"><ele>667</ele><time>2024-06-21T13:02:54Z</time></trkpt>
    <trkpt lat="48.46397" lon="14.57002"><ele>657</ele><time>2024-06-21T13:03:24Z</time></trkpt>
    <trkpt lat="48.46412" lon="14.56902"><ele>664</ele><time>2024-06-21T13:03:54Z</time></trkpt>
    <trkpt lat="48.46450" lon="14.56817"><ele>666</ele><time>2024-06-21T13:04:24Z</time></trkpt>
    <trkpt lat="48.46451" lon="14.56727"><ele>672</ele><time>2024-06-21T13:04:54Z</time></trkpt>
    <trkpt lat="48.46639" lon="14.56504"><ele>667</ele><time>2024-06-21T13:05:24Z</time></trkpt>
    <trkpt lat="48.46624" lon="14.56302"><ele>658</ele><time>2024-06-21T13:05:54Z</time></trkpt>
    <trkpt lat="48.46723" lon="14.55891"><ele>640</ele><time>2024-06-21T13:06:24Z</time></trkpt>
    <trkpt lat="48.46600" lon="14.55537"><ele>620</ele><time>2024-06-21T13:06:54Z</time></trkpt>
    <trkpt lat="48.46578" lon="14.55347"><ele>628</ele><time>2024-06-21T13:07:24Z</time></trkpt>
    <trkpt lat="48.46510" lon="14.55179"><ele>630</ele><time>2024-06-21T13:07:54Z</time></trkpt>
    <trkpt lat="48.46457" lon="14.55049"><ele>636</ele><time>2024-06-21T13:08:24Z</time></trkpt>
    <trkpt lat="48.46361" lon="14.54898"><ele>642</ele><time>2024-06-21T13:08:54Z</time></trkpt>
    <trkpt lat="48.46292" lon="14.54913"><ele>632</ele><time>2024-06-21T13:09:24Z</time></trkpt>
    <trkpt lat="48.46211" lon="14.54741"><ele>635</ele><time>2024-06-21T13:09:54Z</time></trkpt>
    <trkpt lat="48.46164" lon="14.54625"><ele>637</ele><time>2024-06-21T13:10:24Z</time></trkpt>
    <trkpt lat="48.46068" lon="14.54455"><ele>627</ele><time>2024-06-21T13:10:54Z</time></trkpt>
    <trkpt lat="48.45962" lon="14.54301"><ele>671</ele><time>2024-06-21T13:11:24Z</time></trkpt>
    <trkpt lat="48.45798" lon="14.54042"><ele>614</ele><time>2024-06-21T13:11:54Z</time></trkpt>
    <trkpt lat="48.45530" lon="14.53824"><ele>581</ele><time>2024-06-21T13:12:24Z</time></trkpt>
    <trkpt lat="48.45591" lon="14.53774"><ele>569</ele><time>2024-06-21T13:12:54Z</time></trkpt>
    <trkpt lat="48.45612" lon="14.53597"><ele>555</ele><time>2024-06-21T13:13:24Z</time></trkpt>
    <trkpt lat="48.45485" lon="14.53457"><ele>559</ele><time>2024-06-21T13:13:54Z</time></trkpt>
    <trkpt lat="48.45349" lon="14.53771"><ele>501</ele><time>2024-06-21T13:14:24Z</time></trkpt>
    <trkpt lat="48.45064" lon="14.53604"><ele>493</ele><time>2024-06-21T13:14:54Z</time></trkpt>
    <trkpt lat="48.44960" lon="14.53517"><ele>490</ele><time>2024-06-21T13:15:24Z</time></trkpt>
    <trkpt lat="48.44852" lon="14.53468"><ele>485</ele><time>2024-06-21T13:15:54Z</time></trkpt>
    <trkpt lat="48.44600" lon="14.53420"><ele>500</ele><time>2024-06-21T13:16:24Z</time></trkpt>
    <trkpt lat="48.44440" lon="14.53468"><ele>470</ele><time>2024-06-21T13:16:54Z</time></trkpt>
    <trkpt lat="48.44299" lon="14.53533"><ele>467</ele><time>2024-06-21T13:17:24Z</time></trkpt>
    <trkpt lat="48.44149" lon="14.53598"><ele>469</ele><time>2024-06-21T13:17:54Z</time></trkpt>
    <trkpt lat="48.43994" lon="14.53659"><ele>468</ele><time>2024-06-21T13:18:24Z</time></trkpt>
    <trkpt lat="48.43921" lon="14.53761"><ele>468</ele><time>2024-06-21T13:18:54Z</time></trkpt>
    <trkpt lat="48.43810" lon="14.53799"><ele>465</ele><time>2024-06-21T13:19:24Z</time></trkpt>
    <trkpt lat="48.43716" lon="14.53826"><ele>467</ele><time>2024-06-21T13:19:54Z</time></trkpt>
    <trkpt lat="48.43660" lon="14.53837"><ele>466</ele><time>2024-06-21T13:20:24Z</time></trkpt>
  </trkseg>
</trk>
</gpx>