<?xml version="1.0" encoding="UTF-8"?>
<gpx version="1.1" creator="Gpx-Optimizer" xmlns="http://www.topografix.com/GPX/1/1">
<trk>
  <name>Ski_Riffl-Nord</name>
  <trkseg>
    <trkpt lat="47.07511" lon="12.75134"><ele>2404</ele></trkpt>
    <trkpt lat="47.07439" lon="12.75139"><ele>2410</ele></trkpt>
    <trkpt lat="47.07455" lon="12.75148"><ele>2401</ele></trkpt>
    <trkpt lat="47.07561" lon="12.75117"><ele>2375</ele></trkpt>
    <trkpt lat="47.07653" lon="12.74960"><ele>2398</ele></trkpt>
    <trkpt lat="47.07985" lon="12.74797"><ele>2384</ele></trkpt>
    <trkpt lat="47.08148" lon="12.74794"><ele>2367</ele></trkpt>
    <trkpt lat="47.08239" lon="12.74571"><ele>2373</ele></trkpt>
    <trkpt lat="47.08253" lon="12.74558"><ele>2411</ele></trkpt>
    <trkpt lat="47.08233" lon="12.74517"><ele>2454</ele></trkpt>
    <trkpt lat="47.08269" lon="12.74512"><ele>2463</ele></trkpt>
    <trkpt lat="47.08262" lon="12.74491"><ele>2449</ele></trkpt>
    <trkpt lat="47.08255" lon="12.74474"><ele>2424</ele></trkpt>
    <trkpt lat="47.08280" lon="12.74413"><ele>2419</ele></trkpt>
    <trkpt lat="47.08321" lon="12.74390"><ele>2431</ele></trkpt>
    <trkpt lat="47.08318" lon="12.74372"><ele>2428</ele></trkpt>
    <trkpt lat="47.08325" lon="12.74344"><ele>2416</ele></trkpt>
    <trkpt lat="47.08366" lon="12.74326"><ele>2378</ele></trkpt>
    <trkpt lat="47.08362" lon="12.74280"><ele>2461</ele></trkpt>
    <trkpt lat="47.08346" lon="12.74309"><ele>2374</ele></trkpt>
    <trkpt lat="47.08394" lon="12.74343"><ele>2421</ele></trkpt>
    <trkpt lat="47.08386" lon="12.74334"><ele>2457</ele></trkpt>
    <trkpt lat="47.08424" lon="12.74332"><ele>2379</ele></trkpt>
    <trkpt lat="47.08345" lon="12.74241"><ele>2404</ele></trkpt>
    <trkpt lat="47.08360" lon="12.74326"><ele>2427</ele></trkpt>
    <trkpt lat="47.08384" lon="12.74321"><ele>2368</ele></trkpt>
    <trkpt lat="47.08360" lon="12.74283"><ele>2426</ele></trkpt>
    <trkpt lat="47.08386" lon="12.74256"><ele>2450</ele></trkpt>
    <trkpt lat="47.08388" lon="12.74302"><ele>2417</ele></trkpt>
    <trkpt lat="47.08388" lon="12.74273"><ele>2417</ele></trkpt>
    <trkpt lat="47.08397" lon="12.74234"><ele>2386</ele></trkpt>
    <trkpt lat="47.08401" lon="12.74300"><ele>2417</ele></trkpt>
    <trkpt lat="47.08373" lon="12.74244"><ele>2392</ele></trkpt>
    <trkpt lat="47.08364" lon="12.74198"><ele>2423</ele></trkpt>
    <trkpt lat="47.08381" lon="12.74249"><ele>2358</ele></trkpt>
    <trkpt lat="47.08405" lon="12.74345"><ele>2404</ele></trkpt>
    <trkpt lat="47.08379" lon="12.74325"><ele>2393</ele></trkpt>
    <trkpt lat="47.08428" lon="12.74310"><ele>2399</ele></trkpt>
    <trkpt lat="47.08432" lon="12.74245"><ele>2448</ele></trkpt>
    <trkpt lat="47.08470" lon="12.74184"><ele>2434</ele></trkpt>
    <trkpt lat="47.08498" lon="12.74166"><ele>2455</ele></trkpt>
    <trkpt lat="47.08519" lon="12.74140"><ele>2480</ele></trkpt>
    <trkpt lat="47.08545" lon="12.74121"><ele>2458</ele></trkpt>
    <trkpt lat="47.08584" lon="12.74134"><ele>2435</ele></trkpt>
    <trkpt lat="47.08571" lon="12.74113"><ele>2355</ele></trkpt>
    <trkpt lat="47.08592" lon="12.74059"><ele>2441</ele></trkpt>
    <trkpt lat="47.08594" lon="12.74030"><ele>2478</ele></trkpt>
    <trkpt lat="47.08616" lon="12.73960"><ele>2414</ele></trkpt>
    <trkpt lat="47.08612" lon="12.73920"><ele>2470</ele></trkpt>
    <trkpt lat="47.08598" lon="12.73869"><ele>2447</ele></trkpt>
    <trkpt lat="47.08641" lon="12.73847"><ele>2505</ele></trkpt>
    <trkpt lat="47.08651" lon="12.73873"><ele>2472</ele></trkpt>
    <trkpt lat="47.08660" lon="12.73817"><ele>2462</ele></trkpt>
    <trkpt lat="47.08686" lon="12.73788"><ele>2509</ele></trkpt>
    <trkpt lat="47.08716" lon="12.73732"><ele>2499</ele></trkpt>
    <trkpt lat="47.08753" lon="12.73709"><ele>2493</ele></trkpt>
    <trkpt lat="47.08776" lon="12.73672"><ele>2509</ele></trkpt>
    <trkpt lat="47.08794" lon="12.73660"><ele>2529</ele></trkpt>
    <trkpt lat="47.08818" lon="12.73645"><ele>2404</ele></trkpt>
    <trkpt lat="47.08836" lon="12.73627"><ele>2470</ele></trkpt>
    <trkpt lat="47.08854" lon="12.73588"><ele>2412</ele></trkpt>
    <trkpt lat="47.08855" lon="12.73546"><ele>2490</ele></trkpt>
    <trkpt lat="47.08846" lon="12.73513"><ele>2507</ele></trkpt>
    <trkpt lat="47.08864" lon="12.73485"><ele>2453</ele></trkpt>
    <trkpt lat="47.08875" lon="12.73472"><ele>2481</ele></trkpt>
    <trkpt lat="47.08882" lon="12.73452"><ele>2475</ele></trkpt>
    <trkpt lat="47.08879" lon="12.73405"><ele>2497</ele></trkpt>
    <trkpt lat="47.08874" lon="12.73341"><ele>2509</ele></trkpt>
    <trkpt lat="47.08884" lon="12.73323"><ele>2541</ele></trkpt>
    <trkpt lat="47.08888" lon="12.73284"><ele>2526</ele></trkpt>
    <trkpt lat="47.08905" lon="12.73250"><ele>2535</ele></trkpt>
    <trkpt lat="47.08923" lon="12.73243"><ele>2531</ele></trkpt>
    <trkpt lat="47.08935" lon="12.73162"><ele>2525</ele></trkpt>
    <trkpt lat="47.08956" lon="12.73143"><ele>2537</ele></trkpt>
    <trkpt lat="47.08982" lon="12.73106"><ele>2552</ele></trkpt>
    <trkpt lat="47.09025" lon="12.73052"><ele>2550</ele></trkpt>
    <trkpt lat="47.09053" lon="12.73013"><ele>2547</ele></trkpt>
    <trkpt lat="47.09077" lon="12.72995"><ele>2537</ele></trkpt>
    <trkpt lat="47.09092" lon="12.72972"><ele>2553</ele></trkpt>
    <trkpt lat="47.09120" lon="12.72949"><ele>2520</ele></trkpt>
    <trkpt lat="47.09140" lon="12.72941"><ele>2527</ele></trkpt>
    <trkpt lat="47.09144" lon="12.72902"><ele>2562</ele></trkpt>
    <trkpt lat="47.09166" lon="12.72884"><ele>2532</ele></trkpt>
    <trkpt lat="47.09175" lon="12.72876"><ele>2562</ele></trkpt>
    <trkpt lat="47.09169" lon="12.72857"><ele>2556</ele></trkpt>
    <trkpt lat="47.09276" lon="12.72878"><ele>2554</ele></trkpt>
    <trkpt lat="47.09271" lon="12.72807"><ele>2562</ele></trkpt>
    <trkpt lat="47.09301" lon="12.72850"><ele>2574</ele></trkpt>
    <trkpt lat="47.09366" lon="12.72854"><ele>2625</ele></trkpt>
    <trkpt lat="47.09346" lon="12.72824"><ele>2589</ele></trkpt>
    <trkpt lat="47.09411" lon="12.72845"><ele>2620</ele></trkpt>
    <trkpt lat="47.09438" lon="12.72827"><ele>2639</ele></trkpt>
    <trkpt lat="47.09516" lon="12.72833"><ele>2570</ele></trkpt>
    <trkpt lat="47.09522" lon="12.72796"><ele>2617</ele></trkpt>
    <trkpt lat="47.09534" lon="12.72770"><ele>2609</ele></trkpt>
    <trkpt lat="47.09562" lon="12.72764"><ele>2639</ele></trkpt>
    <trkpt lat="47.09556" lon="12.72723"><ele>2630</ele></trkpt>
    <trkpt lat="47.09579" lon="12.72703"><ele>2605</ele></trkpt>
    <trkpt lat="47.09616" lon="12.72712"><ele>2580</ele></trkpt>
    <trkpt lat="47.09644" lon="12.72685"><ele>2580</ele></trkpt>
    <trkpt lat="47.09673" lon="12.72647"><ele>2556</ele></trkpt>
    <trkpt lat="47.09719" lon="12.72628"><ele>2539</ele></trkpt>
    <trkpt lat="47.09755" lon="12.72592"><ele>2624</ele></trkpt>
    <trkpt lat="47.09786" lon="12.72653"><ele>2562</ele></trkpt>
    <trkpt lat="47.09806" lon="12.72685"><ele>2628</ele></trkpt>
    <trkpt lat="47.09853" lon="12.72688"><ele>2568</ele></trkpt>
    <trkpt lat="47.09879" lon="12.72724"><ele>2661</ele></trkpt>
    <trkpt lat="47.09875" lon="12.72750"><ele>2677</ele></trkpt>
    <trkpt lat="47.09894" lon="12.72797"><ele>2647</ele></trkpt>
    <trkpt lat="47.09910" lon="12.72767"><ele>2725</ele></trkpt>
    <trkpt lat="47.09928" lon="12.72732"><ele>2653</ele></trkpt>
    <trkpt lat="47.09953" lon="12.72732"><ele>2691</ele></trkpt>
    <trkpt lat="47.09978" lon="12.72734"><ele>2671</ele></trkpt>
    <trkpt lat="47.09988" lon="12.72706"><ele>2680</ele></trkpt>
    <trkpt lat="47.10033" lon="12.72657"><ele>2722</ele></trkpt>
    <trkpt lat="47.10055" lon="12.72629"><ele>2759</ele></trkpt>
    <trkpt lat="47.10089" lon="12.72609"><ele>2713</ele></trkpt>
    <trkpt lat="47.10099" lon="12.72581"><ele>2832</ele></trkpt>
    <trkpt lat="47.10114" lon="12.72546"><ele>2767</ele></trkpt>
    <trkpt lat="47.10146" lon="12.72522"><ele>2755</ele></trkpt>
    <trkpt lat="47.10146" lon="12.72489"><ele>2738</ele></trkpt>
    <trkpt lat="47.10143" lon="12.72475"><ele>2723</ele></trkpt>
    <trkpt lat="47.10168" lon="12.72462"><ele>2770</ele></trkpt>
    <trkpt lat="47.10197" lon="12.72441"><ele>2771</ele></trkpt>
    <trkpt lat="47.10191" lon="12.72422"><ele>2761</ele></trkpt>
    <trkpt lat="47.10226" lon="12.72403"><ele>2789</ele></trkpt>
    <trkpt lat="47.10242" lon="12.72382"><ele>2819</ele></trkpt>
    <trkpt lat="47.10261" lon="12.72363"><ele>2884</ele></trkpt>
    <trkpt lat="47.10273" lon="12.72347"><ele>2823</ele></trkpt>
    <trkpt lat="47.10294" lon="12.72337"><ele>2796</ele></trkpt>
    <trkpt lat="47.10309" lon="12.72312"><ele>2834</ele></trkpt>
    <trkpt lat="47.10327" lon="12.72307"><ele>2746</ele></trkpt>
    <trkpt lat="47.10345" lon="12.72302"><ele>2762</ele></trkpt>
    <trkpt lat="47.10359" lon="12.72259"><ele>2816</ele></trkpt>
    <trkpt lat="47.10379" lon="12.72260"><ele>2904</ele></trkpt>
    <trkpt lat="47.10395" lon="12.72266"><ele>2796</ele></trkpt>
    <trkpt lat="47.10407" lon="12.72228"><ele>2832</ele></trkpt>
    <trkpt lat="47.10453" lon="12.72233"><ele>2812</ele></trkpt>
    <trkpt lat="47.10467" lon="12.72194"><ele>2835</ele></trkpt>
    <trkpt lat="47.10480" lon="12.72185"><ele>2859</ele></trkpt>
    <trkpt lat="47.10509" lon="12.72171"><ele>2814</ele></trkpt>
    <trkpt lat="47.10548" lon="12.72163"><ele>2898</ele></trkpt>
    <trkpt lat="47.10546" lon="12.72149"><ele>2916</ele></trkpt>
    <trkpt lat="47.10579" lon="12.72104"><ele>2852</ele></trkpt>
    <trkpt lat="47.10599" lon="12.72116"><ele>2830</ele></trkpt>
    <trkpt lat="47.10609" lon="12.72059"><ele>2865</ele></trkpt>
    <trkpt lat="47.10623" lon="12.72051"><ele>2763</ele></trkpt>
    <trkpt lat="47.10648" lon="12.72036"><ele>2713</ele></trkpt>
    <trkpt lat="47.10675" lon="12.72008"><ele>2805</ele></trkpt>
    <trkpt lat="47.10711" lon="12.71970"><ele>2870</ele></trkpt>
    <trkpt lat="47.10726" lon="12.71975"><ele>2924</ele></trkpt>
    <trkpt lat="47.10752" lon="12.71939"><ele>2836</ele></trkpt>
    <trkpt lat="47.10766" lon="12.71915"><ele>2887</ele></trkpt>
    <trkpt lat="47.10784" lon="12.71914"><ele>2908</ele></trkpt>
    <trkpt lat="47.10797" lon="12.71889"><ele>2949</ele></trkpt>
    <trkpt lat="47.10814" lon="12.71891"><ele>2993</ele></trkpt>
    <trkpt lat="47.10838" lon="12.71831"><ele>2951</ele></trkpt>
    <trkpt lat="47.10848" lon="12.71775"><ele>2996</ele></trkpt>
    <trkpt lat="47.10875" lon="12.71734"><ele>2946</ele></trkpt>
    <trkpt lat="47.10915" lon="12.71760"><ele>2669</ele></trkpt>
    <trkpt lat="47.10940" lon="12.71765"><ele>2573</ele></trkpt>
    <trkpt lat="47.10971" lon="12.71782"><ele>2999</ele></trkpt>
    <trkpt lat="47.10995" lon="12.71825"><ele>3034</ele></trkpt>
    <trkpt lat="47.11032" lon="12.71864"><ele>2982</ele></trkpt>
    <trkpt lat="47.11032" lon="12.71836"><ele>2936</ele></trkpt>
    <trkpt lat="47.11049" lon="12.71798"><ele>2988</ele></trkpt>
    <trkpt lat="47.11039" lon="12.71788"><ele>2985</ele></trkpt>
    <trkpt lat="47.11031" lon="12.71748"><ele>2985</ele></trkpt>
    <trkpt lat="47.11040" lon="12.71711"><ele>3043</ele></trkpt>
    <trkpt lat="47.11052" lon="12.71706"><ele>2588</ele></trkpt>
    <trkpt lat="47.11065" lon="12.71712"><ele>3003</ele></trkpt>
    <trkpt lat="47.11104" lon="12.71685"><ele>3045</ele></trkpt>
    <trkpt lat="47.11109" lon="12.71663"><ele>2998</ele></trkpt>
    <trkpt lat="47.11121" lon="12.71661"><ele>3150</ele></trkpt>
    <trkpt lat="47.11124" lon="12.71607"><ele>3116</ele></trkpt>
    <trkpt lat="47.11096" lon="12.71548"><ele>3105</ele></trkpt>
    <trkpt lat="47.11116" lon="12.71547"><ele>2970</ele></trkpt>
    <trkpt lat="47.11125" lon="12.71530"><ele>3154</ele></trkpt>
    <trkpt lat="47.11134" lon="12.71461"><ele>3100</ele></trkpt>
    <trkpt lat="47.11142" lon="12.71440"><ele>3084</ele></trkpt>
    <trkpt lat="47.11206" lon="12.71459"><ele>3112</ele></trkpt>
    <trkpt lat="47.11305" lon="12.71394"><ele>3085</ele></trkpt>
    <trkpt lat="47.11342" lon="12.71447"><ele>2990</ele></trkpt>
    <trkpt lat="47.11353" lon="12.71501"><ele>2971</ele></trkpt>
    <trkpt lat="47.11411" lon="12.71548"><ele>3173</ele></trkpt>
    <trkpt lat="47.11409" lon="12.71606"><ele>3210</ele></trkpt>
    <trkpt lat="47.11408" lon="12.71579"><ele>2739</ele></trkpt>
    <trkpt lat="47.11456" lon="12.71351"><ele>3131</ele></trkpt>
    <trkpt lat="47.11480" lon="12.71250"><ele>3134</ele></trkpt>
    <trkpt lat="47.11532" lon="12.70975"><ele>3086</ele></trkpt>
    <trkpt lat="47.11551" lon="12.70814"><ele>3099</ele></trkpt>
    <trkpt lat="47.11631" lon="12.70685"><ele>3112</ele></trkpt>
    <trkpt lat="47.11721" lon="12.70524"><ele>3035</ele></trkpt>
    <trkpt lat="47.11868" lon="12.70379"><ele>2979</ele></trkpt>
    <trkpt lat="47.11915" lon="12.70175"><ele>2910</ele></trkpt>
    <trkpt lat="47.11870" lon="12.69843"><ele>2847</ele></trkpt>
    <trkpt lat="47.11855" lon="12.69798"><ele>2859</ele></trkpt>
    <trkpt lat="47.11825" lon="12.69799"><ele>2965</ele></trkpt>
    <trkpt lat="47.11831" lon="12.69762"><ele>2850</ele></trkpt>
    <trkpt lat="47.11829" lon="12.69616"><ele>2907</ele></trkpt>
    <trkpt lat="47.11832" lon="12.69588"><ele>3004</ele></trkpt>
    <trkpt lat="47.11868" lon="12.69508"><ele>2978</ele></trkpt>
    <trkpt lat="47.11839" lon="12.69467"><ele>3072</ele></trkpt>
    <trkpt lat="47.11858" lon="12.69415"><ele>3066</ele></trkpt>
    <trkpt lat="47.11860" lon="12.69364"><ele>3079</ele></trkpt>
    <trkpt lat="47.11884" lon="12.69341"><ele>3119</ele></trkpt>
    <trkpt lat="47.11888" lon="12.69263"><ele>3037</ele></trkpt>
    <trkpt lat="47.11944" lon="12.69127"><ele>3075</ele></trkpt>
    <trkpt lat="47.11950" lon="12.69064"><ele>3042</ele></trkpt>
    <trkpt lat="47.11967" lon="12.69032"><ele>3078</ele></trkpt>
    <trkpt lat="47.11948" lon="12.68923"><ele>3029</ele></trkpt>
    <trkpt lat="47.11961" lon="12.68865"><ele>3093</ele></trkpt>
    <trkpt lat="47.11943" lon="12.68826"><ele>3061</ele></trkpt>
    <trkpt lat="47.12000" lon="12.68740"><ele>3087</ele></trkpt>
    <trkpt lat="47.11981" lon="12.68695"><ele>3071</ele></trkpt>
    <trkpt lat="47.12002" lon="12.68676"><ele>3086</ele></trkpt>
    <trkpt lat="47.12041" lon="12.68651"><ele>3128</ele></trkpt>
    <trkpt lat="47.12045" lon="12.68638"><ele>3125</ele></trkpt>
    <trkpt lat="47.12041" lon="12.68626"><ele>3117</ele></trkpt>
    <trkpt lat="47.12047" lon="12.68544"><ele>3114</ele></trkpt>
    <trkpt lat="47.12042" lon="12.68517"><ele>3111</ele></trkpt>
    <trkpt lat="47.12071" lon="12.68480"><ele>3119</ele></trkpt>
    <trkpt lat="47.12052" lon="12.68444"><ele>3112</ele></trkpt>
    <trkpt lat="47.12062" lon="12.68405"><ele>3099</ele></trkpt>
    <trkpt lat="47.12062" lon="12.68363"><ele>3093</ele></trkpt>
    <trkpt lat="47.12061" lon="12.68329"><ele>3089</ele></trkpt>
    <trkpt lat="47.12062" lon="12.68291"><ele>3082</ele></trkpt>
    <trkpt lat="47.12058" lon="12.68259"><ele>3085</ele></trkpt>
    <trkpt lat="47.12068" lon="12.68226"><ele>3099</ele></trkpt>
    <trkpt lat="47.12065" lon="12.68194"><ele>3102</ele></trkpt>
    <trkpt lat="47.12061" lon="12.68153"><ele>3092</ele></trkpt>
    <trkpt lat="47.12069" lon="12.68118"><ele>3100</ele></trkpt>
    <trkpt lat="47.12070" lon="12.68030"><ele>3091</ele></trkpt>
    <trkpt lat="47.12096" lon="12.68006"><ele>3127</ele></trkpt>
    <trkpt lat="47.12112" lon="12.67956"><ele>3163</ele></trkpt>
    <trkpt lat="47.12145" lon="12.67889"><ele>3178</ele></trkpt>
    <trkpt lat="47.12155" lon="12.67856"><ele>3182</ele></trkpt>
    <trkpt lat="47.12168" lon="12.67833"><ele>3177</ele></trkpt>
    <trkpt lat="47.12161" lon="12.67800"><ele>3170</ele></trkpt>
    <trkpt lat="47.12188" lon="12.67763"><ele>3156</ele></trkpt>
    <trkpt lat="47.12166" lon="12.67718"><ele>3156</ele></trkpt>
    <trkpt lat="47.12190" lon="12.67611"><ele>3189</ele></trkpt>
    <trkpt lat="47.12177" lon="12.67587"><ele>3186</ele></trkpt>
    <trkpt lat="47.12205" lon="12.67560"><ele>3193</ele></trkpt>
    <trkpt lat="47.12231" lon="12.67524"><ele>3225</ele></trkpt>
    <trkpt lat="47.12237" lon="12.67505"><ele>3214</ele></trkpt>
    <trkpt lat="47.12227" lon="12.67474"><ele>3193</ele></trkpt>
    <trkpt lat="47.12238" lon="12.67437"><ele>3217</ele></trkpt>
    <trkpt lat="47.12248" lon="12.67430"><ele>3232</ele></trkpt>
    <trkpt lat="47.12247" lon="12.67340"><ele>3233</ele></trkpt>
    <trkpt lat="47.12264" lon="12.67349"><ele>3242</ele></trkpt>
    <trkpt lat="47.12266" lon="12.67321"><ele>3234</ele></trkpt>
    <trkpt lat="47.12298" lon="12.67297"><ele>3279</ele></trkpt>
    <trkpt lat="47.12294" lon="12.67275"><ele>3263</ele></trkpt>
    <trkpt lat="47.12287" lon="12.67265"><ele>3244</ele></trkpt>
    <trkpt lat="47.12283" lon="12.67241"><ele>3253</ele></trkpt>
    <trkpt lat="47.12288" lon="12.67229"><ele>3258</ele></trkpt>
    <trkpt lat="47.12290" lon="12.67182"><ele>3269</ele></trkpt>
    <trkpt lat="47.12293" lon="12.67154"><ele>3268</ele></trkpt>
    <trkpt lat="47.12297" lon="12.67135"><ele>3280</ele></trkpt>
    <trkpt lat="47.12313" lon="12.67116"><ele>3295</ele></trkpt>
    <trkpt lat="47.12346" lon="12.67062"><ele>3357</ele></trkpt>
    <trkpt lat="47.12321" lon="12.67053"><ele>3294</ele></trkpt>
    <trkpt lat="47.12308" lon="12.67034"><ele>3287</ele></trkpt>
    <trkpt lat="47.12296" lon="12.67017"><ele>3282</ele></trkpt>
    <trkpt lat="47.12319" lon="12.66994"><ele>3327</ele></trkpt>
    <trkpt lat="47.12312" lon="12.66954"><ele>3066</ele></trkpt>
    <trkpt lat="47.12317" lon="12.66938"><ele>3241</ele></trkpt>
    <trkpt lat="47.12309" lon="12.66866"><ele>3322</ele></trkpt>
    <trkpt lat="47.12315" lon="12.66839"><ele>3195</ele></trkpt>
    <trkpt lat="47.12306" lon="12.66810"><ele>3334</ele></trkpt>
    <trkpt lat="47.12321" lon="12.66786"><ele>3351</ele></trkpt>
    <trkpt lat="47.12302" lon="12.66763"><ele>3318</ele></trkpt>
    <trkpt lat="47.12324" lon="12.66718"><ele>3310</ele></trkpt>
    <trkpt lat="47.12299" lon="12.66700"><ele>3312</ele></trkpt>
    <trkpt lat="47.12306" lon="12.66692"><ele>3366</ele></trkpt>
    <trkpt lat="47.12291" lon="12.66645"><ele>3341</ele></trkpt>
    <trkpt lat="47.12282" lon="12.66629"><ele>3350</ele></trkpt>
    <trkpt lat="47.12282" lon="12.66646"><ele>3343</ele></trkpt>
    <trkpt lat="47.12277" lon="12.66626"><ele>3345</ele></trkpt>
    <trkpt lat="47.12291" lon="12.66543"><ele>3277</ele></trkpt>
    <trkpt lat="47.12292" lon="12.66564"><ele>3277</ele></trkpt>
    <trkpt lat="47.12300" lon="12.66573"><ele>3283</ele></trkpt>
    <trkpt lat="47.12318" lon="12.66578"><ele>3228</ele></trkpt>
    <trkpt lat="47.12328" lon="12.66574"><ele>3274</ele></trkpt>
    <trkpt lat="47.12366" lon="12.66544"><ele>3314</ele></trkpt>
    <trkpt lat="47.12370" lon="12.66569"><ele>3225</ele></trkpt>
    <trkpt lat="47.12378" lon="12.66589"><ele>3300</ele></trkpt>
    <trkpt lat="47.12404" lon="12.66594"><ele>3181</ele></trkpt>
    <trkpt lat="47.12412" lon="12.66604"><ele>3182</ele></trkpt>
    <trkpt lat="47.12431" lon="12.66579"><ele>3171</ele></trkpt>
    <trkpt lat="47.12484" lon="12.66438"><ele>3158</ele></trkpt>
    <trkpt lat="47.12493" lon="12.66426"><ele>3159</ele></trkpt>
    <trkpt lat="47.12484" lon="12.66433"><ele>3103</ele></trkpt>
    <trkpt lat="47.12473" lon="12.66326"><ele>3169</ele></trkpt>
    <trkpt lat="47.12486" lon="12.66339"><ele>3119</ele></trkpt>
    <trkpt lat="47.12478" lon="12.66321"><ele>3147</ele></trkpt>
    <trkpt lat="47.12479" lon="12.66341"><ele>3148</ele></trkpt>
    <trkpt lat="47.12459" lon="12.66315"><ele>3141</ele></trkpt>
    <trkpt lat="47.12487" lon="12.66289"><ele>3196</ele></trkpt>
    <trkpt lat="47.12483" lon="12.66275"><ele>3167</ele></trkpt>
    <trkpt lat="47.12523" lon="12.66254"><ele>3194</ele></trkpt>
    <trkpt lat="47.12486" lon="12.66239"><ele>3166</ele></trkpt>
    <trkpt lat="47.12463" lon="12.66222"><ele>3196</ele></trkpt>
    <trkpt lat="47.12466" lon="12.66210"><ele>3183</ele></trkpt>
    <trkpt lat="47.12408" lon="12.66244"><ele>3199</ele></trkpt>
    <trkpt lat="47.12411" lon="12.66269"><ele>3214</ele></trkpt>
    <trkpt lat="47.12400" lon="12.66286"><ele>3217</ele></trkpt>
    <trkpt lat="47.12347" lon="12.66347"><ele>3215</ele></trkpt>
    <trkpt lat="47.12342" lon="12.66358"><ele>3237</ele></trkpt>
    <trkpt lat="47.12354" lon="12.66397"><ele>3211</ele></trkpt>
    <trkpt lat="47.12345" lon="12.66402"><ele>3210</ele></trkpt>
    <trkpt lat="47.12304" lon="12.66456"><ele>3310</ele></trkpt>
    <trkpt lat="47.12294" lon="12.66499"><ele>3247</ele></trkpt>
    <trkpt lat="47.12294" lon="12.66537"><ele>3318</ele></trkpt>
    <trkpt lat="47.12272" lon="12.66583"><ele>3341</ele></trkpt>
    <trkpt lat="47.12285" lon="12.66583"><ele>3301</ele></trkpt>
    <trkpt lat="47.12281" lon="12.66632"><ele>3013</ele></trkpt>
    <trkpt lat="47.12326" lon="12.66767"><ele>2903</ele></trkpt>
    <trkpt lat="47.12261" lon="12.66836"><ele>3365</ele></trkpt>
    <trkpt lat="47.12241" lon="12.66880"><ele>3291</ele></trkpt>
    <trkpt lat="47.12188" lon="12.67113"><ele>3251</ele></trkpt>
    <trkpt lat="47.12199" lon="12.67107"><ele>3246</ele></trkpt>
    <trkpt lat="47.12062" lon="12.67396"><ele>3129</ele></trkpt>
    <trkpt lat="47.12052" lon="12.67402"><ele>3162</ele></trkpt>
    <trkpt lat="47.11916" lon="12.67774"><ele>3134</ele></trkpt>
    <trkpt lat="47.11900" lon="12.67914"><ele>3119</ele></trkpt>
    <trkpt lat="47.11909" lon="12.67925"><ele>3101</ele></trkpt>
    <trkpt lat="47.11878" lon="12.68090"><ele>3071</ele></trkpt>
    <trkpt lat="47.11816" lon="12.68253"><ele>3080</ele></trkpt>
    <trkpt lat="47.11795" lon="12.68449"><ele>3028</ele></trkpt>
    <trkpt lat="47.11747" lon="12.68507"><ele>3074</ele></trkpt>
    <trkpt lat="47.11736" lon="12.68611"><ele>3052</ele></trkpt>
    <trkpt lat="47.11741" lon="12.68671"><ele>3045</ele></trkpt>
    <trkpt lat="47.11688" lon="12.68725"><ele>3108</ele></trkpt>
    <trkpt lat="47.11707" lon="12.68831"><ele>3043</ele></trkpt>
    <trkpt lat="47.11720" lon="12.68884"><ele>2983</ele></trkpt>
    <trkpt lat="47.11648" lon="12.68882"><ele>3077</ele></trkpt>
    <trkpt lat="47.11662" lon="12.68941"><ele>3038</ele></trkpt>
    <trkpt lat="47.11624" lon="12.69048"><ele>3055</ele></trkpt>
    <trkpt lat="47.11625" lon="12.69106"><ele>2987</ele></trkpt>
    <trkpt lat="47.11573" lon="12.69173"><ele>2890</ele></trkpt>
    <trkpt lat="47.11499" lon="12.69367"><ele>3002</ele></trkpt>
    <trkpt lat="47.11508" lon="12.69461"><ele>2964</ele></trkpt>
    <trkpt lat="47.11431" lon="12.69610"><ele>2850</ele></trkpt>
    <trkpt lat="47.11393" lon="12.69842"><ele>2934</ele></trkpt>
    <trkpt lat="47.11367" lon="12.69895"><ele>3069</ele></trkpt>
    <trkpt lat="47.11365" lon="12.69933"><ele>3017</ele></trkpt>
    <trkpt lat="47.11353" lon="12.69952"><ele>2941</ele></trkpt>
    <trkpt lat="47.11375" lon="12.69957"><ele>2929</ele></trkpt>
    <trkpt lat="47.11372" lon="12.69984"><ele>2957</ele></trkpt>
    <trkpt lat="47.11385" lon="12.69982"><ele>2931</ele></trkpt>
    <trkpt lat="47.11387" lon="12.70008"><ele>2935</ele></trkpt>
    <trkpt lat="47.11396" lon="12.70028"><ele>2900</ele></trkpt>
    <trkpt lat="47.11407" lon="12.70059"><ele>2926</ele></trkpt>
    <trkpt lat="47.11417" lon="12.70094"><ele>3072</ele></trkpt>
    <trkpt lat="47.11428" lon="12.70110"><ele>2959</ele></trkpt>
    <trkpt lat="47.11437" lon="12.70187"><ele>2930</ele></trkpt>
    <trkpt lat="47.11438" lon="12.70201"><ele>2929</ele></trkpt>
    <trkpt lat="47.11444" lon="12.70278"><ele>2936</ele></trkpt>
    <trkpt lat="47.11449" lon="12.70313"><ele>2951</ele></trkpt>
    <trkpt lat="47.11393" lon="12.70410"><ele>3060</ele></trkpt>
    <trkpt lat="47.11397" lon="12.70466"><ele>3040</ele></trkpt>
    <trkpt lat="47.11387" lon="12.70486"><ele>3036</ele></trkpt>
    <trkpt lat="47.11408" lon="12.70540"><ele>3010</ele></trkpt>
    <trkpt lat="47.11401" lon="12.70554"><ele>3037</ele></trkpt>
    <trkpt lat="47.11409" lon="12.70565"><ele>3050</ele></trkpt>
    <trkpt lat="47.11395" lon="12.70588"><ele>3040</ele></trkpt>
    <trkpt lat="47.11412" lon="12.70635"><ele>3035</ele></trkpt>
    <trkpt lat="47.11422" lon="12.70630"><ele>3026</ele></trkpt>
    <trkpt lat="47.11468" lon="12.70653"><ele>3027</ele></trkpt>
    <trkpt lat="47.11463" lon="12.70684"><ele>3067</ele></trkpt>
    <trkpt lat="47.11478" lon="12.70689"><ele>3047</ele></trkpt>
    <trkpt lat="47.11483" lon="12.70754"><ele>3070</ele></trkpt>
    <trkpt lat="47.11492" lon="12.70775"><ele>3108</ele></trkpt>
    <trkpt lat="47.11500" lon="12.70849"><ele>3073</ele></trkpt>
    <trkpt lat="47.11522" lon="12.70923"><ele>3076</ele></trkpt>
    <trkpt lat="47.11536" lon="12.70981"><ele>3091</ele></trkpt>
    <trkpt lat="47.11547" lon="12.70965"><ele>3103</ele></trkpt>
    <trkpt lat="47.11554" lon="12.71006"><ele>3099</ele></trkpt>
    <trkpt lat="47.11555" lon="12.71039"><ele>3120</ele></trkpt>
    <trkpt lat="47.11601" lon="12.71075"><ele>3097</ele></trkpt>
    <trkpt lat="47.11602" lon="12.71094"><ele>3134</ele></trkpt>
    <trkpt lat="47.11602" lon="12.71114"><ele>2782</ele></trkpt>
    <trkpt lat="47.11634" lon="12.71127"><ele>3062</ele></trkpt>
    <trkpt lat="47.11649" lon="12.71173"><ele>3145</ele></trkpt>
    <trkpt lat="47.11673" lon="12.71159"><ele>3143</ele></trkpt>
    <trkpt lat="47.11699" lon="12.71156"><ele>3130</ele></trkpt>
    <trkpt lat="47.11698" lon="12.71183"><ele>3127</ele></trkpt>
    <trkpt lat="47.11721" lon="12.71236"><ele>3162</ele></trkpt>
    <trkpt lat="47.11749" lon="12.71229"><ele>3148</ele></trkpt>
    <trkpt lat="47.11763" lon="12.71280"><ele>3172</ele></trkpt>
    <trkpt lat="47.11764" lon="12.71333"><ele>3163</ele></trkpt>
    <trkpt lat="47.11780" lon="12.71328"><ele>3171</ele></trkpt>
    <trkpt lat="47.11781" lon="12.71359"><ele>3195</ele></trkpt>
    <trkpt lat="47.11789" lon="12.71390"><ele>3218</ele></trkpt>
    <trkpt lat="47.11792" lon="12.71412"><ele>3170</ele></trkpt>
    <trkpt lat="47.11820" lon="12.71399"><ele>3204</ele></trkpt>
    <trkpt lat="47.11870" lon="12.71353"><ele>3155</ele></trkpt>
    <trkpt lat="47.11895" lon="12.71374"><ele>3210</ele></trkpt>
    <trkpt lat="47.11917" lon="12.71363"><ele>3224</ele></trkpt>
    <trkpt lat="47.11920" lon="12.71382"><ele>3156</ele></trkpt>
    <trkpt lat="47.11945" lon="12.71401"><ele>3249</ele></trkpt>
    <trkpt lat="47.11969" lon="12.71372"><ele>3260</ele></trkpt>
    <trkpt lat="47.11987" lon="12.71397"><ele>3260</ele></trkpt>
    <trkpt lat="47.12041" lon="12.71361"><ele>3276</ele></trkpt>
    <trkpt lat="47.12064" lon="12.71358"><ele>3275</ele></trkpt>
    <trkpt lat="47.12080" lon="12.71295"><ele>3284</ele></trkpt>
    <trkpt lat="47.12111" lon="12.71329"><ele>3266</ele></trkpt>
    <trkpt lat="47.12123" lon="12.71339"><ele>3314</ele></trkpt>
    <trkpt lat="47.11969" lon="12.71357"><ele>3101</ele></trkpt>
    <trkpt lat="47.11915" lon="12.71391"><ele>3197</ele></trkpt>
    <trkpt lat="47.11738" lon="12.71495"><ele>3036</ele></trkpt>
    <trkpt lat="47.11722" lon="12.71492"><ele>2901</ele></trkpt>
    <trkpt lat="47.11687" lon="12.71548"><ele>3162</ele></trkpt>
    <trkpt lat="47.11637" lon="12.71589"><ele>3185</ele></trkpt>
    <trkpt lat="47.11558" lon="12.71618"><ele>3151</ele></trkpt>
    <trkpt lat="47.11501" lon="12.71663"><ele>3186</ele></trkpt>
    <trkpt lat="47.11426" lon="12.71771"><ele>3058</ele></trkpt>
    <trkpt lat="47.11355" lon="12.71882"><ele>3144</ele></trkpt>
    <trkpt lat="47.11349" lon="12.71865"><ele>3145</ele></trkpt>
    <trkpt lat="47.11314" lon="12.71892"><ele>3085</ele></trkpt>
    <trkpt lat="47.11308" lon="12.71908"><ele>3220</ele></trkpt>
    <trkpt lat="47.11281" lon="12.71988"><ele>3075</ele></trkpt>
    <trkpt lat="47.11246" lon="12.72000"><ele>3040</ele></trkpt>
    <trkpt lat="47.11225" lon="12.72005"><ele>3010</ele></trkpt>
    <trkpt lat="47.11148" lon="12.72061"><ele>2979</ele></trkpt>
    <trkpt lat="47.11134" lon="12.72052"><ele>2974</ele></trkpt>
    <trkpt lat="47.11009" lon="12.72165"><ele>3093</ele></trkpt>
    <trkpt lat="47.10987" lon="12.72196"><ele>2949</ele></trkpt>
    <trkpt lat="47.10903" lon="12.72212"><ele>2826</ele></trkpt>
    <trkpt lat="47.10718" lon="12.72289"><ele>2838</ele></trkpt>
    <trkpt lat="47.10630" lon="12.72264"><ele>2839</ele></trkpt>
    <trkpt lat="47.10604" lon="12.72306"><ele>2836</ele></trkpt>
    <trkpt lat="47.10490" lon="12.72306"><ele>2853</ele></trkpt>
    <trkpt lat="47.10371" lon="12.72304"><ele>2793</ele></trkpt>
    <trkpt lat="47.10227" lon="12.72393"><ele>2778</ele></trkpt>
    <trkpt lat="47.10102" lon="12.72454"><ele>2926</ele></trkpt>
    <trkpt lat="47.10003" lon="12.72518"><ele>2681</ele></trkpt>
    <trkpt lat="47.09803" lon="12.72559"><ele>2659</ele></trkpt>
    <trkpt lat="47.09759" lon="12.72594"><ele>2896</ele></trkpt>
    <trkpt lat="47.09751" lon="12.72607"><ele>2749</ele></trkpt>
    <trkpt lat="47.09705" lon="12.72630"><ele>2674</ele></trkpt>
    <trkpt lat="47.09601" lon="12.72700"><ele>2681</ele></trkpt>
    <trkpt lat="47.09574" lon="12.72694"><ele>2653</ele></trkpt>
    <trkpt lat="47.09514" lon="12.72783"><ele>2623</ele></trkpt>
    <trkpt lat="47.09429" lon="12.72796"><ele>2609</ele></trkpt>
    <trkpt lat="47.09364" lon="12.72819"><ele>2645</ele></trkpt>
    <trkpt lat="47.09314" lon="12.72821"><ele>2575</ele></trkpt>
    <trkpt lat="47.09297" lon="12.72893"><ele>2611</ele></trkpt>
    <trkpt lat="47.09172" lon="12.72870"><ele>2549</ele></trkpt>
    <trkpt lat="47.09099" lon="12.72974"><ele>2639</ele></trkpt>
    <trkpt lat="47.09099" lon="12.72988"><ele>2543</ele></trkpt>
    <trkpt lat="47.09090" lon="12.73005"><ele>2535</ele></trkpt>
    <trkpt lat="47.09064" lon="12.72995"><ele>2522</ele></trkpt>
    <trkpt lat="47.09013" lon="12.73044"><ele>2518</ele></trkpt>
    <trkpt lat="47.08950" lon="12.73156"><ele>2522</ele></trkpt>
    <trkpt lat="47.08935" lon="12.73186"><ele>2541</ele></trkpt>
    <trkpt lat="47.08933" lon="12.73235"><ele>2521</ele></trkpt>
    <trkpt lat="47.08913" lon="12.73264"><ele>2534</ele></trkpt>
    <trkpt lat="47.08892" lon="12.73308"><ele>2542</ele></trkpt>
    <trkpt lat="47.08877" lon="12.73341"><ele>2546</ele></trkpt>
    <trkpt lat="47.08875" lon="12.73409"><ele>2499</ele></trkpt>
    <trkpt lat="47.08870" lon="12.73468"><ele>2518</ele></trkpt>
    <trkpt lat="47.08850" lon="12.73505"><ele>2523</ele></trkpt>
    <trkpt lat="47.08858" lon="12.73538"><ele>2491</ele></trkpt>
    <trkpt lat="47.08868" lon="12.73605"><ele>2504</ele></trkpt>
    <trkpt lat="47.08840" lon="12.73643"><ele>2515</ele></trkpt>
    <trkpt lat="47.08810" lon="12.73659"><ele>2503</ele></trkpt>
    <trkpt lat="47.08769" lon="12.73688"><ele>2501</ele></trkpt>
    <trkpt lat="47.08738" lon="12.73728"><ele>2476</ele></trkpt>
    <trkpt lat="47.08722" lon="12.73737"><ele>2494</ele></trkpt>
    <trkpt lat="47.08701" lon="12.73771"><ele>2470</ele></trkpt>
    <trkpt lat="47.08678" lon="12.73791"><ele>2467</ele></trkpt>
    <trkpt lat="47.08672" lon="12.73849"><ele>2506</ele></trkpt>
    <trkpt lat="47.08626" lon="12.73875"><ele>2501</ele></trkpt>
    <trkpt lat="47.08614" lon="12.73949"><ele>2476</ele></trkpt>
    <trkpt lat="47.08611" lon="12.73994"><ele>2485</ele></trkpt>
    <trkpt lat="47.08592" lon="12.74081"><ele>2472</ele></trkpt>
    <trkpt lat="47.08567" lon="12.74140"><ele>2468</ele></trkpt>
    <trkpt lat="47.08520" lon="12.74139"><ele>2446</ele></trkpt>
    <trkpt lat="47.08507" lon="12.74251"><ele>2438</ele></trkpt>
    <trkpt lat="47.08422" lon="12.74243"><ele>2432</ele></trkpt>
    <trkpt lat="47.08406" lon="12.74335"><ele>2447</ele></trkpt>
    <trkpt lat="47.08376" lon="12.74297"><ele>2533</ele></trkpt>
    <trkpt lat="47.08400" lon="12.74351"><ele>2449</ele></trkpt>
    <trkpt lat="47.08409" lon="12.74339"><ele>2464</ele></trkpt>
    <trkpt lat="47.08393" lon="12.74327"><ele>2432</ele></trkpt>
    <trkpt lat="47.08389" lon="12.74374"><ele>2428</ele></trkpt>
    <trkpt lat="47.08398" lon="12.74350"><ele>2427</ele></trkpt>
    <trkpt lat="47.08391" lon="12.74374"><ele>2516</ele></trkpt>
    <trkpt lat="47.08386" lon="12.74361"><ele>2458</ele></trkpt>
    <trkpt lat="47.08378" lon="12.74328"><ele>2455</ele></trkpt>
    <trkpt lat="47.08364" lon="12.74312"><ele>2422</ele></trkpt>
    <trkpt lat="47.08365" lon="12.74349"><ele>2457</ele></trkpt>
    <trkpt lat="47.08347" lon="12.74365"><ele>2436</ele></trkpt>
    <trkpt lat="47.08345" lon="12.74412"><ele>2435</ele></trkpt>
    <trkpt lat="47.08308" lon="12.74454"><ele>2412</ele></trkpt>
    <trkpt lat="47.08278" lon="12.74422"><ele>2403</ele></trkpt>
    <trkpt lat="47.08293" lon="12.74490"><ele>2421</ele></trkpt>
    <trkpt lat="47.08302" lon="12.74529"><ele>2436</ele></trkpt>
    <trkpt lat="47.08244" lon="12.74533"><ele>2414</ele></trkpt>
    <trkpt lat="47.08265" lon="12.74673"><ele>2474</ele></trkpt>
    <trkpt lat="47.08225" lon="12.74607"><ele>2535</ele></trkpt>
    <trkpt lat="47.08110" lon="12.74688"><ele>2386</ele></trkpt>
    <trkpt lat="47.08062" lon="12.74704"><ele>2469</ele></trkpt>
    <trkpt lat="47.07992" lon="12.74858"><ele>2379</ele></trkpt>
    <trkpt lat="47.07547" lon="12.75104"><ele>2389</ele></trkpt>
    <trkpt lat="47.07519" lon="12.75087"><ele>2341</ele></trkpt>
    <trkpt lat="47.07498" lon="12.75128"><ele>2372</ele></trkpt>
    <trkpt lat="47.07468" lon="12.75161"><ele>2356</ele></trkpt>
    <trkpt lat="47.07463" lon="12.75149"><ele>2347</ele></trkpt>
    <trkpt lat="47.07493" lon="12.75159"><ele>2339</ele></trkpt>
  </trkseg>
</trk>
</gpx>