<?xml version="1.0" encoding="UTF-8"?>
<gpx version="1.1" creator="Gpx-Optimizer" xmlns="http://www.topografix.com/GPX/1/1">
<trk>
  <name>Planspitze_Pichlweg</name>
  <type>hike</type>
  <trkseg>
    <trkpt lat="47.58913" lon="14.62549"><ele>572</ele></trkpt>
    <trkpt lat="47.58872" lon="14.62525"><ele>606</ele></trkpt>
    <trkpt lat="47.58863" lon="14.62500"><ele>644</ele></trkpt>
    <trkpt lat="47.58818" lon="14.62527"><ele>589</ele></trkpt>
    <trkpt lat="47.58798" lon="14.62526"><ele>598</ele></trkpt>
    <trkpt lat="47.58777" lon="14.62529"><ele>603</ele></trkpt>
    <trkpt lat="47.58756" lon="14.62537"><ele>607</ele></trkpt>
    <trkpt lat="47.58733" lon="14.62555"><ele>615</ele></trkpt>
    <trkpt lat="47.58717" lon="14.62571"><ele>623</ele></trkpt>
    <trkpt lat="47.58701" lon="14.62584"><ele>625</ele></trkpt>
    <trkpt lat="47.58683" lon="14.62596"><ele>635</ele></trkpt>
    <trkpt lat="47.58672" lon="14.62607"><ele>629</ele></trkpt>
    <trkpt lat="47.58655" lon="14.62623"><ele>630</ele></trkpt>
    <trkpt lat="47.58628" lon="14.62654"><ele>647</ele></trkpt>
    <trkpt lat="47.58606" lon="14.62663"><ele>637</ele></trkpt>
    <trkpt lat="47.58616" lon="14.62672"><ele>674</ele></trkpt>
    <trkpt lat="47.58592" lon="14.62670"><ele>642</ele></trkpt>
    <trkpt lat="47.58550" lon="14.62645"><ele>660</ele></trkpt>
    <trkpt lat="47.58538" lon="14.62649"><ele>642</ele></trkpt>
    <trkpt lat="47.58523" lon="14.62650"><ele>645</ele></trkpt>
    <trkpt lat="47.58517" lon="14.62630"><ele>719</ele></trkpt>
    <trkpt lat="47.58503" lon="14.62648"><ele>699</ele></trkpt>
    <trkpt lat="47.58478" lon="14.62648"><ele>687</ele></trkpt>
    <trkpt lat="47.58468" lon="14.62616"><ele>704</ele></trkpt>
    <trkpt lat="47.58451" lon="14.62603"><ele>703</ele></trkpt>
    <trkpt lat="47.58432" lon="14.62619"><ele>720</ele></trkpt>
    <trkpt lat="47.58409" lon="14.62569"><ele>737</ele></trkpt>
    <trkpt lat="47.58384" lon="14.62582"><ele>719</ele></trkpt>
    <trkpt lat="47.58368" lon="14.62556"><ele>707</ele></trkpt>
    <trkpt lat="47.58341" lon="14.62541"><ele>724</ele></trkpt>
    <trkpt lat="47.58321" lon="14.62565"><ele>772</ele></trkpt>
    <trkpt lat="47.58300" lon="14.62534"><ele>812</ele></trkpt>
    <trkpt lat="47.58276" lon="14.62560"><ele>787</ele></trkpt>
    <trkpt lat="47.58260" lon="14.62557"><ele>780</ele></trkpt>
    <trkpt lat="47.58268" lon="14.62597"><ele>819</ele></trkpt>
    <trkpt lat="47.58254" lon="14.62583"><ele>838</ele></trkpt>
    <trkpt lat="47.58240" lon="14.62582"><ele>843</ele></trkpt>
    <trkpt lat="47.58230" lon="14.62593"><ele>848</ele></trkpt>
    <trkpt lat="47.58217" lon="14.62617"><ele>858</ele></trkpt>
    <trkpt lat="47.58237" lon="14.62619"><ele>786</ele></trkpt>
    <trkpt lat="47.58230" lon="14.62644"><ele>843</ele></trkpt>
    <trkpt lat="47.58234" lon="14.62661"><ele>882</ele></trkpt>
    <trkpt lat="47.58196" lon="14.62668"><ele>892</ele></trkpt>
    <trkpt lat="47.58198" lon="14.62708"><ele>858</ele></trkpt>
    <trkpt lat="47.58192" lon="14.62723"><ele>811</ele></trkpt>
    <trkpt lat="47.58175" lon="14.62767"><ele>934</ele></trkpt>
    <trkpt lat="47.58145" lon="14.62786"><ele>887</ele></trkpt>
    <trkpt lat="47.58145" lon="14.62805"><ele>837</ele></trkpt>
    <trkpt lat="47.58101" lon="14.62910"><ele>1015</ele></trkpt>
    <trkpt lat="47.58086" lon="14.62907"><ele>1018</ele></trkpt>
    <trkpt lat="47.58061" lon="14.62911"><ele>1023</ele></trkpt>
    <trkpt lat="47.58040" lon="14.62877"><ele>1040</ele></trkpt>
    <trkpt lat="47.58042" lon="14.62894"><ele>987</ele></trkpt>
    <trkpt lat="47.58023" lon="14.62884"><ele>1008</ele></trkpt>
    <trkpt lat="47.58017" lon="14.62858"><ele>1024</ele></trkpt>
    <trkpt lat="47.58008" lon="14.62871"><ele>982</ele></trkpt>
    <trkpt lat="47.57986" lon="14.62895"><ele>1041</ele></trkpt>
    <trkpt lat="47.57971" lon="14.62889"><ele>984</ele></trkpt>
    <trkpt lat="47.57950" lon="14.62875"><ele>1035</ele></trkpt>
    <trkpt lat="47.57941" lon="14.62914"><ele>1062</ele></trkpt>
    <trkpt lat="47.57968" lon="14.62923"><ele>1096</ele></trkpt>
    <trkpt lat="47.57953" lon="14.62939"><ele>1043</ele></trkpt>
    <trkpt lat="47.57942" lon="14.62955"><ele>1043</ele></trkpt>
    <trkpt lat="47.57919" lon="14.63049"><ele>1049</ele></trkpt>
    <trkpt lat="47.57911" lon="14.63067"><ele>1088</ele></trkpt>
    <trkpt lat="47.57888" lon="14.63136"><ele>1149</ele></trkpt>
    <trkpt lat="47.57879" lon="14.63144"><ele>1083</ele></trkpt>
    <trkpt lat="47.57885" lon="14.63187"><ele>1115</ele></trkpt>
    <trkpt lat="47.57856" lon="14.63175"><ele>1096</ele></trkpt>
    <trkpt lat="47.57845" lon="14.63193"><ele>1072</ele></trkpt>
    <trkpt lat="47.57852" lon="14.63167"><ele>1010</ele></trkpt>
    <trkpt lat="47.57833" lon="14.63157"><ele>1210</ele></trkpt>
    <trkpt lat="47.57801" lon="14.63188"><ele>1180</ele></trkpt>
    <trkpt lat="47.57786" lon="14.63199"><ele>1188</ele></trkpt>
    <trkpt lat="47.57735" lon="14.63189"><ele>1076</ele></trkpt>
    <trkpt lat="47.57726" lon="14.63216"><ele>1231</ele></trkpt>
    <trkpt lat="47.57760" lon="14.63255"><ele>1282</ele></trkpt>
    <trkpt lat="47.57730" lon="14.63267"><ele>1266</ele></trkpt>
    <trkpt lat="47.57704" lon="14.63234"><ele>1253</ele></trkpt>
    <trkpt lat="47.57682" lon="14.63268"><ele>1277</ele></trkpt>
    <trkpt lat="47.57683" lon="14.63305"><ele>1287</ele></trkpt>
    <trkpt lat="47.57668" lon="14.63299"><ele>1301</ele></trkpt>
    <trkpt lat="47.57675" lon="14.63314"><ele>1285</ele></trkpt>
    <trkpt lat="47.57645" lon="14.63392"><ele>1216</ele></trkpt>
    <trkpt lat="47.57637" lon="14.63369"><ele>1295</ele></trkpt>
    <trkpt lat="47.57645" lon="14.63396"><ele>1365</ele></trkpt>
    <trkpt lat="47.57653" lon="14.63418"><ele>1352</ele></trkpt>
    <trkpt lat="47.57631" lon="14.63433"><ele>1334</ele></trkpt>
    <trkpt lat="47.57652" lon="14.63428"><ele>1280</ele></trkpt>
    <trkpt lat="47.57636" lon="14.63450"><ele>1273</ele></trkpt>
    <trkpt lat="47.57622" lon="14.63456"><ele>1338</ele></trkpt>
    <trkpt lat="47.57608" lon="14.63464"><ele>1382</ele></trkpt>
    <trkpt lat="47.57596" lon="14.63468"><ele>1391</ele></trkpt>
    <trkpt lat="47.57580" lon="14.63480"><ele>1327</ele></trkpt>
    <trkpt lat="47.57568" lon="14.63483"><ele>1410</ele></trkpt>
    <trkpt lat="47.57557" lon="14.63491"><ele>1159</ele></trkpt>
    <trkpt lat="47.57544" lon="14.63498"><ele>1412</ele></trkpt>
    <trkpt lat="47.57530" lon="14.63506"><ele>1430</ele></trkpt>
    <trkpt lat="47.57519" lon="14.63523"><ele>1412</ele></trkpt>
    <trkpt lat="47.57520" lon="14.63546"><ele>1437</ele></trkpt>
    <trkpt lat="47.57518" lon="14.63562"><ele>1446</ele></trkpt>
    <trkpt lat="47.57505" lon="14.63572"><ele>1452</ele></trkpt>
    <trkpt lat="47.57495" lon="14.63583"><ele>1436</ele></trkpt>
    <trkpt lat="47.57496" lon="14.63605"><ele>1454</ele></trkpt>
    <trkpt lat="47.57499" lon="14.63623"><ele>1329</ele></trkpt>
    <trkpt lat="47.57494" lon="14.63638"><ele>1444</ele></trkpt>
    <trkpt lat="47.57503" lon="14.63656"><ele>1510</ele></trkpt>
    <trkpt lat="47.57511" lon="14.63668"><ele>1504</ele></trkpt>
    <trkpt lat="47.57523" lon="14.63672"><ele>1501</ele></trkpt>
    <trkpt lat="47.57525" lon="14.63694"><ele>1498</ele></trkpt>
    <trkpt lat="47.57533" lon="14.63720"><ele>1481</ele></trkpt>
    <trkpt lat="47.57545" lon="14.63729"><ele>1473</ele></trkpt>
    <trkpt lat="47.57557" lon="14.63738"><ele>1466</ele></trkpt>
    <trkpt lat="47.57569" lon="14.63757"><ele>1458</ele></trkpt>
    <trkpt lat="47.57580" lon="14.63758"><ele>1436</ele></trkpt>
    <trkpt lat="47.57599" lon="14.63767"><ele>1450</ele></trkpt>
    <trkpt lat="47.57618" lon="14.63785"><ele>1445</ele></trkpt>
    <trkpt lat="47.57631" lon="14.63811"><ele>1442</ele></trkpt>
    <trkpt lat="47.57643" lon="14.63839"><ele>1430</ele></trkpt>
    <trkpt lat="47.57640" lon="14.63815"><ele>1446</ele></trkpt>
    <trkpt lat="47.57631" lon="14.63803"><ele>1456</ele></trkpt>
    <trkpt lat="47.57658" lon="14.63866"><ele>1435</ele></trkpt>
    <trkpt lat="47.57647" lon="14.63828"><ele>1458</ele></trkpt>
    <trkpt lat="47.57637" lon="14.63815"><ele>1460</ele></trkpt>
    <trkpt lat="47.57625" lon="14.63797"><ele>1462</ele></trkpt>
    <trkpt lat="47.57614" lon="14.63800"><ele>1498</ele></trkpt>
    <trkpt lat="47.57601" lon="14.63812"><ele>1518</ele></trkpt>
    <trkpt lat="47.57597" lon="14.63834"><ele>1346</ele></trkpt>
    <trkpt lat="47.57606" lon="14.63824"><ele>1531</ele></trkpt>
    <trkpt lat="47.57600" lon="14.63807"><ele>1474</ele></trkpt>
    <trkpt lat="47.57594" lon="14.63792"><ele>1530</ele></trkpt>
    <trkpt lat="47.57579" lon="14.63797"><ele>1541</ele></trkpt>
    <trkpt lat="47.57573" lon="14.63810"><ele>1515</ele></trkpt>
    <trkpt lat="47.57562" lon="14.63837"><ele>1449</ele></trkpt>
    <trkpt lat="47.57548" lon="14.63828"><ele>1599</ele></trkpt>
    <trkpt lat="47.57536" lon="14.63827"><ele>1490</ele></trkpt>
    <trkpt lat="47.57525" lon="14.63831"><ele>1507</ele></trkpt>
    <trkpt lat="47.57511" lon="14.63838"><ele>1540</ele></trkpt>
    <trkpt lat="47.57525" lon="14.63889"><ele>1589</ele></trkpt>
    <trkpt lat="47.57532" lon="14.63938"><ele>1479</ele></trkpt>
    <trkpt lat="47.57537" lon="14.63976"><ele>1447</ele></trkpt>
    <trkpt lat="47.57529" lon="14.63995"><ele>1637</ele></trkpt>
    <trkpt lat="47.57528" lon="14.64019"><ele>1603</ele></trkpt>
    <trkpt lat="47.57527" lon="14.64055"><ele>1659</ele></trkpt>
    <trkpt lat="47.57538" lon="14.64077"><ele>1519</ele></trkpt>
    <trkpt lat="47.57535" lon="14.64101"><ele>1574</ele></trkpt>
    <trkpt lat="47.57529" lon="14.64118"><ele>1774</ele></trkpt>
    <trkpt lat="47.57519" lon="14.64128"><ele>1490</ele></trkpt>
    <trkpt lat="47.57501" lon="14.64129"><ele>1837</ele></trkpt>
    <trkpt lat="47.57490" lon="14.64134"><ele>1856</ele></trkpt>
    <trkpt lat="47.57475" lon="14.64146"><ele>1853</ele></trkpt>
    <trkpt lat="47.57478" lon="14.64104"><ele>1765</ele></trkpt>
    <trkpt lat="47.57473" lon="14.64088"><ele>1879</ele></trkpt>
    <trkpt lat="47.57463" lon="14.64071"><ele>1883</ele></trkpt>
    <trkpt lat="47.57454" lon="14.64051"><ele>1892</ele></trkpt>
    <trkpt lat="47.57447" lon="14.64033"><ele>1842</ele></trkpt>
    <trkpt lat="47.57431" lon="14.64013"><ele>1873</ele></trkpt>
    <trkpt lat="47.57424" lon="14.63988"><ele>1823</ele></trkpt>
    <trkpt lat="47.57409" lon="14.63976"><ele>1896</ele></trkpt>
    <trkpt lat="47.57408" lon="14.63945"><ele>1869</ele></trkpt>
    <trkpt lat="47.57387" lon="14.63933"><ele>1961</ele></trkpt>
    <trkpt lat="47.57379" lon="14.63922"><ele>1981</ele></trkpt>
    <trkpt lat="47.57372" lon="14.63902"><ele>1988</ele></trkpt>
    <trkpt lat="47.57370" lon="14.63881"><ele>1967</ele></trkpt>
    <trkpt lat="47.57365" lon="14.63864"><ele>1987</ele></trkpt>
    <trkpt lat="47.57354" lon="14.63873"><ele>2010</ele></trkpt>
    <trkpt lat="47.57346" lon="14.63883"><ele>1607</ele></trkpt>
    <trkpt lat="47.57331" lon="14.63882"><ele>2003</ele></trkpt>
    <trkpt lat="47.57317" lon="14.63872"><ele>2041</ele></trkpt>
    <trkpt lat="47.57305" lon="14.63867"><ele>2061</ele></trkpt>
    <trkpt lat="47.57295" lon="14.63880"><ele>2074</ele></trkpt>
    <trkpt lat="47.57303" lon="14.63924"><ele>2030</ele></trkpt>
    <trkpt lat="47.57307" lon="14.63950"><ele>2085</ele></trkpt>
    <trkpt lat="47.57321" lon="14.63964"><ele>2105</ele></trkpt>
    <trkpt lat="47.57332" lon="14.63947"><ele>2119</ele></trkpt>
    <trkpt lat="47.57345" lon="14.63995"><ele>2123</ele></trkpt>
    <trkpt lat="47.57357" lon="14.64009"><ele>2116</ele></trkpt>
    <trkpt lat="47.57360" lon="14.64034"><ele>2116</ele></trkpt>
    <trkpt lat="47.57371" lon="14.64057"><ele>2111</ele></trkpt>
    <trkpt lat="47.57385" lon="14.64078"><ele>2100</ele></trkpt>
    <trkpt lat="47.57401" lon="14.64125"><ele>2111</ele></trkpt>
    <trkpt lat="47.57402" lon="14.64101"><ele>2102</ele></trkpt>
    <trkpt lat="47.57398" lon="14.64127"><ele>2084</ele></trkpt>
    <trkpt lat="47.57384" lon="14.64137"><ele>2071</ele></trkpt>
    <trkpt lat="47.57378" lon="14.64167"><ele>2076</ele></trkpt>
    <trkpt lat="47.57402" lon="14.64184"><ele>2024</ele></trkpt>
    <trkpt lat="47.57401" lon="14.64206"><ele>2029</ele></trkpt>
    <trkpt lat="47.57415" lon="14.64202"><ele>2010</ele></trkpt>
    <trkpt lat="47.57435" lon="14.64211"><ele>2009</ele></trkpt>
    <trkpt lat="47.57451" lon="14.64225"><ele>2024</ele></trkpt>
    <trkpt lat="47.57459" lon="14.64250"><ele>2018</ele></trkpt>
    <trkpt lat="47.57472" lon="14.64280"><ele>2012</ele></trkpt>
    <trkpt lat="47.57483" lon="14.64298"><ele>1999</ele></trkpt>
    <trkpt lat="47.57490" lon="14.64330"><ele>1998</ele></trkpt>
    <trkpt lat="47.57505" lon="14.64353"><ele>1996</ele></trkpt>
    <trkpt lat="47.57512" lon="14.64388"><ele>1992</ele></trkpt>
    <trkpt lat="47.57524" lon="14.64403"><ele>1987</ele></trkpt>
    <trkpt lat="47.57534" lon="14.64422"><ele>1992</ele></trkpt>
    <trkpt lat="47.57534" lon="14.64452"><ele>1985</ele></trkpt>
    <trkpt lat="47.57537" lon="14.64473"><ele>1979</ele></trkpt>
    <trkpt lat="47.57547" lon="14.64506"><ele>1973</ele></trkpt>
    <trkpt lat="47.57564" lon="14.64524"><ele>1966</ele></trkpt>
    <trkpt lat="47.57581" lon="14.64546"><ele>1957</ele></trkpt>
    <trkpt lat="47.57587" lon="14.64563"><ele>1958</ele></trkpt>
    <trkpt lat="47.57588" lon="14.64583"><ele>1950</ele></trkpt>
    <trkpt lat="47.57597" lon="14.64599"><ele>1940</ele></trkpt>
    <trkpt lat="47.57594" lon="14.64629"><ele>1939</ele></trkpt>
    <trkpt lat="47.57574" lon="14.64656"><ele>1916</ele></trkpt>
    <trkpt lat="47.57566" lon="14.64686"><ele>1906</ele></trkpt>
    <trkpt lat="47.57550" lon="14.64706"><ele>1898</ele></trkpt>
    <trkpt lat="47.57527" lon="14.64726"><ele>1882</ele></trkpt>
    <trkpt lat="47.57516" lon="14.64740"><ele>1878</ele></trkpt>
    <trkpt lat="47.57507" lon="14.64757"><ele>1871</ele></trkpt>
    <trkpt lat="47.57504" lon="14.64786"><ele>1847</ele></trkpt>
    <trkpt lat="47.57517" lon="14.64801"><ele>1851</ele></trkpt>
    <trkpt lat="47.57516" lon="14.64834"><ele>1844</ele></trkpt>
    <trkpt lat="47.57523" lon="14.64848"><ele>1835</ele></trkpt>
    <trkpt lat="47.57524" lon="14.64868"><ele>1816</ele></trkpt>
    <trkpt lat="47.57533" lon="14.64890"><ele>1817</ele></trkpt>
    <trkpt lat="47.57529" lon="14.64911"><ele>1805</ele></trkpt>
    <trkpt lat="47.57537" lon="14.64926"><ele>1954</ele></trkpt>
    <trkpt lat="47.57540" lon="14.64954"><ele>1791</ele></trkpt>
    <trkpt lat="47.57541" lon="14.65009"><ele>1799</ele></trkpt>
    <trkpt lat="47.57529" lon="14.65011"><ele>1806</ele></trkpt>
    <trkpt lat="47.57511" lon="14.65003"><ele>1780</ele></trkpt>
    <trkpt lat="47.57501" lon="14.65023"><ele>1756</ele></trkpt>
    <trkpt lat="47.57482" lon="14.65050"><ele>1770</ele></trkpt>
    <trkpt lat="47.57461" lon="14.65064"><ele>1730</ele></trkpt>
    <trkpt lat="47.57466" lon="14.65080"><ele>1723</ele></trkpt>
    <trkpt lat="47.57452" lon="14.65084"><ele>1724</ele></trkpt>
    <trkpt lat="47.57422" lon="14.65089"><ele>1726</ele></trkpt>
    <trkpt lat="47.57410" lon="14.65125"><ele>1730</ele></trkpt>
    <trkpt lat="47.57399" lon="14.65127"><ele>1750</ele></trkpt>
    <trkpt lat="47.57400" lon="14.65149"><ele>1697</ele></trkpt>
    <trkpt lat="47.57394" lon="14.65210"><ele>1710</ele></trkpt>
    <trkpt lat="47.57403" lon="14.65229"><ele>1669</ele></trkpt>
    <trkpt lat="47.57364" lon="14.65274"><ele>1681</ele></trkpt>
    <trkpt lat="47.57370" lon="14.65297"><ele>1659</ele></trkpt>
    <trkpt lat="47.57340" lon="14.65274"><ele>1650</ele></trkpt>
    <trkpt lat="47.57313" lon="14.65273"><ele>1615</ele></trkpt>
    <trkpt lat="47.57291" lon="14.65248"><ele>1644</ele></trkpt>
    <trkpt lat="47.57278" lon="14.65221"><ele>1602</ele></trkpt>
    <trkpt lat="47.57266" lon="14.65215"><ele>1591</ele></trkpt>
    <trkpt lat="47.57238" lon="14.65198"><ele>1601</ele></trkpt>
    <trkpt lat="47.57202" lon="14.65198"><ele>1590</ele></trkpt>
    <trkpt lat="47.57190" lon="14.65182"><ele>1592</ele></trkpt>
    <trkpt lat="47.57154" lon="14.65191"><ele>1577</ele></trkpt>
    <trkpt lat="47.57146" lon="14.65216"><ele>1559</ele></trkpt>
    <trkpt lat="47.57110" lon="14.65217"><ele>1543</ele></trkpt>
    <trkpt lat="47.57095" lon="14.65218"><ele>1539</ele></trkpt>
    <trkpt lat="47.57082" lon="14.65275"><ele>1538</ele></trkpt>
    <trkpt lat="47.57086" lon="14.65337"><ele>1519</ele></trkpt>
    <trkpt lat="47.57073" lon="14.65371"><ele>1513</ele></trkpt>
    <trkpt lat="47.57091" lon="14.65385"><ele>1528</ele></trkpt>
    <trkpt lat="47.57111" lon="14.65435"><ele>1507</ele></trkpt>
    <trkpt lat="47.57114" lon="14.65494"><ele>1525</ele></trkpt>
    <trkpt lat="47.57102" lon="14.65463"><ele>1496</ele></trkpt>
    <trkpt lat="47.57114" lon="14.65514"><ele>1482</ele></trkpt>
    <trkpt lat="47.57132" lon="14.65520"><ele>1484</ele></trkpt>
    <trkpt lat="47.57152" lon="14.65523"><ele>1470</ele></trkpt>
    <trkpt lat="47.57193" lon="14.65541"><ele>1484</ele></trkpt>
    <trkpt lat="47.57184" lon="14.65490"><ele>1443</ele></trkpt>
    <trkpt lat="47.57220" lon="14.65495"><ele>1455</ele></trkpt>
    <trkpt lat="47.57249" lon="14.65565"><ele>1455</ele></trkpt>
    <trkpt lat="47.57267" lon="14.65576"><ele>1444</ele></trkpt>
    <trkpt lat="47.57288" lon="14.65617"><ele>1450</ele></trkpt>
    <trkpt lat="47.57303" lon="14.65604"><ele>1436</ele></trkpt>
    <trkpt lat="47.57303" lon="14.65622"><ele>1473</ele></trkpt>
    <trkpt lat="47.57357" lon="14.65665"><ele>1436</ele></trkpt>
    <trkpt lat="47.57391" lon="14.65685"><ele>1447</ele></trkpt>
    <trkpt lat="47.57408" lon="14.65708"><ele>1417</ele></trkpt>
    <trkpt lat="47.57463" lon="14.65738"><ele>1431</ele></trkpt>
    <trkpt lat="47.57519" lon="14.65777"><ele>1432</ele></trkpt>
    <trkpt lat="47.57519" lon="14.65810"><ele>1408</ele></trkpt>
    <trkpt lat="47.57560" lon="14.65726"><ele>1345</ele></trkpt>
    <trkpt lat="47.57627" lon="14.65711"><ele>1370</ele></trkpt>
    <trkpt lat="47.57645" lon="14.65705"><ele>1389</ele></trkpt>
    <trkpt lat="47.57669" lon="14.65753"><ele>1373</ele></trkpt>
    <trkpt lat="47.57712" lon="14.65763"><ele>1353</ele></trkpt>
    <trkpt lat="47.57733" lon="14.65762"><ele>1324</ele></trkpt>
    <trkpt lat="47.57744" lon="14.65767"><ele>1286</ele></trkpt>
    <trkpt lat="47.57774" lon="14.65805"><ele>1442</ele></trkpt>
    <trkpt lat="47.57771" lon="14.65788"><ele>1363</ele></trkpt>
    <trkpt lat="47.57805" lon="14.65799"><ele>1313</ele></trkpt>
    <trkpt lat="47.57810" lon="14.65777"><ele>1266</ele></trkpt>
    <trkpt lat="47.57788" lon="14.65791"><ele>1251</ele></trkpt>
    <trkpt lat="47.57801" lon="14.65785"><ele>1206</ele></trkpt>
    <trkpt lat="47.57825" lon="14.65779"><ele>1228</ele></trkpt>
    <trkpt lat="47.57813" lon="14.65782"><ele>1202</ele></trkpt>
    <trkpt lat="47.57825" lon="14.65797"><ele>1386</ele></trkpt>
    <trkpt lat="47.57834" lon="14.65784"><ele>1327</ele></trkpt>
    <trkpt lat="47.57843" lon="14.65762"><ele>1219</ele></trkpt>
    <trkpt lat="47.57832" lon="14.65720"><ele>1177</ele></trkpt>
    <trkpt lat="47.57868" lon="14.65705"><ele>1176</ele></trkpt>
    <trkpt lat="47.57855" lon="14.65695"><ele>1151</ele></trkpt>
    <trkpt lat="47.57852" lon="14.65624"><ele>1137</ele></trkpt>
    <trkpt lat="47.57839" lon="14.65601"><ele>1114</ele></trkpt>
    <trkpt lat="47.57853" lon="14.65564"><ele>1053</ele></trkpt>
    <trkpt lat="47.57864" lon="14.65573"><ele>1037</ele></trkpt>
    <trkpt lat="47.57920" lon="14.65620"><ele>1119</ele></trkpt>
    <trkpt lat="47.57939" lon="14.65681"><ele>1084</ele></trkpt>
    <trkpt lat="47.57936" lon="14.65706"><ele>1082</ele></trkpt>
    <trkpt lat="47.57891" lon="14.65729"><ele>1046</ele></trkpt>
    <trkpt lat="47.57888" lon="14.65767"><ele>992</ele></trkpt>
    <trkpt lat="47.57895" lon="14.65783"><ele>1013</ele></trkpt>
    <trkpt lat="47.57885" lon="14.65807"><ele>1009</ele></trkpt>
    <trkpt lat="47.57903" lon="14.65854"><ele>1017</ele></trkpt>
    <trkpt lat="47.57918" lon="14.65882"><ele>1034</ele></trkpt>
    <trkpt lat="47.57866" lon="14.65902"><ele>976</ele></trkpt>
    <trkpt lat="47.57866" lon="14.65962"><ele>1153</ele></trkpt>
    <trkpt lat="47.57853" lon="14.65985"><ele>934</ele></trkpt>
    <trkpt lat="47.57859" lon="14.66042"><ele>899</ele></trkpt>
    <trkpt lat="47.57836" lon="14.66054"><ele>899</ele></trkpt>
    <trkpt lat="47.57852" lon="14.66109"><ele>1048</ele></trkpt>
    <trkpt lat="47.57874" lon="14.66093"><ele>858</ele></trkpt>
    <trkpt lat="47.57886" lon="14.66125"><ele>835</ele></trkpt>
    <trkpt lat="47.57908" lon="14.66108"><ele>967</ele></trkpt>
    <trkpt lat="47.57920" lon="14.66120"><ele>974</ele></trkpt>
    <trkpt lat="47.57934" lon="14.66123"><ele>850</ele></trkpt>
    <trkpt lat="47.57968" lon="14.66191"><ele>796</ele></trkpt>
    <trkpt lat="47.58016" lon="14.66271"><ele>763</ele></trkpt>
    <trkpt lat="47.58047" lon="14.66263"><ele>908</ele></trkpt>
    <trkpt lat="47.58065" lon="14.66252"><ele>845</ele></trkpt>
    <trkpt lat="47.58043" lon="14.66216"><ele>732</ele></trkpt>
    <trkpt lat="47.58066" lon="14.66186"><ele>721</ele></trkpt>
    <trkpt lat="47.58101" lon="14.66189"><ele>713</ele></trkpt>
    <trkpt lat="47.58118" lon="14.66175"><ele>730</ele></trkpt>
    <trkpt lat="47.58147" lon="14.66194"><ele>699</ele></trkpt>
    <trkpt lat="47.58190" lon="14.66197"><ele>777</ele></trkpt>
    <trkpt lat="47.58226" lon="14.66185"><ele>686</ele></trkpt>
    <trkpt lat="47.58251" lon="14.66216"><ele>675</ele></trkpt>
    <trkpt lat="47.58302" lon="14.66233"><ele>653</ele></trkpt>
    <trkpt lat="47.58319" lon="14.66249"><ele>767</ele></trkpt>
    <trkpt lat="47.58338" lon="14.66241"><ele>644</ele></trkpt>
    <trkpt lat="47.58355" lon="14.66238"><ele>651</ele></trkpt>
    <trkpt lat="47.58367" lon="14.66230"><ele>596</ele></trkpt>
    <trkpt lat="47.58404" lon="14.66218"><ele>760</ele></trkpt>
    <trkpt lat="47.58431" lon="14.66217"><ele>617</ele></trkpt>
    <trkpt lat="47.58445" lon="14.66258"><ele>656</ele></trkpt>
    <trkpt lat="47.58464" lon="14.66233"><ele>618</ele></trkpt>
    <trkpt lat="47.58473" lon="14.66261"><ele>574</ele></trkpt>
    <trkpt lat="47.58523" lon="14.66248"><ele>587</ele></trkpt>
    <trkpt lat="47.58582" lon="14.66237"><ele>585</ele></trkpt>
    <trkpt lat="47.58619" lon="14.66206"><ele>628</ele></trkpt>
    <trkpt lat="47.58625" lon="14.66254"><ele>576</ele></trkpt>
    <trkpt lat="47.58599" lon="14.66296"><ele>576</ele></trkpt>
    <trkpt lat="47.58599" lon="14.66349"><ele>579</ele></trkpt>
    <trkpt lat="47.58590" lon="14.66452"><ele>564</ele></trkpt>
    <trkpt lat="47.58577" lon="14.66527"><ele>566</ele></trkpt>
    <trkpt lat="47.58586" lon="14.66563"><ele>643</ele></trkpt>
    <trkpt lat="47.58583" lon="14.66634"><ele>577</ele></trkpt>
    <trkpt lat="47.58579" lon="14.66660"><ele>553</ele></trkpt>
    <trkpt lat="47.58607" lon="14.66704"><ele>567</ele></trkpt>
    <trkpt lat="47.58641" lon="14.66826"><ele>592</ele></trkpt>
    <trkpt lat="47.58701" lon="14.66913"><ele>742</ele></trkpt>
    <trkpt lat="47.58730" lon="14.66972"><ele>601</ele></trkpt>
    <trkpt lat="47.58728" lon="14.66925"><ele>559</ele></trkpt>
    <trkpt lat="47.58709" lon="14.66918"><ele>677</ele></trkpt>
    <trkpt lat="47.58840" lon="14.66531"><ele>687</ele></trkpt>
    <trkpt lat="47.59186" lon="14.64957"><ele>534</ele></trkpt>
    <trkpt lat="47.59125" lon="14.63699"><ele>876</ele></trkpt>
    <trkpt lat="47.59135" lon="14.62957"><ele>735</ele></trkpt>
    <trkpt lat="47.58981" lon="14.62663"><ele>608</ele></trkpt>
    <trkpt lat="47.58932" lon="14.62558"><ele>695</ele></trkpt>
  </trkseg>
</trk>
</gpx>