<?xml version="1.0" encoding="UTF-8"?>
<gpx version="1.1" creator="GPX-Pro" xmlns="http://www.topografix.com/GPX/1/1">
<trk>
  <name>Mtb_Aigen-Summerau</name>
  <trkseg>
    <trkpt lat="48.64274" lon="13.97532"><ele>570</ele><time>2024-07-12T07:04:54Z</time></trkpt>
    <trkpt lat="48.64341" lon="13.97511"><ele>577</ele><time>2024-07-12T07:05:25Z</time></trkpt>
    <trkpt lat="48.64410" lon="13.97495"><ele>574</ele><time>2024-07-12T07:05:55Z</time></trkpt>
    <trkpt lat="48.64479" lon="13.97493"><ele>582</ele><time>2024-07-12T07:06:25Z</time></trkpt>
    <trkpt lat="48.64498" lon="13.97362"><ele>588</ele><time>2024-07-12T07:06:55Z</time></trkpt>
    <trkpt lat="48.64514" lon="13.97261"><ele>591</ele><time>2024-07-12T07:07:25Z</time></trkpt>
    <trkpt lat="48.64568" lon="13.97217"><ele>591</ele><time>2024-07-12T07:07:55Z</time></trkpt>
    <trkpt lat="48.64592" lon="13.97183"><ele>592</ele><time>2024-07-12T07:08:52Z</time></trkpt>
    <trkpt lat="48.64579" lon="13.97178"><ele>581</ele><time>2024-07-12T07:09:52Z</time></trkpt>
    <trkpt lat="48.64629" lon="13.97135"><ele>611</ele><time>2024-07-12T07:10:51Z</time></trkpt>
    <trkpt lat="48.64636" lon="13.97172"><ele>606</ele><time>2024-07-12T07:13:06Z</time></trkpt>
    <trkpt lat="48.64717" lon="13.97253"><ele>599</ele><time>2024-07-12T07:13:37Z</time></trkpt>
    <trkpt lat="48.64874" lon="13.97346"><ele>612</ele><time>2024-07-12T07:14:36Z</time></trkpt>
    <trkpt lat="48.64936" lon="13.97380"><ele>620</ele><time>2024-07-12T07:15:06Z</time></trkpt>
    <trkpt lat="48.65046" lon="13.97476"><ele>617</ele><time>2024-07-12T07:15:36Z</time></trkpt>
    <trkpt lat="48.65183" lon="13.97526"><ele>617</ele><time>2024-07-12T07:16:06Z</time></trkpt>
    <trkpt lat="48.65313" lon="13.97555"><ele>619</ele><time>2024-07-12T07:16:36Z</time></trkpt>
    <trkpt lat="48.65416" lon="13.97570"><ele>623</ele><time>2024-07-12T07:17:06Z</time></trkpt>
    <trkpt lat="48.65488" lon="13.97639"><ele>619</ele><time>2024-07-12T07:17:36Z</time></trkpt>
    <trkpt lat="48.65554" lon="13.97696"><ele>618</ele><time>2024-07-12T07:18:06Z</time></trkpt>
    <trkpt lat="48.65546" lon="13.97706"><ele>620</ele><time>2024-07-12T07:19:06Z</time></trkpt>
    <trkpt lat="48.65490" lon="13.97654"><ele>617</ele><time>2024-07-12T07:19:36Z</time></trkpt>
    <trkpt lat="48.65428" lon="13.97574"><ele>616</ele><time>2024-07-12T07:20:06Z</time></trkpt>
    <trkpt lat="48.65476" lon="13.97622"><ele>620</ele><time>2024-07-12T07:20:36Z</time></trkpt>
    <trkpt lat="48.65522" lon="13.97641"><ele>623</ele><time>2024-07-12T07:21:06Z</time></trkpt>
    <trkpt lat="48.65648" lon="13.97645"><ele>641</ele><time>2024-07-12T07:22:06Z</time></trkpt>
    <trkpt lat="48.65707" lon="13.97694"><ele>654</ele><time>2024-07-12T07:22:36Z</time></trkpt>
    <trkpt lat="48.65733" lon="13.97714"><ele>612</ele><time>2024-07-12T07:23:36Z</time></trkpt>
    <trkpt lat="48.65724" lon="13.97712"><ele>632</ele><time>2024-07-12T07:29:36Z</time></trkpt>
    <trkpt lat="48.65714" lon="13.97741"><ele>632</ele><time>2024-07-12T07:34:36Z</time></trkpt>
    <trkpt lat="48.65725" lon="13.97739"><ele>697</ele><time>2024-07-12T07:35:06Z</time></trkpt>
    <trkpt lat="48.65770" lon="13.97732"><ele>640</ele><time>2024-07-12T07:35:36Z</time></trkpt>
    <trkpt lat="48.65754" lon="13.97690"><ele>641</ele><time>2024-07-12T07:36:06Z</time></trkpt>
    <trkpt lat="48.65744" lon="13.97644"><ele>664</ele><time>2024-07-12T07:36:36Z</time></trkpt>
    <trkpt lat="48.65782" lon="13.97650"><ele>686</ele><time>2024-07-12T07:37:06Z</time></trkpt>
    <trkpt lat="48.65828" lon="13.97602"><ele>669</ele><time>2024-07-12T07:37:36Z</time></trkpt>
    <trkpt lat="48.65878" lon="13.97580"><ele>619</ele><time>2024-07-12T07:38:06Z</time></trkpt>
    <trkpt lat="48.65925" lon="13.97635"><ele>681</ele><time>2024-07-12T07:38:36Z</time></trkpt>
    <trkpt lat="48.65982" lon="13.97694"><ele>682</ele><time>2024-07-12T07:39:06Z</time></trkpt>
    <trkpt lat="48.66029" lon="13.97727"><ele>603</ele><time>2024-07-12T07:39:36Z</time></trkpt>
    <trkpt lat="48.66049" lon="13.97787"><ele>680</ele><time>2024-07-12T07:40:06Z</time></trkpt>
    <trkpt lat="48.66066" lon="13.97923"><ele>725</ele><time>2024-07-12T07:40:48Z</time></trkpt>
    <trkpt lat="48.66057" lon="13.97978"><ele>717</ele><time>2024-07-12T07:41:18Z</time></trkpt>
    <trkpt lat="48.66041" lon="13.98030"><ele>715</ele><time>2024-07-12T07:41:49Z</time></trkpt>
    <trkpt lat="48.66024" lon="13.98083"><ele>771</ele><time>2024-07-12T07:42:49Z</time></trkpt>
    <trkpt lat="48.66057" lon="13.98157"><ele>732</ele><time>2024-07-12T07:43:19Z</time></trkpt>
    <trkpt lat="48.66071" lon="13.98206"><ele>732</ele><time>2024-07-12T07:43:49Z</time></trkpt>
    <trkpt lat="48.66088" lon="13.98264"><ele>732</ele><time>2024-07-12T07:44:19Z</time></trkpt>
    <trkpt lat="48.66115" lon="13.98301"><ele>730</ele><time>2024-07-12T07:44:49Z</time></trkpt>
    <trkpt lat="48.66120" lon="13.98339"><ele>717</ele><time>2024-07-12T07:45:19Z</time></trkpt>
    <trkpt lat="48.66114" lon="13.98392"><ele>740</ele><time>2024-07-12T07:45:49Z</time></trkpt>
    <trkpt lat="48.66090" lon="13.98475"><ele>777</ele><time>2024-07-12T07:46:23Z</time></trkpt>
    <trkpt lat="48.66100" lon="13.98471"><ele>757</ele><time>2024-07-12T07:46:53Z</time></trkpt>
    <trkpt lat="48.66095" lon="13.98498"><ele>749</ele><time>2024-07-12T07:47:23Z</time></trkpt>
    <trkpt lat="48.66103" lon="13.98525"><ele>746</ele><time>2024-07-12T07:47:53Z</time></trkpt>
    <trkpt lat="48.66108" lon="13.98553"><ele>764</ele><time>2024-07-12T07:48:23Z</time></trkpt>
    <trkpt lat="48.66123" lon="13.98553"><ele>771</ele><time>2024-07-12T07:48:53Z</time></trkpt>
    <trkpt lat="48.66183" lon="13.98489"><ele>772</ele><time>2024-07-12T07:49:23Z</time></trkpt>
    <trkpt lat="48.66228" lon="13.98450"><ele>743</ele><time>2024-07-12T07:49:53Z</time></trkpt>
    <trkpt lat="48.66203" lon="13.98536"><ele>737</ele><time>2024-07-12T07:50:23Z</time></trkpt>
    <trkpt lat="48.66171" lon="13.98618"><ele>784</ele><time>2024-07-12T07:50:53Z</time></trkpt>
    <trkpt lat="48.66139" lon="13.98700"><ele>795</ele><time>2024-07-12T07:51:23Z</time></trkpt>
    <trkpt lat="48.66081" lon="13.98864"><ele>803</ele><time>2024-07-12T07:52:23Z</time></trkpt>
    <trkpt lat="48.66025" lon="13.98931"><ele>693</ele><time>2024-07-12T07:52:53Z</time></trkpt>
    <trkpt lat="48.65905" lon="13.99069"><ele>839</ele><time>2024-07-12T07:54:23Z</time></trkpt>
    <trkpt lat="48.65877" lon="13.99130"><ele>821</ele><time>2024-07-12T07:54:53Z</time></trkpt>
    <trkpt lat="48.65870" lon="13.99202"><ele>821</ele><time>2024-07-12T07:55:23Z</time></trkpt>
    <trkpt lat="48.65867" lon="13.99267"><ele>615</ele><time>2024-07-12T07:55:53Z</time></trkpt>
    <trkpt lat="48.65842" lon="13.99343"><ele>626</ele><time>2024-07-12T07:56:25Z</time></trkpt>
    <trkpt lat="48.65872" lon="13.99438"><ele>818</ele><time>2024-07-12T07:57:24Z</time></trkpt>
    <trkpt lat="48.65829" lon="13.99489"><ele>849</ele><time>2024-07-12T07:57:54Z</time></trkpt>
    <trkpt lat="48.65785" lon="13.99525"><ele>843</ele><time>2024-07-12T07:58:24Z</time></trkpt>
    <trkpt lat="48.65732" lon="13.99624"><ele>872</ele><time>2024-07-12T07:58:54Z</time></trkpt>
    <trkpt lat="48.65708" lon="13.99707"><ele>846</ele><time>2024-07-12T07:59:24Z</time></trkpt>
    <trkpt lat="48.65683" lon="13.99827"><ele>870</ele><time>2024-07-12T07:59:54Z</time></trkpt>
    <trkpt lat="48.65651" lon="13.99955"><ele>864</ele><time>2024-07-12T08:00:24Z</time></trkpt>
    <trkpt lat="48.65625" lon="14.00045"><ele>855</ele><time>2024-07-12T08:00:54Z</time></trkpt>
    <trkpt lat="48.65612" lon="14.00138"><ele>868</ele><time>2024-07-12T08:01:24Z</time></trkpt>
    <trkpt lat="48.65637" lon="14.00245"><ele>857</ele><time>2024-07-12T08:01:54Z</time></trkpt>
    <trkpt lat="48.65659" lon="14.00364"><ele>866</ele><time>2024-07-12T08:02:24Z</time></trkpt>
    <trkpt lat="48.65677" lon="14.00394"><ele>866</ele><time>2024-07-12T08:02:54Z</time></trkpt>
    <trkpt lat="48.65655" lon="14.00401"><ele>867</ele><time>2024-07-12T08:03:24Z</time></trkpt>
    <trkpt lat="48.65624" lon="14.00637"><ele>852</ele><time>2024-07-12T08:03:54Z</time></trkpt>
    <trkpt lat="48.65531" lon="14.00798"><ele>822</ele><time>2024-07-12T08:04:24Z</time></trkpt>
    <trkpt lat="48.65514" lon="14.00944"><ele>849</ele><time>2024-07-12T08:04:54Z</time></trkpt>
    <trkpt lat="48.65432" lon="14.01093"><ele>800</ele><time>2024-07-12T08:05:24Z</time></trkpt>
    <trkpt lat="48.65372" lon="14.01292"><ele>803</ele><time>2024-07-12T08:05:54Z</time></trkpt>
    <trkpt lat="48.65320" lon="14.01671"><ele>823</ele><time>2024-07-12T08:06:24Z</time></trkpt>
    <trkpt lat="48.65355" lon="14.02126"><ele>804</ele><time>2024-07-12T08:06:54Z</time></trkpt>
    <trkpt lat="48.65446" lon="14.02287"><ele>806</ele><time>2024-07-12T08:07:24Z</time></trkpt>
    <trkpt lat="48.65432" lon="14.02487"><ele>802</ele><time>2024-07-12T08:07:54Z</time></trkpt>
    <trkpt lat="48.65491" lon="14.02558"><ele>803</ele><time>2024-07-12T08:08:24Z</time></trkpt>
    <trkpt lat="48.65544" lon="14.02622"><ele>813</ele><time>2024-07-12T08:08:54Z</time></trkpt>
    <trkpt lat="48.65596" lon="14.02686"><ele>816</ele><time>2024-07-12T08:09:24Z</time></trkpt>
    <trkpt lat="48.65632" lon="14.02770"><ele>813</ele><time>2024-07-12T08:09:54Z</time></trkpt>
    <trkpt lat="48.65626" lon="14.03008"><ele>823</ele><time>2024-07-12T08:11:24Z</time></trkpt>
    <trkpt lat="48.65597" lon="14.03121"><ele>819</ele><time>2024-07-12T08:13:24Z</time></trkpt>
    <trkpt lat="48.65579" lon="14.03349"><ele>801</ele><time>2024-07-12T08:14:06Z</time></trkpt>
    <trkpt lat="48.65489" lon="14.03407"><ele>790</ele><time>2024-07-12T08:14:36Z</time></trkpt>
    <trkpt lat="48.65447" lon="14.03516"><ele>787</ele><time>2024-07-12T08:15:06Z</time></trkpt>
    <trkpt lat="48.65426" lon="14.03522"><ele>792</ele><time>2024-07-12T08:15:36Z</time></trkpt>
    <trkpt lat="48.65370" lon="14.03827"><ele>795</ele><time>2024-07-12T08:16:29Z</time></trkpt>
    <trkpt lat="48.65310" lon="14.03977"><ele>794</ele><time>2024-07-12T08:17:00Z</time></trkpt>
    <trkpt lat="48.65244" lon="14.04373"><ele>790</ele><time>2024-07-12T08:17:59Z</time></trkpt>
    <trkpt lat="48.65230" lon="14.04575"><ele>781</ele><time>2024-07-12T08:18:29Z</time></trkpt>
    <trkpt lat="48.65152" lon="14.04754"><ele>783</ele><time>2024-07-12T08:18:59Z</time></trkpt>
    <trkpt lat="48.65030" lon="14.04660"><ele>791</ele><time>2024-07-12T08:19:30Z</time></trkpt>
    <trkpt lat="48.64849" lon="14.04675"><ele>807</ele><time>2024-07-12T08:20:30Z</time></trkpt>
    <trkpt lat="48.64802" lon="14.04683"><ele>796</ele><time>2024-07-12T08:22:54Z</time></trkpt>
    <trkpt lat="48.64693" lon="14.04755"><ele>784</ele><time>2024-07-12T08:23:24Z</time></trkpt>
    <trkpt lat="48.64567" lon="14.04829"><ele>777</ele><time>2024-07-12T08:23:54Z</time></trkpt>
    <trkpt lat="48.64533" lon="14.04865"><ele>787</ele><time>2024-07-12T08:24:24Z</time></trkpt>
    <trkpt lat="48.64526" lon="14.04914"><ele>788</ele><time>2024-07-12T08:27:24Z</time></trkpt>
    <trkpt lat="48.64474" lon="14.05071"><ele>791</ele><time>2024-07-12T08:27:54Z</time></trkpt>
    <trkpt lat="48.64404" lon="14.05275"><ele>789</ele><time>2024-07-12T08:28:47Z</time></trkpt>
    <trkpt lat="48.64366" lon="14.05365"><ele>798</ele><time>2024-07-12T08:29:17Z</time></trkpt>
    <trkpt lat="48.64368" lon="14.05467"><ele>813</ele><time>2024-07-12T08:29:47Z</time></trkpt>
    <trkpt lat="48.64395" lon="14.05540"><ele>777</ele><time>2024-07-12T08:30:17Z</time></trkpt>
    <trkpt lat="48.64388" lon="14.05680"><ele>821</ele><time>2024-07-12T08:30:58Z</time></trkpt>
    <trkpt lat="48.64382" lon="14.05780"><ele>818</ele><time>2024-07-12T08:31:29Z</time></trkpt>
    <trkpt lat="48.64385" lon="14.05873"><ele>845</ele><time>2024-07-12T08:31:59Z</time></trkpt>
    <trkpt lat="48.64384" lon="14.05983"><ele>854</ele><time>2024-07-12T08:32:29Z</time></trkpt>
    <trkpt lat="48.64397" lon="14.06057"><ele>838</ele><time>2024-07-12T08:32:59Z</time></trkpt>
    <trkpt lat="48.64445" lon="14.06245"><ele>847</ele><time>2024-07-12T08:33:59Z</time></trkpt>
    <trkpt lat="48.64485" lon="14.06297"><ele>851</ele><time>2024-07-12T08:34:29Z</time></trkpt>
    <trkpt lat="48.64489" lon="14.06377"><ele>872</ele><time>2024-07-12T08:34:59Z</time></trkpt>
    <trkpt lat="48.64499" lon="14.06446"><ele>858</ele><time>2024-07-12T08:35:29Z</time></trkpt>
    <trkpt lat="48.64507" lon="14.06517"><ele>853</ele><time>2024-07-12T08:35:59Z</time></trkpt>
    <trkpt lat="48.64504" lon="14.06588"><ele>862</ele><time>2024-07-12T08:36:29Z</time></trkpt>
    <trkpt lat="48.64510" lon="14.06657"><ele>868</ele><time>2024-07-12T08:36:59Z</time></trkpt>
    <trkpt lat="48.64512" lon="14.06724"><ele>878</ele><time>2024-07-12T08:37:29Z</time></trkpt>
    <trkpt lat="48.64517" lon="14.06805"><ele>881</ele><time>2024-07-12T08:37:59Z</time></trkpt>
    <trkpt lat="48.64520" lon="14.06887"><ele>868</ele><time>2024-07-12T08:38:29Z</time></trkpt>
    <trkpt lat="48.64535" lon="14.06961"><ele>883</ele><time>2024-07-12T08:38:59Z</time></trkpt>
    <trkpt lat="48.64541" lon="14.07040"><ele>888</ele><time>2024-07-12T08:39:29Z</time></trkpt>
    <trkpt lat="48.64550" lon="14.07120"><ele>896</ele><time>2024-07-12T08:39:59Z</time></trkpt>
    <trkpt lat="48.64563" lon="14.07258"><ele>918</ele><time>2024-07-12T08:40:47Z</time></trkpt>
    <trkpt lat="48.64577" lon="14.07340"><ele>902</ele><time>2024-07-12T08:41:17Z</time></trkpt>
    <trkpt lat="48.64584" lon="14.07439"><ele>914</ele><time>2024-07-12T08:41:47Z</time></trkpt>
    <trkpt lat="48.64594" lon="14.07531"><ele>922</ele><time>2024-07-12T08:42:17Z</time></trkpt>
    <trkpt lat="48.64612" lon="14.07646"><ele>918</ele><time>2024-07-12T08:42:47Z</time></trkpt>
    <trkpt lat="48.64624" lon="14.07701"><ele>924</ele><time>2024-07-12T08:43:39Z</time></trkpt>
    <trkpt lat="48.64650" lon="14.07900"><ele>917</ele><time>2024-07-12T08:51:10Z</time></trkpt>
    <trkpt lat="48.64703" lon="14.08213"><ele>912</ele><time>2024-07-12T08:51:40Z</time></trkpt>
    <trkpt lat="48.64738" lon="14.08383"><ele>914</ele><time>2024-07-12T08:52:10Z</time></trkpt>
    <trkpt lat="48.64742" lon="14.08427"><ele>913</ele><time>2024-07-12T08:52:40Z</time></trkpt>
    <trkpt lat="48.64707" lon="14.08447"><ele>920</ele><time>2024-07-12T08:53:10Z</time></trkpt>
    <trkpt lat="48.64655" lon="14.08426"><ele>929</ele><time>2024-07-12T08:53:40Z</time></trkpt>
    <trkpt lat="48.64599" lon="14.08407"><ele>933</ele><time>2024-07-12T08:54:10Z</time></trkpt>
    <trkpt lat="48.64553" lon="14.08400"><ele>934</ele><time>2024-07-12T08:54:40Z</time></trkpt>
    <trkpt lat="48.64504" lon="14.08397"><ele>940</ele><time>2024-07-12T08:55:10Z</time></trkpt>
    <trkpt lat="48.64465" lon="14.08396"><ele>944</ele><time>2024-07-12T08:55:40Z</time></trkpt>
    <trkpt lat="48.64423" lon="14.08396"><ele>952</ele><time>2024-07-12T08:56:10Z</time></trkpt>
    <trkpt lat="48.64382" lon="14.08392"><ele>955</ele><time>2024-07-12T08:56:40Z</time></trkpt>
    <trkpt lat="48.64339" lon="14.08382"><ele>960</ele><time>2024-07-12T08:57:10Z</time></trkpt>
    <trkpt lat="48.64288" lon="14.08369"><ele>963</ele><time>2024-07-12T08:57:40Z</time></trkpt>
    <trkpt lat="48.64224" lon="14.08356"><ele>969</ele><time>2024-07-12T08:58:10Z</time></trkpt>
    <trkpt lat="48.64162" lon="14.08342"><ele>970</ele><time>2024-07-12T08:58:40Z</time></trkpt>
    <trkpt lat="48.64098" lon="14.08329"><ele>976</ele><time>2024-07-12T08:59:10Z</time></trkpt>
    <trkpt lat="48.64026" lon="14.08313"><ele>976</ele><time>2024-07-12T08:59:40Z</time></trkpt>
    <trkpt lat="48.63921" lon="14.08293"><ele>975</ele><time>2024-07-12T09:00:10Z</time></trkpt>
    <trkpt lat="48.63832" lon="14.08320"><ele>978</ele><time>2024-07-12T09:00:40Z</time></trkpt>
    <trkpt lat="48.63780" lon="14.08358"><ele>989</ele><time>2024-07-12T09:01:10Z</time></trkpt>
    <trkpt lat="48.63723" lon="14.08391"><ele>991</ele><time>2024-07-12T09:01:40Z</time></trkpt>
    <trkpt lat="48.63690" lon="14.08523"><ele>986</ele><time>2024-07-12T09:02:10Z</time></trkpt>
    <trkpt lat="48.63606" lon="14.08721"><ele>987</ele><time>2024-07-12T09:02:40Z</time></trkpt>
    <trkpt lat="48.63555" lon="14.08936"><ele>975</ele><time>2024-07-12T09:03:10Z</time></trkpt>
    <trkpt lat="48.63534" lon="14.09053"><ele>970</ele><time>2024-07-12T09:03:40Z</time></trkpt>
    <trkpt lat="48.63596" lon="14.09224"><ele>966</ele><time>2024-07-12T09:04:10Z</time></trkpt>
    <trkpt lat="48.63761" lon="14.09481"><ele>948</ele><time>2024-07-12T09:04:40Z</time></trkpt>
    <trkpt lat="48.63901" lon="14.09522"><ele>947</ele><time>2024-07-12T09:05:10Z</time></trkpt>
    <trkpt lat="48.64028" lon="14.09589"><ele>951</ele><time>2024-07-12T09:05:40Z</time></trkpt>
    <trkpt lat="48.64167" lon="14.09660"><ele>955</ele><time>2024-07-12T09:06:10Z</time></trkpt>
    <trkpt lat="48.64210" lon="14.09787"><ele>961</ele><time>2024-07-12T09:06:40Z</time></trkpt>
    <trkpt lat="48.64194" lon="14.09880"><ele>957</ele><time>2024-07-12T09:07:10Z</time></trkpt>
    <trkpt lat="48.64138" lon="14.10008"><ele>960</ele><time>2024-07-12T09:07:40Z</time></trkpt>
    <trkpt lat="48.64069" lon="14.10166"><ele>958</ele><time>2024-07-12T09:08:11Z</time></trkpt>
    <trkpt lat="48.63993" lon="14.10313"><ele>954</ele><time>2024-07-12T09:08:42Z</time></trkpt>
    <trkpt lat="48.64073" lon="14.10482"><ele>982</ele><time>2024-07-12T09:09:42Z</time></trkpt>
    <trkpt lat="48.64141" lon="14.10511"><ele>991</ele><time>2024-07-12T09:10:12Z</time></trkpt>
    <trkpt lat="48.64255" lon="14.10498"><ele>985</ele><time>2024-07-12T09:11:11Z</time></trkpt>
    <trkpt lat="48.64293" lon="14.10493"><ele>980</ele><time>2024-07-12T09:11:42Z</time></trkpt>
    <trkpt lat="48.64370" lon="14.10444"><ele>1006</ele><time>2024-07-12T09:12:42Z</time></trkpt>
    <trkpt lat="48.64415" lon="14.10418"><ele>1040</ele><time>2024-07-12T09:13:12Z</time></trkpt>
    <trkpt lat="48.64490" lon="14.10378"><ele>1022</ele><time>2024-07-12T09:14:11Z</time></trkpt>
    <trkpt lat="48.64521" lon="14.10321"><ele>1022</ele><time>2024-07-12T09:14:41Z</time></trkpt>
    <trkpt lat="48.64469" lon="14.10341"><ele>1023</ele><time>2024-07-12T09:18:11Z</time></trkpt>
    <trkpt lat="48.64508" lon="14.10376"><ele>1026</ele><time>2024-07-12T09:18:42Z</time></trkpt>
    <trkpt lat="48.64508" lon="14.10315"><ele>910</ele><time>2024-07-12T09:19:31Z</time></trkpt>
    <trkpt lat="48.64493" lon="14.10309"><ele>994</ele><time>2024-07-12T09:20:13Z</time></trkpt>
    <trkpt lat="48.64495" lon="14.10323"><ele>1042</ele><time>2024-07-12T09:20:43Z</time></trkpt>
    <trkpt lat="48.64497" lon="14.10348"><ele>990</ele><time>2024-07-12T09:22:49Z</time></trkpt>
    <trkpt lat="48.64413" lon="14.10432"><ele>1035</ele><time>2024-07-12T09:23:42Z</time></trkpt>
    <trkpt lat="48.64298" lon="14.10495"><ele>997</ele><time>2024-07-12T09:24:13Z</time></trkpt>
    <trkpt lat="48.63910" lon="14.10546"><ele>977</ele><time>2024-07-12T09:25:12Z</time></trkpt>
    <trkpt lat="48.63930" lon="14.10514"><ele>975</ele><time>2024-07-12T09:25:55Z</time></trkpt>
    <trkpt lat="48.63875" lon="14.10537"><ele>977</ele><time>2024-07-12T09:26:41Z</time></trkpt>
    <trkpt lat="48.63808" lon="14.10701"><ele>970</ele><time>2024-07-12T09:27:11Z</time></trkpt>
    <trkpt lat="48.63811" lon="14.10864"><ele>969</ele><time>2024-07-12T09:27:41Z</time></trkpt>
    <trkpt lat="48.63765" lon="14.10997"><ele>972</ele><time>2024-07-12T09:28:11Z</time></trkpt>
    <trkpt lat="48.63731" lon="14.11103"><ele>970</ele><time>2024-07-12T09:28:41Z</time></trkpt>
    <trkpt lat="48.63750" lon="14.11207"><ele>979</ele><time>2024-07-12T09:29:11Z</time></trkpt>
    <trkpt lat="48.63760" lon="14.11307"><ele>993</ele><time>2024-07-12T09:29:41Z</time></trkpt>
    <trkpt lat="48.63761" lon="14.11411"><ele>982</ele><time>2024-07-12T09:30:11Z</time></trkpt>
    <trkpt lat="48.63760" lon="14.11513"><ele>986</ele><time>2024-07-12T09:30:41Z</time></trkpt>
    <trkpt lat="48.63766" lon="14.11668"><ele>996</ele><time>2024-07-12T09:31:11Z</time></trkpt>
    <trkpt lat="48.63787" lon="14.11802"><ele>987</ele><time>2024-07-12T09:31:41Z</time></trkpt>
    <trkpt lat="48.63899" lon="14.11860"><ele>973</ele><time>2024-07-12T09:32:11Z</time></trkpt>
    <trkpt lat="48.63901" lon="14.11954"><ele>970</ele><time>2024-07-12T09:32:41Z</time></trkpt>
    <trkpt lat="48.63894" lon="14.12093"><ele>966</ele><time>2024-07-12T09:33:11Z</time></trkpt>
    <trkpt lat="48.63845" lon="14.12171"><ele>952</ele><time>2024-07-12T09:33:41Z</time></trkpt>
    <trkpt lat="48.63846" lon="14.12245"><ele>937</ele><time>2024-07-12T09:34:11Z</time></trkpt>
    <trkpt lat="48.63865" lon="14.12362"><ele>929</ele><time>2024-07-12T09:34:41Z</time></trkpt>
    <trkpt lat="48.63883" lon="14.12458"><ele>932</ele><time>2024-07-12T09:35:11Z</time></trkpt>
    <trkpt lat="48.63901" lon="14.12615"><ele>913</ele><time>2024-07-12T09:35:41Z</time></trkpt>
    <trkpt lat="48.63911" lon="14.12716"><ele>909</ele><time>2024-07-12T09:36:11Z</time></trkpt>
    <trkpt lat="48.63918" lon="14.12778"><ele>909</ele><time>2024-07-12T09:36:41Z</time></trkpt>
    <trkpt lat="48.63898" lon="14.12894"><ele>909</ele><time>2024-07-12T09:37:11Z</time></trkpt>
    <trkpt lat="48.63879" lon="14.12998"><ele>913</ele><time>2024-07-12T09:37:41Z</time></trkpt>
    <trkpt lat="48.63801" lon="14.13049"><ele>917</ele><time>2024-07-12T09:38:11Z</time></trkpt>
    <trkpt lat="48.63614" lon="14.13157"><ele>914</ele><time>2024-07-12T09:39:01Z</time></trkpt>
    <trkpt lat="48.63396" lon="14.13344"><ele>887</ele><time>2024-07-12T09:40:01Z</time></trkpt>
    <trkpt lat="48.63314" lon="14.13444"><ele>897</ele><time>2024-07-12T09:40:31Z</time></trkpt>
    <trkpt lat="48.63311" lon="14.13511"><ele>894</ele><time>2024-07-12T09:41:01Z</time></trkpt>
    <trkpt lat="48.63297" lon="14.13593"><ele>906</ele><time>2024-07-12T09:41:31Z</time></trkpt>
    <trkpt lat="48.63194" lon="14.13758"><ele>904</ele><time>2024-07-12T09:42:16Z</time></trkpt>
    <trkpt lat="48.62986" lon="14.13844"><ele>911</ele><time>2024-07-12T09:42:46Z</time></trkpt>
    <trkpt lat="48.62786" lon="14.13938"><ele>885</ele><time>2024-07-12T09:43:16Z</time></trkpt>
    <trkpt lat="48.62701" lon="14.14119"><ele>854</ele><time>2024-07-12T09:43:46Z</time></trkpt>
    <trkpt lat="48.62694" lon="14.14104"><ele>857</ele><time>2024-07-12T09:44:16Z</time></trkpt>
    <trkpt lat="48.62686" lon="14.14109"><ele>857</ele><time>2024-07-12T09:44:46Z</time></trkpt>
    <trkpt lat="48.62674" lon="14.14111"><ele>855</ele><time>2024-07-12T09:45:16Z</time></trkpt>
    <trkpt lat="48.62656" lon="14.14199"><ele>858</ele><time>2024-07-12T09:45:46Z</time></trkpt>
    <trkpt lat="48.62558" lon="14.14358"><ele>852</ele><time>2024-07-12T09:46:16Z</time></trkpt>
    <trkpt lat="48.62530" lon="14.14491"><ele>848</ele><time>2024-07-12T09:46:46Z</time></trkpt>
    <trkpt lat="48.62523" lon="14.14617"><ele>850</ele><time>2024-07-12T09:47:16Z</time></trkpt>
    <trkpt lat="48.62521" lon="14.14713"><ele>852</ele><time>2024-07-12T09:47:46Z</time></trkpt>
    <trkpt lat="48.62480" lon="14.14859"><ele>846</ele><time>2024-07-12T09:48:16Z</time></trkpt>
    <trkpt lat="48.62425" lon="14.15050"><ele>839</ele><time>2024-07-12T09:48:46Z</time></trkpt>
    <trkpt lat="48.62411" lon="14.15276"><ele>821</ele><time>2024-07-12T09:49:16Z</time></trkpt>
    <trkpt lat="48.62423" lon="14.15538"><ele>805</ele><time>2024-07-12T09:49:46Z</time></trkpt>
    <trkpt lat="48.62442" lon="14.15771"><ele>801</ele><time>2024-07-12T09:50:16Z</time></trkpt>
    <trkpt lat="48.62460" lon="14.15901"><ele>802</ele><time>2024-07-12T09:50:46Z</time></trkpt>
    <trkpt lat="48.62528" lon="14.16012"><ele>797</ele><time>2024-07-12T09:51:16Z</time></trkpt>
    <trkpt lat="48.62630" lon="14.16296"><ele>784</ele><time>2024-07-12T09:51:46Z</time></trkpt>
    <trkpt lat="48.62737" lon="14.16480"><ele>772</ele><time>2024-07-12T09:52:16Z</time></trkpt>
    <trkpt lat="48.62776" lon="14.16473"><ele>766</ele><time>2024-07-12T09:52:46Z</time></trkpt>
    <trkpt lat="48.62935" lon="14.16447"><ele>763</ele><time>2024-07-12T09:53:16Z</time></trkpt>
    <trkpt lat="48.62915" lon="14.16443"><ele>765</ele><time>2024-07-12T09:53:46Z</time></trkpt>
    <trkpt lat="48.62898" lon="14.16451"><ele>765</ele><time>2024-07-12T09:54:16Z</time></trkpt>
    <trkpt lat="48.63033" lon="14.16517"><ele>756</ele><time>2024-07-12T09:54:46Z</time></trkpt>
    <trkpt lat="48.63159" lon="14.16788"><ele>740</ele><time>2024-07-12T09:55:16Z</time></trkpt>
    <trkpt lat="48.63176" lon="14.16824"><ele>736</ele><time>2024-07-12T09:56:04Z</time></trkpt>
    <trkpt lat="48.63124" lon="14.16952"><ele>744</ele><time>2024-07-12T09:58:04Z</time></trkpt>
    <trkpt lat="48.63103" lon="14.17029"><ele>734</ele><time>2024-07-12T09:58:34Z</time></trkpt>
    <trkpt lat="48.63084" lon="14.16973"><ele>737</ele><time>2024-07-12T09:59:04Z</time></trkpt>
    <trkpt lat="48.63025" lon="14.16951"><ele>739</ele><time>2024-07-12T09:59:34Z</time></trkpt>
    <trkpt lat="48.62971" lon="14.16928"><ele>743</ele><time>2024-07-12T10:00:34Z</time></trkpt>
    <trkpt lat="48.62912" lon="14.16897"><ele>746</ele><time>2024-07-12T10:01:04Z</time></trkpt>
    <trkpt lat="48.62858" lon="14.16878"><ele>752</ele><time>2024-07-12T10:01:34Z</time></trkpt>
    <trkpt lat="48.62810" lon="14.16857"><ele>760</ele><time>2024-07-12T10:02:04Z</time></trkpt>
    <trkpt lat="48.62762" lon="14.16861"><ele>765</ele><time>2024-07-12T10:02:34Z</time></trkpt>
    <trkpt lat="48.62719" lon="14.16911"><ele>771</ele><time>2024-07-12T10:03:04Z</time></trkpt>
    <trkpt lat="48.62661" lon="14.16970"><ele>774</ele><time>2024-07-12T10:03:34Z</time></trkpt>
    <trkpt lat="48.62591" lon="14.16949"><ele>778</ele><time>2024-07-12T10:04:04Z</time></trkpt>
    <trkpt lat="48.62522" lon="14.16906"><ele>781</ele><time>2024-07-12T10:04:34Z</time></trkpt>
    <trkpt lat="48.62493" lon="14.16959"><ele>788</ele><time>2024-07-12T10:05:04Z</time></trkpt>
    <trkpt lat="48.62481" lon="14.17059"><ele>790</ele><time>2024-07-12T10:05:34Z</time></trkpt>
    <trkpt lat="48.62461" lon="14.17162"><ele>781</ele><time>2024-07-12T10:06:04Z</time></trkpt>
    <trkpt lat="48.62401" lon="14.17278"><ele>786</ele><time>2024-07-12T10:06:34Z</time></trkpt>
    <trkpt lat="48.62335" lon="14.17349"><ele>791</ele><time>2024-07-12T10:07:04Z</time></trkpt>
    <trkpt lat="48.62281" lon="14.17375"><ele>789</ele><time>2024-07-12T10:07:34Z</time></trkpt>
    <trkpt lat="48.62238" lon="14.17406"><ele>796</ele><time>2024-07-12T10:08:04Z</time></trkpt>
    <trkpt lat="48.62178" lon="14.17441"><ele>807</ele><time>2024-07-12T10:08:34Z</time></trkpt>
    <trkpt lat="48.62053" lon="14.17486"><ele>811</ele><time>2024-07-12T10:09:20Z</time></trkpt>
    <trkpt lat="48.61975" lon="14.17506"><ele>802</ele><time>2024-07-12T10:09:50Z</time></trkpt>
    <trkpt lat="48.61911" lon="14.17530"><ele>807</ele><time>2024-07-12T10:10:20Z</time></trkpt>
    <trkpt lat="48.61776" lon="14.17593"><ele>810</ele><time>2024-07-12T10:10:50Z</time></trkpt>
    <trkpt lat="48.61729" lon="14.17655"><ele>814</ele><time>2024-07-12T10:11:20Z</time></trkpt>
    <trkpt lat="48.61616" lon="14.17794"><ele>800</ele><time>2024-07-12T10:11:50Z</time></trkpt>
    <trkpt lat="48.61524" lon="14.17924"><ele>805</ele><time>2024-07-12T10:12:20Z</time></trkpt>
    <trkpt lat="48.61407" lon="14.18067"><ele>813</ele><time>2024-07-12T10:12:50Z</time></trkpt>
    <trkpt lat="48.61368" lon="14.18164"><ele>811</ele><time>2024-07-12T10:13:20Z</time></trkpt>
    <trkpt lat="48.61319" lon="14.18228"><ele>822</ele><time>2024-07-12T10:13:50Z</time></trkpt>
    <trkpt lat="48.61239" lon="14.18275"><ele>825</ele><time>2024-07-12T10:14:20Z</time></trkpt>
    <trkpt lat="48.61130" lon="14.18276"><ele>823</ele><time>2024-07-12T10:14:50Z</time></trkpt>
    <trkpt lat="48.61114" lon="14.18377"><ele>822</ele><time>2024-07-12T10:15:20Z</time></trkpt>
    <trkpt lat="48.61099" lon="14.18454"><ele>828</ele><time>2024-07-12T10:15:50Z</time></trkpt>
    <trkpt lat="48.61088" lon="14.18520"><ele>819</ele><time>2024-07-12T10:16:20Z</time></trkpt>
    <trkpt lat="48.61080" lon="14.18582"><ele>824</ele><time>2024-07-12T10:16:50Z</time></trkpt>
    <trkpt lat="48.61059" lon="14.18634"><ele>828</ele><time>2024-07-12T10:17:20Z</time></trkpt>
    <trkpt lat="48.61048" lon="14.18699"><ele>843</ele><time>2024-07-12T10:17:50Z</time></trkpt>
    <trkpt lat="48.61046" lon="14.18774"><ele>846</ele><time>2024-07-12T10:18:20Z</time></trkpt>
    <trkpt lat="48.61061" lon="14.18844"><ele>853</ele><time>2024-07-12T10:18:50Z</time></trkpt>
    <trkpt lat="48.61076" lon="14.18894"><ele>851</ele><time>2024-07-12T10:19:20Z</time></trkpt>
    <trkpt lat="48.61091" lon="14.18977"><ele>860</ele><time>2024-07-12T10:19:50Z</time></trkpt>
    <trkpt lat="48.61106" lon="14.19047"><ele>866</ele><time>2024-07-12T10:20:20Z</time></trkpt>
    <trkpt lat="48.61121" lon="14.19119"><ele>866</ele><time>2024-07-12T10:20:50Z</time></trkpt>
    <trkpt lat="48.61131" lon="14.19195"><ele>876</ele><time>2024-07-12T10:21:20Z</time></trkpt>
    <trkpt lat="48.61133" lon="14.19271"><ele>877</ele><time>2024-07-12T10:21:50Z</time></trkpt>
    <trkpt lat="48.61141" lon="14.19372"><ele>873</ele><time>2024-07-12T10:22:20Z</time></trkpt>
    <trkpt lat="48.61133" lon="14.19462"><ele>882</ele><time>2024-07-12T10:22:50Z</time></trkpt>
    <trkpt lat="48.61134" lon="14.19587"><ele>881</ele><time>2024-07-12T10:23:20Z</time></trkpt>
    <trkpt lat="48.61151" lon="14.19728"><ele>893</ele><time>2024-07-12T10:23:50Z</time></trkpt>
    <trkpt lat="48.61186" lon="14.19879"><ele>886</ele><time>2024-07-12T10:24:20Z</time></trkpt>
    <trkpt lat="48.61109" lon="14.19920"><ele>890</ele><time>2024-07-12T10:24:50Z</time></trkpt>
    <trkpt lat="48.61050" lon="14.19906"><ele>894</ele><time>2024-07-12T10:25:20Z</time></trkpt>
    <trkpt lat="48.60979" lon="14.19865"><ele>898</ele><time>2024-07-12T10:25:50Z</time></trkpt>
    <trkpt lat="48.60902" lon="14.19806"><ele>899</ele><time>2024-07-12T10:26:20Z</time></trkpt>
    <trkpt lat="48.60787" lon="14.19773"><ele>908</ele><time>2024-07-12T10:27:04Z</time></trkpt>
    <trkpt lat="48.60723" lon="14.19771"><ele>910</ele><time>2024-07-12T10:27:34Z</time></trkpt>
    <trkpt lat="48.60612" lon="14.19688"><ele>918</ele><time>2024-07-12T10:28:33Z</time></trkpt>
    <trkpt lat="48.60549" lon="14.19712"><ele>942</ele><time>2024-07-12T10:29:03Z</time></trkpt>
    <trkpt lat="48.60508" lon="14.19770"><ele>952</ele><time>2024-07-12T10:29:33Z</time></trkpt>
    <trkpt lat="48.60481" lon="14.19841"><ele>940</ele><time>2024-07-12T10:30:03Z</time></trkpt>
    <trkpt lat="48.60436" lon="14.19944"><ele>933</ele><time>2024-07-12T10:30:33Z</time></trkpt>
    <trkpt lat="48.60311" lon="14.20141"><ele>922</ele><time>2024-07-12T10:31:03Z</time></trkpt>
    <trkpt lat="48.60230" lon="14.20275"><ele>922</ele><time>2024-07-12T10:31:33Z</time></trkpt>
    <trkpt lat="48.60163" lon="14.20375"><ele>922</ele><time>2024-07-12T10:32:03Z</time></trkpt>
    <trkpt lat="48.60081" lon="14.20429"><ele>922</ele><time>2024-07-12T10:32:33Z</time></trkpt>
    <trkpt lat="48.60077" lon="14.20447"><ele>921</ele><time>2024-07-12T10:33:03Z</time></trkpt>
    <trkpt lat="48.60129" lon="14.20536"><ele>925</ele><time>2024-07-12T10:34:03Z</time></trkpt>
    <trkpt lat="48.60159" lon="14.20656"><ele>923</ele><time>2024-07-12T10:34:33Z</time></trkpt>
    <trkpt lat="48.60235" lon="14.20683"><ele>922</ele><time>2024-07-12T10:35:03Z</time></trkpt>
    <trkpt lat="48.60250" lon="14.20761"><ele>911</ele><time>2024-07-12T10:35:33Z</time></trkpt>
    <trkpt lat="48.60315" lon="14.21001"><ele>903</ele><time>2024-07-12T10:36:03Z</time></trkpt>
    <trkpt lat="48.60338" lon="14.21094"><ele>896</ele><time>2024-07-12T10:36:33Z</time></trkpt>
    <trkpt lat="48.60330" lon="14.21053"><ele>897</ele><time>2024-07-12T10:37:03Z</time></trkpt>
    <trkpt lat="48.60323" lon="14.21032"><ele>897</ele><time>2024-07-12T10:37:33Z</time></trkpt>
    <trkpt lat="48.60265" lon="14.21017"><ele>916</ele><time>2024-07-12T10:38:17Z</time></trkpt>
    <trkpt lat="48.60220" lon="14.21077"><ele>909</ele><time>2024-07-12T10:38:47Z</time></trkpt>
    <trkpt lat="48.60147" lon="14.21125"><ele>897</ele><time>2024-07-12T10:39:17Z</time></trkpt>
    <trkpt lat="48.60109" lon="14.21182"><ele>913</ele><time>2024-07-12T10:39:48Z</time></trkpt>
    <trkpt lat="48.60046" lon="14.21274"><ele>923</ele><time>2024-07-12T10:40:48Z</time></trkpt>
    <trkpt lat="48.59997" lon="14.21332"><ele>912</ele><time>2024-07-12T10:41:18Z</time></trkpt>
    <trkpt lat="48.59988" lon="14.21368"><ele>936</ele><time>2024-07-12T10:41:58Z</time></trkpt>
    <trkpt lat="48.59998" lon="14.21384"><ele>936</ele><time>2024-07-12T10:42:37Z</time></trkpt>
    <trkpt lat="48.59983" lon="14.21407"><ele>919</ele><time>2024-07-12T10:45:07Z</time></trkpt>
    <trkpt lat="48.59982" lon="14.21386"><ele>908</ele><time>2024-07-12T10:45:37Z</time></trkpt>
    <trkpt lat="48.60004" lon="14.21392"><ele>914</ele><time>2024-07-12T10:47:07Z</time></trkpt>
    <trkpt lat="48.59989" lon="14.21402"><ele>921</ele><time>2024-07-12T10:47:38Z</time></trkpt>
    <trkpt lat="48.59899" lon="14.21523"><ele>922</ele><time>2024-07-12T10:48:37Z</time></trkpt>
    <trkpt lat="48.59863" lon="14.21573"><ele>920</ele><time>2024-07-12T10:49:07Z</time></trkpt>
    <trkpt lat="48.59817" lon="14.21620"><ele>927</ele><time>2024-07-12T10:49:37Z</time></trkpt>
    <trkpt lat="48.59779" lon="14.21661"><ele>933</ele><time>2024-07-12T10:50:07Z</time></trkpt>
    <trkpt lat="48.59742" lon="14.21687"><ele>932</ele><time>2024-07-12T10:50:37Z</time></trkpt>
    <trkpt lat="48.59690" lon="14.21723"><ele>941</ele><time>2024-07-12T10:51:07Z</time></trkpt>
    <trkpt lat="48.59645" lon="14.21739"><ele>936</ele><time>2024-07-12T10:51:37Z</time></trkpt>
    <trkpt lat="48.59497" lon="14.21849"><ele>934</ele><time>2024-07-12T10:52:07Z</time></trkpt>
    <trkpt lat="48.59411" lon="14.21916"><ele>941</ele><time>2024-07-12T10:52:37Z</time></trkpt>
    <trkpt lat="48.59327" lon="14.21972"><ele>946</ele><time>2024-07-12T10:53:26Z</time></trkpt>
    <trkpt lat="48.59290" lon="14.22089"><ele>954</ele><time>2024-07-12T10:54:17Z</time></trkpt>
    <trkpt lat="48.59264" lon="14.22182"><ele>962</ele><time>2024-07-12T10:54:47Z</time></trkpt>
    <trkpt lat="48.59190" lon="14.22281"><ele>965</ele><time>2024-07-12T10:55:46Z</time></trkpt>
    <trkpt lat="48.59165" lon="14.22352"><ele>979</ele><time>2024-07-12T10:56:17Z</time></trkpt>
    <trkpt lat="48.59114" lon="14.22407"><ele>970</ele><time>2024-07-12T10:56:47Z</time></trkpt>
    <trkpt lat="48.59091" lon="14.22457"><ele>998</ele><time>2024-07-12T10:57:17Z</time></trkpt>
    <trkpt lat="48.59008" lon="14.22584"><ele>982</ele><time>2024-07-12T10:58:17Z</time></trkpt>
    <trkpt lat="48.58975" lon="14.22648"><ele>984</ele><time>2024-07-12T10:58:47Z</time></trkpt>
    <trkpt lat="48.58942" lon="14.22701"><ele>987</ele><time>2024-07-12T10:59:17Z</time></trkpt>
    <trkpt lat="48.58896" lon="14.22739"><ele>989</ele><time>2024-07-12T10:59:47Z</time></trkpt>
    <trkpt lat="48.58848" lon="14.22803"><ele>995</ele><time>2024-07-12T11:00:17Z</time></trkpt>
    <trkpt lat="48.58834" lon="14.22819"><ele>988</ele><time>2024-07-12T11:01:03Z</time></trkpt>
    <trkpt lat="48.58662" lon="14.23032"><ele>972</ele><time>2024-07-12T11:02:01Z</time></trkpt>
    <trkpt lat="48.58616" lon="14.23166"><ele>989</ele><time>2024-07-12T11:02:31Z</time></trkpt>
    <trkpt lat="48.58630" lon="14.23197"><ele>986</ele><time>2024-07-12T11:03:31Z</time></trkpt>
    <trkpt lat="48.58613" lon="14.23186"><ele>988</ele><time>2024-07-12T11:04:01Z</time></trkpt>
    <trkpt lat="48.58675" lon="14.23380"><ele>988</ele><time>2024-07-12T11:04:31Z</time></trkpt>
    <trkpt lat="48.58667" lon="14.23348"><ele>989</ele><time>2024-07-12T11:05:01Z</time></trkpt>
    <trkpt lat="48.58655" lon="14.23284"><ele>982</ele><time>2024-07-12T11:05:31Z</time></trkpt>
    <trkpt lat="48.58603" lon="14.23196"><ele>987</ele><time>2024-07-12T11:06:01Z</time></trkpt>
    <trkpt lat="48.58543" lon="14.23318"><ele>983</ele><time>2024-07-12T11:06:31Z</time></trkpt>
    <trkpt lat="48.58511" lon="14.23375"><ele>995</ele><time>2024-07-12T11:07:01Z</time></trkpt>
    <trkpt lat="48.58425" lon="14.23529"><ele>989</ele><time>2024-07-12T11:07:31Z</time></trkpt>
    <trkpt lat="48.58262" lon="14.23929"><ele>997</ele><time>2024-07-12T11:08:01Z</time></trkpt>
    <trkpt lat="48.58088" lon="14.24045"><ele>1003</ele><time>2024-07-12T11:08:31Z</time></trkpt>
    <trkpt lat="48.57991" lon="14.23985"><ele>972</ele><time>2024-07-12T11:09:01Z</time></trkpt>
    <trkpt lat="48.58020" lon="14.24134"><ele>987</ele><time>2024-07-12T11:09:31Z</time></trkpt>
    <trkpt lat="48.58159" lon="14.24213"><ele>966</ele><time>2024-07-12T11:10:01Z</time></trkpt>
    <trkpt lat="48.58037" lon="14.24266"><ele>947</ele><time>2024-07-12T11:10:31Z</time></trkpt>
    <trkpt lat="48.57881" lon="14.24316"><ele>943</ele><time>2024-07-12T11:11:01Z</time></trkpt>
    <trkpt lat="48.57934" lon="14.24513"><ele>929</ele><time>2024-07-12T11:11:31Z</time></trkpt>
    <trkpt lat="48.58219" lon="14.24671"><ele>896</ele><time>2024-07-12T11:12:01Z</time></trkpt>
    <trkpt lat="48.58205" lon="14.25158"><ele>883</ele><time>2024-07-12T11:12:31Z</time></trkpt>
    <trkpt lat="48.58306" lon="14.25600"><ele>855</ele><time>2024-07-12T11:13:01Z</time></trkpt>
    <trkpt lat="48.58313" lon="14.25631"><ele>847</ele><time>2024-07-12T11:13:31Z</time></trkpt>
    <trkpt lat="48.58332" lon="14.25711"><ele>847</ele><time>2024-07-12T11:14:01Z</time></trkpt>
    <trkpt lat="48.58366" lon="14.25774"><ele>854</ele><time>2024-07-12T11:14:31Z</time></trkpt>
    <trkpt lat="48.58420" lon="14.25858"><ele>860</ele><time>2024-07-12T11:15:01Z</time></trkpt>
    <trkpt lat="48.58482" lon="14.25946"><ele>856</ele><time>2024-07-12T11:15:31Z</time></trkpt>
    <trkpt lat="48.58555" lon="14.26013"><ele>851</ele><time>2024-07-12T11:16:01Z</time></trkpt>
    <trkpt lat="48.58629" lon="14.26023"><ele>848</ele><time>2024-07-12T11:16:31Z</time></trkpt>
    <trkpt lat="48.58702" lon="14.26035"><ele>851</ele><time>2024-07-12T11:17:01Z</time></trkpt>
    <trkpt lat="48.58729" lon="14.26307"><ele>837</ele><time>2024-07-12T11:17:31Z</time></trkpt>
    <trkpt lat="48.58774" lon="14.26346"><ele>845</ele><time>2024-07-12T11:18:01Z</time></trkpt>
    <trkpt lat="48.58853" lon="14.26380"><ele>844</ele><time>2024-07-12T11:18:31Z</time></trkpt>
    <trkpt lat="48.58892" lon="14.26432"><ele>847</ele><time>2024-07-12T11:19:01Z</time></trkpt>
    <trkpt lat="48.58833" lon="14.27407"><ele>822</ele><time>2024-07-12T11:19:31Z</time></trkpt>
    <trkpt lat="48.58716" lon="14.27523"><ele>800</ele><time>2024-07-12T11:20:01Z</time></trkpt>
    <trkpt lat="48.58754" lon="14.27695"><ele>796</ele><time>2024-07-12T11:20:31Z</time></trkpt>
    <trkpt lat="48.58787" lon="14.27907"><ele>791</ele><time>2024-07-12T11:21:01Z</time></trkpt>
    <trkpt lat="48.58869" lon="14.28064"><ele>794</ele><time>2024-07-12T11:21:31Z</time></trkpt>
    <trkpt lat="48.58750" lon="14.28004"><ele>801</ele><time>2024-07-12T11:22:01Z</time></trkpt>
    <trkpt lat="48.58715" lon="14.27984"><ele>805</ele><time>2024-07-12T11:22:31Z</time></trkpt>
    <trkpt lat="48.58670" lon="14.27959"><ele>813</ele><time>2024-07-12T11:23:01Z</time></trkpt>
    <trkpt lat="48.58638" lon="14.27936"><ele>821</ele><time>2024-07-12T11:23:31Z</time></trkpt>
    <trkpt lat="48.58604" lon="14.27908"><ele>825</ele><time>2024-07-12T11:24:01Z</time></trkpt>
    <trkpt lat="48.58574" lon="14.27864"><ele>824</ele><time>2024-07-12T11:24:31Z</time></trkpt>
    <trkpt lat="48.58542" lon="14.27798"><ele>828</ele><time>2024-07-12T11:25:01Z</time></trkpt>
    <trkpt lat="48.58514" lon="14.27735"><ele>838</ele><time>2024-07-12T11:25:31Z</time></trkpt>
    <trkpt lat="48.58482" lon="14.27687"><ele>846</ele><time>2024-07-12T11:26:01Z</time></trkpt>
    <trkpt lat="48.58454" lon="14.27643"><ele>845</ele><time>2024-07-12T11:26:31Z</time></trkpt>
    <trkpt lat="48.58413" lon="14.27621"><ele>846</ele><time>2024-07-12T11:27:01Z</time></trkpt>
    <trkpt lat="48.58378" lon="14.27616"><ele>848</ele><time>2024-07-12T11:27:31Z</time></trkpt>
    <trkpt lat="48.58341" lon="14.27652"><ele>854</ele><time>2024-07-12T11:28:01Z</time></trkpt>
    <trkpt lat="48.58310" lon="14.27706"><ele>853</ele><time>2024-07-12T11:28:31Z</time></trkpt>
    <trkpt lat="48.58310" lon="14.27783"><ele>858</ele><time>2024-07-12T11:29:01Z</time></trkpt>
    <trkpt lat="48.58317" lon="14.27859"><ele>859</ele><time>2024-07-12T11:29:31Z</time></trkpt>
    <trkpt lat="48.58316" lon="14.27949"><ele>876</ele><time>2024-07-12T11:30:01Z</time></trkpt>
    <trkpt lat="48.58314" lon="14.28018"><ele>876</ele><time>2024-07-12T11:30:31Z</time></trkpt>
    <trkpt lat="48.58306" lon="14.28087"><ele>880</ele><time>2024-07-12T11:31:01Z</time></trkpt>
    <trkpt lat="48.58312" lon="14.28168"><ele>881</ele><time>2024-07-12T11:31:31Z</time></trkpt>
    <trkpt lat="48.58286" lon="14.28237"><ele>893</ele><time>2024-07-12T11:32:01Z</time></trkpt>
    <trkpt lat="48.58260" lon="14.28305"><ele>896</ele><time>2024-07-12T11:32:31Z</time></trkpt>
    <trkpt lat="48.58242" lon="14.28358"><ele>896</ele><time>2024-07-12T11:33:01Z</time></trkpt>
    <trkpt lat="48.58216" lon="14.28435"><ele>910</ele><time>2024-07-12T11:33:31Z</time></trkpt>
    <trkpt lat="48.58186" lon="14.28496"><ele>912</ele><time>2024-07-12T11:34:01Z</time></trkpt>
    <trkpt lat="48.58153" lon="14.28545"><ele>905</ele><time>2024-07-12T11:34:31Z</time></trkpt>
    <trkpt lat="48.58122" lon="14.28619"><ele>915</ele><time>2024-07-12T11:35:01Z</time></trkpt>
    <trkpt lat="48.58098" lon="14.28708"><ele>921</ele><time>2024-07-12T11:35:31Z</time></trkpt>
    <trkpt lat="48.58072" lon="14.28860"><ele>914</ele><time>2024-07-12T11:36:01Z</time></trkpt>
    <trkpt lat="48.58069" lon="14.29086"><ele>904</ele><time>2024-07-12T11:36:31Z</time></trkpt>
    <trkpt lat="48.57785" lon="14.29010"><ele>906</ele><time>2024-07-12T11:37:01Z</time></trkpt>
    <trkpt lat="48.57661" lon="14.29017"><ele>902</ele><time>2024-07-12T11:37:31Z</time></trkpt>
    <trkpt lat="48.57579" lon="14.29049"><ele>911</ele><time>2024-07-12T11:38:01Z</time></trkpt>
    <trkpt lat="48.57495" lon="14.29016"><ele>907</ele><time>2024-07-12T11:38:31Z</time></trkpt>
    <trkpt lat="48.57212" lon="14.29314"><ele>885</ele><time>2024-07-12T11:39:01Z</time></trkpt>
    <trkpt lat="48.56975" lon="14.29763"><ele>851</ele><time>2024-07-12T11:39:31Z</time></trkpt>
    <trkpt lat="48.56948" lon="14.30118"><ele>832</ele><time>2024-07-12T11:40:01Z</time></trkpt>
    <trkpt lat="48.56969" lon="14.30245"><ele>858</ele><time>2024-07-12T11:40:31Z</time></trkpt>
    <trkpt lat="48.57003" lon="14.30325"><ele>839</ele><time>2024-07-12T11:41:01Z</time></trkpt>
    <trkpt lat="48.57047" lon="14.30371"><ele>860</ele><time>2024-07-12T11:41:31Z</time></trkpt>
    <trkpt lat="48.57324" lon="14.30431"><ele>828</ele><time>2024-07-12T11:42:01Z</time></trkpt>
    <trkpt lat="48.57546" lon="14.30338"><ele>803</ele><time>2024-07-12T11:42:31Z</time></trkpt>
    <trkpt lat="48.57503" lon="14.30756"><ele>778</ele><time>2024-07-12T11:43:01Z</time></trkpt>
    <trkpt lat="48.57421" lon="14.31097"><ele>763</ele><time>2024-07-12T11:43:31Z</time></trkpt>
    <trkpt lat="48.57452" lon="14.31431"><ele>757</ele><time>2024-07-12T11:44:01Z</time></trkpt>
    <trkpt lat="48.57456" lon="14.31827"><ele>748</ele><time>2024-07-12T11:44:31Z</time></trkpt>
    <trkpt lat="48.57549" lon="14.31989"><ele>714</ele><time>2024-07-12T11:45:01Z</time></trkpt>
    <trkpt lat="48.57569" lon="14.32034"><ele>698</ele><time>2024-07-12T11:45:31Z</time></trkpt>
    <trkpt lat="48.57504" lon="14.32095"><ele>688</ele><time>2024-07-12T11:46:01Z</time></trkpt>
    <trkpt lat="48.57425" lon="14.32132"><ele>704</ele><time>2024-07-12T11:46:31Z</time></trkpt>
    <trkpt lat="48.57341" lon="14.32169"><ele>717</ele><time>2024-07-12T11:47:01Z</time></trkpt>
    <trkpt lat="48.57321" lon="14.32237"><ele>721</ele><time>2024-07-12T11:47:31Z</time></trkpt>
    <trkpt lat="48.57305" lon="14.32299"><ele>713</ele><time>2024-07-12T11:48:01Z</time></trkpt>
    <trkpt lat="48.57281" lon="14.32345"><ele>718</ele><time>2024-07-12T11:48:31Z</time></trkpt>
    <trkpt lat="48.57259" lon="14.32399"><ele>733</ele><time>2024-07-12T11:49:01Z</time></trkpt>
    <trkpt lat="48.57221" lon="14.32425"><ele>729</ele><time>2024-07-12T11:49:31Z</time></trkpt>
    <trkpt lat="48.57186" lon="14.32482"><ele>732</ele><time>2024-07-12T11:50:01Z</time></trkpt>
    <trkpt lat="48.57151" lon="14.32602"><ele>734</ele><time>2024-07-12T11:50:31Z</time></trkpt>
    <trkpt lat="48.57138" lon="14.32706"><ele>725</ele><time>2024-07-12T11:51:01Z</time></trkpt>
    <trkpt lat="48.57117" lon="14.32734"><ele>719</ele><time>2024-07-12T11:51:35Z</time></trkpt>
    <trkpt lat="48.57113" lon="14.32875"><ele>682</ele><time>2024-07-12T11:52:05Z</time></trkpt>
    <trkpt lat="48.57129" lon="14.33015"><ele>681</ele><time>2024-07-12T11:53:05Z</time></trkpt>
    <trkpt lat="48.57047" lon="14.33148"><ele>698</ele><time>2024-07-12T11:53:35Z</time></trkpt>
    <trkpt lat="48.56918" lon="14.33134"><ele>675</ele><time>2024-07-12T11:54:05Z</time></trkpt>
    <trkpt lat="48.56855" lon="14.33153"><ele>663</ele><time>2024-07-12T11:54:35Z</time></trkpt>
    <trkpt lat="48.56842" lon="14.33222"><ele>668</ele><time>2024-07-12T11:55:05Z</time></trkpt>
    <trkpt lat="48.56851" lon="14.33371"><ele>661</ele><time>2024-07-12T11:55:35Z</time></trkpt>
    <trkpt lat="48.56877" lon="14.33431"><ele>650</ele><time>2024-07-12T11:56:05Z</time></trkpt>
    <trkpt lat="48.56896" lon="14.33459"><ele>648</ele><time>2024-07-12T11:56:35Z</time></trkpt>
    <trkpt lat="48.56986" lon="14.33535"><ele>639</ele><time>2024-07-12T11:57:05Z</time></trkpt>
    <trkpt lat="48.57017" lon="14.33646"><ele>640</ele><time>2024-07-12T11:57:35Z</time></trkpt>
    <trkpt lat="48.57038" lon="14.33735"><ele>638</ele><time>2024-07-12T11:58:05Z</time></trkpt>
    <trkpt lat="48.57042" lon="14.33900"><ele>632</ele><time>2024-07-12T11:58:35Z</time></trkpt>
    <trkpt lat="48.57031" lon="14.33872"><ele>611</ele><time>2024-07-12T12:03:33Z</time></trkpt>
    <trkpt lat="48.57037" lon="14.33862"><ele>608</ele><time>2024-07-12T12:04:33Z</time></trkpt>
    <trkpt lat="48.57080" lon="14.34033"><ele>622</ele><time>2024-07-12T12:06:03Z</time></trkpt>
    <trkpt lat="48.57046" lon="14.34209"><ele>614</ele><time>2024-07-12T12:06:33Z</time></trkpt>
    <trkpt lat="48.57026" lon="14.34262"><ele>634</ele><time>2024-07-12T12:07:03Z</time></trkpt>
    <trkpt lat="48.57018" lon="14.34312"><ele>646</ele><time>2024-07-12T12:07:33Z</time></trkpt>
    <trkpt lat="48.57022" lon="14.34376"><ele>653</ele><time>2024-07-12T12:08:03Z</time></trkpt>
    <trkpt lat="48.56995" lon="14.34429"><ele>651</ele><time>2024-07-12T12:08:33Z</time></trkpt>
    <trkpt lat="48.56913" lon="14.34489"><ele>654</ele><time>2024-07-12T12:09:03Z</time></trkpt>
    <trkpt lat="48.56983" lon="14.34688"><ele>660</ele><time>2024-07-12T12:09:33Z</time></trkpt>
    <trkpt lat="48.57115" lon="14.34971"><ele>658</ele><time>2024-07-12T12:10:03Z</time></trkpt>
    <trkpt lat="48.57181" lon="14.35114"><ele>658</ele><time>2024-07-12T12:10:33Z</time></trkpt>
    <trkpt lat="48.57258" lon="14.35290"><ele>650</ele><time>2024-07-12T12:11:03Z</time></trkpt>
    <trkpt lat="48.57507" lon="14.35438"><ele>630</ele><time>2024-07-12T12:11:33Z</time></trkpt>
    <trkpt lat="48.57783" lon="14.35671"><ele>613</ele><time>2024-07-12T12:12:03Z</time></trkpt>
    <trkpt lat="48.58092" lon="14.35751"><ele>592</ele><time>2024-07-12T12:12:33Z</time></trkpt>
    <trkpt lat="48.58086" lon="14.35973"><ele>583</ele><time>2024-07-12T12:13:03Z</time></trkpt>
    <trkpt lat="48.58060" lon="14.36072"><ele>590</ele><time>2024-07-12T12:13:33Z</time></trkpt>
    <trkpt lat="48.58061" lon="14.36148"><ele>595</ele><time>2024-07-12T12:14:03Z</time></trkpt>
    <trkpt lat="48.58086" lon="14.36214"><ele>600</ele><time>2024-07-12T12:14:33Z</time></trkpt>
    <trkpt lat="48.58094" lon="14.36265"><ele>604</ele><time>2024-07-12T12:15:03Z</time></trkpt>
    <trkpt lat="48.58095" lon="14.36315"><ele>605</ele><time>2024-07-12T12:15:33Z</time></trkpt>
    <trkpt lat="48.58098" lon="14.36382"><ele>612</ele><time>2024-07-12T12:16:03Z</time></trkpt>
    <trkpt lat="48.58058" lon="14.36396"><ele>625</ele><time>2024-07-12T12:16:33Z</time></trkpt>
    <trkpt lat="48.58012" lon="14.36395"><ele>631</ele><time>2024-07-12T12:17:03Z</time></trkpt>
    <trkpt lat="48.57961" lon="14.36410"><ele>635</ele><time>2024-07-12T12:17:33Z</time></trkpt>
    <trkpt lat="48.57892" lon="14.36426"><ele>641</ele><time>2024-07-12T12:18:03Z</time></trkpt>
    <trkpt lat="48.57811" lon="14.36449"><ele>643</ele><time>2024-07-12T12:18:33Z</time></trkpt>
    <trkpt lat="48.57743" lon="14.36457"><ele>647</ele><time>2024-07-12T12:19:03Z</time></trkpt>
    <trkpt lat="48.57649" lon="14.36501"><ele>646</ele><time>2024-07-12T12:19:33Z</time></trkpt>
    <trkpt lat="48.57550" lon="14.36495"><ele>645</ele><time>2024-07-12T12:20:22Z</time></trkpt>
    <trkpt lat="48.57508" lon="14.36363"><ele>651</ele><time>2024-07-12T12:21:05Z</time></trkpt>
    <trkpt lat="48.57351" lon="14.36363"><ele>661</ele><time>2024-07-12T12:22:05Z</time></trkpt>
    <trkpt lat="48.57216" lon="14.36326"><ele>665</ele><time>2024-07-12T12:23:05Z</time></trkpt>
    <trkpt lat="48.57091" lon="14.36380"><ele>671</ele><time>2024-07-12T12:24:04Z</time></trkpt>
    <trkpt lat="48.57013" lon="14.36379"><ele>675</ele><time>2024-07-12T12:24:35Z</time></trkpt>
    <trkpt lat="48.56880" lon="14.36274"><ele>671</ele><time>2024-07-12T12:25:08Z</time></trkpt>
    <trkpt lat="48.56897" lon="14.36161"><ele>677</ele><time>2024-07-12T12:25:40Z</time></trkpt>
    <trkpt lat="48.56879" lon="14.36145"><ele>675</ele><time>2024-07-12T12:27:10Z</time></trkpt>
    <trkpt lat="48.56905" lon="14.36196"><ele>676</ele><time>2024-07-12T12:27:40Z</time></trkpt>
    <trkpt lat="48.56870" lon="14.36403"><ele>673</ele><time>2024-07-12T12:28:10Z</time></trkpt>
    <trkpt lat="48.56939" lon="14.36610"><ele>676</ele><time>2024-07-12T12:28:40Z</time></trkpt>
    <trkpt lat="48.56940" lon="14.36828"><ele>676</ele><time>2024-07-12T12:29:10Z</time></trkpt>
    <trkpt lat="48.56881" lon="14.36982"><ele>676</ele><time>2024-07-12T12:29:40Z</time></trkpt>
    <trkpt lat="48.56830" lon="14.37056"><ele>681</ele><time>2024-07-12T12:30:10Z</time></trkpt>
    <trkpt lat="48.56799" lon="14.37147"><ele>686</ele><time>2024-07-12T12:30:40Z</time></trkpt>
    <trkpt lat="48.56772" lon="14.37218"><ele>697</ele><time>2024-07-12T12:31:10Z</time></trkpt>
    <trkpt lat="48.56780" lon="14.37289"><ele>700</ele><time>2024-07-12T12:31:40Z</time></trkpt>
    <trkpt lat="48.56778" lon="14.37339"><ele>706</ele><time>2024-07-12T12:32:10Z</time></trkpt>
    <trkpt lat="48.56798" lon="14.37384"><ele>713</ele><time>2024-07-12T12:34:40Z</time></trkpt>
    <trkpt lat="48.56877" lon="14.37490"><ele>702</ele><time>2024-07-12T12:35:10Z</time></trkpt>
    <trkpt lat="48.56919" lon="14.37712"><ele>698</ele><time>2024-07-12T12:35:40Z</time></trkpt>
    <trkpt lat="48.56958" lon="14.38127"><ele>684</ele><time>2024-07-12T12:36:10Z</time></trkpt>
    <trkpt lat="48.57034" lon="14.38432"><ele>684</ele><time>2024-07-12T12:36:40Z</time></trkpt>
    <trkpt lat="48.57088" lon="14.38621"><ele>682</ele><time>2024-07-12T12:37:10Z</time></trkpt>
    <trkpt lat="48.56982" lon="14.38792"><ele>681</ele><time>2024-07-12T12:37:40Z</time></trkpt>
    <trkpt lat="48.56894" lon="14.38989"><ele>669</ele><time>2024-07-12T12:38:10Z</time></trkpt>
    <trkpt lat="48.56838" lon="14.39227"><ele>659</ele><time>2024-07-12T12:38:40Z</time></trkpt>
    <trkpt lat="48.56770" lon="14.39190"><ele>656</ele><time>2024-07-12T12:39:10Z</time></trkpt>
    <trkpt lat="48.56692" lon="14.39426"><ele>649</ele><time>2024-07-12T12:39:40Z</time></trkpt>
    <trkpt lat="48.56578" lon="14.39659"><ele>643</ele><time>2024-07-12T12:40:10Z</time></trkpt>
    <trkpt lat="48.56410" lon="14.39854"><ele>630</ele><time>2024-07-12T12:40:40Z</time></trkpt>
    <trkpt lat="48.56279" lon="14.39943"><ele>625</ele><time>2024-07-12T12:41:10Z</time></trkpt>
    <trkpt lat="48.56175" lon="14.40023"><ele>629</ele><time>2024-07-12T12:41:40Z</time></trkpt>
    <trkpt lat="48.56168" lon="14.40054"><ele>635</ele><time>2024-07-12T12:42:10Z</time></trkpt>
    <trkpt lat="48.56114" lon="14.40039"><ele>635</ele><time>2024-07-12T12:43:10Z</time></trkpt>
    <trkpt lat="48.56062" lon="14.40092"><ele>642</ele><time>2024-07-12T12:43:40Z</time></trkpt>
    <trkpt lat="48.55957" lon="14.40210"><ele>636</ele><time>2024-07-12T12:44:10Z</time></trkpt>
    <trkpt lat="48.55942" lon="14.40295"><ele>649</ele><time>2024-07-12T12:44:40Z</time></trkpt>
    <trkpt lat="48.55947" lon="14.40361"><ele>655</ele><time>2024-07-12T12:45:10Z</time></trkpt>
    <trkpt lat="48.55950" lon="14.40428"><ele>660</ele><time>2024-07-12T12:45:40Z</time></trkpt>
    <trkpt lat="48.55952" lon="14.40496"><ele>662</ele><time>2024-07-12T12:46:10Z</time></trkpt>
    <trkpt lat="48.55950" lon="14.40569"><ele>665</ele><time>2024-07-12T12:46:40Z</time></trkpt>
    <trkpt lat="48.55933" lon="14.40636"><ele>673</ele><time>2024-07-12T12:47:10Z</time></trkpt>
    <trkpt lat="48.55920" lon="14.40697"><ele>677</ele><time>2024-07-12T12:47:40Z</time></trkpt>
    <trkpt lat="48.55928" lon="14.40762"><ele>683</ele><time>2024-07-12T12:48:10Z</time></trkpt>
    <trkpt lat="48.55916" lon="14.40822"><ele>691</ele><time>2024-07-12T12:48:40Z</time></trkpt>
    <trkpt lat="48.55893" lon="14.40874"><ele>694</ele><time>2024-07-12T12:49:10Z</time></trkpt>
    <trkpt lat="48.55861" lon="14.40942"><ele>699</ele><time>2024-07-12T12:49:40Z</time></trkpt>
    <trkpt lat="48.55797" lon="14.41039"><ele>699</ele><time>2024-07-12T12:50:10Z</time></trkpt>
    <trkpt lat="48.55693" lon="14.41221"><ele>701</ele><time>2024-07-12T12:50:50Z</time></trkpt>
    <trkpt lat="48.55541" lon="14.41465"><ele>699</ele><time>2024-07-12T12:51:20Z</time></trkpt>
    <trkpt lat="48.55359" lon="14.41713"><ele>685</ele><time>2024-07-12T12:51:50Z</time></trkpt>
    <trkpt lat="48.55286" lon="14.41900"><ele>692</ele><time>2024-07-12T12:52:20Z</time></trkpt>
    <trkpt lat="48.55259" lon="14.42171"><ele>696</ele><time>2024-07-12T12:52:50Z</time></trkpt>
    <trkpt lat="48.55191" lon="14.42488"><ele>678</ele><time>2024-07-12T12:53:20Z</time></trkpt>
    <trkpt lat="48.55184" lon="14.43000"><ele>674</ele><time>2024-07-12T12:53:50Z</time></trkpt>
    <trkpt lat="48.55182" lon="14.43393"><ele>673</ele><time>2024-07-12T12:54:20Z</time></trkpt>
    <trkpt lat="48.55310" lon="14.43636"><ele>659</ele><time>2024-07-12T12:54:50Z</time></trkpt>
    <trkpt lat="48.55436" lon="14.43802"><ele>665</ele><time>2024-07-12T12:55:20Z</time></trkpt>
    <trkpt lat="48.55581" lon="14.44035"><ele>671</ele><time>2024-07-12T12:56:10Z</time></trkpt>
    <trkpt lat="48.55730" lon="14.44545"><ele>642</ele><time>2024-07-12T12:57:10Z</time></trkpt>
    <trkpt lat="48.55629" lon="14.44689"><ele>663</ele><time>2024-07-12T12:57:40Z</time></trkpt>
    <trkpt lat="48.55668" lon="14.44818"><ele>705</ele><time>2024-07-12T12:58:10Z</time></trkpt>
  </trkseg>
</trk>
</gpx>