<?xml version="1.0" encoding="UTF-8"?>
<gpx version="1.1" creator="Gpx-Optimize" xmlns="http://www.topografix.com/GPX/1/1">
<trk>
  <name>Garsten-Kremsmünster</name>
  <type>bicycle</type>
  <trkseg>
    <trkpt lat="48.02349" lon="14.40680"><ele>296</ele></trkpt>
    <trkpt lat="48.02323" lon="14.40641"><ele>306</ele></trkpt>
    <trkpt lat="48.02238" lon="14.40555"><ele>304</ele></trkpt>
    <trkpt lat="48.02191" lon="14.40408"><ele>299</ele></trkpt>
    <trkpt lat="48.02181" lon="14.40278"><ele>301</ele></trkpt>
    <trkpt lat="48.02056" lon="14.40210"><ele>302</ele></trkpt>
    <trkpt lat="48.02006" lon="14.40135"><ele>305</ele></trkpt>
    <trkpt lat="48.01952" lon="14.40154"><ele>304</ele></trkpt>
    <trkpt lat="48.01852" lon="14.40144"><ele>301</ele></trkpt>
    <trkpt lat="48.01753" lon="14.40217"><ele>304</ele></trkpt>
    <trkpt lat="48.01654" lon="14.40238"><ele>305</ele></trkpt>
    <trkpt lat="48.01539" lon="14.40175"><ele>304</ele></trkpt>
    <trkpt lat="48.01436" lon="14.40096"><ele>303</ele></trkpt>
    <trkpt lat="48.01308" lon="14.40040"><ele>318</ele></trkpt>
    <trkpt lat="48.01231" lon="14.39908"><ele>313</ele></trkpt>
    <trkpt lat="48.01119" lon="14.39922"><ele>325</ele></trkpt>
    <trkpt lat="48.01028" lon="14.39840"><ele>321</ele></trkpt>
    <trkpt lat="48.00968" lon="14.39676"><ele>316</ele></trkpt>
    <trkpt lat="48.00911" lon="14.39508"><ele>316</ele></trkpt>
    <trkpt lat="48.00900" lon="14.39626"><ele>319</ele></trkpt>
    <trkpt lat="48.00915" lon="14.39713"><ele>326</ele></trkpt>
    <trkpt lat="48.00914" lon="14.39792"><ele>337</ele></trkpt>
    <trkpt lat="48.00925" lon="14.39860"><ele>341</ele></trkpt>
    <trkpt lat="48.00940" lon="14.39932"><ele>347</ele></trkpt>
    <trkpt lat="48.00882" lon="14.39945"><ele>352</ele></trkpt>
    <trkpt lat="48.00790" lon="14.39818"><ele>352</ele></trkpt>
    <trkpt lat="48.00678" lon="14.39714"><ele>350</ele></trkpt>
    <trkpt lat="48.00616" lon="14.39721"><ele>362</ele></trkpt>
    <trkpt lat="48.00578" lon="14.39669"><ele>372</ele></trkpt>
    <trkpt lat="48.00548" lon="14.39602"><ele>373</ele></trkpt>
    <trkpt lat="48.00528" lon="14.39565"><ele>370</ele></trkpt>
    <trkpt lat="48.00407" lon="14.39487"><ele>371</ele></trkpt>
    <trkpt lat="48.00441" lon="14.39341"><ele>372</ele></trkpt>
    <trkpt lat="48.00415" lon="14.39225"><ele>380</ele></trkpt>
    <trkpt lat="48.00380" lon="14.39152"><ele>387</ele></trkpt>
    <trkpt lat="48.00349" lon="14.39084"><ele>390</ele></trkpt>
    <trkpt lat="48.00313" lon="14.39014"><ele>387</ele></trkpt>
    <trkpt lat="48.00275" lon="14.38942"><ele>396</ele></trkpt>
    <trkpt lat="48.00236" lon="14.38859"><ele>402</ele></trkpt>
    <trkpt lat="48.00192" lon="14.38774"><ele>410</ele></trkpt>
    <trkpt lat="48.00161" lon="14.38671"><ele>400</ele></trkpt>
    <trkpt lat="48.00117" lon="14.38556"><ele>416</ele></trkpt>
    <trkpt lat="48.00103" lon="14.38450"><ele>387</ele></trkpt>
    <trkpt lat="48.00058" lon="14.38372"><ele>413</ele></trkpt>
    <trkpt lat="48.00004" lon="14.38274"><ele>408</ele></trkpt>
    <trkpt lat="47.99959" lon="14.38124"><ele>342</ele></trkpt>
    <trkpt lat="47.99926" lon="14.38033"><ele>402</ele></trkpt>
    <trkpt lat="47.99881" lon="14.37890"><ele>396</ele></trkpt>
    <trkpt lat="47.99865" lon="14.37735"><ele>389</ele></trkpt>
    <trkpt lat="47.99800" lon="14.37497"><ele>396</ele></trkpt>
    <trkpt lat="47.99792" lon="14.37361"><ele>391</ele></trkpt>
    <trkpt lat="47.99785" lon="14.37217"><ele>392</ele></trkpt>
    <trkpt lat="47.99763" lon="14.37113"><ele>380</ele></trkpt>
    <trkpt lat="47.99755" lon="14.37019"><ele>382</ele></trkpt>
    <trkpt lat="47.99737" lon="14.36925"><ele>393</ele></trkpt>
    <trkpt lat="47.99711" lon="14.36798"><ele>382</ele></trkpt>
    <trkpt lat="47.99654" lon="14.36602"><ele>403</ele></trkpt>
    <trkpt lat="47.99623" lon="14.36435"><ele>346</ele></trkpt>
    <trkpt lat="47.99612" lon="14.36454"><ele>402</ele></trkpt>
    <trkpt lat="47.99622" lon="14.36428"><ele>408</ele></trkpt>
    <trkpt lat="47.99576" lon="14.36329"><ele>422</ele></trkpt>
    <trkpt lat="47.99549" lon="14.36295"><ele>426</ele></trkpt>
    <trkpt lat="47.99539" lon="14.36242"><ele>428</ele></trkpt>
    <trkpt lat="47.99530" lon="14.36190"><ele>426</ele></trkpt>
    <trkpt lat="47.99526" lon="14.36141"><ele>324</ele></trkpt>
    <trkpt lat="47.99532" lon="14.36099"><ele>404</ele></trkpt>
    <trkpt lat="47.99509" lon="14.36076"><ele>450</ele></trkpt>
    <trkpt lat="47.99514" lon="14.36027"><ele>414</ele></trkpt>
    <trkpt lat="47.99482" lon="14.36001"><ele>432</ele></trkpt>
    <trkpt lat="47.99468" lon="14.35960"><ele>474</ele></trkpt>
    <trkpt lat="47.99446" lon="14.35856"><ele>482</ele></trkpt>
    <trkpt lat="47.99432" lon="14.35803"><ele>504</ele></trkpt>
    <trkpt lat="47.99425" lon="14.35760"><ele>506</ele></trkpt>
    <trkpt lat="47.99404" lon="14.35702"><ele>510</ele></trkpt>
    <trkpt lat="47.99393" lon="14.35660"><ele>514</ele></trkpt>
    <trkpt lat="47.99376" lon="14.35531"><ele>526</ele></trkpt>
    <trkpt lat="47.99380" lon="14.35471"><ele>520</ele></trkpt>
    <trkpt lat="47.99356" lon="14.35403"><ele>500</ele></trkpt>
    <trkpt lat="47.99352" lon="14.35351"><ele>505</ele></trkpt>
    <trkpt lat="47.99328" lon="14.35312"><ele>425</ele></trkpt>
    <trkpt lat="47.99313" lon="14.35250"><ele>515</ele></trkpt>
    <trkpt lat="47.99301" lon="14.35190"><ele>522</ele></trkpt>
    <trkpt lat="47.99286" lon="14.35126"><ele>527</ele></trkpt>
    <trkpt lat="47.99271" lon="14.35036"><ele>524</ele></trkpt>
    <trkpt lat="47.99265" lon="14.34978"><ele>536</ele></trkpt>
    <trkpt lat="47.99258" lon="14.34927"><ele>542</ele></trkpt>
    <trkpt lat="47.99245" lon="14.34883"><ele>482</ele></trkpt>
    <trkpt lat="47.99230" lon="14.34832"><ele>547</ele></trkpt>
    <trkpt lat="47.99220" lon="14.34763"><ele>554</ele></trkpt>
    <trkpt lat="47.99214" lon="14.34705"><ele>551</ele></trkpt>
    <trkpt lat="47.99188" lon="14.34667"><ele>522</ele></trkpt>
    <trkpt lat="47.99167" lon="14.34602"><ele>564</ele></trkpt>
    <trkpt lat="47.99175" lon="14.34547"><ele>394</ele></trkpt>
    <trkpt lat="47.99109" lon="14.34454"><ele>557</ele></trkpt>
    <trkpt lat="47.98993" lon="14.34195"><ele>550</ele></trkpt>
    <trkpt lat="47.98816" lon="14.34090"><ele>552</ele></trkpt>
    <trkpt lat="47.98749" lon="14.33895"><ele>555</ele></trkpt>
    <trkpt lat="47.98705" lon="14.33722"><ele>556</ele></trkpt>
    <trkpt lat="47.98621" lon="14.33553"><ele>557</ele></trkpt>
    <trkpt lat="47.98594" lon="14.33447"><ele>565</ele></trkpt>
    <trkpt lat="47.98542" lon="14.33300"><ele>561</ele></trkpt>
    <trkpt lat="47.98505" lon="14.33212"><ele>563</ele></trkpt>
    <trkpt lat="47.98453" lon="14.33088"><ele>571</ele></trkpt>
    <trkpt lat="47.98460" lon="14.32952"><ele>580</ele></trkpt>
    <trkpt lat="47.98475" lon="14.32829"><ele>590</ele></trkpt>
    <trkpt lat="47.98500" lon="14.32713"><ele>587</ele></trkpt>
    <trkpt lat="47.98497" lon="14.32530"><ele>584</ele></trkpt>
    <trkpt lat="47.98490" lon="14.32381"><ele>589</ele></trkpt>
    <trkpt lat="47.98441" lon="14.32209"><ele>592</ele></trkpt>
    <trkpt lat="47.98241" lon="14.31962"><ele>585</ele></trkpt>
    <trkpt lat="47.98172" lon="14.31669"><ele>583</ele></trkpt>
    <trkpt lat="47.98098" lon="14.31329"><ele>580</ele></trkpt>
    <trkpt lat="47.98065" lon="14.31165"><ele>584</ele></trkpt>
    <trkpt lat="47.98051" lon="14.31062"><ele>586</ele></trkpt>
    <trkpt lat="47.98034" lon="14.30875"><ele>581</ele></trkpt>
    <trkpt lat="47.97953" lon="14.30645"><ele>567</ele></trkpt>
    <trkpt lat="47.97896" lon="14.30387"><ele>555</ele></trkpt>
    <trkpt lat="47.97751" lon="14.30247"><ele>534</ele></trkpt>
    <trkpt lat="47.97614" lon="14.30199"><ele>543</ele></trkpt>
    <trkpt lat="47.97544" lon="14.30035"><ele>544</ele></trkpt>
    <trkpt lat="47.97416" lon="14.29771"><ele>561</ele></trkpt>
    <trkpt lat="47.97358" lon="14.29705"><ele>567</ele></trkpt>
    <trkpt lat="47.97323" lon="14.29666"><ele>553</ele></trkpt>
    <trkpt lat="47.97283" lon="14.29626"><ele>570</ele></trkpt>
    <trkpt lat="47.97242" lon="14.29584"><ele>571</ele></trkpt>
    <trkpt lat="47.97200" lon="14.29557"><ele>577</ele></trkpt>
    <trkpt lat="47.97160" lon="14.29500"><ele>554</ele></trkpt>
    <trkpt lat="47.97118" lon="14.29450"><ele>581</ele></trkpt>
    <trkpt lat="47.97072" lon="14.29388"><ele>587</ele></trkpt>
    <trkpt lat="47.96989" lon="14.29289"><ele>596</ele></trkpt>
    <trkpt lat="47.96939" lon="14.29318"><ele>604</ele></trkpt>
    <trkpt lat="47.96897" lon="14.29370"><ele>619</ele></trkpt>
    <trkpt lat="47.96839" lon="14.29441"><ele>611</ele></trkpt>
    <trkpt lat="47.96841" lon="14.29854"><ele>578</ele></trkpt>
    <trkpt lat="47.96631" lon="14.30175"><ele>555</ele></trkpt>
    <trkpt lat="47.96422" lon="14.30061"><ele>549</ele></trkpt>
    <trkpt lat="47.96321" lon="14.30007"><ele>546</ele></trkpt>
    <trkpt lat="47.96281" lon="14.30057"><ele>550</ele></trkpt>
    <trkpt lat="47.96249" lon="14.30102"><ele>554</ele></trkpt>
    <trkpt lat="47.96207" lon="14.30109"><ele>561</ele></trkpt>
    <trkpt lat="47.96172" lon="14.30125"><ele>567</ele></trkpt>
    <trkpt lat="47.96137" lon="14.30144"><ele>570</ele></trkpt>
    <trkpt lat="47.96099" lon="14.30162"><ele>574</ele></trkpt>
    <trkpt lat="47.96061" lon="14.30164"><ele>574</ele></trkpt>
    <trkpt lat="47.96017" lon="14.30162"><ele>575</ele></trkpt>
    <trkpt lat="47.95975" lon="14.30142"><ele>585</ele></trkpt>
    <trkpt lat="47.95930" lon="14.30122"><ele>594</ele></trkpt>
    <trkpt lat="47.95871" lon="14.30095"><ele>589</ele></trkpt>
    <trkpt lat="47.95818" lon="14.30079"><ele>582</ele></trkpt>
    <trkpt lat="47.95767" lon="14.30014"><ele>583</ele></trkpt>
    <trkpt lat="47.95723" lon="14.29969"><ele>603</ele></trkpt>
    <trkpt lat="47.95684" lon="14.29925"><ele>583</ele></trkpt>
    <trkpt lat="47.95645" lon="14.29870"><ele>606</ele></trkpt>
    <trkpt lat="47.95602" lon="14.29803"><ele>627</ele></trkpt>
    <trkpt lat="47.95561" lon="14.29761"><ele>611</ele></trkpt>
    <trkpt lat="47.95509" lon="14.29758"><ele>631</ele></trkpt>
    <trkpt lat="47.95473" lon="14.29793"><ele>633</ele></trkpt>
    <trkpt lat="47.95351" lon="14.29725"><ele>634</ele></trkpt>
    <trkpt lat="47.95250" lon="14.29701"><ele>611</ele></trkpt>
    <trkpt lat="47.95144" lon="14.29891"><ele>603</ele></trkpt>
    <trkpt lat="47.95108" lon="14.30103"><ele>603</ele></trkpt>
    <trkpt lat="47.95057" lon="14.30314"><ele>607</ele></trkpt>
    <trkpt lat="47.95046" lon="14.30388"><ele>614</ele></trkpt>
    <trkpt lat="47.95043" lon="14.30477"><ele>616</ele></trkpt>
    <trkpt lat="47.94955" lon="14.30521"><ele>607</ele></trkpt>
    <trkpt lat="47.94862" lon="14.30456"><ele>599</ele></trkpt>
    <trkpt lat="47.94829" lon="14.30412"><ele>613</ele></trkpt>
    <trkpt lat="47.94799" lon="14.30367"><ele>618</ele></trkpt>
    <trkpt lat="47.94767" lon="14.30331"><ele>623</ele></trkpt>
    <trkpt lat="47.94736" lon="14.30292"><ele>629</ele></trkpt>
    <trkpt lat="47.94714" lon="14.30241"><ele>635</ele></trkpt>
    <trkpt lat="47.94676" lon="14.30171"><ele>641</ele></trkpt>
    <trkpt lat="47.94652" lon="14.30095"><ele>646</ele></trkpt>
    <trkpt lat="47.94632" lon="14.30030"><ele>641</ele></trkpt>
    <trkpt lat="47.94616" lon="14.29974"><ele>644</ele></trkpt>
    <trkpt lat="47.94614" lon="14.29887"><ele>655</ele></trkpt>
    <trkpt lat="47.94598" lon="14.29796"><ele>650</ele></trkpt>
    <trkpt lat="47.94597" lon="14.29781"><ele>649</ele></trkpt>
    <trkpt lat="47.94592" lon="14.29818"><ele>649</ele></trkpt>
    <trkpt lat="47.94548" lon="14.29804"><ele>659</ele></trkpt>
    <trkpt lat="47.94519" lon="14.29757"><ele>665</ele></trkpt>
    <trkpt lat="47.94496" lon="14.29710"><ele>644</ele></trkpt>
    <trkpt lat="47.94478" lon="14.29662"><ele>671</ele></trkpt>
    <trkpt lat="47.94463" lon="14.29617"><ele>666</ele></trkpt>
    <trkpt lat="47.94465" lon="14.29568"><ele>685</ele></trkpt>
    <trkpt lat="47.94452" lon="14.29523"><ele>693</ele></trkpt>
    <trkpt lat="47.94430" lon="14.29482"><ele>697</ele></trkpt>
    <trkpt lat="47.94416" lon="14.29442"><ele>704</ele></trkpt>
    <trkpt lat="47.94410" lon="14.29395"><ele>702</ele></trkpt>
    <trkpt lat="47.94414" lon="14.29314"><ele>700</ele></trkpt>
    <trkpt lat="47.94427" lon="14.29217"><ele>702</ele></trkpt>
    <trkpt lat="47.94452" lon="14.29160"><ele>678</ele></trkpt>
    <trkpt lat="47.94519" lon="14.29009"><ele>666</ele></trkpt>
    <trkpt lat="47.94631" lon="14.28854"><ele>625</ele></trkpt>
    <trkpt lat="47.94756" lon="14.28757"><ele>646</ele></trkpt>
    <trkpt lat="47.94889" lon="14.28606"><ele>625</ele></trkpt>
    <trkpt lat="47.95134" lon="14.28560"><ele>609</ele></trkpt>
    <trkpt lat="47.95293" lon="14.28179"><ele>580</ele></trkpt>
    <trkpt lat="47.95289" lon="14.28072"><ele>578</ele></trkpt>
    <trkpt lat="47.95265" lon="14.27961"><ele>566</ele></trkpt>
    <trkpt lat="47.95435" lon="14.28125"><ele>544</ele></trkpt>
    <trkpt lat="47.95473" lon="14.27905"><ele>519</ele></trkpt>
    <trkpt lat="47.95270" lon="14.27628"><ele>526</ele></trkpt>
    <trkpt lat="47.95376" lon="14.27559"><ele>482</ele></trkpt>
    <trkpt lat="47.95594" lon="14.27522"><ele>460</ele></trkpt>
    <trkpt lat="47.95710" lon="14.27495"><ele>464</ele></trkpt>
    <trkpt lat="47.95675" lon="14.27468"><ele>457</ele></trkpt>
    <trkpt lat="47.95631" lon="14.27436"><ele>459</ele></trkpt>
    <trkpt lat="47.95619" lon="14.27418"><ele>460</ele></trkpt>
    <trkpt lat="47.95598" lon="14.27351"><ele>467</ele></trkpt>
    <trkpt lat="47.95590" lon="14.27241"><ele>472</ele></trkpt>
    <trkpt lat="47.95607" lon="14.27091"><ele>474</ele></trkpt>
    <trkpt lat="47.95593" lon="14.27054"><ele>473</ele></trkpt>
    <trkpt lat="47.95576" lon="14.27047"><ele>477</ele></trkpt>
    <trkpt lat="47.95818" lon="14.26904"><ele>463</ele></trkpt>
    <trkpt lat="47.96002" lon="14.26918"><ele>458</ele></trkpt>
    <trkpt lat="47.96151" lon="14.26901"><ele>460</ele></trkpt>
    <trkpt lat="47.96270" lon="14.26859"><ele>463</ele></trkpt>
    <trkpt lat="47.96379" lon="14.26799"><ele>459</ele></trkpt>
    <trkpt lat="47.96538" lon="14.26611"><ele>429</ele></trkpt>
    <trkpt lat="47.96788" lon="14.26597"><ele>404</ele></trkpt>
    <trkpt lat="47.96930" lon="14.26580"><ele>383</ele></trkpt>
    <trkpt lat="47.96923" lon="14.26517"><ele>377</ele></trkpt>
    <trkpt lat="47.96784" lon="14.26364"><ele>374</ele></trkpt>
    <trkpt lat="47.96725" lon="14.26145"><ele>373</ele></trkpt>
    <trkpt lat="47.96567" lon="14.26099"><ele>386</ele></trkpt>
    <trkpt lat="47.96444" lon="14.26086"><ele>369</ele></trkpt>
    <trkpt lat="47.96327" lon="14.26057"><ele>374</ele></trkpt>
    <trkpt lat="47.96179" lon="14.26024"><ele>376</ele></trkpt>
    <trkpt lat="47.96009" lon="14.25962"><ele>370</ele></trkpt>
    <trkpt lat="47.95839" lon="14.25886"><ele>372</ele></trkpt>
    <trkpt lat="47.95687" lon="14.25827"><ele>372</ele></trkpt>
    <trkpt lat="47.95537" lon="14.25792"><ele>373</ele></trkpt>
    <trkpt lat="47.95375" lon="14.25751"><ele>369</ele></trkpt>
    <trkpt lat="47.95201" lon="14.25730"><ele>373</ele></trkpt>
    <trkpt lat="47.95132" lon="14.25784"><ele>374</ele></trkpt>
    <trkpt lat="47.95104" lon="14.25860"><ele>401</ele></trkpt>
    <trkpt lat="47.95025" lon="14.25925"><ele>478</ele></trkpt>
    <trkpt lat="47.94930" lon="14.26005"><ele>389</ele></trkpt>
    <trkpt lat="47.94837" lon="14.26012"><ele>446</ele></trkpt>
    <trkpt lat="47.94653" lon="14.25878"><ele>388</ele></trkpt>
    <trkpt lat="47.94576" lon="14.25787"><ele>394</ele></trkpt>
    <trkpt lat="47.94476" lon="14.25681"><ele>387</ele></trkpt>
    <trkpt lat="47.94323" lon="14.25468"><ele>385</ele></trkpt>
    <trkpt lat="47.94512" lon="14.25592"><ele>357</ele></trkpt>
    <trkpt lat="47.94631" lon="14.25629"><ele>358</ele></trkpt>
    <trkpt lat="47.94564" lon="14.25518"><ele>361</ele></trkpt>
    <trkpt lat="47.94427" lon="14.25379"><ele>359</ele></trkpt>
    <trkpt lat="47.94286" lon="14.25294"><ele>360</ele></trkpt>
    <trkpt lat="47.94182" lon="14.25218"><ele>361</ele></trkpt>
    <trkpt lat="47.94233" lon="14.25244"><ele>363</ele></trkpt>
    <trkpt lat="47.94275" lon="14.25222"><ele>376</ele></trkpt>
    <trkpt lat="47.94317" lon="14.25226"><ele>379</ele></trkpt>
    <trkpt lat="47.94390" lon="14.25282"><ele>378</ele></trkpt>
    <trkpt lat="47.94350" lon="14.25204"><ele>381</ele></trkpt>
    <trkpt lat="47.94288" lon="14.25141"><ele>388</ele></trkpt>
    <trkpt lat="47.94272" lon="14.25058"><ele>384</ele></trkpt>
    <trkpt lat="47.94279" lon="14.24973"><ele>434</ele></trkpt>
    <trkpt lat="47.94266" lon="14.24897"><ele>394</ele></trkpt>
    <trkpt lat="47.94268" lon="14.24823"><ele>436</ele></trkpt>
    <trkpt lat="47.94296" lon="14.24772"><ele>406</ele></trkpt>
    <trkpt lat="47.94346" lon="14.24729"><ele>434</ele></trkpt>
    <trkpt lat="47.94348" lon="14.24642"><ele>430</ele></trkpt>
    <trkpt lat="47.94321" lon="14.24592"><ele>447</ele></trkpt>
    <trkpt lat="47.94319" lon="14.24552"><ele>510</ele></trkpt>
    <trkpt lat="47.94336" lon="14.24404"><ele>492</ele></trkpt>
    <trkpt lat="47.94320" lon="14.24357"><ele>463</ele></trkpt>
    <trkpt lat="47.94286" lon="14.24279"><ele>460</ele></trkpt>
    <trkpt lat="47.94220" lon="14.24190"><ele>477</ele></trkpt>
    <trkpt lat="47.94171" lon="14.24148"><ele>466</ele></trkpt>
    <trkpt lat="47.94125" lon="14.24088"><ele>545</ele></trkpt>
    <trkpt lat="47.94142" lon="14.23969"><ele>468</ele></trkpt>
    <trkpt lat="47.94173" lon="14.23859"><ele>496</ele></trkpt>
    <trkpt lat="47.94193" lon="14.23781"><ele>478</ele></trkpt>
    <trkpt lat="47.94196" lon="14.23707"><ele>579</ele></trkpt>
    <trkpt lat="47.94214" lon="14.23639"><ele>490</ele></trkpt>
    <trkpt lat="47.94226" lon="14.23570"><ele>496</ele></trkpt>
    <trkpt lat="47.94221" lon="14.23470"><ele>499</ele></trkpt>
    <trkpt lat="47.94213" lon="14.23329"><ele>500</ele></trkpt>
    <trkpt lat="47.94203" lon="14.23218"><ele>507</ele></trkpt>
    <trkpt lat="47.94196" lon="14.23138"><ele>514</ele></trkpt>
    <trkpt lat="47.94188" lon="14.23070"><ele>520</ele></trkpt>
    <trkpt lat="47.94179" lon="14.22996"><ele>525</ele></trkpt>
    <trkpt lat="47.94177" lon="14.22932"><ele>521</ele></trkpt>
    <trkpt lat="47.94157" lon="14.22862"><ele>542</ele></trkpt>
    <trkpt lat="47.94160" lon="14.22769"><ele>547</ele></trkpt>
    <trkpt lat="47.94148" lon="14.22692"><ele>561</ele></trkpt>
    <trkpt lat="47.94146" lon="14.22618"><ele>554</ele></trkpt>
    <trkpt lat="47.94127" lon="14.22553"><ele>555</ele></trkpt>
    <trkpt lat="47.94118" lon="14.22492"><ele>540</ele></trkpt>
    <trkpt lat="47.94099" lon="14.22400"><ele>569</ele></trkpt>
    <trkpt lat="47.94076" lon="14.22335"><ele>567</ele></trkpt>
    <trkpt lat="47.94009" lon="14.22232"><ele>594</ele></trkpt>
    <trkpt lat="47.93986" lon="14.22165"><ele>599</ele></trkpt>
    <trkpt lat="47.93943" lon="14.22122"><ele>596</ele></trkpt>
    <trkpt lat="47.93906" lon="14.22062"><ele>595</ele></trkpt>
    <trkpt lat="47.93874" lon="14.22007"><ele>601</ele></trkpt>
    <trkpt lat="47.93852" lon="14.21946"><ele>603</ele></trkpt>
    <trkpt lat="47.93814" lon="14.21882"><ele>621</ele></trkpt>
    <trkpt lat="47.93781" lon="14.21798"><ele>617</ele></trkpt>
    <trkpt lat="47.93750" lon="14.21717"><ele>624</ele></trkpt>
    <trkpt lat="47.93715" lon="14.21669"><ele>630</ele></trkpt>
    <trkpt lat="47.93675" lon="14.21615"><ele>621</ele></trkpt>
    <trkpt lat="47.93602" lon="14.21482"><ele>632</ele></trkpt>
    <trkpt lat="47.93577" lon="14.21433"><ele>636</ele></trkpt>
    <trkpt lat="47.93553" lon="14.21372"><ele>644</ele></trkpt>
    <trkpt lat="47.93529" lon="14.21314"><ele>655</ele></trkpt>
    <trkpt lat="47.93492" lon="14.21269"><ele>667</ele></trkpt>
    <trkpt lat="47.93456" lon="14.21228"><ele>667</ele></trkpt>
    <trkpt lat="47.93423" lon="14.21179"><ele>677</ele></trkpt>
    <trkpt lat="47.93397" lon="14.21134"><ele>665</ele></trkpt>
    <trkpt lat="47.93402" lon="14.21107"><ele>647</ele></trkpt>
    <trkpt lat="47.93392" lon="14.21115"><ele>654</ele></trkpt>
    <trkpt lat="47.93356" lon="14.21098"><ele>666</ele></trkpt>
    <trkpt lat="47.93261" lon="14.21044"><ele>685</ele></trkpt>
    <trkpt lat="47.93231" lon="14.20994"><ele>669</ele></trkpt>
    <trkpt lat="47.93199" lon="14.20943"><ele>700</ele></trkpt>
    <trkpt lat="47.93160" lon="14.20905"><ele>706</ele></trkpt>
    <trkpt lat="47.93120" lon="14.20867"><ele>711</ele></trkpt>
    <trkpt lat="47.93087" lon="14.20819"><ele>714</ele></trkpt>
    <trkpt lat="47.93054" lon="14.20766"><ele>721</ele></trkpt>
    <trkpt lat="47.93014" lon="14.20728"><ele>727</ele></trkpt>
    <trkpt lat="47.92972" lon="14.20695"><ele>733</ele></trkpt>
    <trkpt lat="47.92938" lon="14.20660"><ele>736</ele></trkpt>
    <trkpt lat="47.92920" lon="14.20594"><ele>740</ele></trkpt>
    <trkpt lat="47.92907" lon="14.20527"><ele>744</ele></trkpt>
    <trkpt lat="47.92890" lon="14.20454"><ele>751</ele></trkpt>
    <trkpt lat="47.92870" lon="14.20377"><ele>753</ele></trkpt>
    <trkpt lat="47.92852" lon="14.20299"><ele>759</ele></trkpt>
    <trkpt lat="47.92840" lon="14.20221"><ele>762</ele></trkpt>
    <trkpt lat="47.92832" lon="14.20141"><ele>762</ele></trkpt>
    <trkpt lat="47.92827" lon="14.20060"><ele>768</ele></trkpt>
    <trkpt lat="47.92834" lon="14.19969"><ele>768</ele></trkpt>
    <trkpt lat="47.92844" lon="14.19866"><ele>776</ele></trkpt>
    <trkpt lat="47.92831" lon="14.19713"><ele>774</ele></trkpt>
    <trkpt lat="47.92913" lon="14.19632"><ele>771</ele></trkpt>
    <trkpt lat="47.93030" lon="14.19641"><ele>763</ele></trkpt>
    <trkpt lat="47.93142" lon="14.19617"><ele>761</ele></trkpt>
    <trkpt lat="47.93248" lon="14.19564"><ele>768</ele></trkpt>
    <trkpt lat="47.93312" lon="14.19364"><ele>768</ele></trkpt>
    <trkpt lat="47.93380" lon="14.19134"><ele>770</ele></trkpt>
    <trkpt lat="47.93458" lon="14.18952"><ele>773</ele></trkpt>
    <trkpt lat="47.93513" lon="14.18787"><ele>773</ele></trkpt>
    <trkpt lat="47.93494" lon="14.18564"><ele>769</ele></trkpt>
    <trkpt lat="47.93441" lon="14.18360"><ele>770</ele></trkpt>
    <trkpt lat="47.93450" lon="14.18195"><ele>769</ele></trkpt>
    <trkpt lat="47.93463" lon="14.17964"><ele>768</ele></trkpt>
    <trkpt lat="47.93517" lon="14.17817"><ele>762</ele></trkpt>
    <trkpt lat="47.93528" lon="14.17828"><ele>760</ele></trkpt>
    <trkpt lat="47.93597" lon="14.17950"><ele>758</ele></trkpt>
    <trkpt lat="47.93695" lon="14.18074"><ele>633</ele></trkpt>
    <trkpt lat="47.93771" lon="14.18223"><ele>653</ele></trkpt>
    <trkpt lat="47.93833" lon="14.18413"><ele>753</ele></trkpt>
    <trkpt lat="47.93971" lon="14.18627"><ele>745</ele></trkpt>
    <trkpt lat="47.94156" lon="14.18953"><ele>718</ele></trkpt>
    <trkpt lat="47.94395" lon="14.19067"><ele>713</ele></trkpt>
    <trkpt lat="47.94434" lon="14.18925"><ele>712</ele></trkpt>
    <trkpt lat="47.94474" lon="14.18841"><ele>707</ele></trkpt>
    <trkpt lat="47.94561" lon="14.18842"><ele>716</ele></trkpt>
    <trkpt lat="47.94696" lon="14.18886"><ele>709</ele></trkpt>
    <trkpt lat="47.94771" lon="14.18914"><ele>727</ele></trkpt>
    <trkpt lat="47.94820" lon="14.18958"><ele>729</ele></trkpt>
    <trkpt lat="47.94868" lon="14.19015"><ele>720</ele></trkpt>
    <trkpt lat="47.94986" lon="14.19098"><ele>659</ele></trkpt>
    <trkpt lat="47.95138" lon="14.19114"><ele>730</ele></trkpt>
    <trkpt lat="47.95185" lon="14.19146"><ele>737</ele></trkpt>
    <trkpt lat="47.95257" lon="14.19095"><ele>735</ele></trkpt>
    <trkpt lat="47.95304" lon="14.19065"><ele>738</ele></trkpt>
    <trkpt lat="47.95322" lon="14.19012"><ele>747</ele></trkpt>
    <trkpt lat="47.95319" lon="14.18944"><ele>753</ele></trkpt>
    <trkpt lat="47.95317" lon="14.18851"><ele>756</ele></trkpt>
    <trkpt lat="47.95318" lon="14.18702"><ele>757</ele></trkpt>
    <trkpt lat="47.95316" lon="14.18538"><ele>757</ele></trkpt>
    <trkpt lat="47.95307" lon="14.18375"><ele>763</ele></trkpt>
    <trkpt lat="47.95298" lon="14.18336"><ele>745</ele></trkpt>
    <trkpt lat="47.95289" lon="14.18327"><ele>765</ele></trkpt>
    <trkpt lat="47.95300" lon="14.18311"><ele>754</ele></trkpt>
    <trkpt lat="47.95214" lon="14.18006"><ele>729</ele></trkpt>
    <trkpt lat="47.95065" lon="14.17490"><ele>686</ele></trkpt>
    <trkpt lat="47.94980" lon="14.17321"><ele>679</ele></trkpt>
    <trkpt lat="47.95148" lon="14.17154"><ele>649</ele></trkpt>
    <trkpt lat="47.95359" lon="14.17161"><ele>632</ele></trkpt>
    <trkpt lat="47.95477" lon="14.16613"><ele>600</ele></trkpt>
    <trkpt lat="47.95580" lon="14.16146"><ele>592</ele></trkpt>
    <trkpt lat="47.95733" lon="14.15747"><ele>549</ele></trkpt>
    <trkpt lat="47.96038" lon="14.15460"><ele>512</ele></trkpt>
    <trkpt lat="47.96278" lon="14.15407"><ele>485</ele></trkpt>
    <trkpt lat="47.96475" lon="14.15413"><ele>464</ele></trkpt>
    <trkpt lat="47.96644" lon="14.15389"><ele>453</ele></trkpt>
    <trkpt lat="47.96778" lon="14.15550"><ele>445</ele></trkpt>
    <trkpt lat="47.96928" lon="14.15728"><ele>436</ele></trkpt>
    <trkpt lat="47.97057" lon="14.15850"><ele>437</ele></trkpt>
    <trkpt lat="47.97234" lon="14.15797"><ele>431</ele></trkpt>
    <trkpt lat="47.97348" lon="14.15725"><ele>437</ele></trkpt>
    <trkpt lat="47.97385" lon="14.15430"><ele>433</ele></trkpt>
    <trkpt lat="47.97363" lon="14.15128"><ele>432</ele></trkpt>
    <trkpt lat="47.97370" lon="14.15051"><ele>444</ele></trkpt>
    <trkpt lat="47.97487" lon="14.14971"><ele>436</ele></trkpt>
    <trkpt lat="47.97507" lon="14.14805"><ele>434</ele></trkpt>
    <trkpt lat="47.97455" lon="14.14693"><ele>429</ele></trkpt>
    <trkpt lat="47.97456" lon="14.14711"><ele>428</ele></trkpt>
    <trkpt lat="47.97493" lon="14.14719"><ele>431</ele></trkpt>
    <trkpt lat="47.97534" lon="14.14555"><ele>424</ele></trkpt>
    <trkpt lat="47.97615" lon="14.14450"><ele>421</ele></trkpt>
    <trkpt lat="47.97690" lon="14.14336"><ele>415</ele></trkpt>
    <trkpt lat="47.97759" lon="14.14113"><ele>410</ele></trkpt>
    <trkpt lat="47.97755" lon="14.13980"><ele>406</ele></trkpt>
    <trkpt lat="47.97775" lon="14.14035"><ele>412</ele></trkpt>
    <trkpt lat="47.97882" lon="14.14003"><ele>398</ele></trkpt>
    <trkpt lat="47.97993" lon="14.13952"><ele>392</ele></trkpt>
    <trkpt lat="47.97968" lon="14.13843"><ele>396</ele></trkpt>
    <trkpt lat="47.97962" lon="14.13813"><ele>395</ele></trkpt>
    <trkpt lat="47.97987" lon="14.13823"><ele>394</ele></trkpt>
    <trkpt lat="47.98072" lon="14.13845"><ele>397</ele></trkpt>
    <trkpt lat="47.98137" lon="14.13736"><ele>409</ele></trkpt>
    <trkpt lat="47.98220" lon="14.13574"><ele>396</ele></trkpt>
    <trkpt lat="47.98190" lon="14.13442"><ele>392</ele></trkpt>
    <trkpt lat="47.98140" lon="14.13324"><ele>386</ele></trkpt>
    <trkpt lat="47.98104" lon="14.13253"><ele>390</ele></trkpt>
    <trkpt lat="47.98058" lon="14.13187"><ele>390</ele></trkpt>
    <trkpt lat="47.98057" lon="14.13030"><ele>401</ele></trkpt>
    <trkpt lat="47.98117" lon="14.12849"><ele>389</ele></trkpt>
    <trkpt lat="47.98268" lon="14.12718"><ele>384</ele></trkpt>
    <trkpt lat="47.98403" lon="14.12629"><ele>378</ele></trkpt>
    <trkpt lat="47.98541" lon="14.12487"><ele>380</ele></trkpt>
    <trkpt lat="47.98612" lon="14.12328"><ele>381</ele></trkpt>
    <trkpt lat="47.98659" lon="14.12194"><ele>379</ele></trkpt>
    <trkpt lat="47.98618" lon="14.12304"><ele>380</ele></trkpt>
    <trkpt lat="47.98583" lon="14.12359"><ele>382</ele></trkpt>
    <trkpt lat="47.98555" lon="14.12346"><ele>376</ele></trkpt>
    <trkpt lat="47.98578" lon="14.12440"><ele>383</ele></trkpt>
    <trkpt lat="47.98449" lon="14.12581"><ele>380</ele></trkpt>
    <trkpt lat="47.98327" lon="14.12673"><ele>384</ele></trkpt>
    <trkpt lat="47.98232" lon="14.12697"><ele>387</ele></trkpt>
    <trkpt lat="47.98266" lon="14.12699"><ele>384</ele></trkpt>
    <trkpt lat="47.98418" lon="14.12620"><ele>381</ele></trkpt>
    <trkpt lat="47.98370" lon="14.12491"><ele>385</ele></trkpt>
    <trkpt lat="47.98316" lon="14.12398"><ele>388</ele></trkpt>
    <trkpt lat="47.98335" lon="14.12351"><ele>388</ele></trkpt>
    <trkpt lat="47.98420" lon="14.12222"><ele>383</ele></trkpt>
    <trkpt lat="47.98507" lon="14.12157"><ele>378</ele></trkpt>
    <trkpt lat="47.98481" lon="14.12149"><ele>376</ele></trkpt>
    <trkpt lat="47.98497" lon="14.12224"><ele>377</ele></trkpt>
    <trkpt lat="47.98616" lon="14.12283"><ele>380</ele></trkpt>
    <trkpt lat="47.98627" lon="14.12260"><ele>378</ele></trkpt>
    <trkpt lat="47.98666" lon="14.12275"><ele>379</ele></trkpt>
    <trkpt lat="47.98773" lon="14.12249"><ele>381</ele></trkpt>
    <trkpt lat="47.98713" lon="14.12133"><ele>376</ele></trkpt>
    <trkpt lat="47.98776" lon="14.12083"><ele>379</ele></trkpt>
    <trkpt lat="47.98878" lon="14.12128"><ele>378</ele></trkpt>
    <trkpt lat="47.98917" lon="14.12131"><ele>380</ele></trkpt>
    <trkpt lat="47.98925" lon="14.12139"><ele>393</ele></trkpt>
    <trkpt lat="47.98964" lon="14.12101"><ele>376</ele></trkpt>
    <trkpt lat="47.99093" lon="14.12049"><ele>377</ele></trkpt>
    <trkpt lat="47.99210" lon="14.11970"><ele>375</ele></trkpt>
    <trkpt lat="47.99130" lon="14.12024"><ele>374</ele></trkpt>
    <trkpt lat="47.99019" lon="14.12075"><ele>372</ele></trkpt>
    <trkpt lat="47.98913" lon="14.12091"><ele>377</ele></trkpt>
    <trkpt lat="47.98908" lon="14.12121"><ele>376</ele></trkpt>
    <trkpt lat="47.98831" lon="14.12144"><ele>374</ele></trkpt>
    <trkpt lat="47.98769" lon="14.12043"><ele>369</ele></trkpt>
    <trkpt lat="47.98900" lon="14.11981"><ele>371</ele></trkpt>
    <trkpt lat="47.99062" lon="14.11956"><ele>372</ele></trkpt>
    <trkpt lat="47.99226" lon="14.11928"><ele>370</ele></trkpt>
    <trkpt lat="47.99338" lon="14.11971"><ele>370</ele></trkpt>
    <trkpt lat="47.99455" lon="14.11828"><ele>372</ele></trkpt>
    <trkpt lat="47.99540" lon="14.11820"><ele>378</ele></trkpt>
    <trkpt lat="47.99620" lon="14.11858"><ele>376</ele></trkpt>
    <trkpt lat="47.99853" lon="14.11863"><ele>373</ele></trkpt>
    <trkpt lat="48.00033" lon="14.11872"><ele>374</ele></trkpt>
    <trkpt lat="48.00220" lon="14.11877"><ele>368</ele></trkpt>
    <trkpt lat="48.00403" lon="14.11889"><ele>366</ele></trkpt>
    <trkpt lat="48.00570" lon="14.11931"><ele>367</ele></trkpt>
    <trkpt lat="48.00729" lon="14.11979"><ele>367</ele></trkpt>
    <trkpt lat="48.00898" lon="14.11997"><ele>367</ele></trkpt>
    <trkpt lat="48.01052" lon="14.11970"><ele>367</ele></trkpt>
    <trkpt lat="48.01200" lon="14.11922"><ele>367</ele></trkpt>
    <trkpt lat="48.01285" lon="14.11895"><ele>374</ele></trkpt>
    <trkpt lat="48.01328" lon="14.11880"><ele>378</ele></trkpt>
    <trkpt lat="48.01509" lon="14.11890"><ele>370</ele></trkpt>
    <trkpt lat="48.01702" lon="14.11951"><ele>367</ele></trkpt>
    <trkpt lat="48.01871" lon="14.12023"><ele>364</ele></trkpt>
    <trkpt lat="48.01971" lon="14.11980"><ele>362</ele></trkpt>
    <trkpt lat="48.01989" lon="14.11760"><ele>359</ele></trkpt>
    <trkpt lat="48.02107" lon="14.11792"><ele>359</ele></trkpt>
    <trkpt lat="48.02192" lon="14.11777"><ele>357</ele></trkpt>
    <trkpt lat="48.02226" lon="14.11749"><ele>358</ele></trkpt>
    <trkpt lat="48.02301" lon="14.11633"><ele>358</ele></trkpt>
    <trkpt lat="48.02476" lon="14.11677"><ele>361</ele></trkpt>
    <trkpt lat="48.02641" lon="14.11711"><ele>358</ele></trkpt>
    <trkpt lat="48.02801" lon="14.11765"><ele>356</ele></trkpt>
    <trkpt lat="48.02853" lon="14.11930"><ele>352</ele></trkpt>
    <trkpt lat="48.02992" lon="14.11925"><ele>352</ele></trkpt>
    <trkpt lat="48.03135" lon="14.11958"><ele>353</ele></trkpt>
    <trkpt lat="48.03284" lon="14.12015"><ele>355</ele></trkpt>
    <trkpt lat="48.03401" lon="14.12053"><ele>353</ele></trkpt>
    <trkpt lat="48.03359" lon="14.12028"><ele>353</ele></trkpt>
    <trkpt lat="48.03351" lon="14.11905"><ele>354</ele></trkpt>
    <trkpt lat="48.03484" lon="14.11912"><ele>354</ele></trkpt>
    <trkpt lat="48.03612" lon="14.11953"><ele>355</ele></trkpt>
    <trkpt lat="48.03766" lon="14.11956"><ele>352</ele></trkpt>
    <trkpt lat="48.03940" lon="14.11987"><ele>347</ele></trkpt>
    <trkpt lat="48.04070" lon="14.12042"><ele>349</ele></trkpt>
    <trkpt lat="48.04214" lon="14.12102"><ele>350</ele></trkpt>
    <trkpt lat="48.04353" lon="14.12228"><ele>348</ele></trkpt>
    <trkpt lat="48.04494" lon="14.12307"><ele>343</ele></trkpt>
    <trkpt lat="48.04626" lon="14.12404"><ele>346</ele></trkpt>
    <trkpt lat="48.04725" lon="14.12498"><ele>346</ele></trkpt>
    <trkpt lat="48.04704" lon="14.12550"><ele>344</ele></trkpt>
    <trkpt lat="48.04656" lon="14.12756"><ele>347</ele></trkpt>
    <trkpt lat="48.04762" lon="14.12883"><ele>343</ele></trkpt>
    <trkpt lat="48.04878" lon="14.13030"><ele>340</ele></trkpt>
    <trkpt lat="48.05023" lon="14.13100"><ele>349</ele></trkpt>
    <trkpt lat="48.05125" lon="14.13137"><ele>341</ele></trkpt>
    <trkpt lat="48.05137" lon="14.13172"><ele>343</ele></trkpt>
    <trkpt lat="48.05259" lon="14.13157"><ele>341</ele></trkpt>
    <trkpt lat="48.05395" lon="14.13194"><ele>335</ele></trkpt>
    <trkpt lat="48.05447" lon="14.13388"><ele>350</ele></trkpt>
    <trkpt lat="48.05449" lon="14.13578"><ele>338</ele></trkpt>
    <trkpt lat="48.05360" lon="14.13747"><ele>340</ele></trkpt>
    <trkpt lat="48.05358" lon="14.13956"><ele>347</ele></trkpt>
    <trkpt lat="48.05294" lon="14.13988"><ele>342</ele></trkpt>
  </trkseg>
</trk>
</gpx>