<?xml version="1.0" encoding="UTF-8"?>
<gpx version="1.1" creator="Gpx-Optimizer" xmlns="http://www.topografix.com/GPX/1/1">
<trk>
  <name>Kraxenberg-Invalidentrip</name>
  <type>hike</type>
  <trkseg>
    <trkpt lat="47.64523" lon="14.09515"><ele>733</ele></trkpt>
    <trkpt lat="47.64507" lon="14.09455"><ele>717</ele></trkpt>
    <trkpt lat="47.64488" lon="14.09416"><ele>732</ele></trkpt>
    <trkpt lat="47.64503" lon="14.09371"><ele>740</ele></trkpt>
    <trkpt lat="47.64477" lon="14.09336"><ele>724</ele></trkpt>
    <trkpt lat="47.64461" lon="14.09289"><ele>742</ele></trkpt>
    <trkpt lat="47.64446" lon="14.09261"><ele>739</ele></trkpt>
    <trkpt lat="47.64441" lon="14.09213"><ele>734</ele></trkpt>
    <trkpt lat="47.64430" lon="14.09133"><ele>773</ele></trkpt>
    <trkpt lat="47.64453" lon="14.09135"><ele>760</ele></trkpt>
    <trkpt lat="47.64428" lon="14.09124"><ele>737</ele></trkpt>
    <trkpt lat="47.64421" lon="14.09128"><ele>735</ele></trkpt>
    <trkpt lat="47.64403" lon="14.09059"><ele>747</ele></trkpt>
    <trkpt lat="47.64417" lon="14.09018"><ele>755</ele></trkpt>
    <trkpt lat="47.64385" lon="14.09004"><ele>769</ele></trkpt>
    <trkpt lat="47.64382" lon="14.08968"><ele>787</ele></trkpt>
    <trkpt lat="47.64360" lon="14.08932"><ele>759</ele></trkpt>
    <trkpt lat="47.64325" lon="14.08921"><ele>772</ele></trkpt>
    <trkpt lat="47.64324" lon="14.08908"><ele>764</ele></trkpt>
    <trkpt lat="47.64318" lon="14.08888"><ele>766</ele></trkpt>
    <trkpt lat="47.64326" lon="14.08824"><ele>772</ele></trkpt>
    <trkpt lat="47.64311" lon="14.08798"><ele>796</ele></trkpt>
    <trkpt lat="47.64291" lon="14.08744"><ele>799</ele></trkpt>
    <trkpt lat="47.64281" lon="14.08699"><ele>796</ele></trkpt>
    <trkpt lat="47.64247" lon="14.08631"><ele>828</ele></trkpt>
    <trkpt lat="47.64191" lon="14.08582"><ele>786</ele></trkpt>
    <trkpt lat="47.64169" lon="14.08572"><ele>793</ele></trkpt>
    <trkpt lat="47.64146" lon="14.08572"><ele>828</ele></trkpt>
    <trkpt lat="47.64101" lon="14.08576"><ele>825</ele></trkpt>
    <trkpt lat="47.64029" lon="14.08563"><ele>810</ele></trkpt>
    <trkpt lat="47.64015" lon="14.08570"><ele>819</ele></trkpt>
    <trkpt lat="47.63991" lon="14.08562"><ele>810</ele></trkpt>
    <trkpt lat="47.63976" lon="14.08546"><ele>834</ele></trkpt>
    <trkpt lat="47.63943" lon="14.08541"><ele>832</ele></trkpt>
    <trkpt lat="47.63934" lon="14.08512"><ele>835</ele></trkpt>
    <trkpt lat="47.63912" lon="14.08518"><ele>846</ele></trkpt>
    <trkpt lat="47.63884" lon="14.08498"><ele>788</ele></trkpt>
    <trkpt lat="47.63891" lon="14.08496"><ele>839</ele></trkpt>
    <trkpt lat="47.63898" lon="14.08453"><ele>870</ele></trkpt>
    <trkpt lat="47.63889" lon="14.08407"><ele>879</ele></trkpt>
    <trkpt lat="47.63850" lon="14.08385"><ele>867</ele></trkpt>
    <trkpt lat="47.63846" lon="14.08348"><ele>769</ele></trkpt>
    <trkpt lat="47.63828" lon="14.08314"><ele>857</ele></trkpt>
    <trkpt lat="47.63795" lon="14.08296"><ele>845</ele></trkpt>
    <trkpt lat="47.63789" lon="14.08253"><ele>858</ele></trkpt>
    <trkpt lat="47.63778" lon="14.08205"><ele>871</ele></trkpt>
    <trkpt lat="47.63773" lon="14.08151"><ele>895</ele></trkpt>
    <trkpt lat="47.63754" lon="14.08117"><ele>910</ele></trkpt>
    <trkpt lat="47.63751" lon="14.08078"><ele>885</ele></trkpt>
    <trkpt lat="47.63713" lon="14.08060"><ele>900</ele></trkpt>
    <trkpt lat="47.63691" lon="14.08042"><ele>899</ele></trkpt>
    <trkpt lat="47.63663" lon="14.08032"><ele>893</ele></trkpt>
    <trkpt lat="47.63661" lon="14.08023"><ele>923</ele></trkpt>
    <trkpt lat="47.63613" lon="14.07982"><ele>895</ele></trkpt>
    <trkpt lat="47.63608" lon="14.07963"><ele>908</ele></trkpt>
    <trkpt lat="47.63600" lon="14.07946"><ele>906</ele></trkpt>
    <trkpt lat="47.63596" lon="14.07940"><ele>905</ele></trkpt>
    <trkpt lat="47.63595" lon="14.07932"><ele>904</ele></trkpt>
    <trkpt lat="47.63588" lon="14.07918"><ele>908</ele></trkpt>
    <trkpt lat="47.63576" lon="14.07897"><ele>914</ele></trkpt>
    <trkpt lat="47.63564" lon="14.07879"><ele>918</ele></trkpt>
    <trkpt lat="47.63547" lon="14.07824"><ele>916</ele></trkpt>
    <trkpt lat="47.63550" lon="14.07782"><ele>960</ele></trkpt>
    <trkpt lat="47.63530" lon="14.07738"><ele>941</ele></trkpt>
    <trkpt lat="47.63514" lon="14.07713"><ele>942</ele></trkpt>
    <trkpt lat="47.63515" lon="14.07697"><ele>957</ele></trkpt>
    <trkpt lat="47.63483" lon="14.07688"><ele>974</ele></trkpt>
    <trkpt lat="47.63463" lon="14.07676"><ele>928</ele></trkpt>
    <trkpt lat="47.63443" lon="14.07669"><ele>933</ele></trkpt>
    <trkpt lat="47.63404" lon="14.07656"><ele>945</ele></trkpt>
    <trkpt lat="47.63389" lon="14.07654"><ele>974</ele></trkpt>
    <trkpt lat="47.63373" lon="14.07657"><ele>926</ele></trkpt>
    <trkpt lat="47.63314" lon="14.07645"><ele>941</ele></trkpt>
    <trkpt lat="47.63325" lon="14.07643"><ele>997</ele></trkpt>
    <trkpt lat="47.63313" lon="14.07700"><ele>982</ele></trkpt>
    <trkpt lat="47.63295" lon="14.07736"><ele>964</ele></trkpt>
    <trkpt lat="47.63306" lon="14.07748"><ele>919</ele></trkpt>
    <trkpt lat="47.63306" lon="14.07778"><ele>987</ele></trkpt>
    <trkpt lat="47.63296" lon="14.07795"><ele>990</ele></trkpt>
    <trkpt lat="47.63290" lon="14.07801"><ele>995</ele></trkpt>
    <trkpt lat="47.63281" lon="14.07817"><ele>986</ele></trkpt>
    <trkpt lat="47.63272" lon="14.07852"><ele>1000</ele></trkpt>
    <trkpt lat="47.63257" lon="14.07844"><ele>969</ele></trkpt>
    <trkpt lat="47.63250" lon="14.07821"><ele>1013</ele></trkpt>
    <trkpt lat="47.63235" lon="14.07800"><ele>1018</ele></trkpt>
    <trkpt lat="47.63220" lon="14.07777"><ele>1023</ele></trkpt>
    <trkpt lat="47.63201" lon="14.07753"><ele>1031</ele></trkpt>
    <trkpt lat="47.63193" lon="14.07722"><ele>993</ele></trkpt>
    <trkpt lat="47.63192" lon="14.07685"><ele>1029</ele></trkpt>
    <trkpt lat="47.63192" lon="14.07653"><ele>1038</ele></trkpt>
    <trkpt lat="47.63171" lon="14.07619"><ele>1036</ele></trkpt>
    <trkpt lat="47.63146" lon="14.07598"><ele>1037</ele></trkpt>
    <trkpt lat="47.63124" lon="14.07589"><ele>1040</ele></trkpt>
    <trkpt lat="47.63101" lon="14.07574"><ele>1046</ele></trkpt>
    <trkpt lat="47.63089" lon="14.07539"><ele>1047</ele></trkpt>
    <trkpt lat="47.63082" lon="14.07498"><ele>1050</ele></trkpt>
    <trkpt lat="47.63098" lon="14.07481"><ele>1048</ele></trkpt>
    <trkpt lat="47.63126" lon="14.07492"><ele>1053</ele></trkpt>
    <trkpt lat="47.63150" lon="14.07488"><ele>1051</ele></trkpt>
    <trkpt lat="47.63173" lon="14.07473"><ele>1056</ele></trkpt>
    <trkpt lat="47.63202" lon="14.07461"><ele>1056</ele></trkpt>
    <trkpt lat="47.63224" lon="14.07458"><ele>1022</ele></trkpt>
    <trkpt lat="47.63229" lon="14.07458"><ele>1061</ele></trkpt>
    <trkpt lat="47.63233" lon="14.07453"><ele>1065</ele></trkpt>
    <trkpt lat="47.63229" lon="14.07443"><ele>1066</ele></trkpt>
    <trkpt lat="47.63221" lon="14.07433"><ele>1047</ele></trkpt>
    <trkpt lat="47.63210" lon="14.07418"><ele>1051</ele></trkpt>
    <trkpt lat="47.63212" lon="14.07400"><ele>1071</ele></trkpt>
    <trkpt lat="47.63221" lon="14.07385"><ele>1073</ele></trkpt>
    <trkpt lat="47.63225" lon="14.07373"><ele>1080</ele></trkpt>
    <trkpt lat="47.63222" lon="14.07360"><ele>1079</ele></trkpt>
    <trkpt lat="47.63221" lon="14.07345"><ele>1082</ele></trkpt>
    <trkpt lat="47.63223" lon="14.07324"><ele>1084</ele></trkpt>
    <trkpt lat="47.63231" lon="14.07296"><ele>1095</ele></trkpt>
    <trkpt lat="47.63240" lon="14.07282"><ele>1099</ele></trkpt>
    <trkpt lat="47.63251" lon="14.07271"><ele>1104</ele></trkpt>
    <trkpt lat="47.63259" lon="14.07254"><ele>1109</ele></trkpt>
    <trkpt lat="47.63266" lon="14.07215"><ele>1109</ele></trkpt>
    <trkpt lat="47.63258" lon="14.07201"><ele>1111</ele></trkpt>
    <trkpt lat="47.63253" lon="14.07186"><ele>1112</ele></trkpt>
    <trkpt lat="47.63249" lon="14.07173"><ele>1120</ele></trkpt>
    <trkpt lat="47.63244" lon="14.07161"><ele>1124</ele></trkpt>
    <trkpt lat="47.63242" lon="14.07147"><ele>1134</ele></trkpt>
    <trkpt lat="47.63243" lon="14.07132"><ele>1134</ele></trkpt>
    <trkpt lat="47.63240" lon="14.07121"><ele>1134</ele></trkpt>
    <trkpt lat="47.63235" lon="14.07105"><ele>1133</ele></trkpt>
    <trkpt lat="47.63226" lon="14.07097"><ele>1064</ele></trkpt>
    <trkpt lat="47.63227" lon="14.07078"><ele>1138</ele></trkpt>
    <trkpt lat="47.63226" lon="14.07057"><ele>1146</ele></trkpt>
    <trkpt lat="47.63230" lon="14.07032"><ele>1112</ele></trkpt>
    <trkpt lat="47.63218" lon="14.06999"><ele>1127</ele></trkpt>
    <trkpt lat="47.63218" lon="14.06990"><ele>1125</ele></trkpt>
    <trkpt lat="47.63222" lon="14.06983"><ele>1155</ele></trkpt>
    <trkpt lat="47.63229" lon="14.06977"><ele>1166</ele></trkpt>
    <trkpt lat="47.63234" lon="14.06980"><ele>1171</ele></trkpt>
    <trkpt lat="47.63239" lon="14.06973"><ele>1174</ele></trkpt>
    <trkpt lat="47.63242" lon="14.06954"><ele>1177</ele></trkpt>
    <trkpt lat="47.63240" lon="14.06932"><ele>1179</ele></trkpt>
    <trkpt lat="47.63235" lon="14.06931"><ele>1171</ele></trkpt>
    <trkpt lat="47.63234" lon="14.06917"><ele>1070</ele></trkpt>
    <trkpt lat="47.63231" lon="14.06905"><ele>1176</ele></trkpt>
    <trkpt lat="47.63236" lon="14.06901"><ele>1195</ele></trkpt>
    <trkpt lat="47.63245" lon="14.06897"><ele>1198</ele></trkpt>
    <trkpt lat="47.63250" lon="14.06890"><ele>1207</ele></trkpt>
    <trkpt lat="47.63246" lon="14.06872"><ele>1180</ele></trkpt>
    <trkpt lat="47.63245" lon="14.06863"><ele>1203</ele></trkpt>
    <trkpt lat="47.63242" lon="14.06856"><ele>1214</ele></trkpt>
    <trkpt lat="47.63247" lon="14.06846"><ele>1229</ele></trkpt>
    <trkpt lat="47.63251" lon="14.06835"><ele>1232</ele></trkpt>
    <trkpt lat="47.63256" lon="14.06832"><ele>1238</ele></trkpt>
    <trkpt lat="47.63266" lon="14.06827"><ele>1243</ele></trkpt>
    <trkpt lat="47.63268" lon="14.06801"><ele>1244</ele></trkpt>
    <trkpt lat="47.63270" lon="14.06788"><ele>1263</ele></trkpt>
    <trkpt lat="47.63277" lon="14.06789"><ele>1267</ele></trkpt>
    <trkpt lat="47.63286" lon="14.06779"><ele>1274</ele></trkpt>
    <trkpt lat="47.63284" lon="14.06757"><ele>1274</ele></trkpt>
    <trkpt lat="47.63278" lon="14.06747"><ele>1287</ele></trkpt>
    <trkpt lat="47.63271" lon="14.06739"><ele>1288</ele></trkpt>
    <trkpt lat="47.63263" lon="14.06728"><ele>1288</ele></trkpt>
    <trkpt lat="47.63255" lon="14.06715"><ele>1284</ele></trkpt>
    <trkpt lat="47.63247" lon="14.06692"><ele>1277</ele></trkpt>
    <trkpt lat="47.63239" lon="14.06690"><ele>1275</ele></trkpt>
    <trkpt lat="47.63233" lon="14.06674"><ele>1276</ele></trkpt>
    <trkpt lat="47.63215" lon="14.06674"><ele>1276</ele></trkpt>
    <trkpt lat="47.63207" lon="14.06671"><ele>1278</ele></trkpt>
    <trkpt lat="47.63204" lon="14.06663"><ele>1282</ele></trkpt>
    <trkpt lat="47.63198" lon="14.06661"><ele>1290</ele></trkpt>
    <trkpt lat="47.63193" lon="14.06648"><ele>1293</ele></trkpt>
    <trkpt lat="47.63188" lon="14.06644"><ele>1297</ele></trkpt>
    <trkpt lat="47.63184" lon="14.06638"><ele>1301</ele></trkpt>
    <trkpt lat="47.63180" lon="14.06630"><ele>1302</ele></trkpt>
    <trkpt lat="47.63172" lon="14.06631"><ele>1311</ele></trkpt>
    <trkpt lat="47.63164" lon="14.06615"><ele>1320</ele></trkpt>
    <trkpt lat="47.63154" lon="14.06605"><ele>1323</ele></trkpt>
    <trkpt lat="47.63148" lon="14.06591"><ele>1328</ele></trkpt>
    <trkpt lat="47.63147" lon="14.06580"><ele>1336</ele></trkpt>
    <trkpt lat="47.63145" lon="14.06562"><ele>1335</ele></trkpt>
    <trkpt lat="47.63135" lon="14.06561"><ele>1342</ele></trkpt>
    <trkpt lat="47.63134" lon="14.06540"><ele>1338</ele></trkpt>
    <trkpt lat="47.63130" lon="14.06525"><ele>1095</ele></trkpt>
    <trkpt lat="47.63126" lon="14.06520"><ele>1351</ele></trkpt>
    <trkpt lat="47.63133" lon="14.06506"><ele>1352</ele></trkpt>
    <trkpt lat="47.63137" lon="14.06490"><ele>1351</ele></trkpt>
    <trkpt lat="47.63145" lon="14.06476"><ele>1357</ele></trkpt>
    <trkpt lat="47.63160" lon="14.06476"><ele>1360</ele></trkpt>
    <trkpt lat="47.63168" lon="14.06467"><ele>1356</ele></trkpt>
    <trkpt lat="47.63174" lon="14.06463"><ele>1368</ele></trkpt>
    <trkpt lat="47.63178" lon="14.06458"><ele>1374</ele></trkpt>
    <trkpt lat="47.63187" lon="14.06453"><ele>1373</ele></trkpt>
    <trkpt lat="47.63197" lon="14.06442"><ele>1386</ele></trkpt>
    <trkpt lat="47.63202" lon="14.06429"><ele>1393</ele></trkpt>
    <trkpt lat="47.63207" lon="14.06426"><ele>1398</ele></trkpt>
    <trkpt lat="47.63208" lon="14.06414"><ele>1404</ele></trkpt>
    <trkpt lat="47.63212" lon="14.06404"><ele>1409</ele></trkpt>
    <trkpt lat="47.63220" lon="14.06401"><ele>1409</ele></trkpt>
    <trkpt lat="47.63226" lon="14.06398"><ele>1410</ele></trkpt>
    <trkpt lat="47.63231" lon="14.06388"><ele>1408</ele></trkpt>
    <trkpt lat="47.63238" lon="14.06384"><ele>1422</ele></trkpt>
    <trkpt lat="47.63246" lon="14.06377"><ele>1426</ele></trkpt>
    <trkpt lat="47.63250" lon="14.06371"><ele>1427</ele></trkpt>
    <trkpt lat="47.63249" lon="14.06352"><ele>1426</ele></trkpt>
    <trkpt lat="47.63247" lon="14.06328"><ele>1432</ele></trkpt>
    <trkpt lat="47.63242" lon="14.06319"><ele>1436</ele></trkpt>
    <trkpt lat="47.63233" lon="14.06304"><ele>1444</ele></trkpt>
    <trkpt lat="47.63225" lon="14.06292"><ele>1448</ele></trkpt>
    <trkpt lat="47.63210" lon="14.06277"><ele>1453</ele></trkpt>
    <trkpt lat="47.63197" lon="14.06266"><ele>1457</ele></trkpt>
    <trkpt lat="47.63187" lon="14.06265"><ele>1462</ele></trkpt>
    <trkpt lat="47.63179" lon="14.06265"><ele>1449</ele></trkpt>
    <trkpt lat="47.63169" lon="14.06262"><ele>1457</ele></trkpt>
    <trkpt lat="47.63163" lon="14.06253"><ele>1456</ele></trkpt>
    <trkpt lat="47.63161" lon="14.06236"><ele>1443</ele></trkpt>
    <trkpt lat="47.63149" lon="14.06218"><ele>1455</ele></trkpt>
    <trkpt lat="47.63144" lon="14.06215"><ele>1475</ele></trkpt>
    <trkpt lat="47.63131" lon="14.06206"><ele>1433</ele></trkpt>
    <trkpt lat="47.63122" lon="14.06198"><ele>1453</ele></trkpt>
    <trkpt lat="47.63115" lon="14.06182"><ele>1484</ele></trkpt>
    <trkpt lat="47.63111" lon="14.06175"><ele>1505</ele></trkpt>
    <trkpt lat="47.63103" lon="14.06167"><ele>1522</ele></trkpt>
    <trkpt lat="47.63098" lon="14.06163"><ele>1528</ele></trkpt>
    <trkpt lat="47.63090" lon="14.06144"><ele>1536</ele></trkpt>
    <trkpt lat="47.63087" lon="14.06136"><ele>1544</ele></trkpt>
    <trkpt lat="47.63095" lon="14.06127"><ele>1548</ele></trkpt>
    <trkpt lat="47.63097" lon="14.06118"><ele>1542</ele></trkpt>
    <trkpt lat="47.63101" lon="14.06108"><ele>1539</ele></trkpt>
    <trkpt lat="47.63098" lon="14.06102"><ele>1544</ele></trkpt>
    <trkpt lat="47.63109" lon="14.06091"><ele>1549</ele></trkpt>
    <trkpt lat="47.63114" lon="14.06081"><ele>1556</ele></trkpt>
    <trkpt lat="47.63120" lon="14.06061"><ele>1560</ele></trkpt>
    <trkpt lat="47.63118" lon="14.06049"><ele>1564</ele></trkpt>
    <trkpt lat="47.63105" lon="14.06038"><ele>1570</ele></trkpt>
    <trkpt lat="47.63113" lon="14.06030"><ele>1579</ele></trkpt>
    <trkpt lat="47.63117" lon="14.06025"><ele>1586</ele></trkpt>
    <trkpt lat="47.63120" lon="14.06015"><ele>1589</ele></trkpt>
    <trkpt lat="47.63130" lon="14.06010"><ele>1571</ele></trkpt>
    <trkpt lat="47.63144" lon="14.06014"><ele>1580</ele></trkpt>
    <trkpt lat="47.63148" lon="14.06009"><ele>1584</ele></trkpt>
    <trkpt lat="47.63154" lon="14.05988"><ele>1587</ele></trkpt>
    <trkpt lat="47.63154" lon="14.05978"><ele>1590</ele></trkpt>
    <trkpt lat="47.63165" lon="14.05964"><ele>1596</ele></trkpt>
    <trkpt lat="47.63173" lon="14.05943"><ele>1589</ele></trkpt>
    <trkpt lat="47.63170" lon="14.05931"><ele>1595</ele></trkpt>
    <trkpt lat="47.63171" lon="14.05920"><ele>1597</ele></trkpt>
    <trkpt lat="47.63163" lon="14.05909"><ele>1603</ele></trkpt>
    <trkpt lat="47.63176" lon="14.05890"><ele>1612</ele></trkpt>
    <trkpt lat="47.63175" lon="14.05880"><ele>1616</ele></trkpt>
    <trkpt lat="47.63181" lon="14.05859"><ele>1616</ele></trkpt>
    <trkpt lat="47.63187" lon="14.05848"><ele>1616</ele></trkpt>
    <trkpt lat="47.63194" lon="14.05834"><ele>1602</ele></trkpt>
    <trkpt lat="47.63217" lon="14.05823"><ele>1470</ele></trkpt>
    <trkpt lat="47.63223" lon="14.05805"><ele>1632</ele></trkpt>
    <trkpt lat="47.63228" lon="14.05788"><ele>1513</ele></trkpt>
    <trkpt lat="47.63233" lon="14.05778"><ele>1637</ele></trkpt>
    <trkpt lat="47.63237" lon="14.05766"><ele>1630</ele></trkpt>
    <trkpt lat="47.63240" lon="14.05759"><ele>1657</ele></trkpt>
    <trkpt lat="47.63256" lon="14.05753"><ele>1166</ele></trkpt>
    <trkpt lat="47.63262" lon="14.05753"><ele>1350</ele></trkpt>
    <trkpt lat="47.63267" lon="14.05751"><ele>1652</ele></trkpt>
    <trkpt lat="47.63277" lon="14.05742"><ele>1669</ele></trkpt>
    <trkpt lat="47.63284" lon="14.05722"><ele>1682</ele></trkpt>
    <trkpt lat="47.63293" lon="14.05718"><ele>1528</ele></trkpt>
    <trkpt lat="47.63290" lon="14.05726"><ele>1688</ele></trkpt>
    <trkpt lat="47.63292" lon="14.05732"><ele>1693</ele></trkpt>
    <trkpt lat="47.63293" lon="14.05743"><ele>1690</ele></trkpt>
    <trkpt lat="47.63293" lon="14.05750"><ele>1650</ele></trkpt>
    <trkpt lat="47.63296" lon="14.05756"><ele>1603</ele></trkpt>
    <trkpt lat="47.63298" lon="14.05765"><ele>1714</ele></trkpt>
    <trkpt lat="47.63301" lon="14.05771"><ele>1703</ele></trkpt>
    <trkpt lat="47.63309" lon="14.05772"><ele>1727</ele></trkpt>
    <trkpt lat="47.63310" lon="14.05788"><ele>1737</ele></trkpt>
    <trkpt lat="47.63315" lon="14.05784"><ele>1465</ele></trkpt>
    <trkpt lat="47.63315" lon="14.05773"><ele>1731</ele></trkpt>
    <trkpt lat="47.63318" lon="14.05749"><ele>1739</ele></trkpt>
    <trkpt lat="47.63318" lon="14.05735"><ele>1708</ele></trkpt>
    <trkpt lat="47.63328" lon="14.05687"><ele>1767</ele></trkpt>
    <trkpt lat="47.63331" lon="14.05675"><ele>1774</ele></trkpt>
    <trkpt lat="47.63329" lon="14.05657"><ele>1779</ele></trkpt>
    <trkpt lat="47.63325" lon="14.05609"><ele>1788</ele></trkpt>
    <trkpt lat="47.63331" lon="14.05602"><ele>1789</ele></trkpt>
    <trkpt lat="47.63346" lon="14.05595"><ele>1787</ele></trkpt>
    <trkpt lat="47.63335" lon="14.05597"><ele>1457</ele></trkpt>
    <trkpt lat="47.63330" lon="14.05607"><ele>1790</ele></trkpt>
    <trkpt lat="47.63334" lon="14.05662"><ele>1783</ele></trkpt>
    <trkpt lat="47.63322" lon="14.05692"><ele>1739</ele></trkpt>
    <trkpt lat="47.63323" lon="14.05699"><ele>942</ele></trkpt>
    <trkpt lat="47.63324" lon="14.05705"><ele>1753</ele></trkpt>
    <trkpt lat="47.63345" lon="14.05720"><ele>1794</ele></trkpt>
    <trkpt lat="47.63348" lon="14.05723"><ele>1830</ele></trkpt>
  </trkseg>
  <trkseg>
    <trkpt lat="47.63348" lon="14.05723"><ele>1846</ele></trkpt>
    <trkpt lat="47.63350" lon="14.05731"><ele>1904</ele></trkpt>
    <trkpt lat="47.63351" lon="14.05743"><ele>1907</ele></trkpt>
    <trkpt lat="47.63375" lon="14.05765"><ele>1940</ele></trkpt>
    <trkpt lat="47.63375" lon="14.05753"><ele>1943</ele></trkpt>
    <trkpt lat="47.63392" lon="14.05772"><ele>1956</ele></trkpt>
    <trkpt lat="47.63399" lon="14.05790"><ele>1918</ele></trkpt>
    <trkpt lat="47.63400" lon="14.05797"><ele>1951</ele></trkpt>
    <trkpt lat="47.63399" lon="14.05831"><ele>1941</ele></trkpt>
    <trkpt lat="47.63395" lon="14.05847"><ele>1716</ele></trkpt>
    <trkpt lat="47.63417" lon="14.05843"><ele>1853</ele></trkpt>
    <trkpt lat="47.63416" lon="14.05867"><ele>1921</ele></trkpt>
    <trkpt lat="47.63407" lon="14.05861"><ele>1919</ele></trkpt>
    <trkpt lat="47.63409" lon="14.05897"><ele>1918</ele></trkpt>
    <trkpt lat="47.63401" lon="14.05924"><ele>1914</ele></trkpt>
    <trkpt lat="47.63395" lon="14.05936"><ele>1908</ele></trkpt>
    <trkpt lat="47.63398" lon="14.05947"><ele>1907</ele></trkpt>
    <trkpt lat="47.63389" lon="14.05961"><ele>1889</ele></trkpt>
    <trkpt lat="47.63392" lon="14.05978"><ele>1893</ele></trkpt>
    <trkpt lat="47.63387" lon="14.05993"><ele>1883</ele></trkpt>
    <trkpt lat="47.63381" lon="14.06024"><ele>1880</ele></trkpt>
    <trkpt lat="47.63361" lon="14.05998"><ele>1906</ele></trkpt>
    <trkpt lat="47.63360" lon="14.05991"><ele>1898</ele></trkpt>
    <trkpt lat="47.63360" lon="14.05985"><ele>1891</ele></trkpt>
    <trkpt lat="47.63362" lon="14.05977"><ele>1900</ele></trkpt>
    <trkpt lat="47.63368" lon="14.05960"><ele>1893</ele></trkpt>
    <trkpt lat="47.63365" lon="14.05943"><ele>1875</ele></trkpt>
    <trkpt lat="47.63357" lon="14.05952"><ele>1886</ele></trkpt>
    <trkpt lat="47.63353" lon="14.05946"><ele>1852</ele></trkpt>
    <trkpt lat="47.63341" lon="14.05862"><ele>1860</ele></trkpt>
    <trkpt lat="47.63340" lon="14.05855"><ele>1863</ele></trkpt>
    <trkpt lat="47.63342" lon="14.05846"><ele>1765</ele></trkpt>
    <trkpt lat="47.63337" lon="14.05843"><ele>1758</ele></trkpt>
    <trkpt lat="47.63334" lon="14.05818"><ele>1742</ele></trkpt>
    <trkpt lat="47.63334" lon="14.05810"><ele>1747</ele></trkpt>
    <trkpt lat="47.63320" lon="14.05800"><ele>1734</ele></trkpt>
    <trkpt lat="47.63313" lon="14.05804"><ele>1706</ele></trkpt>
    <trkpt lat="47.63308" lon="14.05797"><ele>1728</ele></trkpt>
    <trkpt lat="47.63305" lon="14.05762"><ele>1703</ele></trkpt>
    <trkpt lat="47.63294" lon="14.05737"><ele>1696</ele></trkpt>
    <trkpt lat="47.63287" lon="14.05727"><ele>1733</ele></trkpt>
    <trkpt lat="47.63290" lon="14.05718"><ele>1699</ele></trkpt>
    <trkpt lat="47.63283" lon="14.05722"><ele>1735</ele></trkpt>
    <trkpt lat="47.63272" lon="14.05743"><ele>1691</ele></trkpt>
    <trkpt lat="47.63264" lon="14.05748"><ele>1696</ele></trkpt>
    <trkpt lat="47.63257" lon="14.05757"><ele>1674</ele></trkpt>
    <trkpt lat="47.63237" lon="14.05777"><ele>1654</ele></trkpt>
    <trkpt lat="47.63231" lon="14.05775"><ele>1713</ele></trkpt>
    <trkpt lat="47.63227" lon="14.05783"><ele>1685</ele></trkpt>
    <trkpt lat="47.63231" lon="14.05794"><ele>1648</ele></trkpt>
    <trkpt lat="47.63225" lon="14.05804"><ele>1639</ele></trkpt>
    <trkpt lat="47.63195" lon="14.05799"><ele>1647</ele></trkpt>
    <trkpt lat="47.63179" lon="14.05852"><ele>1623</ele></trkpt>
    <trkpt lat="47.63172" lon="14.05871"><ele>1617</ele></trkpt>
    <trkpt lat="47.63172" lon="14.05891"><ele>1598</ele></trkpt>
    <trkpt lat="47.63147" lon="14.05927"><ele>1581</ele></trkpt>
    <trkpt lat="47.63157" lon="14.05975"><ele>1597</ele></trkpt>
    <trkpt lat="47.63148" lon="14.06022"><ele>1576</ele></trkpt>
    <trkpt lat="47.63144" lon="14.06025"><ele>1563</ele></trkpt>
    <trkpt lat="47.63137" lon="14.06027"><ele>1559</ele></trkpt>
    <trkpt lat="47.63117" lon="14.06045"><ele>1564</ele></trkpt>
    <trkpt lat="47.63122" lon="14.06057"><ele>1553</ele></trkpt>
    <trkpt lat="47.63103" lon="14.06110"><ele>1551</ele></trkpt>
    <trkpt lat="47.63091" lon="14.06138"><ele>1547</ele></trkpt>
    <trkpt lat="47.63100" lon="14.06164"><ele>1519</ele></trkpt>
    <trkpt lat="47.63114" lon="14.06195"><ele>1521</ele></trkpt>
    <trkpt lat="47.63105" lon="14.06178"><ele>1509</ele></trkpt>
    <trkpt lat="47.63115" lon="14.06193"><ele>1497</ele></trkpt>
    <trkpt lat="47.63158" lon="14.06268"><ele>1464</ele></trkpt>
    <trkpt lat="47.63210" lon="14.06261"><ele>1447</ele></trkpt>
    <trkpt lat="47.63224" lon="14.06288"><ele>1449</ele></trkpt>
    <trkpt lat="47.63238" lon="14.06329"><ele>1447</ele></trkpt>
    <trkpt lat="47.63242" lon="14.06339"><ele>1433</ele></trkpt>
    <trkpt lat="47.63239" lon="14.06369"><ele>1428</ele></trkpt>
    <trkpt lat="47.63234" lon="14.06389"><ele>1424</ele></trkpt>
    <trkpt lat="47.63217" lon="14.06402"><ele>1428</ele></trkpt>
    <trkpt lat="47.63207" lon="14.06407"><ele>1404</ele></trkpt>
    <trkpt lat="47.63185" lon="14.06427"><ele>1401</ele></trkpt>
    <trkpt lat="47.63179" lon="14.06430"><ele>1388</ele></trkpt>
    <trkpt lat="47.63149" lon="14.06453"><ele>1392</ele></trkpt>
    <trkpt lat="47.63138" lon="14.06463"><ele>1359</ele></trkpt>
    <trkpt lat="47.63116" lon="14.06498"><ele>1371</ele></trkpt>
    <trkpt lat="47.63104" lon="14.06547"><ele>1378</ele></trkpt>
    <trkpt lat="47.63128" lon="14.06558"><ele>1333</ele></trkpt>
    <trkpt lat="47.63144" lon="14.06568"><ele>1320</ele></trkpt>
    <trkpt lat="47.63151" lon="14.06600"><ele>1336</ele></trkpt>
    <trkpt lat="47.63156" lon="14.06609"><ele>1309</ele></trkpt>
    <trkpt lat="47.63177" lon="14.06640"><ele>1318</ele></trkpt>
    <trkpt lat="47.63197" lon="14.06674"><ele>1289</ele></trkpt>
    <trkpt lat="47.63205" lon="14.06687"><ele>1286</ele></trkpt>
    <trkpt lat="47.63226" lon="14.06703"><ele>1274</ele></trkpt>
    <trkpt lat="47.63251" lon="14.06732"><ele>1291</ele></trkpt>
    <trkpt lat="47.63265" lon="14.06751"><ele>1281</ele></trkpt>
    <trkpt lat="47.63282" lon="14.06751"><ele>1274</ele></trkpt>
    <trkpt lat="47.63284" lon="14.06774"><ele>1275</ele></trkpt>
    <trkpt lat="47.63277" lon="14.06782"><ele>1286</ele></trkpt>
    <trkpt lat="47.63271" lon="14.06801"><ele>1262</ele></trkpt>
    <trkpt lat="47.63259" lon="14.06819"><ele>1259</ele></trkpt>
    <trkpt lat="47.63251" lon="14.06830"><ele>1261</ele></trkpt>
    <trkpt lat="47.63250" lon="14.06848"><ele>1259</ele></trkpt>
    <trkpt lat="47.63237" lon="14.06872"><ele>1223</ele></trkpt>
    <trkpt lat="47.63236" lon="14.06879"><ele>1248</ele></trkpt>
    <trkpt lat="47.63216" lon="14.06904"><ele>1219</ele></trkpt>
    <trkpt lat="47.63228" lon="14.06930"><ele>1465</ele></trkpt>
    <trkpt lat="47.63237" lon="14.06961"><ele>1225</ele></trkpt>
    <trkpt lat="47.63234" lon="14.06984"><ele>1212</ele></trkpt>
    <trkpt lat="47.63224" lon="14.06994"><ele>1184</ele></trkpt>
    <trkpt lat="47.63216" lon="14.07002"><ele>1535</ele></trkpt>
    <trkpt lat="47.63219" lon="14.07082"><ele>1137</ele></trkpt>
    <trkpt lat="47.63221" lon="14.07089"><ele>1432</ele></trkpt>
    <trkpt lat="47.63237" lon="14.07117"><ele>1149</ele></trkpt>
    <trkpt lat="47.63237" lon="14.07139"><ele>1312</ele></trkpt>
    <trkpt lat="47.63233" lon="14.07170"><ele>1413</ele></trkpt>
    <trkpt lat="47.63249" lon="14.07201"><ele>1223</ele></trkpt>
    <trkpt lat="47.63235" lon="14.07294"><ele>1104</ele></trkpt>
    <trkpt lat="47.63229" lon="14.07301"><ele>1098</ele></trkpt>
    <trkpt lat="47.63221" lon="14.07371"><ele>1308</ele></trkpt>
    <trkpt lat="47.63219" lon="14.07399"><ele>1107</ele></trkpt>
    <trkpt lat="47.63192" lon="14.07404"><ele>1093</ele></trkpt>
    <trkpt lat="47.63195" lon="14.07427"><ele>1473</ele></trkpt>
    <trkpt lat="47.63200" lon="14.07436"><ele>1294</ele></trkpt>
    <trkpt lat="47.63205" lon="14.07439"><ele>1259</ele></trkpt>
    <trkpt lat="47.63205" lon="14.07446"><ele>1321</ele></trkpt>
    <trkpt lat="47.63170" lon="14.07481"><ele>1089</ele></trkpt>
    <trkpt lat="47.63113" lon="14.07461"><ele>1037</ele></trkpt>
    <trkpt lat="47.63078" lon="14.07504"><ele>1041</ele></trkpt>
    <trkpt lat="47.63088" lon="14.07553"><ele>1036</ele></trkpt>
    <trkpt lat="47.63125" lon="14.07605"><ele>1088</ele></trkpt>
    <trkpt lat="47.63151" lon="14.07637"><ele>1048</ele></trkpt>
    <trkpt lat="47.63175" lon="14.07655"><ele>1023</ele></trkpt>
    <trkpt lat="47.63168" lon="14.07679"><ele>1040</ele></trkpt>
    <trkpt lat="47.63203" lon="14.07765"><ele>1046</ele></trkpt>
    <trkpt lat="47.63220" lon="14.07783"><ele>1024</ele></trkpt>
    <trkpt lat="47.63240" lon="14.07803"><ele>1006</ele></trkpt>
    <trkpt lat="47.63245" lon="14.07826"><ele>1044</ele></trkpt>
    <trkpt lat="47.63264" lon="14.07870"><ele>999</ele></trkpt>
    <trkpt lat="47.63281" lon="14.07835"><ele>1045</ele></trkpt>
    <trkpt lat="47.63306" lon="14.07773"><ele>991</ele></trkpt>
    <trkpt lat="47.63323" lon="14.07735"><ele>987</ele></trkpt>
    <trkpt lat="47.63331" lon="14.07674"><ele>981</ele></trkpt>
    <trkpt lat="47.63347" lon="14.07648"><ele>968</ele></trkpt>
    <trkpt lat="47.63383" lon="14.07668"><ele>967</ele></trkpt>
    <trkpt lat="47.63411" lon="14.07686"><ele>953</ele></trkpt>
    <trkpt lat="47.63435" lon="14.07689"><ele>954</ele></trkpt>
    <trkpt lat="47.63471" lon="14.07680"><ele>941</ele></trkpt>
    <trkpt lat="47.63503" lon="14.07726"><ele>916</ele></trkpt>
    <trkpt lat="47.63527" lon="14.07761"><ele>895</ele></trkpt>
    <trkpt lat="47.63533" lon="14.07801"><ele>899</ele></trkpt>
    <trkpt lat="47.63539" lon="14.07852"><ele>924</ele></trkpt>
    <trkpt lat="47.63566" lon="14.07915"><ele>904</ele></trkpt>
    <trkpt lat="47.63602" lon="14.07981"><ele>907</ele></trkpt>
    <trkpt lat="47.63636" lon="14.08026"><ele>911</ele></trkpt>
    <trkpt lat="47.63658" lon="14.08044"><ele>900</ele></trkpt>
    <trkpt lat="47.63692" lon="14.08052"><ele>867</ele></trkpt>
    <trkpt lat="47.63721" lon="14.08104"><ele>867</ele></trkpt>
    <trkpt lat="47.63735" lon="14.08140"><ele>849</ele></trkpt>
    <trkpt lat="47.63740" lon="14.08180"><ele>855</ele></trkpt>
    <trkpt lat="47.63768" lon="14.08202"><ele>845</ele></trkpt>
    <trkpt lat="47.63784" lon="14.08278"><ele>836</ele></trkpt>
    <trkpt lat="47.63810" lon="14.08316"><ele>812</ele></trkpt>
    <trkpt lat="47.63850" lon="14.08386"><ele>800</ele></trkpt>
    <trkpt lat="47.63852" lon="14.08436"><ele>828</ele></trkpt>
    <trkpt lat="47.63867" lon="14.08478"><ele>813</ele></trkpt>
    <trkpt lat="47.63910" lon="14.08553"><ele>812</ele></trkpt>
    <trkpt lat="47.63947" lon="14.08547"><ele>824</ele></trkpt>
    <trkpt lat="47.64009" lon="14.08580"><ele>826</ele></trkpt>
    <trkpt lat="47.64075" lon="14.08573"><ele>796</ele></trkpt>
    <trkpt lat="47.64114" lon="14.08575"><ele>792</ele></trkpt>
    <trkpt lat="47.64144" lon="14.08568"><ele>788</ele></trkpt>
    <trkpt lat="47.64165" lon="14.08572"><ele>780</ele></trkpt>
    <trkpt lat="47.64192" lon="14.08582"><ele>768</ele></trkpt>
    <trkpt lat="47.64232" lon="14.08610"><ele>766</ele></trkpt>
    <trkpt lat="47.64247" lon="14.08663"><ele>764</ele></trkpt>
    <trkpt lat="47.64269" lon="14.08695"><ele>760</ele></trkpt>
    <trkpt lat="47.64259" lon="14.08749"><ele>798</ele></trkpt>
    <trkpt lat="47.64271" lon="14.08782"><ele>789</ele></trkpt>
    <trkpt lat="47.64262" lon="14.08813"><ele>758</ele></trkpt>
    <trkpt lat="47.64228" lon="14.08838"><ele>780</ele></trkpt>
    <trkpt lat="47.64227" lon="14.08873"><ele>745</ele></trkpt>
    <trkpt lat="47.64243" lon="14.08886"><ele>745</ele></trkpt>
    <trkpt lat="47.64274" lon="14.08910"><ele>731</ele></trkpt>
    <trkpt lat="47.64311" lon="14.08927"><ele>736</ele></trkpt>
    <trkpt lat="47.64324" lon="14.08971"><ele>743</ele></trkpt>
    <trkpt lat="47.64370" lon="14.08967"><ele>754</ele></trkpt>
    <trkpt lat="47.64381" lon="14.08999"><ele>729</ele></trkpt>
    <trkpt lat="47.64400" lon="14.09032"><ele>727</ele></trkpt>
    <trkpt lat="47.64411" lon="14.09075"><ele>727</ele></trkpt>
    <trkpt lat="47.64407" lon="14.09138"><ele>720</ele></trkpt>
    <trkpt lat="47.64431" lon="14.09165"><ele>706</ele></trkpt>
    <trkpt lat="47.64424" lon="14.09230"><ele>754</ele></trkpt>
    <trkpt lat="47.64436" lon="14.09257"><ele>714</ele></trkpt>
    <trkpt lat="47.64446" lon="14.09276"><ele>710</ele></trkpt>
    <trkpt lat="47.64479" lon="14.09340"><ele>697</ele></trkpt>
    <trkpt lat="47.64469" lon="14.09416"><ele>723</ele></trkpt>
    <trkpt lat="47.64501" lon="14.09440"><ele>714</ele></trkpt>
    <trkpt lat="47.64506" lon="14.09494"><ele>712</ele></trkpt>
    <trkpt lat="47.64539" lon="14.09557"><ele>691</ele></trkpt>
    <trkpt lat="47.64546" lon="14.09563"><ele>725</ele></trkpt>
    <trkpt lat="47.64525" lon="14.09597"><ele>737</ele></trkpt>
  </trkseg>
</trk>
</gpx>