<?xml version="1.0" encoding="UTF-8"?>
<gpx version="1.1" creator="Gpx-Optimizer" xmlns="http://www.topografix.com/GPX/1/1">
<trk>
  <name>Mtb_Ischl-Rotkogel</name>
  <type>bicycle</type>
  <trkseg>
    <trkpt lat="47.71286" lon="13.62746"><ele>472</ele></trkpt>
    <trkpt lat="47.71452" lon="13.62790"><ele>453</ele></trkpt>
    <trkpt lat="47.71516" lon="13.62882"><ele>475</ele></trkpt>
    <trkpt lat="47.71434" lon="13.62921"><ele>466</ele></trkpt>
    <trkpt lat="47.71389" lon="13.62937"><ele>479</ele></trkpt>
    <trkpt lat="47.71337" lon="13.62981"><ele>484</ele></trkpt>
    <trkpt lat="47.71261" lon="13.63055"><ele>474</ele></trkpt>
    <trkpt lat="47.71232" lon="13.63187"><ele>507</ele></trkpt>
    <trkpt lat="47.71109" lon="13.63404"><ele>494</ele></trkpt>
    <trkpt lat="47.70993" lon="13.63455"><ele>488</ele></trkpt>
    <trkpt lat="47.70900" lon="13.63508"><ele>488</ele></trkpt>
    <trkpt lat="47.70790" lon="13.63649"><ele>475</ele></trkpt>
    <trkpt lat="47.70710" lon="13.63738"><ele>490</ele></trkpt>
    <trkpt lat="47.70692" lon="13.63988"><ele>483</ele></trkpt>
    <trkpt lat="47.70768" lon="13.64198"><ele>500</ele></trkpt>
    <trkpt lat="47.70729" lon="13.64324"><ele>498</ele></trkpt>
    <trkpt lat="47.70712" lon="13.64338"><ele>489</ele></trkpt>
    <trkpt lat="47.70654" lon="13.64552"><ele>497</ele></trkpt>
    <trkpt lat="47.70622" lon="13.64692"><ele>512</ele></trkpt>
    <trkpt lat="47.70666" lon="13.64883"><ele>521</ele></trkpt>
    <trkpt lat="47.70710" lon="13.64912"><ele>520</ele></trkpt>
    <trkpt lat="47.70752" lon="13.64909"><ele>528</ele></trkpt>
    <trkpt lat="47.70803" lon="13.64931"><ele>502</ele></trkpt>
    <trkpt lat="47.70836" lon="13.64855"><ele>507</ele></trkpt>
    <trkpt lat="47.70872" lon="13.64811"><ele>554</ele></trkpt>
    <trkpt lat="47.70918" lon="13.64752"><ele>547</ele></trkpt>
    <trkpt lat="47.70985" lon="13.64699"><ele>504</ele></trkpt>
    <trkpt lat="47.70964" lon="13.64788"><ele>563</ele></trkpt>
    <trkpt lat="47.70939" lon="13.64827"><ele>617</ele></trkpt>
    <trkpt lat="47.70924" lon="13.64873"><ele>636</ele></trkpt>
    <trkpt lat="47.70924" lon="13.64939"><ele>625</ele></trkpt>
    <trkpt lat="47.70924" lon="13.65019"><ele>619</ele></trkpt>
    <trkpt lat="47.70873" lon="13.65106"><ele>614</ele></trkpt>
    <trkpt lat="47.70838" lon="13.65151"><ele>620</ele></trkpt>
    <trkpt lat="47.70848" lon="13.65148"><ele>621</ele></trkpt>
    <trkpt lat="47.70836" lon="13.65160"><ele>630</ele></trkpt>
    <trkpt lat="47.70780" lon="13.65249"><ele>602</ele></trkpt>
    <trkpt lat="47.70738" lon="13.65256"><ele>618</ele></trkpt>
    <trkpt lat="47.70729" lon="13.65281"><ele>647</ele></trkpt>
    <trkpt lat="47.70698" lon="13.65301"><ele>657</ele></trkpt>
    <trkpt lat="47.70641" lon="13.65343"><ele>670</ele></trkpt>
    <trkpt lat="47.70616" lon="13.65425"><ele>670</ele></trkpt>
    <trkpt lat="47.70591" lon="13.65469"><ele>672</ele></trkpt>
    <trkpt lat="47.70566" lon="13.65512"><ele>689</ele></trkpt>
    <trkpt lat="47.70544" lon="13.65545"><ele>689</ele></trkpt>
    <trkpt lat="47.70498" lon="13.65614"><ele>697</ele></trkpt>
    <trkpt lat="47.70591" lon="13.65556"><ele>727</ele></trkpt>
    <trkpt lat="47.70586" lon="13.65570"><ele>713</ele></trkpt>
    <trkpt lat="47.70592" lon="13.65605"><ele>712</ele></trkpt>
    <trkpt lat="47.70623" lon="13.65680"><ele>715</ele></trkpt>
    <trkpt lat="47.70631" lon="13.65780"><ele>747</ele></trkpt>
    <trkpt lat="47.70641" lon="13.65829"><ele>604</ele></trkpt>
    <trkpt lat="47.70631" lon="13.65868"><ele>532</ele></trkpt>
    <trkpt lat="47.70676" lon="13.65936"><ele>626</ele></trkpt>
    <trkpt lat="47.70661" lon="13.65980"><ele>723</ele></trkpt>
    <trkpt lat="47.70664" lon="13.66049"><ele>748</ele></trkpt>
    <trkpt lat="47.70652" lon="13.66092"><ele>769</ele></trkpt>
    <trkpt lat="47.70636" lon="13.66120"><ele>806</ele></trkpt>
    <trkpt lat="47.70638" lon="13.66200"><ele>812</ele></trkpt>
    <trkpt lat="47.70573" lon="13.66242"><ele>815</ele></trkpt>
    <trkpt lat="47.70549" lon="13.66290"><ele>723</ele></trkpt>
    <trkpt lat="47.70514" lon="13.66290"><ele>803</ele></trkpt>
    <trkpt lat="47.70448" lon="13.66378"><ele>811</ele></trkpt>
    <trkpt lat="47.70408" lon="13.66349"><ele>792</ele></trkpt>
    <trkpt lat="47.70384" lon="13.66363"><ele>594</ele></trkpt>
    <trkpt lat="47.70308" lon="13.66414"><ele>827</ele></trkpt>
    <trkpt lat="47.70258" lon="13.66452"><ele>857</ele></trkpt>
    <trkpt lat="47.70241" lon="13.66525"><ele>849</ele></trkpt>
    <trkpt lat="47.70266" lon="13.66580"><ele>825</ele></trkpt>
    <trkpt lat="47.70234" lon="13.66607"><ele>860</ele></trkpt>
    <trkpt lat="47.70235" lon="13.66632"><ele>766</ele></trkpt>
    <trkpt lat="47.70228" lon="13.66686"><ele>863</ele></trkpt>
    <trkpt lat="47.70211" lon="13.66735"><ele>798</ele></trkpt>
    <trkpt lat="47.70192" lon="13.66753"><ele>868</ele></trkpt>
    <trkpt lat="47.70177" lon="13.66800"><ele>806</ele></trkpt>
    <trkpt lat="47.70165" lon="13.66848"><ele>799</ele></trkpt>
    <trkpt lat="47.70146" lon="13.66888"><ele>890</ele></trkpt>
    <trkpt lat="47.70109" lon="13.66904"><ele>916</ele></trkpt>
    <trkpt lat="47.70106" lon="13.66922"><ele>678</ele></trkpt>
    <trkpt lat="47.70109" lon="13.66939"><ele>866</ele></trkpt>
    <trkpt lat="47.70101" lon="13.66949"><ele>885</ele></trkpt>
    <trkpt lat="47.70097" lon="13.66932"><ele>806</ele></trkpt>
    <trkpt lat="47.70058" lon="13.67074"><ele>903</ele></trkpt>
    <trkpt lat="47.70043" lon="13.67150"><ele>793</ele></trkpt>
    <trkpt lat="47.70033" lon="13.67205"><ele>878</ele></trkpt>
    <trkpt lat="47.70060" lon="13.67270"><ele>931</ele></trkpt>
    <trkpt lat="47.70084" lon="13.67444"><ele>947</ele></trkpt>
    <trkpt lat="47.70104" lon="13.67523"><ele>928</ele></trkpt>
    <trkpt lat="47.69992" lon="13.67801"><ele>940</ele></trkpt>
    <trkpt lat="47.69983" lon="13.67837"><ele>945</ele></trkpt>
    <trkpt lat="47.70000" lon="13.67831"><ele>929</ele></trkpt>
    <trkpt lat="47.69983" lon="13.67830"><ele>932</ele></trkpt>
    <trkpt lat="47.69973" lon="13.67833"><ele>928</ele></trkpt>
    <trkpt lat="47.69953" lon="13.67878"><ele>902</ele></trkpt>
    <trkpt lat="47.69887" lon="13.68127"><ele>939</ele></trkpt>
    <trkpt lat="47.69841" lon="13.68281"><ele>976</ele></trkpt>
    <trkpt lat="47.69847" lon="13.68318"><ele>895</ele></trkpt>
    <trkpt lat="47.69878" lon="13.68399"><ele>977</ele></trkpt>
    <trkpt lat="47.69902" lon="13.68497"><ele>982</ele></trkpt>
    <trkpt lat="47.69932" lon="13.68567"><ele>1001</ele></trkpt>
    <trkpt lat="47.69966" lon="13.68618"><ele>990</ele></trkpt>
    <trkpt lat="47.70040" lon="13.68656"><ele>1001</ele></trkpt>
    <trkpt lat="47.70046" lon="13.68735"><ele>1003</ele></trkpt>
    <trkpt lat="47.70045" lon="13.68784"><ele>984</ele></trkpt>
    <trkpt lat="47.70019" lon="13.68874"><ele>1018</ele></trkpt>
    <trkpt lat="47.69944" lon="13.68965"><ele>1031</ele></trkpt>
    <trkpt lat="47.69926" lon="13.69027"><ele>1005</ele></trkpt>
    <trkpt lat="47.69919" lon="13.69080"><ele>1053</ele></trkpt>
    <trkpt lat="47.69914" lon="13.69127"><ele>1044</ele></trkpt>
    <trkpt lat="47.69908" lon="13.69229"><ele>1051</ele></trkpt>
    <trkpt lat="47.69890" lon="13.69294"><ele>1100</ele></trkpt>
    <trkpt lat="47.69923" lon="13.69392"><ele>1062</ele></trkpt>
    <trkpt lat="47.69933" lon="13.69470"><ele>1053</ele></trkpt>
    <trkpt lat="47.69939" lon="13.69513"><ele>1074</ele></trkpt>
    <trkpt lat="47.69927" lon="13.69597"><ele>1076</ele></trkpt>
    <trkpt lat="47.69902" lon="13.69646"><ele>1115</ele></trkpt>
    <trkpt lat="47.70046" lon="13.69796"><ele>1038</ele></trkpt>
    <trkpt lat="47.70130" lon="13.70276"><ele>1074</ele></trkpt>
    <trkpt lat="47.70047" lon="13.70352"><ele>1106</ele></trkpt>
    <trkpt lat="47.70002" lon="13.70499"><ele>1073</ele></trkpt>
    <trkpt lat="47.69943" lon="13.70690"><ele>1043</ele></trkpt>
    <trkpt lat="47.69877" lon="13.70839"><ele>1065</ele></trkpt>
    <trkpt lat="47.69893" lon="13.70989"><ele>1044</ele></trkpt>
    <trkpt lat="47.69927" lon="13.71081"><ele>1064</ele></trkpt>
    <trkpt lat="47.69952" lon="13.71171"><ele>1075</ele></trkpt>
    <trkpt lat="47.69977" lon="13.71295"><ele>1112</ele></trkpt>
    <trkpt lat="47.70021" lon="13.71305"><ele>1071</ele></trkpt>
    <trkpt lat="47.70055" lon="13.71328"><ele>1084</ele></trkpt>
    <trkpt lat="47.70190" lon="13.71510"><ele>1085</ele></trkpt>
    <trkpt lat="47.70232" lon="13.71567"><ele>1090</ele></trkpt>
    <trkpt lat="47.70317" lon="13.71588"><ele>1092</ele></trkpt>
    <trkpt lat="47.70381" lon="13.71628"><ele>1079</ele></trkpt>
    <trkpt lat="47.70516" lon="13.71718"><ele>1075</ele></trkpt>
    <trkpt lat="47.70558" lon="13.71834"><ele>1116</ele></trkpt>
    <trkpt lat="47.70645" lon="13.71919"><ele>1116</ele></trkpt>
    <trkpt lat="47.70713" lon="13.71938"><ele>1105</ele></trkpt>
    <trkpt lat="47.70764" lon="13.71963"><ele>1097</ele></trkpt>
    <trkpt lat="47.70797" lon="13.72007"><ele>1111</ele></trkpt>
    <trkpt lat="47.70855" lon="13.72034"><ele>1109</ele></trkpt>
    <trkpt lat="47.70903" lon="13.72038"><ele>1111</ele></trkpt>
    <trkpt lat="47.70966" lon="13.72125"><ele>1132</ele></trkpt>
    <trkpt lat="47.71009" lon="13.72131"><ele>1118</ele></trkpt>
    <trkpt lat="47.71046" lon="13.72209"><ele>1145</ele></trkpt>
    <trkpt lat="47.70999" lon="13.72281"><ele>1154</ele></trkpt>
    <trkpt lat="47.70931" lon="13.72324"><ele>1116</ele></trkpt>
    <trkpt lat="47.70903" lon="13.72342"><ele>1124</ele></trkpt>
    <trkpt lat="47.70826" lon="13.72352"><ele>1180</ele></trkpt>
    <trkpt lat="47.70761" lon="13.72391"><ele>1138</ele></trkpt>
    <trkpt lat="47.70687" lon="13.72447"><ele>1162</ele></trkpt>
    <trkpt lat="47.70652" lon="13.72486"><ele>1195</ele></trkpt>
    <trkpt lat="47.70606" lon="13.72544"><ele>1160</ele></trkpt>
    <trkpt lat="47.70565" lon="13.72551"><ele>1221</ele></trkpt>
    <trkpt lat="47.70551" lon="13.72645"><ele>1190</ele></trkpt>
    <trkpt lat="47.70514" lon="13.72697"><ele>1188</ele></trkpt>
    <trkpt lat="47.70442" lon="13.72860"><ele>1193</ele></trkpt>
    <trkpt lat="47.70358" lon="13.72872"><ele>1195</ele></trkpt>
    <trkpt lat="47.70236" lon="13.72930"><ele>1165</ele></trkpt>
    <trkpt lat="47.70233" lon="13.72971"><ele>1192</ele></trkpt>
    <trkpt lat="47.70253" lon="13.73043"><ele>1193</ele></trkpt>
    <trkpt lat="47.70294" lon="13.73147"><ele>1201</ele></trkpt>
    <trkpt lat="47.70313" lon="13.73190"><ele>1220</ele></trkpt>
    <trkpt lat="47.70353" lon="13.73256"><ele>1273</ele></trkpt>
    <trkpt lat="47.70390" lon="13.73298"><ele>1223</ele></trkpt>
    <trkpt lat="47.70422" lon="13.73339"><ele>1233</ele></trkpt>
    <trkpt lat="47.70484" lon="13.73304"><ele>1227</ele></trkpt>
    <trkpt lat="47.70509" lon="13.73349"><ele>1246</ele></trkpt>
    <trkpt lat="47.70531" lon="13.73370"><ele>1256</ele></trkpt>
    <trkpt lat="47.70572" lon="13.73379"><ele>1257</ele></trkpt>
    <trkpt lat="47.70609" lon="13.73363"><ele>1296</ele></trkpt>
    <trkpt lat="47.70662" lon="13.73360"><ele>1245</ele></trkpt>
    <trkpt lat="47.70673" lon="13.73360"><ele>1260</ele></trkpt>
    <trkpt lat="47.70735" lon="13.73350"><ele>1266</ele></trkpt>
    <trkpt lat="47.70698" lon="13.73288"><ele>1279</ele></trkpt>
    <trkpt lat="47.70726" lon="13.73239"><ele>1273</ele></trkpt>
    <trkpt lat="47.70778" lon="13.73244"><ele>1246</ele></trkpt>
    <trkpt lat="47.70789" lon="13.73258"><ele>1268</ele></trkpt>
    <trkpt lat="47.70804" lon="13.73221"><ele>1286</ele></trkpt>
    <trkpt lat="47.70817" lon="13.73156"><ele>1294</ele></trkpt>
    <trkpt lat="47.70866" lon="13.73047"><ele>1303</ele></trkpt>
    <trkpt lat="47.70865" lon="13.72983"><ele>1303</ele></trkpt>
    <trkpt lat="47.70844" lon="13.72875"><ele>1325</ele></trkpt>
    <trkpt lat="47.70874" lon="13.72802"><ele>1310</ele></trkpt>
    <trkpt lat="47.70866" lon="13.72672"><ele>1330</ele></trkpt>
    <trkpt lat="47.70901" lon="13.72638"><ele>1309</ele></trkpt>
    <trkpt lat="47.70895" lon="13.72727"><ele>1335</ele></trkpt>
    <trkpt lat="47.70900" lon="13.72800"><ele>1315</ele></trkpt>
    <trkpt lat="47.70939" lon="13.72881"><ele>1332</ele></trkpt>
    <trkpt lat="47.70972" lon="13.72938"><ele>1347</ele></trkpt>
    <trkpt lat="47.70991" lon="13.72951"><ele>1346</ele></trkpt>
    <trkpt lat="47.71027" lon="13.72985"><ele>1351</ele></trkpt>
    <trkpt lat="47.71042" lon="13.73157"><ele>1357</ele></trkpt>
    <trkpt lat="47.71074" lon="13.73234"><ele>1384</ele></trkpt>
    <trkpt lat="47.71126" lon="13.73328"><ele>1363</ele></trkpt>
    <trkpt lat="47.71170" lon="13.73342"><ele>1350</ele></trkpt>
    <trkpt lat="47.71202" lon="13.73388"><ele>1368</ele></trkpt>
    <trkpt lat="47.71223" lon="13.73407"><ele>1363</ele></trkpt>
    <trkpt lat="47.71215" lon="13.73435"><ele>1372</ele></trkpt>
    <trkpt lat="47.71215" lon="13.73418"><ele>1372</ele></trkpt>
    <trkpt lat="47.71229" lon="13.73440"><ele>1367</ele></trkpt>
    <trkpt lat="47.71247" lon="13.73469"><ele>1373</ele></trkpt>
    <trkpt lat="47.71259" lon="13.73497"><ele>1380</ele></trkpt>
    <trkpt lat="47.71271" lon="13.73518"><ele>1379</ele></trkpt>
    <trkpt lat="47.71292" lon="13.73533"><ele>1388</ele></trkpt>
    <trkpt lat="47.71306" lon="13.73548"><ele>1396</ele></trkpt>
    <trkpt lat="47.71319" lon="13.73554"><ele>1399</ele></trkpt>
    <trkpt lat="47.71331" lon="13.73558"><ele>1401</ele></trkpt>
    <trkpt lat="47.71348" lon="13.73569"><ele>1408</ele></trkpt>
    <trkpt lat="47.71357" lon="13.73567"><ele>1419</ele></trkpt>
    <trkpt lat="47.71372" lon="13.73562"><ele>1418</ele></trkpt>
    <trkpt lat="47.71385" lon="13.73565"><ele>1419</ele></trkpt>
    <trkpt lat="47.71401" lon="13.73562"><ele>1426</ele></trkpt>
    <trkpt lat="47.71425" lon="13.73565"><ele>1429</ele></trkpt>
    <trkpt lat="47.71453" lon="13.73566"><ele>1426</ele></trkpt>
    <trkpt lat="47.71480" lon="13.73560"><ele>1427</ele></trkpt>
    <trkpt lat="47.71488" lon="13.73527"><ele>1441</ele></trkpt>
    <trkpt lat="47.71488" lon="13.73497"><ele>1445</ele></trkpt>
    <trkpt lat="47.71507" lon="13.73510"><ele>1460</ele></trkpt>
    <trkpt lat="47.71517" lon="13.73502"><ele>1461</ele></trkpt>
    <trkpt lat="47.71529" lon="13.73494"><ele>1466</ele></trkpt>
    <trkpt lat="47.71549" lon="13.73516"><ele>1466</ele></trkpt>
    <trkpt lat="47.71579" lon="13.73539"><ele>1489</ele></trkpt>
    <trkpt lat="47.71587" lon="13.73547"><ele>1498</ele></trkpt>
    <trkpt lat="47.71608" lon="13.73509"><ele>1472</ele></trkpt>
    <trkpt lat="47.71637" lon="13.73528"><ele>1522</ele></trkpt>
    <trkpt lat="47.71646" lon="13.73534"><ele>1514</ele></trkpt>
    <trkpt lat="47.71659" lon="13.73524"><ele>1514</ele></trkpt>
    <trkpt lat="47.71659" lon="13.73473"><ele>1524</ele></trkpt>
    <trkpt lat="47.71660" lon="13.73456"><ele>1513</ele></trkpt>
    <trkpt lat="47.71658" lon="13.73397"><ele>1537</ele></trkpt>
    <trkpt lat="47.71662" lon="13.73376"><ele>1531</ele></trkpt>
    <trkpt lat="47.71653" lon="13.73361"><ele>1535</ele></trkpt>
    <trkpt lat="47.71643" lon="13.73352"><ele>1567</ele></trkpt>
    <trkpt lat="47.71625" lon="13.73323"><ele>1549</ele></trkpt>
    <trkpt lat="47.71607" lon="13.73287"><ele>1574</ele></trkpt>
    <trkpt lat="47.71569" lon="13.73242"><ele>1584</ele></trkpt>
    <trkpt lat="47.71563" lon="13.73224"><ele>1600</ele></trkpt>
    <trkpt lat="47.71572" lon="13.73258"><ele>1584</ele></trkpt>
    <trkpt lat="47.71637" lon="13.73329"><ele>1552</ele></trkpt>
    <trkpt lat="47.71647" lon="13.73350"><ele>1555</ele></trkpt>
    <trkpt lat="47.71655" lon="13.73359"><ele>1549</ele></trkpt>
    <trkpt lat="47.71664" lon="13.73403"><ele>1574</ele></trkpt>
    <trkpt lat="47.71666" lon="13.73433"><ele>1524</ele></trkpt>
    <trkpt lat="47.71667" lon="13.73469"><ele>1521</ele></trkpt>
    <trkpt lat="47.71636" lon="13.73525"><ele>1532</ele></trkpt>
    <trkpt lat="47.71600" lon="13.73496"><ele>1503</ele></trkpt>
    <trkpt lat="47.71591" lon="13.73522"><ele>1498</ele></trkpt>
    <trkpt lat="47.71579" lon="13.73512"><ele>1482</ele></trkpt>
    <trkpt lat="47.71571" lon="13.73503"><ele>1469</ele></trkpt>
    <trkpt lat="47.71522" lon="13.73498"><ele>1473</ele></trkpt>
    <trkpt lat="47.71499" lon="13.73495"><ele>1458</ele></trkpt>
    <trkpt lat="47.71503" lon="13.73507"><ele>1448</ele></trkpt>
    <trkpt lat="47.71492" lon="13.73483"><ele>1427</ele></trkpt>
    <trkpt lat="47.71487" lon="13.73533"><ele>1429</ele></trkpt>
    <trkpt lat="47.71427" lon="13.73556"><ele>1432</ele></trkpt>
    <trkpt lat="47.71395" lon="13.73567"><ele>1426</ele></trkpt>
    <trkpt lat="47.71357" lon="13.73578"><ele>1409</ele></trkpt>
    <trkpt lat="47.71318" lon="13.73569"><ele>1415</ele></trkpt>
    <trkpt lat="47.71302" lon="13.73551"><ele>1412</ele></trkpt>
    <trkpt lat="47.71270" lon="13.73517"><ele>1404</ele></trkpt>
    <trkpt lat="47.71252" lon="13.73515"><ele>1358</ele></trkpt>
    <trkpt lat="47.71224" lon="13.73435"><ele>1363</ele></trkpt>
    <trkpt lat="47.71190" lon="13.73366"><ele>1349</ele></trkpt>
    <trkpt lat="47.71187" lon="13.73353"><ele>1368</ele></trkpt>
    <trkpt lat="47.71176" lon="13.73425"><ele>1379</ele></trkpt>
    <trkpt lat="47.71186" lon="13.73431"><ele>1372</ele></trkpt>
    <trkpt lat="47.71176" lon="13.73406"><ele>1371</ele></trkpt>
    <trkpt lat="47.71181" lon="13.73428"><ele>1367</ele></trkpt>
    <trkpt lat="47.71170" lon="13.73413"><ele>1369</ele></trkpt>
    <trkpt lat="47.71179" lon="13.73416"><ele>1354</ele></trkpt>
    <trkpt lat="47.71181" lon="13.73430"><ele>1347</ele></trkpt>
    <trkpt lat="47.71177" lon="13.73411"><ele>1352</ele></trkpt>
    <trkpt lat="47.71167" lon="13.73370"><ele>1347</ele></trkpt>
    <trkpt lat="47.71017" lon="13.73112"><ele>1357</ele></trkpt>
    <trkpt lat="47.70926" lon="13.72875"><ele>1334</ele></trkpt>
    <trkpt lat="47.70891" lon="13.72638"><ele>1324</ele></trkpt>
    <trkpt lat="47.70882" lon="13.72636"><ele>1326</ele></trkpt>
    <trkpt lat="47.70878" lon="13.72753"><ele>1314</ele></trkpt>
    <trkpt lat="47.70857" lon="13.73001"><ele>1309</ele></trkpt>
    <trkpt lat="47.70703" lon="13.73279"><ele>1266</ele></trkpt>
    <trkpt lat="47.70505" lon="13.73370"><ele>1242</ele></trkpt>
    <trkpt lat="47.70325" lon="13.73227"><ele>1206</ele></trkpt>
    <trkpt lat="47.70239" lon="13.72980"><ele>1199</ele></trkpt>
    <trkpt lat="47.70209" lon="13.73104"><ele>1182</ele></trkpt>
    <trkpt lat="47.70133" lon="13.72869"><ele>1152</ele></trkpt>
    <trkpt lat="47.70305" lon="13.72607"><ele>1135</ele></trkpt>
    <trkpt lat="47.70199" lon="13.72643"><ele>1118</ele></trkpt>
    <trkpt lat="47.70081" lon="13.72669"><ele>1091</ele></trkpt>
    <trkpt lat="47.69996" lon="13.73021"><ele>1076</ele></trkpt>
    <trkpt lat="47.70095" lon="13.73282"><ele>1034</ele></trkpt>
    <trkpt lat="47.70251" lon="13.73749"><ele>1010</ele></trkpt>
    <trkpt lat="47.70056" lon="13.73567"><ele>981</ele></trkpt>
    <trkpt lat="47.69998" lon="13.73479"><ele>958</ele></trkpt>
    <trkpt lat="47.69869" lon="13.73227"><ele>948</ele></trkpt>
    <trkpt lat="47.69723" lon="13.73016"><ele>896</ele></trkpt>
    <trkpt lat="47.69649" lon="13.72334"><ele>849</ele></trkpt>
    <trkpt lat="47.69754" lon="13.72261"><ele>841</ele></trkpt>
    <trkpt lat="47.69566" lon="13.72296"><ele>823</ele></trkpt>
    <trkpt lat="47.69611" lon="13.72087"><ele>791</ele></trkpt>
    <trkpt lat="47.69540" lon="13.71930"><ele>752</ele></trkpt>
    <trkpt lat="47.69442" lon="13.72008"><ele>725</ele></trkpt>
    <trkpt lat="47.69393" lon="13.72770"><ele>710</ele></trkpt>
    <trkpt lat="47.69316" lon="13.72339"><ele>662</ele></trkpt>
    <trkpt lat="47.69234" lon="13.71950"><ele>626</ele></trkpt>
    <trkpt lat="47.69198" lon="13.71668"><ele>610</ele></trkpt>
    <trkpt lat="47.69208" lon="13.71599"><ele>619</ele></trkpt>
    <trkpt lat="47.69196" lon="13.71600"><ele>638</ele></trkpt>
    <trkpt lat="47.69277" lon="13.71276"><ele>606</ele></trkpt>
    <trkpt lat="47.69220" lon="13.71102"><ele>620</ele></trkpt>
    <trkpt lat="47.69161" lon="13.70819"><ele>612</ele></trkpt>
    <trkpt lat="47.69383" lon="13.70471"><ele>610</ele></trkpt>
    <trkpt lat="47.69416" lon="13.70039"><ele>609</ele></trkpt>
    <trkpt lat="47.69470" lon="13.69709"><ele>586</ele></trkpt>
    <trkpt lat="47.69408" lon="13.69388"><ele>573</ele></trkpt>
    <trkpt lat="47.69351" lon="13.68770"><ele>559</ele></trkpt>
    <trkpt lat="47.69335" lon="13.68451"><ele>561</ele></trkpt>
    <trkpt lat="47.69264" lon="13.68153"><ele>564</ele></trkpt>
    <trkpt lat="47.69452" lon="13.67613"><ele>594</ele></trkpt>
    <trkpt lat="47.69575" lon="13.67301"><ele>588</ele></trkpt>
    <trkpt lat="47.69696" lon="13.67011"><ele>575</ele></trkpt>
    <trkpt lat="47.69801" lon="13.66741"><ele>558</ele></trkpt>
    <trkpt lat="47.70009" lon="13.66229"><ele>551</ele></trkpt>
    <trkpt lat="47.70166" lon="13.65624"><ele>534</ele></trkpt>
    <trkpt lat="47.70243" lon="13.65307"><ele>521</ele></trkpt>
    <trkpt lat="47.70563" lon="13.64796"><ele>504</ele></trkpt>
    <trkpt lat="47.70682" lon="13.64474"><ele>494</ele></trkpt>
    <trkpt lat="47.70785" lon="13.64101"><ele>487</ele></trkpt>
    <trkpt lat="47.70711" lon="13.63793"><ele>492</ele></trkpt>
    <trkpt lat="47.70895" lon="13.63509"><ele>488</ele></trkpt>
    <trkpt lat="47.71040" lon="13.63427"><ele>483</ele></trkpt>
    <trkpt lat="47.71165" lon="13.63353"><ele>483</ele></trkpt>
    <trkpt lat="47.71231" lon="13.63204"><ele>486</ele></trkpt>
    <trkpt lat="47.71362" lon="13.62965"><ele>473</ele></trkpt>
    <trkpt lat="47.71500" lon="13.62892"><ele>471</ele></trkpt>
    <trkpt lat="47.71329" lon="13.62691"><ele>458</ele></trkpt>
    <trkpt lat="47.71216" lon="13.62713"><ele>470</ele></trkpt>
    <trkpt lat="47.71214" lon="13.62730"><ele>459</ele></trkpt>
    <trkpt lat="47.71217" lon="13.62729"><ele>455</ele></trkpt>
  </trkseg>
</trk>
</gpx>