<?xml version="1.0" encoding="UTF-8"?>
<gpx version="1.1" creator="GPX-Pro" xmlns="http://www.topografix.com/GPX/1/1">
<trk>
  <name>Ski_HorningerZinken</name>
  <trkseg>
    <trkpt lat="47.47307" lon="14.28430"><ele>964</ele><time>2020-01-12T07:56:49Z</time></trkpt>
    <trkpt lat="47.47282" lon="14.28482"><ele>985</ele><time>2020-01-12T07:57:29Z</time></trkpt>
    <trkpt lat="47.47271" lon="14.28524"><ele>1002</ele><time>2020-01-12T07:58:10Z</time></trkpt>
    <trkpt lat="47.47261" lon="14.28558"><ele>1008</ele><time>2020-01-12T07:58:50Z</time></trkpt>
    <trkpt lat="47.47252" lon="14.28593"><ele>1019</ele><time>2020-01-12T07:59:30Z</time></trkpt>
    <trkpt lat="47.47239" lon="14.28630"><ele>1022</ele><time>2020-01-12T08:00:10Z</time></trkpt>
    <trkpt lat="47.47233" lon="14.28657"><ele>1018</ele><time>2020-01-12T08:00:50Z</time></trkpt>
    <trkpt lat="47.47224" lon="14.28701"><ele>1033</ele><time>2020-01-12T08:01:30Z</time></trkpt>
    <trkpt lat="47.47213" lon="14.28729"><ele>1037</ele><time>2020-01-12T08:02:10Z</time></trkpt>
    <trkpt lat="47.47205" lon="14.28758"><ele>1040</ele><time>2020-01-12T08:02:50Z</time></trkpt>
    <trkpt lat="47.47213" lon="14.28815"><ele>1039</ele><time>2020-01-12T08:03:59Z</time></trkpt>
    <trkpt lat="47.47208" lon="14.28867"><ele>1035</ele><time>2020-01-12T08:04:39Z</time></trkpt>
    <trkpt lat="47.47222" lon="14.28967"><ele>1082</ele><time>2020-01-12T08:06:40Z</time></trkpt>
    <trkpt lat="47.47243" lon="14.28970"><ele>1073</ele><time>2020-01-12T08:07:21Z</time></trkpt>
    <trkpt lat="47.47271" lon="14.28922"><ele>1109</ele><time>2020-01-12T08:08:40Z</time></trkpt>
    <trkpt lat="47.47338" lon="14.28921"><ele>1091</ele><time>2020-01-12T08:10:39Z</time></trkpt>
    <trkpt lat="47.47308" lon="14.28969"><ele>1116</ele><time>2020-01-12T08:12:39Z</time></trkpt>
    <trkpt lat="47.47301" lon="14.28987"><ele>1119</ele><time>2020-01-12T08:13:19Z</time></trkpt>
    <trkpt lat="47.47280" lon="14.29037"><ele>1116</ele><time>2020-01-12T08:14:39Z</time></trkpt>
    <trkpt lat="47.47285" lon="14.29085"><ele>1151</ele><time>2020-01-12T08:16:00Z</time></trkpt>
    <trkpt lat="47.47290" lon="14.29117"><ele>1170</ele><time>2020-01-12T08:17:59Z</time></trkpt>
    <trkpt lat="47.47287" lon="14.29134"><ele>1166</ele><time>2020-01-12T08:20:40Z</time></trkpt>
    <trkpt lat="47.47335" lon="14.29203"><ele>1144</ele><time>2020-01-12T08:22:00Z</time></trkpt>
    <trkpt lat="47.47345" lon="14.29216"><ele>1167</ele><time>2020-01-12T08:23:19Z</time></trkpt>
    <trkpt lat="47.47362" lon="14.29208"><ele>1154</ele><time>2020-01-12T08:25:59Z</time></trkpt>
    <trkpt lat="47.47398" lon="14.29221"><ele>1163</ele><time>2020-01-12T08:26:39Z</time></trkpt>
    <trkpt lat="47.47414" lon="14.29225"><ele>1165</ele><time>2020-01-12T08:29:19Z</time></trkpt>
    <trkpt lat="47.47418" lon="14.29236"><ele>1200</ele><time>2020-01-12T08:31:19Z</time></trkpt>
    <trkpt lat="47.47437" lon="14.29286"><ele>1207</ele><time>2020-01-12T08:33:14Z</time></trkpt>
    <trkpt lat="47.47454" lon="14.29276"><ele>1223</ele><time>2020-01-12T08:34:35Z</time></trkpt>
    <trkpt lat="47.47519" lon="14.29269"><ele>1245</ele><time>2020-01-12T08:36:35Z</time></trkpt>
    <trkpt lat="47.47555" lon="14.29261"><ele>1216</ele><time>2020-01-12T08:37:15Z</time></trkpt>
    <trkpt lat="47.47567" lon="14.29279"><ele>1238</ele><time>2020-01-12T08:37:55Z</time></trkpt>
    <trkpt lat="47.47552" lon="14.29299"><ele>1260</ele><time>2020-01-12T08:39:15Z</time></trkpt>
    <trkpt lat="47.47568" lon="14.29300"><ele>1259</ele><time>2020-01-12T08:40:35Z</time></trkpt>
    <trkpt lat="47.47575" lon="14.29391"><ele>1245</ele><time>2020-01-12T08:41:54Z</time></trkpt>
    <trkpt lat="47.47584" lon="14.29413"><ele>1262</ele><time>2020-01-12T08:43:14Z</time></trkpt>
    <trkpt lat="47.47623" lon="14.29487"><ele>1255</ele><time>2020-01-12T08:44:55Z</time></trkpt>
    <trkpt lat="47.47651" lon="14.29576"><ele>1269</ele><time>2020-01-12T08:46:25Z</time></trkpt>
    <trkpt lat="47.47664" lon="14.29632"><ele>1282</ele><time>2020-01-12T08:47:45Z</time></trkpt>
    <trkpt lat="47.47664" lon="14.29717"><ele>1300</ele><time>2020-01-12T08:49:05Z</time></trkpt>
    <trkpt lat="47.47679" lon="14.29796"><ele>1302</ele><time>2020-01-12T08:50:24Z</time></trkpt>
    <trkpt lat="47.47666" lon="14.29845"><ele>1321</ele><time>2020-01-12T08:51:44Z</time></trkpt>
    <trkpt lat="47.47649" lon="14.29945"><ele>1335</ele><time>2020-01-12T08:53:06Z</time></trkpt>
    <trkpt lat="47.47645" lon="14.30028"><ele>1339</ele><time>2020-01-12T08:54:25Z</time></trkpt>
    <trkpt lat="47.47628" lon="14.30110"><ele>1327</ele><time>2020-01-12T08:55:44Z</time></trkpt>
    <trkpt lat="47.47623" lon="14.30168"><ele>1326</ele><time>2020-01-12T08:56:25Z</time></trkpt>
    <trkpt lat="47.47611" lon="14.30188"><ele>1331</ele><time>2020-01-12T08:57:05Z</time></trkpt>
    <trkpt lat="47.47574" lon="14.30270"><ele>1327</ele><time>2020-01-12T08:58:25Z</time></trkpt>
    <trkpt lat="47.47575" lon="14.30304"><ele>1351</ele><time>2020-01-12T08:59:05Z</time></trkpt>
    <trkpt lat="47.47549" lon="14.30383"><ele>1308</ele><time>2020-01-12T09:00:25Z</time></trkpt>
    <trkpt lat="47.47541" lon="14.30407"><ele>1344</ele><time>2020-01-12T09:02:24Z</time></trkpt>
    <trkpt lat="47.47526" lon="14.30442"><ele>1358</ele><time>2020-01-12T09:03:04Z</time></trkpt>
    <trkpt lat="47.47501" lon="14.30481"><ele>1351</ele><time>2020-01-12T09:03:45Z</time></trkpt>
    <trkpt lat="47.47479" lon="14.30518"><ele>1413</ele><time>2020-01-12T09:05:45Z</time></trkpt>
    <trkpt lat="47.47486" lon="14.30567"><ele>1368</ele><time>2020-01-12T09:06:25Z</time></trkpt>
    <trkpt lat="47.47486" lon="14.30540"><ele>1392</ele><time>2020-01-12T09:07:41Z</time></trkpt>
    <trkpt lat="47.47443" lon="14.30619"><ele>1399</ele><time>2020-01-12T09:09:43Z</time></trkpt>
    <trkpt lat="47.47426" lon="14.30686"><ele>1400</ele><time>2020-01-12T09:11:02Z</time></trkpt>
    <trkpt lat="47.47434" lon="14.30682"><ele>1418</ele><time>2020-01-12T09:11:44Z</time></trkpt>
    <trkpt lat="47.47447" lon="14.30685"><ele>1429</ele><time>2020-01-12T09:13:02Z</time></trkpt>
    <trkpt lat="47.47441" lon="14.30697"><ele>1426</ele><time>2020-01-12T09:15:01Z</time></trkpt>
    <trkpt lat="47.47433" lon="14.30725"><ele>1427</ele><time>2020-01-12T09:15:42Z</time></trkpt>
    <trkpt lat="47.47474" lon="14.30754"><ele>1420</ele><time>2020-01-12T09:17:02Z</time></trkpt>
    <trkpt lat="47.47450" lon="14.30714"><ele>1460</ele><time>2020-01-12T09:17:43Z</time></trkpt>
    <trkpt lat="47.47441" lon="14.30742"><ele>1411</ele><time>2020-01-12T09:19:03Z</time></trkpt>
    <trkpt lat="47.47449" lon="14.30750"><ele>1423</ele><time>2020-01-12T09:20:21Z</time></trkpt>
    <trkpt lat="47.47432" lon="14.30792"><ele>1419</ele><time>2020-01-12T09:22:23Z</time></trkpt>
    <trkpt lat="47.47435" lon="14.30871"><ele>1457</ele><time>2020-01-12T09:23:41Z</time></trkpt>
    <trkpt lat="47.47437" lon="14.30907"><ele>1468</ele><time>2020-01-12T09:24:21Z</time></trkpt>
    <trkpt lat="47.47416" lon="14.30955"><ele>1467</ele><time>2020-01-12T09:25:01Z</time></trkpt>
    <trkpt lat="47.47410" lon="14.30988"><ele>1535</ele><time>2020-01-12T09:26:23Z</time></trkpt>
    <trkpt lat="47.47378" lon="14.31057"><ele>1485</ele><time>2020-01-12T09:27:42Z</time></trkpt>
    <trkpt lat="47.47364" lon="14.31070"><ele>1480</ele><time>2020-01-12T09:29:01Z</time></trkpt>
    <trkpt lat="47.47362" lon="14.31104"><ele>1467</ele><time>2020-01-12T09:31:01Z</time></trkpt>
    <trkpt lat="47.47304" lon="14.31064"><ele>1536</ele><time>2020-01-12T09:32:22Z</time></trkpt>
    <trkpt lat="47.47317" lon="14.31087"><ele>1520</ele><time>2020-01-12T09:33:41Z</time></trkpt>
    <trkpt lat="47.47309" lon="14.31107"><ele>1540</ele><time>2020-01-12T09:35:01Z</time></trkpt>
    <trkpt lat="47.47301" lon="14.31114"><ele>1526</ele><time>2020-01-12T09:37:41Z</time></trkpt>
    <trkpt lat="47.47307" lon="14.31198"><ele>1538</ele><time>2020-01-12T09:39:42Z</time></trkpt>
    <trkpt lat="47.47299" lon="14.31288"><ele>1551</ele><time>2020-01-12T09:41:43Z</time></trkpt>
    <trkpt lat="47.47266" lon="14.31443"><ele>1590</ele><time>2020-01-12T09:45:02Z</time></trkpt>
    <trkpt lat="47.47255" lon="14.31476"><ele>1568</ele><time>2020-01-12T09:45:42Z</time></trkpt>
    <trkpt lat="47.47252" lon="14.31489"><ele>1585</ele><time>2020-01-12T09:46:22Z</time></trkpt>
    <trkpt lat="47.47242" lon="14.31543"><ele>1594</ele><time>2020-01-12T09:47:43Z</time></trkpt>
    <trkpt lat="47.47213" lon="14.31605"><ele>1594</ele><time>2020-01-12T09:49:02Z</time></trkpt>
    <trkpt lat="47.47197" lon="14.31617"><ele>1616</ele><time>2020-01-12T09:49:42Z</time></trkpt>
    <trkpt lat="47.47186" lon="14.31664"><ele>1531</ele><time>2020-01-12T09:51:43Z</time></trkpt>
    <trkpt lat="47.47195" lon="14.31699"><ele>1603</ele><time>2020-01-12T09:53:02Z</time></trkpt>
    <trkpt lat="47.47182" lon="14.31730"><ele>1628</ele><time>2020-01-12T09:54:22Z</time></trkpt>
    <trkpt lat="47.47192" lon="14.31730"><ele>1630</ele><time>2020-01-12T09:58:23Z</time></trkpt>
    <trkpt lat="47.47211" lon="14.31711"><ele>1637</ele><time>2020-01-12T09:59:03Z</time></trkpt>
    <trkpt lat="47.47250" lon="14.31751"><ele>1664</ele><time>2020-01-12T10:01:43Z</time></trkpt>
    <trkpt lat="47.47268" lon="14.31759"><ele>1687</ele><time>2020-01-12T10:05:44Z</time></trkpt>
    <trkpt lat="47.47278" lon="14.31812"><ele>1672</ele><time>2020-01-12T10:08:23Z</time></trkpt>
    <trkpt lat="47.47295" lon="14.31832"><ele>1727</ele><time>2020-01-12T10:10:22Z</time></trkpt>
    <trkpt lat="47.47329" lon="14.31903"><ele>1740</ele><time>2020-01-12T10:16:23Z</time></trkpt>
    <trkpt lat="47.47339" lon="14.31914"><ele>1741</ele><time>2020-01-12T10:17:43Z</time></trkpt>
    <trkpt lat="47.47345" lon="14.31938"><ele>1741</ele><time>2020-01-12T10:20:22Z</time></trkpt>
    <trkpt lat="47.47332" lon="14.31963"><ele>1751</ele><time>2020-01-12T10:21:03Z</time></trkpt>
    <trkpt lat="47.47281" lon="14.31997"><ele>1812</ele><time>2020-01-12T10:22:23Z</time></trkpt>
    <trkpt lat="47.47295" lon="14.32029"><ele>1760</ele><time>2020-01-12T10:23:42Z</time></trkpt>
    <trkpt lat="47.47270" lon="14.32071"><ele>1784</ele><time>2020-01-12T10:24:22Z</time></trkpt>
    <trkpt lat="47.47321" lon="14.32083"><ele>1752</ele><time>2020-01-12T10:25:03Z</time></trkpt>
    <trkpt lat="47.47304" lon="14.32079"><ele>1771</ele><time>2020-01-12T10:37:43Z</time></trkpt>
    <trkpt lat="47.47356" lon="14.32083"><ele>1799</ele><time>2020-01-12T10:39:03Z</time></trkpt>
    <trkpt lat="47.47349" lon="14.32105"><ele>1804</ele><time>2020-01-12T10:42:24Z</time></trkpt>
    <trkpt lat="47.47312" lon="14.32198"><ele>1845</ele><time>2020-01-12T10:48:22Z</time></trkpt>
    <trkpt lat="47.47342" lon="14.32187"><ele>1878</ele><time>2020-01-12T10:49:43Z</time></trkpt>
    <trkpt lat="47.47360" lon="14.32233"><ele>1860</ele><time>2020-01-12T10:51:43Z</time></trkpt>
    <trkpt lat="47.47340" lon="14.32324"><ele>1890</ele><time>2020-01-12T10:55:02Z</time></trkpt>
    <trkpt lat="47.47353" lon="14.32323"><ele>1915</ele><time>2020-01-12T10:55:43Z</time></trkpt>
    <trkpt lat="47.47367" lon="14.32310"><ele>1905</ele><time>2020-01-12T10:57:02Z</time></trkpt>
    <trkpt lat="47.47420" lon="14.32279"><ele>1925</ele><time>2020-01-12T10:59:43Z</time></trkpt>
    <trkpt lat="47.47468" lon="14.32232"><ele>1939</ele><time>2020-01-12T11:01:03Z</time></trkpt>
    <trkpt lat="47.47506" lon="14.32202"><ele>1938</ele><time>2020-01-12T11:02:23Z</time></trkpt>
    <trkpt lat="47.47532" lon="14.32168"><ele>1937</ele><time>2020-01-12T11:05:03Z</time></trkpt>
    <trkpt lat="47.47548" lon="14.32166"><ele>1949</ele><time>2020-01-12T11:06:22Z</time></trkpt>
    <trkpt lat="47.47571" lon="14.32141"><ele>1949</ele><time>2020-01-12T11:07:43Z</time></trkpt>
    <trkpt lat="47.47581" lon="14.32146"><ele>1920</ele><time>2020-01-12T11:13:04Z</time></trkpt>
    <trkpt lat="47.47613" lon="14.32094"><ele>1965</ele><time>2020-01-12T11:14:22Z</time></trkpt>
    <trkpt lat="47.47629" lon="14.32086"><ele>1964</ele><time>2020-01-12T11:15:42Z</time></trkpt>
    <trkpt lat="47.47683" lon="14.32052"><ele>1986</ele><time>2020-01-12T11:17:02Z</time></trkpt>
    <trkpt lat="47.47664" lon="14.32069"><ele>1965</ele><time>2020-01-12T11:20:22Z</time></trkpt>
    <trkpt lat="47.47594" lon="14.32093"><ele>1933</ele><time>2020-01-12T11:21:43Z</time></trkpt>
    <trkpt lat="47.47570" lon="14.32154"><ele>1945</ele><time>2020-01-12T11:23:02Z</time></trkpt>
    <trkpt lat="47.47559" lon="14.32152"><ele>1709</ele><time>2020-01-12T11:26:23Z</time></trkpt>
    <trkpt lat="47.47463" lon="14.32266"><ele>1913</ele><time>2020-01-12T11:45:03Z</time></trkpt>
    <trkpt lat="47.47363" lon="14.32203"><ele>1884</ele><time>2020-01-12T11:46:23Z</time></trkpt>
    <trkpt lat="47.47323" lon="14.32101"><ele>1830</ele><time>2020-01-12T11:47:42Z</time></trkpt>
    <trkpt lat="47.47320" lon="14.32081"><ele>1826</ele><time>2020-01-12T11:48:22Z</time></trkpt>
    <trkpt lat="47.47290" lon="14.32005"><ele>1762</ele><time>2020-01-12T11:49:04Z</time></trkpt>
    <trkpt lat="47.47237" lon="14.31939"><ele>1721</ele><time>2020-01-12T11:50:01Z</time></trkpt>
    <trkpt lat="47.47220" lon="14.31937"><ele>1691</ele><time>2020-01-12T11:50:41Z</time></trkpt>
    <trkpt lat="47.47214" lon="14.31924"><ele>1690</ele><time>2020-01-12T11:51:54Z</time></trkpt>
    <trkpt lat="47.47178" lon="14.31752"><ele>1654</ele><time>2020-01-12T11:52:35Z</time></trkpt>
    <trkpt lat="47.47206" lon="14.31689"><ele>1643</ele><time>2020-01-12T11:53:15Z</time></trkpt>
    <trkpt lat="47.47233" lon="14.31586"><ele>1624</ele><time>2020-01-12T11:53:55Z</time></trkpt>
    <trkpt lat="47.47253" lon="14.31434"><ele>1586</ele><time>2020-01-12T11:55:15Z</time></trkpt>
    <trkpt lat="47.47265" lon="14.31420"><ele>1580</ele><time>2020-01-12T11:56:25Z</time></trkpt>
    <trkpt lat="47.47282" lon="14.31206"><ele>1536</ele><time>2020-01-12T11:57:05Z</time></trkpt>
    <trkpt lat="47.47339" lon="14.31144"><ele>1502</ele><time>2020-01-12T11:57:46Z</time></trkpt>
    <trkpt lat="47.47405" lon="14.31096"><ele>1530</ele><time>2020-01-12T11:59:46Z</time></trkpt>
    <trkpt lat="47.47413" lon="14.31013"><ele>1562</ele><time>2020-01-12T12:00:26Z</time></trkpt>
    <trkpt lat="47.47457" lon="14.30970"><ele>1470</ele><time>2020-01-12T12:01:49Z</time></trkpt>
    <trkpt lat="47.47440" lon="14.30858"><ele>1419</ele><time>2020-01-12T12:03:06Z</time></trkpt>
    <trkpt lat="47.47483" lon="14.30796"><ele>1379</ele><time>2020-01-12T12:03:47Z</time></trkpt>
    <trkpt lat="47.47455" lon="14.30779"><ele>1436</ele><time>2020-01-12T12:04:28Z</time></trkpt>
    <trkpt lat="47.47436" lon="14.30706"><ele>1449</ele><time>2020-01-12T12:07:07Z</time></trkpt>
    <trkpt lat="47.47468" lon="14.30690"><ele>1447</ele><time>2020-01-12T12:10:27Z</time></trkpt>
    <trkpt lat="47.47473" lon="14.30572"><ele>1351</ele><time>2020-01-12T12:11:50Z</time></trkpt>
    <trkpt lat="47.47498" lon="14.30514"><ele>1435</ele><time>2020-01-12T12:13:09Z</time></trkpt>
    <trkpt lat="47.47548" lon="14.30421"><ele>1372</ele><time>2020-01-12T12:14:27Z</time></trkpt>
    <trkpt lat="47.47583" lon="14.30387"><ele>1334</ele><time>2020-01-12T12:15:07Z</time></trkpt>
    <trkpt lat="47.47588" lon="14.30245"><ele>1349</ele><time>2020-01-12T12:15:48Z</time></trkpt>
    <trkpt lat="47.47662" lon="14.29629"><ele>1301</ele><time>2020-01-12T12:17:06Z</time></trkpt>
    <trkpt lat="47.47564" lon="14.29337"><ele>1295</ele><time>2020-01-12T12:17:46Z</time></trkpt>
    <trkpt lat="47.47562" lon="14.29314"><ele>1252</ele><time>2020-01-12T12:18:28Z</time></trkpt>
    <trkpt lat="47.47556" lon="14.29338"><ele>1265</ele><time>2020-01-12T12:19:46Z</time></trkpt>
    <trkpt lat="47.47512" lon="14.29353"><ele>1226</ele><time>2020-01-12T12:20:26Z</time></trkpt>
    <trkpt lat="47.47439" lon="14.29303"><ele>1216</ele><time>2020-01-12T12:21:47Z</time></trkpt>
    <trkpt lat="47.47429" lon="14.29301"><ele>1193</ele><time>2020-01-12T12:23:06Z</time></trkpt>
    <trkpt lat="47.47377" lon="14.29225"><ele>1224</ele><time>2020-01-12T12:25:49Z</time></trkpt>
    <trkpt lat="47.47367" lon="14.29218"><ele>1217</ele><time>2020-01-12T12:27:07Z</time></trkpt>
    <trkpt lat="47.47342" lon="14.29170"><ele>1160</ele><time>2020-01-12T12:29:06Z</time></trkpt>
    <trkpt lat="47.47333" lon="14.29132"><ele>1159</ele><time>2020-01-12T12:30:26Z</time></trkpt>
    <trkpt lat="47.47349" lon="14.28958"><ele>1063</ele><time>2020-01-12T12:33:47Z</time></trkpt>
    <trkpt lat="47.47190" lon="14.28909"><ele>1117</ele><time>2020-01-12T12:35:08Z</time></trkpt>
    <trkpt lat="47.47240" lon="14.28863"><ele>1086</ele><time>2020-01-12T12:36:27Z</time></trkpt>
    <trkpt lat="47.47214" lon="14.28764"><ele>1034</ele><time>2020-01-12T12:37:07Z</time></trkpt>
    <trkpt lat="47.47248" lon="14.28510"><ele>1053</ele><time>2020-01-12T12:38:28Z</time></trkpt>
    <trkpt lat="47.47283" lon="14.28450"><ele>977</ele><time>2020-01-12T12:39:48Z</time></trkpt>
    <trkpt lat="47.47284" lon="14.28434"><ele>987</ele><time>2020-01-12T12:41:47Z</time></trkpt>
    <trkpt lat="47.47282" lon="14.28421"><ele>995</ele><time>2020-01-12T12:44:27Z</time></trkpt>
    <trkpt lat="47.47278" lon="14.28394"><ele>1036</ele><time>2020-01-12T12:49:07Z</time></trkpt>
    <trkpt lat="47.47268" lon="14.28413"><ele>1038</ele><time>2020-01-12T12:49:49Z</time></trkpt>
  </trkseg>
</trk>
</gpx>