<?xml version="1.0" encoding="UTF-8"?>
<gpx version="1.1" creator="GPX-Pro" xmlns="http://www.topografix.com/GPX/1/1">
<rte>
  <name>200827_Lofer-Grubhörndl</name>
    <rtept lat="47.60771" lon="12.65463"></rtept>
    <rtept lat="47.60664" lon="12.65475"></rtept>
    <rtept lat="47.60684" lon="12.65702"></rtept>
    <rtept lat="47.60507" lon="12.65562"></rtept>
    <rtept lat="47.60393" lon="12.65405"></rtept>
    <rtept lat="47.60218" lon="12.65281"></rtept>
    <rtept lat="47.60137" lon="12.65387"></rtept>
    <rtept lat="47.60003" lon="12.65449"></rtept>
    <rtept lat="47.59911" lon="12.65435"></rtept>
    <rtept lat="47.59902" lon="12.65337"></rtept>
    <rtept lat="47.59867" lon="12.65411"></rtept>
    <rtept lat="47.59716" lon="12.65497"></rtept>
    <rtept lat="47.59689" lon="12.65630"></rtept>
    <rtept lat="47.59722" lon="12.65641"></rtept>
    <rtept lat="47.59662" lon="12.65703"></rtept>
    <rtept lat="47.59621" lon="12.65780"></rtept>
    <rtept lat="47.59621" lon="12.65865"></rtept>
    <rtept lat="47.59834" lon="12.65857"></rtept>
    <rtept lat="47.59807" lon="12.65946"></rtept>
    <rtept lat="47.59753" lon="12.65999"></rtept>
    <rtept lat="47.59718" lon="12.66020"></rtept>
    <rtept lat="47.59734" lon="12.66066"></rtept>
    <rtept lat="47.59688" lon="12.66079"></rtept>
    <rtept lat="47.59639" lon="12.66075"></rtept>
    <rtept lat="47.59560" lon="12.66133"></rtept>
    <rtept lat="47.59492" lon="12.66223"></rtept>
    <rtept lat="47.59375" lon="12.66294"></rtept>
    <rtept lat="47.59298" lon="12.66364"></rtept>
    <rtept lat="47.59248" lon="12.66374"></rtept>
    <rtept lat="47.59275" lon="12.66424"></rtept>
    <rtept lat="47.59260" lon="12.66459"></rtept>
    <rtept lat="47.59269" lon="12.66507"></rtept>
    <rtept lat="47.59247" lon="12.66515"></rtept>
    <rtept lat="47.59261" lon="12.66548"></rtept>
    <rtept lat="47.59247" lon="12.66574"></rtept>
    <rtept lat="47.59250" lon="12.66746"></rtept>
    <rtept lat="47.59263" lon="12.66783"></rtept>
    <rtept lat="47.59269" lon="12.66841"></rtept>
    <rtept lat="47.59259" lon="12.66907"></rtept>
    <rtept lat="47.59256" lon="12.66936"></rtept>
    <rtept lat="47.59269" lon="12.66837"></rtept>
    <rtept lat="47.59284" lon="12.66745"></rtept>
    <rtept lat="47.59298" lon="12.66696"></rtept>
    <rtept lat="47.59392" lon="12.66625"></rtept>
    <rtept lat="47.59401" lon="12.66657"></rtept>
    <rtept lat="47.59430" lon="12.66627"></rtept>
    <rtept lat="47.59433" lon="12.66678"></rtept>
    <rtept lat="47.59450" lon="12.66652"></rtept>
    <rtept lat="47.59593" lon="12.66656"></rtept>
    <rtept lat="47.59666" lon="12.66705"></rtept>
    <rtept lat="47.59758" lon="12.66738"></rtept>
    <rtept lat="47.59902" lon="12.66964"></rtept>
    <rtept lat="47.59902" lon="12.67051"></rtept>
    <rtept lat="47.59951" lon="12.67072"></rtept>
    <rtept lat="47.60005" lon="12.67159"></rtept>
    <rtept lat="47.60051" lon="12.67173"></rtept>
    <rtept lat="47.60075" lon="12.67135"></rtept>
    <rtept lat="47.60164" lon="12.67244"></rtept>
    <rtept lat="47.60195" lon="12.67237"></rtept>
    <rtept lat="47.60224" lon="12.67178"></rtept>
    <rtept lat="47.60315" lon="12.67085"></rtept>
    <rtept lat="47.60373" lon="12.67109"></rtept>
    <rtept lat="47.60414" lon="12.67088"></rtept>
    <rtept lat="47.60516" lon="12.66960"></rtept>
    <rtept lat="47.60588" lon="12.66804"></rtept>
    <rtept lat="47.60574" lon="12.66660"></rtept>
    <rtept lat="47.60596" lon="12.66647"></rtept>
    <rtept lat="47.60625" lon="12.66518"></rtept>
    <rtept lat="47.60784" lon="12.66444"></rtept>
    <rtept lat="47.60770" lon="12.66407"></rtept>
    <rtept lat="47.60737" lon="12.66109"></rtept>
    <rtept lat="47.60805" lon="12.65996"></rtept>
    <rtept lat="47.60798" lon="12.65904"></rtept>
    <rtept lat="47.60729" lon="12.65825"></rtept>
    <rtept lat="47.60689" lon="12.65708"></rtept>
    <rtept lat="47.60915" lon="12.65921"></rtept>
    <rtept lat="47.61186" lon="12.66330"></rtept>
    <rtept lat="47.61173" lon="12.66411"></rtept>
    <rtept lat="47.61039" lon="12.66442"></rtept>
    <rtept lat="47.61019" lon="12.66549"></rtept>
    <rtept lat="47.60918" lon="12.66561"></rtept>
    <rtept lat="47.60865" lon="12.66477"></rtept>
    <rtept lat="47.60691" lon="12.66558"></rtept>
    <rtept lat="47.60652" lon="12.66639"></rtept>
    <rtept lat="47.60679" lon="12.66685"></rtept>
    <rtept lat="47.60688" lon="12.66937"></rtept>
    <rtept lat="47.60612" lon="12.67325"></rtept>
    <rtept lat="47.60642" lon="12.67491"></rtept>
    <rtept lat="47.60586" lon="12.67536"></rtept>
    <rtept lat="47.60514" lon="12.67565"></rtept>
    <rtept lat="47.60482" lon="12.67685"></rtept>
    <rtept lat="47.60424" lon="12.67730"></rtept>
    <rtept lat="47.60431" lon="12.67822"></rtept>
    <rtept lat="47.60515" lon="12.67972"></rtept>
    <rtept lat="47.60455" lon="12.68070"></rtept>
    <rtept lat="47.60405" lon="12.68079"></rtept>
    <rtept lat="47.60395" lon="12.68371"></rtept>
    <rtept lat="47.60367" lon="12.68454"></rtept>
    <rtept lat="47.60390" lon="12.68487"></rtept>
    <rtept lat="47.60325" lon="12.68656"></rtept>
    <rtept lat="47.60316" lon="12.68736"></rtept>
    <rtept lat="47.60296" lon="12.68852"></rtept>
    <rtept lat="47.60266" lon="12.68918"></rtept>
    <rtept lat="47.60231" lon="12.68914"></rtept>
    <rtept lat="47.60208" lon="12.68938"></rtept>
    <rtept lat="47.60247" lon="12.69026"></rtept>
    <rtept lat="47.60251" lon="12.69060"></rtept>
    <rtept lat="47.60189" lon="12.69047"></rtept>
    <rtept lat="47.60100" lon="12.68991"></rtept>
    <rtept lat="47.60084" lon="12.68966"></rtept>
    <rtept lat="47.60074" lon="12.68931"></rtept>
    <rtept lat="47.60060" lon="12.68916"></rtept>
    <rtept lat="47.60028" lon="12.68911"></rtept>
    <rtept lat="47.60008" lon="12.68892"></rtept>
    <rtept lat="47.60004" lon="12.68848"></rtept>
    <rtept lat="47.60017" lon="12.68830"></rtept>
    <rtept lat="47.60000" lon="12.68749"></rtept>
    <rtept lat="47.59978" lon="12.68713"></rtept>
    <rtept lat="47.59915" lon="12.68757"></rtept>
    <rtept lat="47.59840" lon="12.68762"></rtept>
    <rtept lat="47.59829" lon="12.68883"></rtept>
    <rtept lat="47.59846" lon="12.68895"></rtept>
    <rtept lat="47.59835" lon="12.68941"></rtept>
    <rtept lat="47.59798" lon="12.68950"></rtept>
    <rtept lat="47.59778" lon="12.68938"></rtept>
    <rtept lat="47.59758" lon="12.69011"></rtept>
    <rtept lat="47.59612" lon="12.69060"></rtept>
    <rtept lat="47.59456" lon="12.69145"></rtept>
    <rtept lat="47.59394" lon="12.69129"></rtept>
    <rtept lat="47.59266" lon="12.69217"></rtept>
    <rtept lat="47.59015" lon="12.69086"></rtept>
    <rtept lat="47.58958" lon="12.69114"></rtept>
    <rtept lat="47.58892" lon="12.69085"></rtept>
    <rtept lat="47.58868" lon="12.69079"></rtept>
    <rtept lat="47.58863" lon="12.69167"></rtept>
    <rtept lat="47.58724" lon="12.69294"></rtept>
    <rtept lat="47.58692" lon="12.69269"></rtept>
    <rtept lat="47.58653" lon="12.69258"></rtept>
    <rtept lat="47.58638" lon="12.69291"></rtept>
    <rtept lat="47.58541" lon="12.69335"></rtept>
    <rtept lat="47.58546" lon="12.69369"></rtept>
    <rtept lat="47.58497" lon="12.69478"></rtept>
    <rtept lat="47.58421" lon="12.69582"></rtept>
    <rtept lat="47.58388" lon="12.69535"></rtept>
    <rtept lat="47.58368" lon="12.69546"></rtept>
    <rtept lat="47.58281" lon="12.69831"></rtept>
    <rtept lat="47.58266" lon="12.69816"></rtept>
    <rtept lat="47.58273" lon="12.70111"></rtept>
    <rtept lat="47.58322" lon="12.70190"></rtept>
    <rtept lat="47.58275" lon="12.70342"></rtept>
    <rtept lat="47.57602" lon="12.70915"></rtept>
    <rtept lat="47.57610" lon="12.70825"></rtept>
    <rtept lat="47.57541" lon="12.70842"></rtept>
    <rtept lat="47.57446" lon="12.70739"></rtept>
    <rtept lat="47.57446" lon="12.70637"></rtept>
    <rtept lat="47.57303" lon="12.70575"></rtept>
</rte>
</gpx>