<?xml version="1.0" encoding="UTF-8"?>
<gpx version="1.1" creator="GPX-Pro" xmlns="http://www.topografix.com/GPX/1/1">
<trk>
  <name>Hike_Elexenkogel-Ost</name>
  <trkseg>
    <trkpt lat="47.76970" lon="13.63617"><ele>527</ele><time>2020-11-27T07:20:16Z</time></trkpt>
    <trkpt lat="47.77004" lon="13.63586"><ele>533</ele><time>2020-11-27T07:20:45Z</time></trkpt>
    <trkpt lat="47.77097" lon="13.63533"><ele>520</ele><time>2020-11-27T07:23:04Z</time></trkpt>
    <trkpt lat="47.77219" lon="13.63546"><ele>534</ele><time>2020-11-27T07:23:34Z</time></trkpt>
    <trkpt lat="47.77256" lon="13.63544"><ele>526</ele><time>2020-11-27T07:24:03Z</time></trkpt>
    <trkpt lat="47.77318" lon="13.63510"><ele>527</ele><time>2020-11-27T07:24:27Z</time></trkpt>
    <trkpt lat="47.77344" lon="13.63599"><ele>532</ele><time>2020-11-27T07:25:32Z</time></trkpt>
    <trkpt lat="47.77415" lon="13.63675"><ele>537</ele><time>2020-11-27T07:26:51Z</time></trkpt>
    <trkpt lat="47.77566" lon="13.63596"><ele>550</ele><time>2020-11-27T07:30:24Z</time></trkpt>
    <trkpt lat="47.77720" lon="13.63677"><ele>598</ele><time>2020-11-27T07:33:53Z</time></trkpt>
    <trkpt lat="47.78080" lon="13.63628"><ele>551</ele><time>2020-11-27T07:36:51Z</time></trkpt>
    <trkpt lat="47.78097" lon="13.63606"><ele>556</ele><time>2020-11-27T07:37:23Z</time></trkpt>
    <trkpt lat="47.78202" lon="13.63408"><ele>572</ele><time>2020-11-27T07:39:25Z</time></trkpt>
    <trkpt lat="47.78255" lon="13.63026"><ele>633</ele><time>2020-11-27T07:44:20Z</time></trkpt>
    <trkpt lat="47.78310" lon="13.62999"><ele>601</ele><time>2020-11-27T07:46:11Z</time></trkpt>
    <trkpt lat="47.78314" lon="13.63014"><ele>605</ele><time>2020-11-27T07:46:28Z</time></trkpt>
    <trkpt lat="47.78281" lon="13.63173"><ele>595</ele><time>2020-11-27T07:48:33Z</time></trkpt>
    <trkpt lat="47.78313" lon="13.63249"><ele>618</ele><time>2020-11-27T07:49:15Z</time></trkpt>
    <trkpt lat="47.78350" lon="13.63325"><ele>617</ele><time>2020-11-27T07:49:38Z</time></trkpt>
    <trkpt lat="47.78437" lon="13.63228"><ele>684</ele><time>2020-11-27T07:52:34Z</time></trkpt>
    <trkpt lat="47.78517" lon="13.63090"><ele>718</ele><time>2020-11-27T07:56:24Z</time></trkpt>
    <trkpt lat="47.78607" lon="13.63084"><ele>729</ele><time>2020-11-27T07:58:13Z</time></trkpt>
    <trkpt lat="47.78632" lon="13.63094"><ele>703</ele><time>2020-11-27T07:59:06Z</time></trkpt>
    <trkpt lat="47.78659" lon="13.63084"><ele>709</ele><time>2020-11-27T07:59:38Z</time></trkpt>
    <trkpt lat="47.78693" lon="13.63060"><ele>719</ele><time>2020-11-27T08:00:33Z</time></trkpt>
    <trkpt lat="47.78728" lon="13.63169"><ele>733</ele><time>2020-11-27T08:04:03Z</time></trkpt>
    <trkpt lat="47.78726" lon="13.63270"><ele>763</ele><time>2020-11-27T08:07:13Z</time></trkpt>
    <trkpt lat="47.78784" lon="13.63280"><ele>753</ele><time>2020-11-27T08:10:35Z</time></trkpt>
    <trkpt lat="47.78802" lon="13.63245"><ele>821</ele><time>2020-11-27T08:11:50Z</time></trkpt>
    <trkpt lat="47.78813" lon="13.63306"><ele>813</ele><time>2020-11-27T08:13:11Z</time></trkpt>
    <trkpt lat="47.78807" lon="13.63336"><ele>805</ele><time>2020-11-27T08:13:39Z</time></trkpt>
    <trkpt lat="47.78805" lon="13.63406"><ele>812</ele><time>2020-11-27T08:14:47Z</time></trkpt>
    <trkpt lat="47.78885" lon="13.63323"><ele>748</ele><time>2020-11-27T08:17:22Z</time></trkpt>
    <trkpt lat="47.78968" lon="13.63321"><ele>815</ele><time>2020-11-27T08:17:46Z</time></trkpt>
    <trkpt lat="47.79016" lon="13.63340"><ele>876</ele><time>2020-11-27T08:22:04Z</time></trkpt>
    <trkpt lat="47.79058" lon="13.63402"><ele>877</ele><time>2020-11-27T08:22:56Z</time></trkpt>
    <trkpt lat="47.79139" lon="13.63327"><ele>869</ele><time>2020-11-27T08:24:26Z</time></trkpt>
    <trkpt lat="47.79212" lon="13.63321"><ele>875</ele><time>2020-11-27T08:25:22Z</time></trkpt>
    <trkpt lat="47.79175" lon="13.63373"><ele>827</ele><time>2020-11-27T08:27:05Z</time></trkpt>
    <trkpt lat="47.79181" lon="13.63341"><ele>876</ele><time>2020-11-27T08:27:38Z</time></trkpt>
    <trkpt lat="47.79307" lon="13.63344"><ele>900</ele><time>2020-11-27T08:31:38Z</time></trkpt>
    <trkpt lat="47.79287" lon="13.63364"><ele>948</ele><time>2020-11-27T08:34:59Z</time></trkpt>
    <trkpt lat="47.79260" lon="13.63383"><ele>953</ele><time>2020-11-27T08:35:28Z</time></trkpt>
    <trkpt lat="47.79226" lon="13.63445"><ele>949</ele><time>2020-11-27T08:36:45Z</time></trkpt>
    <trkpt lat="47.79202" lon="13.63440"><ele>974</ele><time>2020-11-27T08:37:14Z</time></trkpt>
    <trkpt lat="47.79168" lon="13.63488"><ele>981</ele><time>2020-11-27T08:38:11Z</time></trkpt>
    <trkpt lat="47.79155" lon="13.63510"><ele>960</ele><time>2020-11-27T08:38:40Z</time></trkpt>
    <trkpt lat="47.79136" lon="13.63550"><ele>1010</ele><time>2020-11-27T08:41:19Z</time></trkpt>
    <trkpt lat="47.79121" lon="13.63642"><ele>993</ele><time>2020-11-27T08:45:56Z</time></trkpt>
    <trkpt lat="47.79087" lon="13.63738"><ele>1044</ele><time>2020-11-27T08:48:58Z</time></trkpt>
    <trkpt lat="47.79093" lon="13.63861"><ele>1110</ele><time>2020-11-27T08:52:47Z</time></trkpt>
    <trkpt lat="47.79116" lon="13.63937"><ele>1091</ele><time>2020-11-27T08:53:50Z</time></trkpt>
    <trkpt lat="47.79166" lon="13.63952"><ele>1007</ele><time>2020-11-27T08:58:06Z</time></trkpt>
    <trkpt lat="47.79141" lon="13.63973"><ele>1081</ele><time>2020-11-27T09:00:00Z</time></trkpt>
    <trkpt lat="47.79152" lon="13.63975"><ele>1065</ele><time>2020-11-27T09:00:21Z</time></trkpt>
    <trkpt lat="47.79251" lon="13.64170"><ele>1073</ele><time>2020-11-27T09:03:41Z</time></trkpt>
    <trkpt lat="47.79287" lon="13.64192"><ele>1112</ele><time>2020-11-27T09:05:44Z</time></trkpt>
    <trkpt lat="47.79327" lon="13.64263"><ele>1084</ele><time>2020-11-27T09:06:13Z</time></trkpt>
    <trkpt lat="47.79373" lon="13.64390"><ele>1102</ele><time>2020-11-27T09:09:13Z</time></trkpt>
    <trkpt lat="47.79414" lon="13.64402"><ele>1128</ele><time>2020-11-27T09:12:12Z</time></trkpt>
    <trkpt lat="47.79466" lon="13.64475"><ele>1161</ele><time>2020-11-27T09:14:51Z</time></trkpt>
    <trkpt lat="47.79497" lon="13.64594"><ele>1146</ele><time>2020-11-27T09:17:35Z</time></trkpt>
    <trkpt lat="47.79483" lon="13.64586"><ele>1168</ele><time>2020-11-27T09:18:11Z</time></trkpt>
    <trkpt lat="47.79490" lon="13.64618"><ele>1184</ele><time>2020-11-27T09:20:20Z</time></trkpt>
    <trkpt lat="47.79543" lon="13.64614"><ele>1193</ele><time>2020-11-27T09:22:21Z</time></trkpt>
    <trkpt lat="47.79587" lon="13.64614"><ele>1198</ele><time>2020-11-27T09:24:33Z</time></trkpt>
    <trkpt lat="47.79610" lon="13.64620"><ele>1236</ele><time>2020-11-27T09:26:30Z</time></trkpt>
    <trkpt lat="47.79653" lon="13.64610"><ele>1238</ele><time>2020-11-27T09:29:23Z</time></trkpt>
    <trkpt lat="47.79675" lon="13.64589"><ele>1241</ele><time>2020-11-27T09:30:02Z</time></trkpt>
    <trkpt lat="47.79680" lon="13.64554"><ele>1197</ele><time>2020-11-27T09:31:58Z</time></trkpt>
    <trkpt lat="47.79692" lon="13.64536"><ele>1294</ele><time>2020-11-27T09:36:39Z</time></trkpt>
    <trkpt lat="47.79743" lon="13.64512"><ele>1313</ele><time>2020-11-27T09:40:49Z</time></trkpt>
    <trkpt lat="47.79777" lon="13.64532"><ele>1339</ele><time>2020-11-27T09:42:52Z</time></trkpt>
    <trkpt lat="47.79808" lon="13.64539"><ele>1375</ele><time>2020-11-27T09:46:28Z</time></trkpt>
    <trkpt lat="47.79872" lon="13.64560"><ele>1432</ele><time>2020-11-27T09:50:59Z</time></trkpt>
    <trkpt lat="47.79900" lon="13.64553"><ele>1395</ele><time>2020-11-27T09:55:54Z</time></trkpt>
    <trkpt lat="47.79969" lon="13.64601"><ele>1463</ele><time>2020-11-27T10:02:10Z</time></trkpt>
    <trkpt lat="47.79980" lon="13.64567"><ele>1442</ele><time>2020-11-27T10:05:08Z</time></trkpt>
    <trkpt lat="47.79994" lon="13.64569"><ele>1446</ele><time>2020-11-27T10:12:11Z</time></trkpt>
    <trkpt lat="47.79989" lon="13.64502"><ele>1390</ele><time>2020-11-27T10:13:29Z</time></trkpt>
    <trkpt lat="47.80001" lon="13.64509"><ele>1377</ele><time>2020-11-27T10:15:18Z</time></trkpt>
    <trkpt lat="47.80018" lon="13.64527"><ele>1572</ele><time>2020-11-27T10:39:39Z</time></trkpt>
    <trkpt lat="47.80022" lon="13.64511"><ele>1559</ele><time>2020-11-27T10:45:05Z</time></trkpt>
    <trkpt lat="47.80024" lon="13.64494"><ele>1545</ele><time>2020-11-27T10:47:05Z</time></trkpt>
    <trkpt lat="47.80053" lon="13.64524"><ele>1571</ele><time>2020-11-27T10:54:43Z</time></trkpt>
    <trkpt lat="47.80063" lon="13.64533"><ele>1598</ele><time>2020-11-27T10:57:10Z</time></trkpt>
    <trkpt lat="47.80074" lon="13.64545"><ele>1577</ele><time>2020-11-27T10:59:28Z</time></trkpt>
    <trkpt lat="47.80077" lon="13.64566"><ele>1618</ele><time>2020-11-27T11:05:14Z</time></trkpt>
    <trkpt lat="47.80087" lon="13.64570"><ele>1515</ele><time>2020-11-27T11:07:39Z</time></trkpt>
    <trkpt lat="47.80103" lon="13.64572"><ele>1623</ele><time>2020-11-27T11:11:16Z</time></trkpt>
    <trkpt lat="47.80147" lon="13.64559"><ele>843</ele><time>2020-11-27T11:12:32Z</time></trkpt>
    <trkpt lat="47.80148" lon="13.64539"><ele>1637</ele><time>2020-11-27T11:17:56Z</time></trkpt>
    <trkpt lat="47.80144" lon="13.64503"><ele>1661</ele><time>2020-11-27T11:19:49Z</time></trkpt>
    <trkpt lat="47.80145" lon="13.64481"><ele>1465</ele><time>2020-11-27T11:26:36Z</time></trkpt>
    <trkpt lat="47.80139" lon="13.64465"><ele>1685</ele><time>2020-11-27T11:28:07Z</time></trkpt>
    <trkpt lat="47.80156" lon="13.64449"><ele>1568</ele><time>2020-11-27T11:31:25Z</time></trkpt>
    <trkpt lat="47.80153" lon="13.64434"><ele>1690</ele><time>2020-11-27T11:34:03Z</time></trkpt>
    <trkpt lat="47.80177" lon="13.64416"><ele>1226</ele><time>2020-11-27T11:35:38Z</time></trkpt>
    <trkpt lat="47.80206" lon="13.64334"><ele>1736</ele><time>2020-11-27T11:39:39Z</time></trkpt>
    <trkpt lat="47.80204" lon="13.64320"><ele>1733</ele><time>2020-11-27T11:41:19Z</time></trkpt>
    <trkpt lat="47.80208" lon="13.64333"><ele>1737</ele><time>2020-11-27T11:41:49Z</time></trkpt>
    <trkpt lat="47.80214" lon="13.64354"><ele>1708</ele><time>2020-11-27T11:50:26Z</time></trkpt>
    <trkpt lat="47.80208" lon="13.64332"><ele>1733</ele><time>2020-11-27T11:52:22Z</time></trkpt>
    <trkpt lat="47.80220" lon="13.64354"><ele>1716</ele><time>2020-11-27T11:54:42Z</time></trkpt>
    <trkpt lat="47.80212" lon="13.64333"><ele>1548</ele><time>2020-11-27T11:55:34Z</time></trkpt>
    <trkpt lat="47.80202" lon="13.64343"><ele>1732</ele><time>2020-11-27T12:03:14Z</time></trkpt>
    <trkpt lat="47.80221" lon="13.64344"><ele>1731</ele><time>2020-11-27T12:05:39Z</time></trkpt>
    <trkpt lat="47.80233" lon="13.64412"><ele>1707</ele><time>2020-11-27T12:07:28Z</time></trkpt>
    <trkpt lat="47.80231" lon="13.64428"><ele>1705</ele><time>2020-11-27T12:07:58Z</time></trkpt>
    <trkpt lat="47.80232" lon="13.64503"><ele>1598</ele><time>2020-11-27T12:09:45Z</time></trkpt>
    <trkpt lat="47.80255" lon="13.64529"><ele>1688</ele><time>2020-11-27T12:11:41Z</time></trkpt>
    <trkpt lat="47.80222" lon="13.64571"><ele>1659</ele><time>2020-11-27T12:12:52Z</time></trkpt>
    <trkpt lat="47.80261" lon="13.64607"><ele>1678</ele><time>2020-11-27T12:15:30Z</time></trkpt>
    <trkpt lat="47.80267" lon="13.64620"><ele>1670</ele><time>2020-11-27T12:16:20Z</time></trkpt>
    <trkpt lat="47.80297" lon="13.64707"><ele>1694</ele><time>2020-11-27T12:19:52Z</time></trkpt>
    <trkpt lat="47.80301" lon="13.64746"><ele>1673</ele><time>2020-11-27T12:22:13Z</time></trkpt>
    <trkpt lat="47.80304" lon="13.64797"><ele>1664</ele><time>2020-11-27T12:23:32Z</time></trkpt>
    <trkpt lat="47.80293" lon="13.64796"><ele>1658</ele><time>2020-11-27T12:24:34Z</time></trkpt>
    <trkpt lat="47.80288" lon="13.64774"><ele>1676</ele><time>2020-11-27T12:25:59Z</time></trkpt>
    <trkpt lat="47.80291" lon="13.64789"><ele>1667</ele><time>2020-11-27T12:27:02Z</time></trkpt>
    <trkpt lat="47.80241" lon="13.64797"><ele>1669</ele><time>2020-11-27T12:30:47Z</time></trkpt>
    <trkpt lat="47.80253" lon="13.64794"><ele>1652</ele><time>2020-11-27T12:31:31Z</time></trkpt>
    <trkpt lat="47.80193" lon="13.64868"><ele>1725</ele><time>2020-11-27T12:32:24Z</time></trkpt>
    <trkpt lat="47.80196" lon="13.64885"><ele>1706</ele><time>2020-11-27T12:35:09Z</time></trkpt>
    <trkpt lat="47.80138" lon="13.64874"><ele>1686</ele><time>2020-11-27T12:36:24Z</time></trkpt>
    <trkpt lat="47.80154" lon="13.64909"><ele>1606</ele><time>2020-11-27T12:37:02Z</time></trkpt>
    <trkpt lat="47.80143" lon="13.64928"><ele>1586</ele><time>2020-11-27T12:37:48Z</time></trkpt>
    <trkpt lat="47.80091" lon="13.64895"><ele>1580</ele><time>2020-11-27T12:39:46Z</time></trkpt>
    <trkpt lat="47.80073" lon="13.64883"><ele>1555</ele><time>2020-11-27T12:40:21Z</time></trkpt>
    <trkpt lat="47.80062" lon="13.64885"><ele>1568</ele><time>2020-11-27T12:40:42Z</time></trkpt>
    <trkpt lat="47.80040" lon="13.64858"><ele>1519</ele><time>2020-11-27T12:42:03Z</time></trkpt>
    <trkpt lat="47.79987" lon="13.64838"><ele>1470</ele><time>2020-11-27T12:45:00Z</time></trkpt>
    <trkpt lat="47.79947" lon="13.64737"><ele>1555</ele><time>2020-11-27T12:48:06Z</time></trkpt>
    <trkpt lat="47.79926" lon="13.64638"><ele>1539</ele><time>2020-11-27T12:52:14Z</time></trkpt>
    <trkpt lat="47.79656" lon="13.64586"><ele>1278</ele><time>2020-11-27T13:01:17Z</time></trkpt>
    <trkpt lat="47.79650" lon="13.64610"><ele>1256</ele><time>2020-11-27T13:04:53Z</time></trkpt>
    <trkpt lat="47.79624" lon="13.64618"><ele>1243</ele><time>2020-11-27T13:13:06Z</time></trkpt>
    <trkpt lat="47.79498" lon="13.64609"><ele>1177</ele><time>2020-11-27T13:17:55Z</time></trkpt>
    <trkpt lat="47.79472" lon="13.64431"><ele>1192</ele><time>2020-11-27T13:19:37Z</time></trkpt>
    <trkpt lat="47.79404" lon="13.64395"><ele>1160</ele><time>2020-11-27T13:22:17Z</time></trkpt>
    <trkpt lat="47.79342" lon="13.64325"><ele>1077</ele><time>2020-11-27T13:24:52Z</time></trkpt>
    <trkpt lat="47.79243" lon="13.64138"><ele>1059</ele><time>2020-11-27T13:27:48Z</time></trkpt>
    <trkpt lat="47.79160" lon="13.63999"><ele>1060</ele><time>2020-11-27T13:30:50Z</time></trkpt>
    <trkpt lat="47.79136" lon="13.63941"><ele>1061</ele><time>2020-11-27T13:32:33Z</time></trkpt>
    <trkpt lat="47.79118" lon="13.63960"><ele>1070</ele><time>2020-11-27T13:33:02Z</time></trkpt>
    <trkpt lat="47.79150" lon="13.63963"><ele>1041</ele><time>2020-11-27T13:34:37Z</time></trkpt>
    <trkpt lat="47.79132" lon="13.63967"><ele>1088</ele><time>2020-11-27T13:38:28Z</time></trkpt>
    <trkpt lat="47.79123" lon="13.63972"><ele>1075</ele><time>2020-11-27T13:39:32Z</time></trkpt>
    <trkpt lat="47.79117" lon="13.63865"><ele>960</ele><time>2020-11-27T13:42:29Z</time></trkpt>
    <trkpt lat="47.79115" lon="13.63667"><ele>987</ele><time>2020-11-27T13:46:34Z</time></trkpt>
    <trkpt lat="47.79117" lon="13.63586"><ele>983</ele><time>2020-11-27T13:48:47Z</time></trkpt>
    <trkpt lat="47.79283" lon="13.63351"><ele>932</ele><time>2020-11-27T13:53:51Z</time></trkpt>
    <trkpt lat="47.79053" lon="13.63400"><ele>621</ele><time>2020-11-27T13:57:30Z</time></trkpt>
    <trkpt lat="47.79033" lon="13.63380"><ele>877</ele><time>2020-11-27T13:59:30Z</time></trkpt>
    <trkpt lat="47.79022" lon="13.63348"><ele>871</ele><time>2020-11-27T14:00:00Z</time></trkpt>
    <trkpt lat="47.78981" lon="13.63318"><ele>839</ele><time>2020-11-27T14:02:01Z</time></trkpt>
    <trkpt lat="47.78802" lon="13.63406"><ele>872</ele><time>2020-11-27T14:05:04Z</time></trkpt>
    <trkpt lat="47.78813" lon="13.63261"><ele>821</ele><time>2020-11-27T14:08:08Z</time></trkpt>
    <trkpt lat="47.78745" lon="13.63311"><ele>754</ele><time>2020-11-27T14:10:52Z</time></trkpt>
    <trkpt lat="47.78706" lon="13.63251"><ele>673</ele><time>2020-11-27T14:12:09Z</time></trkpt>
    <trkpt lat="47.78732" lon="13.63149"><ele>707</ele><time>2020-11-27T14:13:36Z</time></trkpt>
    <trkpt lat="47.78687" lon="13.63146"><ele>721</ele><time>2020-11-27T14:14:29Z</time></trkpt>
    <trkpt lat="47.78663" lon="13.63152"><ele>717</ele><time>2020-11-27T14:15:01Z</time></trkpt>
    <trkpt lat="47.78694" lon="13.63077"><ele>716</ele><time>2020-11-27T14:16:04Z</time></trkpt>
    <trkpt lat="47.78693" lon="13.63052"><ele>721</ele><time>2020-11-27T14:16:33Z</time></trkpt>
    <trkpt lat="47.78666" lon="13.63079"><ele>661</ele><time>2020-11-27T14:17:03Z</time></trkpt>
    <trkpt lat="47.78520" lon="13.63132"><ele>690</ele><time>2020-11-27T14:19:40Z</time></trkpt>
    <trkpt lat="47.78440" lon="13.63244"><ele>655</ele><time>2020-11-27T14:22:18Z</time></trkpt>
    <trkpt lat="47.78366" lon="13.63332"><ele>607</ele><time>2020-11-27T14:24:13Z</time></trkpt>
    <trkpt lat="47.78282" lon="13.63120"><ele>631</ele><time>2020-11-27T14:26:44Z</time></trkpt>
    <trkpt lat="47.78325" lon="13.62999"><ele>583</ele><time>2020-11-27T14:30:30Z</time></trkpt>
    <trkpt lat="47.78263" lon="13.63015"><ele>596</ele><time>2020-11-27T14:33:20Z</time></trkpt>
    <trkpt lat="47.78203" lon="13.63193"><ele>570</ele><time>2020-11-27T14:36:49Z</time></trkpt>
    <trkpt lat="47.78239" lon="13.63352"><ele>611</ele><time>2020-11-27T14:38:18Z</time></trkpt>
    <trkpt lat="47.78052" lon="13.63642"><ele>569</ele><time>2020-11-27T14:42:46Z</time></trkpt>
    <trkpt lat="47.77880" lon="13.63655"><ele>547</ele><time>2020-11-27T14:45:45Z</time></trkpt>
    <trkpt lat="47.77551" lon="13.63576"><ele>563</ele><time>2020-11-27T14:49:59Z</time></trkpt>
    <trkpt lat="47.77423" lon="13.63687"><ele>505</ele><time>2020-11-27T14:52:05Z</time></trkpt>
    <trkpt lat="47.77334" lon="13.63526"><ele>572</ele><time>2020-11-27T14:54:06Z</time></trkpt>
    <trkpt lat="47.77114" lon="13.63536"><ele>545</ele><time>2020-11-27T14:54:54Z</time></trkpt>
    <trkpt lat="47.76980" lon="13.63605"><ele>539</ele><time>2020-11-27T14:58:12Z</time></trkpt>
    <trkpt lat="47.76765" lon="13.63717"><ele>473</ele><time>2020-11-27T15:01:14Z</time></trkpt>
    <trkpt lat="47.76661" lon="13.63768"><ele>546</ele><time>2020-11-27T15:02:56Z</time></trkpt>
    <trkpt lat="47.76661" lon="13.63782"><ele>529</ele><time>2020-11-27T15:03:26Z</time></trkpt>
    <trkpt lat="47.76640" lon="13.63766"><ele>551</ele><time>2020-11-27T15:04:30Z</time></trkpt>
    <trkpt lat="47.76657" lon="13.63792"><ele>545</ele><time>2020-11-27T15:05:23Z</time></trkpt>
    <trkpt lat="47.76668" lon="13.63781"><ele>664</ele><time>2020-11-27T15:06:26Z</time></trkpt>
  </trkseg>
</trk>
</gpx>