<?xml version="1.0" encoding="UTF-8"?>
<gpx version="1.1" creator="GPX-Pro" xmlns="http://www.topografix.com/GPX/1/1">
<trk>
  <name>Hike_OchsenkogelHirschwaldstein</name>
  <trkseg>
    <trkpt lat="47.86609" lon="14.16988"><ele>594</ele><time>2020-11-14T08:33:35Z</time></trkpt>
    <trkpt lat="47.86656" lon="14.16974"><ele>568</ele><time>2020-11-14T08:34:05Z</time></trkpt>
    <trkpt lat="47.86706" lon="14.16958"><ele>570</ele><time>2020-11-14T08:34:57Z</time></trkpt>
    <trkpt lat="47.86738" lon="14.16940"><ele>574</ele><time>2020-11-14T08:35:27Z</time></trkpt>
    <trkpt lat="47.86775" lon="14.16901"><ele>564</ele><time>2020-11-14T08:38:17Z</time></trkpt>
    <trkpt lat="47.86857" lon="14.16778"><ele>620</ele><time>2020-11-14T08:40:19Z</time></trkpt>
    <trkpt lat="47.86884" lon="14.16584"><ele>634</ele><time>2020-11-14T08:44:18Z</time></trkpt>
    <trkpt lat="47.86912" lon="14.16460"><ele>675</ele><time>2020-11-14T08:47:30Z</time></trkpt>
    <trkpt lat="47.86920" lon="14.16428"><ele>661</ele><time>2020-11-14T08:48:33Z</time></trkpt>
    <trkpt lat="47.86991" lon="14.16355"><ele>691</ele><time>2020-11-14T08:51:36Z</time></trkpt>
    <trkpt lat="47.87023" lon="14.16351"><ele>711</ele><time>2020-11-14T08:52:43Z</time></trkpt>
    <trkpt lat="47.87055" lon="14.16320"><ele>720</ele><time>2020-11-14T08:53:51Z</time></trkpt>
    <trkpt lat="47.87105" lon="14.16220"><ele>733</ele><time>2020-11-14T08:57:06Z</time></trkpt>
    <trkpt lat="47.87153" lon="14.16010"><ele>786</ele><time>2020-11-14T09:02:27Z</time></trkpt>
    <trkpt lat="47.87170" lon="14.15968"><ele>778</ele><time>2020-11-14T09:04:52Z</time></trkpt>
    <trkpt lat="47.87212" lon="14.15984"><ele>798</ele><time>2020-11-14T09:09:09Z</time></trkpt>
    <trkpt lat="47.87293" lon="14.16198"><ele>810</ele><time>2020-11-14T09:19:06Z</time></trkpt>
    <trkpt lat="47.87353" lon="14.16163"><ele>815</ele><time>2020-11-14T09:20:35Z</time></trkpt>
    <trkpt lat="47.87387" lon="14.16126"><ele>828</ele><time>2020-11-14T09:21:41Z</time></trkpt>
    <trkpt lat="47.87405" lon="14.16080"><ele>827</ele><time>2020-11-14T09:23:25Z</time></trkpt>
    <trkpt lat="47.87403" lon="14.16045"><ele>896</ele><time>2020-11-14T09:24:32Z</time></trkpt>
    <trkpt lat="47.87420" lon="14.16030"><ele>908</ele><time>2020-11-14T09:25:40Z</time></trkpt>
    <trkpt lat="47.87435" lon="14.16027"><ele>913</ele><time>2020-11-14T09:26:16Z</time></trkpt>
    <trkpt lat="47.87446" lon="14.16017"><ele>912</ele><time>2020-11-14T09:26:50Z</time></trkpt>
    <trkpt lat="47.87478" lon="14.15971"><ele>926</ele><time>2020-11-14T09:33:28Z</time></trkpt>
    <trkpt lat="47.87500" lon="14.16049"><ele>931</ele><time>2020-11-14T09:33:57Z</time></trkpt>
    <trkpt lat="47.87537" lon="14.16077"><ele>927</ele><time>2020-11-14T09:34:23Z</time></trkpt>
    <trkpt lat="47.87606" lon="14.16150"><ele>926</ele><time>2020-11-14T09:37:44Z</time></trkpt>
    <trkpt lat="47.87666" lon="14.16296"><ele>931</ele><time>2020-11-14T09:41:27Z</time></trkpt>
    <trkpt lat="47.87690" lon="14.16389"><ele>929</ele><time>2020-11-14T09:43:09Z</time></trkpt>
    <trkpt lat="47.87708" lon="14.16425"><ele>963</ele><time>2020-11-14T09:51:12Z</time></trkpt>
    <trkpt lat="47.87707" lon="14.16443"><ele>953</ele><time>2020-11-14T09:58:11Z</time></trkpt>
    <trkpt lat="47.87729" lon="14.16514"><ele>967</ele><time>2020-11-14T10:01:09Z</time></trkpt>
    <trkpt lat="47.87827" lon="14.16752"><ele>987</ele><time>2020-11-14T10:07:16Z</time></trkpt>
    <trkpt lat="47.87982" lon="14.17000"><ele>945</ele><time>2020-11-14T10:12:39Z</time></trkpt>
    <trkpt lat="47.88044" lon="14.17083"><ele>995</ele><time>2020-11-14T10:15:13Z</time></trkpt>
    <trkpt lat="47.88081" lon="14.17118"><ele>1008</ele><time>2020-11-14T10:15:48Z</time></trkpt>
    <trkpt lat="47.88143" lon="14.17197"><ele>1029</ele><time>2020-11-14T10:26:59Z</time></trkpt>
    <trkpt lat="47.88175" lon="14.17269"><ele>1043</ele><time>2020-11-14T10:28:26Z</time></trkpt>
    <trkpt lat="47.88204" lon="14.17291"><ele>1044</ele><time>2020-11-14T10:29:56Z</time></trkpt>
    <trkpt lat="47.88215" lon="14.17312"><ele>1056</ele><time>2020-11-14T10:31:23Z</time></trkpt>
    <trkpt lat="47.88356" lon="14.17228"><ele>1055</ele><time>2020-11-14T10:33:43Z</time></trkpt>
    <trkpt lat="47.88384" lon="14.17098"><ele>1047</ele><time>2020-11-14T10:43:25Z</time></trkpt>
    <trkpt lat="47.88492" lon="14.17082"><ele>989</ele><time>2020-11-14T10:45:24Z</time></trkpt>
    <trkpt lat="47.88500" lon="14.17075"><ele>999</ele><time>2020-11-14T10:45:54Z</time></trkpt>
    <trkpt lat="47.88514" lon="14.17063"><ele>1004</ele><time>2020-11-14T10:46:24Z</time></trkpt>
    <trkpt lat="47.88535" lon="14.17056"><ele>998</ele><time>2020-11-14T10:46:53Z</time></trkpt>
    <trkpt lat="47.88557" lon="14.17021"><ele>996</ele><time>2020-11-14T10:47:32Z</time></trkpt>
    <trkpt lat="47.88557" lon="14.16912"><ele>1008</ele><time>2020-11-14T10:48:27Z</time></trkpt>
    <trkpt lat="47.88532" lon="14.16803"><ele>991</ele><time>2020-11-14T10:52:29Z</time></trkpt>
    <trkpt lat="47.88633" lon="14.16781"><ele>1071</ele><time>2020-11-14T10:57:05Z</time></trkpt>
    <trkpt lat="47.88677" lon="14.16750"><ele>1086</ele><time>2020-11-14T10:59:57Z</time></trkpt>
    <trkpt lat="47.88772" lon="14.16832"><ele>1071</ele><time>2020-11-14T11:05:07Z</time></trkpt>
    <trkpt lat="47.88702" lon="14.16745"><ele>1022</ele><time>2020-11-14T11:06:27Z</time></trkpt>
    <trkpt lat="47.88689" lon="14.16719"><ele>1023</ele><time>2020-11-14T11:13:02Z</time></trkpt>
    <trkpt lat="47.88666" lon="14.16605"><ele>1040</ele><time>2020-11-14T11:14:46Z</time></trkpt>
    <trkpt lat="47.88617" lon="14.16449"><ele>995</ele><time>2020-11-14T11:17:15Z</time></trkpt>
    <trkpt lat="47.88632" lon="14.16452"><ele>1021</ele><time>2020-11-14T11:20:29Z</time></trkpt>
    <trkpt lat="47.88677" lon="14.16425"><ele>1020</ele><time>2020-11-14T11:20:56Z</time></trkpt>
    <trkpt lat="47.88615" lon="14.16389"><ele>1016</ele><time>2020-11-14T11:28:20Z</time></trkpt>
    <trkpt lat="47.88577" lon="14.16378"><ele>997</ele><time>2020-11-14T11:47:34Z</time></trkpt>
    <trkpt lat="47.88548" lon="14.16300"><ele>982</ele><time>2020-11-14T11:52:10Z</time></trkpt>
    <trkpt lat="47.88493" lon="14.16183"><ele>963</ele><time>2020-11-14T11:54:12Z</time></trkpt>
    <trkpt lat="47.88501" lon="14.16105"><ele>922</ele><time>2020-11-14T11:56:13Z</time></trkpt>
    <trkpt lat="47.88449" lon="14.16053"><ele>931</ele><time>2020-11-14T11:59:10Z</time></trkpt>
    <trkpt lat="47.88457" lon="14.15995"><ele>898</ele><time>2020-11-14T12:00:09Z</time></trkpt>
    <trkpt lat="47.88522" lon="14.16017"><ele>904</ele><time>2020-11-14T12:01:54Z</time></trkpt>
    <trkpt lat="47.88504" lon="14.16002"><ele>920</ele><time>2020-11-14T12:02:31Z</time></trkpt>
    <trkpt lat="47.88475" lon="14.15988"><ele>887</ele><time>2020-11-14T12:03:01Z</time></trkpt>
    <trkpt lat="47.88473" lon="14.15880"><ele>844</ele><time>2020-11-14T12:07:11Z</time></trkpt>
    <trkpt lat="47.88471" lon="14.15740"><ele>858</ele><time>2020-11-14T12:09:08Z</time></trkpt>
    <trkpt lat="47.88373" lon="14.15752"><ele>843</ele><time>2020-11-14T12:13:05Z</time></trkpt>
    <trkpt lat="47.88297" lon="14.15636"><ele>771</ele><time>2020-11-14T12:16:44Z</time></trkpt>
    <trkpt lat="47.88293" lon="14.15622"><ele>777</ele><time>2020-11-14T12:17:05Z</time></trkpt>
    <trkpt lat="47.88281" lon="14.15620"><ele>781</ele><time>2020-11-14T12:18:49Z</time></trkpt>
    <trkpt lat="47.88277" lon="14.15594"><ele>759</ele><time>2020-11-14T12:19:32Z</time></trkpt>
    <trkpt lat="47.88274" lon="14.15574"><ele>784</ele><time>2020-11-14T12:19:48Z</time></trkpt>
    <trkpt lat="47.88267" lon="14.15516"><ele>750</ele><time>2020-11-14T12:23:49Z</time></trkpt>
    <trkpt lat="47.88238" lon="14.15539"><ele>745</ele><time>2020-11-14T12:24:57Z</time></trkpt>
    <trkpt lat="47.88208" lon="14.15503"><ele>774</ele><time>2020-11-14T12:25:48Z</time></trkpt>
    <trkpt lat="47.88175" lon="14.15530"><ele>712</ele><time>2020-11-14T12:35:50Z</time></trkpt>
    <trkpt lat="47.88168" lon="14.15720"><ele>705</ele><time>2020-11-14T12:38:23Z</time></trkpt>
    <trkpt lat="47.88082" lon="14.15753"><ele>701</ele><time>2020-11-14T12:38:53Z</time></trkpt>
    <trkpt lat="47.88061" lon="14.15898"><ele>688</ele><time>2020-11-14T12:39:22Z</time></trkpt>
    <trkpt lat="47.88030" lon="14.15866"><ele>686</ele><time>2020-11-14T12:40:14Z</time></trkpt>
    <trkpt lat="47.88028" lon="14.15840"><ele>679</ele><time>2020-11-14T12:40:36Z</time></trkpt>
    <trkpt lat="47.87999" lon="14.15719"><ele>659</ele><time>2020-11-14T12:41:55Z</time></trkpt>
    <trkpt lat="47.88045" lon="14.15610"><ele>645</ele><time>2020-11-14T12:43:09Z</time></trkpt>
    <trkpt lat="47.88038" lon="14.15590"><ele>646</ele><time>2020-11-14T12:43:26Z</time></trkpt>
    <trkpt lat="47.88010" lon="14.15491"><ele>664</ele><time>2020-11-14T12:44:58Z</time></trkpt>
    <trkpt lat="47.88002" lon="14.15547"><ele>632</ele><time>2020-11-14T12:46:03Z</time></trkpt>
    <trkpt lat="47.87871" lon="14.15419"><ele>667</ele><time>2020-11-14T12:48:27Z</time></trkpt>
    <trkpt lat="47.87887" lon="14.15217"><ele>668</ele><time>2020-11-14T12:52:09Z</time></trkpt>
    <trkpt lat="47.87916" lon="14.15175"><ele>700</ele><time>2020-11-14T12:53:20Z</time></trkpt>
    <trkpt lat="47.87919" lon="14.15022"><ele>700</ele><time>2020-11-14T12:54:51Z</time></trkpt>
    <trkpt lat="47.87934" lon="14.15000"><ele>708</ele><time>2020-11-14T12:55:21Z</time></trkpt>
    <trkpt lat="47.87955" lon="14.14930"><ele>709</ele><time>2020-11-14T12:55:41Z</time></trkpt>
    <trkpt lat="47.87923" lon="14.14916"><ele>744</ele><time>2020-11-14T12:56:56Z</time></trkpt>
    <trkpt lat="47.87897" lon="14.14923"><ele>731</ele><time>2020-11-14T12:57:26Z</time></trkpt>
    <trkpt lat="47.87877" lon="14.14908"><ele>732</ele><time>2020-11-14T12:57:55Z</time></trkpt>
    <trkpt lat="47.87855" lon="14.14875"><ele>726</ele><time>2020-11-14T12:58:54Z</time></trkpt>
    <trkpt lat="47.87836" lon="14.14856"><ele>731</ele><time>2020-11-14T12:59:24Z</time></trkpt>
    <trkpt lat="47.87822" lon="14.14829"><ele>736</ele><time>2020-11-14T12:59:53Z</time></trkpt>
    <trkpt lat="47.87810" lon="14.14900"><ele>726</ele><time>2020-11-14T13:04:30Z</time></trkpt>
    <trkpt lat="47.87783" lon="14.14982"><ele>722</ele><time>2020-11-14T13:05:23Z</time></trkpt>
    <trkpt lat="47.87783" lon="14.15237"><ele>730</ele><time>2020-11-14T13:07:37Z</time></trkpt>
    <trkpt lat="47.87701" lon="14.15258"><ele>727</ele><time>2020-11-14T13:08:15Z</time></trkpt>
    <trkpt lat="47.87613" lon="14.15284"><ele>707</ele><time>2020-11-14T13:09:19Z</time></trkpt>
    <trkpt lat="47.87471" lon="14.15396"><ele>748</ele><time>2020-11-14T13:11:45Z</time></trkpt>
    <trkpt lat="47.87339" lon="14.15325"><ele>770</ele><time>2020-11-14T13:13:56Z</time></trkpt>
    <trkpt lat="47.87279" lon="14.15525"><ele>761</ele><time>2020-11-14T13:17:02Z</time></trkpt>
    <trkpt lat="47.87212" lon="14.15632"><ele>778</ele><time>2020-11-14T13:19:10Z</time></trkpt>
    <trkpt lat="47.87205" lon="14.15769"><ele>748</ele><time>2020-11-14T13:19:40Z</time></trkpt>
    <trkpt lat="47.87202" lon="14.15815"><ele>719</ele><time>2020-11-14T13:20:14Z</time></trkpt>
    <trkpt lat="47.87149" lon="14.16027"><ele>726</ele><time>2020-11-14T13:23:42Z</time></trkpt>
    <trkpt lat="47.87098" lon="14.16205"><ele>752</ele><time>2020-11-14T13:24:21Z</time></trkpt>
    <trkpt lat="47.87037" lon="14.16327"><ele>743</ele><time>2020-11-14T13:25:36Z</time></trkpt>
    <trkpt lat="47.86939" lon="14.16413"><ele>682</ele><time>2020-11-14T13:27:18Z</time></trkpt>
    <trkpt lat="47.86901" lon="14.16487"><ele>661</ele><time>2020-11-14T13:29:32Z</time></trkpt>
    <trkpt lat="47.86863" lon="14.16668"><ele>631</ele><time>2020-11-14T13:33:24Z</time></trkpt>
    <trkpt lat="47.86850" lon="14.16776"><ele>590</ele><time>2020-11-14T13:35:30Z</time></trkpt>
    <trkpt lat="47.86769" lon="14.16916"><ele>592</ele><time>2020-11-14T13:36:00Z</time></trkpt>
    <trkpt lat="47.86666" lon="14.16985"><ele>569</ele><time>2020-11-14T13:39:22Z</time></trkpt>
    <trkpt lat="47.86511" lon="14.17006"><ele>531</ele><time>2020-11-14T13:40:21Z</time></trkpt>
    <trkpt lat="47.86469" lon="14.16950"><ele>495</ele><time>2020-11-14T13:41:39Z</time></trkpt>
  </trkseg>
</trk>
</gpx>