<?xml version="1.0" encoding="UTF-8"?>
<gpx version="1.1" creator="GPX-Pro" xmlns="http://www.topografix.com/GPX/1/1">
<trk>
  <name>Hike_Hahnbaum</name>
  <trkseg>
    <trkpt lat="47.73589" lon="14.33049"><ele>634</ele><time>2020-11-22T09:04:41Z</time></trkpt>
    <trkpt lat="47.73621" lon="14.33058"><ele>627</ele><time>2020-11-22T09:05:10Z</time></trkpt>
    <trkpt lat="47.73835" lon="14.33171"><ele>612</ele><time>2020-11-22T09:08:31Z</time></trkpt>
    <trkpt lat="47.73884" lon="14.33175"><ele>587</ele><time>2020-11-22T09:12:33Z</time></trkpt>
    <trkpt lat="47.73947" lon="14.32942"><ele>641</ele><time>2020-11-22T09:14:10Z</time></trkpt>
    <trkpt lat="47.74005" lon="14.32817"><ele>646</ele><time>2020-11-22T09:15:18Z</time></trkpt>
    <trkpt lat="47.74017" lon="14.32763"><ele>649</ele><time>2020-11-22T09:15:49Z</time></trkpt>
    <trkpt lat="47.74018" lon="14.32729"><ele>627</ele><time>2020-11-22T09:16:05Z</time></trkpt>
    <trkpt lat="47.74039" lon="14.32586"><ele>617</ele><time>2020-11-22T09:17:18Z</time></trkpt>
    <trkpt lat="47.74053" lon="14.32401"><ele>617</ele><time>2020-11-22T09:18:40Z</time></trkpt>
    <trkpt lat="47.74097" lon="14.32242"><ele>617</ele><time>2020-11-22T09:20:05Z</time></trkpt>
    <trkpt lat="47.74130" lon="14.32159"><ele>618</ele><time>2020-11-22T09:20:59Z</time></trkpt>
    <trkpt lat="47.74193" lon="14.32126"><ele>610</ele><time>2020-11-22T09:22:02Z</time></trkpt>
    <trkpt lat="47.74188" lon="14.31985"><ele>619</ele><time>2020-11-22T09:22:31Z</time></trkpt>
    <trkpt lat="47.74193" lon="14.31917"><ele>627</ele><time>2020-11-22T09:23:00Z</time></trkpt>
    <trkpt lat="47.74240" lon="14.31780"><ele>615</ele><time>2020-11-22T09:24:16Z</time></trkpt>
    <trkpt lat="47.74276" lon="14.31717"><ele>617</ele><time>2020-11-22T09:24:56Z</time></trkpt>
    <trkpt lat="47.74310" lon="14.31652"><ele>620</ele><time>2020-11-22T09:25:37Z</time></trkpt>
    <trkpt lat="47.74323" lon="14.31579"><ele>619</ele><time>2020-11-22T09:26:12Z</time></trkpt>
    <trkpt lat="47.74337" lon="14.31525"><ele>620</ele><time>2020-11-22T09:26:46Z</time></trkpt>
    <trkpt lat="47.74359" lon="14.31485"><ele>616</ele><time>2020-11-22T09:27:54Z</time></trkpt>
    <trkpt lat="47.74282" lon="14.31370"><ele>618</ele><time>2020-11-22T09:30:09Z</time></trkpt>
    <trkpt lat="47.74310" lon="14.31245"><ele>617</ele><time>2020-11-22T09:31:13Z</time></trkpt>
    <trkpt lat="47.74340" lon="14.31205"><ele>616</ele><time>2020-11-22T09:31:45Z</time></trkpt>
    <trkpt lat="47.74374" lon="14.31138"><ele>615</ele><time>2020-11-22T09:32:25Z</time></trkpt>
    <trkpt lat="47.74382" lon="14.31058"><ele>616</ele><time>2020-11-22T09:33:06Z</time></trkpt>
    <trkpt lat="47.74397" lon="14.31001"><ele>615</ele><time>2020-11-22T09:33:36Z</time></trkpt>
    <trkpt lat="47.74413" lon="14.30918"><ele>611</ele><time>2020-11-22T09:34:19Z</time></trkpt>
    <trkpt lat="47.74432" lon="14.30866"><ele>609</ele><time>2020-11-22T09:34:48Z</time></trkpt>
    <trkpt lat="47.74471" lon="14.30886"><ele>610</ele><time>2020-11-22T09:35:26Z</time></trkpt>
    <trkpt lat="47.74474" lon="14.30931"><ele>617</ele><time>2020-11-22T09:36:25Z</time></trkpt>
    <trkpt lat="47.74472" lon="14.30968"><ele>619</ele><time>2020-11-22T09:36:54Z</time></trkpt>
    <trkpt lat="47.74477" lon="14.31001"><ele>625</ele><time>2020-11-22T09:37:24Z</time></trkpt>
    <trkpt lat="47.74492" lon="14.31023"><ele>634</ele><time>2020-11-22T09:37:53Z</time></trkpt>
    <trkpt lat="47.74503" lon="14.31031"><ele>633</ele><time>2020-11-22T09:38:11Z</time></trkpt>
    <trkpt lat="47.74559" lon="14.31056"><ele>609</ele><time>2020-11-22T09:40:07Z</time></trkpt>
    <trkpt lat="47.74538" lon="14.31062"><ele>653</ele><time>2020-11-22T09:40:38Z</time></trkpt>
    <trkpt lat="47.74524" lon="14.31071"><ele>656</ele><time>2020-11-22T09:41:44Z</time></trkpt>
    <trkpt lat="47.74522" lon="14.31095"><ele>640</ele><time>2020-11-22T09:43:13Z</time></trkpt>
    <trkpt lat="47.74535" lon="14.31134"><ele>680</ele><time>2020-11-22T09:45:37Z</time></trkpt>
    <trkpt lat="47.74540" lon="14.31163"><ele>708</ele><time>2020-11-22T09:47:20Z</time></trkpt>
    <trkpt lat="47.74566" lon="14.31201"><ele>671</ele><time>2020-11-22T09:48:48Z</time></trkpt>
    <trkpt lat="47.74580" lon="14.31224"><ele>711</ele><time>2020-11-22T09:49:20Z</time></trkpt>
    <trkpt lat="47.74584" lon="14.31267"><ele>755</ele><time>2020-11-22T09:51:48Z</time></trkpt>
    <trkpt lat="47.74589" lon="14.31313"><ele>767</ele><time>2020-11-22T09:53:26Z</time></trkpt>
    <trkpt lat="47.74592" lon="14.31336"><ele>768</ele><time>2020-11-22T09:54:59Z</time></trkpt>
    <trkpt lat="47.74577" lon="14.31395"><ele>748</ele><time>2020-11-22T09:58:49Z</time></trkpt>
    <trkpt lat="47.74593" lon="14.31439"><ele>786</ele><time>2020-11-22T09:59:19Z</time></trkpt>
    <trkpt lat="47.74626" lon="14.31463"><ele>755</ele><time>2020-11-22T10:01:07Z</time></trkpt>
    <trkpt lat="47.74659" lon="14.31487"><ele>704</ele><time>2020-11-22T10:03:30Z</time></trkpt>
    <trkpt lat="47.74651" lon="14.31507"><ele>816</ele><time>2020-11-22T10:04:00Z</time></trkpt>
    <trkpt lat="47.74648" lon="14.31556"><ele>837</ele><time>2020-11-22T10:04:42Z</time></trkpt>
    <trkpt lat="47.74636" lon="14.31591"><ele>832</ele><time>2020-11-22T10:06:28Z</time></trkpt>
    <trkpt lat="47.74634" lon="14.31628"><ele>856</ele><time>2020-11-22T10:08:08Z</time></trkpt>
    <trkpt lat="47.74636" lon="14.31702"><ele>714</ele><time>2020-11-22T10:10:40Z</time></trkpt>
    <trkpt lat="47.74627" lon="14.31732"><ele>894</ele><time>2020-11-22T10:12:27Z</time></trkpt>
    <trkpt lat="47.74629" lon="14.31767"><ele>937</ele><time>2020-11-22T10:14:33Z</time></trkpt>
    <trkpt lat="47.74639" lon="14.31792"><ele>927</ele><time>2020-11-22T10:15:13Z</time></trkpt>
    <trkpt lat="47.74628" lon="14.31807"><ele>934</ele><time>2020-11-22T10:16:13Z</time></trkpt>
    <trkpt lat="47.74614" lon="14.31814"><ele>951</ele><time>2020-11-22T10:17:12Z</time></trkpt>
    <trkpt lat="47.74596" lon="14.31828"><ele>972</ele><time>2020-11-22T10:17:42Z</time></trkpt>
    <trkpt lat="47.74609" lon="14.31824"><ele>951</ele><time>2020-11-22T10:18:11Z</time></trkpt>
    <trkpt lat="47.74618" lon="14.31827"><ele>948</ele><time>2020-11-22T10:19:51Z</time></trkpt>
    <trkpt lat="47.74626" lon="14.31835"><ele>951</ele><time>2020-11-22T10:20:21Z</time></trkpt>
    <trkpt lat="47.74632" lon="14.31864"><ele>958</ele><time>2020-11-22T10:20:54Z</time></trkpt>
    <trkpt lat="47.74630" lon="14.31885"><ele>965</ele><time>2020-11-22T10:21:27Z</time></trkpt>
    <trkpt lat="47.74630" lon="14.31902"><ele>967</ele><time>2020-11-22T10:21:57Z</time></trkpt>
    <trkpt lat="47.74627" lon="14.31931"><ele>962</ele><time>2020-11-22T10:22:27Z</time></trkpt>
    <trkpt lat="47.74630" lon="14.31946"><ele>967</ele><time>2020-11-22T10:22:56Z</time></trkpt>
    <trkpt lat="47.74628" lon="14.31962"><ele>974</ele><time>2020-11-22T10:23:27Z</time></trkpt>
    <trkpt lat="47.74630" lon="14.31978"><ele>977</ele><time>2020-11-22T10:23:57Z</time></trkpt>
    <trkpt lat="47.74621" lon="14.32011"><ele>986</ele><time>2020-11-22T10:25:32Z</time></trkpt>
    <trkpt lat="47.74610" lon="14.32031"><ele>989</ele><time>2020-11-22T10:26:02Z</time></trkpt>
    <trkpt lat="47.74611" lon="14.32060"><ele>1010</ele><time>2020-11-22T10:26:32Z</time></trkpt>
    <trkpt lat="47.74615" lon="14.32077"><ele>1003</ele><time>2020-11-22T10:27:09Z</time></trkpt>
    <trkpt lat="47.74608" lon="14.32106"><ele>1011</ele><time>2020-11-22T10:27:40Z</time></trkpt>
    <trkpt lat="47.74616" lon="14.32119"><ele>997</ele><time>2020-11-22T10:28:09Z</time></trkpt>
    <trkpt lat="47.74620" lon="14.32136"><ele>1010</ele><time>2020-11-22T10:28:45Z</time></trkpt>
    <trkpt lat="47.74636" lon="14.32173"><ele>941</ele><time>2020-11-22T10:30:12Z</time></trkpt>
    <trkpt lat="47.74616" lon="14.32260"><ele>1038</ele><time>2020-11-22T10:31:42Z</time></trkpt>
    <trkpt lat="47.74610" lon="14.32273"><ele>1000</ele><time>2020-11-22T10:32:42Z</time></trkpt>
    <trkpt lat="47.74612" lon="14.32287"><ele>997</ele><time>2020-11-22T10:33:13Z</time></trkpt>
    <trkpt lat="47.74611" lon="14.32314"><ele>1044</ele><time>2020-11-22T10:34:34Z</time></trkpt>
    <trkpt lat="47.74634" lon="14.32396"><ele>958</ele><time>2020-11-22T10:36:09Z</time></trkpt>
    <trkpt lat="47.74644" lon="14.32422"><ele>1002</ele><time>2020-11-22T10:36:38Z</time></trkpt>
    <trkpt lat="47.74648" lon="14.32436"><ele>994</ele><time>2020-11-22T10:37:10Z</time></trkpt>
    <trkpt lat="47.74664" lon="14.32444"><ele>1058</ele><time>2020-11-22T10:38:10Z</time></trkpt>
    <trkpt lat="47.74687" lon="14.32491"><ele>1063</ele><time>2020-11-22T10:39:50Z</time></trkpt>
    <trkpt lat="47.74700" lon="14.32473"><ele>1077</ele><time>2020-11-22T10:40:28Z</time></trkpt>
    <trkpt lat="47.74760" lon="14.32425"><ele>1062</ele><time>2020-11-22T10:42:22Z</time></trkpt>
    <trkpt lat="47.74778" lon="14.32487"><ele>1133</ele><time>2020-11-22T10:46:50Z</time></trkpt>
    <trkpt lat="47.74799" lon="14.32502"><ele>1108</ele><time>2020-11-22T10:48:28Z</time></trkpt>
    <trkpt lat="47.74812" lon="14.32534"><ele>1112</ele><time>2020-11-22T10:48:57Z</time></trkpt>
    <trkpt lat="47.74808" lon="14.32639"><ele>1138</ele><time>2020-11-22T10:54:45Z</time></trkpt>
    <trkpt lat="47.74799" lon="14.32764"><ele>1090</ele><time>2020-11-22T10:56:46Z</time></trkpt>
    <trkpt lat="47.74815" lon="14.32888"><ele>1068</ele><time>2020-11-22T10:57:39Z</time></trkpt>
    <trkpt lat="47.74778" lon="14.32976"><ele>1165</ele><time>2020-11-22T10:58:44Z</time></trkpt>
    <trkpt lat="47.74779" lon="14.32992"><ele>1123</ele><time>2020-11-22T10:59:13Z</time></trkpt>
    <trkpt lat="47.74777" lon="14.33026"><ele>1105</ele><time>2020-11-22T10:59:43Z</time></trkpt>
    <trkpt lat="47.74765" lon="14.33104"><ele>1083</ele><time>2020-11-22T11:01:21Z</time></trkpt>
    <trkpt lat="47.74775" lon="14.33187"><ele>1148</ele><time>2020-11-22T11:03:01Z</time></trkpt>
    <trkpt lat="47.74772" lon="14.33239"><ele>1135</ele><time>2020-11-22T11:04:55Z</time></trkpt>
    <trkpt lat="47.74744" lon="14.33355"><ele>1153</ele><time>2020-11-22T11:07:40Z</time></trkpt>
    <trkpt lat="47.74749" lon="14.33398"><ele>1164</ele><time>2020-11-22T11:08:47Z</time></trkpt>
    <trkpt lat="47.74756" lon="14.33481"><ele>1205</ele><time>2020-11-22T11:09:58Z</time></trkpt>
    <trkpt lat="47.74727" lon="14.33528"><ele>1153</ele><time>2020-11-22T11:11:07Z</time></trkpt>
    <trkpt lat="47.74733" lon="14.33740"><ele>1174</ele><time>2020-11-22T11:17:16Z</time></trkpt>
    <trkpt lat="47.74730" lon="14.33762"><ele>1171</ele><time>2020-11-22T11:17:46Z</time></trkpt>
    <trkpt lat="47.74723" lon="14.33780"><ele>1191</ele><time>2020-11-22T11:18:15Z</time></trkpt>
    <trkpt lat="47.74726" lon="14.33798"><ele>1189</ele><time>2020-11-22T11:19:14Z</time></trkpt>
    <trkpt lat="47.74736" lon="14.33839"><ele>1178</ele><time>2020-11-22T11:20:32Z</time></trkpt>
    <trkpt lat="47.74715" lon="14.33885"><ele>1198</ele><time>2020-11-22T11:21:37Z</time></trkpt>
    <trkpt lat="47.74691" lon="14.33948"><ele>1250</ele><time>2020-11-22T11:23:22Z</time></trkpt>
    <trkpt lat="47.74712" lon="14.33955"><ele>1230</ele><time>2020-11-22T11:24:24Z</time></trkpt>
    <trkpt lat="47.74726" lon="14.33985"><ele>1186</ele><time>2020-11-22T11:25:52Z</time></trkpt>
    <trkpt lat="47.74703" lon="14.34019"><ele>1205</ele><time>2020-11-22T11:27:40Z</time></trkpt>
    <trkpt lat="47.74728" lon="14.34016"><ele>1183</ele><time>2020-11-22T11:29:46Z</time></trkpt>
    <trkpt lat="47.74706" lon="14.34015"><ele>1203</ele><time>2020-11-22T11:30:50Z</time></trkpt>
    <trkpt lat="47.74725" lon="14.34027"><ele>1182</ele><time>2020-11-22T11:34:12Z</time></trkpt>
    <trkpt lat="47.74732" lon="14.34103"><ele>1190</ele><time>2020-11-22T11:36:42Z</time></trkpt>
    <trkpt lat="47.74731" lon="14.34263"><ele>1172</ele><time>2020-11-22T11:39:51Z</time></trkpt>
    <trkpt lat="47.74730" lon="14.34334"><ele>1226</ele><time>2020-11-22T11:42:21Z</time></trkpt>
    <trkpt lat="47.74739" lon="14.34380"><ele>1188</ele><time>2020-11-22T11:43:04Z</time></trkpt>
    <trkpt lat="47.74709" lon="14.34487"><ele>1199</ele><time>2020-11-22T11:46:24Z</time></trkpt>
    <trkpt lat="47.74681" lon="14.34622"><ele>1183</ele><time>2020-11-22T11:48:07Z</time></trkpt>
    <trkpt lat="47.74707" lon="14.34614"><ele>1186</ele><time>2020-11-22T11:49:05Z</time></trkpt>
    <trkpt lat="47.74684" lon="14.34729"><ele>1210</ele><time>2020-11-22T11:52:32Z</time></trkpt>
    <trkpt lat="47.74691" lon="14.34711"><ele>1220</ele><time>2020-11-22T11:53:01Z</time></trkpt>
    <trkpt lat="47.74716" lon="14.34817"><ele>1192</ele><time>2020-11-22T11:55:39Z</time></trkpt>
    <trkpt lat="47.74674" lon="14.34881"><ele>1220</ele><time>2020-11-22T11:56:59Z</time></trkpt>
    <trkpt lat="47.74675" lon="14.34936"><ele>1208</ele><time>2020-11-22T11:58:29Z</time></trkpt>
    <trkpt lat="47.74685" lon="14.34992"><ele>1196</ele><time>2020-11-22T11:59:49Z</time></trkpt>
    <trkpt lat="47.74704" lon="14.35047"><ele>1213</ele><time>2020-11-22T12:01:04Z</time></trkpt>
    <trkpt lat="47.74668" lon="14.35126"><ele>1225</ele><time>2020-11-22T12:05:31Z</time></trkpt>
    <trkpt lat="47.74692" lon="14.35194"><ele>1328</ele><time>2020-11-22T12:06:01Z</time></trkpt>
    <trkpt lat="47.74683" lon="14.35354"><ele>1413</ele><time>2020-11-22T12:14:19Z</time></trkpt>
    <trkpt lat="47.74697" lon="14.35429"><ele>1415</ele><time>2020-11-22T12:16:19Z</time></trkpt>
    <trkpt lat="47.74707" lon="14.35437"><ele>1423</ele><time>2020-11-22T12:16:49Z</time></trkpt>
    <trkpt lat="47.74791" lon="14.35576"><ele>1432</ele><time>2020-11-22T12:26:22Z</time></trkpt>
    <trkpt lat="47.74853" lon="14.35813"><ele>1439</ele><time>2020-11-22T12:30:54Z</time></trkpt>
    <trkpt lat="47.74855" lon="14.35936"><ele>1444</ele><time>2020-11-22T12:32:24Z</time></trkpt>
    <trkpt lat="47.74867" lon="14.36022"><ele>1416</ele><time>2020-11-22T12:33:25Z</time></trkpt>
    <trkpt lat="47.74853" lon="14.36041"><ele>1423</ele><time>2020-11-22T12:33:56Z</time></trkpt>
    <trkpt lat="47.74867" lon="14.36086"><ele>1422</ele><time>2020-11-22T12:34:34Z</time></trkpt>
    <trkpt lat="47.74863" lon="14.36171"><ele>1424</ele><time>2020-11-22T12:36:27Z</time></trkpt>
    <trkpt lat="47.74829" lon="14.36232"><ele>1369</ele><time>2020-11-22T12:39:08Z</time></trkpt>
    <trkpt lat="47.74820" lon="14.36422"><ele>1384</ele><time>2020-11-22T12:43:25Z</time></trkpt>
    <trkpt lat="47.74851" lon="14.36465"><ele>1375</ele><time>2020-11-22T12:44:45Z</time></trkpt>
    <trkpt lat="47.74918" lon="14.36507"><ele>1429</ele><time>2020-11-22T12:47:14Z</time></trkpt>
    <trkpt lat="47.75016" lon="14.36671"><ele>1394</ele><time>2020-11-22T12:51:06Z</time></trkpt>
    <trkpt lat="47.75034" lon="14.36678"><ele>1418</ele><time>2020-11-22T12:52:00Z</time></trkpt>
    <trkpt lat="47.75002" lon="14.36664"><ele>1431</ele><time>2020-11-22T12:53:07Z</time></trkpt>
    <trkpt lat="47.75101" lon="14.37045"><ele>1396</ele><time>2020-11-22T12:58:55Z</time></trkpt>
    <trkpt lat="47.75102" lon="14.37097"><ele>1421</ele><time>2020-11-22T13:00:11Z</time></trkpt>
    <trkpt lat="47.75144" lon="14.37211"><ele>1359</ele><time>2020-11-22T13:04:09Z</time></trkpt>
    <trkpt lat="47.75078" lon="14.37301"><ele>1388</ele><time>2020-11-22T13:05:45Z</time></trkpt>
    <trkpt lat="47.74858" lon="14.37141"><ele>1366</ele><time>2020-11-22T13:09:17Z</time></trkpt>
    <trkpt lat="47.74724" lon="14.36957"><ele>1314</ele><time>2020-11-22T13:13:17Z</time></trkpt>
    <trkpt lat="47.74552" lon="14.36839"><ele>1269</ele><time>2020-11-22T13:15:32Z</time></trkpt>
    <trkpt lat="47.74449" lon="14.37192"><ele>1205</ele><time>2020-11-22T13:21:25Z</time></trkpt>
    <trkpt lat="47.74286" lon="14.37230"><ele>1187</ele><time>2020-11-22T13:24:56Z</time></trkpt>
    <trkpt lat="47.74273" lon="14.37240"><ele>1188</ele><time>2020-11-22T13:25:26Z</time></trkpt>
    <trkpt lat="47.74222" lon="14.37243"><ele>1186</ele><time>2020-11-22T13:25:55Z</time></trkpt>
    <trkpt lat="47.74266" lon="14.37062"><ele>1234</ele><time>2020-11-22T13:29:03Z</time></trkpt>
    <trkpt lat="47.74309" lon="14.36873"><ele>1136</ele><time>2020-11-22T13:32:25Z</time></trkpt>
    <trkpt lat="47.74247" lon="14.36617"><ele>1089</ele><time>2020-11-22T13:36:09Z</time></trkpt>
    <trkpt lat="47.74333" lon="14.36561"><ele>1090</ele><time>2020-11-22T13:38:23Z</time></trkpt>
    <trkpt lat="47.74226" lon="14.36344"><ele>1075</ele><time>2020-11-22T13:42:07Z</time></trkpt>
    <trkpt lat="47.74229" lon="14.36179"><ele>1074</ele><time>2020-11-22T13:44:14Z</time></trkpt>
    <trkpt lat="47.74226" lon="14.36130"><ele>1023</ele><time>2020-11-22T13:45:20Z</time></trkpt>
    <trkpt lat="47.74188" lon="14.35986"><ele>1055</ele><time>2020-11-22T13:46:54Z</time></trkpt>
    <trkpt lat="47.74120" lon="14.35790"><ele>1034</ele><time>2020-11-22T13:50:21Z</time></trkpt>
    <trkpt lat="47.74136" lon="14.35718"><ele>1032</ele><time>2020-11-22T13:51:23Z</time></trkpt>
    <trkpt lat="47.74116" lon="14.35657"><ele>992</ele><time>2020-11-22T13:52:21Z</time></trkpt>
    <trkpt lat="47.74110" lon="14.35559"><ele>1001</ele><time>2020-11-22T13:53:33Z</time></trkpt>
    <trkpt lat="47.74094" lon="14.35494"><ele>1119</ele><time>2020-11-22T13:54:30Z</time></trkpt>
    <trkpt lat="47.74069" lon="14.35497"><ele>994</ele><time>2020-11-22T13:55:58Z</time></trkpt>
    <trkpt lat="47.74054" lon="14.35379"><ele>995</ele><time>2020-11-22T13:57:22Z</time></trkpt>
    <trkpt lat="47.74034" lon="14.35312"><ele>1162</ele><time>2020-11-22T13:58:22Z</time></trkpt>
    <trkpt lat="47.74013" lon="14.35268"><ele>1065</ele><time>2020-11-22T13:59:30Z</time></trkpt>
    <trkpt lat="47.73992" lon="14.35207"><ele>1101</ele><time>2020-11-22T14:00:28Z</time></trkpt>
    <trkpt lat="47.73978" lon="14.35152"><ele>968</ele><time>2020-11-22T14:01:17Z</time></trkpt>
    <trkpt lat="47.73972" lon="14.35101"><ele>1164</ele><time>2020-11-22T14:02:11Z</time></trkpt>
    <trkpt lat="47.73991" lon="14.34959"><ele>939</ele><time>2020-11-22T14:03:46Z</time></trkpt>
    <trkpt lat="47.73976" lon="14.34933"><ele>1160</ele><time>2020-11-22T14:04:39Z</time></trkpt>
    <trkpt lat="47.73963" lon="14.34915"><ele>915</ele><time>2020-11-22T14:06:45Z</time></trkpt>
    <trkpt lat="47.73912" lon="14.34845"><ele>1159</ele><time>2020-11-22T14:07:40Z</time></trkpt>
    <trkpt lat="47.73865" lon="14.34759"><ele>881</ele><time>2020-11-22T14:09:00Z</time></trkpt>
    <trkpt lat="47.73857" lon="14.34688"><ele>855</ele><time>2020-11-22T14:10:14Z</time></trkpt>
    <trkpt lat="47.73849" lon="14.34625"><ele>859</ele><time>2020-11-22T14:11:09Z</time></trkpt>
    <trkpt lat="47.73846" lon="14.34542"><ele>831</ele><time>2020-11-22T14:12:36Z</time></trkpt>
    <trkpt lat="47.73793" lon="14.34488"><ele>902</ele><time>2020-11-22T14:13:27Z</time></trkpt>
    <trkpt lat="47.73786" lon="14.34473"><ele>852</ele><time>2020-11-22T14:13:57Z</time></trkpt>
    <trkpt lat="47.73771" lon="14.34427"><ele>880</ele><time>2020-11-22T14:14:40Z</time></trkpt>
    <trkpt lat="47.73718" lon="14.34401"><ele>845</ele><time>2020-11-22T14:15:45Z</time></trkpt>
    <trkpt lat="47.73604" lon="14.34390"><ele>849</ele><time>2020-11-22T14:17:17Z</time></trkpt>
    <trkpt lat="47.73522" lon="14.34311"><ele>760</ele><time>2020-11-22T14:19:25Z</time></trkpt>
    <trkpt lat="47.73517" lon="14.34196"><ele>809</ele><time>2020-11-22T14:22:26Z</time></trkpt>
    <trkpt lat="47.73486" lon="14.34115"><ele>738</ele><time>2020-11-22T14:22:56Z</time></trkpt>
    <trkpt lat="47.73503" lon="14.34076"><ele>735</ele><time>2020-11-22T14:23:30Z</time></trkpt>
    <trkpt lat="47.73469" lon="14.33851"><ele>695</ele><time>2020-11-22T14:27:05Z</time></trkpt>
    <trkpt lat="47.73419" lon="14.33849"><ele>651</ele><time>2020-11-22T14:30:22Z</time></trkpt>
    <trkpt lat="47.73441" lon="14.33621"><ele>637</ele><time>2020-11-22T14:31:39Z</time></trkpt>
    <trkpt lat="47.73505" lon="14.33398"><ele>648</ele><time>2020-11-22T14:34:10Z</time></trkpt>
    <trkpt lat="47.73529" lon="14.33233"><ele>619</ele><time>2020-11-22T14:35:36Z</time></trkpt>
    <trkpt lat="47.73555" lon="14.33094"><ele>652</ele><time>2020-11-22T14:36:55Z</time></trkpt>
    <trkpt lat="47.73540" lon="14.33040"><ele>636</ele><time>2020-11-22T14:37:24Z</time></trkpt>
  </trkseg>
</trk>
</gpx>