<?xml version="1.0" encoding="UTF-8"?>
<gpx version="1.1" creator="GPX-Pro" xmlns="http://www.topografix.com/GPX/1/1">
<rte>
  <name>201107_hike_Hagler_Moosbauernsteig</name>
    <rtept lat="47.75426" lon="14.31303"></rtept>
    <rtept lat="47.75370" lon="14.31218"></rtept>
    <rtept lat="47.75312" lon="14.31070"></rtept>
    <rtept lat="47.75281" lon="14.30890"></rtept>
    <rtept lat="47.75260" lon="14.30667"></rtept>
    <rtept lat="47.75262" lon="14.30500"></rtept>
    <rtept lat="47.75210" lon="14.30338"></rtept>
    <rtept lat="47.75160" lon="14.30257"></rtept>
    <rtept lat="47.75160" lon="14.30187"></rtept>
    <rtept lat="47.75143" lon="14.30123"></rtept>
    <rtept lat="47.75126" lon="14.30106"></rtept>
    <rtept lat="47.75120" lon="14.30079"></rtept>
    <rtept lat="47.75136" lon="14.30028"></rtept>
    <rtept lat="47.75147" lon="14.30009"></rtept>
    <rtept lat="47.75125" lon="14.29975"></rtept>
    <rtept lat="47.75118" lon="14.29955"></rtept>
    <rtept lat="47.75131" lon="14.29923"></rtept>
    <rtept lat="47.75129" lon="14.29905"></rtept>
    <rtept lat="47.75118" lon="14.29878"></rtept>
    <rtept lat="47.75096" lon="14.29862"></rtept>
    <rtept lat="47.75072" lon="14.29842"></rtept>
    <rtept lat="47.75073" lon="14.29826"></rtept>
    <rtept lat="47.75103" lon="14.29814"></rtept>
    <rtept lat="47.75185" lon="14.29869"></rtept>
    <rtept lat="47.75256" lon="14.29860"></rtept>
    <rtept lat="47.75269" lon="14.29875"></rtept>
    <rtept lat="47.75360" lon="14.29892"></rtept>
    <rtept lat="47.75425" lon="14.29875"></rtept>
    <rtept lat="47.75514" lon="14.29706"></rtept>
    <rtept lat="47.75610" lon="14.29741"></rtept>
    <rtept lat="47.75673" lon="14.29847"></rtept>
    <rtept lat="47.75762" lon="14.29922"></rtept>
    <rtept lat="47.75794" lon="14.29917"></rtept>
    <rtept lat="47.75876" lon="14.29741"></rtept>
    <rtept lat="47.75963" lon="14.29682"></rtept>
    <rtept lat="47.76110" lon="14.29640"></rtept>
    <rtept lat="47.76130" lon="14.29667"></rtept>
    <rtept lat="47.76156" lon="14.29645"></rtept>
    <rtept lat="47.76225" lon="14.29606"></rtept>
    <rtept lat="47.76264" lon="14.29537"></rtept>
    <rtept lat="47.76256" lon="14.29487"></rtept>
    <rtept lat="47.76286" lon="14.29485"></rtept>
    <rtept lat="47.76354" lon="14.29409"></rtept>
    <rtept lat="47.76384" lon="14.29588"></rtept>
    <rtept lat="47.76412" lon="14.29573"></rtept>
    <rtept lat="47.76447" lon="14.29615"></rtept>
    <rtept lat="47.76463" lon="14.29614"></rtept>
    <rtept lat="47.76491" lon="14.29673"></rtept>
    <rtept lat="47.76544" lon="14.29679"></rtept>
    <rtept lat="47.76570" lon="14.29768"></rtept>
    <rtept lat="47.76652" lon="14.29823"></rtept>
    <rtept lat="47.76697" lon="14.29882"></rtept>
    <rtept lat="47.76736" lon="14.29881"></rtept>
    <rtept lat="47.76808" lon="14.30046"></rtept>
    <rtept lat="47.76875" lon="14.30063"></rtept>
    <rtept lat="47.76930" lon="14.30162"></rtept>
    <rtept lat="47.77049" lon="14.30278"></rtept>
    <rtept lat="47.77105" lon="14.30370"></rtept>
    <rtept lat="47.77099" lon="14.30622"></rtept>
    <rtept lat="47.77155" lon="14.30802"></rtept>
    <rtept lat="47.77150" lon="14.30988"></rtept>
    <rtept lat="47.77191" lon="14.31047"></rtept>
    <rtept lat="47.77204" lon="14.31185"></rtept>
    <rtept lat="47.77210" lon="14.31228"></rtept>
    <rtept lat="47.77237" lon="14.31250"></rtept>
    <rtept lat="47.77248" lon="14.31231"></rtept>
    <rtept lat="47.77273" lon="14.31262"></rtept>
    <rtept lat="47.77415" lon="14.31170"></rtept>
    <rtept lat="47.77371" lon="14.31400"></rtept>
    <rtept lat="47.77395" lon="14.31429"></rtept>
    <rtept lat="47.77358" lon="14.31599"></rtept>
    <rtept lat="47.77330" lon="14.31564"></rtept>
    <rtept lat="47.77299" lon="14.31658"></rtept>
    <rtept lat="47.77261" lon="14.31655"></rtept>
    <rtept lat="47.77217" lon="14.31594"></rtept>
    <rtept lat="47.77213" lon="14.31736"></rtept>
    <rtept lat="47.77186" lon="14.31694"></rtept>
    <rtept lat="47.77157" lon="14.31689"></rtept>
    <rtept lat="47.77143" lon="14.31624"></rtept>
    <rtept lat="47.77096" lon="14.31639"></rtept>
    <rtept lat="47.77073" lon="14.31712"></rtept>
    <rtept lat="47.77125" lon="14.31825"></rtept>
    <rtept lat="47.77085" lon="14.31930"></rtept>
    <rtept lat="47.77018" lon="14.31854"></rtept>
    <rtept lat="47.77010" lon="14.31887"></rtept>
    <rtept lat="47.76988" lon="14.31879"></rtept>
    <rtept lat="47.76977" lon="14.31861"></rtept>
    <rtept lat="47.76927" lon="14.31916"></rtept>
    <rtept lat="47.76906" lon="14.31893"></rtept>
    <rtept lat="47.76854" lon="14.32005"></rtept>
    <rtept lat="47.76833" lon="14.32068"></rtept>
    <rtept lat="47.76781" lon="14.32101"></rtept>
    <rtept lat="47.76756" lon="14.32047"></rtept>
    <rtept lat="47.76772" lon="14.32015"></rtept>
    <rtept lat="47.76757" lon="14.32003"></rtept>
    <rtept lat="47.76781" lon="14.31852"></rtept>
    <rtept lat="47.76757" lon="14.31796"></rtept>
    <rtept lat="47.76735" lon="14.31837"></rtept>
    <rtept lat="47.76711" lon="14.31864"></rtept>
    <rtept lat="47.76677" lon="14.31838"></rtept>
    <rtept lat="47.76685" lon="14.31801"></rtept>
    <rtept lat="47.76646" lon="14.31697"></rtept>
    <rtept lat="47.76635" lon="14.31731"></rtept>
    <rtept lat="47.76616" lon="14.31707"></rtept>
    <rtept lat="47.76607" lon="14.31671"></rtept>
    <rtept lat="47.76549" lon="14.31627"></rtept>
    <rtept lat="47.76448" lon="14.31668"></rtept>
    <rtept lat="47.76331" lon="14.31643"></rtept>
    <rtept lat="47.76248" lon="14.31550"></rtept>
    <rtept lat="47.76177" lon="14.31539"></rtept>
    <rtept lat="47.76160" lon="14.31586"></rtept>
    <rtept lat="47.76127" lon="14.31548"></rtept>
    <rtept lat="47.76121" lon="14.31589"></rtept>
    <rtept lat="47.76076" lon="14.31554"></rtept>
    <rtept lat="47.76076" lon="14.31597"></rtept>
    <rtept lat="47.76033" lon="14.31576"></rtept>
    <rtept lat="47.76006" lon="14.31545"></rtept>
    <rtept lat="47.75992" lon="14.31600"></rtept>
    <rtept lat="47.75977" lon="14.31598"></rtept>
    <rtept lat="47.75965" lon="14.31653"></rtept>
    <rtept lat="47.75903" lon="14.31527"></rtept>
    <rtept lat="47.75875" lon="14.31509"></rtept>
    <rtept lat="47.75831" lon="14.31497"></rtept>
    <rtept lat="47.75672" lon="14.31379"></rtept>
    <rtept lat="47.75616" lon="14.31315"></rtept>
    <rtept lat="47.75589" lon="14.31301"></rtept>
    <rtept lat="47.75563" lon="14.31251"></rtept>
    <rtept lat="47.75575" lon="14.31339"></rtept>
    <rtept lat="47.75422" lon="14.31246"></rtept>
    <rtept lat="47.75406" lon="14.31267"></rtept>
</rte>
</gpx>