<?xml version="1.0" encoding="UTF-8"?>
<gpx version="1.1" creator="GPX-Pro" xmlns="http://www.topografix.com/GPX/1/1">
<trk>
  <name>Hike_Spranggupf</name>
  <trkseg>
    <trkpt lat="47.71401" lon="13.62063"><ele>466</ele><time>2020-12-19T08:32:56Z</time></trkpt>
    <trkpt lat="47.71401" lon="13.62031"><ele>467</ele><time>2020-12-19T08:33:19Z</time></trkpt>
    <trkpt lat="47.71421" lon="13.61933"><ele>469</ele><time>2020-12-19T08:34:23Z</time></trkpt>
    <trkpt lat="47.71467" lon="13.61834"><ele>478</ele><time>2020-12-19T08:35:46Z</time></trkpt>
    <trkpt lat="47.71478" lon="13.61758"><ele>483</ele><time>2020-12-19T08:36:29Z</time></trkpt>
    <trkpt lat="47.71485" lon="13.61716"><ele>480</ele><time>2020-12-19T08:36:58Z</time></trkpt>
    <trkpt lat="47.71496" lon="13.61689"><ele>479</ele><time>2020-12-19T08:37:37Z</time></trkpt>
    <trkpt lat="47.71517" lon="13.61640"><ele>480</ele><time>2020-12-19T08:38:07Z</time></trkpt>
    <trkpt lat="47.71549" lon="13.61610"><ele>479</ele><time>2020-12-19T08:38:37Z</time></trkpt>
    <trkpt lat="47.71573" lon="13.61563"><ele>479</ele><time>2020-12-19T08:39:06Z</time></trkpt>
    <trkpt lat="47.71611" lon="13.61535"><ele>493</ele><time>2020-12-19T08:39:35Z</time></trkpt>
    <trkpt lat="47.71848" lon="13.61375"><ele>490</ele><time>2020-12-19T08:43:22Z</time></trkpt>
    <trkpt lat="47.71979" lon="13.61225"><ele>456</ele><time>2020-12-19T08:45:33Z</time></trkpt>
    <trkpt lat="47.72015" lon="13.61121"><ele>468</ele><time>2020-12-19T08:46:36Z</time></trkpt>
    <trkpt lat="47.72041" lon="13.60933"><ele>472</ele><time>2020-12-19T08:48:24Z</time></trkpt>
    <trkpt lat="47.72037" lon="13.60733"><ele>473</ele><time>2020-12-19T08:49:55Z</time></trkpt>
    <trkpt lat="47.72046" lon="13.60678"><ele>482</ele><time>2020-12-19T08:50:24Z</time></trkpt>
    <trkpt lat="47.72093" lon="13.60582"><ele>484</ele><time>2020-12-19T08:51:37Z</time></trkpt>
    <trkpt lat="47.72098" lon="13.60525"><ele>481</ele><time>2020-12-19T08:52:07Z</time></trkpt>
    <trkpt lat="47.72135" lon="13.60408"><ele>476</ele><time>2020-12-19T08:53:09Z</time></trkpt>
    <trkpt lat="47.72148" lon="13.60354"><ele>480</ele><time>2020-12-19T08:53:38Z</time></trkpt>
    <trkpt lat="47.72217" lon="13.60294"><ele>473</ele><time>2020-12-19T08:54:47Z</time></trkpt>
    <trkpt lat="47.72317" lon="13.60271"><ele>504</ele><time>2020-12-19T08:55:51Z</time></trkpt>
    <trkpt lat="47.72490" lon="13.60028"><ele>499</ele><time>2020-12-19T08:58:56Z</time></trkpt>
    <trkpt lat="47.72503" lon="13.59986"><ele>502</ele><time>2020-12-19T08:59:25Z</time></trkpt>
    <trkpt lat="47.72496" lon="13.59932"><ele>503</ele><time>2020-12-19T08:59:54Z</time></trkpt>
    <trkpt lat="47.72503" lon="13.59877"><ele>501</ele><time>2020-12-19T09:00:24Z</time></trkpt>
    <trkpt lat="47.72516" lon="13.59828"><ele>508</ele><time>2020-12-19T09:00:53Z</time></trkpt>
    <trkpt lat="47.72534" lon="13.59781"><ele>501</ele><time>2020-12-19T09:01:26Z</time></trkpt>
    <trkpt lat="47.72566" lon="13.59659"><ele>501</ele><time>2020-12-19T09:02:35Z</time></trkpt>
    <trkpt lat="47.72573" lon="13.59611"><ele>509</ele><time>2020-12-19T09:03:02Z</time></trkpt>
    <trkpt lat="47.72608" lon="13.59456"><ele>512</ele><time>2020-12-19T09:05:11Z</time></trkpt>
    <trkpt lat="47.72595" lon="13.59329"><ele>498</ele><time>2020-12-19T09:06:38Z</time></trkpt>
    <trkpt lat="47.72676" lon="13.59290"><ele>487</ele><time>2020-12-19T09:08:22Z</time></trkpt>
    <trkpt lat="47.72764" lon="13.58884"><ele>516</ele><time>2020-12-19T09:12:09Z</time></trkpt>
    <trkpt lat="47.72867" lon="13.58885"><ele>509</ele><time>2020-12-19T09:12:37Z</time></trkpt>
    <trkpt lat="47.72853" lon="13.58685"><ele>545</ele><time>2020-12-19T09:15:38Z</time></trkpt>
    <trkpt lat="47.72845" lon="13.58357"><ele>537</ele><time>2020-12-19T09:19:05Z</time></trkpt>
    <trkpt lat="47.72841" lon="13.58370"><ele>539</ele><time>2020-12-19T09:19:26Z</time></trkpt>
    <trkpt lat="47.72889" lon="13.58381"><ele>529</ele><time>2020-12-19T09:21:59Z</time></trkpt>
    <trkpt lat="47.72928" lon="13.58422"><ele>552</ele><time>2020-12-19T09:23:51Z</time></trkpt>
    <trkpt lat="47.72943" lon="13.58438"><ele>530</ele><time>2020-12-19T09:29:58Z</time></trkpt>
    <trkpt lat="47.72940" lon="13.58473"><ele>547</ele><time>2020-12-19T09:32:16Z</time></trkpt>
    <trkpt lat="47.72960" lon="13.58498"><ele>575</ele><time>2020-12-19T09:32:51Z</time></trkpt>
    <trkpt lat="47.72979" lon="13.58536"><ele>611</ele><time>2020-12-19T09:34:11Z</time></trkpt>
    <trkpt lat="47.73033" lon="13.58618"><ele>662</ele><time>2020-12-19T09:39:04Z</time></trkpt>
    <trkpt lat="47.73062" lon="13.58678"><ele>657</ele><time>2020-12-19T09:39:33Z</time></trkpt>
    <trkpt lat="47.73105" lon="13.58751"><ele>674</ele><time>2020-12-19T09:42:09Z</time></trkpt>
    <trkpt lat="47.73186" lon="13.58829"><ele>678</ele><time>2020-12-19T09:45:00Z</time></trkpt>
    <trkpt lat="47.73174" lon="13.58849"><ele>677</ele><time>2020-12-19T09:45:32Z</time></trkpt>
    <trkpt lat="47.73241" lon="13.58898"><ele>675</ele><time>2020-12-19T09:47:46Z</time></trkpt>
    <trkpt lat="47.73280" lon="13.58840"><ele>692</ele><time>2020-12-19T09:50:18Z</time></trkpt>
    <trkpt lat="47.73350" lon="13.58947"><ele>698</ele><time>2020-12-19T09:56:57Z</time></trkpt>
    <trkpt lat="47.73433" lon="13.59053"><ele>717</ele><time>2020-12-19T09:58:15Z</time></trkpt>
    <trkpt lat="47.73522" lon="13.59154"><ele>816</ele><time>2020-12-19T10:06:53Z</time></trkpt>
    <trkpt lat="47.73522" lon="13.59131"><ele>848</ele><time>2020-12-19T10:07:46Z</time></trkpt>
    <trkpt lat="47.73513" lon="13.59129"><ele>894</ele><time>2020-12-19T10:10:45Z</time></trkpt>
    <trkpt lat="47.73499" lon="13.59148"><ele>857</ele><time>2020-12-19T10:13:36Z</time></trkpt>
    <trkpt lat="47.73505" lon="13.59134"><ele>881</ele><time>2020-12-19T10:14:37Z</time></trkpt>
    <trkpt lat="47.73566" lon="13.59132"><ele>934</ele><time>2020-12-19T10:17:53Z</time></trkpt>
    <trkpt lat="47.73570" lon="13.59160"><ele>918</ele><time>2020-12-19T10:18:28Z</time></trkpt>
    <trkpt lat="47.73619" lon="13.59231"><ele>912</ele><time>2020-12-19T10:21:20Z</time></trkpt>
    <trkpt lat="47.73638" lon="13.59240"><ele>958</ele><time>2020-12-19T10:21:58Z</time></trkpt>
    <trkpt lat="47.73649" lon="13.59264"><ele>921</ele><time>2020-12-19T10:24:09Z</time></trkpt>
    <trkpt lat="47.73664" lon="13.59281"><ele>966</ele><time>2020-12-19T10:25:49Z</time></trkpt>
    <trkpt lat="47.73714" lon="13.59300"><ele>1004</ele><time>2020-12-19T10:26:54Z</time></trkpt>
    <trkpt lat="47.73741" lon="13.59280"><ele>1008</ele><time>2020-12-19T10:29:07Z</time></trkpt>
    <trkpt lat="47.73754" lon="13.59299"><ele>1017</ele><time>2020-12-19T10:30:05Z</time></trkpt>
    <trkpt lat="47.73817" lon="13.59378"><ele>962</ele><time>2020-12-19T10:32:52Z</time></trkpt>
    <trkpt lat="47.73822" lon="13.59405"><ele>1003</ele><time>2020-12-19T10:34:03Z</time></trkpt>
    <trkpt lat="47.73859" lon="13.59420"><ele>987</ele><time>2020-12-19T10:34:47Z</time></trkpt>
    <trkpt lat="47.73930" lon="13.59455"><ele>1005</ele><time>2020-12-19T10:38:35Z</time></trkpt>
    <trkpt lat="47.73936" lon="13.59485"><ele>1120</ele><time>2020-12-19T10:39:18Z</time></trkpt>
    <trkpt lat="47.73951" lon="13.59527"><ele>1098</ele><time>2020-12-19T10:41:03Z</time></trkpt>
    <trkpt lat="47.73987" lon="13.59511"><ele>1138</ele><time>2020-12-19T10:42:15Z</time></trkpt>
    <trkpt lat="47.74024" lon="13.59549"><ele>1136</ele><time>2020-12-19T10:44:31Z</time></trkpt>
    <trkpt lat="47.74049" lon="13.59577"><ele>1165</ele><time>2020-12-19T10:47:01Z</time></trkpt>
    <trkpt lat="47.74060" lon="13.59548"><ele>1188</ele><time>2020-12-19T10:47:49Z</time></trkpt>
    <trkpt lat="47.74090" lon="13.59590"><ele>1192</ele><time>2020-12-19T10:49:12Z</time></trkpt>
    <trkpt lat="47.74103" lon="13.59621"><ele>1191</ele><time>2020-12-19T10:50:20Z</time></trkpt>
    <trkpt lat="47.74120" lon="13.59616"><ele>1193</ele><time>2020-12-19T10:51:56Z</time></trkpt>
    <trkpt lat="47.74099" lon="13.59654"><ele>1199</ele><time>2020-12-19T11:37:22Z</time></trkpt>
    <trkpt lat="47.74120" lon="13.59634"><ele>1213</ele><time>2020-12-19T11:41:04Z</time></trkpt>
    <trkpt lat="47.74143" lon="13.59653"><ele>1226</ele><time>2020-12-19T11:46:34Z</time></trkpt>
    <trkpt lat="47.74152" lon="13.59679"><ele>1246</ele><time>2020-12-19T11:47:24Z</time></trkpt>
    <trkpt lat="47.74163" lon="13.59737"><ele>1254</ele><time>2020-12-19T11:49:46Z</time></trkpt>
    <trkpt lat="47.74213" lon="13.59731"><ele>1226</ele><time>2020-12-19T11:51:07Z</time></trkpt>
    <trkpt lat="47.74200" lon="13.59812"><ele>1299</ele><time>2020-12-19T11:52:47Z</time></trkpt>
    <trkpt lat="47.74201" lon="13.59870"><ele>1311</ele><time>2020-12-19T11:54:07Z</time></trkpt>
    <trkpt lat="47.74249" lon="13.59857"><ele>1293</ele><time>2020-12-19T11:55:10Z</time></trkpt>
    <trkpt lat="47.74269" lon="13.59897"><ele>1314</ele><time>2020-12-19T11:56:11Z</time></trkpt>
    <trkpt lat="47.74335" lon="13.59897"><ele>1280</ele><time>2020-12-19T11:58:19Z</time></trkpt>
    <trkpt lat="47.74339" lon="13.59931"><ele>1323</ele><time>2020-12-19T11:58:48Z</time></trkpt>
    <trkpt lat="47.74351" lon="13.59946"><ele>1338</ele><time>2020-12-19T12:00:26Z</time></trkpt>
    <trkpt lat="47.74361" lon="13.59949"><ele>1334</ele><time>2020-12-19T12:01:08Z</time></trkpt>
    <trkpt lat="47.74434" lon="13.59966"><ele>1363</ele><time>2020-12-19T12:03:38Z</time></trkpt>
    <trkpt lat="47.74451" lon="13.60058"><ele>1371</ele><time>2020-12-19T12:07:20Z</time></trkpt>
    <trkpt lat="47.74461" lon="13.60056"><ele>1387</ele><time>2020-12-19T12:08:25Z</time></trkpt>
    <trkpt lat="47.74427" lon="13.60052"><ele>1333</ele><time>2020-12-19T12:16:36Z</time></trkpt>
    <trkpt lat="47.74409" lon="13.60089"><ele>1351</ele><time>2020-12-19T12:27:14Z</time></trkpt>
    <trkpt lat="47.74394" lon="13.60122"><ele>1353</ele><time>2020-12-19T12:28:16Z</time></trkpt>
    <trkpt lat="47.74388" lon="13.60172"><ele>1331</ele><time>2020-12-19T12:29:19Z</time></trkpt>
    <trkpt lat="47.74389" lon="13.60220"><ele>1288</ele><time>2020-12-19T12:31:17Z</time></trkpt>
    <trkpt lat="47.74393" lon="13.60246"><ele>1321</ele><time>2020-12-19T12:33:50Z</time></trkpt>
    <trkpt lat="47.74402" lon="13.60267"><ele>1268</ele><time>2020-12-19T12:35:25Z</time></trkpt>
    <trkpt lat="47.74399" lon="13.60282"><ele>1229</ele><time>2020-12-19T12:36:37Z</time></trkpt>
    <trkpt lat="47.74389" lon="13.60379"><ele>1235</ele><time>2020-12-19T12:37:42Z</time></trkpt>
    <trkpt lat="47.74350" lon="13.60343"><ele>1222</ele><time>2020-12-19T12:38:35Z</time></trkpt>
    <trkpt lat="47.74334" lon="13.60407"><ele>1220</ele><time>2020-12-19T12:39:42Z</time></trkpt>
    <trkpt lat="47.74267" lon="13.60463"><ele>1191</ele><time>2020-12-19T12:41:27Z</time></trkpt>
    <trkpt lat="47.74222" lon="13.60513"><ele>1186</ele><time>2020-12-19T12:42:34Z</time></trkpt>
    <trkpt lat="47.74168" lon="13.60539"><ele>1129</ele><time>2020-12-19T12:44:23Z</time></trkpt>
    <trkpt lat="47.74116" lon="13.60610"><ele>1080</ele><time>2020-12-19T12:45:26Z</time></trkpt>
    <trkpt lat="47.74063" lon="13.60751"><ele>1060</ele><time>2020-12-19T12:50:14Z</time></trkpt>
    <trkpt lat="47.74054" lon="13.60804"><ele>1055</ele><time>2020-12-19T12:50:52Z</time></trkpt>
    <trkpt lat="47.74043" lon="13.60878"><ele>1034</ele><time>2020-12-19T12:52:54Z</time></trkpt>
    <trkpt lat="47.74037" lon="13.60918"><ele>1029</ele><time>2020-12-19T12:59:12Z</time></trkpt>
    <trkpt lat="47.74028" lon="13.61072"><ele>995</ele><time>2020-12-19T13:02:11Z</time></trkpt>
    <trkpt lat="47.74049" lon="13.61126"><ele>980</ele><time>2020-12-19T13:03:15Z</time></trkpt>
    <trkpt lat="47.74036" lon="13.61133"><ele>989</ele><time>2020-12-19T13:03:44Z</time></trkpt>
    <trkpt lat="47.74035" lon="13.61165"><ele>977</ele><time>2020-12-19T13:06:01Z</time></trkpt>
    <trkpt lat="47.74026" lon="13.61201"><ele>965</ele><time>2020-12-19T13:06:30Z</time></trkpt>
    <trkpt lat="47.73958" lon="13.61286"><ele>984</ele><time>2020-12-19T13:07:11Z</time></trkpt>
    <trkpt lat="47.73888" lon="13.61627"><ele>937</ele><time>2020-12-19T13:08:44Z</time></trkpt>
    <trkpt lat="47.73803" lon="13.61628"><ele>900</ele><time>2020-12-19T13:12:49Z</time></trkpt>
    <trkpt lat="47.73704" lon="13.61754"><ele>899</ele><time>2020-12-19T13:14:45Z</time></trkpt>
    <trkpt lat="47.73514" lon="13.61801"><ele>880</ele><time>2020-12-19T13:17:06Z</time></trkpt>
    <trkpt lat="47.73443" lon="13.61828"><ele>848</ele><time>2020-12-19T13:18:07Z</time></trkpt>
    <trkpt lat="47.73397" lon="13.61790"><ele>863</ele><time>2020-12-19T13:19:00Z</time></trkpt>
    <trkpt lat="47.73189" lon="13.61955"><ele>853</ele><time>2020-12-19T13:21:27Z</time></trkpt>
    <trkpt lat="47.73083" lon="13.61928"><ele>828</ele><time>2020-12-19T13:22:55Z</time></trkpt>
    <trkpt lat="47.72945" lon="13.61868"><ele>821</ele><time>2020-12-19T13:23:59Z</time></trkpt>
    <trkpt lat="47.72932" lon="13.62004"><ele>831</ele><time>2020-12-19T13:25:26Z</time></trkpt>
    <trkpt lat="47.73182" lon="13.62452"><ele>760</ele><time>2020-12-19T13:35:29Z</time></trkpt>
    <trkpt lat="47.73265" lon="13.62736"><ele>776</ele><time>2020-12-19T13:35:58Z</time></trkpt>
    <trkpt lat="47.73239" lon="13.62935"><ele>769</ele><time>2020-12-19T13:36:20Z</time></trkpt>
    <trkpt lat="47.73271" lon="13.63053"><ele>774</ele><time>2020-12-19T13:37:34Z</time></trkpt>
    <trkpt lat="47.73269" lon="13.63100"><ele>765</ele><time>2020-12-19T13:38:04Z</time></trkpt>
    <trkpt lat="47.73271" lon="13.63151"><ele>759</ele><time>2020-12-19T13:38:35Z</time></trkpt>
    <trkpt lat="47.73238" lon="13.63234"><ele>792</ele><time>2020-12-19T13:43:50Z</time></trkpt>
    <trkpt lat="47.73194" lon="13.63295"><ele>747</ele><time>2020-12-19T13:47:05Z</time></trkpt>
    <trkpt lat="47.73166" lon="13.63334"><ele>719</ele><time>2020-12-19T13:48:50Z</time></trkpt>
    <trkpt lat="47.73162" lon="13.63423"><ele>798</ele><time>2020-12-19T13:52:43Z</time></trkpt>
    <trkpt lat="47.73165" lon="13.63586"><ele>754</ele><time>2020-12-19T13:54:23Z</time></trkpt>
    <trkpt lat="47.73126" lon="13.63456"><ele>736</ele><time>2020-12-19T13:55:56Z</time></trkpt>
    <trkpt lat="47.73178" lon="13.63159"><ele>709</ele><time>2020-12-19T13:59:06Z</time></trkpt>
    <trkpt lat="47.73087" lon="13.62833"><ele>677</ele><time>2020-12-19T14:01:26Z</time></trkpt>
    <trkpt lat="47.72931" lon="13.62645"><ele>675</ele><time>2020-12-19T14:04:17Z</time></trkpt>
    <trkpt lat="47.72824" lon="13.62549"><ele>639</ele><time>2020-12-19T14:06:22Z</time></trkpt>
    <trkpt lat="47.72755" lon="13.62259"><ele>602</ele><time>2020-12-19T14:11:05Z</time></trkpt>
    <trkpt lat="47.72642" lon="13.62388"><ele>563</ele><time>2020-12-19T14:13:41Z</time></trkpt>
    <trkpt lat="47.72612" lon="13.62383"><ele>553</ele><time>2020-12-19T14:14:10Z</time></trkpt>
    <trkpt lat="47.72576" lon="13.62371"><ele>540</ele><time>2020-12-19T14:14:40Z</time></trkpt>
    <trkpt lat="47.72538" lon="13.62380"><ele>542</ele><time>2020-12-19T14:15:10Z</time></trkpt>
    <trkpt lat="47.72501" lon="13.62382"><ele>540</ele><time>2020-12-19T14:15:39Z</time></trkpt>
    <trkpt lat="47.72487" lon="13.62390"><ele>540</ele><time>2020-12-19T14:16:58Z</time></trkpt>
    <trkpt lat="47.72493" lon="13.62379"><ele>554</ele><time>2020-12-19T14:19:15Z</time></trkpt>
    <trkpt lat="47.72477" lon="13.62384"><ele>554</ele><time>2020-12-19T14:19:45Z</time></trkpt>
    <trkpt lat="47.72322" lon="13.61972"><ele>544</ele><time>2020-12-19T14:24:28Z</time></trkpt>
    <trkpt lat="47.72188" lon="13.61714"><ele>534</ele><time>2020-12-19T14:27:33Z</time></trkpt>
    <trkpt lat="47.72059" lon="13.61533"><ele>536</ele><time>2020-12-19T14:30:44Z</time></trkpt>
    <trkpt lat="47.71989" lon="13.61560"><ele>543</ele><time>2020-12-19T14:31:37Z</time></trkpt>
    <trkpt lat="47.71957" lon="13.61546"><ele>558</ele><time>2020-12-19T14:32:06Z</time></trkpt>
    <trkpt lat="47.71889" lon="13.61562"><ele>524</ele><time>2020-12-19T14:33:13Z</time></trkpt>
    <trkpt lat="47.71681" lon="13.61421"><ele>459</ele><time>2020-12-19T14:36:18Z</time></trkpt>
    <trkpt lat="47.71479" lon="13.61736"><ele>478</ele><time>2020-12-19T14:40:04Z</time></trkpt>
    <trkpt lat="47.71421" lon="13.62084"><ele>450</ele><time>2020-12-19T14:44:10Z</time></trkpt>
  </trkseg>
</trk>
</gpx>