<?xml version="1.0" encoding="UTF-8"?>
<gpx version="1.1" creator="GPX-Pro" xmlns="http://www.topografix.com/GPX/1/1">
<trk>
  <name>Ski_Felskarspitze</name>
  <trkseg>
    <trkpt lat="47.18205" lon="13.43589"><ele>1339</ele><time>2020-12-27T07:40:09Z</time></trkpt>
    <trkpt lat="47.18263" lon="13.43267"><ele>1377</ele><time>2020-12-27T07:44:42Z</time></trkpt>
    <trkpt lat="47.18163" lon="13.43122"><ele>1367</ele><time>2020-12-27T07:47:50Z</time></trkpt>
    <trkpt lat="47.18144" lon="13.42975"><ele>1438</ele><time>2020-12-27T07:50:24Z</time></trkpt>
    <trkpt lat="47.18144" lon="13.42871"><ele>1424</ele><time>2020-12-27T07:54:03Z</time></trkpt>
    <trkpt lat="47.18115" lon="13.42723"><ele>1465</ele><time>2020-12-27T07:56:53Z</time></trkpt>
    <trkpt lat="47.18057" lon="13.42623"><ele>1500</ele><time>2020-12-27T08:00:03Z</time></trkpt>
    <trkpt lat="47.17939" lon="13.42700"><ele>1550</ele><time>2020-12-27T08:04:30Z</time></trkpt>
    <trkpt lat="47.17899" lon="13.42694"><ele>1560</ele><time>2020-12-27T08:08:45Z</time></trkpt>
    <trkpt lat="47.17824" lon="13.42694"><ele>1618</ele><time>2020-12-27T08:14:11Z</time></trkpt>
    <trkpt lat="47.17795" lon="13.42756"><ele>1642</ele><time>2020-12-27T08:15:21Z</time></trkpt>
    <trkpt lat="47.17741" lon="13.42760"><ele>1646</ele><time>2020-12-27T08:19:10Z</time></trkpt>
    <trkpt lat="47.17654" lon="13.42796"><ele>1673</ele><time>2020-12-27T08:23:26Z</time></trkpt>
    <trkpt lat="47.17621" lon="13.42783"><ele>1595</ele><time>2020-12-27T08:24:34Z</time></trkpt>
    <trkpt lat="47.17532" lon="13.42813"><ele>1714</ele><time>2020-12-27T08:25:37Z</time></trkpt>
    <trkpt lat="47.17531" lon="13.42828"><ele>1683</ele><time>2020-12-27T08:26:37Z</time></trkpt>
    <trkpt lat="47.17490" lon="13.42937"><ele>1763</ele><time>2020-12-27T08:30:52Z</time></trkpt>
    <trkpt lat="47.17467" lon="13.42877"><ele>1747</ele><time>2020-12-27T08:31:45Z</time></trkpt>
    <trkpt lat="47.17450" lon="13.42844"><ele>1735</ele><time>2020-12-27T08:32:15Z</time></trkpt>
    <trkpt lat="47.17438" lon="13.42820"><ele>1731</ele><time>2020-12-27T08:32:54Z</time></trkpt>
    <trkpt lat="47.17448" lon="13.42790"><ele>1729</ele><time>2020-12-27T08:36:34Z</time></trkpt>
    <trkpt lat="47.17493" lon="13.42739"><ele>1749</ele><time>2020-12-27T08:38:06Z</time></trkpt>
    <trkpt lat="47.17400" lon="13.42639"><ele>1792</ele><time>2020-12-27T08:42:18Z</time></trkpt>
    <trkpt lat="47.17384" lon="13.42632"><ele>1777</ele><time>2020-12-27T08:43:01Z</time></trkpt>
    <trkpt lat="47.17391" lon="13.42568"><ele>1772</ele><time>2020-12-27T08:44:55Z</time></trkpt>
    <trkpt lat="47.17353" lon="13.42510"><ele>1832</ele><time>2020-12-27T08:46:11Z</time></trkpt>
    <trkpt lat="47.17335" lon="13.42499"><ele>1817</ele><time>2020-12-27T08:47:02Z</time></trkpt>
    <trkpt lat="47.17268" lon="13.42494"><ele>1852</ele><time>2020-12-27T08:49:04Z</time></trkpt>
    <trkpt lat="47.17248" lon="13.42487"><ele>1854</ele><time>2020-12-27T08:49:33Z</time></trkpt>
    <trkpt lat="47.17198" lon="13.42398"><ele>1853</ele><time>2020-12-27T08:52:15Z</time></trkpt>
    <trkpt lat="47.17174" lon="13.42341"><ele>1911</ele><time>2020-12-27T08:53:35Z</time></trkpt>
    <trkpt lat="47.17156" lon="13.42314"><ele>1917</ele><time>2020-12-27T08:54:58Z</time></trkpt>
    <trkpt lat="47.17125" lon="13.42260"><ele>1930</ele><time>2020-12-27T08:57:05Z</time></trkpt>
    <trkpt lat="47.17121" lon="13.42280"><ele>1933</ele><time>2020-12-27T08:57:35Z</time></trkpt>
    <trkpt lat="47.17043" lon="13.42167"><ele>1997</ele><time>2020-12-27T09:03:15Z</time></trkpt>
    <trkpt lat="47.17047" lon="13.42155"><ele>1993</ele><time>2020-12-27T09:03:45Z</time></trkpt>
    <trkpt lat="47.17034" lon="13.42109"><ele>1962</ele><time>2020-12-27T09:04:16Z</time></trkpt>
    <trkpt lat="47.16999" lon="13.42091"><ele>1977</ele><time>2020-12-27T09:07:07Z</time></trkpt>
    <trkpt lat="47.16976" lon="13.42038"><ele>1972</ele><time>2020-12-27T09:08:04Z</time></trkpt>
    <trkpt lat="47.16971" lon="13.42057"><ele>1966</ele><time>2020-12-27T09:08:07Z</time></trkpt>
    <trkpt lat="47.16826" lon="13.41979"><ele>2064</ele><time>2020-12-27T09:12:17Z</time></trkpt>
    <trkpt lat="47.16807" lon="13.41996"><ele>2014</ele><time>2020-12-27T09:12:55Z</time></trkpt>
    <trkpt lat="47.16724" lon="13.41967"><ele>2058</ele><time>2020-12-27T09:15:18Z</time></trkpt>
    <trkpt lat="47.16701" lon="13.41955"><ele>2043</ele><time>2020-12-27T09:15:52Z</time></trkpt>
    <trkpt lat="47.16665" lon="13.41953"><ele>2073</ele><time>2020-12-27T09:17:20Z</time></trkpt>
    <trkpt lat="47.16652" lon="13.41928"><ele>2093</ele><time>2020-12-27T09:17:49Z</time></trkpt>
    <trkpt lat="47.16609" lon="13.41877"><ele>2084</ele><time>2020-12-27T09:19:24Z</time></trkpt>
    <trkpt lat="47.16602" lon="13.41848"><ele>2122</ele><time>2020-12-27T09:19:54Z</time></trkpt>
    <trkpt lat="47.16575" lon="13.41807"><ele>2112</ele><time>2020-12-27T09:21:14Z</time></trkpt>
    <trkpt lat="47.16568" lon="13.41766"><ele>2155</ele><time>2020-12-27T09:22:13Z</time></trkpt>
    <trkpt lat="47.16462" lon="13.41686"><ele>2158</ele><time>2020-12-27T09:25:24Z</time></trkpt>
    <trkpt lat="47.16449" lon="13.41692"><ele>2171</ele><time>2020-12-27T09:26:15Z</time></trkpt>
    <trkpt lat="47.16382" lon="13.41620"><ele>2196</ele><time>2020-12-27T09:29:45Z</time></trkpt>
    <trkpt lat="47.16360" lon="13.41537"><ele>2225</ele><time>2020-12-27T09:30:57Z</time></trkpt>
    <trkpt lat="47.16354" lon="13.41559"><ele>2215</ele><time>2020-12-27T09:32:17Z</time></trkpt>
    <trkpt lat="47.16341" lon="13.41568"><ele>2213</ele><time>2020-12-27T09:32:46Z</time></trkpt>
    <trkpt lat="47.16329" lon="13.41571"><ele>2229</ele><time>2020-12-27T09:33:35Z</time></trkpt>
    <trkpt lat="47.16307" lon="13.41585"><ele>2230</ele><time>2020-12-27T09:37:53Z</time></trkpt>
    <trkpt lat="47.16311" lon="13.41597"><ele>2238</ele><time>2020-12-27T09:41:51Z</time></trkpt>
    <trkpt lat="47.16321" lon="13.41525"><ele>2231</ele><time>2020-12-27T09:43:57Z</time></trkpt>
    <trkpt lat="47.16279" lon="13.41300"><ele>2109</ele><time>2020-12-27T09:47:50Z</time></trkpt>
    <trkpt lat="47.16191" lon="13.41191"><ele>2096</ele><time>2020-12-27T09:50:33Z</time></trkpt>
    <trkpt lat="47.16185" lon="13.41110"><ele>2144</ele><time>2020-12-27T09:54:14Z</time></trkpt>
    <trkpt lat="47.16146" lon="13.41043"><ele>2053</ele><time>2020-12-27T10:00:34Z</time></trkpt>
    <trkpt lat="47.16092" lon="13.40962"><ele>2173</ele><time>2020-12-27T10:03:23Z</time></trkpt>
    <trkpt lat="47.16071" lon="13.40931"><ele>2128</ele><time>2020-12-27T10:04:51Z</time></trkpt>
    <trkpt lat="47.15899" lon="13.40800"><ele>2238</ele><time>2020-12-27T10:10:34Z</time></trkpt>
    <trkpt lat="47.15900" lon="13.40783"><ele>2229</ele><time>2020-12-27T10:11:04Z</time></trkpt>
    <trkpt lat="47.15883" lon="13.40654"><ele>2248</ele><time>2020-12-27T10:14:55Z</time></trkpt>
    <trkpt lat="47.15833" lon="13.40691"><ele>2266</ele><time>2020-12-27T10:16:16Z</time></trkpt>
    <trkpt lat="47.15797" lon="13.40590"><ele>2233</ele><time>2020-12-27T10:18:16Z</time></trkpt>
    <trkpt lat="47.15821" lon="13.40540"><ele>2202</ele><time>2020-12-27T10:20:26Z</time></trkpt>
    <trkpt lat="47.15783" lon="13.40479"><ele>2142</ele><time>2020-12-27T10:21:30Z</time></trkpt>
    <trkpt lat="47.15796" lon="13.40463"><ele>2349</ele><time>2020-12-27T10:25:27Z</time></trkpt>
    <trkpt lat="47.15781" lon="13.40435"><ele>2353</ele><time>2020-12-27T10:26:26Z</time></trkpt>
    <trkpt lat="47.15778" lon="13.40417"><ele>2348</ele><time>2020-12-27T10:27:53Z</time></trkpt>
    <trkpt lat="47.15762" lon="13.40417"><ele>2372</ele><time>2020-12-27T10:28:22Z</time></trkpt>
    <trkpt lat="47.15773" lon="13.40390"><ele>2376</ele><time>2020-12-27T10:30:42Z</time></trkpt>
    <trkpt lat="47.15799" lon="13.40367"><ele>2329</ele><time>2020-12-27T10:32:55Z</time></trkpt>
    <trkpt lat="47.15781" lon="13.40356"><ele>2376</ele><time>2020-12-27T10:33:54Z</time></trkpt>
    <trkpt lat="47.15801" lon="13.40343"><ele>2384</ele><time>2020-12-27T10:36:26Z</time></trkpt>
    <trkpt lat="47.15807" lon="13.40366"><ele>2397</ele><time>2020-12-27T10:36:56Z</time></trkpt>
    <trkpt lat="47.15812" lon="13.40336"><ele>2415</ele><time>2020-12-27T10:38:01Z</time></trkpt>
    <trkpt lat="47.15814" lon="13.40317"><ele>2421</ele><time>2020-12-27T10:38:30Z</time></trkpt>
    <trkpt lat="47.15820" lon="13.40299"><ele>2420</ele><time>2020-12-27T10:39:00Z</time></trkpt>
    <trkpt lat="47.15826" lon="13.40282"><ele>2423</ele><time>2020-12-27T10:39:29Z</time></trkpt>
    <trkpt lat="47.15833" lon="13.40275"><ele>2434</ele><time>2020-12-27T10:41:01Z</time></trkpt>
    <trkpt lat="47.15842" lon="13.40262"><ele>2437</ele><time>2020-12-27T10:42:41Z</time></trkpt>
    <trkpt lat="47.15849" lon="13.40249"><ele>2436</ele><time>2020-12-27T10:43:11Z</time></trkpt>
    <trkpt lat="47.15849" lon="13.40227"><ele>2439</ele><time>2020-12-27T10:44:40Z</time></trkpt>
    <trkpt lat="47.15848" lon="13.40202"><ele>2457</ele><time>2020-12-27T10:45:06Z</time></trkpt>
    <trkpt lat="47.15842" lon="13.40169"><ele>2457</ele><time>2020-12-27T10:45:44Z</time></trkpt>
    <trkpt lat="47.15841" lon="13.40148"><ele>2458</ele><time>2020-12-27T10:46:17Z</time></trkpt>
    <trkpt lat="47.15827" lon="13.40107"><ele>2474</ele><time>2020-12-27T10:46:46Z</time></trkpt>
    <trkpt lat="47.15816" lon="13.40091"><ele>2477</ele><time>2020-12-27T10:47:49Z</time></trkpt>
    <trkpt lat="47.15807" lon="13.40071"><ele>2480</ele><time>2020-12-27T10:48:26Z</time></trkpt>
    <trkpt lat="47.15803" lon="13.40053"><ele>2483</ele><time>2020-12-27T10:49:00Z</time></trkpt>
    <trkpt lat="47.15815" lon="13.40060"><ele>2487</ele><time>2020-12-27T10:49:30Z</time></trkpt>
    <trkpt lat="47.15807" lon="13.40048"><ele>2481</ele><time>2020-12-27T10:50:05Z</time></trkpt>
    <trkpt lat="47.15798" lon="13.40031"><ele>2490</ele><time>2020-12-27T10:51:04Z</time></trkpt>
    <trkpt lat="47.15787" lon="13.40012"><ele>2496</ele><time>2020-12-27T10:51:37Z</time></trkpt>
    <trkpt lat="47.15798" lon="13.40008"><ele>2497</ele><time>2020-12-27T10:52:08Z</time></trkpt>
    <trkpt lat="47.15773" lon="13.39982"><ele>2512</ele><time>2020-12-27T10:52:39Z</time></trkpt>
    <trkpt lat="47.15767" lon="13.39965"><ele>2505</ele><time>2020-12-27T10:53:50Z</time></trkpt>
    <trkpt lat="47.15775" lon="13.40011"><ele>2516</ele><time>2020-12-27T10:58:29Z</time></trkpt>
    <trkpt lat="47.15789" lon="13.40029"><ele>2491</ele><time>2020-12-27T11:00:49Z</time></trkpt>
    <trkpt lat="47.15794" lon="13.40044"><ele>2489</ele><time>2020-12-27T11:01:18Z</time></trkpt>
    <trkpt lat="47.15803" lon="13.40049"><ele>2483</ele><time>2020-12-27T11:07:43Z</time></trkpt>
    <trkpt lat="47.15858" lon="13.40204"><ele>2448</ele><time>2020-12-27T11:08:14Z</time></trkpt>
    <trkpt lat="47.15866" lon="13.40234"><ele>2441</ele><time>2020-12-27T11:08:44Z</time></trkpt>
    <trkpt lat="47.15880" lon="13.40237"><ele>2437</ele><time>2020-12-27T11:09:28Z</time></trkpt>
    <trkpt lat="47.15911" lon="13.40288"><ele>2403</ele><time>2020-12-27T11:09:57Z</time></trkpt>
    <trkpt lat="47.15911" lon="13.40313"><ele>2393</ele><time>2020-12-27T11:10:29Z</time></trkpt>
    <trkpt lat="47.15909" lon="13.40329"><ele>2384</ele><time>2020-12-27T11:11:27Z</time></trkpt>
    <trkpt lat="47.16008" lon="13.40448"><ele>2290</ele><time>2020-12-27T11:12:34Z</time></trkpt>
    <trkpt lat="47.16037" lon="13.40515"><ele>2267</ele><time>2020-12-27T11:14:22Z</time></trkpt>
    <trkpt lat="47.16080" lon="13.40722"><ele>2195</ele><time>2020-12-27T11:14:51Z</time></trkpt>
    <trkpt lat="47.16081" lon="13.40749"><ele>2216</ele><time>2020-12-27T11:16:30Z</time></trkpt>
    <trkpt lat="47.16110" lon="13.40803"><ele>2174</ele><time>2020-12-27T11:16:58Z</time></trkpt>
    <trkpt lat="47.16205" lon="13.41163"><ele>2114</ele><time>2020-12-27T11:18:40Z</time></trkpt>
    <trkpt lat="47.16209" lon="13.41212"><ele>2120</ele><time>2020-12-27T11:19:09Z</time></trkpt>
    <trkpt lat="47.16229" lon="13.41228"><ele>2099</ele><time>2020-12-27T11:19:54Z</time></trkpt>
    <trkpt lat="47.16235" lon="13.41255"><ele>2102</ele><time>2020-12-27T11:20:27Z</time></trkpt>
    <trkpt lat="47.16251" lon="13.41278"><ele>2118</ele><time>2020-12-27T11:27:09Z</time></trkpt>
    <trkpt lat="47.16269" lon="13.41289"><ele>2116</ele><time>2020-12-27T11:28:10Z</time></trkpt>
    <trkpt lat="47.16280" lon="13.41301"><ele>2123</ele><time>2020-12-27T11:28:46Z</time></trkpt>
    <trkpt lat="47.16265" lon="13.41327"><ele>2132</ele><time>2020-12-27T11:29:45Z</time></trkpt>
    <trkpt lat="47.16257" lon="13.41349"><ele>2137</ele><time>2020-12-27T11:30:16Z</time></trkpt>
    <trkpt lat="47.16249" lon="13.41380"><ele>2152</ele><time>2020-12-27T11:31:14Z</time></trkpt>
    <trkpt lat="47.16252" lon="13.41404"><ele>2160</ele><time>2020-12-27T11:31:56Z</time></trkpt>
    <trkpt lat="47.16262" lon="13.41405"><ele>2160</ele><time>2020-12-27T11:32:25Z</time></trkpt>
    <trkpt lat="47.16264" lon="13.41427"><ele>2165</ele><time>2020-12-27T11:32:55Z</time></trkpt>
    <trkpt lat="47.16282" lon="13.41437"><ele>2165</ele><time>2020-12-27T11:33:58Z</time></trkpt>
    <trkpt lat="47.16290" lon="13.41445"><ele>2170</ele><time>2020-12-27T11:34:33Z</time></trkpt>
    <trkpt lat="47.16289" lon="13.41467"><ele>2167</ele><time>2020-12-27T11:35:33Z</time></trkpt>
    <trkpt lat="47.16312" lon="13.41488"><ele>2194</ele><time>2020-12-27T11:37:03Z</time></trkpt>
    <trkpt lat="47.16319" lon="13.41499"><ele>2194</ele><time>2020-12-27T11:37:41Z</time></trkpt>
    <trkpt lat="47.16329" lon="13.41498"><ele>2195</ele><time>2020-12-27T11:38:11Z</time></trkpt>
    <trkpt lat="47.16341" lon="13.41517"><ele>2211</ele><time>2020-12-27T11:38:44Z</time></trkpt>
    <trkpt lat="47.16350" lon="13.41519"><ele>2217</ele><time>2020-12-27T11:39:14Z</time></trkpt>
    <trkpt lat="47.16361" lon="13.41524"><ele>2214</ele><time>2020-12-27T11:39:44Z</time></trkpt>
    <trkpt lat="47.16356" lon="13.41545"><ele>2209</ele><time>2020-12-27T11:40:46Z</time></trkpt>
    <trkpt lat="47.16433" lon="13.41723"><ele>2166</ele><time>2020-12-27T11:42:36Z</time></trkpt>
    <trkpt lat="47.16493" lon="13.41820"><ele>2149</ele><time>2020-12-27T11:43:06Z</time></trkpt>
    <trkpt lat="47.16530" lon="13.41885"><ele>2140</ele><time>2020-12-27T11:43:36Z</time></trkpt>
    <trkpt lat="47.16545" lon="13.41920"><ele>2136</ele><time>2020-12-27T11:44:06Z</time></trkpt>
    <trkpt lat="47.16559" lon="13.41950"><ele>2141</ele><time>2020-12-27T11:44:41Z</time></trkpt>
    <trkpt lat="47.16575" lon="13.41984"><ele>2143</ele><time>2020-12-27T11:45:11Z</time></trkpt>
    <trkpt lat="47.16585" lon="13.42012"><ele>2147</ele><time>2020-12-27T11:45:40Z</time></trkpt>
    <trkpt lat="47.16598" lon="13.42045"><ele>2152</ele><time>2020-12-27T11:46:09Z</time></trkpt>
    <trkpt lat="47.16619" lon="13.42066"><ele>2146</ele><time>2020-12-27T11:46:39Z</time></trkpt>
    <trkpt lat="47.16637" lon="13.42097"><ele>2144</ele><time>2020-12-27T11:47:08Z</time></trkpt>
    <trkpt lat="47.16648" lon="13.42144"><ele>2147</ele><time>2020-12-27T11:47:38Z</time></trkpt>
    <trkpt lat="47.16660" lon="13.42173"><ele>2148</ele><time>2020-12-27T11:48:08Z</time></trkpt>
    <trkpt lat="47.16673" lon="13.42198"><ele>2153</ele><time>2020-12-27T11:48:37Z</time></trkpt>
    <trkpt lat="47.16685" lon="13.42223"><ele>2158</ele><time>2020-12-27T11:49:07Z</time></trkpt>
    <trkpt lat="47.16701" lon="13.42239"><ele>2156</ele><time>2020-12-27T11:49:36Z</time></trkpt>
    <trkpt lat="47.16713" lon="13.42265"><ele>2156</ele><time>2020-12-27T11:50:06Z</time></trkpt>
    <trkpt lat="47.16728" lon="13.42294"><ele>2166</ele><time>2020-12-27T11:50:36Z</time></trkpt>
    <trkpt lat="47.16734" lon="13.42308"><ele>2167</ele><time>2020-12-27T11:51:05Z</time></trkpt>
    <trkpt lat="47.16742" lon="13.42392"><ele>2157</ele><time>2020-12-27T11:57:46Z</time></trkpt>
    <trkpt lat="47.16742" lon="13.42408"><ele>2160</ele><time>2020-12-27T11:58:16Z</time></trkpt>
    <trkpt lat="47.16735" lon="13.42426"><ele>2161</ele><time>2020-12-27T11:58:47Z</time></trkpt>
    <trkpt lat="47.16782" lon="13.42666"><ele>2141</ele><time>2020-12-27T11:59:50Z</time></trkpt>
    <trkpt lat="47.16857" lon="13.42725"><ele>2101</ele><time>2020-12-27T12:00:19Z</time></trkpt>
    <trkpt lat="47.16897" lon="13.42782"><ele>2066</ele><time>2020-12-27T12:01:24Z</time></trkpt>
    <trkpt lat="47.16908" lon="13.42784"><ele>2063</ele><time>2020-12-27T12:01:54Z</time></trkpt>
    <trkpt lat="47.16939" lon="13.42782"><ele>2033</ele><time>2020-12-27T12:02:26Z</time></trkpt>
    <trkpt lat="47.17026" lon="13.42742"><ele>1986</ele><time>2020-12-27T12:02:56Z</time></trkpt>
    <trkpt lat="47.17106" lon="13.42725"><ele>1933</ele><time>2020-12-27T12:04:18Z</time></trkpt>
    <trkpt lat="47.17162" lon="13.42702"><ele>1905</ele><time>2020-12-27T12:04:53Z</time></trkpt>
    <trkpt lat="47.17175" lon="13.42748"><ele>1893</ele><time>2020-12-27T12:05:55Z</time></trkpt>
    <trkpt lat="47.17184" lon="13.42765"><ele>1883</ele><time>2020-12-27T12:06:24Z</time></trkpt>
    <trkpt lat="47.17259" lon="13.42764"><ele>1840</ele><time>2020-12-27T12:07:40Z</time></trkpt>
    <trkpt lat="47.17298" lon="13.42764"><ele>1818</ele><time>2020-12-27T12:08:09Z</time></trkpt>
    <trkpt lat="47.17343" lon="13.42772"><ele>1786</ele><time>2020-12-27T12:09:13Z</time></trkpt>
    <trkpt lat="47.17356" lon="13.42733"><ele>1775</ele><time>2020-12-27T12:09:44Z</time></trkpt>
    <trkpt lat="47.17389" lon="13.42709"><ele>1771</ele><time>2020-12-27T12:10:13Z</time></trkpt>
    <trkpt lat="47.17412" lon="13.42720"><ele>1774</ele><time>2020-12-27T12:10:44Z</time></trkpt>
    <trkpt lat="47.17406" lon="13.42776"><ele>1763</ele><time>2020-12-27T12:11:14Z</time></trkpt>
    <trkpt lat="47.17419" lon="13.42806"><ele>1752</ele><time>2020-12-27T12:11:44Z</time></trkpt>
    <trkpt lat="47.17455" lon="13.42834"><ele>1734</ele><time>2020-12-27T12:12:14Z</time></trkpt>
    <trkpt lat="47.17506" lon="13.42857"><ele>1707</ele><time>2020-12-27T12:13:01Z</time></trkpt>
    <trkpt lat="47.17534" lon="13.42864"><ele>1679</ele><time>2020-12-27T12:13:35Z</time></trkpt>
    <trkpt lat="47.17543" lon="13.42857"><ele>1714</ele><time>2020-12-27T12:14:04Z</time></trkpt>
    <trkpt lat="47.17567" lon="13.42829"><ele>1677</ele><time>2020-12-27T12:14:33Z</time></trkpt>
    <trkpt lat="47.17665" lon="13.42797"><ele>1671</ele><time>2020-12-27T12:15:05Z</time></trkpt>
    <trkpt lat="47.17755" lon="13.42783"><ele>1628</ele><time>2020-12-27T12:15:38Z</time></trkpt>
    <trkpt lat="47.17687" lon="13.42857"><ele>1624</ele><time>2020-12-27T12:16:03Z</time></trkpt>
    <trkpt lat="47.17733" lon="13.42882"><ele>1609</ele><time>2020-12-27T12:17:18Z</time></trkpt>
    <trkpt lat="47.17860" lon="13.42907"><ele>1586</ele><time>2020-12-27T12:18:29Z</time></trkpt>
    <trkpt lat="47.17921" lon="13.42826"><ele>1549</ele><time>2020-12-27T12:19:05Z</time></trkpt>
    <trkpt lat="47.17976" lon="13.42717"><ele>1533</ele><time>2020-12-27T12:19:33Z</time></trkpt>
    <trkpt lat="47.18050" lon="13.42657"><ele>1497</ele><time>2020-12-27T12:20:42Z</time></trkpt>
    <trkpt lat="47.18099" lon="13.42637"><ele>1480</ele><time>2020-12-27T12:21:52Z</time></trkpt>
    <trkpt lat="47.18125" lon="13.42787"><ele>1479</ele><time>2020-12-27T12:22:17Z</time></trkpt>
    <trkpt lat="47.18213" lon="13.42949"><ele>1426</ele><time>2020-12-27T12:23:29Z</time></trkpt>
    <trkpt lat="47.18301" lon="13.42810"><ele>1420</ele><time>2020-12-27T12:23:54Z</time></trkpt>
    <trkpt lat="47.18286" lon="13.43298"><ele>1348</ele><time>2020-12-27T12:25:07Z</time></trkpt>
    <trkpt lat="47.18214" lon="13.43388"><ele>1342</ele><time>2020-12-27T12:25:55Z</time></trkpt>
    <trkpt lat="47.18200" lon="13.43474"><ele>1332</ele><time>2020-12-27T12:26:24Z</time></trkpt>
    <trkpt lat="47.18205" lon="13.43516"><ele>1338</ele><time>2020-12-27T12:26:55Z</time></trkpt>
    <trkpt lat="47.18216" lon="13.43546"><ele>1340</ele><time>2020-12-27T12:27:57Z</time></trkpt>
    <trkpt lat="47.18231" lon="13.43581"><ele>1337</ele><time>2020-12-27T12:28:26Z</time></trkpt>
    <trkpt lat="47.18197" lon="13.43635"><ele>1344</ele><time>2020-12-27T12:28:56Z</time></trkpt>
    <trkpt lat="47.18173" lon="13.43689"><ele>1347</ele><time>2020-12-27T12:29:37Z</time></trkpt>
    <trkpt lat="47.18145" lon="13.43752"><ele>1327</ele><time>2020-12-27T12:30:15Z</time></trkpt>
    <trkpt lat="47.18152" lon="13.43778"><ele>1366</ele><time>2020-12-27T12:30:44Z</time></trkpt>
    <trkpt lat="47.18141" lon="13.43799"><ele>1343</ele><time>2020-12-27T12:31:15Z</time></trkpt>
    <trkpt lat="47.18137" lon="13.43809"><ele>1329</ele><time>2020-12-27T12:32:02Z</time></trkpt>
  </trkseg>
</trk>
</gpx>