<?xml version="1.0" encoding="UTF-8"?>
<gpx version="1.1" creator="GPX-Pro" xmlns="http://www.topografix.com/GPX/1/1">
<trk>
  <name>Ski_Hirscheck</name>
  <trkseg>
    <trkpt lat="47.66412" lon="14.10617"><ele>642</ele><time>2022-02-19T08:11:41Z</time></trkpt>
    <trkpt lat="47.66409" lon="14.10630"><ele>654</ele><time>2022-02-19T08:12:12Z</time></trkpt>
    <trkpt lat="47.66398" lon="14.10651"><ele>661</ele><time>2022-02-19T08:12:31Z</time></trkpt>
    <trkpt lat="47.66388" lon="14.10681"><ele>669</ele><time>2022-02-19T08:13:08Z</time></trkpt>
    <trkpt lat="47.66393" lon="14.10710"><ele>673</ele><time>2022-02-19T08:13:45Z</time></trkpt>
    <trkpt lat="47.66398" lon="14.10725"><ele>677</ele><time>2022-02-19T08:14:04Z</time></trkpt>
    <trkpt lat="47.66401" lon="14.10739"><ele>683</ele><time>2022-02-19T08:14:22Z</time></trkpt>
    <trkpt lat="47.66379" lon="14.10746"><ele>689</ele><time>2022-02-19T08:15:02Z</time></trkpt>
    <trkpt lat="47.66369" lon="14.10753"><ele>692</ele><time>2022-02-19T08:15:21Z</time></trkpt>
    <trkpt lat="47.66358" lon="14.10759"><ele>696</ele><time>2022-02-19T08:15:39Z</time></trkpt>
    <trkpt lat="47.66349" lon="14.10759"><ele>700</ele><time>2022-02-19T08:16:06Z</time></trkpt>
    <trkpt lat="47.66335" lon="14.10764"><ele>702</ele><time>2022-02-19T08:16:25Z</time></trkpt>
    <trkpt lat="47.66327" lon="14.10774"><ele>706</ele><time>2022-02-19T08:16:43Z</time></trkpt>
    <trkpt lat="47.66312" lon="14.10785"><ele>710</ele><time>2022-02-19T08:17:21Z</time></trkpt>
    <trkpt lat="47.66303" lon="14.10795"><ele>715</ele><time>2022-02-19T08:17:40Z</time></trkpt>
    <trkpt lat="47.66291" lon="14.10802"><ele>719</ele><time>2022-02-19T08:17:59Z</time></trkpt>
    <trkpt lat="47.66278" lon="14.10809"><ele>722</ele><time>2022-02-19T08:18:17Z</time></trkpt>
    <trkpt lat="47.66263" lon="14.10821"><ele>724</ele><time>2022-02-19T08:18:36Z</time></trkpt>
    <trkpt lat="47.66250" lon="14.10827"><ele>726</ele><time>2022-02-19T08:18:54Z</time></trkpt>
    <trkpt lat="47.66230" lon="14.10837"><ele>737</ele><time>2022-02-19T08:19:32Z</time></trkpt>
    <trkpt lat="47.66222" lon="14.10844"><ele>738</ele><time>2022-02-19T08:19:51Z</time></trkpt>
    <trkpt lat="47.66211" lon="14.10853"><ele>742</ele><time>2022-02-19T08:20:09Z</time></trkpt>
    <trkpt lat="47.66194" lon="14.10857"><ele>741</ele><time>2022-02-19T08:20:28Z</time></trkpt>
    <trkpt lat="47.66185" lon="14.10858"><ele>742</ele><time>2022-02-19T08:20:47Z</time></trkpt>
    <trkpt lat="47.66173" lon="14.10864"><ele>743</ele><time>2022-02-19T08:21:05Z</time></trkpt>
    <trkpt lat="47.66161" lon="14.10876"><ele>749</ele><time>2022-02-19T08:21:23Z</time></trkpt>
    <trkpt lat="47.66152" lon="14.10888"><ele>751</ele><time>2022-02-19T08:21:42Z</time></trkpt>
    <trkpt lat="47.66141" lon="14.10900"><ele>752</ele><time>2022-02-19T08:22:01Z</time></trkpt>
    <trkpt lat="47.66129" lon="14.10911"><ele>760</ele><time>2022-02-19T08:22:19Z</time></trkpt>
    <trkpt lat="47.66119" lon="14.10923"><ele>763</ele><time>2022-02-19T08:22:37Z</time></trkpt>
    <trkpt lat="47.66111" lon="14.10937"><ele>769</ele><time>2022-02-19T08:22:56Z</time></trkpt>
    <trkpt lat="47.66105" lon="14.10950"><ele>767</ele><time>2022-02-19T08:23:15Z</time></trkpt>
    <trkpt lat="47.66099" lon="14.10963"><ele>776</ele><time>2022-02-19T08:23:34Z</time></trkpt>
    <trkpt lat="47.66088" lon="14.10972"><ele>779</ele><time>2022-02-19T08:23:52Z</time></trkpt>
    <trkpt lat="47.66080" lon="14.10986"><ele>784</ele><time>2022-02-19T08:24:11Z</time></trkpt>
    <trkpt lat="47.66066" lon="14.10984"><ele>792</ele><time>2022-02-19T08:24:29Z</time></trkpt>
    <trkpt lat="47.66052" lon="14.10980"><ele>791</ele><time>2022-02-19T08:24:48Z</time></trkpt>
    <trkpt lat="47.66040" lon="14.10967"><ele>785</ele><time>2022-02-19T08:25:07Z</time></trkpt>
    <trkpt lat="47.66029" lon="14.10958"><ele>782</ele><time>2022-02-19T08:25:26Z</time></trkpt>
    <trkpt lat="47.66014" lon="14.10950"><ele>782</ele><time>2022-02-19T08:25:44Z</time></trkpt>
    <trkpt lat="47.66004" lon="14.10932"><ele>790</ele><time>2022-02-19T08:26:02Z</time></trkpt>
    <trkpt lat="47.65987" lon="14.10916"><ele>792</ele><time>2022-02-19T08:26:21Z</time></trkpt>
    <trkpt lat="47.65974" lon="14.10902"><ele>791</ele><time>2022-02-19T08:26:39Z</time></trkpt>
    <trkpt lat="47.65962" lon="14.10894"><ele>791</ele><time>2022-02-19T08:26:57Z</time></trkpt>
    <trkpt lat="47.65945" lon="14.10892"><ele>792</ele><time>2022-02-19T08:27:16Z</time></trkpt>
    <trkpt lat="47.65930" lon="14.10895"><ele>797</ele><time>2022-02-19T08:27:35Z</time></trkpt>
    <trkpt lat="47.65914" lon="14.10893"><ele>799</ele><time>2022-02-19T08:27:53Z</time></trkpt>
    <trkpt lat="47.65898" lon="14.10896"><ele>806</ele><time>2022-02-19T08:28:12Z</time></trkpt>
    <trkpt lat="47.65887" lon="14.10900"><ele>813</ele><time>2022-02-19T08:28:30Z</time></trkpt>
    <trkpt lat="47.65876" lon="14.10904"><ele>816</ele><time>2022-02-19T08:28:49Z</time></trkpt>
    <trkpt lat="47.65872" lon="14.10918"><ele>818</ele><time>2022-02-19T08:29:08Z</time></trkpt>
    <trkpt lat="47.65871" lon="14.10932"><ele>821</ele><time>2022-02-19T08:29:26Z</time></trkpt>
    <trkpt lat="47.65872" lon="14.10946"><ele>826</ele><time>2022-02-19T08:29:45Z</time></trkpt>
    <trkpt lat="47.65863" lon="14.10954"><ele>831</ele><time>2022-02-19T08:30:03Z</time></trkpt>
    <trkpt lat="47.65845" lon="14.10966"><ele>831</ele><time>2022-02-19T08:30:42Z</time></trkpt>
    <trkpt lat="47.65834" lon="14.10970"><ele>835</ele><time>2022-02-19T08:31:00Z</time></trkpt>
    <trkpt lat="47.65820" lon="14.10978"><ele>836</ele><time>2022-02-19T08:31:19Z</time></trkpt>
    <trkpt lat="47.65806" lon="14.10981"><ele>843</ele><time>2022-02-19T08:31:38Z</time></trkpt>
    <trkpt lat="47.65794" lon="14.10984"><ele>843</ele><time>2022-02-19T08:31:56Z</time></trkpt>
    <trkpt lat="47.65782" lon="14.10992"><ele>850</ele><time>2022-02-19T08:32:14Z</time></trkpt>
    <trkpt lat="47.65768" lon="14.11004"><ele>853</ele><time>2022-02-19T08:32:32Z</time></trkpt>
    <trkpt lat="47.65755" lon="14.11016"><ele>856</ele><time>2022-02-19T08:32:50Z</time></trkpt>
    <trkpt lat="47.65741" lon="14.11018"><ele>859</ele><time>2022-02-19T08:33:09Z</time></trkpt>
    <trkpt lat="47.65727" lon="14.11021"><ele>859</ele><time>2022-02-19T08:33:27Z</time></trkpt>
    <trkpt lat="47.65715" lon="14.11022"><ele>862</ele><time>2022-02-19T08:33:46Z</time></trkpt>
    <trkpt lat="47.65701" lon="14.11026"><ele>867</ele><time>2022-02-19T08:34:04Z</time></trkpt>
    <trkpt lat="47.65688" lon="14.11027"><ele>874</ele><time>2022-02-19T08:34:23Z</time></trkpt>
    <trkpt lat="47.65674" lon="14.11031"><ele>871</ele><time>2022-02-19T08:34:41Z</time></trkpt>
    <trkpt lat="47.65659" lon="14.11042"><ele>870</ele><time>2022-02-19T08:34:59Z</time></trkpt>
    <trkpt lat="47.65648" lon="14.11042"><ele>873</ele><time>2022-02-19T08:35:18Z</time></trkpt>
    <trkpt lat="47.65633" lon="14.11049"><ele>872</ele><time>2022-02-19T08:35:37Z</time></trkpt>
    <trkpt lat="47.65617" lon="14.11054"><ele>875</ele><time>2022-02-19T08:35:56Z</time></trkpt>
    <trkpt lat="47.65602" lon="14.11061"><ele>877</ele><time>2022-02-19T08:36:14Z</time></trkpt>
    <trkpt lat="47.65585" lon="14.11069"><ele>873</ele><time>2022-02-19T08:36:33Z</time></trkpt>
    <trkpt lat="47.65572" lon="14.11077"><ele>873</ele><time>2022-02-19T08:36:51Z</time></trkpt>
    <trkpt lat="47.65555" lon="14.11089"><ele>878</ele><time>2022-02-19T08:37:10Z</time></trkpt>
    <trkpt lat="47.65542" lon="14.11098"><ele>876</ele><time>2022-02-19T08:37:29Z</time></trkpt>
    <trkpt lat="47.65526" lon="14.11110"><ele>881</ele><time>2022-02-19T08:37:47Z</time></trkpt>
    <trkpt lat="47.65514" lon="14.11125"><ele>883</ele><time>2022-02-19T08:38:05Z</time></trkpt>
    <trkpt lat="47.65500" lon="14.11136"><ele>886</ele><time>2022-02-19T08:38:24Z</time></trkpt>
    <trkpt lat="47.65494" lon="14.11150"><ele>888</ele><time>2022-02-19T08:38:43Z</time></trkpt>
    <trkpt lat="47.65480" lon="14.11156"><ele>883</ele><time>2022-02-19T08:39:28Z</time></trkpt>
    <trkpt lat="47.65462" lon="14.11154"><ele>882</ele><time>2022-02-19T08:39:47Z</time></trkpt>
    <trkpt lat="47.65440" lon="14.11171"><ele>889</ele><time>2022-02-19T08:40:05Z</time></trkpt>
    <trkpt lat="47.65429" lon="14.11184"><ele>891</ele><time>2022-02-19T08:40:24Z</time></trkpt>
    <trkpt lat="47.65413" lon="14.11197"><ele>894</ele><time>2022-02-19T08:41:00Z</time></trkpt>
    <trkpt lat="47.65395" lon="14.11209"><ele>902</ele><time>2022-02-19T08:41:38Z</time></trkpt>
    <trkpt lat="47.65382" lon="14.11212"><ele>904</ele><time>2022-02-19T08:41:57Z</time></trkpt>
    <trkpt lat="47.65372" lon="14.11212"><ele>904</ele><time>2022-02-19T08:42:15Z</time></trkpt>
    <trkpt lat="47.65359" lon="14.11213"><ele>904</ele><time>2022-02-19T08:42:33Z</time></trkpt>
    <trkpt lat="47.65348" lon="14.11210"><ele>905</ele><time>2022-02-19T08:42:51Z</time></trkpt>
    <trkpt lat="47.65337" lon="14.11211"><ele>910</ele><time>2022-02-19T08:43:09Z</time></trkpt>
    <trkpt lat="47.65325" lon="14.11216"><ele>916</ele><time>2022-02-19T08:43:28Z</time></trkpt>
    <trkpt lat="47.65311" lon="14.11221"><ele>923</ele><time>2022-02-19T08:43:46Z</time></trkpt>
    <trkpt lat="47.65297" lon="14.11227"><ele>930</ele><time>2022-02-19T08:44:05Z</time></trkpt>
    <trkpt lat="47.65285" lon="14.11233"><ele>911</ele><time>2022-02-19T08:44:24Z</time></trkpt>
    <trkpt lat="47.65262" lon="14.11245"><ele>934</ele><time>2022-02-19T08:45:00Z</time></trkpt>
    <trkpt lat="47.65249" lon="14.11252"><ele>938</ele><time>2022-02-19T08:45:19Z</time></trkpt>
    <trkpt lat="47.65238" lon="14.11261"><ele>938</ele><time>2022-02-19T08:45:37Z</time></trkpt>
    <trkpt lat="47.65226" lon="14.11266"><ele>937</ele><time>2022-02-19T08:45:55Z</time></trkpt>
    <trkpt lat="47.65210" lon="14.11275"><ele>941</ele><time>2022-02-19T08:46:14Z</time></trkpt>
    <trkpt lat="47.65199" lon="14.11281"><ele>945</ele><time>2022-02-19T08:46:32Z</time></trkpt>
    <trkpt lat="47.65185" lon="14.11294"><ele>943</ele><time>2022-02-19T08:46:50Z</time></trkpt>
    <trkpt lat="47.65175" lon="14.11310"><ele>946</ele><time>2022-02-19T08:47:08Z</time></trkpt>
    <trkpt lat="47.65168" lon="14.11322"><ele>947</ele><time>2022-02-19T08:47:26Z</time></trkpt>
    <trkpt lat="47.65153" lon="14.11346"><ele>949</ele><time>2022-02-19T08:49:50Z</time></trkpt>
    <trkpt lat="47.65141" lon="14.11359"><ele>943</ele><time>2022-02-19T08:50:08Z</time></trkpt>
    <trkpt lat="47.65131" lon="14.11371"><ele>947</ele><time>2022-02-19T08:50:27Z</time></trkpt>
    <trkpt lat="47.65120" lon="14.11383"><ele>952</ele><time>2022-02-19T08:50:45Z</time></trkpt>
    <trkpt lat="47.65112" lon="14.11397"><ele>953</ele><time>2022-02-19T08:51:03Z</time></trkpt>
    <trkpt lat="47.65100" lon="14.11414"><ele>953</ele><time>2022-02-19T08:51:21Z</time></trkpt>
    <trkpt lat="47.65096" lon="14.11439"><ele>955</ele><time>2022-02-19T08:51:40Z</time></trkpt>
    <trkpt lat="47.65094" lon="14.11468"><ele>958</ele><time>2022-02-19T08:51:58Z</time></trkpt>
    <trkpt lat="47.65099" lon="14.11496"><ele>957</ele><time>2022-02-19T08:52:16Z</time></trkpt>
    <trkpt lat="47.65104" lon="14.11524"><ele>956</ele><time>2022-02-19T08:52:35Z</time></trkpt>
    <trkpt lat="47.65105" lon="14.11554"><ele>951</ele><time>2022-02-19T08:52:54Z</time></trkpt>
    <trkpt lat="47.65097" lon="14.11583"><ele>958</ele><time>2022-02-19T08:53:13Z</time></trkpt>
    <trkpt lat="47.65086" lon="14.11601"><ele>955</ele><time>2022-02-19T08:53:32Z</time></trkpt>
    <trkpt lat="47.65074" lon="14.11618"><ele>959</ele><time>2022-02-19T08:53:50Z</time></trkpt>
    <trkpt lat="47.65067" lon="14.11635"><ele>964</ele><time>2022-02-19T08:54:08Z</time></trkpt>
    <trkpt lat="47.65063" lon="14.11650"><ele>965</ele><time>2022-02-19T08:54:27Z</time></trkpt>
    <trkpt lat="47.65060" lon="14.11670"><ele>972</ele><time>2022-02-19T08:54:46Z</time></trkpt>
    <trkpt lat="47.65049" lon="14.11684"><ele>973</ele><time>2022-02-19T08:55:04Z</time></trkpt>
    <trkpt lat="47.65037" lon="14.11693"><ele>978</ele><time>2022-02-19T08:55:23Z</time></trkpt>
    <trkpt lat="47.65030" lon="14.11703"><ele>981</ele><time>2022-02-19T08:55:41Z</time></trkpt>
    <trkpt lat="47.65026" lon="14.11722"><ele>989</ele><time>2022-02-19T08:56:00Z</time></trkpt>
    <trkpt lat="47.65031" lon="14.11737"><ele>991</ele><time>2022-02-19T08:56:19Z</time></trkpt>
    <trkpt lat="47.65040" lon="14.11751"><ele>999</ele><time>2022-02-19T08:56:37Z</time></trkpt>
    <trkpt lat="47.65046" lon="14.11765"><ele>1004</ele><time>2022-02-19T08:56:55Z</time></trkpt>
    <trkpt lat="47.65035" lon="14.11778"><ele>991</ele><time>2022-02-19T08:57:13Z</time></trkpt>
    <trkpt lat="47.65024" lon="14.11787"><ele>993</ele><time>2022-02-19T08:57:31Z</time></trkpt>
    <trkpt lat="47.65026" lon="14.11801"><ele>988</ele><time>2022-02-19T08:57:50Z</time></trkpt>
    <trkpt lat="47.65030" lon="14.11816"><ele>1000</ele><time>2022-02-19T08:58:09Z</time></trkpt>
    <trkpt lat="47.65020" lon="14.11822"><ele>998</ele><time>2022-02-19T08:58:27Z</time></trkpt>
    <trkpt lat="47.65014" lon="14.11834"><ele>1004</ele><time>2022-02-19T08:58:45Z</time></trkpt>
    <trkpt lat="47.65007" lon="14.11849"><ele>1009</ele><time>2022-02-19T08:59:04Z</time></trkpt>
    <trkpt lat="47.65009" lon="14.11864"><ele>1010</ele><time>2022-02-19T08:59:22Z</time></trkpt>
    <trkpt lat="47.65018" lon="14.11878"><ele>1018</ele><time>2022-02-19T08:59:40Z</time></trkpt>
    <trkpt lat="47.65029" lon="14.11890"><ele>1026</ele><time>2022-02-19T08:59:58Z</time></trkpt>
    <trkpt lat="47.65037" lon="14.11903"><ele>1026</ele><time>2022-02-19T09:00:16Z</time></trkpt>
    <trkpt lat="47.65042" lon="14.11921"><ele>1032</ele><time>2022-02-19T09:00:34Z</time></trkpt>
    <trkpt lat="47.65046" lon="14.11937"><ele>1034</ele><time>2022-02-19T09:00:53Z</time></trkpt>
    <trkpt lat="47.65049" lon="14.11951"><ele>1033</ele><time>2022-02-19T09:01:11Z</time></trkpt>
    <trkpt lat="47.65056" lon="14.11965"><ele>1038</ele><time>2022-02-19T09:01:30Z</time></trkpt>
    <trkpt lat="47.65057" lon="14.11980"><ele>1043</ele><time>2022-02-19T09:01:49Z</time></trkpt>
    <trkpt lat="47.65071" lon="14.12000"><ele>1053</ele><time>2022-02-19T09:02:26Z</time></trkpt>
    <trkpt lat="47.65083" lon="14.12007"><ele>1055</ele><time>2022-02-19T09:02:44Z</time></trkpt>
    <trkpt lat="47.65092" lon="14.12013"><ele>1050</ele><time>2022-02-19T09:03:03Z</time></trkpt>
    <trkpt lat="47.65089" lon="14.12034"><ele>1055</ele><time>2022-02-19T09:03:22Z</time></trkpt>
    <trkpt lat="47.65090" lon="14.12053"><ele>1049</ele><time>2022-02-19T09:03:40Z</time></trkpt>
    <trkpt lat="47.65098" lon="14.12070"><ele>1051</ele><time>2022-02-19T09:03:59Z</time></trkpt>
    <trkpt lat="47.65105" lon="14.12084"><ele>1062</ele><time>2022-02-19T09:04:18Z</time></trkpt>
    <trkpt lat="47.65106" lon="14.12098"><ele>1065</ele><time>2022-02-19T09:04:36Z</time></trkpt>
    <trkpt lat="47.65110" lon="14.12113"><ele>1071</ele><time>2022-02-19T09:04:55Z</time></trkpt>
    <trkpt lat="47.65110" lon="14.12130"><ele>1072</ele><time>2022-02-19T09:05:14Z</time></trkpt>
    <trkpt lat="47.65103" lon="14.12146"><ele>1026</ele><time>2022-02-19T09:05:33Z</time></trkpt>
    <trkpt lat="47.65092" lon="14.12153"><ele>1070</ele><time>2022-02-19T09:05:51Z</time></trkpt>
    <trkpt lat="47.65091" lon="14.12167"><ele>1080</ele><time>2022-02-19T09:06:10Z</time></trkpt>
    <trkpt lat="47.65091" lon="14.12183"><ele>1085</ele><time>2022-02-19T09:06:29Z</time></trkpt>
    <trkpt lat="47.65096" lon="14.12202"><ele>1084</ele><time>2022-02-19T09:06:48Z</time></trkpt>
    <trkpt lat="47.65094" lon="14.12218"><ele>1059</ele><time>2022-02-19T09:07:06Z</time></trkpt>
    <trkpt lat="47.65090" lon="14.12231"><ele>1094</ele><time>2022-02-19T09:07:24Z</time></trkpt>
    <trkpt lat="47.65089" lon="14.12248"><ele>1096</ele><time>2022-02-19T09:07:43Z</time></trkpt>
    <trkpt lat="47.65086" lon="14.12266"><ele>1099</ele><time>2022-02-19T09:08:02Z</time></trkpt>
    <trkpt lat="47.65081" lon="14.12279"><ele>1104</ele><time>2022-02-19T09:08:20Z</time></trkpt>
    <trkpt lat="47.65078" lon="14.12295"><ele>1105</ele><time>2022-02-19T09:08:39Z</time></trkpt>
    <trkpt lat="47.65071" lon="14.12308"><ele>1107</ele><time>2022-02-19T09:08:57Z</time></trkpt>
    <trkpt lat="47.65059" lon="14.12311"><ele>1096</ele><time>2022-02-19T09:09:16Z</time></trkpt>
    <trkpt lat="47.65049" lon="14.12317"><ele>1097</ele><time>2022-02-19T09:09:35Z</time></trkpt>
    <trkpt lat="47.65040" lon="14.12312"><ele>1113</ele><time>2022-02-19T09:09:53Z</time></trkpt>
    <trkpt lat="47.65029" lon="14.12323"><ele>1116</ele><time>2022-02-19T09:10:11Z</time></trkpt>
    <trkpt lat="47.65016" lon="14.12330"><ele>1123</ele><time>2022-02-19T09:10:30Z</time></trkpt>
    <trkpt lat="47.65004" lon="14.12339"><ele>1124</ele><time>2022-02-19T09:10:49Z</time></trkpt>
    <trkpt lat="47.64988" lon="14.12346"><ele>1168</ele><time>2022-02-19T09:11:26Z</time></trkpt>
    <trkpt lat="47.64979" lon="14.12354"><ele>1191</ele><time>2022-02-19T09:11:45Z</time></trkpt>
    <trkpt lat="47.64964" lon="14.12356"><ele>1149</ele><time>2022-02-19T09:12:41Z</time></trkpt>
    <trkpt lat="47.64955" lon="14.12350"><ele>1149</ele><time>2022-02-19T09:12:59Z</time></trkpt>
    <trkpt lat="47.64946" lon="14.12359"><ele>1152</ele><time>2022-02-19T09:13:18Z</time></trkpt>
    <trkpt lat="47.64935" lon="14.12363"><ele>1154</ele><time>2022-02-19T09:13:37Z</time></trkpt>
    <trkpt lat="47.64924" lon="14.12370"><ele>1157</ele><time>2022-02-19T09:13:55Z</time></trkpt>
    <trkpt lat="47.64913" lon="14.12375"><ele>1161</ele><time>2022-02-19T09:14:13Z</time></trkpt>
    <trkpt lat="47.64904" lon="14.12385"><ele>1166</ele><time>2022-02-19T09:14:32Z</time></trkpt>
    <trkpt lat="47.64896" lon="14.12397"><ele>1165</ele><time>2022-02-19T09:14:51Z</time></trkpt>
    <trkpt lat="47.64891" lon="14.12413"><ele>1163</ele><time>2022-02-19T09:15:09Z</time></trkpt>
    <trkpt lat="47.64886" lon="14.12425"><ele>1171</ele><time>2022-02-19T09:15:27Z</time></trkpt>
    <trkpt lat="47.64878" lon="14.12434"><ele>1175</ele><time>2022-02-19T09:15:46Z</time></trkpt>
    <trkpt lat="47.64866" lon="14.12444"><ele>1178</ele><time>2022-02-19T09:16:04Z</time></trkpt>
    <trkpt lat="47.64856" lon="14.12461"><ele>1168</ele><time>2022-02-19T09:16:47Z</time></trkpt>
    <trkpt lat="47.64843" lon="14.12458"><ele>1182</ele><time>2022-02-19T09:17:06Z</time></trkpt>
    <trkpt lat="47.64829" lon="14.12453"><ele>1185</ele><time>2022-02-19T09:17:24Z</time></trkpt>
    <trkpt lat="47.64820" lon="14.12450"><ele>1196</ele><time>2022-02-19T09:17:42Z</time></trkpt>
    <trkpt lat="47.64810" lon="14.12457"><ele>1116</ele><time>2022-02-19T09:18:01Z</time></trkpt>
    <trkpt lat="47.64799" lon="14.12457"><ele>1187</ele><time>2022-02-19T09:18:20Z</time></trkpt>
    <trkpt lat="47.64789" lon="14.12447"><ele>1203</ele><time>2022-02-19T09:18:38Z</time></trkpt>
    <trkpt lat="47.64781" lon="14.12439"><ele>1202</ele><time>2022-02-19T09:18:57Z</time></trkpt>
    <trkpt lat="47.64769" lon="14.12435"><ele>1206</ele><time>2022-02-19T09:19:15Z</time></trkpt>
    <trkpt lat="47.64761" lon="14.12417"><ele>1211</ele><time>2022-02-19T09:19:34Z</time></trkpt>
    <trkpt lat="47.64746" lon="14.12409"><ele>1223</ele><time>2022-02-19T09:20:11Z</time></trkpt>
    <trkpt lat="47.64735" lon="14.12402"><ele>1223</ele><time>2022-02-19T09:20:29Z</time></trkpt>
    <trkpt lat="47.64723" lon="14.12396"><ele>1227</ele><time>2022-02-19T09:20:48Z</time></trkpt>
    <trkpt lat="47.64711" lon="14.12396"><ele>1235</ele><time>2022-02-19T09:21:06Z</time></trkpt>
    <trkpt lat="47.64696" lon="14.12399"><ele>1238</ele><time>2022-02-19T09:21:25Z</time></trkpt>
    <trkpt lat="47.64681" lon="14.12403"><ele>1243</ele><time>2022-02-19T09:21:43Z</time></trkpt>
    <trkpt lat="47.64652" lon="14.12396"><ele>1216</ele><time>2022-02-19T09:22:30Z</time></trkpt>
    <trkpt lat="47.64632" lon="14.12397"><ele>1236</ele><time>2022-02-19T09:22:48Z</time></trkpt>
    <trkpt lat="47.64619" lon="14.12401"><ele>1241</ele><time>2022-02-19T09:23:06Z</time></trkpt>
    <trkpt lat="47.64605" lon="14.12404"><ele>1251</ele><time>2022-02-19T09:23:25Z</time></trkpt>
    <trkpt lat="47.64586" lon="14.12429"><ele>1255</ele><time>2022-02-19T09:24:10Z</time></trkpt>
    <trkpt lat="47.64567" lon="14.12427"><ele>1260</ele><time>2022-02-19T09:24:28Z</time></trkpt>
    <trkpt lat="47.64547" lon="14.12432"><ele>1268</ele><time>2022-02-19T09:25:18Z</time></trkpt>
    <trkpt lat="47.64528" lon="14.12441"><ele>1269</ele><time>2022-02-19T09:25:37Z</time></trkpt>
    <trkpt lat="47.64517" lon="14.12447"><ele>1270</ele><time>2022-02-19T09:25:56Z</time></trkpt>
    <trkpt lat="47.64496" lon="14.12446"><ele>1281</ele><time>2022-02-19T09:26:35Z</time></trkpt>
    <trkpt lat="47.64469" lon="14.12448"><ele>1289</ele><time>2022-02-19T09:27:16Z</time></trkpt>
    <trkpt lat="47.64462" lon="14.12462"><ele>1289</ele><time>2022-02-19T09:27:35Z</time></trkpt>
    <trkpt lat="47.64450" lon="14.12457"><ele>1298</ele><time>2022-02-19T09:27:54Z</time></trkpt>
    <trkpt lat="47.64438" lon="14.12478"><ele>1294</ele><time>2022-02-19T09:28:41Z</time></trkpt>
    <trkpt lat="47.64424" lon="14.12486"><ele>1295</ele><time>2022-02-19T09:28:59Z</time></trkpt>
    <trkpt lat="47.64408" lon="14.12483"><ele>1307</ele><time>2022-02-19T09:30:05Z</time></trkpt>
    <trkpt lat="47.64390" lon="14.12473"><ele>1311</ele><time>2022-02-19T09:30:48Z</time></trkpt>
    <trkpt lat="47.64381" lon="14.12485"><ele>1314</ele><time>2022-02-19T09:31:06Z</time></trkpt>
    <trkpt lat="47.64374" lon="14.12499"><ele>1316</ele><time>2022-02-19T09:31:25Z</time></trkpt>
    <trkpt lat="47.64362" lon="14.12505"><ele>1315</ele><time>2022-02-19T09:31:43Z</time></trkpt>
    <trkpt lat="47.64351" lon="14.12507"><ele>1322</ele><time>2022-02-19T09:32:02Z</time></trkpt>
    <trkpt lat="47.64340" lon="14.12499"><ele>1327</ele><time>2022-02-19T09:32:21Z</time></trkpt>
    <trkpt lat="47.64326" lon="14.12513"><ele>1305</ele><time>2022-02-19T09:33:03Z</time></trkpt>
    <trkpt lat="47.64312" lon="14.12529"><ele>1331</ele><time>2022-02-19T09:33:50Z</time></trkpt>
    <trkpt lat="47.64301" lon="14.12532"><ele>1333</ele><time>2022-02-19T09:34:09Z</time></trkpt>
    <trkpt lat="47.64290" lon="14.12537"><ele>1336</ele><time>2022-02-19T09:34:27Z</time></trkpt>
    <trkpt lat="47.64280" lon="14.12527"><ele>1339</ele><time>2022-02-19T09:34:46Z</time></trkpt>
    <trkpt lat="47.64273" lon="14.12518"><ele>1260</ele><time>2022-02-19T09:35:04Z</time></trkpt>
    <trkpt lat="47.64269" lon="14.12503"><ele>1321</ele><time>2022-02-19T09:35:23Z</time></trkpt>
    <trkpt lat="47.64262" lon="14.12493"><ele>1343</ele><time>2022-02-19T09:35:42Z</time></trkpt>
    <trkpt lat="47.64253" lon="14.12484"><ele>1351</ele><time>2022-02-19T09:36:01Z</time></trkpt>
    <trkpt lat="47.64245" lon="14.12472"><ele>1357</ele><time>2022-02-19T09:36:20Z</time></trkpt>
    <trkpt lat="47.64232" lon="14.12454"><ele>1366</ele><time>2022-02-19T09:37:01Z</time></trkpt>
    <trkpt lat="47.64220" lon="14.12459"><ele>1374</ele><time>2022-02-19T09:38:33Z</time></trkpt>
    <trkpt lat="47.64209" lon="14.12453"><ele>1348</ele><time>2022-02-19T09:38:52Z</time></trkpt>
    <trkpt lat="47.64196" lon="14.12434"><ele>1382</ele><time>2022-02-19T09:39:31Z</time></trkpt>
    <trkpt lat="47.64187" lon="14.12427"><ele>1380</ele><time>2022-02-19T09:39:49Z</time></trkpt>
    <trkpt lat="47.64180" lon="14.12417"><ele>1386</ele><time>2022-02-19T09:40:08Z</time></trkpt>
    <trkpt lat="47.64171" lon="14.12409"><ele>1390</ele><time>2022-02-19T09:40:27Z</time></trkpt>
    <trkpt lat="47.64155" lon="14.12396"><ele>1396</ele><time>2022-02-19T09:41:03Z</time></trkpt>
    <trkpt lat="47.64148" lon="14.12388"><ele>1395</ele><time>2022-02-19T09:41:22Z</time></trkpt>
    <trkpt lat="47.64140" lon="14.12376"><ele>1396</ele><time>2022-02-19T09:41:41Z</time></trkpt>
    <trkpt lat="47.64133" lon="14.12367"><ele>1401</ele><time>2022-02-19T09:42:00Z</time></trkpt>
    <trkpt lat="47.64124" lon="14.12365"><ele>1410</ele><time>2022-02-19T09:42:18Z</time></trkpt>
    <trkpt lat="47.64109" lon="14.12359"><ele>1415</ele><time>2022-02-19T09:43:45Z</time></trkpt>
    <trkpt lat="47.64085" lon="14.12364"><ele>1415</ele><time>2022-02-19T09:45:35Z</time></trkpt>
    <trkpt lat="47.64074" lon="14.12366"><ele>1418</ele><time>2022-02-19T09:45:53Z</time></trkpt>
    <trkpt lat="47.64071" lon="14.12380"><ele>1431</ele><time>2022-02-19T09:46:55Z</time></trkpt>
    <trkpt lat="47.64088" lon="14.12394"><ele>1439</ele><time>2022-02-19T09:47:33Z</time></trkpt>
    <trkpt lat="47.64077" lon="14.12410"><ele>1446</ele><time>2022-02-19T09:48:45Z</time></trkpt>
    <trkpt lat="47.64063" lon="14.12408"><ele>1450</ele><time>2022-02-19T09:49:03Z</time></trkpt>
    <trkpt lat="47.64069" lon="14.12420"><ele>1456</ele><time>2022-02-19T09:50:06Z</time></trkpt>
    <trkpt lat="47.64048" lon="14.12428"><ele>1462</ele><time>2022-02-19T09:50:49Z</time></trkpt>
    <trkpt lat="47.64043" lon="14.12447"><ele>1473</ele><time>2022-02-19T09:52:32Z</time></trkpt>
    <trkpt lat="47.64028" lon="14.12454"><ele>1486</ele><time>2022-02-19T09:53:39Z</time></trkpt>
    <trkpt lat="47.64029" lon="14.12472"><ele>1495</ele><time>2022-02-19T09:54:53Z</time></trkpt>
    <trkpt lat="47.64036" lon="14.12487"><ele>1499</ele><time>2022-02-19T09:55:12Z</time></trkpt>
    <trkpt lat="47.64029" lon="14.12500"><ele>1500</ele><time>2022-02-19T09:55:31Z</time></trkpt>
    <trkpt lat="47.64019" lon="14.12508"><ele>1501</ele><time>2022-02-19T09:55:49Z</time></trkpt>
    <trkpt lat="47.64007" lon="14.12514"><ele>1507</ele><time>2022-02-19T09:56:07Z</time></trkpt>
    <trkpt lat="47.64000" lon="14.12528"><ele>1479</ele><time>2022-02-19T09:56:26Z</time></trkpt>
    <trkpt lat="47.64000" lon="14.12545"><ele>1507</ele><time>2022-02-19T09:56:44Z</time></trkpt>
    <trkpt lat="47.64006" lon="14.12559"><ele>1515</ele><time>2022-02-19T09:57:03Z</time></trkpt>
    <trkpt lat="47.63995" lon="14.12568"><ele>1514</ele><time>2022-02-19T09:57:22Z</time></trkpt>
    <trkpt lat="47.63983" lon="14.12574"><ele>1520</ele><time>2022-02-19T09:57:41Z</time></trkpt>
    <trkpt lat="47.63971" lon="14.12572"><ele>1521</ele><time>2022-02-19T09:58:00Z</time></trkpt>
    <trkpt lat="47.63962" lon="14.12587"><ele>1522</ele><time>2022-02-19T09:58:42Z</time></trkpt>
    <trkpt lat="47.63952" lon="14.12577"><ele>1526</ele><time>2022-02-19T09:59:00Z</time></trkpt>
    <trkpt lat="47.63936" lon="14.12591"><ele>1498</ele><time>2022-02-19T09:59:40Z</time></trkpt>
    <trkpt lat="47.63921" lon="14.12577"><ele>1548</ele><time>2022-02-19T10:00:23Z</time></trkpt>
    <trkpt lat="47.63912" lon="14.12581"><ele>1549</ele><time>2022-02-19T10:00:41Z</time></trkpt>
    <trkpt lat="47.63903" lon="14.12606"><ele>1554</ele><time>2022-02-19T10:01:18Z</time></trkpt>
    <trkpt lat="47.63894" lon="14.12601"><ele>1556</ele><time>2022-02-19T10:01:36Z</time></trkpt>
    <trkpt lat="47.63892" lon="14.12627"><ele>1564</ele><time>2022-02-19T10:02:14Z</time></trkpt>
    <trkpt lat="47.63883" lon="14.12626"><ele>1567</ele><time>2022-02-19T10:02:33Z</time></trkpt>
    <trkpt lat="47.63872" lon="14.12616"><ele>1569</ele><time>2022-02-19T10:02:51Z</time></trkpt>
    <trkpt lat="47.63861" lon="14.12605"><ele>1574</ele><time>2022-02-19T10:03:10Z</time></trkpt>
    <trkpt lat="47.63853" lon="14.12596"><ele>1576</ele><time>2022-02-19T10:03:29Z</time></trkpt>
    <trkpt lat="47.63846" lon="14.12582"><ele>1580</ele><time>2022-02-19T10:03:48Z</time></trkpt>
    <trkpt lat="47.63838" lon="14.12568"><ele>1579</ele><time>2022-02-19T10:04:07Z</time></trkpt>
    <trkpt lat="47.63829" lon="14.12555"><ele>1584</ele><time>2022-02-19T10:04:26Z</time></trkpt>
    <trkpt lat="47.63820" lon="14.12543"><ele>1586</ele><time>2022-02-19T10:04:44Z</time></trkpt>
    <trkpt lat="47.63810" lon="14.12525"><ele>1588</ele><time>2022-02-19T10:05:03Z</time></trkpt>
    <trkpt lat="47.63796" lon="14.12513"><ele>1587</ele><time>2022-02-19T10:05:21Z</time></trkpt>
    <trkpt lat="47.63779" lon="14.12492"><ele>1594</ele><time>2022-02-19T10:06:02Z</time></trkpt>
    <trkpt lat="47.63771" lon="14.12476"><ele>1597</ele><time>2022-02-19T10:06:21Z</time></trkpt>
    <trkpt lat="47.63764" lon="14.12463"><ele>1598</ele><time>2022-02-19T10:06:39Z</time></trkpt>
    <trkpt lat="47.63759" lon="14.12448"><ele>1599</ele><time>2022-02-19T10:06:58Z</time></trkpt>
    <trkpt lat="47.63755" lon="14.12432"><ele>1601</ele><time>2022-02-19T10:07:16Z</time></trkpt>
    <trkpt lat="47.63751" lon="14.12412"><ele>1602</ele><time>2022-02-19T10:07:34Z</time></trkpt>
    <trkpt lat="47.63743" lon="14.12395"><ele>1604</ele><time>2022-02-19T10:07:53Z</time></trkpt>
    <trkpt lat="47.63733" lon="14.12383"><ele>1605</ele><time>2022-02-19T10:08:11Z</time></trkpt>
    <trkpt lat="47.63723" lon="14.12369"><ele>1607</ele><time>2022-02-19T10:08:30Z</time></trkpt>
    <trkpt lat="47.63714" lon="14.12355"><ele>1609</ele><time>2022-02-19T10:08:49Z</time></trkpt>
    <trkpt lat="47.63704" lon="14.12341"><ele>1609</ele><time>2022-02-19T10:09:08Z</time></trkpt>
    <trkpt lat="47.63696" lon="14.12327"><ele>1611</ele><time>2022-02-19T10:09:27Z</time></trkpt>
    <trkpt lat="47.63689" lon="14.12317"><ele>1616</ele><time>2022-02-19T10:09:46Z</time></trkpt>
    <trkpt lat="47.63677" lon="14.12295"><ele>1624</ele><time>2022-02-19T10:14:59Z</time></trkpt>
    <trkpt lat="47.63667" lon="14.12292"><ele>1627</ele><time>2022-02-19T10:15:18Z</time></trkpt>
    <trkpt lat="47.63657" lon="14.12290"><ele>1545</ele><time>2022-02-19T10:15:36Z</time></trkpt>
    <trkpt lat="47.63648" lon="14.12287"><ele>1625</ele><time>2022-02-19T10:15:54Z</time></trkpt>
    <trkpt lat="47.63638" lon="14.12284"><ele>1627</ele><time>2022-02-19T10:19:59Z</time></trkpt>
    <trkpt lat="47.63623" lon="14.12295"><ele>1632</ele><time>2022-02-19T10:20:17Z</time></trkpt>
    <trkpt lat="47.63612" lon="14.12316"><ele>1633</ele><time>2022-02-19T10:20:35Z</time></trkpt>
    <trkpt lat="47.63600" lon="14.12330"><ele>1634</ele><time>2022-02-19T10:20:54Z</time></trkpt>
    <trkpt lat="47.63584" lon="14.12354"><ele>1634</ele><time>2022-02-19T10:22:08Z</time></trkpt>
    <trkpt lat="47.63574" lon="14.12372"><ele>1637</ele><time>2022-02-19T10:22:27Z</time></trkpt>
    <trkpt lat="47.63566" lon="14.12391"><ele>1641</ele><time>2022-02-19T10:22:46Z</time></trkpt>
    <trkpt lat="47.63559" lon="14.12404"><ele>1645</ele><time>2022-02-19T10:23:04Z</time></trkpt>
    <trkpt lat="47.63550" lon="14.12419"><ele>1648</ele><time>2022-02-19T10:23:23Z</time></trkpt>
    <trkpt lat="47.63541" lon="14.12439"><ele>1647</ele><time>2022-02-19T10:23:42Z</time></trkpt>
    <trkpt lat="47.63532" lon="14.12453"><ele>1648</ele><time>2022-02-19T10:24:01Z</time></trkpt>
    <trkpt lat="47.63521" lon="14.12471"><ele>1646</ele><time>2022-02-19T10:24:20Z</time></trkpt>
    <trkpt lat="47.63511" lon="14.12491"><ele>1653</ele><time>2022-02-19T10:24:38Z</time></trkpt>
    <trkpt lat="47.63505" lon="14.12504"><ele>1655</ele><time>2022-02-19T10:24:57Z</time></trkpt>
    <trkpt lat="47.63498" lon="14.12518"><ele>1650</ele><time>2022-02-19T10:25:15Z</time></trkpt>
    <trkpt lat="47.63493" lon="14.12535"><ele>1660</ele><time>2022-02-19T10:25:34Z</time></trkpt>
    <trkpt lat="47.63488" lon="14.12553"><ele>1663</ele><time>2022-02-19T10:25:52Z</time></trkpt>
    <trkpt lat="47.63480" lon="14.12568"><ele>1663</ele><time>2022-02-19T10:26:10Z</time></trkpt>
    <trkpt lat="47.63467" lon="14.12574"><ele>1666</ele><time>2022-02-19T10:26:29Z</time></trkpt>
    <trkpt lat="47.63463" lon="14.12558"><ele>1671</ele><time>2022-02-19T10:26:48Z</time></trkpt>
    <trkpt lat="47.63452" lon="14.12555"><ele>1671</ele><time>2022-02-19T10:27:07Z</time></trkpt>
    <trkpt lat="47.63433" lon="14.12559"><ele>1673</ele><time>2022-02-19T10:27:46Z</time></trkpt>
    <trkpt lat="47.63418" lon="14.12548"><ele>1684</ele><time>2022-02-19T10:28:27Z</time></trkpt>
    <trkpt lat="47.63408" lon="14.12552"><ele>1687</ele><time>2022-02-19T10:28:46Z</time></trkpt>
    <trkpt lat="47.63398" lon="14.12538"><ele>1696</ele><time>2022-02-19T10:29:31Z</time></trkpt>
    <trkpt lat="47.63388" lon="14.12529"><ele>1699</ele><time>2022-02-19T10:30:11Z</time></trkpt>
    <trkpt lat="47.63379" lon="14.12512"><ele>1694</ele><time>2022-02-19T10:30:57Z</time></trkpt>
    <trkpt lat="47.63362" lon="14.12518"><ele>1712</ele><time>2022-02-19T10:31:36Z</time></trkpt>
    <trkpt lat="47.63358" lon="14.12491"><ele>1719</ele><time>2022-02-19T10:32:14Z</time></trkpt>
    <trkpt lat="47.63351" lon="14.12467"><ele>1725</ele><time>2022-02-19T10:32:52Z</time></trkpt>
    <trkpt lat="47.63346" lon="14.12455"><ele>1730</ele><time>2022-02-19T10:33:10Z</time></trkpt>
    <trkpt lat="47.63337" lon="14.12451"><ele>1731</ele><time>2022-02-19T10:33:29Z</time></trkpt>
    <trkpt lat="47.63317" lon="14.12447"><ele>1737</ele><time>2022-02-19T10:34:06Z</time></trkpt>
    <trkpt lat="47.63308" lon="14.12441"><ele>1737</ele><time>2022-02-19T10:34:24Z</time></trkpt>
    <trkpt lat="47.63294" lon="14.12452"><ele>1743</ele><time>2022-02-19T10:35:02Z</time></trkpt>
    <trkpt lat="47.63284" lon="14.12461"><ele>1747</ele><time>2022-02-19T10:35:20Z</time></trkpt>
    <trkpt lat="47.63277" lon="14.12471"><ele>1750</ele><time>2022-02-19T10:35:39Z</time></trkpt>
    <trkpt lat="47.63260" lon="14.12473"><ele>1754</ele><time>2022-02-19T10:36:17Z</time></trkpt>
    <trkpt lat="47.63253" lon="14.12463"><ele>1739</ele><time>2022-02-19T10:36:35Z</time></trkpt>
    <trkpt lat="47.63240" lon="14.12447"><ele>1760</ele><time>2022-02-19T10:44:49Z</time></trkpt>
    <trkpt lat="47.63233" lon="14.12435"><ele>1763</ele><time>2022-02-19T10:45:07Z</time></trkpt>
    <trkpt lat="47.63220" lon="14.12420"><ele>1769</ele><time>2022-02-19T10:45:45Z</time></trkpt>
    <trkpt lat="47.63212" lon="14.12412"><ele>1773</ele><time>2022-02-19T10:46:04Z</time></trkpt>
    <trkpt lat="47.63204" lon="14.12405"><ele>1778</ele><time>2022-02-19T10:46:22Z</time></trkpt>
    <trkpt lat="47.63195" lon="14.12398"><ele>1780</ele><time>2022-02-19T10:46:41Z</time></trkpt>
    <trkpt lat="47.63182" lon="14.12383"><ele>1785</ele><time>2022-02-19T10:47:20Z</time></trkpt>
    <trkpt lat="47.63167" lon="14.12374"><ele>1791</ele><time>2022-02-19T10:48:09Z</time></trkpt>
    <trkpt lat="47.63156" lon="14.12370"><ele>1793</ele><time>2022-02-19T10:48:28Z</time></trkpt>
    <trkpt lat="47.63146" lon="14.12368"><ele>1797</ele><time>2022-02-19T10:48:46Z</time></trkpt>
    <trkpt lat="47.63130" lon="14.12369"><ele>1791</ele><time>2022-02-19T10:49:50Z</time></trkpt>
    <trkpt lat="47.63125" lon="14.12382"><ele>1808</ele><time>2022-02-19T10:50:08Z</time></trkpt>
    <trkpt lat="47.63121" lon="14.12396"><ele>1773</ele><time>2022-02-19T10:50:26Z</time></trkpt>
    <trkpt lat="47.63114" lon="14.12419"><ele>1810</ele><time>2022-02-19T10:51:07Z</time></trkpt>
    <trkpt lat="47.63100" lon="14.12408"><ele>1819</ele><time>2022-02-19T10:51:45Z</time></trkpt>
    <trkpt lat="47.63093" lon="14.12398"><ele>1825</ele><time>2022-02-19T10:52:04Z</time></trkpt>
    <trkpt lat="47.63077" lon="14.12411"><ele>1830</ele><time>2022-02-19T10:52:48Z</time></trkpt>
    <trkpt lat="47.63065" lon="14.12409"><ele>1833</ele><time>2022-02-19T10:53:07Z</time></trkpt>
    <trkpt lat="47.63056" lon="14.12406"><ele>1835</ele><time>2022-02-19T10:53:25Z</time></trkpt>
    <trkpt lat="47.63039" lon="14.12406"><ele>1838</ele><time>2022-02-19T10:54:09Z</time></trkpt>
    <trkpt lat="47.63032" lon="14.12416"><ele>1843</ele><time>2022-02-19T10:54:27Z</time></trkpt>
    <trkpt lat="47.63023" lon="14.12423"><ele>1846</ele><time>2022-02-19T10:54:46Z</time></trkpt>
    <trkpt lat="47.63015" lon="14.12428"><ele>1848</ele><time>2022-02-19T10:55:04Z</time></trkpt>
    <trkpt lat="47.62998" lon="14.12435"><ele>1851</ele><time>2022-02-19T10:55:42Z</time></trkpt>
    <trkpt lat="47.62991" lon="14.12445"><ele>1854</ele><time>2022-02-19T10:56:01Z</time></trkpt>
    <trkpt lat="47.62983" lon="14.12457"><ele>1856</ele><time>2022-02-19T10:56:19Z</time></trkpt>
    <trkpt lat="47.62970" lon="14.12477"><ele>1865</ele><time>2022-02-19T10:56:59Z</time></trkpt>
    <trkpt lat="47.62957" lon="14.12496"><ele>1830</ele><time>2022-02-19T10:57:36Z</time></trkpt>
    <trkpt lat="47.62947" lon="14.12487"><ele>1873</ele><time>2022-02-19T10:58:22Z</time></trkpt>
    <trkpt lat="47.62946" lon="14.12473"><ele>1878</ele><time>2022-02-19T10:58:41Z</time></trkpt>
    <trkpt lat="47.62932" lon="14.12466"><ele>1891</ele><time>2022-02-19T11:00:17Z</time></trkpt>
    <trkpt lat="47.62923" lon="14.12453"><ele>1898</ele><time>2022-02-19T11:01:48Z</time></trkpt>
    <trkpt lat="47.62923" lon="14.12430"><ele>1758</ele><time>2022-02-19T11:02:54Z</time></trkpt>
    <trkpt lat="47.62908" lon="14.12419"><ele>1908</ele><time>2022-02-19T11:05:21Z</time></trkpt>
    <trkpt lat="47.62914" lon="14.12396"><ele>1894</ele><time>2022-02-19T11:07:01Z</time></trkpt>
    <trkpt lat="47.62921" lon="14.12374"><ele>1924</ele><time>2022-02-19T11:09:40Z</time></trkpt>
    <trkpt lat="47.62914" lon="14.12361"><ele>1875</ele><time>2022-02-19T11:13:50Z</time></trkpt>
    <trkpt lat="47.62906" lon="14.12354"><ele>1802</ele><time>2022-02-19T11:15:01Z</time></trkpt>
    <trkpt lat="47.62893" lon="14.12351"><ele>1940</ele><time>2022-02-19T11:16:26Z</time></trkpt>
    <trkpt lat="47.62884" lon="14.12371"><ele>1955</ele><time>2022-02-19T11:17:28Z</time></trkpt>
    <trkpt lat="47.62882" lon="14.12347"><ele>1957</ele><time>2022-02-19T11:18:25Z</time></trkpt>
    <trkpt lat="47.62879" lon="14.12324"><ele>1972</ele><time>2022-02-19T11:25:46Z</time></trkpt>
    <trkpt lat="47.62873" lon="14.12305"><ele>1971</ele><time>2022-02-19T11:28:09Z</time></trkpt>
    <trkpt lat="47.62862" lon="14.12313"><ele>1963</ele><time>2022-02-19T11:28:28Z</time></trkpt>
    <trkpt lat="47.62852" lon="14.12304"><ele>2000</ele><time>2022-02-19T11:31:46Z</time></trkpt>
    <trkpt lat="47.62841" lon="14.12305"><ele>2014</ele><time>2022-02-19T11:34:24Z</time></trkpt>
    <trkpt lat="47.62825" lon="14.12308"><ele>2020</ele><time>2022-02-19T11:36:05Z</time></trkpt>
    <trkpt lat="47.62813" lon="14.12290"><ele>2022</ele><time>2022-02-19T11:36:59Z</time></trkpt>
    <trkpt lat="47.62810" lon="14.12267"><ele>2031</ele><time>2022-02-19T11:37:55Z</time></trkpt>
    <trkpt lat="47.62797" lon="14.12252"><ele>2033</ele><time>2022-02-19T11:39:01Z</time></trkpt>
    <trkpt lat="47.62777" lon="14.12240"><ele>2031</ele><time>2022-02-19T11:39:38Z</time></trkpt>
    <trkpt lat="47.62769" lon="14.12230"><ele>2035</ele><time>2022-02-19T11:39:56Z</time></trkpt>
    <trkpt lat="47.62761" lon="14.12221"><ele>2035</ele><time>2022-02-19T11:40:14Z</time></trkpt>
    <trkpt lat="47.62748" lon="14.12223"><ele>2042</ele><time>2022-02-19T11:42:11Z</time></trkpt>
    <trkpt lat="47.62741" lon="14.12245"><ele>2048</ele><time>2022-02-19T11:43:15Z</time></trkpt>
    <trkpt lat="47.62731" lon="14.12265"><ele>2055</ele><time>2022-02-19T11:44:13Z</time></trkpt>
    <trkpt lat="47.62743" lon="14.12280"><ele>2062</ele><time>2022-02-19T11:45:43Z</time></trkpt>
    <trkpt lat="47.62757" lon="14.12278"><ele>2070</ele><time>2022-02-19T11:46:43Z</time></trkpt>
    <trkpt lat="47.62740" lon="14.12272"><ele>2056</ele><time>2022-02-19T11:52:46Z</time></trkpt>
    <trkpt lat="47.62740" lon="14.12256"><ele>2048</ele><time>2022-02-19T11:54:12Z</time></trkpt>
    <trkpt lat="47.62747" lon="14.12235"><ele>2044</ele><time>2022-02-19T11:55:26Z</time></trkpt>
    <trkpt lat="47.62756" lon="14.12216"><ele>2041</ele><time>2022-02-19T11:56:57Z</time></trkpt>
    <trkpt lat="47.62768" lon="14.12223"><ele>2038</ele><time>2022-02-19T11:57:16Z</time></trkpt>
    <trkpt lat="47.62778" lon="14.12236"><ele>2039</ele><time>2022-02-19T11:57:35Z</time></trkpt>
    <trkpt lat="47.62785" lon="14.12251"><ele>2039</ele><time>2022-02-19T11:57:53Z</time></trkpt>
    <trkpt lat="47.62797" lon="14.12243"><ele>2042</ele><time>2022-02-19T11:58:37Z</time></trkpt>
    <trkpt lat="47.62801" lon="14.12265"><ele>2023</ele><time>2022-02-19T12:08:54Z</time></trkpt>
    <trkpt lat="47.62825" lon="14.12326"><ele>2012</ele><time>2022-02-19T12:09:13Z</time></trkpt>
    <trkpt lat="47.62839" lon="14.12334"><ele>2010</ele><time>2022-02-19T12:09:32Z</time></trkpt>
    <trkpt lat="47.62849" lon="14.12346"><ele>1996</ele><time>2022-02-19T12:09:51Z</time></trkpt>
    <trkpt lat="47.62856" lon="14.12357"><ele>1986</ele><time>2022-02-19T12:10:09Z</time></trkpt>
    <trkpt lat="47.62882" lon="14.12371"><ele>1959</ele><time>2022-02-19T12:10:50Z</time></trkpt>
    <trkpt lat="47.62875" lon="14.12381"><ele>1953</ele><time>2022-02-19T12:13:23Z</time></trkpt>
    <trkpt lat="47.62888" lon="14.12400"><ele>1941</ele><time>2022-02-19T12:13:42Z</time></trkpt>
    <trkpt lat="47.62898" lon="14.12400"><ele>1935</ele><time>2022-02-19T12:14:00Z</time></trkpt>
    <trkpt lat="47.62909" lon="14.12410"><ele>1929</ele><time>2022-02-19T12:14:47Z</time></trkpt>
    <trkpt lat="47.62933" lon="14.12458"><ele>1901</ele><time>2022-02-19T12:15:05Z</time></trkpt>
    <trkpt lat="47.62963" lon="14.12474"><ele>1876</ele><time>2022-02-19T12:15:24Z</time></trkpt>
    <trkpt lat="47.63082" lon="14.12494"><ele>1818</ele><time>2022-02-19T12:17:57Z</time></trkpt>
    <trkpt lat="47.63102" lon="14.12488"><ele>1812</ele><time>2022-02-19T12:18:16Z</time></trkpt>
    <trkpt lat="47.63174" lon="14.12471"><ele>1781</ele><time>2022-02-19T12:19:45Z</time></trkpt>
    <trkpt lat="47.63188" lon="14.12459"><ele>1784</ele><time>2022-02-19T12:20:31Z</time></trkpt>
    <trkpt lat="47.63198" lon="14.12454"><ele>1783</ele><time>2022-02-19T12:20:50Z</time></trkpt>
    <trkpt lat="47.63223" lon="14.12461"><ele>1772</ele><time>2022-02-19T12:21:08Z</time></trkpt>
    <trkpt lat="47.63281" lon="14.12493"><ele>1756</ele><time>2022-02-19T12:21:26Z</time></trkpt>
    <trkpt lat="47.63315" lon="14.12458"><ele>1751</ele><time>2022-02-19T12:21:45Z</time></trkpt>
    <trkpt lat="47.63356" lon="14.12414"><ele>1709</ele><time>2022-02-19T12:22:04Z</time></trkpt>
    <trkpt lat="47.63351" lon="14.12396"><ele>1725</ele><time>2022-02-19T12:22:22Z</time></trkpt>
    <trkpt lat="47.63334" lon="14.12355"><ele>1723</ele><time>2022-02-19T12:22:40Z</time></trkpt>
    <trkpt lat="47.63330" lon="14.12291"><ele>1707</ele><time>2022-02-19T12:22:59Z</time></trkpt>
    <trkpt lat="47.63441" lon="14.12291"><ele>1689</ele><time>2022-02-19T12:23:17Z</time></trkpt>
    <trkpt lat="47.63563" lon="14.12298"><ele>1653</ele><time>2022-02-19T12:23:36Z</time></trkpt>
    <trkpt lat="47.63648" lon="14.12285"><ele>1641</ele><time>2022-02-19T12:23:55Z</time></trkpt>
    <trkpt lat="47.63717" lon="14.12294"><ele>1632</ele><time>2022-02-19T12:25:17Z</time></trkpt>
    <trkpt lat="47.63730" lon="14.12309"><ele>1634</ele><time>2022-02-19T12:26:14Z</time></trkpt>
    <trkpt lat="47.63746" lon="14.12318"><ele>1637</ele><time>2022-02-19T12:27:33Z</time></trkpt>
    <trkpt lat="47.63798" lon="14.12416"><ele>1623</ele><time>2022-02-19T12:27:52Z</time></trkpt>
    <trkpt lat="47.63794" lon="14.12459"><ele>1595</ele><time>2022-02-19T12:28:11Z</time></trkpt>
    <trkpt lat="47.63803" lon="14.12455"><ele>1594</ele><time>2022-02-19T12:28:29Z</time></trkpt>
    <trkpt lat="47.63821" lon="14.12507"><ele>1585</ele><time>2022-02-19T12:28:47Z</time></trkpt>
    <trkpt lat="47.63841" lon="14.12559"><ele>1587</ele><time>2022-02-19T12:29:06Z</time></trkpt>
    <trkpt lat="47.63864" lon="14.12599"><ele>1577</ele><time>2022-02-19T12:29:25Z</time></trkpt>
    <trkpt lat="47.63879" lon="14.12611"><ele>1567</ele><time>2022-02-19T12:29:43Z</time></trkpt>
    <trkpt lat="47.63965" lon="14.12578"><ele>1538</ele><time>2022-02-19T12:30:02Z</time></trkpt>
    <trkpt lat="47.64039" lon="14.12530"><ele>1515</ele><time>2022-02-19T12:30:20Z</time></trkpt>
    <trkpt lat="47.64072" lon="14.12504"><ele>1507</ele><time>2022-02-19T12:30:39Z</time></trkpt>
    <trkpt lat="47.64052" lon="14.12469"><ele>1481</ele><time>2022-02-19T12:31:30Z</time></trkpt>
    <trkpt lat="47.64038" lon="14.12443"><ele>1474</ele><time>2022-02-19T12:31:49Z</time></trkpt>
    <trkpt lat="47.64055" lon="14.12413"><ele>1457</ele><time>2022-02-19T12:32:07Z</time></trkpt>
    <trkpt lat="47.64053" lon="14.12398"><ele>1449</ele><time>2022-02-19T12:32:25Z</time></trkpt>
    <trkpt lat="47.64077" lon="14.12367"><ele>1434</ele><time>2022-02-19T12:32:43Z</time></trkpt>
    <trkpt lat="47.64093" lon="14.12368"><ele>1427</ele><time>2022-02-19T12:33:02Z</time></trkpt>
    <trkpt lat="47.64121" lon="14.12366"><ele>1414</ele><time>2022-02-19T12:33:20Z</time></trkpt>
    <trkpt lat="47.64142" lon="14.12365"><ele>1412</ele><time>2022-02-19T12:33:38Z</time></trkpt>
    <trkpt lat="47.64165" lon="14.12397"><ele>1401</ele><time>2022-02-19T12:33:57Z</time></trkpt>
    <trkpt lat="47.64193" lon="14.12419"><ele>1395</ele><time>2022-02-19T12:34:15Z</time></trkpt>
    <trkpt lat="47.64216" lon="14.12451"><ele>1388</ele><time>2022-02-19T12:34:33Z</time></trkpt>
    <trkpt lat="47.64230" lon="14.12463"><ele>1382</ele><time>2022-02-19T12:34:51Z</time></trkpt>
    <trkpt lat="47.64248" lon="14.12495"><ele>1373</ele><time>2022-02-19T12:35:10Z</time></trkpt>
    <trkpt lat="47.64268" lon="14.12529"><ele>1365</ele><time>2022-02-19T12:35:29Z</time></trkpt>
    <trkpt lat="47.64285" lon="14.12511"><ele>1363</ele><time>2022-02-19T12:36:10Z</time></trkpt>
    <trkpt lat="47.64309" lon="14.12530"><ele>1354</ele><time>2022-02-19T12:36:28Z</time></trkpt>
    <trkpt lat="47.64335" lon="14.12517"><ele>1340</ele><time>2022-02-19T12:36:47Z</time></trkpt>
    <trkpt lat="47.64357" lon="14.12510"><ele>1324</ele><time>2022-02-19T12:37:25Z</time></trkpt>
    <trkpt lat="47.64373" lon="14.12504"><ele>1321</ele><time>2022-02-19T12:37:43Z</time></trkpt>
    <trkpt lat="47.64410" lon="14.12473"><ele>1311</ele><time>2022-02-19T12:38:02Z</time></trkpt>
    <trkpt lat="47.64423" lon="14.12489"><ele>1311</ele><time>2022-02-19T12:38:20Z</time></trkpt>
    <trkpt lat="47.64449" lon="14.12464"><ele>1298</ele><time>2022-02-19T12:38:39Z</time></trkpt>
    <trkpt lat="47.64479" lon="14.12458"><ele>1284</ele><time>2022-02-19T12:38:57Z</time></trkpt>
    <trkpt lat="47.64525" lon="14.12451"><ele>1273</ele><time>2022-02-19T12:39:16Z</time></trkpt>
    <trkpt lat="47.64552" lon="14.12436"><ele>1261</ele><time>2022-02-19T12:39:35Z</time></trkpt>
    <trkpt lat="47.64588" lon="14.12421"><ele>1257</ele><time>2022-02-19T12:39:53Z</time></trkpt>
    <trkpt lat="47.64601" lon="14.12404"><ele>1246</ele><time>2022-02-19T12:41:13Z</time></trkpt>
    <trkpt lat="47.64640" lon="14.12387"><ele>1234</ele><time>2022-02-19T12:41:31Z</time></trkpt>
    <trkpt lat="47.64722" lon="14.12395"><ele>1224</ele><time>2022-02-19T12:41:50Z</time></trkpt>
    <trkpt lat="47.64760" lon="14.12401"><ele>1218</ele><time>2022-02-19T12:42:09Z</time></trkpt>
    <trkpt lat="47.64822" lon="14.12473"><ele>1206</ele><time>2022-02-19T12:42:27Z</time></trkpt>
    <trkpt lat="47.64831" lon="14.12479"><ele>1200</ele><time>2022-02-19T12:42:46Z</time></trkpt>
    <trkpt lat="47.64820" lon="14.12472"><ele>1193</ele><time>2022-02-19T12:43:04Z</time></trkpt>
    <trkpt lat="47.64829" lon="14.12463"><ele>1186</ele><time>2022-02-19T12:44:57Z</time></trkpt>
    <trkpt lat="47.64921" lon="14.12495"><ele>1183</ele><time>2022-02-19T12:45:15Z</time></trkpt>
    <trkpt lat="47.64951" lon="14.12501"><ele>1175</ele><time>2022-02-19T12:45:34Z</time></trkpt>
    <trkpt lat="47.64913" lon="14.12437"><ele>1167</ele><time>2022-02-19T12:45:53Z</time></trkpt>
    <trkpt lat="47.64894" lon="14.12349"><ele>1154</ele><time>2022-02-19T12:46:12Z</time></trkpt>
    <trkpt lat="47.64893" lon="14.12247"><ele>1136</ele><time>2022-02-19T12:46:31Z</time></trkpt>
    <trkpt lat="47.64940" lon="14.12245"><ele>1129</ele><time>2022-02-19T12:46:50Z</time></trkpt>
    <trkpt lat="47.64958" lon="14.12185"><ele>1119</ele><time>2022-02-19T12:47:08Z</time></trkpt>
    <trkpt lat="47.64979" lon="14.12124"><ele>1113</ele><time>2022-02-19T12:47:27Z</time></trkpt>
    <trkpt lat="47.65008" lon="14.12084"><ele>1097</ele><time>2022-02-19T12:48:04Z</time></trkpt>
    <trkpt lat="47.65007" lon="14.12056"><ele>1086</ele><time>2022-02-19T12:48:22Z</time></trkpt>
    <trkpt lat="47.65058" lon="14.12090"><ele>1079</ele><time>2022-02-19T12:48:41Z</time></trkpt>
    <trkpt lat="47.65094" lon="14.12129"><ele>1078</ele><time>2022-02-19T12:48:59Z</time></trkpt>
    <trkpt lat="47.65106" lon="14.12115"><ele>1074</ele><time>2022-02-19T12:49:17Z</time></trkpt>
    <trkpt lat="47.65098" lon="14.12037"><ele>1059</ele><time>2022-02-19T12:49:36Z</time></trkpt>
    <trkpt lat="47.65094" lon="14.12005"><ele>1055</ele><time>2022-02-19T12:49:54Z</time></trkpt>
    <trkpt lat="47.65101" lon="14.11941"><ele>1046</ele><time>2022-02-19T12:51:18Z</time></trkpt>
    <trkpt lat="47.65074" lon="14.11851"><ele>1026</ele><time>2022-02-19T12:51:36Z</time></trkpt>
    <trkpt lat="47.65056" lon="14.11842"><ele>1024</ele><time>2022-02-19T12:51:54Z</time></trkpt>
    <trkpt lat="47.65071" lon="14.11828"><ele>1015</ele><time>2022-02-19T12:52:13Z</time></trkpt>
    <trkpt lat="47.65079" lon="14.11821"><ele>1012</ele><time>2022-02-19T12:52:41Z</time></trkpt>
    <trkpt lat="47.65080" lon="14.11801"><ele>1006</ele><time>2022-02-19T12:52:59Z</time></trkpt>
    <trkpt lat="47.65071" lon="14.11692"><ele>975</ele><time>2022-02-19T12:53:17Z</time></trkpt>
    <trkpt lat="47.65096" lon="14.11565"><ele>957</ele><time>2022-02-19T12:53:36Z</time></trkpt>
    <trkpt lat="47.65094" lon="14.11454"><ele>950</ele><time>2022-02-19T12:53:54Z</time></trkpt>
    <trkpt lat="47.65118" lon="14.11381"><ele>934</ele><time>2022-02-19T12:54:12Z</time></trkpt>
    <trkpt lat="47.65201" lon="14.11290"><ele>932</ele><time>2022-02-19T12:54:31Z</time></trkpt>
    <trkpt lat="47.65286" lon="14.11230"><ele>918</ele><time>2022-02-19T12:54:49Z</time></trkpt>
    <trkpt lat="47.65398" lon="14.11201"><ele>898</ele><time>2022-02-19T12:55:07Z</time></trkpt>
    <trkpt lat="47.65432" lon="14.11178"><ele>890</ele><time>2022-02-19T12:55:26Z</time></trkpt>
    <trkpt lat="47.65441" lon="14.11168"><ele>887</ele><time>2022-02-19T12:55:45Z</time></trkpt>
    <trkpt lat="47.65457" lon="14.11093"><ele>870</ele><time>2022-02-19T12:57:12Z</time></trkpt>
    <trkpt lat="47.65529" lon="14.10994"><ele>849</ele><time>2022-02-19T12:57:30Z</time></trkpt>
    <trkpt lat="47.65549" lon="14.10996"><ele>849</ele><time>2022-02-19T12:57:49Z</time></trkpt>
    <trkpt lat="47.65568" lon="14.10987"><ele>852</ele><time>2022-02-19T12:58:29Z</time></trkpt>
    <trkpt lat="47.65594" lon="14.10980"><ele>849</ele><time>2022-02-19T12:58:47Z</time></trkpt>
    <trkpt lat="47.65625" lon="14.10988"><ele>842</ele><time>2022-02-19T12:59:05Z</time></trkpt>
    <trkpt lat="47.65656" lon="14.10993"><ele>849</ele><time>2022-02-19T12:59:24Z</time></trkpt>
    <trkpt lat="47.65688" lon="14.10979"><ele>852</ele><time>2022-02-19T12:59:43Z</time></trkpt>
    <trkpt lat="47.65701" lon="14.10972"><ele>852</ele><time>2022-02-19T13:00:02Z</time></trkpt>
    <trkpt lat="47.65714" lon="14.10975"><ele>851</ele><time>2022-02-19T13:00:21Z</time></trkpt>
    <trkpt lat="47.65730" lon="14.10980"><ele>855</ele><time>2022-02-19T13:00:40Z</time></trkpt>
    <trkpt lat="47.65747" lon="14.10988"><ele>853</ele><time>2022-02-19T13:00:58Z</time></trkpt>
    <trkpt lat="47.65766" lon="14.10987"><ele>855</ele><time>2022-02-19T13:01:17Z</time></trkpt>
    <trkpt lat="47.65854" lon="14.10928"><ele>832</ele><time>2022-02-19T13:02:47Z</time></trkpt>
    <trkpt lat="47.65859" lon="14.10916"><ele>828</ele><time>2022-02-19T13:03:06Z</time></trkpt>
    <trkpt lat="47.65957" lon="14.10883"><ele>797</ele><time>2022-02-19T13:04:43Z</time></trkpt>
    <trkpt lat="47.66050" lon="14.10971"><ele>786</ele><time>2022-02-19T13:05:02Z</time></trkpt>
    <trkpt lat="47.66120" lon="14.10901"><ele>764</ele><time>2022-02-19T13:05:20Z</time></trkpt>
    <trkpt lat="47.66208" lon="14.10837"><ele>742</ele><time>2022-02-19T13:05:39Z</time></trkpt>
    <trkpt lat="47.66297" lon="14.10789"><ele>720</ele><time>2022-02-19T13:05:58Z</time></trkpt>
    <trkpt lat="47.66332" lon="14.10788"><ele>715</ele><time>2022-02-19T13:06:17Z</time></trkpt>
    <trkpt lat="47.66353" lon="14.10787"><ele>712</ele><time>2022-02-19T13:06:54Z</time></trkpt>
    <trkpt lat="47.66392" lon="14.10726"><ele>688</ele><time>2022-02-19T13:07:13Z</time></trkpt>
    <trkpt lat="47.66418" lon="14.10631"><ele>670</ele><time>2022-02-19T13:07:32Z</time></trkpt>
    <trkpt lat="47.66421" lon="14.10617"><ele>666</ele><time>2022-02-19T13:07:50Z</time></trkpt>
    <trkpt lat="47.66429" lon="14.10618"><ele>667</ele><time>2022-02-19T13:08:45Z</time></trkpt>
  </trkseg>
</trk>
</gpx>