<?xml version="1.0" encoding="UTF-8"?>
<gpx version="1.1" creator="GPX-Pro" xmlns="http://www.topografix.com/GPX/1/1">
<trk>
  <name>Ski_Wehrgrube</name>
  <trkseg>
    <trkpt lat="47.57201" lon="12.67858"><ele>696</ele><time>2022-03-20T05:12:12Z</time></trkpt>
    <trkpt lat="47.57175" lon="12.67871"><ele>687</ele><time>2022-03-20T05:12:53Z</time></trkpt>
    <trkpt lat="47.57156" lon="12.67883"><ele>684</ele><time>2022-03-20T05:13:11Z</time></trkpt>
    <trkpt lat="47.57134" lon="12.67895"><ele>680</ele><time>2022-03-20T05:13:30Z</time></trkpt>
    <trkpt lat="47.57113" lon="12.67900"><ele>676</ele><time>2022-03-20T05:13:48Z</time></trkpt>
    <trkpt lat="47.57092" lon="12.67910"><ele>673</ele><time>2022-03-20T05:14:07Z</time></trkpt>
    <trkpt lat="47.57073" lon="12.67905"><ele>678</ele><time>2022-03-20T05:14:25Z</time></trkpt>
    <trkpt lat="47.57059" lon="12.67896"><ele>686</ele><time>2022-03-20T05:14:44Z</time></trkpt>
    <trkpt lat="47.57054" lon="12.67918"><ele>685</ele><time>2022-03-20T05:15:02Z</time></trkpt>
    <trkpt lat="47.57050" lon="12.67940"><ele>683</ele><time>2022-03-20T05:15:21Z</time></trkpt>
    <trkpt lat="47.57034" lon="12.67955"><ele>692</ele><time>2022-03-20T05:15:40Z</time></trkpt>
    <trkpt lat="47.57016" lon="12.67957"><ele>692</ele><time>2022-03-20T05:15:59Z</time></trkpt>
    <trkpt lat="47.56996" lon="12.67961"><ele>694</ele><time>2022-03-20T05:16:18Z</time></trkpt>
    <trkpt lat="47.56976" lon="12.67958"><ele>694</ele><time>2022-03-20T05:16:36Z</time></trkpt>
    <trkpt lat="47.56938" lon="12.67990"><ele>685</ele><time>2022-03-20T05:16:55Z</time></trkpt>
    <trkpt lat="47.56925" lon="12.67980"><ele>688</ele><time>2022-03-20T05:17:14Z</time></trkpt>
    <trkpt lat="47.56911" lon="12.67966"><ele>692</ele><time>2022-03-20T05:17:33Z</time></trkpt>
    <trkpt lat="47.56894" lon="12.67958"><ele>695</ele><time>2022-03-20T05:17:51Z</time></trkpt>
    <trkpt lat="47.56877" lon="12.67946"><ele>694</ele><time>2022-03-20T05:18:09Z</time></trkpt>
    <trkpt lat="47.56861" lon="12.67933"><ele>698</ele><time>2022-03-20T05:18:28Z</time></trkpt>
    <trkpt lat="47.56845" lon="12.67924"><ele>700</ele><time>2022-03-20T05:18:46Z</time></trkpt>
    <trkpt lat="47.56828" lon="12.67912"><ele>704</ele><time>2022-03-20T05:19:04Z</time></trkpt>
    <trkpt lat="47.56811" lon="12.67900"><ele>705</ele><time>2022-03-20T05:19:22Z</time></trkpt>
    <trkpt lat="47.56795" lon="12.67884"><ele>706</ele><time>2022-03-20T05:19:41Z</time></trkpt>
    <trkpt lat="47.56779" lon="12.67869"><ele>707</ele><time>2022-03-20T05:20:00Z</time></trkpt>
    <trkpt lat="47.56761" lon="12.67856"><ele>708</ele><time>2022-03-20T05:20:18Z</time></trkpt>
    <trkpt lat="47.56746" lon="12.67845"><ele>714</ele><time>2022-03-20T05:20:36Z</time></trkpt>
    <trkpt lat="47.56731" lon="12.67834"><ele>713</ele><time>2022-03-20T05:20:54Z</time></trkpt>
    <trkpt lat="47.56713" lon="12.67826"><ele>713</ele><time>2022-03-20T05:21:13Z</time></trkpt>
    <trkpt lat="47.56697" lon="12.67819"><ele>717</ele><time>2022-03-20T05:21:31Z</time></trkpt>
    <trkpt lat="47.56682" lon="12.67810"><ele>718</ele><time>2022-03-20T05:21:50Z</time></trkpt>
    <trkpt lat="47.56664" lon="12.67801"><ele>720</ele><time>2022-03-20T05:22:09Z</time></trkpt>
    <trkpt lat="47.56649" lon="12.67787"><ele>720</ele><time>2022-03-20T05:22:27Z</time></trkpt>
    <trkpt lat="47.56632" lon="12.67771"><ele>723</ele><time>2022-03-20T05:22:46Z</time></trkpt>
    <trkpt lat="47.56618" lon="12.67751"><ele>726</ele><time>2022-03-20T05:23:05Z</time></trkpt>
    <trkpt lat="47.56607" lon="12.67737"><ele>728</ele><time>2022-03-20T05:23:23Z</time></trkpt>
    <trkpt lat="47.56594" lon="12.67727"><ele>735</ele><time>2022-03-20T05:23:42Z</time></trkpt>
    <trkpt lat="47.56589" lon="12.67707"><ele>735</ele><time>2022-03-20T05:24:00Z</time></trkpt>
    <trkpt lat="47.56587" lon="12.67686"><ele>740</ele><time>2022-03-20T05:24:18Z</time></trkpt>
    <trkpt lat="47.56581" lon="12.67670"><ele>740</ele><time>2022-03-20T05:24:37Z</time></trkpt>
    <trkpt lat="47.56573" lon="12.67660"><ele>741</ele><time>2022-03-20T05:24:56Z</time></trkpt>
    <trkpt lat="47.56558" lon="12.67653"><ele>741</ele><time>2022-03-20T05:25:15Z</time></trkpt>
    <trkpt lat="47.56544" lon="12.67649"><ele>743</ele><time>2022-03-20T05:25:33Z</time></trkpt>
    <trkpt lat="47.56530" lon="12.67641"><ele>744</ele><time>2022-03-20T05:25:51Z</time></trkpt>
    <trkpt lat="47.56513" lon="12.67634"><ele>745</ele><time>2022-03-20T05:26:10Z</time></trkpt>
    <trkpt lat="47.56497" lon="12.67623"><ele>742</ele><time>2022-03-20T05:26:29Z</time></trkpt>
    <trkpt lat="47.56482" lon="12.67608"><ele>746</ele><time>2022-03-20T05:26:47Z</time></trkpt>
    <trkpt lat="47.56470" lon="12.67590"><ele>744</ele><time>2022-03-20T05:27:06Z</time></trkpt>
    <trkpt lat="47.56462" lon="12.67562"><ele>734</ele><time>2022-03-20T05:27:24Z</time></trkpt>
    <trkpt lat="47.56461" lon="12.67533"><ele>740</ele><time>2022-03-20T05:27:42Z</time></trkpt>
    <trkpt lat="47.56463" lon="12.67507"><ele>744</ele><time>2022-03-20T05:28:01Z</time></trkpt>
    <trkpt lat="47.56456" lon="12.67483"><ele>750</ele><time>2022-03-20T05:28:20Z</time></trkpt>
    <trkpt lat="47.56451" lon="12.67461"><ele>757</ele><time>2022-03-20T05:28:39Z</time></trkpt>
    <trkpt lat="47.56441" lon="12.67442"><ele>763</ele><time>2022-03-20T05:28:58Z</time></trkpt>
    <trkpt lat="47.56431" lon="12.67425"><ele>766</ele><time>2022-03-20T05:29:16Z</time></trkpt>
    <trkpt lat="47.56424" lon="12.67405"><ele>771</ele><time>2022-03-20T05:29:35Z</time></trkpt>
    <trkpt lat="47.56416" lon="12.67385"><ele>776</ele><time>2022-03-20T05:29:53Z</time></trkpt>
    <trkpt lat="47.56410" lon="12.67365"><ele>780</ele><time>2022-03-20T05:30:12Z</time></trkpt>
    <trkpt lat="47.56403" lon="12.67347"><ele>780</ele><time>2022-03-20T05:30:30Z</time></trkpt>
    <trkpt lat="47.56398" lon="12.67328"><ele>781</ele><time>2022-03-20T05:30:49Z</time></trkpt>
    <trkpt lat="47.56398" lon="12.67305"><ele>785</ele><time>2022-03-20T05:31:07Z</time></trkpt>
    <trkpt lat="47.56400" lon="12.67281"><ele>785</ele><time>2022-03-20T05:31:25Z</time></trkpt>
    <trkpt lat="47.56398" lon="12.67259"><ele>788</ele><time>2022-03-20T05:31:44Z</time></trkpt>
    <trkpt lat="47.56394" lon="12.67239"><ele>792</ele><time>2022-03-20T05:32:02Z</time></trkpt>
    <trkpt lat="47.56387" lon="12.67222"><ele>796</ele><time>2022-03-20T05:32:20Z</time></trkpt>
    <trkpt lat="47.56384" lon="12.67201"><ele>797</ele><time>2022-03-20T05:32:39Z</time></trkpt>
    <trkpt lat="47.56379" lon="12.67168"><ele>799</ele><time>2022-03-20T05:35:13Z</time></trkpt>
    <trkpt lat="47.56378" lon="12.67149"><ele>802</ele><time>2022-03-20T05:35:31Z</time></trkpt>
    <trkpt lat="47.56372" lon="12.67131"><ele>809</ele><time>2022-03-20T05:35:49Z</time></trkpt>
    <trkpt lat="47.56364" lon="12.67113"><ele>810</ele><time>2022-03-20T05:36:08Z</time></trkpt>
    <trkpt lat="47.56360" lon="12.67098"><ele>803</ele><time>2022-03-20T05:36:26Z</time></trkpt>
    <trkpt lat="47.56359" lon="12.67080"><ele>810</ele><time>2022-03-20T05:36:45Z</time></trkpt>
    <trkpt lat="47.56351" lon="12.67063"><ele>814</ele><time>2022-03-20T05:37:03Z</time></trkpt>
    <trkpt lat="47.56340" lon="12.67052"><ele>822</ele><time>2022-03-20T05:37:21Z</time></trkpt>
    <trkpt lat="47.56330" lon="12.67037"><ele>822</ele><time>2022-03-20T05:37:40Z</time></trkpt>
    <trkpt lat="47.56324" lon="12.67022"><ele>823</ele><time>2022-03-20T05:37:58Z</time></trkpt>
    <trkpt lat="47.56318" lon="12.67006"><ele>814</ele><time>2022-03-20T05:38:17Z</time></trkpt>
    <trkpt lat="47.56311" lon="12.66994"><ele>829</ele><time>2022-03-20T05:38:35Z</time></trkpt>
    <trkpt lat="47.56301" lon="12.66986"><ele>829</ele><time>2022-03-20T05:38:54Z</time></trkpt>
    <trkpt lat="47.56291" lon="12.66981"><ele>831</ele><time>2022-03-20T05:39:12Z</time></trkpt>
    <trkpt lat="47.56282" lon="12.66971"><ele>837</ele><time>2022-03-20T05:39:31Z</time></trkpt>
    <trkpt lat="47.56274" lon="12.66958"><ele>838</ele><time>2022-03-20T05:39:49Z</time></trkpt>
    <trkpt lat="47.56263" lon="12.66949"><ele>842</ele><time>2022-03-20T05:40:07Z</time></trkpt>
    <trkpt lat="47.56252" lon="12.66944"><ele>847</ele><time>2022-03-20T05:40:25Z</time></trkpt>
    <trkpt lat="47.56234" lon="12.66925"><ele>854</ele><time>2022-03-20T05:41:08Z</time></trkpt>
    <trkpt lat="47.56224" lon="12.66912"><ele>859</ele><time>2022-03-20T05:41:27Z</time></trkpt>
    <trkpt lat="47.56215" lon="12.66901"><ele>859</ele><time>2022-03-20T05:41:45Z</time></trkpt>
    <trkpt lat="47.56205" lon="12.66894"><ele>860</ele><time>2022-03-20T05:42:04Z</time></trkpt>
    <trkpt lat="47.56194" lon="12.66893"><ele>864</ele><time>2022-03-20T05:42:22Z</time></trkpt>
    <trkpt lat="47.56183" lon="12.66883"><ele>868</ele><time>2022-03-20T05:42:41Z</time></trkpt>
    <trkpt lat="47.56172" lon="12.66879"><ele>870</ele><time>2022-03-20T05:42:59Z</time></trkpt>
    <trkpt lat="47.56163" lon="12.66866"><ele>870</ele><time>2022-03-20T05:43:18Z</time></trkpt>
    <trkpt lat="47.56153" lon="12.66854"><ele>876</ele><time>2022-03-20T05:43:36Z</time></trkpt>
    <trkpt lat="47.56142" lon="12.66846"><ele>876</ele><time>2022-03-20T05:43:55Z</time></trkpt>
    <trkpt lat="47.56130" lon="12.66843"><ele>877</ele><time>2022-03-20T05:44:13Z</time></trkpt>
    <trkpt lat="47.56119" lon="12.66843"><ele>883</ele><time>2022-03-20T05:44:32Z</time></trkpt>
    <trkpt lat="47.56111" lon="12.66852"><ele>886</ele><time>2022-03-20T05:44:50Z</time></trkpt>
    <trkpt lat="47.56112" lon="12.66870"><ele>889</ele><time>2022-03-20T05:45:08Z</time></trkpt>
    <trkpt lat="47.56102" lon="12.66870"><ele>891</ele><time>2022-03-20T05:45:26Z</time></trkpt>
    <trkpt lat="47.56091" lon="12.66870"><ele>893</ele><time>2022-03-20T05:45:44Z</time></trkpt>
    <trkpt lat="47.56093" lon="12.66895"><ele>904</ele><time>2022-03-20T05:46:40Z</time></trkpt>
    <trkpt lat="47.56098" lon="12.66919"><ele>918</ele><time>2022-03-20T05:47:53Z</time></trkpt>
    <trkpt lat="47.56100" lon="12.66941"><ele>922</ele><time>2022-03-20T05:48:33Z</time></trkpt>
    <trkpt lat="47.56084" lon="12.66941"><ele>926</ele><time>2022-03-20T05:51:39Z</time></trkpt>
    <trkpt lat="47.56087" lon="12.66965"><ele>937</ele><time>2022-03-20T05:52:41Z</time></trkpt>
    <trkpt lat="47.56088" lon="12.66989"><ele>941</ele><time>2022-03-20T05:53:24Z</time></trkpt>
    <trkpt lat="47.56079" lon="12.67008"><ele>951</ele><time>2022-03-20T05:54:19Z</time></trkpt>
    <trkpt lat="47.56076" lon="12.67035"><ele>961</ele><time>2022-03-20T05:54:55Z</time></trkpt>
    <trkpt lat="47.56071" lon="12.67050"><ele>962</ele><time>2022-03-20T05:55:14Z</time></trkpt>
    <trkpt lat="47.56064" lon="12.67073"><ele>967</ele><time>2022-03-20T05:55:55Z</time></trkpt>
    <trkpt lat="47.56050" lon="12.67084"><ele>975</ele><time>2022-03-20T05:57:14Z</time></trkpt>
    <trkpt lat="47.56035" lon="12.67077"><ele>981</ele><time>2022-03-20T05:58:15Z</time></trkpt>
    <trkpt lat="47.56029" lon="12.67065"><ele>978</ele><time>2022-03-20T05:58:34Z</time></trkpt>
    <trkpt lat="47.56020" lon="12.67044"><ele>990</ele><time>2022-03-20T05:59:21Z</time></trkpt>
    <trkpt lat="47.56007" lon="12.67027"><ele>1000</ele><time>2022-03-20T06:00:07Z</time></trkpt>
    <trkpt lat="47.55996" lon="12.67008"><ele>1006</ele><time>2022-03-20T06:00:52Z</time></trkpt>
    <trkpt lat="47.55990" lon="12.66994"><ele>1009</ele><time>2022-03-20T06:01:10Z</time></trkpt>
    <trkpt lat="47.55986" lon="12.66970"><ele>1009</ele><time>2022-03-20T06:01:55Z</time></trkpt>
    <trkpt lat="47.55981" lon="12.66947"><ele>1017</ele><time>2022-03-20T06:02:33Z</time></trkpt>
    <trkpt lat="47.55983" lon="12.66923"><ele>1034</ele><time>2022-03-20T06:03:16Z</time></trkpt>
    <trkpt lat="47.55983" lon="12.66908"><ele>1031</ele><time>2022-03-20T06:03:35Z</time></trkpt>
    <trkpt lat="47.55979" lon="12.66893"><ele>1038</ele><time>2022-03-20T06:03:53Z</time></trkpt>
    <trkpt lat="47.55973" lon="12.66906"><ele>1048</ele><time>2022-03-20T06:04:56Z</time></trkpt>
    <trkpt lat="47.55960" lon="12.66922"><ele>1055</ele><time>2022-03-20T06:05:41Z</time></trkpt>
    <trkpt lat="47.55958" lon="12.66908"><ele>1056</ele><time>2022-03-20T06:05:59Z</time></trkpt>
    <trkpt lat="47.55959" lon="12.66893"><ele>1059</ele><time>2022-03-20T06:06:17Z</time></trkpt>
    <trkpt lat="47.55944" lon="12.66883"><ele>1072</ele><time>2022-03-20T06:07:23Z</time></trkpt>
    <trkpt lat="47.55931" lon="12.66867"><ele>1072</ele><time>2022-03-20T06:08:14Z</time></trkpt>
    <trkpt lat="47.55911" lon="12.66866"><ele>1085</ele><time>2022-03-20T06:09:38Z</time></trkpt>
    <trkpt lat="47.55903" lon="12.66858"><ele>1087</ele><time>2022-03-20T06:09:56Z</time></trkpt>
    <trkpt lat="47.55889" lon="12.66842"><ele>1091</ele><time>2022-03-20T06:10:35Z</time></trkpt>
    <trkpt lat="47.55879" lon="12.66820"><ele>1094</ele><time>2022-03-20T06:11:25Z</time></trkpt>
    <trkpt lat="47.55867" lon="12.66806"><ele>1109</ele><time>2022-03-20T06:12:35Z</time></trkpt>
    <trkpt lat="47.55862" lon="12.66792"><ele>1110</ele><time>2022-03-20T06:12:54Z</time></trkpt>
    <trkpt lat="47.55854" lon="12.66771"><ele>1122</ele><time>2022-03-20T06:13:56Z</time></trkpt>
    <trkpt lat="47.55849" lon="12.66758"><ele>1121</ele><time>2022-03-20T06:14:14Z</time></trkpt>
    <trkpt lat="47.55844" lon="12.66742"><ele>1123</ele><time>2022-03-20T06:14:32Z</time></trkpt>
    <trkpt lat="47.55836" lon="12.66720"><ele>1132</ele><time>2022-03-20T06:15:17Z</time></trkpt>
    <trkpt lat="47.55828" lon="12.66715"><ele>1132</ele><time>2022-03-20T06:15:36Z</time></trkpt>
    <trkpt lat="47.55815" lon="12.66695"><ele>1137</ele><time>2022-03-20T06:16:17Z</time></trkpt>
    <trkpt lat="47.55803" lon="12.66676"><ele>1146</ele><time>2022-03-20T06:17:02Z</time></trkpt>
    <trkpt lat="47.55797" lon="12.66661"><ele>1152</ele><time>2022-03-20T06:17:48Z</time></trkpt>
    <trkpt lat="47.55788" lon="12.66652"><ele>1156</ele><time>2022-03-20T06:18:07Z</time></trkpt>
    <trkpt lat="47.55779" lon="12.66634"><ele>1164</ele><time>2022-03-20T06:19:37Z</time></trkpt>
    <trkpt lat="47.55769" lon="12.66616"><ele>1179</ele><time>2022-03-20T06:20:32Z</time></trkpt>
    <trkpt lat="47.55763" lon="12.66595"><ele>1185</ele><time>2022-03-20T06:23:57Z</time></trkpt>
    <trkpt lat="47.55761" lon="12.66571"><ele>1187</ele><time>2022-03-20T06:24:36Z</time></trkpt>
    <trkpt lat="47.55762" lon="12.66550"><ele>1190</ele><time>2022-03-20T06:24:55Z</time></trkpt>
    <trkpt lat="47.55760" lon="12.66533"><ele>1191</ele><time>2022-03-20T06:25:13Z</time></trkpt>
    <trkpt lat="47.55758" lon="12.66517"><ele>1193</ele><time>2022-03-20T06:25:32Z</time></trkpt>
    <trkpt lat="47.55745" lon="12.66531"><ele>1194</ele><time>2022-03-20T06:26:22Z</time></trkpt>
    <trkpt lat="47.55740" lon="12.66518"><ele>1197</ele><time>2022-03-20T06:26:40Z</time></trkpt>
    <trkpt lat="47.55738" lon="12.66504"><ele>1200</ele><time>2022-03-20T06:26:58Z</time></trkpt>
    <trkpt lat="47.55728" lon="12.66530"><ele>1209</ele><time>2022-03-20T06:27:39Z</time></trkpt>
    <trkpt lat="47.55728" lon="12.66548"><ele>1216</ele><time>2022-03-20T06:27:58Z</time></trkpt>
    <trkpt lat="47.55714" lon="12.66532"><ele>1211</ele><time>2022-03-20T06:28:35Z</time></trkpt>
    <trkpt lat="47.55711" lon="12.66518"><ele>1215</ele><time>2022-03-20T06:28:53Z</time></trkpt>
    <trkpt lat="47.55707" lon="12.66504"><ele>1217</ele><time>2022-03-20T06:29:12Z</time></trkpt>
    <trkpt lat="47.55704" lon="12.66488"><ele>1218</ele><time>2022-03-20T06:29:31Z</time></trkpt>
    <trkpt lat="47.55697" lon="12.66514"><ele>1231</ele><time>2022-03-20T06:30:26Z</time></trkpt>
    <trkpt lat="47.55688" lon="12.66486"><ele>1235</ele><time>2022-03-20T06:31:11Z</time></trkpt>
    <trkpt lat="47.55690" lon="12.66471"><ele>1237</ele><time>2022-03-20T06:31:30Z</time></trkpt>
    <trkpt lat="47.55690" lon="12.66445"><ele>1244</ele><time>2022-03-20T06:32:07Z</time></trkpt>
    <trkpt lat="47.55693" lon="12.66417"><ele>1246</ele><time>2022-03-20T06:33:05Z</time></trkpt>
    <trkpt lat="47.55693" lon="12.66401"><ele>1244</ele><time>2022-03-20T06:33:24Z</time></trkpt>
    <trkpt lat="47.55702" lon="12.66393"><ele>1246</ele><time>2022-03-20T06:33:43Z</time></trkpt>
    <trkpt lat="47.55687" lon="12.66385"><ele>1263</ele><time>2022-03-20T06:35:40Z</time></trkpt>
    <trkpt lat="47.55684" lon="12.66366"><ele>1263</ele><time>2022-03-20T06:35:58Z</time></trkpt>
    <trkpt lat="47.55692" lon="12.66356"><ele>1264</ele><time>2022-03-20T06:36:17Z</time></trkpt>
    <trkpt lat="47.55681" lon="12.66341"><ele>1268</ele><time>2022-03-20T06:37:56Z</time></trkpt>
    <trkpt lat="47.55672" lon="12.66329"><ele>1278</ele><time>2022-03-20T06:38:38Z</time></trkpt>
    <trkpt lat="47.55664" lon="12.66337"><ele>1281</ele><time>2022-03-20T06:38:57Z</time></trkpt>
    <trkpt lat="47.55661" lon="12.66313"><ele>1287</ele><time>2022-03-20T06:39:58Z</time></trkpt>
    <trkpt lat="47.55668" lon="12.66300"><ele>1289</ele><time>2022-03-20T06:40:16Z</time></trkpt>
    <trkpt lat="47.55672" lon="12.66285"><ele>1292</ele><time>2022-03-20T06:40:34Z</time></trkpt>
    <trkpt lat="47.55688" lon="12.66281"><ele>1296</ele><time>2022-03-20T06:41:13Z</time></trkpt>
    <trkpt lat="47.55691" lon="12.66262"><ele>1299</ele><time>2022-03-20T06:41:32Z</time></trkpt>
    <trkpt lat="47.55693" lon="12.66233"><ele>1290</ele><time>2022-03-20T06:42:09Z</time></trkpt>
    <trkpt lat="47.55701" lon="12.66219"><ele>1297</ele><time>2022-03-20T06:42:27Z</time></trkpt>
    <trkpt lat="47.55704" lon="12.66195"><ele>1311</ele><time>2022-03-20T06:43:06Z</time></trkpt>
    <trkpt lat="47.55697" lon="12.66178"><ele>1313</ele><time>2022-03-20T06:43:25Z</time></trkpt>
    <trkpt lat="47.55683" lon="12.66171"><ele>1324</ele><time>2022-03-20T06:44:52Z</time></trkpt>
    <trkpt lat="47.55666" lon="12.66172"><ele>1336</ele><time>2022-03-20T06:46:15Z</time></trkpt>
    <trkpt lat="47.55654" lon="12.66178"><ele>1346</ele><time>2022-03-20T06:47:34Z</time></trkpt>
    <trkpt lat="47.55642" lon="12.66176"><ele>1352</ele><time>2022-03-20T06:48:38Z</time></trkpt>
    <trkpt lat="47.55626" lon="12.66176"><ele>1362</ele><time>2022-03-20T06:50:46Z</time></trkpt>
    <trkpt lat="47.55626" lon="12.66156"><ele>1363</ele><time>2022-03-20T06:52:05Z</time></trkpt>
    <trkpt lat="47.55623" lon="12.66126"><ele>1371</ele><time>2022-03-20T06:52:24Z</time></trkpt>
    <trkpt lat="47.55622" lon="12.66107"><ele>1373</ele><time>2022-03-20T06:52:43Z</time></trkpt>
    <trkpt lat="47.55620" lon="12.66088"><ele>1371</ele><time>2022-03-20T06:53:01Z</time></trkpt>
    <trkpt lat="47.55619" lon="12.66069"><ele>1375</ele><time>2022-03-20T06:53:20Z</time></trkpt>
    <trkpt lat="47.55618" lon="12.66055"><ele>1374</ele><time>2022-03-20T06:53:38Z</time></trkpt>
    <trkpt lat="47.55615" lon="12.66040"><ele>1382</ele><time>2022-03-20T06:53:56Z</time></trkpt>
    <trkpt lat="47.55612" lon="12.66018"><ele>1383</ele><time>2022-03-20T06:54:15Z</time></trkpt>
    <trkpt lat="47.55613" lon="12.66002"><ele>1383</ele><time>2022-03-20T06:54:33Z</time></trkpt>
    <trkpt lat="47.55612" lon="12.65986"><ele>1385</ele><time>2022-03-20T06:54:51Z</time></trkpt>
    <trkpt lat="47.55611" lon="12.65970"><ele>1387</ele><time>2022-03-20T06:55:10Z</time></trkpt>
    <trkpt lat="47.55612" lon="12.65951"><ele>1388</ele><time>2022-03-20T06:55:29Z</time></trkpt>
    <trkpt lat="47.55615" lon="12.65938"><ele>1391</ele><time>2022-03-20T06:55:47Z</time></trkpt>
    <trkpt lat="47.55619" lon="12.65922"><ele>1393</ele><time>2022-03-20T06:56:06Z</time></trkpt>
    <trkpt lat="47.55622" lon="12.65906"><ele>1397</ele><time>2022-03-20T06:56:25Z</time></trkpt>
    <trkpt lat="47.55627" lon="12.65893"><ele>1399</ele><time>2022-03-20T06:56:44Z</time></trkpt>
    <trkpt lat="47.55632" lon="12.65879"><ele>1400</ele><time>2022-03-20T06:57:03Z</time></trkpt>
    <trkpt lat="47.55635" lon="12.65865"><ele>1410</ele><time>2022-03-20T06:57:21Z</time></trkpt>
    <trkpt lat="47.55643" lon="12.65857"><ele>1412</ele><time>2022-03-20T06:57:39Z</time></trkpt>
    <trkpt lat="47.55654" lon="12.65856"><ele>1407</ele><time>2022-03-20T06:57:57Z</time></trkpt>
    <trkpt lat="47.55636" lon="12.65847"><ele>1419</ele><time>2022-03-20T06:58:36Z</time></trkpt>
    <trkpt lat="47.55645" lon="12.65822"><ele>1418</ele><time>2022-03-20T06:59:32Z</time></trkpt>
    <trkpt lat="47.55653" lon="12.65814"><ele>1424</ele><time>2022-03-20T06:59:50Z</time></trkpt>
    <trkpt lat="47.55659" lon="12.65799"><ele>1422</ele><time>2022-03-20T07:00:09Z</time></trkpt>
    <trkpt lat="47.55656" lon="12.65783"><ele>1433</ele><time>2022-03-20T07:00:54Z</time></trkpt>
    <trkpt lat="47.55645" lon="12.65781"><ele>1437</ele><time>2022-03-20T07:01:12Z</time></trkpt>
    <trkpt lat="47.55639" lon="12.65766"><ele>1445</ele><time>2022-03-20T07:02:00Z</time></trkpt>
    <trkpt lat="47.55647" lon="12.65757"><ele>1452</ele><time>2022-03-20T07:02:18Z</time></trkpt>
    <trkpt lat="47.55655" lon="12.65751"><ele>1454</ele><time>2022-03-20T07:02:36Z</time></trkpt>
    <trkpt lat="47.55667" lon="12.65743"><ele>1453</ele><time>2022-03-20T07:02:55Z</time></trkpt>
    <trkpt lat="47.55678" lon="12.65743"><ele>1458</ele><time>2022-03-20T07:03:14Z</time></trkpt>
    <trkpt lat="47.55687" lon="12.65742"><ele>1461</ele><time>2022-03-20T07:03:33Z</time></trkpt>
    <trkpt lat="47.55674" lon="12.65728"><ele>1468</ele><time>2022-03-20T07:05:43Z</time></trkpt>
    <trkpt lat="47.55679" lon="12.65704"><ele>1455</ele><time>2022-03-20T07:06:34Z</time></trkpt>
    <trkpt lat="47.55670" lon="12.65690"><ele>1481</ele><time>2022-03-20T07:07:11Z</time></trkpt>
    <trkpt lat="47.55660" lon="12.65689"><ele>1484</ele><time>2022-03-20T07:07:29Z</time></trkpt>
    <trkpt lat="47.55651" lon="12.65687"><ele>1489</ele><time>2022-03-20T07:07:48Z</time></trkpt>
    <trkpt lat="47.55642" lon="12.65685"><ele>1489</ele><time>2022-03-20T07:08:06Z</time></trkpt>
    <trkpt lat="47.55632" lon="12.65684"><ele>1491</ele><time>2022-03-20T07:08:24Z</time></trkpt>
    <trkpt lat="47.55623" lon="12.65683"><ele>1497</ele><time>2022-03-20T07:08:43Z</time></trkpt>
    <trkpt lat="47.55614" lon="12.65679"><ele>1500</ele><time>2022-03-20T07:09:01Z</time></trkpt>
    <trkpt lat="47.55620" lon="12.65665"><ele>1502</ele><time>2022-03-20T07:09:20Z</time></trkpt>
    <trkpt lat="47.55627" lon="12.65655"><ele>1499</ele><time>2022-03-20T07:09:38Z</time></trkpt>
    <trkpt lat="47.55628" lon="12.65638"><ele>1497</ele><time>2022-03-20T07:09:57Z</time></trkpt>
    <trkpt lat="47.55634" lon="12.65623"><ele>1498</ele><time>2022-03-20T07:10:16Z</time></trkpt>
    <trkpt lat="47.55645" lon="12.65603"><ele>1503</ele><time>2022-03-20T07:10:53Z</time></trkpt>
    <trkpt lat="47.55655" lon="12.65596"><ele>1510</ele><time>2022-03-20T07:11:12Z</time></trkpt>
    <trkpt lat="47.55662" lon="12.65586"><ele>1511</ele><time>2022-03-20T07:11:31Z</time></trkpt>
    <trkpt lat="47.55668" lon="12.65574"><ele>1515</ele><time>2022-03-20T07:11:49Z</time></trkpt>
    <trkpt lat="47.55652" lon="12.65566"><ele>1518</ele><time>2022-03-20T07:12:29Z</time></trkpt>
    <trkpt lat="47.55651" lon="12.65552"><ele>1523</ele><time>2022-03-20T07:13:08Z</time></trkpt>
    <trkpt lat="47.55643" lon="12.65537"><ele>1528</ele><time>2022-03-20T07:13:46Z</time></trkpt>
    <trkpt lat="47.55632" lon="12.65520"><ele>1539</ele><time>2022-03-20T07:14:34Z</time></trkpt>
    <trkpt lat="47.55626" lon="12.65499"><ele>1547</ele><time>2022-03-20T07:15:14Z</time></trkpt>
    <trkpt lat="47.55618" lon="12.65481"><ele>1554</ele><time>2022-03-20T07:15:53Z</time></trkpt>
    <trkpt lat="47.55611" lon="12.65468"><ele>1543</ele><time>2022-03-20T07:16:47Z</time></trkpt>
    <trkpt lat="47.55603" lon="12.65440"><ele>1486</ele><time>2022-03-20T07:17:25Z</time></trkpt>
    <trkpt lat="47.55603" lon="12.65424"><ele>1557</ele><time>2022-03-20T07:17:44Z</time></trkpt>
    <trkpt lat="47.55612" lon="12.65412"><ele>1564</ele><time>2022-03-20T07:18:03Z</time></trkpt>
    <trkpt lat="47.55609" lon="12.65393"><ele>1574</ele><time>2022-03-20T07:18:56Z</time></trkpt>
    <trkpt lat="47.55603" lon="12.65380"><ele>1583</ele><time>2022-03-20T07:19:42Z</time></trkpt>
    <trkpt lat="47.55595" lon="12.65361"><ele>1585</ele><time>2022-03-20T07:20:24Z</time></trkpt>
    <trkpt lat="47.55578" lon="12.65361"><ele>1599</ele><time>2022-03-20T07:21:09Z</time></trkpt>
    <trkpt lat="47.55561" lon="12.65369"><ele>1597</ele><time>2022-03-20T07:21:46Z</time></trkpt>
    <trkpt lat="47.55556" lon="12.65345"><ele>1595</ele><time>2022-03-20T07:22:27Z</time></trkpt>
    <trkpt lat="47.55545" lon="12.65328"><ele>1611</ele><time>2022-03-20T07:23:18Z</time></trkpt>
    <trkpt lat="47.55537" lon="12.65307"><ele>1624</ele><time>2022-03-20T07:24:14Z</time></trkpt>
    <trkpt lat="47.55538" lon="12.65282"><ele>1632</ele><time>2022-03-20T07:25:01Z</time></trkpt>
    <trkpt lat="47.55542" lon="12.65269"><ele>1618</ele><time>2022-03-20T07:25:20Z</time></trkpt>
    <trkpt lat="47.55541" lon="12.65245"><ele>1621</ele><time>2022-03-20T07:26:03Z</time></trkpt>
    <trkpt lat="47.55543" lon="12.65221"><ele>1631</ele><time>2022-03-20T07:26:41Z</time></trkpt>
    <trkpt lat="47.55539" lon="12.65196"><ele>1643</ele><time>2022-03-20T07:27:20Z</time></trkpt>
    <trkpt lat="47.55543" lon="12.65174"><ele>1654</ele><time>2022-03-20T07:27:58Z</time></trkpt>
    <trkpt lat="47.55538" lon="12.65153"><ele>1653</ele><time>2022-03-20T07:28:50Z</time></trkpt>
    <trkpt lat="47.55521" lon="12.65151"><ele>1665</ele><time>2022-03-20T07:29:37Z</time></trkpt>
    <trkpt lat="47.55503" lon="12.65156"><ele>1663</ele><time>2022-03-20T07:30:16Z</time></trkpt>
    <trkpt lat="47.55495" lon="12.65165"><ele>1670</ele><time>2022-03-20T07:30:35Z</time></trkpt>
    <trkpt lat="47.55484" lon="12.65156"><ele>1678</ele><time>2022-03-20T07:31:49Z</time></trkpt>
    <trkpt lat="47.55487" lon="12.65131"><ele>1653</ele><time>2022-03-20T07:32:33Z</time></trkpt>
    <trkpt lat="47.55484" lon="12.65116"><ele>1689</ele><time>2022-03-20T07:33:17Z</time></trkpt>
    <trkpt lat="47.55468" lon="12.65110"><ele>1668</ele><time>2022-03-20T07:34:01Z</time></trkpt>
    <trkpt lat="47.55467" lon="12.65090"><ele>1705</ele><time>2022-03-20T07:35:05Z</time></trkpt>
    <trkpt lat="47.55474" lon="12.65067"><ele>1704</ele><time>2022-03-20T07:35:43Z</time></trkpt>
    <trkpt lat="47.55478" lon="12.65044"><ele>1687</ele><time>2022-03-20T07:36:24Z</time></trkpt>
    <trkpt lat="47.55461" lon="12.65046"><ele>1722</ele><time>2022-03-20T07:37:16Z</time></trkpt>
    <trkpt lat="47.55452" lon="12.65033"><ele>1668</ele><time>2022-03-20T07:38:13Z</time></trkpt>
    <trkpt lat="47.55460" lon="12.65012"><ele>1667</ele><time>2022-03-20T07:38:59Z</time></trkpt>
    <trkpt lat="47.55447" lon="12.65003"><ele>1739</ele><time>2022-03-20T07:40:01Z</time></trkpt>
    <trkpt lat="47.55430" lon="12.65009"><ele>1745</ele><time>2022-03-20T07:40:38Z</time></trkpt>
    <trkpt lat="47.55415" lon="12.65022"><ele>1745</ele><time>2022-03-20T07:41:16Z</time></trkpt>
    <trkpt lat="47.55405" lon="12.65043"><ele>1719</ele><time>2022-03-20T07:42:00Z</time></trkpt>
    <trkpt lat="47.55390" lon="12.65052"><ele>1753</ele><time>2022-03-20T07:42:38Z</time></trkpt>
    <trkpt lat="47.55371" lon="12.65052"><ele>1677</ele><time>2022-03-20T07:43:15Z</time></trkpt>
    <trkpt lat="47.55362" lon="12.65052"><ele>1739</ele><time>2022-03-20T07:43:33Z</time></trkpt>
    <trkpt lat="47.55349" lon="12.65038"><ele>1769</ele><time>2022-03-20T07:44:26Z</time></trkpt>
    <trkpt lat="47.55346" lon="12.65026"><ele>1744</ele><time>2022-03-20T07:44:44Z</time></trkpt>
    <trkpt lat="47.55338" lon="12.65019"><ele>1687</ele><time>2022-03-20T07:45:03Z</time></trkpt>
    <trkpt lat="47.55331" lon="12.64999"><ele>1785</ele><time>2022-03-20T07:45:50Z</time></trkpt>
    <trkpt lat="47.55315" lon="12.65004"><ele>1790</ele><time>2022-03-20T07:46:30Z</time></trkpt>
    <trkpt lat="47.55301" lon="12.65019"><ele>1711</ele><time>2022-03-20T07:47:08Z</time></trkpt>
    <trkpt lat="47.55292" lon="12.65019"><ele>1795</ele><time>2022-03-20T07:47:26Z</time></trkpt>
    <trkpt lat="47.55275" lon="12.65019"><ele>1801</ele><time>2022-03-20T07:48:10Z</time></trkpt>
    <trkpt lat="47.55266" lon="12.65019"><ele>1523</ele><time>2022-03-20T07:48:28Z</time></trkpt>
    <trkpt lat="47.55250" lon="12.65020"><ele>1810</ele><time>2022-03-20T07:49:08Z</time></trkpt>
    <trkpt lat="47.55233" lon="12.65021"><ele>1817</ele><time>2022-03-20T07:50:36Z</time></trkpt>
    <trkpt lat="47.55215" lon="12.65017"><ele>1822</ele><time>2022-03-20T07:51:17Z</time></trkpt>
    <trkpt lat="47.55198" lon="12.65010"><ele>1827</ele><time>2022-03-20T07:51:58Z</time></trkpt>
    <trkpt lat="47.55184" lon="12.64999"><ele>1834</ele><time>2022-03-20T07:52:43Z</time></trkpt>
    <trkpt lat="47.55167" lon="12.64994"><ele>1838</ele><time>2022-03-20T07:53:24Z</time></trkpt>
    <trkpt lat="47.55168" lon="12.64970"><ele>1840</ele><time>2022-03-20T07:54:24Z</time></trkpt>
    <trkpt lat="47.55168" lon="12.64945"><ele>1849</ele><time>2022-03-20T07:55:10Z</time></trkpt>
    <trkpt lat="47.55166" lon="12.64932"><ele>1849</ele><time>2022-03-20T07:55:28Z</time></trkpt>
    <trkpt lat="47.55164" lon="12.64907"><ele>1855</ele><time>2022-03-20T07:56:08Z</time></trkpt>
    <trkpt lat="47.55167" lon="12.64883"><ele>1861</ele><time>2022-03-20T07:56:49Z</time></trkpt>
    <trkpt lat="47.55153" lon="12.64870"><ele>1850</ele><time>2022-03-20T07:57:44Z</time></trkpt>
    <trkpt lat="47.55136" lon="12.64864"><ele>1850</ele><time>2022-03-20T07:58:26Z</time></trkpt>
    <trkpt lat="47.55120" lon="12.64864"><ele>1851</ele><time>2022-03-20T07:59:06Z</time></trkpt>
    <trkpt lat="47.55103" lon="12.64862"><ele>1887</ele><time>2022-03-20T07:59:58Z</time></trkpt>
    <trkpt lat="47.55100" lon="12.64838"><ele>1887</ele><time>2022-03-20T08:00:47Z</time></trkpt>
    <trkpt lat="47.55086" lon="12.64830"><ele>1900</ele><time>2022-03-20T08:01:42Z</time></trkpt>
    <trkpt lat="47.55080" lon="12.64810"><ele>1907</ele><time>2022-03-20T08:02:24Z</time></trkpt>
    <trkpt lat="47.55065" lon="12.64801"><ele>1909</ele><time>2022-03-20T08:03:09Z</time></trkpt>
    <trkpt lat="47.55068" lon="12.64777"><ele>1853</ele><time>2022-03-20T08:04:00Z</time></trkpt>
    <trkpt lat="47.55056" lon="12.64765"><ele>1913</ele><time>2022-03-20T08:05:16Z</time></trkpt>
    <trkpt lat="47.55069" lon="12.64749"><ele>1932</ele><time>2022-03-20T08:06:03Z</time></trkpt>
    <trkpt lat="47.55064" lon="12.64732"><ele>1934</ele><time>2022-03-20T08:06:42Z</time></trkpt>
    <trkpt lat="47.55053" lon="12.64714"><ele>1939</ele><time>2022-03-20T08:07:24Z</time></trkpt>
    <trkpt lat="47.55040" lon="12.64694"><ele>1947</ele><time>2022-03-20T08:08:01Z</time></trkpt>
    <trkpt lat="47.55033" lon="12.64667"><ele>1928</ele><time>2022-03-20T08:08:37Z</time></trkpt>
    <trkpt lat="47.55030" lon="12.64653"><ele>1949</ele><time>2022-03-20T08:08:55Z</time></trkpt>
    <trkpt lat="47.55031" lon="12.64622"><ele>1949</ele><time>2022-03-20T08:09:39Z</time></trkpt>
    <trkpt lat="47.55025" lon="12.64605"><ele>1949</ele><time>2022-03-20T08:09:58Z</time></trkpt>
    <trkpt lat="47.55030" lon="12.64567"><ele>1950</ele><time>2022-03-20T08:17:04Z</time></trkpt>
    <trkpt lat="47.55042" lon="12.64543"><ele>1948</ele><time>2022-03-20T08:17:22Z</time></trkpt>
    <trkpt lat="47.55053" lon="12.64469"><ele>1938</ele><time>2022-03-20T08:17:40Z</time></trkpt>
    <trkpt lat="47.55060" lon="12.64445"><ele>1932</ele><time>2022-03-20T08:17:59Z</time></trkpt>
    <trkpt lat="47.55057" lon="12.64420"><ele>1940</ele><time>2022-03-20T08:18:41Z</time></trkpt>
    <trkpt lat="47.55044" lon="12.64402"><ele>1940</ele><time>2022-03-20T08:19:18Z</time></trkpt>
    <trkpt lat="47.55036" lon="12.64394"><ele>1940</ele><time>2022-03-20T08:19:37Z</time></trkpt>
    <trkpt lat="47.55031" lon="12.64381"><ele>1942</ele><time>2022-03-20T08:19:55Z</time></trkpt>
    <trkpt lat="47.55020" lon="12.64370"><ele>1939</ele><time>2022-03-20T08:20:14Z</time></trkpt>
    <trkpt lat="47.55004" lon="12.64348"><ele>1939</ele><time>2022-03-20T08:20:33Z</time></trkpt>
    <trkpt lat="47.54973" lon="12.64318"><ele>1930</ele><time>2022-03-20T08:20:51Z</time></trkpt>
    <trkpt lat="47.54953" lon="12.64303"><ele>1928</ele><time>2022-03-20T08:21:10Z</time></trkpt>
    <trkpt lat="47.54942" lon="12.64285"><ele>1926</ele><time>2022-03-20T08:21:29Z</time></trkpt>
    <trkpt lat="47.54932" lon="12.64268"><ele>1928</ele><time>2022-03-20T08:21:47Z</time></trkpt>
    <trkpt lat="47.54921" lon="12.64250"><ele>1928</ele><time>2022-03-20T08:22:05Z</time></trkpt>
    <trkpt lat="47.54911" lon="12.64230"><ele>1930</ele><time>2022-03-20T08:22:24Z</time></trkpt>
    <trkpt lat="47.54903" lon="12.64210"><ele>1926</ele><time>2022-03-20T08:22:42Z</time></trkpt>
    <trkpt lat="47.54893" lon="12.64192"><ele>1924</ele><time>2022-03-20T08:23:01Z</time></trkpt>
    <trkpt lat="47.54883" lon="12.64172"><ele>1923</ele><time>2022-03-20T08:23:19Z</time></trkpt>
    <trkpt lat="47.54881" lon="12.64150"><ele>1916</ele><time>2022-03-20T08:23:38Z</time></trkpt>
    <trkpt lat="47.54876" lon="12.64125"><ele>1922</ele><time>2022-03-20T08:23:57Z</time></trkpt>
    <trkpt lat="47.54871" lon="12.64102"><ele>1916</ele><time>2022-03-20T08:24:16Z</time></trkpt>
    <trkpt lat="47.54867" lon="12.64082"><ele>1921</ele><time>2022-03-20T08:24:34Z</time></trkpt>
    <trkpt lat="47.54865" lon="12.64062"><ele>1924</ele><time>2022-03-20T08:24:53Z</time></trkpt>
    <trkpt lat="47.54866" lon="12.64047"><ele>1928</ele><time>2022-03-20T08:25:11Z</time></trkpt>
    <trkpt lat="47.54859" lon="12.64034"><ele>1933</ele><time>2022-03-20T08:25:30Z</time></trkpt>
    <trkpt lat="47.54853" lon="12.64011"><ele>1935</ele><time>2022-03-20T08:26:16Z</time></trkpt>
    <trkpt lat="47.54850" lon="12.63987"><ele>1932</ele><time>2022-03-20T08:26:54Z</time></trkpt>
    <trkpt lat="47.54846" lon="12.63963"><ele>1934</ele><time>2022-03-20T08:27:33Z</time></trkpt>
    <trkpt lat="47.54854" lon="12.63944"><ele>1951</ele><time>2022-03-20T08:28:37Z</time></trkpt>
    <trkpt lat="47.54849" lon="12.63922"><ele>1970</ele><time>2022-03-20T08:29:51Z</time></trkpt>
    <trkpt lat="47.54862" lon="12.63910"><ele>1974</ele><time>2022-03-20T08:31:19Z</time></trkpt>
    <trkpt lat="47.54846" lon="12.63904"><ele>1987</ele><time>2022-03-20T08:32:19Z</time></trkpt>
    <trkpt lat="47.54829" lon="12.63905"><ele>1991</ele><time>2022-03-20T08:33:13Z</time></trkpt>
    <trkpt lat="47.54814" lon="12.63896"><ele>1992</ele><time>2022-03-20T08:34:08Z</time></trkpt>
    <trkpt lat="47.54812" lon="12.63873"><ele>1988</ele><time>2022-03-20T08:34:52Z</time></trkpt>
    <trkpt lat="47.54819" lon="12.63849"><ele>1995</ele><time>2022-03-20T08:35:32Z</time></trkpt>
    <trkpt lat="47.54816" lon="12.63823"><ele>1996</ele><time>2022-03-20T08:36:12Z</time></trkpt>
    <trkpt lat="47.54820" lon="12.63811"><ele>1995</ele><time>2022-03-20T08:36:30Z</time></trkpt>
    <trkpt lat="47.54816" lon="12.63787"><ele>2006</ele><time>2022-03-20T08:37:12Z</time></trkpt>
    <trkpt lat="47.54819" lon="12.63759"><ele>2002</ele><time>2022-03-20T08:38:39Z</time></trkpt>
    <trkpt lat="47.54822" lon="12.63743"><ele>1996</ele><time>2022-03-20T08:38:58Z</time></trkpt>
    <trkpt lat="47.54827" lon="12.63718"><ele>2008</ele><time>2022-03-20T08:39:45Z</time></trkpt>
    <trkpt lat="47.54838" lon="12.63700"><ele>2014</ele><time>2022-03-20T08:40:24Z</time></trkpt>
    <trkpt lat="47.54856" lon="12.63704"><ele>2019</ele><time>2022-03-20T08:41:02Z</time></trkpt>
    <trkpt lat="47.54869" lon="12.63689"><ele>2025</ele><time>2022-03-20T08:42:15Z</time></trkpt>
    <trkpt lat="47.54877" lon="12.63679"><ele>2026</ele><time>2022-03-20T08:42:34Z</time></trkpt>
    <trkpt lat="47.54884" lon="12.63668"><ele>2034</ele><time>2022-03-20T08:42:53Z</time></trkpt>
    <trkpt lat="47.54896" lon="12.63651"><ele>2046</ele><time>2022-03-20T08:43:45Z</time></trkpt>
    <trkpt lat="47.54905" lon="12.63646"><ele>2041</ele><time>2022-03-20T08:44:04Z</time></trkpt>
    <trkpt lat="47.54909" lon="12.63623"><ele>2048</ele><time>2022-03-20T08:45:07Z</time></trkpt>
    <trkpt lat="47.54912" lon="12.63600"><ele>2069</ele><time>2022-03-20T08:46:12Z</time></trkpt>
    <trkpt lat="47.54922" lon="12.63579"><ele>2077</ele><time>2022-03-20T08:47:16Z</time></trkpt>
    <trkpt lat="47.54930" lon="12.63559"><ele>2078</ele><time>2022-03-20T08:48:00Z</time></trkpt>
    <trkpt lat="47.54933" lon="12.63534"><ele>2084</ele><time>2022-03-20T08:48:47Z</time></trkpt>
    <trkpt lat="47.54929" lon="12.63511"><ele>2096</ele><time>2022-03-20T08:51:32Z</time></trkpt>
    <trkpt lat="47.54923" lon="12.63495"><ele>2104</ele><time>2022-03-20T08:51:50Z</time></trkpt>
    <trkpt lat="47.54912" lon="12.63486"><ele>2115</ele><time>2022-03-20T08:52:08Z</time></trkpt>
    <trkpt lat="47.54905" lon="12.63476"><ele>2114</ele><time>2022-03-20T08:52:26Z</time></trkpt>
    <trkpt lat="47.54900" lon="12.63465"><ele>2108</ele><time>2022-03-20T08:52:44Z</time></trkpt>
    <trkpt lat="47.54884" lon="12.63457"><ele>2125</ele><time>2022-03-20T08:53:49Z</time></trkpt>
    <trkpt lat="47.54875" lon="12.63459"><ele>2128</ele><time>2022-03-20T08:54:08Z</time></trkpt>
    <trkpt lat="47.54866" lon="12.63458"><ele>2135</ele><time>2022-03-20T08:54:26Z</time></trkpt>
    <trkpt lat="47.54846" lon="12.63461"><ele>2137</ele><time>2022-03-20T08:55:15Z</time></trkpt>
    <trkpt lat="47.54834" lon="12.63462"><ele>2135</ele><time>2022-03-20T08:55:33Z</time></trkpt>
    <trkpt lat="47.54825" lon="12.63460"><ele>2134</ele><time>2022-03-20T08:55:51Z</time></trkpt>
    <trkpt lat="47.54815" lon="12.63467"><ele>2139</ele><time>2022-03-20T08:56:09Z</time></trkpt>
    <trkpt lat="47.54811" lon="12.63483"><ele>2143</ele><time>2022-03-20T08:56:28Z</time></trkpt>
    <trkpt lat="47.54812" lon="12.63459"><ele>2138</ele><time>2022-03-20T09:00:46Z</time></trkpt>
    <trkpt lat="47.54804" lon="12.63446"><ele>2151</ele><time>2022-03-20T09:03:55Z</time></trkpt>
    <trkpt lat="47.54807" lon="12.63423"><ele>2139</ele><time>2022-03-20T09:09:41Z</time></trkpt>
    <trkpt lat="47.54810" lon="12.63410"><ele>2132</ele><time>2022-03-20T09:17:03Z</time></trkpt>
    <trkpt lat="47.54810" lon="12.63453"><ele>2141</ele><time>2022-03-20T09:19:51Z</time></trkpt>
    <trkpt lat="47.54803" lon="12.63432"><ele>2100</ele><time>2022-03-20T09:20:45Z</time></trkpt>
    <trkpt lat="47.54805" lon="12.63420"><ele>2127</ele><time>2022-03-20T09:21:06Z</time></trkpt>
    <trkpt lat="47.54796" lon="12.63394"><ele>2134</ele><time>2022-03-20T09:21:44Z</time></trkpt>
    <trkpt lat="47.54803" lon="12.63382"><ele>2124</ele><time>2022-03-20T09:22:52Z</time></trkpt>
    <trkpt lat="47.54798" lon="12.63360"><ele>2116</ele><time>2022-03-20T09:24:26Z</time></trkpt>
    <trkpt lat="47.54799" lon="12.63342"><ele>2140</ele><time>2022-03-20T09:24:44Z</time></trkpt>
    <trkpt lat="47.54804" lon="12.63330"><ele>2146</ele><time>2022-03-20T09:25:03Z</time></trkpt>
    <trkpt lat="47.54808" lon="12.63318"><ele>2153</ele><time>2022-03-20T09:26:19Z</time></trkpt>
    <trkpt lat="47.54802" lon="12.63297"><ele>2178</ele><time>2022-03-20T09:27:35Z</time></trkpt>
    <trkpt lat="47.54795" lon="12.63287"><ele>2201</ele><time>2022-03-20T09:29:14Z</time></trkpt>
    <trkpt lat="47.54803" lon="12.63266"><ele>2202</ele><time>2022-03-20T09:30:01Z</time></trkpt>
    <trkpt lat="47.54815" lon="12.63258"><ele>2199</ele><time>2022-03-20T09:30:20Z</time></trkpt>
    <trkpt lat="47.54804" lon="12.63243"><ele>2189</ele><time>2022-03-20T09:35:37Z</time></trkpt>
    <trkpt lat="47.54811" lon="12.63225"><ele>2206</ele><time>2022-03-20T09:36:58Z</time></trkpt>
    <trkpt lat="47.54810" lon="12.63211"><ele>2223</ele><time>2022-03-20T09:38:36Z</time></trkpt>
    <trkpt lat="47.54830" lon="12.63209"><ele>2208</ele><time>2022-03-20T09:39:45Z</time></trkpt>
    <trkpt lat="47.54847" lon="12.63203"><ele>2239</ele><time>2022-03-20T09:41:11Z</time></trkpt>
    <trkpt lat="47.54838" lon="12.63186"><ele>2184</ele><time>2022-03-20T09:44:18Z</time></trkpt>
    <trkpt lat="47.54851" lon="12.63177"><ele>2278</ele><time>2022-03-20T09:51:54Z</time></trkpt>
    <trkpt lat="47.54850" lon="12.63202"><ele>2261</ele><time>2022-03-20T09:53:15Z</time></trkpt>
    <trkpt lat="47.54831" lon="12.63216"><ele>2247</ele><time>2022-03-20T09:54:32Z</time></trkpt>
    <trkpt lat="47.54823" lon="12.63225"><ele>2241</ele><time>2022-03-20T09:54:56Z</time></trkpt>
    <trkpt lat="47.54820" lon="12.63243"><ele>2240</ele><time>2022-03-20T09:55:14Z</time></trkpt>
    <trkpt lat="47.54814" lon="12.63255"><ele>2218</ele><time>2022-03-20T09:55:41Z</time></trkpt>
    <trkpt lat="47.54819" lon="12.63293"><ele>2048</ele><time>2022-03-20T09:55:59Z</time></trkpt>
    <trkpt lat="47.54838" lon="12.63394"><ele>2161</ele><time>2022-03-20T09:57:07Z</time></trkpt>
    <trkpt lat="47.54840" lon="12.63410"><ele>2147</ele><time>2022-03-20T09:59:14Z</time></trkpt>
    <trkpt lat="47.54883" lon="12.63495"><ele>2015</ele><time>2022-03-20T09:59:32Z</time></trkpt>
    <trkpt lat="47.54912" lon="12.63585"><ele>2087</ele><time>2022-03-20T09:59:51Z</time></trkpt>
    <trkpt lat="47.54915" lon="12.63598"><ele>2090</ele><time>2022-03-20T10:00:43Z</time></trkpt>
    <trkpt lat="47.54872" lon="12.63730"><ele>2058</ele><time>2022-03-20T10:01:01Z</time></trkpt>
    <trkpt lat="47.54836" lon="12.63809"><ele>2031</ele><time>2022-03-20T10:01:19Z</time></trkpt>
    <trkpt lat="47.54832" lon="12.63825"><ele>2036</ele><time>2022-03-20T10:02:23Z</time></trkpt>
    <trkpt lat="47.54828" lon="12.63907"><ele>1695</ele><time>2022-03-20T10:02:41Z</time></trkpt>
    <trkpt lat="47.54838" lon="12.63900"><ele>2000</ele><time>2022-03-20T10:04:46Z</time></trkpt>
    <trkpt lat="47.54878" lon="12.64036"><ele>1961</ele><time>2022-03-20T10:05:05Z</time></trkpt>
    <trkpt lat="47.54906" lon="12.64224"><ele>1943</ele><time>2022-03-20T10:05:24Z</time></trkpt>
    <trkpt lat="47.54917" lon="12.64245"><ele>1763</ele><time>2022-03-20T10:06:11Z</time></trkpt>
    <trkpt lat="47.54936" lon="12.64268"><ele>1913</ele><time>2022-03-20T10:06:30Z</time></trkpt>
    <trkpt lat="47.54955" lon="12.64299"><ele>1923</ele><time>2022-03-20T10:06:49Z</time></trkpt>
    <trkpt lat="47.54971" lon="12.64319"><ele>1927</ele><time>2022-03-20T10:07:27Z</time></trkpt>
    <trkpt lat="47.54979" lon="12.64327"><ele>1928</ele><time>2022-03-20T10:07:45Z</time></trkpt>
    <trkpt lat="47.54988" lon="12.64336"><ele>1929</ele><time>2022-03-20T10:08:04Z</time></trkpt>
    <trkpt lat="47.55003" lon="12.64343"><ele>1936</ele><time>2022-03-20T10:09:49Z</time></trkpt>
    <trkpt lat="47.55014" lon="12.64360"><ele>1941</ele><time>2022-03-20T10:10:58Z</time></trkpt>
    <trkpt lat="47.55018" lon="12.64373"><ele>1941</ele><time>2022-03-20T10:11:17Z</time></trkpt>
    <trkpt lat="47.55034" lon="12.64387"><ele>1939</ele><time>2022-03-20T10:11:36Z</time></trkpt>
    <trkpt lat="47.55084" lon="12.64442"><ele>1935</ele><time>2022-03-20T10:11:55Z</time></trkpt>
    <trkpt lat="47.55117" lon="12.64537"><ele>1928</ele><time>2022-03-20T10:12:14Z</time></trkpt>
    <trkpt lat="47.55147" lon="12.64622"><ele>1920</ele><time>2022-03-20T10:12:33Z</time></trkpt>
    <trkpt lat="47.55148" lon="12.64642"><ele>1922</ele><time>2022-03-20T10:12:51Z</time></trkpt>
    <trkpt lat="47.55192" lon="12.64730"><ele>1891</ele><time>2022-03-20T10:15:09Z</time></trkpt>
    <trkpt lat="47.55224" lon="12.64859"><ele>1849</ele><time>2022-03-20T10:15:27Z</time></trkpt>
    <trkpt lat="47.55236" lon="12.64859"><ele>1838</ele><time>2022-03-20T10:16:32Z</time></trkpt>
    <trkpt lat="47.55298" lon="12.64957"><ele>1813</ele><time>2022-03-20T10:16:51Z</time></trkpt>
    <trkpt lat="47.55323" lon="12.65006"><ele>1757</ele><time>2022-03-20T10:17:09Z</time></trkpt>
    <trkpt lat="47.55332" lon="12.65004"><ele>1788</ele><time>2022-03-20T10:17:50Z</time></trkpt>
    <trkpt lat="47.55389" lon="12.65028"><ele>1687</ele><time>2022-03-20T10:18:08Z</time></trkpt>
    <trkpt lat="47.55421" lon="12.65040"><ele>1745</ele><time>2022-03-20T10:18:27Z</time></trkpt>
    <trkpt lat="47.55442" lon="12.65050"><ele>1544</ele><time>2022-03-20T10:18:46Z</time></trkpt>
    <trkpt lat="47.55448" lon="12.65061"><ele>1553</ele><time>2022-03-20T10:19:56Z</time></trkpt>
    <trkpt lat="47.55482" lon="12.65123"><ele>1581</ele><time>2022-03-20T10:20:14Z</time></trkpt>
    <trkpt lat="47.55519" lon="12.65175"><ele>1629</ele><time>2022-03-20T10:20:32Z</time></trkpt>
    <trkpt lat="47.55529" lon="12.65181"><ele>1559</ele><time>2022-03-20T10:21:32Z</time></trkpt>
    <trkpt lat="47.55585" lon="12.65240"><ele>1576</ele><time>2022-03-20T10:21:50Z</time></trkpt>
    <trkpt lat="47.55609" lon="12.65247"><ele>1565</ele><time>2022-03-20T10:22:08Z</time></trkpt>
    <trkpt lat="47.55656" lon="12.65218"><ele>1599</ele><time>2022-03-20T10:22:45Z</time></trkpt>
    <trkpt lat="47.55688" lon="12.65235"><ele>1160</ele><time>2022-03-20T10:23:04Z</time></trkpt>
    <trkpt lat="47.55747" lon="12.65290"><ele>1416</ele><time>2022-03-20T10:23:22Z</time></trkpt>
    <trkpt lat="47.55794" lon="12.65369"><ele>1497</ele><time>2022-03-20T10:23:40Z</time></trkpt>
    <trkpt lat="47.55840" lon="12.65458"><ele>1489</ele><time>2022-03-20T10:23:59Z</time></trkpt>
    <trkpt lat="47.55843" lon="12.65473"><ele>1495</ele><time>2022-03-20T10:25:11Z</time></trkpt>
    <trkpt lat="47.55864" lon="12.65546"><ele>1463</ele><time>2022-03-20T10:25:29Z</time></trkpt>
    <trkpt lat="47.55865" lon="12.65565"><ele>1460</ele><time>2022-03-20T10:25:48Z</time></trkpt>
    <trkpt lat="47.55849" lon="12.65590"><ele>1452</ele><time>2022-03-20T10:26:07Z</time></trkpt>
    <trkpt lat="47.55847" lon="12.65650"><ele>1434</ele><time>2022-03-20T10:26:25Z</time></trkpt>
    <trkpt lat="47.55882" lon="12.65666"><ele>1426</ele><time>2022-03-20T10:27:52Z</time></trkpt>
    <trkpt lat="47.55872" lon="12.65731"><ele>1398</ele><time>2022-03-20T10:28:11Z</time></trkpt>
    <trkpt lat="47.55873" lon="12.65746"><ele>1372</ele><time>2022-03-20T10:28:30Z</time></trkpt>
    <trkpt lat="47.55870" lon="12.65758"><ele>1362</ele><time>2022-03-20T10:29:06Z</time></trkpt>
    <trkpt lat="47.55872" lon="12.65772"><ele>1359</ele><time>2022-03-20T10:29:38Z</time></trkpt>
    <trkpt lat="47.55913" lon="12.65803"><ele>1335</ele><time>2022-03-20T10:29:57Z</time></trkpt>
    <trkpt lat="47.55939" lon="12.65857"><ele>1306</ele><time>2022-03-20T10:30:15Z</time></trkpt>
    <trkpt lat="47.55946" lon="12.65923"><ele>1279</ele><time>2022-03-20T10:30:34Z</time></trkpt>
    <trkpt lat="47.55944" lon="12.65939"><ele>1276</ele><time>2022-03-20T10:30:52Z</time></trkpt>
    <trkpt lat="47.55952" lon="12.65978"><ele>1258</ele><time>2022-03-20T10:31:11Z</time></trkpt>
    <trkpt lat="47.55971" lon="12.65989"><ele>1244</ele><time>2022-03-20T10:31:29Z</time></trkpt>
    <trkpt lat="47.55989" lon="12.66019"><ele>1225</ele><time>2022-03-20T10:31:48Z</time></trkpt>
    <trkpt lat="47.55998" lon="12.66015"><ele>1220</ele><time>2022-03-20T10:32:06Z</time></trkpt>
    <trkpt lat="47.55987" lon="12.66018"><ele>1241</ele><time>2022-03-20T10:36:29Z</time></trkpt>
    <trkpt lat="47.55974" lon="12.66002"><ele>1298</ele><time>2022-03-20T10:37:30Z</time></trkpt>
    <trkpt lat="47.55962" lon="12.65998"><ele>1249</ele><time>2022-03-20T10:39:20Z</time></trkpt>
    <trkpt lat="47.55967" lon="12.66022"><ele>1406</ele><time>2022-03-20T10:41:22Z</time></trkpt>
    <trkpt lat="47.55956" lon="12.66030"><ele>1260</ele><time>2022-03-20T10:42:46Z</time></trkpt>
    <trkpt lat="47.55940" lon="12.66034"><ele>1274</ele><time>2022-03-20T10:44:49Z</time></trkpt>
    <trkpt lat="47.55930" lon="12.66053"><ele>1276</ele><time>2022-03-20T10:46:09Z</time></trkpt>
    <trkpt lat="47.55914" lon="12.66057"><ele>1284</ele><time>2022-03-20T10:48:05Z</time></trkpt>
    <trkpt lat="47.55881" lon="12.66081"><ele>1273</ele><time>2022-03-20T10:50:00Z</time></trkpt>
    <trkpt lat="47.55855" lon="12.66088"><ele>1345</ele><time>2022-03-20T10:50:19Z</time></trkpt>
    <trkpt lat="47.55843" lon="12.66097"><ele>1266</ele><time>2022-03-20T10:50:38Z</time></trkpt>
    <trkpt lat="47.55827" lon="12.66124"><ele>1333</ele><time>2022-03-20T10:51:14Z</time></trkpt>
    <trkpt lat="47.55827" lon="12.66146"><ele>1270</ele><time>2022-03-20T10:51:33Z</time></trkpt>
    <trkpt lat="47.55816" lon="12.66217"><ele>1256</ele><time>2022-03-20T10:52:09Z</time></trkpt>
    <trkpt lat="47.55809" lon="12.66228"><ele>1255</ele><time>2022-03-20T10:52:28Z</time></trkpt>
    <trkpt lat="47.55805" lon="12.66242"><ele>1283</ele><time>2022-03-20T10:52:48Z</time></trkpt>
    <trkpt lat="47.55806" lon="12.66265"><ele>1256</ele><time>2022-03-20T10:53:07Z</time></trkpt>
    <trkpt lat="47.55796" lon="12.66281"><ele>1246</ele><time>2022-03-20T10:54:35Z</time></trkpt>
    <trkpt lat="47.55786" lon="12.66290"><ele>1248</ele><time>2022-03-20T10:55:05Z</time></trkpt>
    <trkpt lat="47.55782" lon="12.66316"><ele>1245</ele><time>2022-03-20T10:55:24Z</time></trkpt>
    <trkpt lat="47.55771" lon="12.66341"><ele>1240</ele><time>2022-03-20T10:56:13Z</time></trkpt>
    <trkpt lat="47.55794" lon="12.66334"><ele>1227</ele><time>2022-03-20T10:57:12Z</time></trkpt>
    <trkpt lat="47.55788" lon="12.66382"><ele>1332</ele><time>2022-03-20T10:57:50Z</time></trkpt>
    <trkpt lat="47.55792" lon="12.66406"><ele>1229</ele><time>2022-03-20T10:58:09Z</time></trkpt>
    <trkpt lat="47.55813" lon="12.66430"><ele>1202</ele><time>2022-03-20T10:58:56Z</time></trkpt>
    <trkpt lat="47.55806" lon="12.66447"><ele>1199</ele><time>2022-03-20T10:59:14Z</time></trkpt>
    <trkpt lat="47.55785" lon="12.66500"><ele>1190</ele><time>2022-03-20T10:59:33Z</time></trkpt>
    <trkpt lat="47.55789" lon="12.66552"><ele>1180</ele><time>2022-03-20T10:59:51Z</time></trkpt>
    <trkpt lat="47.55797" lon="12.66557"><ele>1186</ele><time>2022-03-20T11:00:33Z</time></trkpt>
    <trkpt lat="47.55816" lon="12.66568"><ele>1246</ele><time>2022-03-20T11:00:51Z</time></trkpt>
    <trkpt lat="47.55827" lon="12.66614"><ele>1157</ele><time>2022-03-20T11:01:10Z</time></trkpt>
    <trkpt lat="47.55837" lon="12.66713"><ele>1147</ele><time>2022-03-20T11:01:28Z</time></trkpt>
    <trkpt lat="47.55849" lon="12.66743"><ele>1139</ele><time>2022-03-20T11:01:46Z</time></trkpt>
    <trkpt lat="47.55856" lon="12.66777"><ele>1132</ele><time>2022-03-20T11:02:04Z</time></trkpt>
    <trkpt lat="47.55864" lon="12.66786"><ele>1131</ele><time>2022-03-20T11:02:23Z</time></trkpt>
    <trkpt lat="47.55872" lon="12.66805"><ele>1131</ele><time>2022-03-20T11:02:41Z</time></trkpt>
    <trkpt lat="47.55887" lon="12.66836"><ele>1115</ele><time>2022-03-20T11:03:26Z</time></trkpt>
    <trkpt lat="47.55912" lon="12.66883"><ele>1104</ele><time>2022-03-20T11:03:44Z</time></trkpt>
    <trkpt lat="47.55928" lon="12.66912"><ele>1092</ele><time>2022-03-20T11:04:02Z</time></trkpt>
    <trkpt lat="47.55936" lon="12.66894"><ele>1079</ele><time>2022-03-20T11:05:54Z</time></trkpt>
    <trkpt lat="47.55946" lon="12.66878"><ele>1055</ele><time>2022-03-20T11:06:49Z</time></trkpt>
    <trkpt lat="47.55955" lon="12.66879"><ele>1107</ele><time>2022-03-20T11:07:08Z</time></trkpt>
    <trkpt lat="47.55963" lon="12.66895"><ele>1057</ele><time>2022-03-20T11:07:27Z</time></trkpt>
    <trkpt lat="47.55970" lon="12.66917"><ele>1018</ele><time>2022-03-20T11:09:12Z</time></trkpt>
    <trkpt lat="47.55973" lon="12.66902"><ele>1035</ele><time>2022-03-20T11:10:51Z</time></trkpt>
    <trkpt lat="47.55980" lon="12.66886"><ele>1035</ele><time>2022-03-20T11:11:09Z</time></trkpt>
    <trkpt lat="47.55987" lon="12.66920"><ele>1025</ele><time>2022-03-20T11:11:54Z</time></trkpt>
    <trkpt lat="47.55993" lon="12.66937"><ele>1037</ele><time>2022-03-20T11:13:15Z</time></trkpt>
    <trkpt lat="47.55995" lon="12.66955"><ele>1031</ele><time>2022-03-20T11:13:33Z</time></trkpt>
    <trkpt lat="47.56007" lon="12.66940"><ele>1025</ele><time>2022-03-20T11:13:52Z</time></trkpt>
    <trkpt lat="47.56013" lon="12.66955"><ele>1021</ele><time>2022-03-20T11:14:10Z</time></trkpt>
    <trkpt lat="47.56020" lon="12.66968"><ele>1021</ele><time>2022-03-20T11:14:28Z</time></trkpt>
    <trkpt lat="47.56025" lon="12.66991"><ele>1011</ele><time>2022-03-20T11:14:47Z</time></trkpt>
    <trkpt lat="47.56047" lon="12.66987"><ele>972</ele><time>2022-03-20T11:15:05Z</time></trkpt>
    <trkpt lat="47.56057" lon="12.66995"><ele>1012</ele><time>2022-03-20T11:15:24Z</time></trkpt>
    <trkpt lat="47.56067" lon="12.67005"><ele>998</ele><time>2022-03-20T11:15:43Z</time></trkpt>
    <trkpt lat="47.56076" lon="12.67003"><ele>995</ele><time>2022-03-20T11:16:01Z</time></trkpt>
    <trkpt lat="47.56102" lon="12.66998"><ele>912</ele><time>2022-03-20T11:16:38Z</time></trkpt>
    <trkpt lat="47.56097" lon="12.66980"><ele>962</ele><time>2022-03-20T11:16:56Z</time></trkpt>
    <trkpt lat="47.56095" lon="12.66951"><ele>1557</ele><time>2022-03-20T11:17:15Z</time></trkpt>
    <trkpt lat="47.56127" lon="12.66951"><ele>1071</ele><time>2022-03-20T11:17:34Z</time></trkpt>
    <trkpt lat="47.56116" lon="12.66896"><ele>945</ele><time>2022-03-20T11:18:13Z</time></trkpt>
    <trkpt lat="47.56121" lon="12.66865"><ele>892</ele><time>2022-03-20T11:18:31Z</time></trkpt>
    <trkpt lat="47.56123" lon="12.66830"><ele>921</ele><time>2022-03-20T11:18:50Z</time></trkpt>
    <trkpt lat="47.56147" lon="12.66827"><ele>909</ele><time>2022-03-20T11:19:09Z</time></trkpt>
    <trkpt lat="47.56185" lon="12.66844"><ele>842</ele><time>2022-03-20T11:19:27Z</time></trkpt>
    <trkpt lat="47.56235" lon="12.66891"><ele>879</ele><time>2022-03-20T11:19:46Z</time></trkpt>
    <trkpt lat="47.56283" lon="12.66912"><ele>874</ele><time>2022-03-20T11:20:04Z</time></trkpt>
    <trkpt lat="47.56325" lon="12.66944"><ele>869</ele><time>2022-03-20T11:20:22Z</time></trkpt>
    <trkpt lat="47.56365" lon="12.66965"><ele>850</ele><time>2022-03-20T11:20:41Z</time></trkpt>
    <trkpt lat="47.56383" lon="12.67043"><ele>837</ele><time>2022-03-20T11:20:59Z</time></trkpt>
    <trkpt lat="47.56405" lon="12.67075"><ele>829</ele><time>2022-03-20T11:21:17Z</time></trkpt>
    <trkpt lat="47.56399" lon="12.67065"><ele>824</ele><time>2022-03-20T11:21:36Z</time></trkpt>
    <trkpt lat="47.56407" lon="12.67074"><ele>813</ele><time>2022-03-20T11:21:54Z</time></trkpt>
    <trkpt lat="47.56410" lon="12.67163"><ele>805</ele><time>2022-03-20T11:22:13Z</time></trkpt>
    <trkpt lat="47.56379" lon="12.67254"><ele>795</ele><time>2022-03-20T11:22:32Z</time></trkpt>
    <trkpt lat="47.56406" lon="12.67369"><ele>784</ele><time>2022-03-20T11:22:50Z</time></trkpt>
    <trkpt lat="47.56442" lon="12.67490"><ele>775</ele><time>2022-03-20T11:23:08Z</time></trkpt>
    <trkpt lat="47.56459" lon="12.67558"><ele>764</ele><time>2022-03-20T11:23:26Z</time></trkpt>
    <trkpt lat="47.56472" lon="12.67588"><ele>768</ele><time>2022-03-20T11:23:44Z</time></trkpt>
    <trkpt lat="47.56502" lon="12.67619"><ele>762</ele><time>2022-03-20T11:24:02Z</time></trkpt>
    <trkpt lat="47.56539" lon="12.67639"><ele>754</ele><time>2022-03-20T11:24:21Z</time></trkpt>
    <trkpt lat="47.56601" lon="12.67718"><ele>746</ele><time>2022-03-20T11:24:39Z</time></trkpt>
    <trkpt lat="47.56725" lon="12.67832"><ele>729</ele><time>2022-03-20T11:24:58Z</time></trkpt>
    <trkpt lat="47.56804" lon="12.67880"><ele>720</ele><time>2022-03-20T11:25:17Z</time></trkpt>
    <trkpt lat="47.56849" lon="12.67915"><ele>711</ele><time>2022-03-20T11:25:35Z</time></trkpt>
    <trkpt lat="47.56908" lon="12.67950"><ele>702</ele><time>2022-03-20T11:25:54Z</time></trkpt>
    <trkpt lat="47.56958" lon="12.67964"><ele>699</ele><time>2022-03-20T11:26:12Z</time></trkpt>
    <trkpt lat="47.57000" lon="12.67969"><ele>691</ele><time>2022-03-20T11:26:31Z</time></trkpt>
    <trkpt lat="47.57027" lon="12.67965"><ele>695</ele><time>2022-03-20T11:26:50Z</time></trkpt>
    <trkpt lat="47.57034" lon="12.67924"><ele>694</ele><time>2022-03-20T11:27:09Z</time></trkpt>
    <trkpt lat="47.57037" lon="12.67908"><ele>702</ele><time>2022-03-20T11:27:27Z</time></trkpt>
    <trkpt lat="47.57069" lon="12.67901"><ele>705</ele><time>2022-03-20T11:27:46Z</time></trkpt>
    <trkpt lat="47.57094" lon="12.67912"><ele>706</ele><time>2022-03-20T11:28:05Z</time></trkpt>
    <trkpt lat="47.57109" lon="12.67890"><ele>705</ele><time>2022-03-20T11:28:23Z</time></trkpt>
    <trkpt lat="47.57136" lon="12.67884"><ele>695</ele><time>2022-03-20T11:28:41Z</time></trkpt>
    <trkpt lat="47.57157" lon="12.67877"><ele>694</ele><time>2022-03-20T11:28:59Z</time></trkpt>
    <trkpt lat="47.57186" lon="12.67860"><ele>694</ele><time>2022-03-20T11:29:18Z</time></trkpt>
    <trkpt lat="47.57199" lon="12.67861"><ele>695</ele><time>2022-03-20T11:29:37Z</time></trkpt>
  </trkseg>
</trk>
</gpx>