<?xml version="1.0" encoding="UTF-8"?>
<gpx version="1.1" creator="GPX-Pro" xmlns="http://www.topografix.com/GPX/1/1">
<trk>
  <name>Ski_Alpgartenrinne</name>
  <trkseg>
    <trkpt lat="47.71558" lon="12.89825"><ele>547</ele><time>2022-04-03T07:56:03Z</time></trkpt>
    <trkpt lat="47.71573" lon="12.89834"><ele>561</ele><time>2022-04-03T07:56:14Z</time></trkpt>
    <trkpt lat="47.71554" lon="12.89819"><ele>575</ele><time>2022-04-03T07:57:04Z</time></trkpt>
    <trkpt lat="47.71538" lon="12.89812"><ele>575</ele><time>2022-04-03T07:57:23Z</time></trkpt>
    <trkpt lat="47.71522" lon="12.89801"><ele>575</ele><time>2022-04-03T07:57:42Z</time></trkpt>
    <trkpt lat="47.71507" lon="12.89794"><ele>577</ele><time>2022-04-03T07:58:00Z</time></trkpt>
    <trkpt lat="47.71491" lon="12.89789"><ele>585</ele><time>2022-04-03T07:58:19Z</time></trkpt>
    <trkpt lat="47.71480" lon="12.89781"><ele>588</ele><time>2022-04-03T07:58:38Z</time></trkpt>
    <trkpt lat="47.71468" lon="12.89767"><ele>590</ele><time>2022-04-03T07:58:56Z</time></trkpt>
    <trkpt lat="47.71455" lon="12.89752"><ele>593</ele><time>2022-04-03T07:59:14Z</time></trkpt>
    <trkpt lat="47.71445" lon="12.89729"><ele>593</ele><time>2022-04-03T07:59:32Z</time></trkpt>
    <trkpt lat="47.71436" lon="12.89707"><ele>594</ele><time>2022-04-03T07:59:51Z</time></trkpt>
    <trkpt lat="47.71423" lon="12.89663"><ele>600</ele><time>2022-04-03T08:00:52Z</time></trkpt>
    <trkpt lat="47.71404" lon="12.89644"><ele>600</ele><time>2022-04-03T08:01:11Z</time></trkpt>
    <trkpt lat="47.71382" lon="12.89635"><ele>599</ele><time>2022-04-03T08:01:30Z</time></trkpt>
    <trkpt lat="47.71366" lon="12.89633"><ele>606</ele><time>2022-04-03T08:01:49Z</time></trkpt>
    <trkpt lat="47.71347" lon="12.89633"><ele>582</ele><time>2022-04-03T08:02:07Z</time></trkpt>
    <trkpt lat="47.71328" lon="12.89628"><ele>610</ele><time>2022-04-03T08:02:26Z</time></trkpt>
    <trkpt lat="47.71310" lon="12.89614"><ele>582</ele><time>2022-04-03T08:02:45Z</time></trkpt>
    <trkpt lat="47.71298" lon="12.89593"><ele>597</ele><time>2022-04-03T08:03:03Z</time></trkpt>
    <trkpt lat="47.71287" lon="12.89575"><ele>588</ele><time>2022-04-03T08:03:58Z</time></trkpt>
    <trkpt lat="47.71276" lon="12.89558"><ele>613</ele><time>2022-04-03T08:04:16Z</time></trkpt>
    <trkpt lat="47.71264" lon="12.89546"><ele>615</ele><time>2022-04-03T08:04:34Z</time></trkpt>
    <trkpt lat="47.71249" lon="12.89535"><ele>618</ele><time>2022-04-03T08:04:53Z</time></trkpt>
    <trkpt lat="47.71236" lon="12.89533"><ele>617</ele><time>2022-04-03T08:05:11Z</time></trkpt>
    <trkpt lat="47.71229" lon="12.89542"><ele>624</ele><time>2022-04-03T08:05:29Z</time></trkpt>
    <trkpt lat="47.71218" lon="12.89558"><ele>627</ele><time>2022-04-03T08:05:48Z</time></trkpt>
    <trkpt lat="47.71205" lon="12.89564"><ele>627</ele><time>2022-04-03T08:06:07Z</time></trkpt>
    <trkpt lat="47.71188" lon="12.89567"><ele>632</ele><time>2022-04-03T08:06:26Z</time></trkpt>
    <trkpt lat="47.71172" lon="12.89572"><ele>635</ele><time>2022-04-03T08:06:44Z</time></trkpt>
    <trkpt lat="47.71160" lon="12.89578"><ele>635</ele><time>2022-04-03T08:07:03Z</time></trkpt>
    <trkpt lat="47.71148" lon="12.89587"><ele>638</ele><time>2022-04-03T08:07:21Z</time></trkpt>
    <trkpt lat="47.71142" lon="12.89598"><ele>643</ele><time>2022-04-03T08:07:39Z</time></trkpt>
    <trkpt lat="47.71161" lon="12.89608"><ele>651</ele><time>2022-04-03T08:08:37Z</time></trkpt>
    <trkpt lat="47.71172" lon="12.89607"><ele>658</ele><time>2022-04-03T08:08:55Z</time></trkpt>
    <trkpt lat="47.71183" lon="12.89623"><ele>662</ele><time>2022-04-03T08:09:13Z</time></trkpt>
    <trkpt lat="47.71190" lon="12.89635"><ele>661</ele><time>2022-04-03T08:09:32Z</time></trkpt>
    <trkpt lat="47.71175" lon="12.89639"><ele>661</ele><time>2022-04-03T08:09:51Z</time></trkpt>
    <trkpt lat="47.71162" lon="12.89644"><ele>662</ele><time>2022-04-03T08:10:10Z</time></trkpt>
    <trkpt lat="47.71151" lon="12.89650"><ele>664</ele><time>2022-04-03T08:10:29Z</time></trkpt>
    <trkpt lat="47.71142" lon="12.89658"><ele>662</ele><time>2022-04-03T08:10:47Z</time></trkpt>
    <trkpt lat="47.71128" lon="12.89678"><ele>672</ele><time>2022-04-03T08:11:30Z</time></trkpt>
    <trkpt lat="47.71135" lon="12.89703"><ele>678</ele><time>2022-04-03T08:12:08Z</time></trkpt>
    <trkpt lat="47.71144" lon="12.89708"><ele>684</ele><time>2022-04-03T08:12:27Z</time></trkpt>
    <trkpt lat="47.71151" lon="12.89716"><ele>680</ele><time>2022-04-03T08:12:45Z</time></trkpt>
    <trkpt lat="47.71167" lon="12.89725"><ele>694</ele><time>2022-04-03T08:13:23Z</time></trkpt>
    <trkpt lat="47.71176" lon="12.89729"><ele>699</ele><time>2022-04-03T08:13:42Z</time></trkpt>
    <trkpt lat="47.71164" lon="12.89745"><ele>707</ele><time>2022-04-03T08:14:56Z</time></trkpt>
    <trkpt lat="47.71149" lon="12.89760"><ele>716</ele><time>2022-04-03T08:15:38Z</time></trkpt>
    <trkpt lat="47.71137" lon="12.89776"><ele>723</ele><time>2022-04-03T08:16:20Z</time></trkpt>
    <trkpt lat="47.71132" lon="12.89787"><ele>724</ele><time>2022-04-03T08:16:39Z</time></trkpt>
    <trkpt lat="47.71126" lon="12.89797"><ele>725</ele><time>2022-04-03T08:16:58Z</time></trkpt>
    <trkpt lat="47.71120" lon="12.89809"><ele>731</ele><time>2022-04-03T08:17:17Z</time></trkpt>
    <trkpt lat="47.71114" lon="12.89823"><ele>729</ele><time>2022-04-03T08:17:35Z</time></trkpt>
    <trkpt lat="47.71103" lon="12.89839"><ele>725</ele><time>2022-04-03T08:17:54Z</time></trkpt>
    <trkpt lat="47.71093" lon="12.89858"><ele>734</ele><time>2022-04-03T08:18:12Z</time></trkpt>
    <trkpt lat="47.71086" lon="12.89873"><ele>731</ele><time>2022-04-03T08:18:31Z</time></trkpt>
    <trkpt lat="47.71072" lon="12.89887"><ele>729</ele><time>2022-04-03T08:18:49Z</time></trkpt>
    <trkpt lat="47.71059" lon="12.89902"><ele>734</ele><time>2022-04-03T08:19:08Z</time></trkpt>
    <trkpt lat="47.71052" lon="12.89919"><ele>736</ele><time>2022-04-03T08:19:26Z</time></trkpt>
    <trkpt lat="47.71042" lon="12.89935"><ele>739</ele><time>2022-04-03T08:19:44Z</time></trkpt>
    <trkpt lat="47.71035" lon="12.89951"><ele>736</ele><time>2022-04-03T08:20:03Z</time></trkpt>
    <trkpt lat="47.71025" lon="12.89959"><ele>739</ele><time>2022-04-03T08:20:21Z</time></trkpt>
    <trkpt lat="47.71031" lon="12.89974"><ele>747</ele><time>2022-04-03T08:22:05Z</time></trkpt>
    <trkpt lat="47.71042" lon="12.89990"><ele>741</ele><time>2022-04-03T08:22:52Z</time></trkpt>
    <trkpt lat="47.71037" lon="12.90014"><ele>770</ele><time>2022-04-03T08:23:40Z</time></trkpt>
    <trkpt lat="47.71052" lon="12.90019"><ele>776</ele><time>2022-04-03T08:25:12Z</time></trkpt>
    <trkpt lat="47.71051" lon="12.90044"><ele>783</ele><time>2022-04-03T08:25:49Z</time></trkpt>
    <trkpt lat="47.71043" lon="12.90055"><ele>785</ele><time>2022-04-03T08:26:07Z</time></trkpt>
    <trkpt lat="47.71036" lon="12.90080"><ele>793</ele><time>2022-04-03T08:26:44Z</time></trkpt>
    <trkpt lat="47.71040" lon="12.90103"><ele>798</ele><time>2022-04-03T08:27:39Z</time></trkpt>
    <trkpt lat="47.71047" lon="12.90126"><ele>812</ele><time>2022-04-03T08:28:49Z</time></trkpt>
    <trkpt lat="47.71049" lon="12.90152"><ele>824</ele><time>2022-04-03T08:29:42Z</time></trkpt>
    <trkpt lat="47.71047" lon="12.90176"><ele>816</ele><time>2022-04-03T08:30:21Z</time></trkpt>
    <trkpt lat="47.71037" lon="12.90197"><ele>833</ele><time>2022-04-03T08:31:46Z</time></trkpt>
    <trkpt lat="47.71030" lon="12.90205"><ele>836</ele><time>2022-04-03T08:32:04Z</time></trkpt>
    <trkpt lat="47.71015" lon="12.90219"><ele>851</ele><time>2022-04-03T08:33:07Z</time></trkpt>
    <trkpt lat="47.71010" lon="12.90237"><ele>862</ele><time>2022-04-03T08:34:28Z</time></trkpt>
    <trkpt lat="47.71011" lon="12.90215"><ele>847</ele><time>2022-04-03T08:37:54Z</time></trkpt>
    <trkpt lat="47.71021" lon="12.90202"><ele>844</ele><time>2022-04-03T08:38:13Z</time></trkpt>
    <trkpt lat="47.71036" lon="12.90179"><ele>830</ele><time>2022-04-03T08:39:03Z</time></trkpt>
    <trkpt lat="47.71041" lon="12.90161"><ele>830</ele><time>2022-04-03T08:39:22Z</time></trkpt>
    <trkpt lat="47.71040" lon="12.90147"><ele>823</ele><time>2022-04-03T08:39:41Z</time></trkpt>
    <trkpt lat="47.71040" lon="12.90127"><ele>818</ele><time>2022-04-03T08:40:00Z</time></trkpt>
    <trkpt lat="47.71034" lon="12.90112"><ele>807</ele><time>2022-04-03T08:40:40Z</time></trkpt>
    <trkpt lat="47.71028" lon="12.90091"><ele>806</ele><time>2022-04-03T08:40:59Z</time></trkpt>
    <trkpt lat="47.71027" lon="12.90073"><ele>798</ele><time>2022-04-03T08:41:17Z</time></trkpt>
    <trkpt lat="47.71035" lon="12.90058"><ele>790</ele><time>2022-04-03T08:41:36Z</time></trkpt>
    <trkpt lat="47.71038" lon="12.90043"><ele>790</ele><time>2022-04-03T08:41:54Z</time></trkpt>
    <trkpt lat="47.71047" lon="12.90027"><ele>788</ele><time>2022-04-03T08:42:13Z</time></trkpt>
    <trkpt lat="47.71033" lon="12.90026"><ele>796</ele><time>2022-04-03T08:42:50Z</time></trkpt>
    <trkpt lat="47.71025" lon="12.89997"><ele>765</ele><time>2022-04-03T08:43:29Z</time></trkpt>
    <trkpt lat="47.71028" lon="12.89977"><ele>757</ele><time>2022-04-03T08:43:48Z</time></trkpt>
    <trkpt lat="47.71028" lon="12.89943"><ele>744</ele><time>2022-04-03T08:44:33Z</time></trkpt>
    <trkpt lat="47.71043" lon="12.89926"><ele>739</ele><time>2022-04-03T08:44:52Z</time></trkpt>
    <trkpt lat="47.71055" lon="12.89900"><ele>734</ele><time>2022-04-03T08:45:10Z</time></trkpt>
    <trkpt lat="47.71069" lon="12.89883"><ele>734</ele><time>2022-04-03T08:45:29Z</time></trkpt>
    <trkpt lat="47.71088" lon="12.89870"><ele>733</ele><time>2022-04-03T08:45:47Z</time></trkpt>
    <trkpt lat="47.71094" lon="12.89845"><ele>733</ele><time>2022-04-03T08:46:05Z</time></trkpt>
    <trkpt lat="47.71108" lon="12.89817"><ele>738</ele><time>2022-04-03T08:46:24Z</time></trkpt>
    <trkpt lat="47.71120" lon="12.89800"><ele>735</ele><time>2022-04-03T08:46:42Z</time></trkpt>
    <trkpt lat="47.71129" lon="12.89772"><ele>734</ele><time>2022-04-03T08:47:00Z</time></trkpt>
    <trkpt lat="47.71136" lon="12.89760"><ele>726</ele><time>2022-04-03T08:47:18Z</time></trkpt>
    <trkpt lat="47.71144" lon="12.89749"><ele>720</ele><time>2022-04-03T08:47:36Z</time></trkpt>
    <trkpt lat="47.71155" lon="12.89740"><ele>712</ele><time>2022-04-03T08:47:54Z</time></trkpt>
    <trkpt lat="47.71167" lon="12.89730"><ele>709</ele><time>2022-04-03T08:48:13Z</time></trkpt>
    <trkpt lat="47.71163" lon="12.89716"><ele>676</ele><time>2022-04-03T08:48:51Z</time></trkpt>
    <trkpt lat="47.71151" lon="12.89710"><ele>693</ele><time>2022-04-03T08:49:09Z</time></trkpt>
    <trkpt lat="47.71139" lon="12.89702"><ele>693</ele><time>2022-04-03T08:49:28Z</time></trkpt>
    <trkpt lat="47.71127" lon="12.89690"><ele>687</ele><time>2022-04-03T08:49:46Z</time></trkpt>
    <trkpt lat="47.71124" lon="12.89672"><ele>683</ele><time>2022-04-03T08:50:05Z</time></trkpt>
    <trkpt lat="47.71136" lon="12.89657"><ele>675</ele><time>2022-04-03T08:50:24Z</time></trkpt>
    <trkpt lat="47.71153" lon="12.89637"><ele>672</ele><time>2022-04-03T08:50:43Z</time></trkpt>
    <trkpt lat="47.71171" lon="12.89630"><ele>671</ele><time>2022-04-03T08:51:01Z</time></trkpt>
    <trkpt lat="47.71182" lon="12.89625"><ele>663</ele><time>2022-04-03T08:51:20Z</time></trkpt>
    <trkpt lat="47.71164" lon="12.89617"><ele>656</ele><time>2022-04-03T08:51:39Z</time></trkpt>
    <trkpt lat="47.71145" lon="12.89607"><ele>653</ele><time>2022-04-03T08:51:57Z</time></trkpt>
    <trkpt lat="47.71132" lon="12.89611"><ele>652</ele><time>2022-04-03T08:52:16Z</time></trkpt>
    <trkpt lat="47.71124" lon="12.89628"><ele>657</ele><time>2022-04-03T08:52:35Z</time></trkpt>
    <trkpt lat="47.71109" lon="12.89632"><ele>661</ele><time>2022-04-03T08:52:53Z</time></trkpt>
    <trkpt lat="47.71092" lon="12.89658"><ele>665</ele><time>2022-04-03T08:53:12Z</time></trkpt>
    <trkpt lat="47.71075" lon="12.89682"><ele>655</ele><time>2022-04-03T08:53:31Z</time></trkpt>
    <trkpt lat="47.71060" lon="12.89681"><ele>657</ele><time>2022-04-03T08:53:49Z</time></trkpt>
    <trkpt lat="47.71063" lon="12.89665"><ele>659</ele><time>2022-04-03T08:54:08Z</time></trkpt>
    <trkpt lat="47.71057" lon="12.89649"><ele>658</ele><time>2022-04-03T08:54:27Z</time></trkpt>
    <trkpt lat="47.71061" lon="12.89633"><ele>664</ele><time>2022-04-03T08:54:45Z</time></trkpt>
    <trkpt lat="47.71065" lon="12.89615"><ele>667</ele><time>2022-04-03T08:55:03Z</time></trkpt>
    <trkpt lat="47.71059" lon="12.89602"><ele>669</ele><time>2022-04-03T08:55:22Z</time></trkpt>
    <trkpt lat="47.71048" lon="12.89590"><ele>677</ele><time>2022-04-03T08:56:06Z</time></trkpt>
    <trkpt lat="47.71031" lon="12.89577"><ele>685</ele><time>2022-04-03T08:56:50Z</time></trkpt>
    <trkpt lat="47.71021" lon="12.89572"><ele>684</ele><time>2022-04-03T08:57:09Z</time></trkpt>
    <trkpt lat="47.71009" lon="12.89573"><ele>689</ele><time>2022-04-03T08:57:28Z</time></trkpt>
    <trkpt lat="47.71000" lon="12.89585"><ele>688</ele><time>2022-04-03T08:57:46Z</time></trkpt>
    <trkpt lat="47.70982" lon="12.89585"><ele>691</ele><time>2022-04-03T08:58:04Z</time></trkpt>
    <trkpt lat="47.70966" lon="12.89576"><ele>693</ele><time>2022-04-03T08:58:23Z</time></trkpt>
    <trkpt lat="47.70953" lon="12.89565"><ele>698</ele><time>2022-04-03T08:58:41Z</time></trkpt>
    <trkpt lat="47.70942" lon="12.89546"><ele>694</ele><time>2022-04-03T08:59:00Z</time></trkpt>
    <trkpt lat="47.70931" lon="12.89529"><ele>698</ele><time>2022-04-03T08:59:18Z</time></trkpt>
    <trkpt lat="47.70925" lon="12.89511"><ele>695</ele><time>2022-04-03T08:59:36Z</time></trkpt>
    <trkpt lat="47.70913" lon="12.89503"><ele>698</ele><time>2022-04-03T08:59:54Z</time></trkpt>
    <trkpt lat="47.70904" lon="12.89493"><ele>697</ele><time>2022-04-03T09:00:13Z</time></trkpt>
    <trkpt lat="47.70896" lon="12.89479"><ele>701</ele><time>2022-04-03T09:00:32Z</time></trkpt>
    <trkpt lat="47.70892" lon="12.89464"><ele>708</ele><time>2022-04-03T09:00:50Z</time></trkpt>
    <trkpt lat="47.70877" lon="12.89456"><ele>713</ele><time>2022-04-03T09:01:09Z</time></trkpt>
    <trkpt lat="47.70860" lon="12.89449"><ele>705</ele><time>2022-04-03T09:01:27Z</time></trkpt>
    <trkpt lat="47.70864" lon="12.89429"><ele>707</ele><time>2022-04-03T09:01:46Z</time></trkpt>
    <trkpt lat="47.70862" lon="12.89405"><ele>708</ele><time>2022-04-03T09:02:05Z</time></trkpt>
    <trkpt lat="47.70855" lon="12.89394"><ele>711</ele><time>2022-04-03T09:02:23Z</time></trkpt>
    <trkpt lat="47.70845" lon="12.89389"><ele>711</ele><time>2022-04-03T09:02:42Z</time></trkpt>
    <trkpt lat="47.70839" lon="12.89379"><ele>712</ele><time>2022-04-03T09:03:00Z</time></trkpt>
    <trkpt lat="47.70825" lon="12.89366"><ele>729</ele><time>2022-04-03T09:06:02Z</time></trkpt>
    <trkpt lat="47.70808" lon="12.89365"><ele>726</ele><time>2022-04-03T09:06:20Z</time></trkpt>
    <trkpt lat="47.70808" lon="12.89350"><ele>733</ele><time>2022-04-03T09:06:39Z</time></trkpt>
    <trkpt lat="47.70802" lon="12.89335"><ele>729</ele><time>2022-04-03T09:06:58Z</time></trkpt>
    <trkpt lat="47.70792" lon="12.89329"><ele>726</ele><time>2022-04-03T09:07:17Z</time></trkpt>
    <trkpt lat="47.70775" lon="12.89313"><ele>734</ele><time>2022-04-03T09:09:02Z</time></trkpt>
    <trkpt lat="47.70760" lon="12.89301"><ele>739</ele><time>2022-04-03T09:09:21Z</time></trkpt>
    <trkpt lat="47.70746" lon="12.89292"><ele>738</ele><time>2022-04-03T09:09:40Z</time></trkpt>
    <trkpt lat="47.70733" lon="12.89291"><ele>752</ele><time>2022-04-03T09:09:59Z</time></trkpt>
    <trkpt lat="47.70716" lon="12.89290"><ele>764</ele><time>2022-04-03T09:10:50Z</time></trkpt>
    <trkpt lat="47.70696" lon="12.89291"><ele>776</ele><time>2022-04-03T09:11:30Z</time></trkpt>
    <trkpt lat="47.70683" lon="12.89289"><ele>769</ele><time>2022-04-03T09:11:48Z</time></trkpt>
    <trkpt lat="47.70669" lon="12.89284"><ele>773</ele><time>2022-04-03T09:12:07Z</time></trkpt>
    <trkpt lat="47.70659" lon="12.89287"><ele>773</ele><time>2022-04-03T09:12:25Z</time></trkpt>
    <trkpt lat="47.70649" lon="12.89291"><ele>774</ele><time>2022-04-03T09:12:44Z</time></trkpt>
    <trkpt lat="47.70638" lon="12.89295"><ele>760</ele><time>2022-04-03T09:13:03Z</time></trkpt>
    <trkpt lat="47.70621" lon="12.89298"><ele>786</ele><time>2022-04-03T09:13:39Z</time></trkpt>
    <trkpt lat="47.70608" lon="12.89284"><ele>789</ele><time>2022-04-03T09:13:58Z</time></trkpt>
    <trkpt lat="47.70594" lon="12.89278"><ele>794</ele><time>2022-04-03T09:14:16Z</time></trkpt>
    <trkpt lat="47.70581" lon="12.89274"><ele>798</ele><time>2022-04-03T09:14:35Z</time></trkpt>
    <trkpt lat="47.70570" lon="12.89275"><ele>801</ele><time>2022-04-03T09:14:53Z</time></trkpt>
    <trkpt lat="47.70559" lon="12.89279"><ele>804</ele><time>2022-04-03T09:15:12Z</time></trkpt>
    <trkpt lat="47.70551" lon="12.89288"><ele>803</ele><time>2022-04-03T09:15:30Z</time></trkpt>
    <trkpt lat="47.70540" lon="12.89287"><ele>798</ele><time>2022-04-03T09:15:49Z</time></trkpt>
    <trkpt lat="47.70520" lon="12.89278"><ele>796</ele><time>2022-04-03T09:16:39Z</time></trkpt>
    <trkpt lat="47.70520" lon="12.89263"><ele>797</ele><time>2022-04-03T09:16:57Z</time></trkpt>
    <trkpt lat="47.70503" lon="12.89260"><ele>823</ele><time>2022-04-03T09:19:08Z</time></trkpt>
    <trkpt lat="47.70492" lon="12.89263"><ele>821</ele><time>2022-04-03T09:19:26Z</time></trkpt>
    <trkpt lat="47.70480" lon="12.89260"><ele>828</ele><time>2022-04-03T09:19:45Z</time></trkpt>
    <trkpt lat="47.70458" lon="12.89243"><ele>829</ele><time>2022-04-03T09:20:26Z</time></trkpt>
    <trkpt lat="47.70443" lon="12.89232"><ele>831</ele><time>2022-04-03T09:21:03Z</time></trkpt>
    <trkpt lat="47.70432" lon="12.89225"><ele>833</ele><time>2022-04-03T09:21:22Z</time></trkpt>
    <trkpt lat="47.70422" lon="12.89215"><ele>834</ele><time>2022-04-03T09:21:41Z</time></trkpt>
    <trkpt lat="47.70414" lon="12.89207"><ele>834</ele><time>2022-04-03T09:21:59Z</time></trkpt>
    <trkpt lat="47.70404" lon="12.89201"><ele>844</ele><time>2022-04-03T09:22:18Z</time></trkpt>
    <trkpt lat="47.70397" lon="12.89193"><ele>852</ele><time>2022-04-03T09:22:36Z</time></trkpt>
    <trkpt lat="47.70386" lon="12.89193"><ele>852</ele><time>2022-04-03T09:22:55Z</time></trkpt>
    <trkpt lat="47.70370" lon="12.89189"><ele>850</ele><time>2022-04-03T09:23:55Z</time></trkpt>
    <trkpt lat="47.70355" lon="12.89186"><ele>861</ele><time>2022-04-03T09:24:55Z</time></trkpt>
    <trkpt lat="47.70349" lon="12.89176"><ele>870</ele><time>2022-04-03T09:25:13Z</time></trkpt>
    <trkpt lat="47.70332" lon="12.89174"><ele>884</ele><time>2022-04-03T09:25:50Z</time></trkpt>
    <trkpt lat="47.70321" lon="12.89151"><ele>885</ele><time>2022-04-03T09:26:40Z</time></trkpt>
    <trkpt lat="47.70312" lon="12.89158"><ele>883</ele><time>2022-04-03T09:26:58Z</time></trkpt>
    <trkpt lat="47.70301" lon="12.89167"><ele>876</ele><time>2022-04-03T09:27:44Z</time></trkpt>
    <trkpt lat="47.70285" lon="12.89162"><ele>881</ele><time>2022-04-03T09:29:13Z</time></trkpt>
    <trkpt lat="47.70270" lon="12.89152"><ele>887</ele><time>2022-04-03T09:30:08Z</time></trkpt>
    <trkpt lat="47.70260" lon="12.89153"><ele>887</ele><time>2022-04-03T09:30:27Z</time></trkpt>
    <trkpt lat="47.70244" lon="12.89148"><ele>906</ele><time>2022-04-03T09:31:23Z</time></trkpt>
    <trkpt lat="47.70234" lon="12.89141"><ele>906</ele><time>2022-04-03T09:31:41Z</time></trkpt>
    <trkpt lat="47.70218" lon="12.89132"><ele>917</ele><time>2022-04-03T09:32:33Z</time></trkpt>
    <trkpt lat="47.70206" lon="12.89124"><ele>918</ele><time>2022-04-03T09:32:51Z</time></trkpt>
    <trkpt lat="47.70199" lon="12.89100"><ele>921</ele><time>2022-04-03T09:33:30Z</time></trkpt>
    <trkpt lat="47.70200" lon="12.89085"><ele>922</ele><time>2022-04-03T09:33:49Z</time></trkpt>
    <trkpt lat="47.70197" lon="12.89065"><ele>924</ele><time>2022-04-03T09:34:08Z</time></trkpt>
    <trkpt lat="47.70186" lon="12.89056"><ele>925</ele><time>2022-04-03T09:34:26Z</time></trkpt>
    <trkpt lat="47.70179" lon="12.89036"><ele>935</ele><time>2022-04-03T09:35:28Z</time></trkpt>
    <trkpt lat="47.70163" lon="12.89028"><ele>935</ele><time>2022-04-03T09:36:15Z</time></trkpt>
    <trkpt lat="47.70172" lon="12.89022"><ele>941</ele><time>2022-04-03T09:36:33Z</time></trkpt>
    <trkpt lat="47.70159" lon="12.89013"><ele>952</ele><time>2022-04-03T09:37:21Z</time></trkpt>
    <trkpt lat="47.70151" lon="12.88992"><ele>953</ele><time>2022-04-03T09:38:11Z</time></trkpt>
    <trkpt lat="47.70142" lon="12.88971"><ele>972</ele><time>2022-04-03T09:39:05Z</time></trkpt>
    <trkpt lat="47.70139" lon="12.88951"><ele>978</ele><time>2022-04-03T09:39:44Z</time></trkpt>
    <trkpt lat="47.70123" lon="12.88948"><ele>984</ele><time>2022-04-03T09:40:35Z</time></trkpt>
    <trkpt lat="47.70115" lon="12.88927"><ele>992</ele><time>2022-04-03T09:41:33Z</time></trkpt>
    <trkpt lat="47.70103" lon="12.88925"><ele>996</ele><time>2022-04-03T09:42:24Z</time></trkpt>
    <trkpt lat="47.70086" lon="12.88911"><ele>1001</ele><time>2022-04-03T09:43:09Z</time></trkpt>
    <trkpt lat="47.70078" lon="12.88906"><ele>1007</ele><time>2022-04-03T09:43:27Z</time></trkpt>
    <trkpt lat="47.70069" lon="12.88901"><ele>1009</ele><time>2022-04-03T09:43:46Z</time></trkpt>
    <trkpt lat="47.70061" lon="12.88894"><ele>1012</ele><time>2022-04-03T09:44:04Z</time></trkpt>
    <trkpt lat="47.70043" lon="12.88888"><ele>1022</ele><time>2022-04-03T09:44:41Z</time></trkpt>
    <trkpt lat="47.70033" lon="12.88879"><ele>1023</ele><time>2022-04-03T09:44:59Z</time></trkpt>
    <trkpt lat="47.70020" lon="12.88875"><ele>1024</ele><time>2022-04-03T09:45:17Z</time></trkpt>
    <trkpt lat="47.70005" lon="12.88868"><ele>1025</ele><time>2022-04-03T09:45:36Z</time></trkpt>
    <trkpt lat="47.69991" lon="12.88868"><ele>1032</ele><time>2022-04-03T09:49:17Z</time></trkpt>
    <trkpt lat="47.69977" lon="12.88863"><ele>1032</ele><time>2022-04-03T09:49:35Z</time></trkpt>
    <trkpt lat="47.69962" lon="12.88868"><ele>1035</ele><time>2022-04-03T09:49:54Z</time></trkpt>
    <trkpt lat="47.69948" lon="12.88872"><ele>1038</ele><time>2022-04-03T09:50:12Z</time></trkpt>
    <trkpt lat="47.69938" lon="12.88872"><ele>1043</ele><time>2022-04-03T09:50:31Z</time></trkpt>
    <trkpt lat="47.69924" lon="12.88871"><ele>1045</ele><time>2022-04-03T09:50:49Z</time></trkpt>
    <trkpt lat="47.69907" lon="12.88867"><ele>1046</ele><time>2022-04-03T09:51:08Z</time></trkpt>
    <trkpt lat="47.69895" lon="12.88866"><ele>1052</ele><time>2022-04-03T09:51:27Z</time></trkpt>
    <trkpt lat="47.69874" lon="12.88874"><ele>1050</ele><time>2022-04-03T09:52:03Z</time></trkpt>
    <trkpt lat="47.69858" lon="12.88884"><ele>1052</ele><time>2022-04-03T09:52:43Z</time></trkpt>
    <trkpt lat="47.69845" lon="12.88875"><ele>1053</ele><time>2022-04-03T09:53:02Z</time></trkpt>
    <trkpt lat="47.69835" lon="12.88872"><ele>1059</ele><time>2022-04-03T09:53:20Z</time></trkpt>
    <trkpt lat="47.69826" lon="12.88872"><ele>1063</ele><time>2022-04-03T09:53:39Z</time></trkpt>
    <trkpt lat="47.69816" lon="12.88871"><ele>1064</ele><time>2022-04-03T09:53:57Z</time></trkpt>
    <trkpt lat="47.69802" lon="12.88858"><ele>1067</ele><time>2022-04-03T09:54:53Z</time></trkpt>
    <trkpt lat="47.69796" lon="12.88876"><ele>1075</ele><time>2022-04-03T09:56:06Z</time></trkpt>
    <trkpt lat="47.69791" lon="12.88900"><ele>1072</ele><time>2022-04-03T09:56:50Z</time></trkpt>
    <trkpt lat="47.69775" lon="12.88908"><ele>1080</ele><time>2022-04-03T09:57:33Z</time></trkpt>
    <trkpt lat="47.69759" lon="12.88906"><ele>1088</ele><time>2022-04-03T09:58:12Z</time></trkpt>
    <trkpt lat="47.69739" lon="12.88906"><ele>1096</ele><time>2022-04-03T09:58:53Z</time></trkpt>
    <trkpt lat="47.69722" lon="12.88908"><ele>1102</ele><time>2022-04-03T09:59:31Z</time></trkpt>
    <trkpt lat="47.69705" lon="12.88903"><ele>1103</ele><time>2022-04-03T10:00:26Z</time></trkpt>
    <trkpt lat="47.69696" lon="12.88903"><ele>1103</ele><time>2022-04-03T10:00:45Z</time></trkpt>
    <trkpt lat="47.69680" lon="12.88911"><ele>1111</ele><time>2022-04-03T10:01:28Z</time></trkpt>
    <trkpt lat="47.69663" lon="12.88910"><ele>1122</ele><time>2022-04-03T10:02:05Z</time></trkpt>
    <trkpt lat="47.69654" lon="12.88914"><ele>1124</ele><time>2022-04-03T10:02:23Z</time></trkpt>
    <trkpt lat="47.69641" lon="12.88911"><ele>1125</ele><time>2022-04-03T10:02:42Z</time></trkpt>
    <trkpt lat="47.69632" lon="12.88916"><ele>1123</ele><time>2022-04-03T10:03:00Z</time></trkpt>
    <trkpt lat="47.69619" lon="12.88916"><ele>1121</ele><time>2022-04-03T10:03:19Z</time></trkpt>
    <trkpt lat="47.69611" lon="12.88925"><ele>1130</ele><time>2022-04-03T10:03:38Z</time></trkpt>
    <trkpt lat="47.69607" lon="12.88942"><ele>1128</ele><time>2022-04-03T10:03:56Z</time></trkpt>
    <trkpt lat="47.69600" lon="12.88961"><ele>1132</ele><time>2022-04-03T10:04:38Z</time></trkpt>
    <trkpt lat="47.69585" lon="12.88973"><ele>1137</ele><time>2022-04-03T10:05:23Z</time></trkpt>
    <trkpt lat="47.69568" lon="12.88975"><ele>1147</ele><time>2022-04-03T10:06:09Z</time></trkpt>
    <trkpt lat="47.69560" lon="12.88980"><ele>1150</ele><time>2022-04-03T10:06:27Z</time></trkpt>
    <trkpt lat="47.69543" lon="12.88981"><ele>1149</ele><time>2022-04-03T10:07:06Z</time></trkpt>
    <trkpt lat="47.69530" lon="12.88980"><ele>1160</ele><time>2022-04-03T10:08:24Z</time></trkpt>
    <trkpt lat="47.69514" lon="12.88976"><ele>1169</ele><time>2022-04-03T10:09:08Z</time></trkpt>
    <trkpt lat="47.69499" lon="12.88975"><ele>1173</ele><time>2022-04-03T10:09:44Z</time></trkpt>
    <trkpt lat="47.69485" lon="12.88977"><ele>1178</ele><time>2022-04-03T10:10:27Z</time></trkpt>
    <trkpt lat="47.69471" lon="12.88984"><ele>1185</ele><time>2022-04-03T10:11:08Z</time></trkpt>
    <trkpt lat="47.69461" lon="12.88984"><ele>1192</ele><time>2022-04-03T10:11:27Z</time></trkpt>
    <trkpt lat="47.69448" lon="12.88984"><ele>1197</ele><time>2022-04-03T10:12:11Z</time></trkpt>
    <trkpt lat="47.69434" lon="12.88995"><ele>1205</ele><time>2022-04-03T10:13:16Z</time></trkpt>
    <trkpt lat="47.69419" lon="12.89000"><ele>1210</ele><time>2022-04-03T10:15:45Z</time></trkpt>
    <trkpt lat="47.69407" lon="12.89016"><ele>1225</ele><time>2022-04-03T10:17:25Z</time></trkpt>
    <trkpt lat="47.69395" lon="12.89010"><ele>1233</ele><time>2022-04-03T10:21:32Z</time></trkpt>
    <trkpt lat="47.69381" lon="12.89020"><ele>1233</ele><time>2022-04-03T10:23:14Z</time></trkpt>
    <trkpt lat="47.69365" lon="12.89014"><ele>1235</ele><time>2022-04-03T10:25:10Z</time></trkpt>
    <trkpt lat="47.69348" lon="12.89018"><ele>1241</ele><time>2022-04-03T10:26:25Z</time></trkpt>
    <trkpt lat="47.69339" lon="12.89020"><ele>1241</ele><time>2022-04-03T10:26:44Z</time></trkpt>
    <trkpt lat="47.69336" lon="12.88997"><ele>1251</ele><time>2022-04-03T10:28:59Z</time></trkpt>
    <trkpt lat="47.69324" lon="12.89009"><ele>1264</ele><time>2022-04-03T10:30:19Z</time></trkpt>
    <trkpt lat="47.69320" lon="12.88985"><ele>1264</ele><time>2022-04-03T10:31:08Z</time></trkpt>
    <trkpt lat="47.69309" lon="12.88996"><ele>1269</ele><time>2022-04-03T10:32:03Z</time></trkpt>
    <trkpt lat="47.69301" lon="12.88976"><ele>1278</ele><time>2022-04-03T10:33:12Z</time></trkpt>
    <trkpt lat="47.69292" lon="12.88996"><ele>1285</ele><time>2022-04-03T10:33:57Z</time></trkpt>
    <trkpt lat="47.69281" lon="12.88973"><ele>1287</ele><time>2022-04-03T10:34:49Z</time></trkpt>
    <trkpt lat="47.69279" lon="12.88959"><ele>1288</ele><time>2022-04-03T10:35:08Z</time></trkpt>
    <trkpt lat="47.69272" lon="12.88980"><ele>1301</ele><time>2022-04-03T10:36:22Z</time></trkpt>
    <trkpt lat="47.69261" lon="12.88963"><ele>1242</ele><time>2022-04-03T10:37:18Z</time></trkpt>
    <trkpt lat="47.69259" lon="12.88938"><ele>1299</ele><time>2022-04-03T10:37:55Z</time></trkpt>
    <trkpt lat="47.69264" lon="12.88926"><ele>1276</ele><time>2022-04-03T10:38:14Z</time></trkpt>
    <trkpt lat="47.69249" lon="12.88923"><ele>1295</ele><time>2022-04-03T10:39:11Z</time></trkpt>
    <trkpt lat="47.69241" lon="12.88930"><ele>1310</ele><time>2022-04-03T10:39:30Z</time></trkpt>
    <trkpt lat="47.69232" lon="12.88952"><ele>1321</ele><time>2022-04-03T10:40:15Z</time></trkpt>
    <trkpt lat="47.69222" lon="12.88931"><ele>1326</ele><time>2022-04-03T10:41:10Z</time></trkpt>
    <trkpt lat="47.69220" lon="12.88917"><ele>1326</ele><time>2022-04-03T10:41:29Z</time></trkpt>
    <trkpt lat="47.69218" lon="12.88904"><ele>1297</ele><time>2022-04-03T10:41:47Z</time></trkpt>
    <trkpt lat="47.69211" lon="12.88886"><ele>1314</ele><time>2022-04-03T10:43:21Z</time></trkpt>
    <trkpt lat="47.69196" lon="12.88894"><ele>1338</ele><time>2022-04-03T10:44:23Z</time></trkpt>
    <trkpt lat="47.69191" lon="12.88909"><ele>1345</ele><time>2022-04-03T10:44:41Z</time></trkpt>
    <trkpt lat="47.69187" lon="12.88886"><ele>1357</ele><time>2022-04-03T10:46:09Z</time></trkpt>
    <trkpt lat="47.69174" lon="12.88898"><ele>1365</ele><time>2022-04-03T10:47:26Z</time></trkpt>
    <trkpt lat="47.69162" lon="12.88899"><ele>1364</ele><time>2022-04-03T10:48:29Z</time></trkpt>
    <trkpt lat="47.69158" lon="12.88876"><ele>1261</ele><time>2022-04-03T10:49:22Z</time></trkpt>
    <trkpt lat="47.69170" lon="12.88858"><ele>1381</ele><time>2022-04-03T10:50:01Z</time></trkpt>
    <trkpt lat="47.69155" lon="12.88869"><ele>1381</ele><time>2022-04-03T10:51:05Z</time></trkpt>
    <trkpt lat="47.69148" lon="12.88880"><ele>1382</ele><time>2022-04-03T10:51:23Z</time></trkpt>
    <trkpt lat="47.69136" lon="12.88869"><ele>1374</ele><time>2022-04-03T10:52:25Z</time></trkpt>
    <trkpt lat="47.69134" lon="12.88855"><ele>1385</ele><time>2022-04-03T10:52:44Z</time></trkpt>
    <trkpt lat="47.69124" lon="12.88840"><ele>1287</ele><time>2022-04-03T10:54:27Z</time></trkpt>
    <trkpt lat="47.69110" lon="12.88857"><ele>1395</ele><time>2022-04-03T10:55:28Z</time></trkpt>
    <trkpt lat="47.69116" lon="12.88834"><ele>1408</ele><time>2022-04-03T10:56:10Z</time></trkpt>
    <trkpt lat="47.69101" lon="12.88845"><ele>1404</ele><time>2022-04-03T10:56:57Z</time></trkpt>
    <trkpt lat="47.69093" lon="12.88851"><ele>1411</ele><time>2022-04-03T10:57:20Z</time></trkpt>
    <trkpt lat="47.69099" lon="12.88840"><ele>1424</ele><time>2022-04-03T10:57:39Z</time></trkpt>
    <trkpt lat="47.69080" lon="12.88860"><ele>1409</ele><time>2022-04-03T10:58:55Z</time></trkpt>
    <trkpt lat="47.69090" lon="12.88839"><ele>1349</ele><time>2022-04-03T10:59:59Z</time></trkpt>
    <trkpt lat="47.69077" lon="12.88852"><ele>1416</ele><time>2022-04-03T11:00:49Z</time></trkpt>
    <trkpt lat="47.69081" lon="12.88839"><ele>1433</ele><time>2022-04-03T11:02:09Z</time></trkpt>
    <trkpt lat="47.69088" lon="12.88817"><ele>1177</ele><time>2022-04-03T11:02:28Z</time></trkpt>
    <trkpt lat="47.69074" lon="12.88801"><ele>1319</ele><time>2022-04-03T11:03:10Z</time></trkpt>
    <trkpt lat="47.69057" lon="12.88816"><ele>1329</ele><time>2022-04-03T11:05:00Z</time></trkpt>
    <trkpt lat="47.69059" lon="12.88790"><ele>1364</ele><time>2022-04-03T11:05:44Z</time></trkpt>
    <trkpt lat="47.69048" lon="12.88808"><ele>1421</ele><time>2022-04-03T11:07:08Z</time></trkpt>
    <trkpt lat="47.69040" lon="12.88788"><ele>1310</ele><time>2022-04-03T11:07:51Z</time></trkpt>
    <trkpt lat="47.69049" lon="12.88769"><ele>1483</ele><time>2022-04-03T11:09:44Z</time></trkpt>
    <trkpt lat="47.69041" lon="12.88780"><ele>1488</ele><time>2022-04-03T11:10:40Z</time></trkpt>
    <trkpt lat="47.69023" lon="12.88798"><ele>1443</ele><time>2022-04-03T11:11:21Z</time></trkpt>
    <trkpt lat="47.69015" lon="12.88824"><ele>1479</ele><time>2022-04-03T11:11:40Z</time></trkpt>
    <trkpt lat="47.69002" lon="12.88811"><ele>1484</ele><time>2022-04-03T11:15:44Z</time></trkpt>
    <trkpt lat="47.68988" lon="12.88807"><ele>1425</ele><time>2022-04-03T11:18:29Z</time></trkpt>
    <trkpt lat="47.68981" lon="12.88831"><ele>1451</ele><time>2022-04-03T11:19:43Z</time></trkpt>
    <trkpt lat="47.68982" lon="12.88817"><ele>1322</ele><time>2022-04-03T11:20:24Z</time></trkpt>
    <trkpt lat="47.68983" lon="12.88804"><ele>1480</ele><time>2022-04-03T11:20:54Z</time></trkpt>
    <trkpt lat="47.68981" lon="12.88790"><ele>1487</ele><time>2022-04-03T11:21:18Z</time></trkpt>
    <trkpt lat="47.68975" lon="12.88808"><ele>1394</ele><time>2022-04-03T11:25:43Z</time></trkpt>
    <trkpt lat="47.68961" lon="12.88820"><ele>1476</ele><time>2022-04-03T11:26:01Z</time></trkpt>
    <trkpt lat="47.68946" lon="12.88824"><ele>1504</ele><time>2022-04-03T11:26:53Z</time></trkpt>
    <trkpt lat="47.68932" lon="12.88819"><ele>1515</ele><time>2022-04-03T11:27:54Z</time></trkpt>
    <trkpt lat="47.68920" lon="12.88830"><ele>1507</ele><time>2022-04-03T11:28:13Z</time></trkpt>
    <trkpt lat="47.68925" lon="12.88815"><ele>1513</ele><time>2022-04-03T11:28:31Z</time></trkpt>
    <trkpt lat="47.68911" lon="12.88808"><ele>1526</ele><time>2022-04-03T11:30:08Z</time></trkpt>
    <trkpt lat="47.68896" lon="12.88800"><ele>1535</ele><time>2022-04-03T11:31:46Z</time></trkpt>
    <trkpt lat="47.68885" lon="12.88792"><ele>1547</ele><time>2022-04-03T11:32:55Z</time></trkpt>
    <trkpt lat="47.68870" lon="12.88792"><ele>1537</ele><time>2022-04-03T11:34:29Z</time></trkpt>
    <trkpt lat="47.68862" lon="12.88803"><ele>1539</ele><time>2022-04-03T11:34:48Z</time></trkpt>
    <trkpt lat="47.68882" lon="12.88771"><ele>1563</ele><time>2022-04-03T11:35:06Z</time></trkpt>
    <trkpt lat="47.68886" lon="12.88750"><ele>1577</ele><time>2022-04-03T11:36:34Z</time></trkpt>
    <trkpt lat="47.68874" lon="12.88743"><ele>1568</ele><time>2022-04-03T11:43:53Z</time></trkpt>
    <trkpt lat="47.68857" lon="12.88746"><ele>1609</ele><time>2022-04-03T11:45:03Z</time></trkpt>
    <trkpt lat="47.68841" lon="12.88746"><ele>1614</ele><time>2022-04-03T11:45:59Z</time></trkpt>
    <trkpt lat="47.68834" lon="12.88732"><ele>1627</ele><time>2022-04-03T11:47:39Z</time></trkpt>
    <trkpt lat="47.68837" lon="12.88748"><ele>1676</ele><time>2022-04-03T11:52:29Z</time></trkpt>
    <trkpt lat="47.68841" lon="12.88770"><ele>1678</ele><time>2022-04-03T11:54:14Z</time></trkpt>
    <trkpt lat="47.68841" lon="12.88794"><ele>1691</ele><time>2022-04-03T11:56:08Z</time></trkpt>
    <trkpt lat="47.68842" lon="12.88818"><ele>1701</ele><time>2022-04-03T11:58:55Z</time></trkpt>
    <trkpt lat="47.68841" lon="12.88836"><ele>1707</ele><time>2022-04-03T12:01:14Z</time></trkpt>
    <trkpt lat="47.68829" lon="12.88852"><ele>1709</ele><time>2022-04-03T12:02:25Z</time></trkpt>
    <trkpt lat="47.68826" lon="12.88879"><ele>1714</ele><time>2022-04-03T12:03:01Z</time></trkpt>
    <trkpt lat="47.68829" lon="12.88893"><ele>1717</ele><time>2022-04-03T12:03:20Z</time></trkpt>
    <trkpt lat="47.68839" lon="12.88894"><ele>1720</ele><time>2022-04-03T12:03:39Z</time></trkpt>
    <trkpt lat="47.68829" lon="12.88856"><ele>1711</ele><time>2022-04-03T12:21:28Z</time></trkpt>
    <trkpt lat="47.68835" lon="12.88841"><ele>1710</ele><time>2022-04-03T12:21:46Z</time></trkpt>
    <trkpt lat="47.68842" lon="12.88828"><ele>1704</ele><time>2022-04-03T12:22:05Z</time></trkpt>
    <trkpt lat="47.68853" lon="12.88824"><ele>1702</ele><time>2022-04-03T12:22:23Z</time></trkpt>
    <trkpt lat="47.68866" lon="12.88812"><ele>1690</ele><time>2022-04-03T12:24:51Z</time></trkpt>
    <trkpt lat="47.68879" lon="12.88819"><ele>1683</ele><time>2022-04-03T12:25:45Z</time></trkpt>
    <trkpt lat="47.68881" lon="12.88796"><ele>1620</ele><time>2022-04-03T12:26:53Z</time></trkpt>
    <trkpt lat="47.68884" lon="12.88777"><ele>1636</ele><time>2022-04-03T12:27:12Z</time></trkpt>
    <trkpt lat="47.68885" lon="12.88758"><ele>1634</ele><time>2022-04-03T12:27:31Z</time></trkpt>
    <trkpt lat="47.68895" lon="12.88739"><ele>1630</ele><time>2022-04-03T12:29:23Z</time></trkpt>
    <trkpt lat="47.68968" lon="12.88767"><ele>1617</ele><time>2022-04-03T12:30:37Z</time></trkpt>
    <trkpt lat="47.68983" lon="12.88774"><ele>1597</ele><time>2022-04-03T12:32:04Z</time></trkpt>
    <trkpt lat="47.69042" lon="12.88789"><ele>1578</ele><time>2022-04-03T12:32:40Z</time></trkpt>
    <trkpt lat="47.69084" lon="12.88798"><ele>1546</ele><time>2022-04-03T12:32:59Z</time></trkpt>
    <trkpt lat="47.69092" lon="12.88804"><ele>1533</ele><time>2022-04-03T12:34:59Z</time></trkpt>
    <trkpt lat="47.69127" lon="12.88808"><ele>1493</ele><time>2022-04-03T12:35:17Z</time></trkpt>
    <trkpt lat="47.69131" lon="12.88823"><ele>1462</ele><time>2022-04-03T12:35:36Z</time></trkpt>
    <trkpt lat="47.69132" lon="12.88836"><ele>1435</ele><time>2022-04-03T12:36:06Z</time></trkpt>
    <trkpt lat="47.69158" lon="12.88869"><ele>1407</ele><time>2022-04-03T12:36:24Z</time></trkpt>
    <trkpt lat="47.69164" lon="12.88880"><ele>1374</ele><time>2022-04-03T12:36:42Z</time></trkpt>
    <trkpt lat="47.69190" lon="12.88906"><ele>1346</ele><time>2022-04-03T12:37:52Z</time></trkpt>
    <trkpt lat="47.69207" lon="12.88919"><ele>1325</ele><time>2022-04-03T12:38:11Z</time></trkpt>
    <trkpt lat="47.69213" lon="12.88931"><ele>1327</ele><time>2022-04-03T12:38:29Z</time></trkpt>
    <trkpt lat="47.69254" lon="12.88962"><ele>1298</ele><time>2022-04-03T12:39:26Z</time></trkpt>
    <trkpt lat="47.69266" lon="12.88964"><ele>1287</ele><time>2022-04-03T12:39:45Z</time></trkpt>
    <trkpt lat="47.69307" lon="12.88991"><ele>1276</ele><time>2022-04-03T12:40:33Z</time></trkpt>
    <trkpt lat="47.69324" lon="12.89000"><ele>1252</ele><time>2022-04-03T12:41:21Z</time></trkpt>
    <trkpt lat="47.69345" lon="12.89013"><ele>1236</ele><time>2022-04-03T12:41:40Z</time></trkpt>
    <trkpt lat="47.69355" lon="12.89031"><ele>1231</ele><time>2022-04-03T12:41:59Z</time></trkpt>
    <trkpt lat="47.69369" lon="12.89030"><ele>1225</ele><time>2022-04-03T12:42:18Z</time></trkpt>
    <trkpt lat="47.69380" lon="12.89042"><ele>1219</ele><time>2022-04-03T12:43:05Z</time></trkpt>
    <trkpt lat="47.69388" lon="12.89044"><ele>1210</ele><time>2022-04-03T12:43:23Z</time></trkpt>
    <trkpt lat="47.69405" lon="12.89071"><ele>1201</ele><time>2022-04-03T12:44:08Z</time></trkpt>
    <trkpt lat="47.69411" lon="12.89080"><ele>1190</ele><time>2022-04-03T12:44:34Z</time></trkpt>
    <trkpt lat="47.69447" lon="12.89069"><ele>1179</ele><time>2022-04-03T12:44:53Z</time></trkpt>
    <trkpt lat="47.69465" lon="12.89062"><ele>1175</ele><time>2022-04-03T12:45:12Z</time></trkpt>
    <trkpt lat="47.69473" lon="12.89048"><ele>1163</ele><time>2022-04-03T12:45:30Z</time></trkpt>
    <trkpt lat="47.69531" lon="12.89058"><ele>1124</ele><time>2022-04-03T12:45:49Z</time></trkpt>
    <trkpt lat="47.69541" lon="12.89053"><ele>1146</ele><time>2022-04-03T12:46:07Z</time></trkpt>
    <trkpt lat="47.69557" lon="12.89057"><ele>1137</ele><time>2022-04-03T12:50:44Z</time></trkpt>
    <trkpt lat="47.69570" lon="12.89020"><ele>1240</ele><time>2022-04-03T12:53:03Z</time></trkpt>
    <trkpt lat="47.69578" lon="12.88979"><ele>1137</ele><time>2022-04-03T12:53:21Z</time></trkpt>
    <trkpt lat="47.69605" lon="12.88958"><ele>1139</ele><time>2022-04-03T12:53:39Z</time></trkpt>
    <trkpt lat="47.69624" lon="12.88944"><ele>1133</ele><time>2022-04-03T12:53:57Z</time></trkpt>
    <trkpt lat="47.69650" lon="12.88927"><ele>1123</ele><time>2022-04-03T12:54:45Z</time></trkpt>
    <trkpt lat="47.69690" lon="12.88910"><ele>1164</ele><time>2022-04-03T12:55:24Z</time></trkpt>
    <trkpt lat="47.69718" lon="12.88899"><ele>1161</ele><time>2022-04-03T12:55:43Z</time></trkpt>
    <trkpt lat="47.69725" lon="12.88885"><ele>1204</ele><time>2022-04-03T12:56:02Z</time></trkpt>
    <trkpt lat="47.69768" lon="12.88890"><ele>1101</ele><time>2022-04-03T12:56:21Z</time></trkpt>
    <trkpt lat="47.69768" lon="12.88869"><ele>969</ele><time>2022-04-03T12:56:40Z</time></trkpt>
    <trkpt lat="47.69826" lon="12.88865"><ele>1071</ele><time>2022-04-03T12:57:19Z</time></trkpt>
    <trkpt lat="47.69863" lon="12.88865"><ele>1056</ele><time>2022-04-03T12:57:38Z</time></trkpt>
    <trkpt lat="47.69898" lon="12.88851"><ele>1062</ele><time>2022-04-03T12:58:19Z</time></trkpt>
    <trkpt lat="47.69942" lon="12.88857"><ele>1038</ele><time>2022-04-03T12:58:38Z</time></trkpt>
    <trkpt lat="47.69997" lon="12.88857"><ele>1035</ele><time>2022-04-03T12:58:56Z</time></trkpt>
    <trkpt lat="47.70030" lon="12.88875"><ele>1027</ele><time>2022-04-03T12:59:15Z</time></trkpt>
    <trkpt lat="47.70072" lon="12.88895"><ele>1018</ele><time>2022-04-03T12:59:34Z</time></trkpt>
    <trkpt lat="47.70102" lon="12.88911"><ele>1012</ele><time>2022-04-03T12:59:53Z</time></trkpt>
    <trkpt lat="47.70120" lon="12.88938"><ele>1008</ele><time>2022-04-03T13:00:41Z</time></trkpt>
    <trkpt lat="47.70127" lon="12.88953"><ele>946</ele><time>2022-04-03T13:01:00Z</time></trkpt>
    <trkpt lat="47.70140" lon="12.88988"><ele>928</ele><time>2022-04-03T13:01:42Z</time></trkpt>
    <trkpt lat="47.70128" lon="12.89016"><ele>955</ele><time>2022-04-03T13:02:00Z</time></trkpt>
    <trkpt lat="47.70139" lon="12.89020"><ele>956</ele><time>2022-04-03T13:02:24Z</time></trkpt>
    <trkpt lat="47.70162" lon="12.89030"><ele>965</ele><time>2022-04-03T13:02:43Z</time></trkpt>
    <trkpt lat="47.70168" lon="12.89053"><ele>882</ele><time>2022-04-03T13:03:31Z</time></trkpt>
    <trkpt lat="47.70200" lon="12.89085"><ele>972</ele><time>2022-04-03T13:03:50Z</time></trkpt>
    <trkpt lat="47.70222" lon="12.89139"><ele>926</ele><time>2022-04-03T13:04:08Z</time></trkpt>
    <trkpt lat="47.70232" lon="12.89136"><ele>917</ele><time>2022-04-03T13:04:27Z</time></trkpt>
    <trkpt lat="47.70252" lon="12.89146"><ele>906</ele><time>2022-04-03T13:04:45Z</time></trkpt>
    <trkpt lat="47.70261" lon="12.89155"><ele>905</ele><time>2022-04-03T13:05:03Z</time></trkpt>
    <trkpt lat="47.70276" lon="12.89146"><ele>893</ele><time>2022-04-03T13:05:53Z</time></trkpt>
    <trkpt lat="47.70286" lon="12.89144"><ele>891</ele><time>2022-04-03T13:06:14Z</time></trkpt>
    <trkpt lat="47.70301" lon="12.89142"><ele>924</ele><time>2022-04-03T13:06:58Z</time></trkpt>
    <trkpt lat="47.70324" lon="12.89152"><ele>874</ele><time>2022-04-03T13:07:54Z</time></trkpt>
    <trkpt lat="47.70336" lon="12.89161"><ele>885</ele><time>2022-04-03T13:08:13Z</time></trkpt>
    <trkpt lat="47.70354" lon="12.89175"><ele>884</ele><time>2022-04-03T13:08:31Z</time></trkpt>
    <trkpt lat="47.70370" lon="12.89178"><ele>850</ele><time>2022-04-03T13:08:49Z</time></trkpt>
    <trkpt lat="47.70386" lon="12.89179"><ele>844</ele><time>2022-04-03T13:09:57Z</time></trkpt>
    <trkpt lat="47.70396" lon="12.89184"><ele>839</ele><time>2022-04-03T13:10:16Z</time></trkpt>
    <trkpt lat="47.70409" lon="12.89199"><ele>834</ele><time>2022-04-03T13:10:34Z</time></trkpt>
    <trkpt lat="47.70419" lon="12.89211"><ele>830</ele><time>2022-04-03T13:10:52Z</time></trkpt>
    <trkpt lat="47.70452" lon="12.89229"><ele>832</ele><time>2022-04-03T13:12:22Z</time></trkpt>
    <trkpt lat="47.70463" lon="12.89243"><ele>838</ele><time>2022-04-03T13:12:41Z</time></trkpt>
    <trkpt lat="47.70494" lon="12.89244"><ele>836</ele><time>2022-04-03T13:12:59Z</time></trkpt>
    <trkpt lat="47.70510" lon="12.89237"><ele>838</ele><time>2022-04-03T13:13:18Z</time></trkpt>
    <trkpt lat="47.70519" lon="12.89236"><ele>839</ele><time>2022-04-03T13:13:42Z</time></trkpt>
    <trkpt lat="47.70535" lon="12.89213"><ele>831</ele><time>2022-04-03T13:14:00Z</time></trkpt>
    <trkpt lat="47.70549" lon="12.89190"><ele>808</ele><time>2022-04-03T13:19:28Z</time></trkpt>
    <trkpt lat="47.70568" lon="12.89195"><ele>783</ele><time>2022-04-03T13:20:20Z</time></trkpt>
    <trkpt lat="47.70579" lon="12.89206"><ele>787</ele><time>2022-04-03T13:20:39Z</time></trkpt>
    <trkpt lat="47.70594" lon="12.89210"><ele>810</ele><time>2022-04-03T13:20:58Z</time></trkpt>
    <trkpt lat="47.70604" lon="12.89208"><ele>782</ele><time>2022-04-03T13:21:16Z</time></trkpt>
    <trkpt lat="47.70619" lon="12.89208"><ele>786</ele><time>2022-04-03T13:21:34Z</time></trkpt>
    <trkpt lat="47.70634" lon="12.89220"><ele>779</ele><time>2022-04-03T13:21:53Z</time></trkpt>
    <trkpt lat="47.70646" lon="12.89228"><ele>780</ele><time>2022-04-03T13:22:11Z</time></trkpt>
    <trkpt lat="47.70659" lon="12.89227"><ele>777</ele><time>2022-04-03T13:22:30Z</time></trkpt>
    <trkpt lat="47.70676" lon="12.89213"><ele>770</ele><time>2022-04-03T13:22:48Z</time></trkpt>
    <trkpt lat="47.70686" lon="12.89216"><ele>756</ele><time>2022-04-03T13:23:07Z</time></trkpt>
    <trkpt lat="47.70701" lon="12.89232"><ele>754</ele><time>2022-04-03T13:23:25Z</time></trkpt>
    <trkpt lat="47.70718" lon="12.89239"><ele>752</ele><time>2022-04-03T13:23:43Z</time></trkpt>
    <trkpt lat="47.70731" lon="12.89234"><ele>752</ele><time>2022-04-03T13:24:02Z</time></trkpt>
    <trkpt lat="47.70744" lon="12.89249"><ele>747</ele><time>2022-04-03T13:24:21Z</time></trkpt>
    <trkpt lat="47.70764" lon="12.89256"><ele>749</ele><time>2022-04-03T13:24:40Z</time></trkpt>
    <trkpt lat="47.70782" lon="12.89267"><ele>751</ele><time>2022-04-03T13:24:59Z</time></trkpt>
    <trkpt lat="47.70790" lon="12.89278"><ele>740</ele><time>2022-04-03T13:25:17Z</time></trkpt>
    <trkpt lat="47.70803" lon="12.89300"><ele>742</ele><time>2022-04-03T13:25:36Z</time></trkpt>
    <trkpt lat="47.70816" lon="12.89314"><ele>739</ele><time>2022-04-03T13:25:54Z</time></trkpt>
    <trkpt lat="47.70830" lon="12.89330"><ele>736</ele><time>2022-04-03T13:26:13Z</time></trkpt>
    <trkpt lat="47.70844" lon="12.89342"><ele>733</ele><time>2022-04-03T13:26:32Z</time></trkpt>
    <trkpt lat="47.70857" lon="12.89346"><ele>726</ele><time>2022-04-03T13:26:50Z</time></trkpt>
    <trkpt lat="47.70869" lon="12.89358"><ele>722</ele><time>2022-04-03T13:27:09Z</time></trkpt>
    <trkpt lat="47.70881" lon="12.89370"><ele>718</ele><time>2022-04-03T13:27:27Z</time></trkpt>
    <trkpt lat="47.70888" lon="12.89382"><ele>738</ele><time>2022-04-03T13:27:45Z</time></trkpt>
    <trkpt lat="47.70893" lon="12.89394"><ele>718</ele><time>2022-04-03T13:28:04Z</time></trkpt>
    <trkpt lat="47.70901" lon="12.89413"><ele>759</ele><time>2022-04-03T13:28:23Z</time></trkpt>
    <trkpt lat="47.70918" lon="12.89420"><ele>716</ele><time>2022-04-03T13:28:41Z</time></trkpt>
    <trkpt lat="47.70938" lon="12.89426"><ele>720</ele><time>2022-04-03T13:29:00Z</time></trkpt>
    <trkpt lat="47.70960" lon="12.89429"><ele>715</ele><time>2022-04-03T13:29:18Z</time></trkpt>
    <trkpt lat="47.70977" lon="12.89435"><ele>730</ele><time>2022-04-03T13:29:37Z</time></trkpt>
    <trkpt lat="47.70994" lon="12.89444"><ele>731</ele><time>2022-04-03T13:29:55Z</time></trkpt>
    <trkpt lat="47.71012" lon="12.89457"><ele>709</ele><time>2022-04-03T13:30:14Z</time></trkpt>
    <trkpt lat="47.71021" lon="12.89474"><ele>707</ele><time>2022-04-03T13:30:33Z</time></trkpt>
    <trkpt lat="47.71032" lon="12.89484"><ele>699</ele><time>2022-04-03T13:30:51Z</time></trkpt>
    <trkpt lat="47.71040" lon="12.89489"><ele>722</ele><time>2022-04-03T13:31:10Z</time></trkpt>
    <trkpt lat="47.71032" lon="12.89504"><ele>794</ele><time>2022-04-03T13:31:28Z</time></trkpt>
    <trkpt lat="47.71047" lon="12.89515"><ele>675</ele><time>2022-04-03T13:32:22Z</time></trkpt>
    <trkpt lat="47.71062" lon="12.89526"><ele>676</ele><time>2022-04-03T13:33:01Z</time></trkpt>
    <trkpt lat="47.71078" lon="12.89530"><ele>694</ele><time>2022-04-03T13:33:38Z</time></trkpt>
    <trkpt lat="47.71087" lon="12.89538"><ele>712</ele><time>2022-04-03T13:33:57Z</time></trkpt>
    <trkpt lat="47.71097" lon="12.89536"><ele>663</ele><time>2022-04-03T13:34:16Z</time></trkpt>
    <trkpt lat="47.71107" lon="12.89532"><ele>666</ele><time>2022-04-03T13:34:34Z</time></trkpt>
    <trkpt lat="47.71116" lon="12.89524"><ele>651</ele><time>2022-04-03T13:34:52Z</time></trkpt>
    <trkpt lat="47.71127" lon="12.89514"><ele>642</ele><time>2022-04-03T13:35:11Z</time></trkpt>
    <trkpt lat="47.71143" lon="12.89504"><ele>645</ele><time>2022-04-03T13:35:30Z</time></trkpt>
    <trkpt lat="47.71155" lon="12.89500"><ele>642</ele><time>2022-04-03T13:35:49Z</time></trkpt>
    <trkpt lat="47.71170" lon="12.89494"><ele>691</ele><time>2022-04-03T13:36:07Z</time></trkpt>
    <trkpt lat="47.71187" lon="12.89491"><ele>642</ele><time>2022-04-03T13:36:26Z</time></trkpt>
    <trkpt lat="47.71194" lon="12.89506"><ele>640</ele><time>2022-04-03T13:36:45Z</time></trkpt>
    <trkpt lat="47.71206" lon="12.89497"><ele>634</ele><time>2022-04-03T13:37:04Z</time></trkpt>
    <trkpt lat="47.71218" lon="12.89498"><ele>635</ele><time>2022-04-03T13:37:23Z</time></trkpt>
    <trkpt lat="47.71231" lon="12.89493"><ele>624</ele><time>2022-04-03T13:37:42Z</time></trkpt>
    <trkpt lat="47.71243" lon="12.89490"><ele>621</ele><time>2022-04-03T13:38:00Z</time></trkpt>
    <trkpt lat="47.71254" lon="12.89496"><ele>615</ele><time>2022-04-03T13:38:19Z</time></trkpt>
    <trkpt lat="47.71269" lon="12.89504"><ele>616</ele><time>2022-04-03T13:38:38Z</time></trkpt>
    <trkpt lat="47.71282" lon="12.89509"><ele>616</ele><time>2022-04-03T13:38:56Z</time></trkpt>
    <trkpt lat="47.71291" lon="12.89520"><ele>613</ele><time>2022-04-03T13:39:14Z</time></trkpt>
    <trkpt lat="47.71303" lon="12.89531"><ele>597</ele><time>2022-04-03T13:39:32Z</time></trkpt>
    <trkpt lat="47.71312" lon="12.89541"><ele>615</ele><time>2022-04-03T13:39:51Z</time></trkpt>
    <trkpt lat="47.71322" lon="12.89549"><ele>611</ele><time>2022-04-03T13:40:10Z</time></trkpt>
    <trkpt lat="47.71331" lon="12.89560"><ele>607</ele><time>2022-04-03T13:40:29Z</time></trkpt>
    <trkpt lat="47.71311" lon="12.89563"><ele>608</ele><time>2022-04-03T13:41:33Z</time></trkpt>
    <trkpt lat="47.71294" lon="12.89563"><ele>587</ele><time>2022-04-03T13:41:51Z</time></trkpt>
    <trkpt lat="47.71299" lon="12.89586"><ele>616</ele><time>2022-04-03T13:43:20Z</time></trkpt>
    <trkpt lat="47.71315" lon="12.89606"><ele>623</ele><time>2022-04-03T13:43:38Z</time></trkpt>
    <trkpt lat="47.71330" lon="12.89621"><ele>617</ele><time>2022-04-03T13:43:57Z</time></trkpt>
    <trkpt lat="47.71348" lon="12.89628"><ele>615</ele><time>2022-04-03T13:44:16Z</time></trkpt>
    <trkpt lat="47.71367" lon="12.89622"><ele>610</ele><time>2022-04-03T13:44:35Z</time></trkpt>
    <trkpt lat="47.71391" lon="12.89618"><ele>596</ele><time>2022-04-03T13:44:54Z</time></trkpt>
    <trkpt lat="47.71410" lon="12.89633"><ele>593</ele><time>2022-04-03T13:45:13Z</time></trkpt>
    <trkpt lat="47.71419" lon="12.89666"><ele>594</ele><time>2022-04-03T13:45:31Z</time></trkpt>
    <trkpt lat="47.71425" lon="12.89688"><ele>598</ele><time>2022-04-03T13:45:49Z</time></trkpt>
    <trkpt lat="47.71448" lon="12.89714"><ele>602</ele><time>2022-04-03T13:46:08Z</time></trkpt>
    <trkpt lat="47.71453" lon="12.89734"><ele>595</ele><time>2022-04-03T13:46:27Z</time></trkpt>
    <trkpt lat="47.71464" lon="12.89748"><ele>588</ele><time>2022-04-03T13:46:45Z</time></trkpt>
    <trkpt lat="47.71475" lon="12.89763"><ele>588</ele><time>2022-04-03T13:47:03Z</time></trkpt>
    <trkpt lat="47.71490" lon="12.89772"><ele>584</ele><time>2022-04-03T13:47:22Z</time></trkpt>
    <trkpt lat="47.71505" lon="12.89782"><ele>579</ele><time>2022-04-03T13:47:40Z</time></trkpt>
    <trkpt lat="47.71526" lon="12.89787"><ele>575</ele><time>2022-04-03T13:47:58Z</time></trkpt>
    <trkpt lat="47.71543" lon="12.89799"><ele>571</ele><time>2022-04-03T13:48:17Z</time></trkpt>
    <trkpt lat="47.71563" lon="12.89810"><ele>566</ele><time>2022-04-03T13:48:35Z</time></trkpt>
    <trkpt lat="47.71579" lon="12.89830"><ele>562</ele><time>2022-04-03T13:48:54Z</time></trkpt>
    <trkpt lat="47.71594" lon="12.89839"><ele>564</ele><time>2022-04-03T13:49:13Z</time></trkpt>
    <trkpt lat="47.71611" lon="12.89827"><ele>570</ele><time>2022-04-03T13:49:32Z</time></trkpt>
    <trkpt lat="47.71599" lon="12.89844"><ele>568</ele><time>2022-04-03T13:51:22Z</time></trkpt>
    <trkpt lat="47.71597" lon="12.89869"><ele>576</ele><time>2022-04-03T13:51:40Z</time></trkpt>
  </trkseg>
</trk>
</gpx>