<?xml version="1.0" encoding="UTF-8"?>
<gpx version="1.1" creator="GPX-Pro" xmlns="http://www.topografix.com/GPX/1/1">
<trk>
  <name>Ski_Schafkarkopf-Rauris</name>
  <trkseg>
    <trkpt lat="47.17682" lon="12.92893"><ele>625</ele><time>2022-04-24T04:38:17Z</time></trkpt>
    <trkpt lat="47.17660" lon="12.92815"><ele>742</ele><time>2022-04-24T04:38:35Z</time></trkpt>
    <trkpt lat="47.17616" lon="12.92749"><ele>971</ele><time>2022-04-24T04:39:22Z</time></trkpt>
    <trkpt lat="47.17572" lon="12.92678"><ele>1011</ele><time>2022-04-24T04:39:41Z</time></trkpt>
    <trkpt lat="47.17559" lon="12.92625"><ele>1062</ele><time>2022-04-24T04:40:20Z</time></trkpt>
    <trkpt lat="47.17540" lon="12.92563"><ele>1101</ele><time>2022-04-24T04:40:47Z</time></trkpt>
    <trkpt lat="47.17518" lon="12.92477"><ele>1250</ele><time>2022-04-24T04:41:39Z</time></trkpt>
    <trkpt lat="47.17415" lon="12.92445"><ele>1241</ele><time>2022-04-24T04:41:58Z</time></trkpt>
    <trkpt lat="47.17339" lon="12.92390"><ele>1240</ele><time>2022-04-24T04:42:12Z</time></trkpt>
    <trkpt lat="47.17323" lon="12.92401"><ele>1241</ele><time>2022-04-24T04:42:19Z</time></trkpt>
    <trkpt lat="47.17306" lon="12.92409"><ele>1247</ele><time>2022-04-24T04:42:45Z</time></trkpt>
    <trkpt lat="47.17265" lon="12.92402"><ele>1249</ele><time>2022-04-24T04:43:13Z</time></trkpt>
    <trkpt lat="47.17266" lon="12.92380"><ele>1252</ele><time>2022-04-24T04:43:32Z</time></trkpt>
    <trkpt lat="47.17263" lon="12.92365"><ele>1258</ele><time>2022-04-24T04:43:53Z</time></trkpt>
    <trkpt lat="47.17274" lon="12.92337"><ele>1257</ele><time>2022-04-24T04:44:11Z</time></trkpt>
    <trkpt lat="47.17264" lon="12.92336"><ele>1260</ele><time>2022-04-24T04:44:31Z</time></trkpt>
    <trkpt lat="47.17255" lon="12.92344"><ele>1262</ele><time>2022-04-24T04:44:50Z</time></trkpt>
    <trkpt lat="47.17244" lon="12.92348"><ele>1263</ele><time>2022-04-24T04:45:11Z</time></trkpt>
    <trkpt lat="47.17221" lon="12.92362"><ele>1257</ele><time>2022-04-24T04:45:51Z</time></trkpt>
    <trkpt lat="47.17095" lon="12.92543"><ele>1217</ele><time>2022-04-24T04:46:09Z</time></trkpt>
    <trkpt lat="47.17090" lon="12.92567"><ele>1232</ele><time>2022-04-24T04:46:52Z</time></trkpt>
    <trkpt lat="47.17081" lon="12.92578"><ele>1235</ele><time>2022-04-24T04:47:36Z</time></trkpt>
    <trkpt lat="47.17066" lon="12.92571"><ele>1229</ele><time>2022-04-24T04:47:54Z</time></trkpt>
    <trkpt lat="47.17061" lon="12.92558"><ele>1242</ele><time>2022-04-24T04:48:13Z</time></trkpt>
    <trkpt lat="47.17063" lon="12.92574"><ele>1245</ele><time>2022-04-24T04:48:31Z</time></trkpt>
    <trkpt lat="47.17048" lon="12.92570"><ele>1248</ele><time>2022-04-24T04:49:44Z</time></trkpt>
    <trkpt lat="47.17044" lon="12.92583"><ele>1260</ele><time>2022-04-24T04:50:26Z</time></trkpt>
    <trkpt lat="47.17041" lon="12.92601"><ele>1264</ele><time>2022-04-24T04:50:45Z</time></trkpt>
    <trkpt lat="47.17057" lon="12.92610"><ele>1267</ele><time>2022-04-24T04:51:25Z</time></trkpt>
    <trkpt lat="47.17057" lon="12.92629"><ele>1270</ele><time>2022-04-24T04:51:44Z</time></trkpt>
    <trkpt lat="47.17031" lon="12.92667"><ele>1261</ele><time>2022-04-24T04:52:40Z</time></trkpt>
    <trkpt lat="47.17023" lon="12.92680"><ele>1266</ele><time>2022-04-24T04:52:58Z</time></trkpt>
    <trkpt lat="47.17007" lon="12.92696"><ele>1286</ele><time>2022-04-24T04:54:26Z</time></trkpt>
    <trkpt lat="47.16996" lon="12.92672"><ele>1292</ele><time>2022-04-24T04:55:07Z</time></trkpt>
    <trkpt lat="47.16993" lon="12.92659"><ele>1296</ele><time>2022-04-24T04:55:25Z</time></trkpt>
    <trkpt lat="47.16995" lon="12.92642"><ele>1300</ele><time>2022-04-24T04:55:44Z</time></trkpt>
    <trkpt lat="47.16995" lon="12.92627"><ele>1309</ele><time>2022-04-24T04:56:03Z</time></trkpt>
    <trkpt lat="47.16982" lon="12.92633"><ele>1312</ele><time>2022-04-24T04:56:44Z</time></trkpt>
    <trkpt lat="47.16973" lon="12.92646"><ele>1300</ele><time>2022-04-24T04:57:03Z</time></trkpt>
    <trkpt lat="47.16966" lon="12.92664"><ele>1311</ele><time>2022-04-24T04:57:22Z</time></trkpt>
    <trkpt lat="47.16955" lon="12.92641"><ele>1323</ele><time>2022-04-24T04:58:10Z</time></trkpt>
    <trkpt lat="47.16944" lon="12.92660"><ele>1331</ele><time>2022-04-24T04:59:05Z</time></trkpt>
    <trkpt lat="47.16942" lon="12.92647"><ele>1328</ele><time>2022-04-24T04:59:23Z</time></trkpt>
    <trkpt lat="47.16944" lon="12.92622"><ele>1351</ele><time>2022-04-24T05:00:01Z</time></trkpt>
    <trkpt lat="47.16934" lon="12.92621"><ele>1347</ele><time>2022-04-24T05:00:20Z</time></trkpt>
    <trkpt lat="47.16926" lon="12.92638"><ele>1320</ele><time>2022-04-24T05:00:38Z</time></trkpt>
    <trkpt lat="47.16922" lon="12.92614"><ele>1373</ele><time>2022-04-24T05:01:52Z</time></trkpt>
    <trkpt lat="47.16924" lon="12.92599"><ele>1376</ele><time>2022-04-24T05:02:10Z</time></trkpt>
    <trkpt lat="47.16912" lon="12.92597"><ele>1362</ele><time>2022-04-24T05:08:21Z</time></trkpt>
    <trkpt lat="47.16902" lon="12.92619"><ele>1362</ele><time>2022-04-24T05:08:39Z</time></trkpt>
    <trkpt lat="47.16894" lon="12.92632"><ele>1367</ele><time>2022-04-24T05:08:58Z</time></trkpt>
    <trkpt lat="47.16896" lon="12.92649"><ele>1387</ele><time>2022-04-24T05:10:13Z</time></trkpt>
    <trkpt lat="47.16893" lon="12.92662"><ele>1390</ele><time>2022-04-24T05:10:31Z</time></trkpt>
    <trkpt lat="47.16883" lon="12.92661"><ele>1393</ele><time>2022-04-24T05:11:36Z</time></trkpt>
    <trkpt lat="47.16874" lon="12.92670"><ele>1395</ele><time>2022-04-24T05:11:55Z</time></trkpt>
    <trkpt lat="47.16857" lon="12.92671"><ele>1405</ele><time>2022-04-24T05:13:10Z</time></trkpt>
    <trkpt lat="47.16846" lon="12.92651"><ele>1421</ele><time>2022-04-24T05:14:15Z</time></trkpt>
    <trkpt lat="47.16837" lon="12.92628"><ele>1430</ele><time>2022-04-24T05:14:53Z</time></trkpt>
    <trkpt lat="47.16823" lon="12.92636"><ele>1440</ele><time>2022-04-24T05:16:05Z</time></trkpt>
    <trkpt lat="47.16810" lon="12.92620"><ele>1447</ele><time>2022-04-24T05:16:45Z</time></trkpt>
    <trkpt lat="47.16800" lon="12.92621"><ele>1453</ele><time>2022-04-24T05:17:03Z</time></trkpt>
    <trkpt lat="47.16785" lon="12.92615"><ele>1479</ele><time>2022-04-24T05:18:41Z</time></trkpt>
    <trkpt lat="47.16777" lon="12.92594"><ele>1483</ele><time>2022-04-24T05:19:24Z</time></trkpt>
    <trkpt lat="47.16771" lon="12.92583"><ele>1483</ele><time>2022-04-24T05:19:43Z</time></trkpt>
    <trkpt lat="47.16765" lon="12.92562"><ele>1487</ele><time>2022-04-24T05:20:32Z</time></trkpt>
    <trkpt lat="47.16752" lon="12.92577"><ele>1487</ele><time>2022-04-24T05:21:16Z</time></trkpt>
    <trkpt lat="47.16749" lon="12.92564"><ele>1495</ele><time>2022-04-24T05:21:34Z</time></trkpt>
    <trkpt lat="47.16751" lon="12.92547"><ele>1503</ele><time>2022-04-24T05:21:53Z</time></trkpt>
    <trkpt lat="47.16753" lon="12.92522"><ele>1504</ele><time>2022-04-24T05:22:29Z</time></trkpt>
    <trkpt lat="47.16740" lon="12.92508"><ele>1509</ele><time>2022-04-24T05:23:39Z</time></trkpt>
    <trkpt lat="47.16728" lon="12.92525"><ele>1520</ele><time>2022-04-24T05:24:30Z</time></trkpt>
    <trkpt lat="47.16713" lon="12.92516"><ele>1532</ele><time>2022-04-24T05:25:32Z</time></trkpt>
    <trkpt lat="47.16706" lon="12.92535"><ele>1536</ele><time>2022-04-24T05:26:22Z</time></trkpt>
    <trkpt lat="47.16691" lon="12.92534"><ele>1540</ele><time>2022-04-24T05:27:18Z</time></trkpt>
    <trkpt lat="47.16675" lon="12.92537"><ele>1536</ele><time>2022-04-24T05:27:57Z</time></trkpt>
    <trkpt lat="47.16661" lon="12.92532"><ele>1551</ele><time>2022-04-24T05:29:03Z</time></trkpt>
    <trkpt lat="47.16644" lon="12.92528"><ele>1562</ele><time>2022-04-24T05:29:53Z</time></trkpt>
    <trkpt lat="47.16633" lon="12.92544"><ele>1580</ele><time>2022-04-24T05:31:35Z</time></trkpt>
    <trkpt lat="47.16624" lon="12.92537"><ele>1561</ele><time>2022-04-24T05:31:53Z</time></trkpt>
    <trkpt lat="47.16610" lon="12.92518"><ele>1594</ele><time>2022-04-24T05:32:44Z</time></trkpt>
    <trkpt lat="47.16600" lon="12.92506"><ele>1596</ele><time>2022-04-24T05:33:02Z</time></trkpt>
    <trkpt lat="47.16590" lon="12.92491"><ele>1600</ele><time>2022-04-24T05:33:21Z</time></trkpt>
    <trkpt lat="47.16580" lon="12.92485"><ele>1608</ele><time>2022-04-24T05:33:39Z</time></trkpt>
    <trkpt lat="47.16570" lon="12.92484"><ele>1605</ele><time>2022-04-24T05:33:57Z</time></trkpt>
    <trkpt lat="47.16552" lon="12.92481"><ele>1599</ele><time>2022-04-24T05:34:37Z</time></trkpt>
    <trkpt lat="47.16564" lon="12.92489"><ele>1619</ele><time>2022-04-24T05:36:47Z</time></trkpt>
    <trkpt lat="47.16572" lon="12.92510"><ele>1622</ele><time>2022-04-24T05:37:29Z</time></trkpt>
    <trkpt lat="47.16581" lon="12.92530"><ele>1620</ele><time>2022-04-24T05:38:07Z</time></trkpt>
    <trkpt lat="47.16584" lon="12.92553"><ele>1627</ele><time>2022-04-24T05:38:48Z</time></trkpt>
    <trkpt lat="47.16591" lon="12.92579"><ele>1632</ele><time>2022-04-24T05:39:28Z</time></trkpt>
    <trkpt lat="47.16603" lon="12.92595"><ele>1644</ele><time>2022-04-24T05:40:05Z</time></trkpt>
    <trkpt lat="47.16614" lon="12.92609"><ele>1642</ele><time>2022-04-24T05:43:02Z</time></trkpt>
    <trkpt lat="47.16630" lon="12.92613"><ele>1647</ele><time>2022-04-24T05:45:02Z</time></trkpt>
    <trkpt lat="47.16639" lon="12.92623"><ele>1648</ele><time>2022-04-24T05:45:20Z</time></trkpt>
    <trkpt lat="47.16653" lon="12.92632"><ele>1645</ele><time>2022-04-24T05:45:39Z</time></trkpt>
    <trkpt lat="47.16663" lon="12.92645"><ele>1645</ele><time>2022-04-24T05:45:57Z</time></trkpt>
    <trkpt lat="47.16668" lon="12.92658"><ele>1642</ele><time>2022-04-24T05:46:15Z</time></trkpt>
    <trkpt lat="47.16687" lon="12.92668"><ele>1645</ele><time>2022-04-24T05:46:52Z</time></trkpt>
    <trkpt lat="47.16694" lon="12.92680"><ele>1646</ele><time>2022-04-24T05:47:11Z</time></trkpt>
    <trkpt lat="47.16705" lon="12.92699"><ele>1643</ele><time>2022-04-24T05:48:27Z</time></trkpt>
    <trkpt lat="47.16719" lon="12.92720"><ele>1637</ele><time>2022-04-24T05:49:10Z</time></trkpt>
    <trkpt lat="47.16735" lon="12.92728"><ele>1639</ele><time>2022-04-24T05:49:58Z</time></trkpt>
    <trkpt lat="47.16740" lon="12.92744"><ele>1640</ele><time>2022-04-24T05:50:17Z</time></trkpt>
    <trkpt lat="47.16751" lon="12.92765"><ele>1646</ele><time>2022-04-24T05:51:09Z</time></trkpt>
    <trkpt lat="47.16757" lon="12.92787"><ele>1648</ele><time>2022-04-24T05:52:24Z</time></trkpt>
    <trkpt lat="47.16766" lon="12.92792"><ele>1652</ele><time>2022-04-24T05:52:42Z</time></trkpt>
    <trkpt lat="47.16781" lon="12.92804"><ele>1657</ele><time>2022-04-24T05:53:26Z</time></trkpt>
    <trkpt lat="47.16793" lon="12.92821"><ele>1665</ele><time>2022-04-24T05:54:07Z</time></trkpt>
    <trkpt lat="47.16787" lon="12.92834"><ele>1666</ele><time>2022-04-24T05:54:26Z</time></trkpt>
    <trkpt lat="47.16773" lon="12.92845"><ele>1671</ele><time>2022-04-24T05:58:13Z</time></trkpt>
    <trkpt lat="47.16764" lon="12.92867"><ele>1672</ele><time>2022-04-24T05:58:32Z</time></trkpt>
    <trkpt lat="47.16757" lon="12.92877"><ele>1672</ele><time>2022-04-24T05:58:50Z</time></trkpt>
    <trkpt lat="47.16747" lon="12.92896"><ele>1677</ele><time>2022-04-24T05:59:34Z</time></trkpt>
    <trkpt lat="47.16739" lon="12.92901"><ele>1679</ele><time>2022-04-24T05:59:52Z</time></trkpt>
    <trkpt lat="47.16729" lon="12.92901"><ele>1679</ele><time>2022-04-24T06:00:11Z</time></trkpt>
    <trkpt lat="47.16712" lon="12.92903"><ele>1679</ele><time>2022-04-24T06:01:03Z</time></trkpt>
    <trkpt lat="47.16700" lon="12.92908"><ele>1687</ele><time>2022-04-24T06:01:21Z</time></trkpt>
    <trkpt lat="47.16690" lon="12.92907"><ele>1693</ele><time>2022-04-24T06:01:40Z</time></trkpt>
    <trkpt lat="47.16679" lon="12.92907"><ele>1697</ele><time>2022-04-24T06:01:58Z</time></trkpt>
    <trkpt lat="47.16667" lon="12.92912"><ele>1707</ele><time>2022-04-24T06:02:17Z</time></trkpt>
    <trkpt lat="47.16658" lon="12.92914"><ele>1692</ele><time>2022-04-24T06:02:36Z</time></trkpt>
    <trkpt lat="47.16649" lon="12.92916"><ele>1712</ele><time>2022-04-24T06:02:54Z</time></trkpt>
    <trkpt lat="47.16630" lon="12.92912"><ele>1710</ele><time>2022-04-24T06:03:31Z</time></trkpt>
    <trkpt lat="47.16620" lon="12.92912"><ele>1716</ele><time>2022-04-24T06:03:50Z</time></trkpt>
    <trkpt lat="47.16610" lon="12.92916"><ele>1722</ele><time>2022-04-24T06:04:08Z</time></trkpt>
    <trkpt lat="47.16599" lon="12.92923"><ele>1726</ele><time>2022-04-24T06:04:27Z</time></trkpt>
    <trkpt lat="47.16580" lon="12.92927"><ele>1741</ele><time>2022-04-24T06:05:04Z</time></trkpt>
    <trkpt lat="47.16571" lon="12.92931"><ele>1744</ele><time>2022-04-24T06:05:23Z</time></trkpt>
    <trkpt lat="47.16562" lon="12.92935"><ele>1751</ele><time>2022-04-24T06:05:41Z</time></trkpt>
    <trkpt lat="47.16546" lon="12.92937"><ele>1747</ele><time>2022-04-24T06:06:24Z</time></trkpt>
    <trkpt lat="47.16532" lon="12.92931"><ele>1749</ele><time>2022-04-24T06:07:00Z</time></trkpt>
    <trkpt lat="47.16518" lon="12.92920"><ele>1749</ele><time>2022-04-24T06:07:42Z</time></trkpt>
    <trkpt lat="47.16504" lon="12.92921"><ele>1743</ele><time>2022-04-24T06:08:24Z</time></trkpt>
    <trkpt lat="47.16490" lon="12.92908"><ele>1760</ele><time>2022-04-24T06:09:01Z</time></trkpt>
    <trkpt lat="47.16478" lon="12.92891"><ele>1769</ele><time>2022-04-24T06:09:44Z</time></trkpt>
    <trkpt lat="47.16474" lon="12.92865"><ele>1777</ele><time>2022-04-24T06:10:22Z</time></trkpt>
    <trkpt lat="47.16464" lon="12.92856"><ele>1785</ele><time>2022-04-24T06:11:02Z</time></trkpt>
    <trkpt lat="47.16455" lon="12.92867"><ele>1788</ele><time>2022-04-24T06:11:20Z</time></trkpt>
    <trkpt lat="47.16443" lon="12.92859"><ele>1789</ele><time>2022-04-24T06:12:13Z</time></trkpt>
    <trkpt lat="47.16438" lon="12.92848"><ele>1794</ele><time>2022-04-24T06:12:32Z</time></trkpt>
    <trkpt lat="47.16433" lon="12.92837"><ele>1796</ele><time>2022-04-24T06:12:50Z</time></trkpt>
    <trkpt lat="47.16418" lon="12.92831"><ele>1803</ele><time>2022-04-24T06:14:04Z</time></trkpt>
    <trkpt lat="47.16406" lon="12.92846"><ele>1815</ele><time>2022-04-24T06:14:57Z</time></trkpt>
    <trkpt lat="47.16401" lon="12.92863"><ele>1817</ele><time>2022-04-24T06:15:15Z</time></trkpt>
    <trkpt lat="47.16397" lon="12.92877"><ele>1820</ele><time>2022-04-24T06:15:33Z</time></trkpt>
    <trkpt lat="47.16383" lon="12.92873"><ele>1827</ele><time>2022-04-24T06:17:52Z</time></trkpt>
    <trkpt lat="47.16378" lon="12.92860"><ele>1831</ele><time>2022-04-24T06:18:11Z</time></trkpt>
    <trkpt lat="47.16364" lon="12.92873"><ele>1837</ele><time>2022-04-24T06:19:00Z</time></trkpt>
    <trkpt lat="47.16350" lon="12.92870"><ele>1847</ele><time>2022-04-24T06:20:07Z</time></trkpt>
    <trkpt lat="47.16345" lon="12.92883"><ele>1851</ele><time>2022-04-24T06:20:26Z</time></trkpt>
    <trkpt lat="47.16342" lon="12.92898"><ele>1854</ele><time>2022-04-24T06:20:44Z</time></trkpt>
    <trkpt lat="47.16334" lon="12.92924"><ele>1858</ele><time>2022-04-24T06:21:23Z</time></trkpt>
    <trkpt lat="47.16324" lon="12.92904"><ele>1860</ele><time>2022-04-24T06:22:08Z</time></trkpt>
    <trkpt lat="47.16319" lon="12.92891"><ele>1865</ele><time>2022-04-24T06:22:27Z</time></trkpt>
    <trkpt lat="47.16312" lon="12.92914"><ele>1870</ele><time>2022-04-24T06:23:15Z</time></trkpt>
    <trkpt lat="47.16310" lon="12.92929"><ele>1871</ele><time>2022-04-24T06:23:34Z</time></trkpt>
    <trkpt lat="47.16296" lon="12.92914"><ele>1877</ele><time>2022-04-24T06:24:33Z</time></trkpt>
    <trkpt lat="47.16286" lon="12.92921"><ele>1881</ele><time>2022-04-24T06:25:55Z</time></trkpt>
    <trkpt lat="47.16275" lon="12.92932"><ele>1889</ele><time>2022-04-24T06:27:10Z</time></trkpt>
    <trkpt lat="47.16264" lon="12.92948"><ele>1897</ele><time>2022-04-24T06:28:07Z</time></trkpt>
    <trkpt lat="47.16263" lon="12.92965"><ele>1896</ele><time>2022-04-24T06:28:26Z</time></trkpt>
    <trkpt lat="47.16253" lon="12.92969"><ele>1903</ele><time>2022-04-24T06:29:24Z</time></trkpt>
    <trkpt lat="47.16239" lon="12.92983"><ele>1912</ele><time>2022-04-24T06:32:47Z</time></trkpt>
    <trkpt lat="47.16224" lon="12.92993"><ele>1921</ele><time>2022-04-24T06:34:16Z</time></trkpt>
    <trkpt lat="47.16208" lon="12.92998"><ele>1931</ele><time>2022-04-24T06:36:01Z</time></trkpt>
    <trkpt lat="47.16193" lon="12.93001"><ele>1941</ele><time>2022-04-24T06:37:41Z</time></trkpt>
    <trkpt lat="47.16184" lon="12.93020"><ele>1955</ele><time>2022-04-24T06:39:13Z</time></trkpt>
    <trkpt lat="47.16177" lon="12.93041"><ele>1964</ele><time>2022-04-24T06:43:10Z</time></trkpt>
    <trkpt lat="47.16175" lon="12.93056"><ele>1965</ele><time>2022-04-24T06:43:29Z</time></trkpt>
    <trkpt lat="47.16181" lon="12.93073"><ele>1973</ele><time>2022-04-24T06:43:48Z</time></trkpt>
    <trkpt lat="47.16159" lon="12.93066"><ele>1967</ele><time>2022-04-24T06:44:32Z</time></trkpt>
    <trkpt lat="47.16168" lon="12.93093"><ele>1979</ele><time>2022-04-24T06:45:19Z</time></trkpt>
    <trkpt lat="47.16158" lon="12.93108"><ele>1976</ele><time>2022-04-24T06:46:19Z</time></trkpt>
    <trkpt lat="47.16145" lon="12.93111"><ele>1976</ele><time>2022-04-24T06:47:04Z</time></trkpt>
    <trkpt lat="47.16143" lon="12.93135"><ele>1983</ele><time>2022-04-24T06:47:44Z</time></trkpt>
    <trkpt lat="47.16133" lon="12.93146"><ele>1990</ele><time>2022-04-24T06:48:37Z</time></trkpt>
    <trkpt lat="47.16117" lon="12.93145"><ele>2009</ele><time>2022-04-24T06:50:32Z</time></trkpt>
    <trkpt lat="47.16106" lon="12.93148"><ele>2017</ele><time>2022-04-24T06:51:57Z</time></trkpt>
    <trkpt lat="47.16092" lon="12.93157"><ele>2019</ele><time>2022-04-24T06:52:35Z</time></trkpt>
    <trkpt lat="47.16081" lon="12.93139"><ele>2028</ele><time>2022-04-24T06:54:01Z</time></trkpt>
    <trkpt lat="47.16070" lon="12.93116"><ele>2037</ele><time>2022-04-24T06:55:01Z</time></trkpt>
    <trkpt lat="47.16069" lon="12.93140"><ele>2044</ele><time>2022-04-24T06:56:04Z</time></trkpt>
    <trkpt lat="47.16057" lon="12.93124"><ele>2046</ele><time>2022-04-24T06:57:18Z</time></trkpt>
    <trkpt lat="47.16046" lon="12.93138"><ele>2051</ele><time>2022-04-24T06:58:30Z</time></trkpt>
    <trkpt lat="47.16044" lon="12.93115"><ele>2061</ele><time>2022-04-24T06:59:19Z</time></trkpt>
    <trkpt lat="47.16046" lon="12.93091"><ele>2068</ele><time>2022-04-24T07:00:01Z</time></trkpt>
    <trkpt lat="47.16033" lon="12.93110"><ele>2068</ele><time>2022-04-24T07:00:55Z</time></trkpt>
    <trkpt lat="47.16029" lon="12.93089"><ele>2077</ele><time>2022-04-24T07:02:10Z</time></trkpt>
    <trkpt lat="47.16029" lon="12.93062"><ele>2082</ele><time>2022-04-24T07:02:48Z</time></trkpt>
    <trkpt lat="47.16027" lon="12.93046"><ele>2085</ele><time>2022-04-24T07:03:07Z</time></trkpt>
    <trkpt lat="47.16017" lon="12.93065"><ele>2080</ele><time>2022-04-24T07:04:06Z</time></trkpt>
    <trkpt lat="47.16011" lon="12.93076"><ele>2088</ele><time>2022-04-24T07:04:24Z</time></trkpt>
    <trkpt lat="47.16001" lon="12.93063"><ele>2095</ele><time>2022-04-24T07:05:32Z</time></trkpt>
    <trkpt lat="47.15992" lon="12.93072"><ele>2101</ele><time>2022-04-24T07:06:40Z</time></trkpt>
    <trkpt lat="47.15987" lon="12.93086"><ele>2103</ele><time>2022-04-24T07:06:58Z</time></trkpt>
    <trkpt lat="47.15980" lon="12.93098"><ele>2105</ele><time>2022-04-24T07:07:17Z</time></trkpt>
    <trkpt lat="47.15971" lon="12.93106"><ele>2104</ele><time>2022-04-24T07:07:35Z</time></trkpt>
    <trkpt lat="47.15964" lon="12.93114"><ele>2106</ele><time>2022-04-24T07:07:53Z</time></trkpt>
    <trkpt lat="47.15957" lon="12.93124"><ele>2109</ele><time>2022-04-24T07:08:12Z</time></trkpt>
    <trkpt lat="47.15949" lon="12.93146"><ele>2113</ele><time>2022-04-24T07:09:38Z</time></trkpt>
    <trkpt lat="47.15938" lon="12.93144"><ele>2118</ele><time>2022-04-24T07:10:47Z</time></trkpt>
    <trkpt lat="47.15931" lon="12.93123"><ele>2125</ele><time>2022-04-24T07:11:51Z</time></trkpt>
    <trkpt lat="47.15920" lon="12.93141"><ele>2130</ele><time>2022-04-24T07:12:39Z</time></trkpt>
    <trkpt lat="47.15915" lon="12.93118"><ele>2136</ele><time>2022-04-24T07:13:35Z</time></trkpt>
    <trkpt lat="47.15903" lon="12.93136"><ele>2144</ele><time>2022-04-24T07:14:28Z</time></trkpt>
    <trkpt lat="47.15892" lon="12.93130"><ele>2154</ele><time>2022-04-24T07:16:15Z</time></trkpt>
    <trkpt lat="47.15887" lon="12.93111"><ele>2162</ele><time>2022-04-24T07:17:30Z</time></trkpt>
    <trkpt lat="47.15873" lon="12.93123"><ele>2171</ele><time>2022-04-24T07:18:52Z</time></trkpt>
    <trkpt lat="47.15874" lon="12.93098"><ele>2175</ele><time>2022-04-24T07:19:34Z</time></trkpt>
    <trkpt lat="47.15865" lon="12.93099"><ele>2179</ele><time>2022-04-24T07:20:42Z</time></trkpt>
    <trkpt lat="47.15855" lon="12.93105"><ele>2181</ele><time>2022-04-24T07:21:00Z</time></trkpt>
    <trkpt lat="47.15845" lon="12.93124"><ele>2191</ele><time>2022-04-24T07:21:42Z</time></trkpt>
    <trkpt lat="47.15839" lon="12.93138"><ele>2190</ele><time>2022-04-24T07:22:00Z</time></trkpt>
    <trkpt lat="47.15827" lon="12.93149"><ele>2192</ele><time>2022-04-24T07:22:57Z</time></trkpt>
    <trkpt lat="47.15819" lon="12.93128"><ele>2199</ele><time>2022-04-24T07:23:37Z</time></trkpt>
    <trkpt lat="47.15809" lon="12.93148"><ele>2206</ele><time>2022-04-24T07:24:40Z</time></trkpt>
    <trkpt lat="47.15807" lon="12.93173"><ele>2211</ele><time>2022-04-24T07:25:18Z</time></trkpt>
    <trkpt lat="47.15808" lon="12.93187"><ele>2214</ele><time>2022-04-24T07:25:36Z</time></trkpt>
    <trkpt lat="47.15799" lon="12.93198"><ele>2220</ele><time>2022-04-24T07:28:16Z</time></trkpt>
    <trkpt lat="47.15793" lon="12.93187"><ele>2223</ele><time>2022-04-24T07:28:34Z</time></trkpt>
    <trkpt lat="47.15786" lon="12.93175"><ele>2225</ele><time>2022-04-24T07:28:52Z</time></trkpt>
    <trkpt lat="47.15782" lon="12.93162"><ele>2226</ele><time>2022-04-24T07:29:11Z</time></trkpt>
    <trkpt lat="47.15776" lon="12.93174"><ele>2246</ele><time>2022-04-24T07:30:57Z</time></trkpt>
    <trkpt lat="47.15774" lon="12.93188"><ele>2246</ele><time>2022-04-24T07:31:15Z</time></trkpt>
    <trkpt lat="47.15769" lon="12.93217"><ele>2247</ele><time>2022-04-24T07:31:52Z</time></trkpt>
    <trkpt lat="47.15771" lon="12.93241"><ele>2252</ele><time>2022-04-24T07:32:31Z</time></trkpt>
    <trkpt lat="47.15760" lon="12.93221"><ele>2248</ele><time>2022-04-24T07:33:08Z</time></trkpt>
    <trkpt lat="47.15755" lon="12.93210"><ele>2252</ele><time>2022-04-24T07:33:26Z</time></trkpt>
    <trkpt lat="47.15742" lon="12.93216"><ele>2253</ele><time>2022-04-24T07:34:37Z</time></trkpt>
    <trkpt lat="47.15738" lon="12.93201"><ele>2258</ele><time>2022-04-24T07:34:56Z</time></trkpt>
    <trkpt lat="47.15732" lon="12.93224"><ele>2268</ele><time>2022-04-24T07:36:06Z</time></trkpt>
    <trkpt lat="47.15721" lon="12.93232"><ele>2269</ele><time>2022-04-24T07:37:02Z</time></trkpt>
    <trkpt lat="47.15718" lon="12.93208"><ele>2276</ele><time>2022-04-24T07:37:42Z</time></trkpt>
    <trkpt lat="47.15716" lon="12.93195"><ele>2278</ele><time>2022-04-24T07:38:01Z</time></trkpt>
    <trkpt lat="47.15717" lon="12.93182"><ele>2281</ele><time>2022-04-24T07:38:20Z</time></trkpt>
    <trkpt lat="47.15702" lon="12.93194"><ele>2288</ele><time>2022-04-24T07:39:33Z</time></trkpt>
    <trkpt lat="47.15697" lon="12.93204"><ele>2289</ele><time>2022-04-24T07:39:52Z</time></trkpt>
    <trkpt lat="47.15684" lon="12.93207"><ele>2292</ele><time>2022-04-24T07:40:58Z</time></trkpt>
    <trkpt lat="47.15680" lon="12.93196"><ele>2295</ele><time>2022-04-24T07:41:16Z</time></trkpt>
    <trkpt lat="47.15685" lon="12.93184"><ele>2299</ele><time>2022-04-24T07:41:34Z</time></trkpt>
    <trkpt lat="47.15696" lon="12.93162"><ele>2307</ele><time>2022-04-24T07:42:12Z</time></trkpt>
    <trkpt lat="47.15700" lon="12.93138"><ele>2311</ele><time>2022-04-24T07:42:50Z</time></trkpt>
    <trkpt lat="47.15686" lon="12.93147"><ele>2312</ele><time>2022-04-24T07:43:36Z</time></trkpt>
    <trkpt lat="47.15670" lon="12.93160"><ele>2315</ele><time>2022-04-24T07:44:14Z</time></trkpt>
    <trkpt lat="47.15656" lon="12.93176"><ele>2317</ele><time>2022-04-24T07:44:56Z</time></trkpt>
    <trkpt lat="47.15645" lon="12.93194"><ele>2323</ele><time>2022-04-24T07:45:32Z</time></trkpt>
    <trkpt lat="47.15637" lon="12.93216"><ele>2328</ele><time>2022-04-24T07:46:10Z</time></trkpt>
    <trkpt lat="47.15630" lon="12.93238"><ele>2331</ele><time>2022-04-24T07:46:50Z</time></trkpt>
    <trkpt lat="47.15629" lon="12.93264"><ele>2338</ele><time>2022-04-24T07:47:27Z</time></trkpt>
    <trkpt lat="47.15629" lon="12.93279"><ele>2341</ele><time>2022-04-24T07:47:46Z</time></trkpt>
    <trkpt lat="47.15624" lon="12.93301"><ele>2344</ele><time>2022-04-24T07:48:24Z</time></trkpt>
    <trkpt lat="47.15613" lon="12.93308"><ele>2343</ele><time>2022-04-24T07:49:19Z</time></trkpt>
    <trkpt lat="47.15602" lon="12.93291"><ele>2348</ele><time>2022-04-24T07:50:04Z</time></trkpt>
    <trkpt lat="47.15589" lon="12.93275"><ele>2350</ele><time>2022-04-24T07:50:52Z</time></trkpt>
    <trkpt lat="47.15583" lon="12.93252"><ele>2350</ele><time>2022-04-24T07:51:39Z</time></trkpt>
    <trkpt lat="47.15581" lon="12.93228"><ele>2360</ele><time>2022-04-24T07:52:26Z</time></trkpt>
    <trkpt lat="47.15581" lon="12.93205"><ele>2364</ele><time>2022-04-24T07:53:09Z</time></trkpt>
    <trkpt lat="47.15585" lon="12.93180"><ele>2370</ele><time>2022-04-24T07:53:48Z</time></trkpt>
    <trkpt lat="47.15570" lon="12.93187"><ele>2376</ele><time>2022-04-24T07:55:07Z</time></trkpt>
    <trkpt lat="47.15557" lon="12.93203"><ele>2380</ele><time>2022-04-24T07:55:46Z</time></trkpt>
    <trkpt lat="47.15548" lon="12.93223"><ele>2381</ele><time>2022-04-24T07:56:29Z</time></trkpt>
    <trkpt lat="47.15548" lon="12.93198"><ele>2391</ele><time>2022-04-24T07:57:29Z</time></trkpt>
    <trkpt lat="47.15548" lon="12.93185"><ele>2392</ele><time>2022-04-24T07:57:47Z</time></trkpt>
    <trkpt lat="47.15549" lon="12.93160"><ele>2399</ele><time>2022-04-24T07:58:27Z</time></trkpt>
    <trkpt lat="47.15556" lon="12.93138"><ele>2405</ele><time>2022-04-24T07:59:08Z</time></trkpt>
    <trkpt lat="47.15567" lon="12.93120"><ele>2411</ele><time>2022-04-24T07:59:47Z</time></trkpt>
    <trkpt lat="47.15572" lon="12.93109"><ele>2413</ele><time>2022-04-24T08:00:05Z</time></trkpt>
    <trkpt lat="47.15578" lon="12.93096"><ele>2418</ele><time>2022-04-24T08:00:24Z</time></trkpt>
    <trkpt lat="47.15564" lon="12.93090"><ele>2429</ele><time>2022-04-24T08:01:42Z</time></trkpt>
    <trkpt lat="47.15555" lon="12.93094"><ele>2428</ele><time>2022-04-24T08:02:01Z</time></trkpt>
    <trkpt lat="47.15557" lon="12.93068"><ele>2432</ele><time>2022-04-24T08:02:40Z</time></trkpt>
    <trkpt lat="47.15541" lon="12.93075"><ele>2440</ele><time>2022-04-24T08:03:55Z</time></trkpt>
    <trkpt lat="47.15527" lon="12.93087"><ele>2445</ele><time>2022-04-24T08:04:38Z</time></trkpt>
    <trkpt lat="47.15510" lon="12.93095"><ele>2450</ele><time>2022-04-24T08:05:17Z</time></trkpt>
    <trkpt lat="47.15497" lon="12.93105"><ele>2458</ele><time>2022-04-24T08:06:02Z</time></trkpt>
    <trkpt lat="47.15489" lon="12.93092"><ele>2462</ele><time>2022-04-24T08:08:41Z</time></trkpt>
    <trkpt lat="47.15475" lon="12.93104"><ele>2467</ele><time>2022-04-24T08:09:32Z</time></trkpt>
    <trkpt lat="47.15466" lon="12.93124"><ele>2473</ele><time>2022-04-24T08:10:09Z</time></trkpt>
    <trkpt lat="47.15453" lon="12.93139"><ele>2478</ele><time>2022-04-24T08:11:04Z</time></trkpt>
    <trkpt lat="47.15444" lon="12.93160"><ele>2482</ele><time>2022-04-24T08:11:49Z</time></trkpt>
    <trkpt lat="47.15440" lon="12.93142"><ele>2488</ele><time>2022-04-24T08:13:15Z</time></trkpt>
    <trkpt lat="47.15440" lon="12.93118"><ele>2489</ele><time>2022-04-24T08:14:06Z</time></trkpt>
    <trkpt lat="47.15428" lon="12.93117"><ele>2503</ele><time>2022-04-24T08:16:02Z</time></trkpt>
    <trkpt lat="47.15416" lon="12.93134"><ele>2508</ele><time>2022-04-24T08:16:51Z</time></trkpt>
    <trkpt lat="47.15403" lon="12.93149"><ele>2511</ele><time>2022-04-24T08:17:40Z</time></trkpt>
    <trkpt lat="47.15403" lon="12.93125"><ele>2516</ele><time>2022-04-24T08:18:52Z</time></trkpt>
    <trkpt lat="47.15406" lon="12.93101"><ele>2519</ele><time>2022-04-24T08:22:05Z</time></trkpt>
    <trkpt lat="47.15392" lon="12.93115"><ele>2524</ele><time>2022-04-24T08:23:16Z</time></trkpt>
    <trkpt lat="47.15387" lon="12.93130"><ele>2524</ele><time>2022-04-24T08:23:35Z</time></trkpt>
    <trkpt lat="47.15377" lon="12.93128"><ele>2534</ele><time>2022-04-24T08:25:08Z</time></trkpt>
    <trkpt lat="47.15381" lon="12.93105"><ele>2538</ele><time>2022-04-24T08:25:52Z</time></trkpt>
    <trkpt lat="47.15370" lon="12.93107"><ele>2547</ele><time>2022-04-24T08:27:31Z</time></trkpt>
    <trkpt lat="47.15358" lon="12.93123"><ele>2548</ele><time>2022-04-24T08:28:15Z</time></trkpt>
    <trkpt lat="47.15360" lon="12.93100"><ele>2558</ele><time>2022-04-24T08:29:52Z</time></trkpt>
    <trkpt lat="47.15364" lon="12.93076"><ele>2561</ele><time>2022-04-24T08:30:41Z</time></trkpt>
    <trkpt lat="47.15352" lon="12.93077"><ele>2565</ele><time>2022-04-24T08:32:33Z</time></trkpt>
    <trkpt lat="47.15340" lon="12.93093"><ele>2574</ele><time>2022-04-24T08:34:16Z</time></trkpt>
    <trkpt lat="47.15338" lon="12.93072"><ele>2583</ele><time>2022-04-24T08:36:01Z</time></trkpt>
    <trkpt lat="47.15342" lon="12.93049"><ele>2588</ele><time>2022-04-24T08:36:58Z</time></trkpt>
    <trkpt lat="47.15348" lon="12.93026"><ele>2594</ele><time>2022-04-24T08:37:58Z</time></trkpt>
    <trkpt lat="47.15334" lon="12.93028"><ele>2601</ele><time>2022-04-24T08:40:26Z</time></trkpt>
    <trkpt lat="47.15320" lon="12.93041"><ele>2607</ele><time>2022-04-24T08:41:34Z</time></trkpt>
    <trkpt lat="47.15311" lon="12.93038"><ele>2616</ele><time>2022-04-24T08:44:20Z</time></trkpt>
    <trkpt lat="47.15314" lon="12.93014"><ele>2620</ele><time>2022-04-24T08:45:12Z</time></trkpt>
    <trkpt lat="47.15301" lon="12.93008"><ele>2631</ele><time>2022-04-24T08:47:58Z</time></trkpt>
    <trkpt lat="47.15290" lon="12.92999"><ele>2646</ele><time>2022-04-24T08:51:24Z</time></trkpt>
    <trkpt lat="47.15274" lon="12.93008"><ele>2659</ele><time>2022-04-24T08:55:00Z</time></trkpt>
    <trkpt lat="47.15260" lon="12.93021"><ele>2673</ele><time>2022-04-24T08:59:17Z</time></trkpt>
    <trkpt lat="47.15245" lon="12.93029"><ele>2674</ele><time>2022-04-24T09:01:27Z</time></trkpt>
    <trkpt lat="47.15246" lon="12.93050"><ele>2695</ele><time>2022-04-24T09:07:48Z</time></trkpt>
    <trkpt lat="47.15242" lon="12.93069"><ele>2696</ele><time>2022-04-24T09:10:04Z</time></trkpt>
    <trkpt lat="47.15227" lon="12.93079"><ele>2689</ele><time>2022-04-24T09:11:50Z</time></trkpt>
    <trkpt lat="47.15217" lon="12.93090"><ele>2685</ele><time>2022-04-24T09:12:09Z</time></trkpt>
    <trkpt lat="47.15200" lon="12.93087"><ele>2689</ele><time>2022-04-24T09:13:15Z</time></trkpt>
    <trkpt lat="47.15192" lon="12.93070"><ele>2697</ele><time>2022-04-24T09:18:24Z</time></trkpt>
    <trkpt lat="47.15180" lon="12.93053"><ele>2717</ele><time>2022-04-24T09:21:01Z</time></trkpt>
    <trkpt lat="47.15167" lon="12.93039"><ele>2725</ele><time>2022-04-24T09:22:45Z</time></trkpt>
    <trkpt lat="47.15151" lon="12.93031"><ele>2732</ele><time>2022-04-24T09:24:35Z</time></trkpt>
    <trkpt lat="47.15169" lon="12.93040"><ele>2725</ele><time>2022-04-24T09:29:31Z</time></trkpt>
    <trkpt lat="47.15182" lon="12.93055"><ele>2723</ele><time>2022-04-24T09:30:39Z</time></trkpt>
    <trkpt lat="47.15191" lon="12.93071"><ele>2705</ele><time>2022-04-24T09:34:21Z</time></trkpt>
    <trkpt lat="47.15207" lon="12.93076"><ele>2693</ele><time>2022-04-24T09:37:23Z</time></trkpt>
    <trkpt lat="47.15223" lon="12.93070"><ele>2682</ele><time>2022-04-24T09:38:06Z</time></trkpt>
    <trkpt lat="47.15238" lon="12.93064"><ele>2687</ele><time>2022-04-24T09:38:59Z</time></trkpt>
    <trkpt lat="47.15251" lon="12.93053"><ele>2691</ele><time>2022-04-24T09:40:28Z</time></trkpt>
    <trkpt lat="47.15247" lon="12.93029"><ele>2684</ele><time>2022-04-24T09:42:52Z</time></trkpt>
    <trkpt lat="47.15262" lon="12.93018"><ele>2666</ele><time>2022-04-24T09:45:06Z</time></trkpt>
    <trkpt lat="47.15277" lon="12.93010"><ele>2653</ele><time>2022-04-24T09:54:49Z</time></trkpt>
    <trkpt lat="47.15286" lon="12.93018"><ele>2648</ele><time>2022-04-24T09:57:21Z</time></trkpt>
    <trkpt lat="47.15300" lon="12.93024"><ele>2635</ele><time>2022-04-24T09:57:40Z</time></trkpt>
    <trkpt lat="47.15313" lon="12.93077"><ele>2612</ele><time>2022-04-24T09:58:30Z</time></trkpt>
    <trkpt lat="47.15319" lon="12.93098"><ele>2600</ele><time>2022-04-24T09:59:29Z</time></trkpt>
    <trkpt lat="47.15347" lon="12.93109"><ele>2569</ele><time>2022-04-24T09:59:47Z</time></trkpt>
    <trkpt lat="47.15396" lon="12.93146"><ele>2540</ele><time>2022-04-24T10:00:51Z</time></trkpt>
    <trkpt lat="47.15405" lon="12.93152"><ele>2522</ele><time>2022-04-24T10:01:10Z</time></trkpt>
    <trkpt lat="47.15414" lon="12.93154"><ele>2522</ele><time>2022-04-24T10:01:53Z</time></trkpt>
    <trkpt lat="47.15425" lon="12.93169"><ele>2508</ele><time>2022-04-24T10:02:11Z</time></trkpt>
    <trkpt lat="47.15432" lon="12.93195"><ele>2484</ele><time>2022-04-24T10:02:51Z</time></trkpt>
    <trkpt lat="47.15454" lon="12.93143"><ele>2465</ele><time>2022-04-24T10:06:47Z</time></trkpt>
    <trkpt lat="47.15486" lon="12.93083"><ele>2465</ele><time>2022-04-24T10:07:05Z</time></trkpt>
    <trkpt lat="47.15515" lon="12.93044"><ele>2461</ele><time>2022-04-24T10:07:24Z</time></trkpt>
    <trkpt lat="47.15539" lon="12.93065"><ele>2451</ele><time>2022-04-24T10:07:42Z</time></trkpt>
    <trkpt lat="47.15580" lon="12.93068"><ele>2421</ele><time>2022-04-24T10:08:01Z</time></trkpt>
    <trkpt lat="47.15576" lon="12.93080"><ele>2415</ele><time>2022-04-24T10:08:20Z</time></trkpt>
    <trkpt lat="47.15571" lon="12.93123"><ele>2406</ele><time>2022-04-24T10:08:39Z</time></trkpt>
    <trkpt lat="47.15572" lon="12.93153"><ele>2395</ele><time>2022-04-24T10:08:57Z</time></trkpt>
    <trkpt lat="47.15609" lon="12.93174"><ele>2367</ele><time>2022-04-24T10:09:16Z</time></trkpt>
    <trkpt lat="47.15618" lon="12.93181"><ele>2351</ele><time>2022-04-24T10:09:35Z</time></trkpt>
    <trkpt lat="47.15616" lon="12.93196"><ele>2351</ele><time>2022-04-24T10:10:35Z</time></trkpt>
    <trkpt lat="47.15625" lon="12.93284"><ele>2344</ele><time>2022-04-24T10:10:53Z</time></trkpt>
    <trkpt lat="47.15674" lon="12.93319"><ele>2324</ele><time>2022-04-24T10:11:12Z</time></trkpt>
    <trkpt lat="47.15705" lon="12.93315"><ele>2295</ele><time>2022-04-24T10:11:31Z</time></trkpt>
    <trkpt lat="47.15713" lon="12.93306"><ele>2304</ele><time>2022-04-24T10:12:06Z</time></trkpt>
    <trkpt lat="47.15748" lon="12.93279"><ele>2274</ele><time>2022-04-24T10:12:24Z</time></trkpt>
    <trkpt lat="47.15784" lon="12.93260"><ele>2249</ele><time>2022-04-24T10:12:43Z</time></trkpt>
    <trkpt lat="47.15805" lon="12.93248"><ele>2233</ele><time>2022-04-24T10:13:01Z</time></trkpt>
    <trkpt lat="47.15811" lon="12.93236"><ele>2231</ele><time>2022-04-24T10:15:00Z</time></trkpt>
    <trkpt lat="47.15832" lon="12.93188"><ele>2207</ele><time>2022-04-24T10:15:19Z</time></trkpt>
    <trkpt lat="47.15878" lon="12.93173"><ele>2173</ele><time>2022-04-24T10:15:37Z</time></trkpt>
    <trkpt lat="47.15910" lon="12.93129"><ele>2133</ele><time>2022-04-24T10:16:55Z</time></trkpt>
    <trkpt lat="47.15942" lon="12.93117"><ele>2124</ele><time>2022-04-24T10:17:13Z</time></trkpt>
    <trkpt lat="47.15970" lon="12.93103"><ele>2108</ele><time>2022-04-24T10:18:11Z</time></trkpt>
    <trkpt lat="47.15980" lon="12.93078"><ele>2105</ele><time>2022-04-24T10:18:29Z</time></trkpt>
    <trkpt lat="47.15989" lon="12.93080"><ele>2098</ele><time>2022-04-24T10:19:01Z</time></trkpt>
    <trkpt lat="47.16035" lon="12.93079"><ele>2077</ele><time>2022-04-24T10:19:19Z</time></trkpt>
    <trkpt lat="47.16042" lon="12.93097"><ele>2068</ele><time>2022-04-24T10:19:38Z</time></trkpt>
    <trkpt lat="47.16073" lon="12.93140"><ele>2045</ele><time>2022-04-24T10:20:34Z</time></trkpt>
    <trkpt lat="47.16119" lon="12.93162"><ele>2013</ele><time>2022-04-24T10:20:52Z</time></trkpt>
    <trkpt lat="47.16147" lon="12.93142"><ele>1996</ele><time>2022-04-24T10:21:11Z</time></trkpt>
    <trkpt lat="47.16149" lon="12.93128"><ele>1991</ele><time>2022-04-24T10:22:54Z</time></trkpt>
    <trkpt lat="47.16203" lon="12.93111"><ele>1955</ele><time>2022-04-24T10:23:13Z</time></trkpt>
    <trkpt lat="47.16233" lon="12.93089"><ele>1932</ele><time>2022-04-24T10:23:32Z</time></trkpt>
    <trkpt lat="47.16232" lon="12.93075"><ele>1929</ele><time>2022-04-24T10:23:50Z</time></trkpt>
    <trkpt lat="47.16221" lon="12.93023"><ele>1921</ele><time>2022-04-24T10:24:08Z</time></trkpt>
    <trkpt lat="47.16224" lon="12.93008"><ele>1920</ele><time>2022-04-24T10:24:27Z</time></trkpt>
    <trkpt lat="47.16269" lon="12.92942"><ele>1894</ele><time>2022-04-24T10:24:45Z</time></trkpt>
    <trkpt lat="47.16301" lon="12.92909"><ele>1872</ele><time>2022-04-24T10:25:04Z</time></trkpt>
    <trkpt lat="47.16369" lon="12.92894"><ele>1832</ele><time>2022-04-24T10:25:51Z</time></trkpt>
    <trkpt lat="47.16383" lon="12.92880"><ele>1824</ele><time>2022-04-24T10:26:10Z</time></trkpt>
    <trkpt lat="47.16452" lon="12.92861"><ele>1793</ele><time>2022-04-24T10:27:18Z</time></trkpt>
    <trkpt lat="47.16505" lon="12.92873"><ele>1769</ele><time>2022-04-24T10:27:36Z</time></trkpt>
    <trkpt lat="47.16553" lon="12.92899"><ele>1753</ele><time>2022-04-24T10:27:55Z</time></trkpt>
    <trkpt lat="47.16566" lon="12.92907"><ele>1747</ele><time>2022-04-24T10:28:19Z</time></trkpt>
    <trkpt lat="47.16674" lon="12.92899"><ele>1716</ele><time>2022-04-24T10:28:38Z</time></trkpt>
    <trkpt lat="47.16703" lon="12.92895"><ele>1695</ele><time>2022-04-24T10:28:56Z</time></trkpt>
    <trkpt lat="47.16713" lon="12.92890"><ele>1690</ele><time>2022-04-24T10:30:22Z</time></trkpt>
    <trkpt lat="47.16774" lon="12.92906"><ele>1666</ele><time>2022-04-24T10:30:40Z</time></trkpt>
    <trkpt lat="47.16784" lon="12.92896"><ele>1656</ele><time>2022-04-24T10:30:59Z</time></trkpt>
    <trkpt lat="47.16796" lon="12.92881"><ele>1646</ele><time>2022-04-24T10:32:12Z</time></trkpt>
    <trkpt lat="47.16782" lon="12.92868"><ele>1642</ele><time>2022-04-24T10:38:46Z</time></trkpt>
    <trkpt lat="47.16782" lon="12.92844"><ele>1655</ele><time>2022-04-24T10:42:06Z</time></trkpt>
    <trkpt lat="47.16788" lon="12.92822"><ele>1663</ele><time>2022-04-24T10:42:58Z</time></trkpt>
    <trkpt lat="47.16794" lon="12.92811"><ele>1663</ele><time>2022-04-24T10:43:17Z</time></trkpt>
    <trkpt lat="47.16780" lon="12.92799"><ele>1662</ele><time>2022-04-24T10:45:08Z</time></trkpt>
    <trkpt lat="47.16767" lon="12.92792"><ele>1661</ele><time>2022-04-24T10:45:27Z</time></trkpt>
    <trkpt lat="47.16754" lon="12.92787"><ele>1660</ele><time>2022-04-24T10:45:45Z</time></trkpt>
    <trkpt lat="47.16746" lon="12.92778"><ele>1655</ele><time>2022-04-24T10:46:04Z</time></trkpt>
    <trkpt lat="47.16747" lon="12.92753"><ele>1650</ele><time>2022-04-24T10:47:07Z</time></trkpt>
    <trkpt lat="47.16740" lon="12.92731"><ele>1648</ele><time>2022-04-24T10:47:51Z</time></trkpt>
    <trkpt lat="47.16732" lon="12.92723"><ele>1647</ele><time>2022-04-24T10:48:10Z</time></trkpt>
    <trkpt lat="47.16713" lon="12.92714"><ele>1645</ele><time>2022-04-24T10:48:47Z</time></trkpt>
    <trkpt lat="47.16699" lon="12.92705"><ele>1644</ele><time>2022-04-24T10:49:06Z</time></trkpt>
    <trkpt lat="47.16689" lon="12.92686"><ele>1647</ele><time>2022-04-24T10:49:53Z</time></trkpt>
    <trkpt lat="47.16677" lon="12.92666"><ele>1643</ele><time>2022-04-24T10:50:37Z</time></trkpt>
    <trkpt lat="47.16663" lon="12.92646"><ele>1647</ele><time>2022-04-24T10:51:31Z</time></trkpt>
    <trkpt lat="47.16646" lon="12.92632"><ele>1645</ele><time>2022-04-24T10:52:09Z</time></trkpt>
    <trkpt lat="47.16633" lon="12.92626"><ele>1647</ele><time>2022-04-24T10:52:27Z</time></trkpt>
    <trkpt lat="47.16625" lon="12.92615"><ele>1647</ele><time>2022-04-24T10:52:46Z</time></trkpt>
    <trkpt lat="47.16612" lon="12.92606"><ele>1644</ele><time>2022-04-24T10:54:01Z</time></trkpt>
    <trkpt lat="47.16597" lon="12.92609"><ele>1631</ele><time>2022-04-24T10:55:01Z</time></trkpt>
    <trkpt lat="47.16582" lon="12.92598"><ele>1636</ele><time>2022-04-24T10:55:20Z</time></trkpt>
    <trkpt lat="47.16573" lon="12.92586"><ele>1634</ele><time>2022-04-24T10:55:39Z</time></trkpt>
    <trkpt lat="47.16567" lon="12.92570"><ele>1636</ele><time>2022-04-24T10:55:57Z</time></trkpt>
    <trkpt lat="47.16568" lon="12.92556"><ele>1629</ele><time>2022-04-24T10:56:15Z</time></trkpt>
    <trkpt lat="47.16554" lon="12.92534"><ele>1626</ele><time>2022-04-24T10:57:03Z</time></trkpt>
    <trkpt lat="47.16546" lon="12.92526"><ele>1627</ele><time>2022-04-24T10:57:22Z</time></trkpt>
    <trkpt lat="47.16535" lon="12.92524"><ele>1630</ele><time>2022-04-24T10:57:40Z</time></trkpt>
    <trkpt lat="47.16525" lon="12.92508"><ele>1630</ele><time>2022-04-24T11:01:40Z</time></trkpt>
    <trkpt lat="47.16535" lon="12.92487"><ele>1619</ele><time>2022-04-24T11:01:58Z</time></trkpt>
    <trkpt lat="47.16538" lon="12.92472"><ele>1614</ele><time>2022-04-24T11:02:17Z</time></trkpt>
    <trkpt lat="47.16554" lon="12.92467"><ele>1605</ele><time>2022-04-24T11:03:29Z</time></trkpt>
    <trkpt lat="47.16574" lon="12.92474"><ele>1605</ele><time>2022-04-24T11:03:47Z</time></trkpt>
    <trkpt lat="47.16590" lon="12.92472"><ele>1606</ele><time>2022-04-24T11:04:05Z</time></trkpt>
    <trkpt lat="47.16609" lon="12.92486"><ele>1607</ele><time>2022-04-24T11:04:24Z</time></trkpt>
    <trkpt lat="47.16633" lon="12.92520"><ele>1604</ele><time>2022-04-24T11:05:38Z</time></trkpt>
    <trkpt lat="47.16657" lon="12.92539"><ele>1586</ele><time>2022-04-24T11:05:57Z</time></trkpt>
    <trkpt lat="47.16645" lon="12.92520"><ele>1572</ele><time>2022-04-24T11:06:52Z</time></trkpt>
    <trkpt lat="47.16660" lon="12.92517"><ele>1569</ele><time>2022-04-24T11:07:11Z</time></trkpt>
    <trkpt lat="47.16684" lon="12.92525"><ele>1559</ele><time>2022-04-24T11:07:54Z</time></trkpt>
    <trkpt lat="47.16704" lon="12.92533"><ele>1549</ele><time>2022-04-24T11:08:13Z</time></trkpt>
    <trkpt lat="47.16711" lon="12.92545"><ele>1541</ele><time>2022-04-24T11:08:31Z</time></trkpt>
    <trkpt lat="47.16725" lon="12.92550"><ele>1535</ele><time>2022-04-24T11:08:49Z</time></trkpt>
    <trkpt lat="47.16737" lon="12.92559"><ele>1527</ele><time>2022-04-24T11:09:07Z</time></trkpt>
    <trkpt lat="47.16759" lon="12.92570"><ele>1518</ele><time>2022-04-24T11:10:12Z</time></trkpt>
    <trkpt lat="47.16771" lon="12.92567"><ele>1512</ele><time>2022-04-24T11:10:31Z</time></trkpt>
    <trkpt lat="47.16790" lon="12.92592"><ele>1490</ele><time>2022-04-24T11:10:50Z</time></trkpt>
    <trkpt lat="47.16810" lon="12.92625"><ele>1477</ele><time>2022-04-24T11:11:08Z</time></trkpt>
    <trkpt lat="47.16818" lon="12.92604"><ele>1466</ele><time>2022-04-24T11:16:35Z</time></trkpt>
    <trkpt lat="47.16831" lon="12.92628"><ele>1560</ele><time>2022-04-24T11:17:11Z</time></trkpt>
    <trkpt lat="47.16850" lon="12.92620"><ele>1474</ele><time>2022-04-24T11:17:30Z</time></trkpt>
    <trkpt lat="47.16851" lon="12.92606"><ele>1453</ele><time>2022-04-24T11:17:48Z</time></trkpt>
    <trkpt lat="47.16860" lon="12.92624"><ele>1446</ele><time>2022-04-24T11:18:06Z</time></trkpt>
    <trkpt lat="47.16867" lon="12.92636"><ele>1443</ele><time>2022-04-24T11:18:25Z</time></trkpt>
    <trkpt lat="47.16874" lon="12.92645"><ele>1446</ele><time>2022-04-24T11:18:44Z</time></trkpt>
    <trkpt lat="47.16889" lon="12.92642"><ele>1455</ele><time>2022-04-24T11:19:21Z</time></trkpt>
    <trkpt lat="47.16905" lon="12.92642"><ele>1467</ele><time>2022-04-24T11:19:39Z</time></trkpt>
    <trkpt lat="47.16918" lon="12.92625"><ele>1482</ele><time>2022-04-24T11:19:57Z</time></trkpt>
    <trkpt lat="47.16927" lon="12.92621"><ele>1493</ele><time>2022-04-24T11:20:15Z</time></trkpt>
    <trkpt lat="47.16939" lon="12.92624"><ele>1502</ele><time>2022-04-24T11:20:34Z</time></trkpt>
    <trkpt lat="47.16945" lon="12.92613"><ele>1502</ele><time>2022-04-24T11:20:52Z</time></trkpt>
    <trkpt lat="47.16934" lon="12.92626"><ele>1471</ele><time>2022-04-24T11:21:11Z</time></trkpt>
    <trkpt lat="47.16944" lon="12.92602"><ele>1458</ele><time>2022-04-24T11:21:53Z</time></trkpt>
    <trkpt lat="47.16932" lon="12.92627"><ele>1403</ele><time>2022-04-24T11:23:03Z</time></trkpt>
    <trkpt lat="47.16943" lon="12.92639"><ele>1400</ele><time>2022-04-24T11:23:22Z</time></trkpt>
    <trkpt lat="47.16949" lon="12.92621"><ele>1394</ele><time>2022-04-24T11:23:40Z</time></trkpt>
    <trkpt lat="47.16956" lon="12.92640"><ele>1347</ele><time>2022-04-24T11:24:48Z</time></trkpt>
    <trkpt lat="47.16965" lon="12.92631"><ele>1346</ele><time>2022-04-24T11:25:07Z</time></trkpt>
    <trkpt lat="47.16979" lon="12.92648"><ele>1329</ele><time>2022-04-24T11:25:47Z</time></trkpt>
    <trkpt lat="47.16986" lon="12.92633"><ele>1326</ele><time>2022-04-24T11:26:05Z</time></trkpt>
    <trkpt lat="47.16991" lon="12.92621"><ele>1315</ele><time>2022-04-24T11:26:24Z</time></trkpt>
    <trkpt lat="47.17001" lon="12.92619"><ele>1313</ele><time>2022-04-24T11:26:43Z</time></trkpt>
    <trkpt lat="47.16991" lon="12.92639"><ele>1566</ele><time>2022-04-24T11:41:43Z</time></trkpt>
    <trkpt lat="47.17008" lon="12.92658"><ele>1412</ele><time>2022-04-24T11:42:30Z</time></trkpt>
    <trkpt lat="47.17018" lon="12.92633"><ele>1489</ele><time>2022-04-24T11:43:09Z</time></trkpt>
    <trkpt lat="47.17026" lon="12.92641"><ele>1459</ele><time>2022-04-24T11:43:27Z</time></trkpt>
    <trkpt lat="47.17033" lon="12.92615"><ele>1548</ele><time>2022-04-24T11:44:23Z</time></trkpt>
    <trkpt lat="47.17042" lon="12.92607"><ele>1472</ele><time>2022-04-24T11:44:42Z</time></trkpt>
    <trkpt lat="47.17052" lon="12.92598"><ele>1459</ele><time>2022-04-24T11:45:00Z</time></trkpt>
    <trkpt lat="47.17057" lon="12.92575"><ele>1459</ele><time>2022-04-24T11:45:19Z</time></trkpt>
    <trkpt lat="47.17046" lon="12.92557"><ele>1621</ele><time>2022-04-24T11:45:38Z</time></trkpt>
    <trkpt lat="47.17038" lon="12.92543"><ele>1534</ele><time>2022-04-24T11:45:56Z</time></trkpt>
    <trkpt lat="47.17040" lon="12.92518"><ele>1511</ele><time>2022-04-24T11:46:15Z</time></trkpt>
    <trkpt lat="47.17045" lon="12.92498"><ele>1507</ele><time>2022-04-24T11:46:34Z</time></trkpt>
    <trkpt lat="47.17058" lon="12.92503"><ele>1539</ele><time>2022-04-24T11:47:18Z</time></trkpt>
    <trkpt lat="47.17054" lon="12.92480"><ele>1628</ele><time>2022-04-24T11:47:37Z</time></trkpt>
    <trkpt lat="47.17077" lon="12.92479"><ele>1587</ele><time>2022-04-24T11:48:25Z</time></trkpt>
    <trkpt lat="47.17074" lon="12.92464"><ele>1582</ele><time>2022-04-24T11:48:44Z</time></trkpt>
    <trkpt lat="47.17081" lon="12.92446"><ele>1594</ele><time>2022-04-24T11:49:03Z</time></trkpt>
    <trkpt lat="47.17090" lon="12.92446"><ele>1592</ele><time>2022-04-24T11:49:22Z</time></trkpt>
    <trkpt lat="47.17100" lon="12.92453"><ele>1609</ele><time>2022-04-24T11:53:46Z</time></trkpt>
    <trkpt lat="47.17109" lon="12.92480"><ele>1576</ele><time>2022-04-24T11:54:54Z</time></trkpt>
    <trkpt lat="47.17118" lon="12.92496"><ele>1613</ele><time>2022-04-24T11:55:12Z</time></trkpt>
    <trkpt lat="47.17124" lon="12.92511"><ele>1553</ele><time>2022-04-24T11:55:31Z</time></trkpt>
    <trkpt lat="47.17142" lon="12.92522"><ele>1439</ele><time>2022-04-24T11:56:49Z</time></trkpt>
    <trkpt lat="47.17157" lon="12.92512"><ele>1402</ele><time>2022-04-24T11:57:33Z</time></trkpt>
    <trkpt lat="47.17152" lon="12.92492"><ele>1392</ele><time>2022-04-24T11:57:52Z</time></trkpt>
    <trkpt lat="47.17145" lon="12.92474"><ele>1375</ele><time>2022-04-24T11:58:10Z</time></trkpt>
    <trkpt lat="47.17143" lon="12.92456"><ele>1361</ele><time>2022-04-24T11:58:28Z</time></trkpt>
    <trkpt lat="47.17132" lon="12.92444"><ele>1340</ele><time>2022-04-24T11:58:47Z</time></trkpt>
    <trkpt lat="47.17128" lon="12.92425"><ele>1321</ele><time>2022-04-24T11:59:05Z</time></trkpt>
    <trkpt lat="47.17147" lon="12.92413"><ele>1293</ele><time>2022-04-24T11:59:43Z</time></trkpt>
    <trkpt lat="47.17150" lon="12.92395"><ele>1272</ele><time>2022-04-24T12:00:01Z</time></trkpt>
    <trkpt lat="47.17153" lon="12.92368"><ele>1261</ele><time>2022-04-24T12:00:19Z</time></trkpt>
    <trkpt lat="47.17171" lon="12.92359"><ele>1476</ele><time>2022-04-24T12:00:38Z</time></trkpt>
    <trkpt lat="47.17188" lon="12.92358"><ele>1273</ele><time>2022-04-24T12:00:57Z</time></trkpt>
    <trkpt lat="47.17200" lon="12.92363"><ele>1240</ele><time>2022-04-24T12:01:15Z</time></trkpt>
    <trkpt lat="47.17214" lon="12.92369"><ele>1209</ele><time>2022-04-24T12:01:34Z</time></trkpt>
    <trkpt lat="47.17231" lon="12.92363"><ele>1206</ele><time>2022-04-24T12:01:52Z</time></trkpt>
    <trkpt lat="47.17249" lon="12.92349"><ele>1197</ele><time>2022-04-24T12:02:11Z</time></trkpt>
    <trkpt lat="47.17265" lon="12.92324"><ele>1183</ele><time>2022-04-24T12:02:30Z</time></trkpt>
    <trkpt lat="47.17286" lon="12.92321"><ele>1162</ele><time>2022-04-24T12:02:49Z</time></trkpt>
    <trkpt lat="47.17307" lon="12.92316"><ele>1511</ele><time>2022-04-24T12:03:08Z</time></trkpt>
    <trkpt lat="47.17327" lon="12.92309"><ele>1207</ele><time>2022-04-24T12:03:27Z</time></trkpt>
    <trkpt lat="47.17344" lon="12.92306"><ele>1159</ele><time>2022-04-24T12:03:45Z</time></trkpt>
    <trkpt lat="47.17363" lon="12.92293"><ele>1141</ele><time>2022-04-24T12:04:04Z</time></trkpt>
    <trkpt lat="47.17379" lon="12.92278"><ele>1126</ele><time>2022-04-24T12:04:22Z</time></trkpt>
    <trkpt lat="47.17397" lon="12.92266"><ele>1128</ele><time>2022-04-24T12:04:41Z</time></trkpt>
    <trkpt lat="47.17416" lon="12.92267"><ele>1125</ele><time>2022-04-24T12:04:59Z</time></trkpt>
    <trkpt lat="47.17433" lon="12.92280"><ele>1127</ele><time>2022-04-24T12:05:17Z</time></trkpt>
    <trkpt lat="47.17451" lon="12.92289"><ele>1105</ele><time>2022-04-24T12:05:36Z</time></trkpt>
    <trkpt lat="47.17471" lon="12.92300"><ele>1103</ele><time>2022-04-24T12:05:55Z</time></trkpt>
    <trkpt lat="47.17488" lon="12.92323"><ele>1095</ele><time>2022-04-24T12:06:14Z</time></trkpt>
    <trkpt lat="47.17501" lon="12.92346"><ele>1093</ele><time>2022-04-24T12:06:32Z</time></trkpt>
    <trkpt lat="47.17507" lon="12.92373"><ele>1086</ele><time>2022-04-24T12:06:51Z</time></trkpt>
    <trkpt lat="47.17521" lon="12.92400"><ele>1083</ele><time>2022-04-24T12:07:10Z</time></trkpt>
    <trkpt lat="47.17530" lon="12.92425"><ele>1086</ele><time>2022-04-24T12:07:28Z</time></trkpt>
    <trkpt lat="47.17538" lon="12.92453"><ele>1085</ele><time>2022-04-24T12:07:47Z</time></trkpt>
    <trkpt lat="47.17538" lon="12.92466"><ele>1078</ele><time>2022-04-24T12:08:41Z</time></trkpt>
    <trkpt lat="47.17544" lon="12.92500"><ele>1076</ele><time>2022-04-24T12:09:00Z</time></trkpt>
    <trkpt lat="47.17551" lon="12.92519"><ele>1073</ele><time>2022-04-24T12:09:19Z</time></trkpt>
    <trkpt lat="47.17558" lon="12.92552"><ele>1074</ele><time>2022-04-24T12:09:37Z</time></trkpt>
    <trkpt lat="47.17563" lon="12.92580"><ele>1075</ele><time>2022-04-24T12:09:56Z</time></trkpt>
    <trkpt lat="47.17569" lon="12.92605"><ele>1074</ele><time>2022-04-24T12:10:14Z</time></trkpt>
    <trkpt lat="47.17572" lon="12.92620"><ele>1070</ele><time>2022-04-24T12:10:32Z</time></trkpt>
    <trkpt lat="47.17581" lon="12.92648"><ele>1072</ele><time>2022-04-24T12:10:51Z</time></trkpt>
    <trkpt lat="47.17591" lon="12.92674"><ele>1072</ele><time>2022-04-24T12:11:09Z</time></trkpt>
    <trkpt lat="47.17606" lon="12.92694"><ele>1071</ele><time>2022-04-24T12:11:28Z</time></trkpt>
    <trkpt lat="47.17628" lon="12.92709"><ele>1074</ele><time>2022-04-24T12:11:46Z</time></trkpt>
    <trkpt lat="47.17645" lon="12.92732"><ele>1071</ele><time>2022-04-24T12:12:05Z</time></trkpt>
    <trkpt lat="47.17660" lon="12.92758"><ele>1076</ele><time>2022-04-24T12:12:23Z</time></trkpt>
    <trkpt lat="47.17677" lon="12.92778"><ele>1078</ele><time>2022-04-24T12:12:42Z</time></trkpt>
    <trkpt lat="47.17691" lon="12.92803"><ele>1078</ele><time>2022-04-24T12:13:00Z</time></trkpt>
    <trkpt lat="47.17700" lon="12.92831"><ele>1076</ele><time>2022-04-24T12:13:18Z</time></trkpt>
    <trkpt lat="47.17703" lon="12.92865"><ele>1082</ele><time>2022-04-24T12:13:36Z</time></trkpt>
    <trkpt lat="47.17714" lon="12.92893"><ele>1080</ele><time>2022-04-24T12:13:55Z</time></trkpt>
    <trkpt lat="47.17727" lon="12.92919"><ele>1073</ele><time>2022-04-24T12:14:13Z</time></trkpt>
    <trkpt lat="47.17738" lon="12.92948"><ele>1070</ele><time>2022-04-24T12:14:31Z</time></trkpt>
    <trkpt lat="47.17749" lon="12.92977"><ele>1066</ele><time>2022-04-24T12:14:50Z</time></trkpt>
    <trkpt lat="47.17761" lon="12.93005"><ele>1063</ele><time>2022-04-24T12:15:09Z</time></trkpt>
    <trkpt lat="47.17777" lon="12.93033"><ele>1066</ele><time>2022-04-24T12:15:28Z</time></trkpt>
    <trkpt lat="47.17791" lon="12.93056"><ele>1062</ele><time>2022-04-24T12:15:46Z</time></trkpt>
    <trkpt lat="47.17805" lon="12.93081"><ele>1062</ele><time>2022-04-24T12:16:05Z</time></trkpt>
    <trkpt lat="47.17821" lon="12.93100"><ele>1057</ele><time>2022-04-24T12:16:23Z</time></trkpt>
    <trkpt lat="47.17844" lon="12.93114"><ele>1064</ele><time>2022-04-24T12:16:41Z</time></trkpt>
    <trkpt lat="47.17867" lon="12.93107"><ele>1063</ele><time>2022-04-24T12:17:00Z</time></trkpt>
    <trkpt lat="47.17887" lon="12.93111"><ele>1058</ele><time>2022-04-24T12:17:18Z</time></trkpt>
    <trkpt lat="47.17908" lon="12.93119"><ele>1057</ele><time>2022-04-24T12:17:36Z</time></trkpt>
    <trkpt lat="47.17929" lon="12.93134"><ele>1057</ele><time>2022-04-24T12:17:55Z</time></trkpt>
    <trkpt lat="47.17948" lon="12.93146"><ele>1052</ele><time>2022-04-24T12:18:13Z</time></trkpt>
    <trkpt lat="47.17969" lon="12.93157"><ele>1050</ele><time>2022-04-24T12:18:32Z</time></trkpt>
    <trkpt lat="47.17989" lon="12.93171"><ele>1051</ele><time>2022-04-24T12:18:50Z</time></trkpt>
    <trkpt lat="47.17997" lon="12.93205"><ele>1047</ele><time>2022-04-24T12:19:09Z</time></trkpt>
    <trkpt lat="47.18003" lon="12.93237"><ele>1040</ele><time>2022-04-24T12:19:27Z</time></trkpt>
    <trkpt lat="47.18011" lon="12.93271"><ele>1041</ele><time>2022-04-24T12:19:46Z</time></trkpt>
    <trkpt lat="47.18016" lon="12.93307"><ele>1040</ele><time>2022-04-24T12:20:05Z</time></trkpt>
    <trkpt lat="47.18018" lon="12.93335"><ele>1036</ele><time>2022-04-24T12:20:23Z</time></trkpt>
    <trkpt lat="47.18018" lon="12.93367"><ele>1037</ele><time>2022-04-24T12:20:42Z</time></trkpt>
    <trkpt lat="47.18033" lon="12.93399"><ele>1041</ele><time>2022-04-24T12:21:01Z</time></trkpt>
    <trkpt lat="47.18048" lon="12.93428"><ele>1042</ele><time>2022-04-24T12:21:20Z</time></trkpt>
    <trkpt lat="47.18061" lon="12.93454"><ele>1041</ele><time>2022-04-24T12:21:39Z</time></trkpt>
    <trkpt lat="47.18072" lon="12.93484"><ele>1038</ele><time>2022-04-24T12:21:57Z</time></trkpt>
    <trkpt lat="47.18084" lon="12.93513"><ele>1037</ele><time>2022-04-24T12:22:15Z</time></trkpt>
    <trkpt lat="47.18098" lon="12.93541"><ele>1039</ele><time>2022-04-24T12:22:34Z</time></trkpt>
    <trkpt lat="47.18111" lon="12.93567"><ele>1042</ele><time>2022-04-24T12:22:52Z</time></trkpt>
    <trkpt lat="47.18127" lon="12.93590"><ele>1044</ele><time>2022-04-24T12:23:11Z</time></trkpt>
    <trkpt lat="47.18150" lon="12.93602"><ele>1040</ele><time>2022-04-24T12:23:30Z</time></trkpt>
    <trkpt lat="47.18174" lon="12.93608"><ele>1041</ele><time>2022-04-24T12:23:49Z</time></trkpt>
    <trkpt lat="47.18197" lon="12.93617"><ele>1041</ele><time>2022-04-24T12:24:08Z</time></trkpt>
    <trkpt lat="47.18217" lon="12.93631"><ele>1037</ele><time>2022-04-24T12:24:27Z</time></trkpt>
    <trkpt lat="47.18239" lon="12.93648"><ele>1038</ele><time>2022-04-24T12:24:45Z</time></trkpt>
    <trkpt lat="47.18259" lon="12.93667"><ele>1038</ele><time>2022-04-24T12:25:04Z</time></trkpt>
    <trkpt lat="47.18276" lon="12.93686"><ele>1035</ele><time>2022-04-24T12:25:22Z</time></trkpt>
    <trkpt lat="47.18297" lon="12.93705"><ele>1037</ele><time>2022-04-24T12:25:40Z</time></trkpt>
    <trkpt lat="47.18314" lon="12.93717"><ele>1036</ele><time>2022-04-24T12:25:59Z</time></trkpt>
    <trkpt lat="47.18331" lon="12.93735"><ele>1038</ele><time>2022-04-24T12:26:17Z</time></trkpt>
    <trkpt lat="47.18352" lon="12.93753"><ele>1041</ele><time>2022-04-24T12:26:35Z</time></trkpt>
  </trkseg>
</trk>
</gpx>