<?xml version="1.0" encoding="UTF-8"?>
<gpx version="1.1" creator="GPX-Pro" xmlns="http://www.topografix.com/GPX/1/1">
<trk>
  <name>Ski_Goldzechkopf</name>
  <trkseg>
    <trkpt lat="47.08106" lon="12.98430"><ele>1543</ele><time>2022-04-29T03:57:00Z</time></trkpt>
    <trkpt lat="47.08105" lon="12.98411"><ele>1533</ele><time>2022-04-29T03:58:51Z</time></trkpt>
    <trkpt lat="47.08093" lon="12.98316"><ele>1532</ele><time>2022-04-29T03:59:10Z</time></trkpt>
    <trkpt lat="47.08030" lon="12.98202"><ele>1560</ele><time>2022-04-29T03:59:28Z</time></trkpt>
    <trkpt lat="47.08013" lon="12.98135"><ele>1574</ele><time>2022-04-29T04:00:45Z</time></trkpt>
    <trkpt lat="47.07983" lon="12.98114"><ele>1573</ele><time>2022-04-29T04:00:59Z</time></trkpt>
    <trkpt lat="47.07947" lon="12.98087"><ele>1575</ele><time>2022-04-29T04:01:18Z</time></trkpt>
    <trkpt lat="47.07917" lon="12.98062"><ele>1573</ele><time>2022-04-29T04:01:36Z</time></trkpt>
    <trkpt lat="47.07885" lon="12.98041"><ele>1577</ele><time>2022-04-29T04:01:54Z</time></trkpt>
    <trkpt lat="47.07859" lon="12.98022"><ele>1579</ele><time>2022-04-29T04:02:12Z</time></trkpt>
    <trkpt lat="47.07837" lon="12.98005"><ele>1581</ele><time>2022-04-29T04:02:31Z</time></trkpt>
    <trkpt lat="47.07825" lon="12.97986"><ele>1585</ele><time>2022-04-29T04:02:50Z</time></trkpt>
    <trkpt lat="47.07810" lon="12.97994"><ele>1574</ele><time>2022-04-29T04:03:08Z</time></trkpt>
    <trkpt lat="47.07785" lon="12.97987"><ele>1573</ele><time>2022-04-29T04:03:26Z</time></trkpt>
    <trkpt lat="47.07765" lon="12.97994"><ele>1563</ele><time>2022-04-29T04:03:45Z</time></trkpt>
    <trkpt lat="47.07744" lon="12.98004"><ele>1567</ele><time>2022-04-29T04:04:03Z</time></trkpt>
    <trkpt lat="47.07723" lon="12.98010"><ele>1565</ele><time>2022-04-29T04:04:21Z</time></trkpt>
    <trkpt lat="47.07700" lon="12.98020"><ele>1567</ele><time>2022-04-29T04:04:40Z</time></trkpt>
    <trkpt lat="47.07680" lon="12.98028"><ele>1565</ele><time>2022-04-29T04:04:58Z</time></trkpt>
    <trkpt lat="47.07653" lon="12.98044"><ele>1573</ele><time>2022-04-29T04:05:16Z</time></trkpt>
    <trkpt lat="47.07629" lon="12.98070"><ele>1574</ele><time>2022-04-29T04:05:35Z</time></trkpt>
    <trkpt lat="47.07606" lon="12.98081"><ele>1577</ele><time>2022-04-29T04:05:53Z</time></trkpt>
    <trkpt lat="47.07583" lon="12.98089"><ele>1580</ele><time>2022-04-29T04:06:11Z</time></trkpt>
    <trkpt lat="47.07563" lon="12.98082"><ele>1583</ele><time>2022-04-29T04:06:30Z</time></trkpt>
    <trkpt lat="47.07553" lon="12.98063"><ele>1588</ele><time>2022-04-29T04:06:49Z</time></trkpt>
    <trkpt lat="47.07546" lon="12.98035"><ele>1591</ele><time>2022-04-29T04:07:07Z</time></trkpt>
    <trkpt lat="47.07529" lon="12.98019"><ele>1589</ele><time>2022-04-29T04:07:25Z</time></trkpt>
    <trkpt lat="47.07510" lon="12.98003"><ele>1588</ele><time>2022-04-29T04:07:43Z</time></trkpt>
    <trkpt lat="47.07501" lon="12.97979"><ele>1590</ele><time>2022-04-29T04:08:02Z</time></trkpt>
    <trkpt lat="47.07502" lon="12.97955"><ele>1593</ele><time>2022-04-29T04:10:01Z</time></trkpt>
    <trkpt lat="47.07491" lon="12.97924"><ele>1596</ele><time>2022-04-29T04:10:53Z</time></trkpt>
    <trkpt lat="47.07487" lon="12.97898"><ele>1598</ele><time>2022-04-29T04:11:12Z</time></trkpt>
    <trkpt lat="47.07470" lon="12.97882"><ele>1598</ele><time>2022-04-29T04:11:30Z</time></trkpt>
    <trkpt lat="47.07457" lon="12.97868"><ele>1595</ele><time>2022-04-29T04:11:49Z</time></trkpt>
    <trkpt lat="47.07441" lon="12.97841"><ele>1602</ele><time>2022-04-29T04:14:42Z</time></trkpt>
    <trkpt lat="47.07431" lon="12.97814"><ele>1604</ele><time>2022-04-29T04:15:01Z</time></trkpt>
    <trkpt lat="47.07420" lon="12.97793"><ele>1604</ele><time>2022-04-29T04:15:19Z</time></trkpt>
    <trkpt lat="47.07407" lon="12.97771"><ele>1603</ele><time>2022-04-29T04:15:38Z</time></trkpt>
    <trkpt lat="47.07392" lon="12.97746"><ele>1606</ele><time>2022-04-29T04:15:57Z</time></trkpt>
    <trkpt lat="47.07374" lon="12.97729"><ele>1610</ele><time>2022-04-29T04:16:15Z</time></trkpt>
    <trkpt lat="47.07357" lon="12.97713"><ele>1612</ele><time>2022-04-29T04:16:34Z</time></trkpt>
    <trkpt lat="47.07341" lon="12.97698"><ele>1612</ele><time>2022-04-29T04:16:53Z</time></trkpt>
    <trkpt lat="47.07327" lon="12.97683"><ele>1611</ele><time>2022-04-29T04:17:11Z</time></trkpt>
    <trkpt lat="47.07311" lon="12.97672"><ele>1614</ele><time>2022-04-29T04:17:29Z</time></trkpt>
    <trkpt lat="47.07299" lon="12.97654"><ele>1612</ele><time>2022-04-29T04:17:47Z</time></trkpt>
    <trkpt lat="47.07286" lon="12.97633"><ele>1618</ele><time>2022-04-29T04:18:06Z</time></trkpt>
    <trkpt lat="47.07270" lon="12.97620"><ele>1619</ele><time>2022-04-29T04:18:24Z</time></trkpt>
    <trkpt lat="47.07254" lon="12.97611"><ele>1620</ele><time>2022-04-29T04:18:43Z</time></trkpt>
    <trkpt lat="47.07237" lon="12.97603"><ele>1621</ele><time>2022-04-29T04:19:01Z</time></trkpt>
    <trkpt lat="47.07223" lon="12.97591"><ele>1620</ele><time>2022-04-29T04:19:19Z</time></trkpt>
    <trkpt lat="47.07206" lon="12.97581"><ele>1625</ele><time>2022-04-29T04:19:38Z</time></trkpt>
    <trkpt lat="47.07195" lon="12.97580"><ele>1630</ele><time>2022-04-29T04:19:56Z</time></trkpt>
    <trkpt lat="47.07179" lon="12.97573"><ele>1629</ele><time>2022-04-29T04:20:15Z</time></trkpt>
    <trkpt lat="47.07165" lon="12.97568"><ele>1624</ele><time>2022-04-29T04:20:34Z</time></trkpt>
    <trkpt lat="47.07155" lon="12.97560"><ele>1623</ele><time>2022-04-29T04:20:53Z</time></trkpt>
    <trkpt lat="47.07140" lon="12.97553"><ele>1627</ele><time>2022-04-29T04:21:11Z</time></trkpt>
    <trkpt lat="47.07127" lon="12.97546"><ele>1631</ele><time>2022-04-29T04:21:30Z</time></trkpt>
    <trkpt lat="47.07113" lon="12.97540"><ele>1636</ele><time>2022-04-29T04:21:49Z</time></trkpt>
    <trkpt lat="47.07099" lon="12.97532"><ele>1639</ele><time>2022-04-29T04:22:07Z</time></trkpt>
    <trkpt lat="47.07085" lon="12.97523"><ele>1647</ele><time>2022-04-29T04:22:26Z</time></trkpt>
    <trkpt lat="47.07073" lon="12.97511"><ele>1652</ele><time>2022-04-29T04:22:45Z</time></trkpt>
    <trkpt lat="47.07064" lon="12.97499"><ele>1651</ele><time>2022-04-29T04:23:03Z</time></trkpt>
    <trkpt lat="47.07055" lon="12.97481"><ele>1658</ele><time>2022-04-29T04:23:22Z</time></trkpt>
    <trkpt lat="47.07049" lon="12.97464"><ele>1661</ele><time>2022-04-29T04:23:40Z</time></trkpt>
    <trkpt lat="47.07039" lon="12.97448"><ele>1668</ele><time>2022-04-29T04:23:58Z</time></trkpt>
    <trkpt lat="47.07032" lon="12.97434"><ele>1673</ele><time>2022-04-29T04:24:17Z</time></trkpt>
    <trkpt lat="47.07023" lon="12.97420"><ele>1674</ele><time>2022-04-29T04:24:36Z</time></trkpt>
    <trkpt lat="47.07012" lon="12.97405"><ele>1677</ele><time>2022-04-29T04:24:55Z</time></trkpt>
    <trkpt lat="47.07003" lon="12.97390"><ele>1678</ele><time>2022-04-29T04:25:13Z</time></trkpt>
    <trkpt lat="47.06998" lon="12.97374"><ele>1684</ele><time>2022-04-29T04:25:32Z</time></trkpt>
    <trkpt lat="47.06988" lon="12.97360"><ele>1688</ele><time>2022-04-29T04:25:51Z</time></trkpt>
    <trkpt lat="47.06979" lon="12.97348"><ele>1692</ele><time>2022-04-29T04:26:09Z</time></trkpt>
    <trkpt lat="47.06979" lon="12.97328"><ele>1695</ele><time>2022-04-29T04:26:28Z</time></trkpt>
    <trkpt lat="47.06972" lon="12.97314"><ele>1697</ele><time>2022-04-29T04:26:46Z</time></trkpt>
    <trkpt lat="47.06964" lon="12.97299"><ele>1698</ele><time>2022-04-29T04:27:05Z</time></trkpt>
    <trkpt lat="47.06954" lon="12.97288"><ele>1703</ele><time>2022-04-29T04:27:24Z</time></trkpt>
    <trkpt lat="47.06944" lon="12.97275"><ele>1707</ele><time>2022-04-29T04:27:42Z</time></trkpt>
    <trkpt lat="47.06933" lon="12.97262"><ele>1709</ele><time>2022-04-29T04:28:00Z</time></trkpt>
    <trkpt lat="47.06925" lon="12.97248"><ele>1707</ele><time>2022-04-29T04:28:19Z</time></trkpt>
    <trkpt lat="47.06917" lon="12.97236"><ele>1715</ele><time>2022-04-29T04:28:38Z</time></trkpt>
    <trkpt lat="47.06907" lon="12.97225"><ele>1720</ele><time>2022-04-29T04:28:57Z</time></trkpt>
    <trkpt lat="47.06899" lon="12.97215"><ele>1725</ele><time>2022-04-29T04:29:15Z</time></trkpt>
    <trkpt lat="47.06892" lon="12.97202"><ele>1724</ele><time>2022-04-29T04:29:34Z</time></trkpt>
    <trkpt lat="47.06879" lon="12.97188"><ele>1724</ele><time>2022-04-29T04:29:53Z</time></trkpt>
    <trkpt lat="47.06868" lon="12.97175"><ele>1729</ele><time>2022-04-29T04:30:12Z</time></trkpt>
    <trkpt lat="47.06855" lon="12.97168"><ele>1734</ele><time>2022-04-29T04:30:31Z</time></trkpt>
    <trkpt lat="47.06844" lon="12.97162"><ele>1736</ele><time>2022-04-29T04:30:49Z</time></trkpt>
    <trkpt lat="47.06833" lon="12.97167"><ele>1739</ele><time>2022-04-29T04:31:08Z</time></trkpt>
    <trkpt lat="47.06831" lon="12.97194"><ele>1740</ele><time>2022-04-29T04:31:45Z</time></trkpt>
    <trkpt lat="47.06818" lon="12.97187"><ele>1750</ele><time>2022-04-29T04:32:32Z</time></trkpt>
    <trkpt lat="47.06804" lon="12.97188"><ele>1756</ele><time>2022-04-29T04:32:51Z</time></trkpt>
    <trkpt lat="47.06789" lon="12.97186"><ele>1762</ele><time>2022-04-29T04:33:10Z</time></trkpt>
    <trkpt lat="47.06781" lon="12.97177"><ele>1765</ele><time>2022-04-29T04:33:28Z</time></trkpt>
    <trkpt lat="47.06770" lon="12.97180"><ele>1767</ele><time>2022-04-29T04:33:47Z</time></trkpt>
    <trkpt lat="47.06770" lon="12.97195"><ele>1767</ele><time>2022-04-29T04:34:05Z</time></trkpt>
    <trkpt lat="47.06771" lon="12.97218"><ele>1771</ele><time>2022-04-29T04:34:24Z</time></trkpt>
    <trkpt lat="47.06782" lon="12.97235"><ele>1780</ele><time>2022-04-29T04:34:42Z</time></trkpt>
    <trkpt lat="47.06776" lon="12.97252"><ele>1784</ele><time>2022-04-29T04:35:00Z</time></trkpt>
    <trkpt lat="47.06767" lon="12.97271"><ele>1790</ele><time>2022-04-29T04:35:19Z</time></trkpt>
    <trkpt lat="47.06750" lon="12.97290"><ele>1799</ele><time>2022-04-29T04:36:04Z</time></trkpt>
    <trkpt lat="47.06746" lon="12.97310"><ele>1802</ele><time>2022-04-29T04:36:23Z</time></trkpt>
    <trkpt lat="47.06741" lon="12.97334"><ele>1807</ele><time>2022-04-29T04:36:42Z</time></trkpt>
    <trkpt lat="47.06734" lon="12.97355"><ele>1808</ele><time>2022-04-29T04:37:01Z</time></trkpt>
    <trkpt lat="47.06731" lon="12.97371"><ele>1811</ele><time>2022-04-29T04:37:19Z</time></trkpt>
    <trkpt lat="47.06726" lon="12.97387"><ele>1813</ele><time>2022-04-29T04:37:37Z</time></trkpt>
    <trkpt lat="47.06718" lon="12.97401"><ele>1817</ele><time>2022-04-29T04:37:55Z</time></trkpt>
    <trkpt lat="47.06707" lon="12.97400"><ele>1823</ele><time>2022-04-29T04:38:14Z</time></trkpt>
    <trkpt lat="47.06698" lon="12.97406"><ele>1827</ele><time>2022-04-29T04:38:32Z</time></trkpt>
    <trkpt lat="47.06695" lon="12.97381"><ele>1828</ele><time>2022-04-29T04:39:11Z</time></trkpt>
    <trkpt lat="47.06693" lon="12.97364"><ele>1832</ele><time>2022-04-29T04:39:30Z</time></trkpt>
    <trkpt lat="47.06682" lon="12.97360"><ele>1839</ele><time>2022-04-29T04:39:49Z</time></trkpt>
    <trkpt lat="47.06674" lon="12.97352"><ele>1843</ele><time>2022-04-29T04:40:08Z</time></trkpt>
    <trkpt lat="47.06667" lon="12.97337"><ele>1847</ele><time>2022-04-29T04:40:26Z</time></trkpt>
    <trkpt lat="47.06668" lon="12.97318"><ele>1852</ele><time>2022-04-29T04:40:45Z</time></trkpt>
    <trkpt lat="47.06664" lon="12.97301"><ele>1852</ele><time>2022-04-29T04:41:04Z</time></trkpt>
    <trkpt lat="47.06664" lon="12.97283"><ele>1857</ele><time>2022-04-29T04:41:22Z</time></trkpt>
    <trkpt lat="47.06650" lon="12.97277"><ele>1869</ele><time>2022-04-29T04:42:59Z</time></trkpt>
    <trkpt lat="47.06641" lon="12.97299"><ele>1872</ele><time>2022-04-29T04:43:50Z</time></trkpt>
    <trkpt lat="47.06637" lon="12.97318"><ele>1876</ele><time>2022-04-29T04:44:09Z</time></trkpt>
    <trkpt lat="47.06629" lon="12.97309"><ele>1879</ele><time>2022-04-29T04:44:27Z</time></trkpt>
    <trkpt lat="47.06620" lon="12.97299"><ele>1882</ele><time>2022-04-29T04:44:45Z</time></trkpt>
    <trkpt lat="47.06612" lon="12.97273"><ele>1890</ele><time>2022-04-29T04:45:23Z</time></trkpt>
    <trkpt lat="47.06595" lon="12.97257"><ele>1894</ele><time>2022-04-29T04:47:25Z</time></trkpt>
    <trkpt lat="47.06586" lon="12.97244"><ele>1898</ele><time>2022-04-29T04:47:43Z</time></trkpt>
    <trkpt lat="47.06577" lon="12.97231"><ele>1896</ele><time>2022-04-29T04:48:01Z</time></trkpt>
    <trkpt lat="47.06567" lon="12.97220"><ele>1899</ele><time>2022-04-29T04:48:20Z</time></trkpt>
    <trkpt lat="47.06558" lon="12.97219"><ele>1902</ele><time>2022-04-29T04:48:39Z</time></trkpt>
    <trkpt lat="47.06548" lon="12.97212"><ele>1907</ele><time>2022-04-29T04:48:57Z</time></trkpt>
    <trkpt lat="47.06529" lon="12.97205"><ele>1911</ele><time>2022-04-29T04:49:35Z</time></trkpt>
    <trkpt lat="47.06519" lon="12.97197"><ele>1912</ele><time>2022-04-29T04:49:53Z</time></trkpt>
    <trkpt lat="47.06509" lon="12.97191"><ele>1916</ele><time>2022-04-29T04:50:12Z</time></trkpt>
    <trkpt lat="47.06492" lon="12.97178"><ele>1926</ele><time>2022-04-29T04:50:50Z</time></trkpt>
    <trkpt lat="47.06474" lon="12.97166"><ele>1933</ele><time>2022-04-29T04:51:28Z</time></trkpt>
    <trkpt lat="47.06465" lon="12.97163"><ele>1937</ele><time>2022-04-29T04:51:47Z</time></trkpt>
    <trkpt lat="47.06448" lon="12.97174"><ele>1946</ele><time>2022-04-29T04:52:31Z</time></trkpt>
    <trkpt lat="47.06439" lon="12.97177"><ele>1950</ele><time>2022-04-29T04:52:50Z</time></trkpt>
    <trkpt lat="47.06427" lon="12.97181"><ele>1955</ele><time>2022-04-29T04:53:09Z</time></trkpt>
    <trkpt lat="47.06422" lon="12.97166"><ele>1957</ele><time>2022-04-29T04:53:28Z</time></trkpt>
    <trkpt lat="47.06418" lon="12.97152"><ele>1963</ele><time>2022-04-29T04:53:46Z</time></trkpt>
    <trkpt lat="47.06421" lon="12.97135"><ele>1967</ele><time>2022-04-29T04:54:05Z</time></trkpt>
    <trkpt lat="47.06419" lon="12.97117"><ele>1969</ele><time>2022-04-29T04:54:23Z</time></trkpt>
    <trkpt lat="47.06414" lon="12.97088"><ele>1976</ele><time>2022-04-29T04:55:01Z</time></trkpt>
    <trkpt lat="47.06411" lon="12.97074"><ele>1978</ele><time>2022-04-29T04:55:19Z</time></trkpt>
    <trkpt lat="47.06405" lon="12.97060"><ele>1978</ele><time>2022-04-29T04:55:38Z</time></trkpt>
    <trkpt lat="47.06401" lon="12.97044"><ele>1982</ele><time>2022-04-29T04:55:56Z</time></trkpt>
    <trkpt lat="47.06398" lon="12.97026"><ele>1986</ele><time>2022-04-29T04:56:14Z</time></trkpt>
    <trkpt lat="47.06395" lon="12.97001"><ele>1995</ele><time>2022-04-29T04:56:51Z</time></trkpt>
    <trkpt lat="47.06389" lon="12.96986"><ele>1996</ele><time>2022-04-29T04:57:09Z</time></trkpt>
    <trkpt lat="47.06385" lon="12.96971"><ele>1999</ele><time>2022-04-29T04:57:28Z</time></trkpt>
    <trkpt lat="47.06382" lon="12.96957"><ele>2003</ele><time>2022-04-29T04:57:46Z</time></trkpt>
    <trkpt lat="47.06377" lon="12.96945"><ele>2004</ele><time>2022-04-29T04:58:04Z</time></trkpt>
    <trkpt lat="47.06373" lon="12.96929"><ele>2007</ele><time>2022-04-29T04:58:23Z</time></trkpt>
    <trkpt lat="47.06372" lon="12.96914"><ele>2010</ele><time>2022-04-29T04:58:41Z</time></trkpt>
    <trkpt lat="47.06364" lon="12.96899"><ele>2012</ele><time>2022-04-29T04:59:00Z</time></trkpt>
    <trkpt lat="47.06360" lon="12.96884"><ele>2016</ele><time>2022-04-29T04:59:19Z</time></trkpt>
    <trkpt lat="47.06359" lon="12.96866"><ele>2019</ele><time>2022-04-29T04:59:37Z</time></trkpt>
    <trkpt lat="47.06356" lon="12.96847"><ele>2023</ele><time>2022-04-29T04:59:56Z</time></trkpt>
    <trkpt lat="47.06353" lon="12.96830"><ele>2024</ele><time>2022-04-29T05:00:14Z</time></trkpt>
    <trkpt lat="47.06344" lon="12.96819"><ele>2028</ele><time>2022-04-29T05:00:33Z</time></trkpt>
    <trkpt lat="47.06334" lon="12.96796"><ele>2035</ele><time>2022-04-29T05:01:12Z</time></trkpt>
    <trkpt lat="47.06321" lon="12.96784"><ele>2041</ele><time>2022-04-29T05:01:56Z</time></trkpt>
    <trkpt lat="47.06313" lon="12.96778"><ele>2043</ele><time>2022-04-29T05:02:14Z</time></trkpt>
    <trkpt lat="47.06299" lon="12.96773"><ele>2052</ele><time>2022-04-29T05:02:55Z</time></trkpt>
    <trkpt lat="47.06297" lon="12.96760"><ele>2052</ele><time>2022-04-29T05:03:13Z</time></trkpt>
    <trkpt lat="47.06301" lon="12.96745"><ele>2057</ele><time>2022-04-29T05:03:31Z</time></trkpt>
    <trkpt lat="47.06302" lon="12.96727"><ele>2061</ele><time>2022-04-29T05:03:50Z</time></trkpt>
    <trkpt lat="47.06286" lon="12.96724"><ele>2067</ele><time>2022-04-29T05:04:37Z</time></trkpt>
    <trkpt lat="47.06276" lon="12.96724"><ele>2067</ele><time>2022-04-29T05:04:56Z</time></trkpt>
    <trkpt lat="47.06259" lon="12.96723"><ele>2076</ele><time>2022-04-29T05:05:41Z</time></trkpt>
    <trkpt lat="47.06243" lon="12.96722"><ele>2085</ele><time>2022-04-29T05:06:26Z</time></trkpt>
    <trkpt lat="47.06232" lon="12.96708"><ele>2094</ele><time>2022-04-29T05:07:06Z</time></trkpt>
    <trkpt lat="47.06222" lon="12.96712"><ele>2095</ele><time>2022-04-29T05:07:25Z</time></trkpt>
    <trkpt lat="47.06212" lon="12.96712"><ele>2097</ele><time>2022-04-29T05:07:44Z</time></trkpt>
    <trkpt lat="47.06205" lon="12.96704"><ele>2106</ele><time>2022-04-29T05:08:03Z</time></trkpt>
    <trkpt lat="47.06195" lon="12.96703"><ele>2109</ele><time>2022-04-29T05:08:21Z</time></trkpt>
    <trkpt lat="47.06194" lon="12.96689"><ele>2113</ele><time>2022-04-29T05:08:39Z</time></trkpt>
    <trkpt lat="47.06190" lon="12.96663"><ele>2124</ele><time>2022-04-29T05:09:24Z</time></trkpt>
    <trkpt lat="47.06186" lon="12.96636"><ele>2130</ele><time>2022-04-29T05:10:07Z</time></trkpt>
    <trkpt lat="47.06192" lon="12.96625"><ele>2130</ele><time>2022-04-29T05:10:25Z</time></trkpt>
    <trkpt lat="47.06195" lon="12.96608"><ele>2132</ele><time>2022-04-29T05:10:44Z</time></trkpt>
    <trkpt lat="47.06202" lon="12.96594"><ele>2136</ele><time>2022-04-29T05:11:03Z</time></trkpt>
    <trkpt lat="47.06209" lon="12.96581"><ele>2139</ele><time>2022-04-29T05:11:21Z</time></trkpt>
    <trkpt lat="47.06216" lon="12.96570"><ele>2145</ele><time>2022-04-29T05:11:39Z</time></trkpt>
    <trkpt lat="47.06220" lon="12.96554"><ele>2145</ele><time>2022-04-29T05:11:58Z</time></trkpt>
    <trkpt lat="47.06226" lon="12.96538"><ele>2151</ele><time>2022-04-29T05:12:17Z</time></trkpt>
    <trkpt lat="47.06235" lon="12.96517"><ele>2153</ele><time>2022-04-29T05:12:55Z</time></trkpt>
    <trkpt lat="47.06239" lon="12.96501"><ele>2156</ele><time>2022-04-29T05:13:13Z</time></trkpt>
    <trkpt lat="47.06249" lon="12.96475"><ele>2161</ele><time>2022-04-29T05:13:59Z</time></trkpt>
    <trkpt lat="47.06253" lon="12.96459"><ele>2162</ele><time>2022-04-29T05:14:17Z</time></trkpt>
    <trkpt lat="47.06261" lon="12.96429"><ele>2162</ele><time>2022-04-29T05:14:56Z</time></trkpt>
    <trkpt lat="47.06262" lon="12.96410"><ele>2164</ele><time>2022-04-29T05:15:14Z</time></trkpt>
    <trkpt lat="47.06243" lon="12.96420"><ele>2161</ele><time>2022-04-29T05:16:06Z</time></trkpt>
    <trkpt lat="47.06243" lon="12.96389"><ele>2169</ele><time>2022-04-29T05:16:44Z</time></trkpt>
    <trkpt lat="47.06247" lon="12.96375"><ele>2172</ele><time>2022-04-29T05:17:02Z</time></trkpt>
    <trkpt lat="47.06241" lon="12.96385"><ele>2179</ele><time>2022-04-29T05:17:20Z</time></trkpt>
    <trkpt lat="47.06236" lon="12.96362"><ele>2189</ele><time>2022-04-29T05:18:07Z</time></trkpt>
    <trkpt lat="47.06235" lon="12.96349"><ele>2194</ele><time>2022-04-29T05:18:26Z</time></trkpt>
    <trkpt lat="47.06237" lon="12.96335"><ele>2198</ele><time>2022-04-29T05:18:44Z</time></trkpt>
    <trkpt lat="47.06233" lon="12.96312"><ele>2207</ele><time>2022-04-29T05:19:33Z</time></trkpt>
    <trkpt lat="47.06228" lon="12.96286"><ele>2208</ele><time>2022-04-29T05:20:28Z</time></trkpt>
    <trkpt lat="47.06224" lon="12.96272"><ele>2209</ele><time>2022-04-29T05:20:47Z</time></trkpt>
    <trkpt lat="47.06222" lon="12.96259"><ele>2215</ele><time>2022-04-29T05:21:05Z</time></trkpt>
    <trkpt lat="47.06216" lon="12.96234"><ele>2222</ele><time>2022-04-29T05:21:42Z</time></trkpt>
    <trkpt lat="47.06213" lon="12.96221"><ele>2223</ele><time>2022-04-29T05:22:01Z</time></trkpt>
    <trkpt lat="47.06204" lon="12.96197"><ele>2231</ele><time>2022-04-29T05:22:38Z</time></trkpt>
    <trkpt lat="47.06195" lon="12.96175"><ele>2237</ele><time>2022-04-29T05:23:21Z</time></trkpt>
    <trkpt lat="47.06188" lon="12.96160"><ele>2238</ele><time>2022-04-29T05:23:41Z</time></trkpt>
    <trkpt lat="47.06184" lon="12.96135"><ele>2246</ele><time>2022-04-29T05:24:18Z</time></trkpt>
    <trkpt lat="47.06180" lon="12.96111"><ele>2251</ele><time>2022-04-29T05:24:56Z</time></trkpt>
    <trkpt lat="47.06177" lon="12.96097"><ele>2253</ele><time>2022-04-29T05:25:15Z</time></trkpt>
    <trkpt lat="47.06176" lon="12.96081"><ele>2254</ele><time>2022-04-29T05:25:33Z</time></trkpt>
    <trkpt lat="47.06175" lon="12.96068"><ele>2233</ele><time>2022-04-29T05:26:04Z</time></trkpt>
    <trkpt lat="47.06174" lon="12.96019"><ele>2252</ele><time>2022-04-29T05:26:42Z</time></trkpt>
    <trkpt lat="47.06176" lon="12.95995"><ele>2251</ele><time>2022-04-29T05:27:01Z</time></trkpt>
    <trkpt lat="47.06175" lon="12.95973"><ele>2254</ele><time>2022-04-29T05:27:20Z</time></trkpt>
    <trkpt lat="47.06175" lon="12.95949"><ele>2255</ele><time>2022-04-29T05:27:39Z</time></trkpt>
    <trkpt lat="47.06173" lon="12.95927"><ele>2255</ele><time>2022-04-29T05:27:57Z</time></trkpt>
    <trkpt lat="47.06174" lon="12.95905"><ele>2249</ele><time>2022-04-29T05:28:15Z</time></trkpt>
    <trkpt lat="47.06170" lon="12.95886"><ele>2244</ele><time>2022-04-29T05:28:34Z</time></trkpt>
    <trkpt lat="47.06168" lon="12.95853"><ele>2210</ele><time>2022-04-29T05:29:12Z</time></trkpt>
    <trkpt lat="47.06168" lon="12.95836"><ele>2228</ele><time>2022-04-29T05:29:31Z</time></trkpt>
    <trkpt lat="47.06167" lon="12.95818"><ele>2237</ele><time>2022-04-29T05:29:50Z</time></trkpt>
    <trkpt lat="47.06165" lon="12.95803"><ele>2244</ele><time>2022-04-29T05:30:08Z</time></trkpt>
    <trkpt lat="47.06163" lon="12.95786"><ele>2245</ele><time>2022-04-29T05:30:27Z</time></trkpt>
    <trkpt lat="47.06161" lon="12.95768"><ele>2240</ele><time>2022-04-29T05:30:45Z</time></trkpt>
    <trkpt lat="47.06158" lon="12.95752"><ele>2246</ele><time>2022-04-29T05:31:04Z</time></trkpt>
    <trkpt lat="47.06153" lon="12.95733"><ele>2250</ele><time>2022-04-29T05:31:23Z</time></trkpt>
    <trkpt lat="47.06148" lon="12.95712"><ele>2249</ele><time>2022-04-29T05:31:41Z</time></trkpt>
    <trkpt lat="47.06149" lon="12.95691"><ele>2247</ele><time>2022-04-29T05:32:00Z</time></trkpt>
    <trkpt lat="47.06151" lon="12.95665"><ele>2242</ele><time>2022-04-29T05:32:19Z</time></trkpt>
    <trkpt lat="47.06152" lon="12.95651"><ele>2247</ele><time>2022-04-29T05:32:37Z</time></trkpt>
    <trkpt lat="47.06149" lon="12.95637"><ele>2252</ele><time>2022-04-29T05:32:56Z</time></trkpt>
    <trkpt lat="47.06147" lon="12.95620"><ele>2252</ele><time>2022-04-29T05:33:14Z</time></trkpt>
    <trkpt lat="47.06139" lon="12.95584"><ele>2264</ele><time>2022-04-29T05:34:17Z</time></trkpt>
    <trkpt lat="47.06138" lon="12.95564"><ele>2266</ele><time>2022-04-29T05:34:36Z</time></trkpt>
    <trkpt lat="47.06137" lon="12.95550"><ele>2267</ele><time>2022-04-29T05:34:54Z</time></trkpt>
    <trkpt lat="47.06140" lon="12.95513"><ele>2249</ele><time>2022-04-29T05:35:31Z</time></trkpt>
    <trkpt lat="47.06138" lon="12.95495"><ele>2275</ele><time>2022-04-29T05:35:50Z</time></trkpt>
    <trkpt lat="47.06138" lon="12.95456"><ele>2237</ele><time>2022-04-29T05:36:27Z</time></trkpt>
    <trkpt lat="47.06138" lon="12.95436"><ele>2271</ele><time>2022-04-29T05:36:46Z</time></trkpt>
    <trkpt lat="47.06136" lon="12.95400"><ele>2264</ele><time>2022-04-29T05:37:24Z</time></trkpt>
    <trkpt lat="47.06137" lon="12.95362"><ele>2243</ele><time>2022-04-29T05:38:03Z</time></trkpt>
    <trkpt lat="47.06139" lon="12.95344"><ele>2288</ele><time>2022-04-29T05:38:21Z</time></trkpt>
    <trkpt lat="47.06140" lon="12.95320"><ele>2307</ele><time>2022-04-29T05:38:40Z</time></trkpt>
    <trkpt lat="47.06143" lon="12.95298"><ele>2314</ele><time>2022-04-29T05:38:59Z</time></trkpt>
    <trkpt lat="47.06147" lon="12.95281"><ele>2325</ele><time>2022-04-29T05:39:17Z</time></trkpt>
    <trkpt lat="47.06154" lon="12.95262"><ele>2331</ele><time>2022-04-29T05:39:36Z</time></trkpt>
    <trkpt lat="47.06162" lon="12.95240"><ele>2333</ele><time>2022-04-29T05:40:13Z</time></trkpt>
    <trkpt lat="47.06175" lon="12.95221"><ele>2349</ele><time>2022-04-29T05:40:56Z</time></trkpt>
    <trkpt lat="47.06179" lon="12.95206"><ele>2355</ele><time>2022-04-29T05:41:14Z</time></trkpt>
    <trkpt lat="47.06188" lon="12.95162"><ele>2338</ele><time>2022-04-29T05:42:35Z</time></trkpt>
    <trkpt lat="47.06193" lon="12.95141"><ele>2388</ele><time>2022-04-29T05:43:52Z</time></trkpt>
    <trkpt lat="47.06175" lon="12.95140"><ele>2395</ele><time>2022-04-29T05:44:33Z</time></trkpt>
    <trkpt lat="47.06160" lon="12.95130"><ele>2399</ele><time>2022-04-29T05:45:12Z</time></trkpt>
    <trkpt lat="47.06141" lon="12.95129"><ele>2401</ele><time>2022-04-29T05:45:53Z</time></trkpt>
    <trkpt lat="47.06139" lon="12.95109"><ele>2403</ele><time>2022-04-29T05:46:29Z</time></trkpt>
    <trkpt lat="47.06161" lon="12.95047"><ele>2381</ele><time>2022-04-29T05:47:43Z</time></trkpt>
    <trkpt lat="47.06176" lon="12.95032"><ele>2389</ele><time>2022-04-29T05:48:21Z</time></trkpt>
    <trkpt lat="47.06184" lon="12.95028"><ele>2397</ele><time>2022-04-29T05:48:39Z</time></trkpt>
    <trkpt lat="47.06169" lon="12.95024"><ele>2405</ele><time>2022-04-29T05:50:01Z</time></trkpt>
    <trkpt lat="47.06153" lon="12.95011"><ele>2408</ele><time>2022-04-29T05:50:38Z</time></trkpt>
    <trkpt lat="47.06168" lon="12.94986"><ele>2406</ele><time>2022-04-29T05:51:17Z</time></trkpt>
    <trkpt lat="47.06177" lon="12.94977"><ele>2410</ele><time>2022-04-29T05:51:36Z</time></trkpt>
    <trkpt lat="47.06167" lon="12.94966"><ele>2436</ele><time>2022-04-29T05:53:00Z</time></trkpt>
    <trkpt lat="47.06157" lon="12.94966"><ele>2439</ele><time>2022-04-29T05:53:18Z</time></trkpt>
    <trkpt lat="47.06172" lon="12.94944"><ele>2450</ele><time>2022-04-29T05:53:56Z</time></trkpt>
    <trkpt lat="47.06181" lon="12.94932"><ele>2444</ele><time>2022-04-29T05:54:14Z</time></trkpt>
    <trkpt lat="47.06198" lon="12.94937"><ele>2452</ele><time>2022-04-29T05:54:53Z</time></trkpt>
    <trkpt lat="47.06207" lon="12.94939"><ele>2458</ele><time>2022-04-29T05:55:11Z</time></trkpt>
    <trkpt lat="47.06224" lon="12.94934"><ele>2467</ele><time>2022-04-29T05:55:49Z</time></trkpt>
    <trkpt lat="47.06238" lon="12.94919"><ele>2462</ele><time>2022-04-29T05:56:27Z</time></trkpt>
    <trkpt lat="47.06222" lon="12.94907"><ele>2467</ele><time>2022-04-29T05:57:49Z</time></trkpt>
    <trkpt lat="47.06239" lon="12.94894"><ele>2466</ele><time>2022-04-29T05:58:28Z</time></trkpt>
    <trkpt lat="47.06224" lon="12.94887"><ele>2482</ele><time>2022-04-29T05:59:43Z</time></trkpt>
    <trkpt lat="47.06230" lon="12.94877"><ele>2485</ele><time>2022-04-29T06:00:19Z</time></trkpt>
    <trkpt lat="47.06238" lon="12.94864"><ele>2484</ele><time>2022-04-29T06:00:38Z</time></trkpt>
    <trkpt lat="47.06228" lon="12.94859"><ele>2494</ele><time>2022-04-29T06:01:45Z</time></trkpt>
    <trkpt lat="47.06240" lon="12.94838"><ele>2502</ele><time>2022-04-29T06:02:39Z</time></trkpt>
    <trkpt lat="47.06249" lon="12.94821"><ele>2524</ele><time>2022-04-29T06:05:16Z</time></trkpt>
    <trkpt lat="47.06249" lon="12.94800"><ele>2533</ele><time>2022-04-29T06:08:32Z</time></trkpt>
    <trkpt lat="47.06238" lon="12.94797"><ele>2547</ele><time>2022-04-29T06:10:56Z</time></trkpt>
    <trkpt lat="47.06228" lon="12.94791"><ele>2560</ele><time>2022-04-29T06:13:42Z</time></trkpt>
    <trkpt lat="47.06238" lon="12.94770"><ele>2562</ele><time>2022-04-29T06:15:23Z</time></trkpt>
    <trkpt lat="47.06225" lon="12.94787"><ele>2561</ele><time>2022-04-29T06:17:23Z</time></trkpt>
    <trkpt lat="47.06215" lon="12.94790"><ele>2564</ele><time>2022-04-29T06:17:53Z</time></trkpt>
    <trkpt lat="47.06205" lon="12.94771"><ele>2563</ele><time>2022-04-29T06:18:58Z</time></trkpt>
    <trkpt lat="47.06196" lon="12.94782"><ele>2582</ele><time>2022-04-29T06:21:38Z</time></trkpt>
    <trkpt lat="47.06202" lon="12.94770"><ele>2578</ele><time>2022-04-29T06:22:30Z</time></trkpt>
    <trkpt lat="47.06190" lon="12.94757"><ele>2585</ele><time>2022-04-29T06:23:39Z</time></trkpt>
    <trkpt lat="47.06182" lon="12.94740"><ele>2589</ele><time>2022-04-29T06:25:40Z</time></trkpt>
    <trkpt lat="47.06170" lon="12.94724"><ele>2604</ele><time>2022-04-29T06:27:20Z</time></trkpt>
    <trkpt lat="47.06156" lon="12.94711"><ele>2624</ele><time>2022-04-29T06:29:15Z</time></trkpt>
    <trkpt lat="47.06148" lon="12.94691"><ele>2650</ele><time>2022-04-29T06:32:00Z</time></trkpt>
    <trkpt lat="47.06135" lon="12.94681"><ele>2665</ele><time>2022-04-29T06:34:52Z</time></trkpt>
    <trkpt lat="47.06123" lon="12.94670"><ele>2671</ele><time>2022-04-29T06:40:11Z</time></trkpt>
    <trkpt lat="47.06109" lon="12.94660"><ele>2682</ele><time>2022-04-29T06:42:12Z</time></trkpt>
    <trkpt lat="47.06117" lon="12.94639"><ele>2690</ele><time>2022-04-29T06:42:52Z</time></trkpt>
    <trkpt lat="47.06111" lon="12.94627"><ele>2693</ele><time>2022-04-29T06:43:56Z</time></trkpt>
    <trkpt lat="47.06096" lon="12.94635"><ele>2697</ele><time>2022-04-29T06:44:46Z</time></trkpt>
    <trkpt lat="47.06087" lon="12.94639"><ele>2701</ele><time>2022-04-29T06:45:04Z</time></trkpt>
    <trkpt lat="47.06073" lon="12.94654"><ele>2713</ele><time>2022-04-29T06:45:56Z</time></trkpt>
    <trkpt lat="47.06058" lon="12.94662"><ele>2715</ele><time>2022-04-29T06:46:47Z</time></trkpt>
    <trkpt lat="47.06042" lon="12.94666"><ele>2720</ele><time>2022-04-29T06:47:42Z</time></trkpt>
    <trkpt lat="47.06032" lon="12.94656"><ele>2728</ele><time>2022-04-29T06:48:48Z</time></trkpt>
    <trkpt lat="47.06041" lon="12.94628"><ele>2722</ele><time>2022-04-29T06:50:53Z</time></trkpt>
    <trkpt lat="47.06027" lon="12.94641"><ele>2749</ele><time>2022-04-29T06:52:05Z</time></trkpt>
    <trkpt lat="47.06012" lon="12.94649"><ele>2754</ele><time>2022-04-29T06:53:02Z</time></trkpt>
    <trkpt lat="47.06007" lon="12.94623"><ele>2760</ele><time>2022-04-29T06:54:06Z</time></trkpt>
    <trkpt lat="47.06009" lon="12.94600"><ele>2762</ele><time>2022-04-29T06:55:01Z</time></trkpt>
    <trkpt lat="47.05996" lon="12.94613"><ele>2779</ele><time>2022-04-29T06:56:49Z</time></trkpt>
    <trkpt lat="47.05981" lon="12.94625"><ele>2783</ele><time>2022-04-29T06:57:48Z</time></trkpt>
    <trkpt lat="47.05967" lon="12.94638"><ele>2788</ele><time>2022-04-29T06:58:44Z</time></trkpt>
    <trkpt lat="47.05953" lon="12.94653"><ele>2792</ele><time>2022-04-29T06:59:30Z</time></trkpt>
    <trkpt lat="47.05939" lon="12.94653"><ele>2797</ele><time>2022-04-29T07:01:01Z</time></trkpt>
    <trkpt lat="47.05934" lon="12.94630"><ele>2795</ele><time>2022-04-29T07:02:01Z</time></trkpt>
    <trkpt lat="47.05937" lon="12.94607"><ele>2803</ele><time>2022-04-29T07:03:05Z</time></trkpt>
    <trkpt lat="47.05928" lon="12.94627"><ele>2813</ele><time>2022-04-29T07:04:40Z</time></trkpt>
    <trkpt lat="47.05916" lon="12.94643"><ele>2817</ele><time>2022-04-29T07:05:29Z</time></trkpt>
    <trkpt lat="47.05905" lon="12.94662"><ele>2822</ele><time>2022-04-29T07:06:16Z</time></trkpt>
    <trkpt lat="47.05891" lon="12.94665"><ele>2823</ele><time>2022-04-29T07:07:51Z</time></trkpt>
    <trkpt lat="47.05883" lon="12.94643"><ele>2823</ele><time>2022-04-29T07:08:51Z</time></trkpt>
    <trkpt lat="47.05878" lon="12.94631"><ele>2824</ele><time>2022-04-29T07:09:10Z</time></trkpt>
    <trkpt lat="47.05870" lon="12.94610"><ele>2820</ele><time>2022-04-29T07:09:54Z</time></trkpt>
    <trkpt lat="47.05869" lon="12.94587"><ele>2825</ele><time>2022-04-29T07:11:16Z</time></trkpt>
    <trkpt lat="47.05884" lon="12.94577"><ele>2825</ele><time>2022-04-29T07:12:19Z</time></trkpt>
    <trkpt lat="47.05900" lon="12.94571"><ele>2854</ele><time>2022-04-29T07:13:32Z</time></trkpt>
    <trkpt lat="47.05914" lon="12.94556"><ele>2864</ele><time>2022-04-29T07:15:01Z</time></trkpt>
    <trkpt lat="47.05921" lon="12.94534"><ele>2854</ele><time>2022-04-29T07:22:40Z</time></trkpt>
    <trkpt lat="47.05918" lon="12.94510"><ele>2832</ele><time>2022-04-29T07:25:38Z</time></trkpt>
    <trkpt lat="47.05917" lon="12.94486"><ele>2905</ele><time>2022-04-29T07:30:11Z</time></trkpt>
    <trkpt lat="47.05918" lon="12.94462"><ele>2922</ele><time>2022-04-29T07:34:03Z</time></trkpt>
    <trkpt lat="47.05919" lon="12.94438"><ele>2869</ele><time>2022-04-29T07:35:16Z</time></trkpt>
    <trkpt lat="47.05925" lon="12.94416"><ele>2942</ele><time>2022-04-29T07:38:02Z</time></trkpt>
    <trkpt lat="47.05931" lon="12.94394"><ele>2968</ele><time>2022-04-29T07:44:18Z</time></trkpt>
    <trkpt lat="47.05931" lon="12.94371"><ele>2975</ele><time>2022-04-29T07:46:19Z</time></trkpt>
    <trkpt lat="47.05931" lon="12.94347"><ele>3002</ele><time>2022-04-29T07:48:53Z</time></trkpt>
    <trkpt lat="47.05932" lon="12.94323"><ele>3021</ele><time>2022-04-29T07:54:29Z</time></trkpt>
    <trkpt lat="47.05933" lon="12.94301"><ele>3043</ele><time>2022-04-29T07:59:10Z</time></trkpt>
    <trkpt lat="47.05933" lon="12.94324"><ele>3028</ele><time>2022-04-29T08:45:38Z</time></trkpt>
    <trkpt lat="47.05943" lon="12.94348"><ele>3005</ele><time>2022-04-29T08:46:26Z</time></trkpt>
    <trkpt lat="47.05931" lon="12.94365"><ele>3000</ele><time>2022-04-29T08:46:44Z</time></trkpt>
    <trkpt lat="47.05929" lon="12.94391"><ele>2987</ele><time>2022-04-29T08:47:47Z</time></trkpt>
    <trkpt lat="47.05932" lon="12.94411"><ele>2972</ele><time>2022-04-29T08:48:06Z</time></trkpt>
    <trkpt lat="47.05929" lon="12.94433"><ele>2951</ele><time>2022-04-29T08:49:15Z</time></trkpt>
    <trkpt lat="47.05924" lon="12.94443"><ele>2941</ele><time>2022-04-29T08:50:21Z</time></trkpt>
    <trkpt lat="47.05920" lon="12.94481"><ele>2906</ele><time>2022-04-29T08:50:40Z</time></trkpt>
    <trkpt lat="47.05927" lon="12.94492"><ele>2908</ele><time>2022-04-29T08:51:23Z</time></trkpt>
    <trkpt lat="47.05923" lon="12.94506"><ele>2899</ele><time>2022-04-29T08:53:43Z</time></trkpt>
    <trkpt lat="47.05919" lon="12.94524"><ele>2877</ele><time>2022-04-29T08:54:02Z</time></trkpt>
    <trkpt lat="47.05911" lon="12.94556"><ele>2866</ele><time>2022-04-29T08:54:20Z</time></trkpt>
    <trkpt lat="47.05930" lon="12.94615"><ele>2832</ele><time>2022-04-29T08:56:05Z</time></trkpt>
    <trkpt lat="47.05920" lon="12.94635"><ele>2824</ele><time>2022-04-29T09:04:07Z</time></trkpt>
    <trkpt lat="47.05910" lon="12.94656"><ele>2829</ele><time>2022-04-29T09:04:51Z</time></trkpt>
    <trkpt lat="47.05903" lon="12.94667"><ele>2833</ele><time>2022-04-29T09:05:10Z</time></trkpt>
    <trkpt lat="47.05895" lon="12.94648"><ele>2847</ele><time>2022-04-29T09:06:04Z</time></trkpt>
    <trkpt lat="47.05893" lon="12.94623"><ele>2848</ele><time>2022-04-29T09:06:53Z</time></trkpt>
    <trkpt lat="47.05898" lon="12.94602"><ele>2848</ele><time>2022-04-29T09:07:44Z</time></trkpt>
    <trkpt lat="47.05888" lon="12.94597"><ele>2854</ele><time>2022-04-29T09:08:54Z</time></trkpt>
    <trkpt lat="47.05876" lon="12.94613"><ele>2861</ele><time>2022-04-29T09:09:52Z</time></trkpt>
    <trkpt lat="47.05865" lon="12.94631"><ele>2864</ele><time>2022-04-29T09:10:32Z</time></trkpt>
    <trkpt lat="47.05852" lon="12.94645"><ele>2868</ele><time>2022-04-29T09:11:18Z</time></trkpt>
    <trkpt lat="47.05837" lon="12.94656"><ele>2864</ele><time>2022-04-29T09:12:26Z</time></trkpt>
    <trkpt lat="47.05823" lon="12.94669"><ele>2884</ele><time>2022-04-29T09:13:27Z</time></trkpt>
    <trkpt lat="47.05810" lon="12.94684"><ele>2895</ele><time>2022-04-29T09:15:29Z</time></trkpt>
    <trkpt lat="47.05794" lon="12.94690"><ele>2902</ele><time>2022-04-29T09:16:41Z</time></trkpt>
    <trkpt lat="47.05792" lon="12.94670"><ele>2917</ele><time>2022-04-29T09:17:55Z</time></trkpt>
    <trkpt lat="47.05794" lon="12.94645"><ele>2929</ele><time>2022-04-29T09:18:57Z</time></trkpt>
    <trkpt lat="47.05798" lon="12.94621"><ele>2985</ele><time>2022-04-29T09:20:06Z</time></trkpt>
    <trkpt lat="47.05782" lon="12.94630"><ele>2930</ele><time>2022-04-29T09:21:54Z</time></trkpt>
    <trkpt lat="47.05767" lon="12.94641"><ele>2935</ele><time>2022-04-29T09:22:39Z</time></trkpt>
    <trkpt lat="47.05752" lon="12.94640"><ele>2940</ele><time>2022-04-29T09:23:51Z</time></trkpt>
    <trkpt lat="47.05739" lon="12.94653"><ele>2940</ele><time>2022-04-29T09:34:57Z</time></trkpt>
    <trkpt lat="47.05703" lon="12.94685"><ele>2915</ele><time>2022-04-29T09:37:32Z</time></trkpt>
    <trkpt lat="47.05683" lon="12.94731"><ele>2910</ele><time>2022-04-29T09:37:51Z</time></trkpt>
    <trkpt lat="47.05652" lon="12.94806"><ele>2898</ele><time>2022-04-29T09:38:34Z</time></trkpt>
    <trkpt lat="47.05644" lon="12.94841"><ele>2894</ele><time>2022-04-29T09:39:12Z</time></trkpt>
    <trkpt lat="47.05639" lon="12.94870"><ele>2901</ele><time>2022-04-29T09:44:10Z</time></trkpt>
    <trkpt lat="47.05636" lon="12.94886"><ele>2900</ele><time>2022-04-29T09:44:29Z</time></trkpt>
    <trkpt lat="47.05635" lon="12.94912"><ele>2907</ele><time>2022-04-29T09:45:07Z</time></trkpt>
    <trkpt lat="47.05627" lon="12.94925"><ele>2906</ele><time>2022-04-29T09:45:26Z</time></trkpt>
    <trkpt lat="47.05625" lon="12.94942"><ele>2905</ele><time>2022-04-29T09:45:44Z</time></trkpt>
    <trkpt lat="47.05622" lon="12.94957"><ele>2905</ele><time>2022-04-29T09:46:03Z</time></trkpt>
    <trkpt lat="47.05619" lon="12.94972"><ele>2905</ele><time>2022-04-29T09:46:22Z</time></trkpt>
    <trkpt lat="47.05613" lon="12.94988"><ele>2906</ele><time>2022-04-29T09:46:41Z</time></trkpt>
    <trkpt lat="47.05606" lon="12.95013"><ele>2906</ele><time>2022-04-29T09:47:25Z</time></trkpt>
    <trkpt lat="47.05601" lon="12.95027"><ele>2908</ele><time>2022-04-29T09:47:44Z</time></trkpt>
    <trkpt lat="47.05600" lon="12.95040"><ele>2910</ele><time>2022-04-29T09:48:02Z</time></trkpt>
    <trkpt lat="47.05609" lon="12.95042"><ele>2913</ele><time>2022-04-29T09:56:17Z</time></trkpt>
    <trkpt lat="47.05623" lon="12.95057"><ele>2908</ele><time>2022-04-29T09:57:02Z</time></trkpt>
    <trkpt lat="47.05632" lon="12.95076"><ele>2893</ele><time>2022-04-29T09:58:42Z</time></trkpt>
    <trkpt lat="47.05633" lon="12.95111"><ele>2888</ele><time>2022-04-29T10:00:16Z</time></trkpt>
    <trkpt lat="47.05655" lon="12.95133"><ele>2873</ele><time>2022-04-29T10:00:35Z</time></trkpt>
    <trkpt lat="47.05682" lon="12.95134"><ele>2859</ele><time>2022-04-29T10:00:53Z</time></trkpt>
    <trkpt lat="47.05743" lon="12.95132"><ele>2896</ele><time>2022-04-29T10:02:03Z</time></trkpt>
    <trkpt lat="47.05751" lon="12.95124"><ele>2799</ele><time>2022-04-29T10:05:36Z</time></trkpt>
    <trkpt lat="47.05790" lon="12.95104"><ele>2772</ele><time>2022-04-29T10:05:55Z</time></trkpt>
    <trkpt lat="47.05777" lon="12.95093"><ele>2749</ele><time>2022-04-29T10:06:13Z</time></trkpt>
    <trkpt lat="47.05835" lon="12.95070"><ele>2717</ele><time>2022-04-29T10:07:10Z</time></trkpt>
    <trkpt lat="47.05907" lon="12.95020"><ele>2646</ele><time>2022-04-29T10:09:42Z</time></trkpt>
    <trkpt lat="47.05959" lon="12.95033"><ele>2541</ele><time>2022-04-29T10:12:01Z</time></trkpt>
    <trkpt lat="47.05972" lon="12.95058"><ele>2532</ele><time>2022-04-29T10:13:22Z</time></trkpt>
    <trkpt lat="47.05948" lon="12.95103"><ele>2510</ele><time>2022-04-29T10:13:59Z</time></trkpt>
    <trkpt lat="47.05963" lon="12.95185"><ele>2470</ele><time>2022-04-29T10:14:18Z</time></trkpt>
    <trkpt lat="47.05982" lon="12.95186"><ele>2403</ele><time>2022-04-29T10:14:55Z</time></trkpt>
    <trkpt lat="47.06030" lon="12.95274"><ele>2406</ele><time>2022-04-29T10:15:14Z</time></trkpt>
    <trkpt lat="47.06051" lon="12.95297"><ele>2392</ele><time>2022-04-29T10:15:32Z</time></trkpt>
    <trkpt lat="47.06061" lon="12.95307"><ele>2382</ele><time>2022-04-29T10:15:57Z</time></trkpt>
    <trkpt lat="47.06131" lon="12.95381"><ele>2337</ele><time>2022-04-29T10:16:16Z</time></trkpt>
    <trkpt lat="47.06199" lon="12.95452"><ele>2305</ele><time>2022-04-29T10:16:34Z</time></trkpt>
    <trkpt lat="47.06215" lon="12.95475"><ele>2293</ele><time>2022-04-29T10:16:53Z</time></trkpt>
    <trkpt lat="47.06310" lon="12.95620"><ele>2254</ele><time>2022-04-29T10:17:40Z</time></trkpt>
    <trkpt lat="47.06366" lon="12.95741"><ele>2230</ele><time>2022-04-29T10:17:58Z</time></trkpt>
    <trkpt lat="47.06348" lon="12.95780"><ele>2221</ele><time>2022-04-29T10:19:23Z</time></trkpt>
    <trkpt lat="47.06343" lon="12.95824"><ele>2219</ele><time>2022-04-29T10:19:42Z</time></trkpt>
    <trkpt lat="47.06328" lon="12.95841"><ele>2224</ele><time>2022-04-29T10:24:28Z</time></trkpt>
    <trkpt lat="47.06316" lon="12.95846"><ele>2198</ele><time>2022-04-29T10:24:47Z</time></trkpt>
    <trkpt lat="47.06302" lon="12.95849"><ele>2223</ele><time>2022-04-29T10:25:06Z</time></trkpt>
    <trkpt lat="47.06291" lon="12.95851"><ele>2228</ele><time>2022-04-29T10:25:24Z</time></trkpt>
    <trkpt lat="47.06276" lon="12.95857"><ele>2228</ele><time>2022-04-29T10:26:18Z</time></trkpt>
    <trkpt lat="47.06263" lon="12.95855"><ele>2234</ele><time>2022-04-29T10:26:37Z</time></trkpt>
    <trkpt lat="47.06252" lon="12.95854"><ele>2236</ele><time>2022-04-29T10:26:55Z</time></trkpt>
    <trkpt lat="47.06240" lon="12.95854"><ele>2237</ele><time>2022-04-29T10:27:14Z</time></trkpt>
    <trkpt lat="47.06229" lon="12.95861"><ele>2238</ele><time>2022-04-29T10:27:32Z</time></trkpt>
    <trkpt lat="47.06216" lon="12.95874"><ele>2244</ele><time>2022-04-29T10:27:52Z</time></trkpt>
    <trkpt lat="47.06199" lon="12.95878"><ele>2247</ele><time>2022-04-29T10:28:34Z</time></trkpt>
    <trkpt lat="47.06186" lon="12.95893"><ele>2250</ele><time>2022-04-29T10:29:21Z</time></trkpt>
    <trkpt lat="47.06181" lon="12.95905"><ele>2253</ele><time>2022-04-29T10:29:39Z</time></trkpt>
    <trkpt lat="47.06168" lon="12.95922"><ele>2257</ele><time>2022-04-29T10:30:17Z</time></trkpt>
    <trkpt lat="47.06158" lon="12.95932"><ele>2259</ele><time>2022-04-29T10:30:36Z</time></trkpt>
    <trkpt lat="47.06139" lon="12.95914"><ele>2250</ele><time>2022-04-29T10:32:02Z</time></trkpt>
    <trkpt lat="47.06131" lon="12.95887"><ele>2263</ele><time>2022-04-29T10:32:40Z</time></trkpt>
    <trkpt lat="47.06125" lon="12.95875"><ele>2268</ele><time>2022-04-29T10:33:12Z</time></trkpt>
    <trkpt lat="47.06174" lon="12.96030"><ele>2249</ele><time>2022-04-29T10:38:48Z</time></trkpt>
    <trkpt lat="47.06180" lon="12.96059"><ele>2247</ele><time>2022-04-29T10:39:07Z</time></trkpt>
    <trkpt lat="47.06167" lon="12.96121"><ele>2243</ele><time>2022-04-29T10:39:46Z</time></trkpt>
    <trkpt lat="47.06155" lon="12.96178"><ele>2239</ele><time>2022-04-29T10:40:05Z</time></trkpt>
    <trkpt lat="47.06146" lon="12.96220"><ele>2242</ele><time>2022-04-29T10:40:24Z</time></trkpt>
    <trkpt lat="47.06135" lon="12.96281"><ele>2238</ele><time>2022-04-29T10:40:43Z</time></trkpt>
    <trkpt lat="47.06132" lon="12.96318"><ele>2236</ele><time>2022-04-29T10:41:02Z</time></trkpt>
    <trkpt lat="47.06129" lon="12.96342"><ele>2236</ele><time>2022-04-29T10:41:20Z</time></trkpt>
    <trkpt lat="47.06129" lon="12.96356"><ele>2237</ele><time>2022-04-29T10:43:18Z</time></trkpt>
    <trkpt lat="47.06144" lon="12.96439"><ele>2222</ele><time>2022-04-29T10:43:36Z</time></trkpt>
    <trkpt lat="47.06176" lon="12.96507"><ele>2190</ele><time>2022-04-29T10:43:54Z</time></trkpt>
    <trkpt lat="47.06195" lon="12.96562"><ele>2161</ele><time>2022-04-29T10:44:13Z</time></trkpt>
    <trkpt lat="47.06187" lon="12.96570"><ele>2155</ele><time>2022-04-29T10:45:02Z</time></trkpt>
    <trkpt lat="47.06197" lon="12.96603"><ele>2137</ele><time>2022-04-29T10:45:39Z</time></trkpt>
    <trkpt lat="47.06240" lon="12.96693"><ele>2101</ele><time>2022-04-29T10:45:57Z</time></trkpt>
    <trkpt lat="47.06283" lon="12.96762"><ele>2065</ele><time>2022-04-29T10:46:16Z</time></trkpt>
    <trkpt lat="47.06301" lon="12.96779"><ele>2056</ele><time>2022-04-29T10:46:34Z</time></trkpt>
    <trkpt lat="47.06312" lon="12.96788"><ele>2049</ele><time>2022-04-29T10:47:13Z</time></trkpt>
    <trkpt lat="47.06385" lon="12.96855"><ele>2014</ele><time>2022-04-29T10:47:31Z</time></trkpt>
    <trkpt lat="47.06459" lon="12.96919"><ele>1983</ele><time>2022-04-29T10:47:49Z</time></trkpt>
    <trkpt lat="47.06525" lon="12.96970"><ele>1953</ele><time>2022-04-29T10:48:07Z</time></trkpt>
    <trkpt lat="47.06534" lon="12.96981"><ele>1947</ele><time>2022-04-29T10:48:25Z</time></trkpt>
    <trkpt lat="47.06542" lon="12.96989"><ele>1941</ele><time>2022-04-29T10:49:47Z</time></trkpt>
    <trkpt lat="47.06576" lon="12.97077"><ele>1908</ele><time>2022-04-29T10:50:05Z</time></trkpt>
    <trkpt lat="47.06617" lon="12.97159"><ele>1884</ele><time>2022-04-29T10:50:24Z</time></trkpt>
    <trkpt lat="47.06631" lon="12.97194"><ele>1876</ele><time>2022-04-29T10:50:43Z</time></trkpt>
    <trkpt lat="47.06645" lon="12.97222"><ele>1867</ele><time>2022-04-29T10:51:02Z</time></trkpt>
    <trkpt lat="47.06682" lon="12.97240"><ele>1846</ele><time>2022-04-29T10:51:41Z</time></trkpt>
    <trkpt lat="47.06694" lon="12.97315"><ele>1830</ele><time>2022-04-29T10:51:59Z</time></trkpt>
    <trkpt lat="47.06716" lon="12.97356"><ele>1821</ele><time>2022-04-29T10:52:18Z</time></trkpt>
    <trkpt lat="47.06749" lon="12.97320"><ele>1796</ele><time>2022-04-29T10:52:36Z</time></trkpt>
    <trkpt lat="47.06765" lon="12.97303"><ele>1786</ele><time>2022-04-29T10:52:55Z</time></trkpt>
    <trkpt lat="47.06803" lon="12.97282"><ele>1764</ele><time>2022-04-29T10:53:14Z</time></trkpt>
    <trkpt lat="47.06795" lon="12.97311"><ele>1755</ele><time>2022-04-29T10:53:33Z</time></trkpt>
    <trkpt lat="47.06790" lon="12.97323"><ele>1751</ele><time>2022-04-29T10:54:13Z</time></trkpt>
    <trkpt lat="47.06825" lon="12.97361"><ele>1731</ele><time>2022-04-29T10:54:31Z</time></trkpt>
    <trkpt lat="47.06919" lon="12.97383"><ele>1704</ele><time>2022-04-29T10:54:49Z</time></trkpt>
    <trkpt lat="47.06976" lon="12.97453"><ele>1687</ele><time>2022-04-29T10:55:08Z</time></trkpt>
    <trkpt lat="47.06980" lon="12.97467"><ele>1685</ele><time>2022-04-29T10:55:38Z</time></trkpt>
    <trkpt lat="47.06978" lon="12.97496"><ele>1673</ele><time>2022-04-29T10:55:56Z</time></trkpt>
    <trkpt lat="47.07018" lon="12.97588"><ele>1652</ele><time>2022-04-29T10:56:14Z</time></trkpt>
    <trkpt lat="47.07087" lon="12.97661"><ele>1632</ele><time>2022-04-29T10:56:33Z</time></trkpt>
    <trkpt lat="47.07100" lon="12.97653"><ele>1630</ele><time>2022-04-29T10:56:51Z</time></trkpt>
    <trkpt lat="47.07157" lon="12.97667"><ele>1622</ele><time>2022-04-29T10:57:28Z</time></trkpt>
    <trkpt lat="47.07170" lon="12.97663"><ele>1620</ele><time>2022-04-29T10:57:46Z</time></trkpt>
    <trkpt lat="47.07203" lon="12.97754"><ele>1606</ele><time>2022-04-29T10:58:05Z</time></trkpt>
    <trkpt lat="47.07234" lon="12.97854"><ele>1597</ele><time>2022-04-29T10:58:24Z</time></trkpt>
    <trkpt lat="47.07275" lon="12.97900"><ele>1591</ele><time>2022-04-29T10:58:43Z</time></trkpt>
    <trkpt lat="47.07300" lon="12.97931"><ele>1588</ele><time>2022-04-29T10:59:01Z</time></trkpt>
    <trkpt lat="47.07325" lon="12.97959"><ele>1584</ele><time>2022-04-29T10:59:20Z</time></trkpt>
    <trkpt lat="47.07347" lon="12.97997"><ele>1582</ele><time>2022-04-29T10:59:38Z</time></trkpt>
    <trkpt lat="47.07354" lon="12.98017"><ele>1577</ele><time>2022-04-29T10:59:56Z</time></trkpt>
    <trkpt lat="47.07356" lon="12.98032"><ele>1576</ele><time>2022-04-29T11:00:15Z</time></trkpt>
    <trkpt lat="47.07354" lon="12.98055"><ele>1577</ele><time>2022-04-29T11:00:34Z</time></trkpt>
    <trkpt lat="47.07349" lon="12.98078"><ele>1583</ele><time>2022-04-29T11:02:34Z</time></trkpt>
    <trkpt lat="47.07342" lon="12.98091"><ele>1580</ele><time>2022-04-29T11:02:52Z</time></trkpt>
    <trkpt lat="47.07331" lon="12.98095"><ele>1581</ele><time>2022-04-29T11:03:11Z</time></trkpt>
    <trkpt lat="47.07317" lon="12.98110"><ele>1588</ele><time>2022-04-29T11:03:49Z</time></trkpt>
    <trkpt lat="47.07291" lon="12.98113"><ele>1586</ele><time>2022-04-29T11:04:26Z</time></trkpt>
    <trkpt lat="47.07277" lon="12.98122"><ele>1588</ele><time>2022-04-29T11:04:44Z</time></trkpt>
    <trkpt lat="47.07290" lon="12.98132"><ele>1585</ele><time>2022-04-29T11:05:03Z</time></trkpt>
    <trkpt lat="47.07318" lon="12.98136"><ele>1591</ele><time>2022-04-29T11:07:12Z</time></trkpt>
    <trkpt lat="47.07340" lon="12.98136"><ele>1592</ele><time>2022-04-29T11:07:30Z</time></trkpt>
    <trkpt lat="47.07361" lon="12.98131"><ele>1587</ele><time>2022-04-29T11:07:49Z</time></trkpt>
    <trkpt lat="47.07379" lon="12.98126"><ele>1585</ele><time>2022-04-29T11:08:07Z</time></trkpt>
    <trkpt lat="47.07398" lon="12.98118"><ele>1640</ele><time>2022-04-29T11:08:26Z</time></trkpt>
    <trkpt lat="47.07418" lon="12.98115"><ele>1590</ele><time>2022-04-29T11:08:45Z</time></trkpt>
    <trkpt lat="47.07439" lon="12.98117"><ele>1591</ele><time>2022-04-29T11:09:03Z</time></trkpt>
    <trkpt lat="47.07459" lon="12.98119"><ele>1588</ele><time>2022-04-29T11:09:21Z</time></trkpt>
    <trkpt lat="47.07481" lon="12.98118"><ele>1589</ele><time>2022-04-29T11:09:40Z</time></trkpt>
    <trkpt lat="47.07504" lon="12.98115"><ele>1585</ele><time>2022-04-29T11:09:59Z</time></trkpt>
    <trkpt lat="47.07520" lon="12.98109"><ele>1616</ele><time>2022-04-29T11:10:17Z</time></trkpt>
    <trkpt lat="47.07541" lon="12.98104"><ele>1580</ele><time>2022-04-29T11:10:36Z</time></trkpt>
    <trkpt lat="47.07562" lon="12.98100"><ele>1580</ele><time>2022-04-29T11:10:54Z</time></trkpt>
    <trkpt lat="47.07582" lon="12.98094"><ele>1579</ele><time>2022-04-29T11:11:12Z</time></trkpt>
    <trkpt lat="47.07605" lon="12.98089"><ele>1577</ele><time>2022-04-29T11:11:31Z</time></trkpt>
    <trkpt lat="47.07622" lon="12.98078"><ele>1574</ele><time>2022-04-29T11:11:49Z</time></trkpt>
    <trkpt lat="47.07636" lon="12.98064"><ele>1577</ele><time>2022-04-29T11:12:07Z</time></trkpt>
    <trkpt lat="47.07655" lon="12.98043"><ele>1580</ele><time>2022-04-29T11:13:23Z</time></trkpt>
    <trkpt lat="47.07675" lon="12.98033"><ele>1579</ele><time>2022-04-29T11:13:42Z</time></trkpt>
    <trkpt lat="47.07694" lon="12.98020"><ele>1578</ele><time>2022-04-29T11:14:01Z</time></trkpt>
    <trkpt lat="47.07713" lon="12.98012"><ele>1573</ele><time>2022-04-29T11:14:19Z</time></trkpt>
    <trkpt lat="47.07731" lon="12.98006"><ele>1572</ele><time>2022-04-29T11:14:37Z</time></trkpt>
    <trkpt lat="47.07750" lon="12.97995"><ele>1575</ele><time>2022-04-29T11:14:56Z</time></trkpt>
    <trkpt lat="47.07767" lon="12.97988"><ele>1578</ele><time>2022-04-29T11:15:14Z</time></trkpt>
    <trkpt lat="47.07783" lon="12.97987"><ele>1577</ele><time>2022-04-29T11:15:33Z</time></trkpt>
    <trkpt lat="47.07802" lon="12.97990"><ele>1578</ele><time>2022-04-29T11:15:51Z</time></trkpt>
    <trkpt lat="47.07818" lon="12.97993"><ele>1578</ele><time>2022-04-29T11:16:09Z</time></trkpt>
    <trkpt lat="47.07835" lon="12.98003"><ele>1574</ele><time>2022-04-29T11:16:28Z</time></trkpt>
    <trkpt lat="47.07854" lon="12.98016"><ele>1574</ele><time>2022-04-29T11:16:47Z</time></trkpt>
    <trkpt lat="47.07871" lon="12.98034"><ele>1628</ele><time>2022-04-29T11:17:05Z</time></trkpt>
    <trkpt lat="47.07881" lon="12.98054"><ele>1576</ele><time>2022-04-29T11:17:24Z</time></trkpt>
    <trkpt lat="47.07892" lon="12.98075"><ele>1570</ele><time>2022-04-29T11:17:42Z</time></trkpt>
    <trkpt lat="47.07902" lon="12.98105"><ele>1571</ele><time>2022-04-29T11:18:00Z</time></trkpt>
    <trkpt lat="47.07916" lon="12.98129"><ele>1575</ele><time>2022-04-29T11:18:18Z</time></trkpt>
    <trkpt lat="47.07932" lon="12.98148"><ele>1575</ele><time>2022-04-29T11:18:36Z</time></trkpt>
    <trkpt lat="47.07948" lon="12.98156"><ele>1575</ele><time>2022-04-29T11:18:54Z</time></trkpt>
    <trkpt lat="47.07966" lon="12.98160"><ele>1572</ele><time>2022-04-29T11:19:13Z</time></trkpt>
    <trkpt lat="47.07988" lon="12.98170"><ele>1569</ele><time>2022-04-29T11:19:32Z</time></trkpt>
    <trkpt lat="47.08004" lon="12.98189"><ele>1564</ele><time>2022-04-29T11:19:51Z</time></trkpt>
    <trkpt lat="47.08020" lon="12.98211"><ele>1563</ele><time>2022-04-29T11:20:10Z</time></trkpt>
    <trkpt lat="47.08035" lon="12.98235"><ele>1564</ele><time>2022-04-29T11:20:29Z</time></trkpt>
    <trkpt lat="47.08050" lon="12.98256"><ele>1566</ele><time>2022-04-29T11:20:48Z</time></trkpt>
    <trkpt lat="47.08061" lon="12.98275"><ele>1563</ele><time>2022-04-29T11:21:06Z</time></trkpt>
    <trkpt lat="47.08080" lon="12.98294"><ele>1561</ele><time>2022-04-29T11:21:24Z</time></trkpt>
    <trkpt lat="47.08089" lon="12.98318"><ele>1556</ele><time>2022-04-29T11:21:43Z</time></trkpt>
    <trkpt lat="47.08086" lon="12.98348"><ele>1555</ele><time>2022-04-29T11:22:02Z</time></trkpt>
    <trkpt lat="47.08084" lon="12.98375"><ele>1553</ele><time>2022-04-29T11:22:20Z</time></trkpt>
    <trkpt lat="47.08082" lon="12.98410"><ele>1556</ele><time>2022-04-29T11:22:39Z</time></trkpt>
    <trkpt lat="47.08088" lon="12.98438"><ele>1554</ele><time>2022-04-29T11:22:57Z</time></trkpt>
    <trkpt lat="47.08102" lon="12.98448"><ele>1552</ele><time>2022-04-29T11:23:16Z</time></trkpt>
    <trkpt lat="47.08117" lon="12.98449"><ele>1551</ele><time>2022-04-29T11:23:34Z</time></trkpt>
    <trkpt lat="47.08137" lon="12.98449"><ele>1549</ele><time>2022-04-29T11:23:52Z</time></trkpt>
    <trkpt lat="47.08154" lon="12.98461"><ele>1545</ele><time>2022-04-29T11:24:11Z</time></trkpt>
    <trkpt lat="47.08165" lon="12.98486"><ele>1548</ele><time>2022-04-29T11:24:29Z</time></trkpt>
    <trkpt lat="47.08181" lon="12.98494"><ele>1546</ele><time>2022-04-29T11:24:47Z</time></trkpt>
    <trkpt lat="47.08198" lon="12.98492"><ele>1547</ele><time>2022-04-29T11:25:06Z</time></trkpt>
    <trkpt lat="47.08206" lon="12.98496"><ele>1546</ele><time>2022-04-29T11:26:26Z</time></trkpt>
  </trkseg>
</trk>
</gpx>