<?xml version="1.0" encoding="UTF-8"?>
<gpx version="1.1" creator="GPX-Pro" xmlns="http://www.topografix.com/GPX/1/1">
<trk>
  <name>Ski_Schobertal</name>
  <trkseg>
    <trkpt lat="47.64214" lon="14.08870"><ele>753</ele><time>2022-04-12T04:05:45Z</time></trkpt>
    <trkpt lat="47.64246" lon="14.08845"><ele>768</ele><time>2022-04-12T04:06:04Z</time></trkpt>
    <trkpt lat="47.64296" lon="14.08815"><ele>787</ele><time>2022-04-12T04:06:12Z</time></trkpt>
    <trkpt lat="47.64299" lon="14.08791"><ele>761</ele><time>2022-04-12T04:06:59Z</time></trkpt>
    <trkpt lat="47.64287" lon="14.08787"><ele>756</ele><time>2022-04-12T04:07:17Z</time></trkpt>
    <trkpt lat="47.64285" lon="14.08763"><ele>755</ele><time>2022-04-12T04:07:36Z</time></trkpt>
    <trkpt lat="47.64291" lon="14.08733"><ele>754</ele><time>2022-04-12T04:07:55Z</time></trkpt>
    <trkpt lat="47.64278" lon="14.08704"><ele>760</ele><time>2022-04-12T04:08:14Z</time></trkpt>
    <trkpt lat="47.64264" lon="14.08686"><ele>765</ele><time>2022-04-12T04:08:32Z</time></trkpt>
    <trkpt lat="47.64249" lon="14.08670"><ele>766</ele><time>2022-04-12T04:08:50Z</time></trkpt>
    <trkpt lat="47.64238" lon="14.08651"><ele>768</ele><time>2022-04-12T04:09:08Z</time></trkpt>
    <trkpt lat="47.64228" lon="14.08624"><ele>772</ele><time>2022-04-12T04:09:27Z</time></trkpt>
    <trkpt lat="47.64216" lon="14.08603"><ele>775</ele><time>2022-04-12T04:09:46Z</time></trkpt>
    <trkpt lat="47.64205" lon="14.08580"><ele>779</ele><time>2022-04-12T04:10:05Z</time></trkpt>
    <trkpt lat="47.64191" lon="14.08564"><ele>782</ele><time>2022-04-12T04:10:23Z</time></trkpt>
    <trkpt lat="47.64170" lon="14.08558"><ele>787</ele><time>2022-04-12T04:10:42Z</time></trkpt>
    <trkpt lat="47.64155" lon="14.08557"><ele>788</ele><time>2022-04-12T04:11:01Z</time></trkpt>
    <trkpt lat="47.64139" lon="14.08557"><ele>791</ele><time>2022-04-12T04:11:20Z</time></trkpt>
    <trkpt lat="47.64123" lon="14.08558"><ele>792</ele><time>2022-04-12T04:11:39Z</time></trkpt>
    <trkpt lat="47.64107" lon="14.08558"><ele>792</ele><time>2022-04-12T04:11:58Z</time></trkpt>
    <trkpt lat="47.64091" lon="14.08560"><ele>793</ele><time>2022-04-12T04:12:17Z</time></trkpt>
    <trkpt lat="47.64078" lon="14.08564"><ele>798</ele><time>2022-04-12T04:12:35Z</time></trkpt>
    <trkpt lat="47.64059" lon="14.08569"><ele>800</ele><time>2022-04-12T04:12:54Z</time></trkpt>
    <trkpt lat="47.64039" lon="14.08564"><ele>800</ele><time>2022-04-12T04:13:12Z</time></trkpt>
    <trkpt lat="47.64025" lon="14.08563"><ele>804</ele><time>2022-04-12T04:13:30Z</time></trkpt>
    <trkpt lat="47.64007" lon="14.08563"><ele>808</ele><time>2022-04-12T04:13:49Z</time></trkpt>
    <trkpt lat="47.63990" lon="14.08557"><ele>809</ele><time>2022-04-12T04:14:07Z</time></trkpt>
    <trkpt lat="47.63975" lon="14.08548"><ele>811</ele><time>2022-04-12T04:14:25Z</time></trkpt>
    <trkpt lat="47.63962" lon="14.08538"><ele>813</ele><time>2022-04-12T04:14:43Z</time></trkpt>
    <trkpt lat="47.63946" lon="14.08532"><ele>813</ele><time>2022-04-12T04:15:01Z</time></trkpt>
    <trkpt lat="47.63932" lon="14.08525"><ele>813</ele><time>2022-04-12T04:15:20Z</time></trkpt>
    <trkpt lat="47.63921" lon="14.08517"><ele>817</ele><time>2022-04-12T04:15:39Z</time></trkpt>
    <trkpt lat="47.63905" lon="14.08508"><ele>818</ele><time>2022-04-12T04:15:58Z</time></trkpt>
    <trkpt lat="47.63888" lon="14.08496"><ele>813</ele><time>2022-04-12T04:16:16Z</time></trkpt>
    <trkpt lat="47.63874" lon="14.08480"><ele>819</ele><time>2022-04-12T04:16:35Z</time></trkpt>
    <trkpt lat="47.63864" lon="14.08465"><ele>817</ele><time>2022-04-12T04:16:53Z</time></trkpt>
    <trkpt lat="47.63854" lon="14.08435"><ele>817</ele><time>2022-04-12T04:17:30Z</time></trkpt>
    <trkpt lat="47.63850" lon="14.08414"><ele>823</ele><time>2022-04-12T04:17:49Z</time></trkpt>
    <trkpt lat="47.63843" lon="14.08395"><ele>828</ele><time>2022-04-12T04:18:08Z</time></trkpt>
    <trkpt lat="47.63835" lon="14.08376"><ele>829</ele><time>2022-04-12T04:18:27Z</time></trkpt>
    <trkpt lat="47.63830" lon="14.08359"><ele>832</ele><time>2022-04-12T04:18:45Z</time></trkpt>
    <trkpt lat="47.63823" lon="14.08346"><ele>834</ele><time>2022-04-12T04:19:03Z</time></trkpt>
    <trkpt lat="47.63810" lon="14.08326"><ele>838</ele><time>2022-04-12T04:19:22Z</time></trkpt>
    <trkpt lat="47.63801" lon="14.08297"><ele>844</ele><time>2022-04-12T04:20:05Z</time></trkpt>
    <trkpt lat="47.63795" lon="14.08278"><ele>845</ele><time>2022-04-12T04:20:24Z</time></trkpt>
    <trkpt lat="47.63787" lon="14.08257"><ele>848</ele><time>2022-04-12T04:20:43Z</time></trkpt>
    <trkpt lat="47.63781" lon="14.08234"><ele>849</ele><time>2022-04-12T04:21:02Z</time></trkpt>
    <trkpt lat="47.63777" lon="14.08221"><ele>850</ele><time>2022-04-12T04:21:20Z</time></trkpt>
    <trkpt lat="47.63769" lon="14.08207"><ele>851</ele><time>2022-04-12T04:21:38Z</time></trkpt>
    <trkpt lat="47.63762" lon="14.08190"><ele>854</ele><time>2022-04-12T04:21:56Z</time></trkpt>
    <trkpt lat="47.63751" lon="14.08174"><ele>859</ele><time>2022-04-12T04:22:15Z</time></trkpt>
    <trkpt lat="47.63750" lon="14.08150"><ele>859</ele><time>2022-04-12T04:22:33Z</time></trkpt>
    <trkpt lat="47.63743" lon="14.08130"><ele>859</ele><time>2022-04-12T04:22:52Z</time></trkpt>
    <trkpt lat="47.63735" lon="14.08115"><ele>863</ele><time>2022-04-12T04:23:11Z</time></trkpt>
    <trkpt lat="47.63727" lon="14.08099"><ele>862</ele><time>2022-04-12T04:23:30Z</time></trkpt>
    <trkpt lat="47.63719" lon="14.08082"><ele>863</ele><time>2022-04-12T04:23:48Z</time></trkpt>
    <trkpt lat="47.63709" lon="14.08065"><ele>869</ele><time>2022-04-12T04:24:07Z</time></trkpt>
    <trkpt lat="47.63700" lon="14.08052"><ele>873</ele><time>2022-04-12T04:24:25Z</time></trkpt>
    <trkpt lat="47.63686" lon="14.08048"><ele>876</ele><time>2022-04-12T04:24:44Z</time></trkpt>
    <trkpt lat="47.63673" lon="14.08045"><ele>881</ele><time>2022-04-12T04:25:02Z</time></trkpt>
    <trkpt lat="47.63661" lon="14.08040"><ele>883</ele><time>2022-04-12T04:25:20Z</time></trkpt>
    <trkpt lat="47.63647" lon="14.08031"><ele>884</ele><time>2022-04-12T04:25:39Z</time></trkpt>
    <trkpt lat="47.63638" lon="14.08017"><ele>887</ele><time>2022-04-12T04:25:57Z</time></trkpt>
    <trkpt lat="47.63632" lon="14.07998"><ele>889</ele><time>2022-04-12T04:26:16Z</time></trkpt>
    <trkpt lat="47.63623" lon="14.07984"><ele>896</ele><time>2022-04-12T04:26:35Z</time></trkpt>
    <trkpt lat="47.63614" lon="14.07970"><ele>897</ele><time>2022-04-12T04:26:54Z</time></trkpt>
    <trkpt lat="47.63606" lon="14.07952"><ele>902</ele><time>2022-04-12T04:27:12Z</time></trkpt>
    <trkpt lat="47.63599" lon="14.07934"><ele>901</ele><time>2022-04-12T04:27:30Z</time></trkpt>
    <trkpt lat="47.63591" lon="14.07920"><ele>906</ele><time>2022-04-12T04:27:48Z</time></trkpt>
    <trkpt lat="47.63582" lon="14.07910"><ele>907</ele><time>2022-04-12T04:28:07Z</time></trkpt>
    <trkpt lat="47.63572" lon="14.07888"><ele>911</ele><time>2022-04-12T04:29:05Z</time></trkpt>
    <trkpt lat="47.63563" lon="14.07876"><ele>911</ele><time>2022-04-12T04:29:24Z</time></trkpt>
    <trkpt lat="47.63554" lon="14.07865"><ele>911</ele><time>2022-04-12T04:29:42Z</time></trkpt>
    <trkpt lat="47.63545" lon="14.07851"><ele>912</ele><time>2022-04-12T04:30:00Z</time></trkpt>
    <trkpt lat="47.63539" lon="14.07832"><ele>918</ele><time>2022-04-12T04:30:19Z</time></trkpt>
    <trkpt lat="47.63535" lon="14.07812"><ele>910</ele><time>2022-04-12T04:30:38Z</time></trkpt>
    <trkpt lat="47.63532" lon="14.07792"><ele>909</ele><time>2022-04-12T04:30:57Z</time></trkpt>
    <trkpt lat="47.63520" lon="14.07777"><ele>918</ele><time>2022-04-12T04:31:15Z</time></trkpt>
    <trkpt lat="47.63519" lon="14.07759"><ele>922</ele><time>2022-04-12T04:31:33Z</time></trkpt>
    <trkpt lat="47.63513" lon="14.07742"><ele>922</ele><time>2022-04-12T04:31:52Z</time></trkpt>
    <trkpt lat="47.63505" lon="14.07730"><ele>927</ele><time>2022-04-12T04:32:10Z</time></trkpt>
    <trkpt lat="47.63500" lon="14.07716"><ele>932</ele><time>2022-04-12T04:32:29Z</time></trkpt>
    <trkpt lat="47.63488" lon="14.07711"><ele>939</ele><time>2022-04-12T04:32:47Z</time></trkpt>
    <trkpt lat="47.63479" lon="14.07709"><ele>941</ele><time>2022-04-12T04:33:06Z</time></trkpt>
    <trkpt lat="47.63468" lon="14.07705"><ele>945</ele><time>2022-04-12T04:33:25Z</time></trkpt>
    <trkpt lat="47.63458" lon="14.07702"><ele>948</ele><time>2022-04-12T04:33:43Z</time></trkpt>
    <trkpt lat="47.63448" lon="14.07705"><ele>951</ele><time>2022-04-12T04:34:01Z</time></trkpt>
    <trkpt lat="47.63430" lon="14.07711"><ele>956</ele><time>2022-04-12T04:34:40Z</time></trkpt>
    <trkpt lat="47.63420" lon="14.07706"><ele>958</ele><time>2022-04-12T04:34:59Z</time></trkpt>
    <trkpt lat="47.63406" lon="14.07708"><ele>961</ele><time>2022-04-12T04:35:17Z</time></trkpt>
    <trkpt lat="47.63396" lon="14.07705"><ele>967</ele><time>2022-04-12T04:35:35Z</time></trkpt>
    <trkpt lat="47.63381" lon="14.07705"><ele>970</ele><time>2022-04-12T04:36:15Z</time></trkpt>
    <trkpt lat="47.63374" lon="14.07693"><ele>967</ele><time>2022-04-12T04:36:34Z</time></trkpt>
    <trkpt lat="47.63362" lon="14.07690"><ele>970</ele><time>2022-04-12T04:36:52Z</time></trkpt>
    <trkpt lat="47.63350" lon="14.07684"><ele>973</ele><time>2022-04-12T04:37:11Z</time></trkpt>
    <trkpt lat="47.63342" lon="14.07677"><ele>976</ele><time>2022-04-12T04:37:29Z</time></trkpt>
    <trkpt lat="47.63333" lon="14.07685"><ele>981</ele><time>2022-04-12T04:37:48Z</time></trkpt>
    <trkpt lat="47.63326" lon="14.07696"><ele>986</ele><time>2022-04-12T04:38:06Z</time></trkpt>
    <trkpt lat="47.63324" lon="14.07711"><ele>985</ele><time>2022-04-12T04:38:24Z</time></trkpt>
    <trkpt lat="47.63319" lon="14.07730"><ele>993</ele><time>2022-04-12T04:38:43Z</time></trkpt>
    <trkpt lat="47.63318" lon="14.07745"><ele>991</ele><time>2022-04-12T04:39:02Z</time></trkpt>
    <trkpt lat="47.63312" lon="14.07761"><ele>997</ele><time>2022-04-12T04:39:21Z</time></trkpt>
    <trkpt lat="47.63308" lon="14.07775"><ele>999</ele><time>2022-04-12T04:39:39Z</time></trkpt>
    <trkpt lat="47.63300" lon="14.07792"><ele>1000</ele><time>2022-04-12T04:39:58Z</time></trkpt>
    <trkpt lat="47.63293" lon="14.07807"><ele>1005</ele><time>2022-04-12T04:40:17Z</time></trkpt>
    <trkpt lat="47.63275" lon="14.07813"><ele>1010</ele><time>2022-04-12T04:40:55Z</time></trkpt>
    <trkpt lat="47.63262" lon="14.07793"><ele>1010</ele><time>2022-04-12T04:41:40Z</time></trkpt>
    <trkpt lat="47.63253" lon="14.07784"><ele>1014</ele><time>2022-04-12T04:41:59Z</time></trkpt>
    <trkpt lat="47.63243" lon="14.07783"><ele>1015</ele><time>2022-04-12T04:42:17Z</time></trkpt>
    <trkpt lat="47.63230" lon="14.07782"><ele>1019</ele><time>2022-04-12T04:42:36Z</time></trkpt>
    <trkpt lat="47.63210" lon="14.07769"><ele>1026</ele><time>2022-04-12T04:43:13Z</time></trkpt>
    <trkpt lat="47.63203" lon="14.07756"><ele>1029</ele><time>2022-04-12T04:43:31Z</time></trkpt>
    <trkpt lat="47.63193" lon="14.07742"><ele>1031</ele><time>2022-04-12T04:43:49Z</time></trkpt>
    <trkpt lat="47.63187" lon="14.07723"><ele>1032</ele><time>2022-04-12T04:44:08Z</time></trkpt>
    <trkpt lat="47.63183" lon="14.07703"><ele>1036</ele><time>2022-04-12T04:44:26Z</time></trkpt>
    <trkpt lat="47.63183" lon="14.07683"><ele>1031</ele><time>2022-04-12T04:44:45Z</time></trkpt>
    <trkpt lat="47.63188" lon="14.07660"><ele>1031</ele><time>2022-04-12T04:45:04Z</time></trkpt>
    <trkpt lat="47.63183" lon="14.07640"><ele>1040</ele><time>2022-04-12T04:45:23Z</time></trkpt>
    <trkpt lat="47.63174" lon="14.07626"><ele>1040</ele><time>2022-04-12T04:45:41Z</time></trkpt>
    <trkpt lat="47.63160" lon="14.07620"><ele>1048</ele><time>2022-04-12T04:45:59Z</time></trkpt>
    <trkpt lat="47.63148" lon="14.07614"><ele>1048</ele><time>2022-04-12T04:46:17Z</time></trkpt>
    <trkpt lat="47.63134" lon="14.07604"><ele>1050</ele><time>2022-04-12T04:46:36Z</time></trkpt>
    <trkpt lat="47.63118" lon="14.07601"><ele>1052</ele><time>2022-04-12T04:46:55Z</time></trkpt>
    <trkpt lat="47.63108" lon="14.07597"><ele>1054</ele><time>2022-04-12T04:47:14Z</time></trkpt>
    <trkpt lat="47.63099" lon="14.07579"><ele>1052</ele><time>2022-04-12T04:47:32Z</time></trkpt>
    <trkpt lat="47.63089" lon="14.07564"><ele>1055</ele><time>2022-04-12T04:47:50Z</time></trkpt>
    <trkpt lat="47.63087" lon="14.07536"><ele>1059</ele><time>2022-04-12T04:48:09Z</time></trkpt>
    <trkpt lat="47.63085" lon="14.07511"><ele>1057</ele><time>2022-04-12T04:48:27Z</time></trkpt>
    <trkpt lat="47.63073" lon="14.07497"><ele>1039</ele><time>2022-04-12T04:48:46Z</time></trkpt>
    <trkpt lat="47.63064" lon="14.07481"><ele>1052</ele><time>2022-04-12T04:49:04Z</time></trkpt>
    <trkpt lat="47.63053" lon="14.07457"><ele>1039</ele><time>2022-04-12T04:49:23Z</time></trkpt>
    <trkpt lat="47.63045" lon="14.07440"><ele>1056</ele><time>2022-04-12T04:49:42Z</time></trkpt>
    <trkpt lat="47.63032" lon="14.07429"><ele>1055</ele><time>2022-04-12T04:50:01Z</time></trkpt>
    <trkpt lat="47.63028" lon="14.07405"><ele>1054</ele><time>2022-04-12T04:50:19Z</time></trkpt>
    <trkpt lat="47.63028" lon="14.07369"><ele>1056</ele><time>2022-04-12T04:50:38Z</time></trkpt>
    <trkpt lat="47.63018" lon="14.07350"><ele>1057</ele><time>2022-04-12T04:50:56Z</time></trkpt>
    <trkpt lat="47.63011" lon="14.07328"><ele>1057</ele><time>2022-04-12T04:51:15Z</time></trkpt>
    <trkpt lat="47.63006" lon="14.07310"><ele>1058</ele><time>2022-04-12T04:51:33Z</time></trkpt>
    <trkpt lat="47.62999" lon="14.07290"><ele>1059</ele><time>2022-04-12T04:51:52Z</time></trkpt>
    <trkpt lat="47.62994" lon="14.07265"><ele>1065</ele><time>2022-04-12T04:52:11Z</time></trkpt>
    <trkpt lat="47.62986" lon="14.07242"><ele>1064</ele><time>2022-04-12T04:52:29Z</time></trkpt>
    <trkpt lat="47.62979" lon="14.07220"><ele>1068</ele><time>2022-04-12T04:52:47Z</time></trkpt>
    <trkpt lat="47.62973" lon="14.07200"><ele>1061</ele><time>2022-04-12T04:53:05Z</time></trkpt>
    <trkpt lat="47.62962" lon="14.07181"><ele>1065</ele><time>2022-04-12T04:53:24Z</time></trkpt>
    <trkpt lat="47.62952" lon="14.07156"><ele>1066</ele><time>2022-04-12T04:53:42Z</time></trkpt>
    <trkpt lat="47.62943" lon="14.07134"><ele>1060</ele><time>2022-04-12T04:54:00Z</time></trkpt>
    <trkpt lat="47.62935" lon="14.07111"><ele>1053</ele><time>2022-04-12T04:54:19Z</time></trkpt>
    <trkpt lat="47.62929" lon="14.07101"><ele>1051</ele><time>2022-04-12T04:54:38Z</time></trkpt>
    <trkpt lat="47.62932" lon="14.07085"><ele>1054</ele><time>2022-04-12T04:54:56Z</time></trkpt>
    <trkpt lat="47.62927" lon="14.07067"><ele>1063</ele><time>2022-04-12T04:55:46Z</time></trkpt>
    <trkpt lat="47.62926" lon="14.07053"><ele>1066</ele><time>2022-04-12T04:56:04Z</time></trkpt>
    <trkpt lat="47.62917" lon="14.07041"><ele>1074</ele><time>2022-04-12T04:56:49Z</time></trkpt>
    <trkpt lat="47.62918" lon="14.07017"><ele>1091</ele><time>2022-04-12T04:59:18Z</time></trkpt>
    <trkpt lat="47.62928" lon="14.06997"><ele>1101</ele><time>2022-04-12T05:02:24Z</time></trkpt>
    <trkpt lat="47.62929" lon="14.06975"><ele>1110</ele><time>2022-04-12T05:07:28Z</time></trkpt>
    <trkpt lat="47.62922" lon="14.06993"><ele>1145</ele><time>2022-04-12T05:10:55Z</time></trkpt>
    <trkpt lat="47.62931" lon="14.06971"><ele>1141</ele><time>2022-04-12T05:13:06Z</time></trkpt>
    <trkpt lat="47.62926" lon="14.06948"><ele>1148</ele><time>2022-04-12T05:15:54Z</time></trkpt>
    <trkpt lat="47.62909" lon="14.06932"><ele>1159</ele><time>2022-04-12T05:17:41Z</time></trkpt>
    <trkpt lat="47.62903" lon="14.06919"><ele>1165</ele><time>2022-04-12T05:17:59Z</time></trkpt>
    <trkpt lat="47.62884" lon="14.06904"><ele>1169</ele><time>2022-04-12T05:18:36Z</time></trkpt>
    <trkpt lat="47.62868" lon="14.06907"><ele>1179</ele><time>2022-04-12T05:19:17Z</time></trkpt>
    <trkpt lat="47.62868" lon="14.06886"><ele>1175</ele><time>2022-04-12T05:19:35Z</time></trkpt>
    <trkpt lat="47.62865" lon="14.06873"><ele>1177</ele><time>2022-04-12T05:19:54Z</time></trkpt>
    <trkpt lat="47.62868" lon="14.06856"><ele>1189</ele><time>2022-04-12T05:21:00Z</time></trkpt>
    <trkpt lat="47.62853" lon="14.06863"><ele>1201</ele><time>2022-04-12T05:21:50Z</time></trkpt>
    <trkpt lat="47.62853" lon="14.06849"><ele>1198</ele><time>2022-04-12T05:22:09Z</time></trkpt>
    <trkpt lat="47.62851" lon="14.06833"><ele>1202</ele><time>2022-04-12T05:22:28Z</time></trkpt>
    <trkpt lat="47.62859" lon="14.06810"><ele>1207</ele><time>2022-04-12T05:23:06Z</time></trkpt>
    <trkpt lat="47.62842" lon="14.06799"><ele>1211</ele><time>2022-04-12T05:24:07Z</time></trkpt>
    <trkpt lat="47.62840" lon="14.06783"><ele>1212</ele><time>2022-04-12T05:24:26Z</time></trkpt>
    <trkpt lat="47.62839" lon="14.06756"><ele>1224</ele><time>2022-04-12T05:25:09Z</time></trkpt>
    <trkpt lat="47.62853" lon="14.06749"><ele>1227</ele><time>2022-04-12T05:25:28Z</time></trkpt>
    <trkpt lat="47.62849" lon="14.06722"><ele>1237</ele><time>2022-04-12T05:26:04Z</time></trkpt>
    <trkpt lat="47.62859" lon="14.06717"><ele>1248</ele><time>2022-04-12T05:26:22Z</time></trkpt>
    <trkpt lat="47.62868" lon="14.06717"><ele>1250</ele><time>2022-04-12T05:27:09Z</time></trkpt>
    <trkpt lat="47.62852" lon="14.06701"><ele>1255</ele><time>2022-04-12T05:28:57Z</time></trkpt>
    <trkpt lat="47.62846" lon="14.06676"><ele>1263</ele><time>2022-04-12T05:29:34Z</time></trkpt>
    <trkpt lat="47.62846" lon="14.06659"><ele>1267</ele><time>2022-04-12T05:29:53Z</time></trkpt>
    <trkpt lat="47.62840" lon="14.06645"><ele>1268</ele><time>2022-04-12T05:30:11Z</time></trkpt>
    <trkpt lat="47.62848" lon="14.06639"><ele>1271</ele><time>2022-04-12T05:30:30Z</time></trkpt>
    <trkpt lat="47.62858" lon="14.06638"><ele>1282</ele><time>2022-04-12T05:30:49Z</time></trkpt>
    <trkpt lat="47.62849" lon="14.06617"><ele>1292</ele><time>2022-04-12T05:31:55Z</time></trkpt>
    <trkpt lat="47.62854" lon="14.06595"><ele>1301</ele><time>2022-04-12T05:32:50Z</time></trkpt>
    <trkpt lat="47.62863" lon="14.06575"><ele>1312</ele><time>2022-04-12T05:33:32Z</time></trkpt>
    <trkpt lat="47.62864" lon="14.06553"><ele>1320</ele><time>2022-04-12T05:34:51Z</time></trkpt>
    <trkpt lat="47.62857" lon="14.06533"><ele>1323</ele><time>2022-04-12T05:35:48Z</time></trkpt>
    <trkpt lat="47.62867" lon="14.06518"><ele>1341</ele><time>2022-04-12T05:36:46Z</time></trkpt>
    <trkpt lat="47.62875" lon="14.06503"><ele>1345</ele><time>2022-04-12T05:37:39Z</time></trkpt>
    <trkpt lat="47.62885" lon="14.06484"><ele>1350</ele><time>2022-04-12T05:38:28Z</time></trkpt>
    <trkpt lat="47.62887" lon="14.06461"><ele>1354</ele><time>2022-04-12T05:39:15Z</time></trkpt>
    <trkpt lat="47.62873" lon="14.06449"><ele>1367</ele><time>2022-04-12T05:40:11Z</time></trkpt>
    <trkpt lat="47.62860" lon="14.06436"><ele>1378</ele><time>2022-04-12T05:41:01Z</time></trkpt>
    <trkpt lat="47.62865" lon="14.06423"><ele>1379</ele><time>2022-04-12T05:41:19Z</time></trkpt>
    <trkpt lat="47.62873" lon="14.06416"><ele>1385</ele><time>2022-04-12T05:41:39Z</time></trkpt>
    <trkpt lat="47.62864" lon="14.06398"><ele>1386</ele><time>2022-04-12T05:42:29Z</time></trkpt>
    <trkpt lat="47.62876" lon="14.06378"><ele>1400</ele><time>2022-04-12T05:43:31Z</time></trkpt>
    <trkpt lat="47.62892" lon="14.06365"><ele>1409</ele><time>2022-04-12T05:44:08Z</time></trkpt>
    <trkpt lat="47.62891" lon="14.06350"><ele>1412</ele><time>2022-04-12T05:44:50Z</time></trkpt>
    <trkpt lat="47.62882" lon="14.06340"><ele>1410</ele><time>2022-04-12T05:45:08Z</time></trkpt>
    <trkpt lat="47.62873" lon="14.06318"><ele>1416</ele><time>2022-04-12T05:45:45Z</time></trkpt>
    <trkpt lat="47.62870" lon="14.06297"><ele>1428</ele><time>2022-04-12T05:46:30Z</time></trkpt>
    <trkpt lat="47.62881" lon="14.06289"><ele>1437</ele><time>2022-04-12T05:46:49Z</time></trkpt>
    <trkpt lat="47.62892" lon="14.06284"><ele>1445</ele><time>2022-04-12T05:47:07Z</time></trkpt>
    <trkpt lat="47.62900" lon="14.06275"><ele>1449</ele><time>2022-04-12T05:47:26Z</time></trkpt>
    <trkpt lat="47.62890" lon="14.06267"><ele>1442</ele><time>2022-04-12T05:47:45Z</time></trkpt>
    <trkpt lat="47.62879" lon="14.06247"><ele>1444</ele><time>2022-04-12T05:48:24Z</time></trkpt>
    <trkpt lat="47.62894" lon="14.06229"><ele>1459</ele><time>2022-04-12T05:49:06Z</time></trkpt>
    <trkpt lat="47.62886" lon="14.06209"><ele>1466</ele><time>2022-04-12T05:49:57Z</time></trkpt>
    <trkpt lat="47.62876" lon="14.06198"><ele>1465</ele><time>2022-04-12T05:50:16Z</time></trkpt>
    <trkpt lat="47.62893" lon="14.06182"><ele>1476</ele><time>2022-04-12T05:50:52Z</time></trkpt>
    <trkpt lat="47.62879" lon="14.06168"><ele>1485</ele><time>2022-04-12T05:51:43Z</time></trkpt>
    <trkpt lat="47.62879" lon="14.06150"><ele>1492</ele><time>2022-04-12T05:52:34Z</time></trkpt>
    <trkpt lat="47.62889" lon="14.06144"><ele>1482</ele><time>2022-04-12T05:52:53Z</time></trkpt>
    <trkpt lat="47.62875" lon="14.06128"><ele>1497</ele><time>2022-04-12T05:53:39Z</time></trkpt>
    <trkpt lat="47.62887" lon="14.06114"><ele>1503</ele><time>2022-04-12T05:54:34Z</time></trkpt>
    <trkpt lat="47.62903" lon="14.06108"><ele>1515</ele><time>2022-04-12T05:55:12Z</time></trkpt>
    <trkpt lat="47.62919" lon="14.06103"><ele>1522</ele><time>2022-04-12T05:55:52Z</time></trkpt>
    <trkpt lat="47.62932" lon="14.06106"><ele>1526</ele><time>2022-04-12T05:56:10Z</time></trkpt>
    <trkpt lat="47.62940" lon="14.06097"><ele>1530</ele><time>2022-04-12T05:56:29Z</time></trkpt>
    <trkpt lat="47.62949" lon="14.06085"><ele>1541</ele><time>2022-04-12T05:57:47Z</time></trkpt>
    <trkpt lat="47.62958" lon="14.06080"><ele>1545</ele><time>2022-04-12T05:58:05Z</time></trkpt>
    <trkpt lat="47.62946" lon="14.06061"><ele>1552</ele><time>2022-04-12T05:58:57Z</time></trkpt>
    <trkpt lat="47.62938" lon="14.06056"><ele>1558</ele><time>2022-04-12T05:59:15Z</time></trkpt>
    <trkpt lat="47.62937" lon="14.06033"><ele>1561</ele><time>2022-04-12T05:59:52Z</time></trkpt>
    <trkpt lat="47.62938" lon="14.06019"><ele>1559</ele><time>2022-04-12T06:00:10Z</time></trkpt>
    <trkpt lat="47.62935" lon="14.05993"><ele>1562</ele><time>2022-04-12T06:00:47Z</time></trkpt>
    <trkpt lat="47.62930" lon="14.05979"><ele>1567</ele><time>2022-04-12T06:01:06Z</time></trkpt>
    <trkpt lat="47.62922" lon="14.05956"><ele>1576</ele><time>2022-04-12T06:01:47Z</time></trkpt>
    <trkpt lat="47.62934" lon="14.05938"><ele>1585</ele><time>2022-04-12T06:02:33Z</time></trkpt>
    <trkpt lat="47.62943" lon="14.05932"><ele>1590</ele><time>2022-04-12T06:02:52Z</time></trkpt>
    <trkpt lat="47.62947" lon="14.05906"><ele>1589</ele><time>2022-04-12T06:03:37Z</time></trkpt>
    <trkpt lat="47.62941" lon="14.05896"><ele>1597</ele><time>2022-04-12T06:03:55Z</time></trkpt>
    <trkpt lat="47.62946" lon="14.05872"><ele>1602</ele><time>2022-04-12T06:04:35Z</time></trkpt>
    <trkpt lat="47.62948" lon="14.05835"><ele>1614</ele><time>2022-04-12T06:07:40Z</time></trkpt>
    <trkpt lat="47.62949" lon="14.05821"><ele>1616</ele><time>2022-04-12T06:07:58Z</time></trkpt>
    <trkpt lat="47.62951" lon="14.05808"><ele>1620</ele><time>2022-04-12T06:08:17Z</time></trkpt>
    <trkpt lat="47.62953" lon="14.05795"><ele>1622</ele><time>2022-04-12T06:08:36Z</time></trkpt>
    <trkpt lat="47.62955" lon="14.05781"><ele>1625</ele><time>2022-04-12T06:08:54Z</time></trkpt>
    <trkpt lat="47.62956" lon="14.05754"><ele>1633</ele><time>2022-04-12T06:09:35Z</time></trkpt>
    <trkpt lat="47.62962" lon="14.05705"><ele>1635</ele><time>2022-04-12T06:10:51Z</time></trkpt>
    <trkpt lat="47.62969" lon="14.05679"><ele>1632</ele><time>2022-04-12T06:11:09Z</time></trkpt>
    <trkpt lat="47.62976" lon="14.05659"><ele>1633</ele><time>2022-04-12T06:11:28Z</time></trkpt>
    <trkpt lat="47.62984" lon="14.05640"><ele>1634</ele><time>2022-04-12T06:11:46Z</time></trkpt>
    <trkpt lat="47.62994" lon="14.05626"><ele>1638</ele><time>2022-04-12T06:12:04Z</time></trkpt>
    <trkpt lat="47.62999" lon="14.05609"><ele>1640</ele><time>2022-04-12T06:12:23Z</time></trkpt>
    <trkpt lat="47.63008" lon="14.05595"><ele>1643</ele><time>2022-04-12T06:12:42Z</time></trkpt>
    <trkpt lat="47.63018" lon="14.05585"><ele>1648</ele><time>2022-04-12T06:13:01Z</time></trkpt>
    <trkpt lat="47.63025" lon="14.05570"><ele>1650</ele><time>2022-04-12T06:13:19Z</time></trkpt>
    <trkpt lat="47.63031" lon="14.05547"><ele>1649</ele><time>2022-04-12T06:13:38Z</time></trkpt>
    <trkpt lat="47.63039" lon="14.05530"><ele>1652</ele><time>2022-04-12T06:13:56Z</time></trkpt>
    <trkpt lat="47.63044" lon="14.05515"><ele>1651</ele><time>2022-04-12T06:14:14Z</time></trkpt>
    <trkpt lat="47.63049" lon="14.05503"><ele>1648</ele><time>2022-04-12T06:14:32Z</time></trkpt>
    <trkpt lat="47.63059" lon="14.05488"><ele>1650</ele><time>2022-04-12T06:14:51Z</time></trkpt>
    <trkpt lat="47.63067" lon="14.05476"><ele>1638</ele><time>2022-04-12T06:15:10Z</time></trkpt>
    <trkpt lat="47.63077" lon="14.05465"><ele>1654</ele><time>2022-04-12T06:15:28Z</time></trkpt>
    <trkpt lat="47.63086" lon="14.05449"><ele>1658</ele><time>2022-04-12T06:15:47Z</time></trkpt>
    <trkpt lat="47.63097" lon="14.05441"><ele>1665</ele><time>2022-04-12T06:16:05Z</time></trkpt>
    <trkpt lat="47.63096" lon="14.05423"><ele>1664</ele><time>2022-04-12T06:16:24Z</time></trkpt>
    <trkpt lat="47.63096" lon="14.05406"><ele>1599</ele><time>2022-04-12T06:16:42Z</time></trkpt>
    <trkpt lat="47.63098" lon="14.05387"><ele>1646</ele><time>2022-04-12T06:17:01Z</time></trkpt>
    <trkpt lat="47.63100" lon="14.05366"><ele>1649</ele><time>2022-04-12T06:17:19Z</time></trkpt>
    <trkpt lat="47.63104" lon="14.05347"><ele>1650</ele><time>2022-04-12T06:17:37Z</time></trkpt>
    <trkpt lat="47.63108" lon="14.05330"><ele>1630</ele><time>2022-04-12T06:17:56Z</time></trkpt>
    <trkpt lat="47.63113" lon="14.05318"><ele>1651</ele><time>2022-04-12T06:18:15Z</time></trkpt>
    <trkpt lat="47.63117" lon="14.05286"><ele>1650</ele><time>2022-04-12T06:19:18Z</time></trkpt>
    <trkpt lat="47.63119" lon="14.05267"><ele>1651</ele><time>2022-04-12T06:19:37Z</time></trkpt>
    <trkpt lat="47.63119" lon="14.05253"><ele>1652</ele><time>2022-04-12T06:19:55Z</time></trkpt>
    <trkpt lat="47.63118" lon="14.05238"><ele>1654</ele><time>2022-04-12T06:20:14Z</time></trkpt>
    <trkpt lat="47.63116" lon="14.05222"><ele>1652</ele><time>2022-04-12T06:20:33Z</time></trkpt>
    <trkpt lat="47.63116" lon="14.05208"><ele>1652</ele><time>2022-04-12T06:20:51Z</time></trkpt>
    <trkpt lat="47.63114" lon="14.05190"><ele>1651</ele><time>2022-04-12T06:21:10Z</time></trkpt>
    <trkpt lat="47.63111" lon="14.05166"><ele>1654</ele><time>2022-04-12T06:21:50Z</time></trkpt>
    <trkpt lat="47.63108" lon="14.05141"><ele>1656</ele><time>2022-04-12T06:22:31Z</time></trkpt>
    <trkpt lat="47.63105" lon="14.05117"><ele>1661</ele><time>2022-04-12T06:23:12Z</time></trkpt>
    <trkpt lat="47.63100" lon="14.05092"><ele>1658</ele><time>2022-04-12T06:23:51Z</time></trkpt>
    <trkpt lat="47.63094" lon="14.05063"><ele>1658</ele><time>2022-04-12T06:24:30Z</time></trkpt>
    <trkpt lat="47.63091" lon="14.05051"><ele>1659</ele><time>2022-04-12T06:24:48Z</time></trkpt>
    <trkpt lat="47.63086" lon="14.05027"><ele>1670</ele><time>2022-04-12T06:25:34Z</time></trkpt>
    <trkpt lat="47.63076" lon="14.05007"><ele>1655</ele><time>2022-04-12T06:26:22Z</time></trkpt>
    <trkpt lat="47.63061" lon="14.04988"><ele>1686</ele><time>2022-04-12T06:28:21Z</time></trkpt>
    <trkpt lat="47.63072" lon="14.04971"><ele>1690</ele><time>2022-04-12T06:29:11Z</time></trkpt>
    <trkpt lat="47.63087" lon="14.04960"><ele>1646</ele><time>2022-04-12T06:30:11Z</time></trkpt>
    <trkpt lat="47.63072" lon="14.04947"><ele>1715</ele><time>2022-04-12T06:31:51Z</time></trkpt>
    <trkpt lat="47.63064" lon="14.04925"><ele>1724</ele><time>2022-04-12T06:43:51Z</time></trkpt>
    <trkpt lat="47.63063" lon="14.04908"><ele>1774</ele><time>2022-04-12T06:49:11Z</time></trkpt>
    <trkpt lat="47.63069" lon="14.04891"><ele>1780</ele><time>2022-04-12T06:49:30Z</time></trkpt>
    <trkpt lat="47.63060" lon="14.04930"><ele>1778</ele><time>2022-04-12T06:49:51Z</time></trkpt>
    <trkpt lat="47.63073" lon="14.04919"><ele>1796</ele><time>2022-04-12T06:53:49Z</time></trkpt>
    <trkpt lat="47.63061" lon="14.04924"><ele>1795</ele><time>2022-04-12T07:02:36Z</time></trkpt>
    <trkpt lat="47.63073" lon="14.04921"><ele>1804</ele><time>2022-04-12T07:02:55Z</time></trkpt>
    <trkpt lat="47.63083" lon="14.04929"><ele>1805</ele><time>2022-04-12T07:04:53Z</time></trkpt>
    <trkpt lat="47.63089" lon="14.04905"><ele>1810</ele><time>2022-04-12T07:06:34Z</time></trkpt>
    <trkpt lat="47.63080" lon="14.04883"><ele>1812</ele><time>2022-04-12T07:08:29Z</time></trkpt>
    <trkpt lat="47.63069" lon="14.04866"><ele>1819</ele><time>2022-04-12T07:10:49Z</time></trkpt>
    <trkpt lat="47.63054" lon="14.04853"><ele>1820</ele><time>2022-04-12T07:12:02Z</time></trkpt>
    <trkpt lat="47.63039" lon="14.04841"><ele>1821</ele><time>2022-04-12T07:13:57Z</time></trkpt>
    <trkpt lat="47.63041" lon="14.04826"><ele>1829</ele><time>2022-04-12T07:16:40Z</time></trkpt>
    <trkpt lat="47.63049" lon="14.04818"><ele>1847</ele><time>2022-04-12T07:16:59Z</time></trkpt>
    <trkpt lat="47.63058" lon="14.04797"><ele>1854</ele><time>2022-04-12T07:18:13Z</time></trkpt>
    <trkpt lat="47.63066" lon="14.04776"><ele>1885</ele><time>2022-04-12T07:21:27Z</time></trkpt>
    <trkpt lat="47.63059" lon="14.04756"><ele>1886</ele><time>2022-04-12T07:23:29Z</time></trkpt>
    <trkpt lat="47.63052" lon="14.04738"><ele>1917</ele><time>2022-04-12T07:25:00Z</time></trkpt>
    <trkpt lat="47.63038" lon="14.04724"><ele>1920</ele><time>2022-04-12T07:26:41Z</time></trkpt>
    <trkpt lat="47.63049" lon="14.04715"><ele>1931</ele><time>2022-04-12T07:28:34Z</time></trkpt>
    <trkpt lat="47.63062" lon="14.04702"><ele>1928</ele><time>2022-04-12T07:30:50Z</time></trkpt>
    <trkpt lat="47.63073" lon="14.04693"><ele>1938</ele><time>2022-04-12T07:31:52Z</time></trkpt>
    <trkpt lat="47.63084" lon="14.04675"><ele>1932</ele><time>2022-04-12T07:33:08Z</time></trkpt>
    <trkpt lat="47.63078" lon="14.04658"><ele>1957</ele><time>2022-04-12T07:35:28Z</time></trkpt>
    <trkpt lat="47.63086" lon="14.04647"><ele>1942</ele><time>2022-04-12T07:35:46Z</time></trkpt>
    <trkpt lat="47.63102" lon="14.04642"><ele>1962</ele><time>2022-04-12T07:37:02Z</time></trkpt>
    <trkpt lat="47.63114" lon="14.04631"><ele>1964</ele><time>2022-04-12T07:37:20Z</time></trkpt>
    <trkpt lat="47.63126" lon="14.04614"><ele>1953</ele><time>2022-04-12T07:37:39Z</time></trkpt>
    <trkpt lat="47.63135" lon="14.04579"><ele>1974</ele><time>2022-04-12T07:39:59Z</time></trkpt>
    <trkpt lat="47.63148" lon="14.04563"><ele>1973</ele><time>2022-04-12T07:40:18Z</time></trkpt>
    <trkpt lat="47.63162" lon="14.04547"><ele>1973</ele><time>2022-04-12T07:40:37Z</time></trkpt>
    <trkpt lat="47.63179" lon="14.04522"><ele>1972</ele><time>2022-04-12T07:40:55Z</time></trkpt>
    <trkpt lat="47.63194" lon="14.04503"><ele>1970</ele><time>2022-04-12T07:41:14Z</time></trkpt>
    <trkpt lat="47.63207" lon="14.04494"><ele>1971</ele><time>2022-04-12T07:41:33Z</time></trkpt>
    <trkpt lat="47.63220" lon="14.04482"><ele>1971</ele><time>2022-04-12T07:41:52Z</time></trkpt>
    <trkpt lat="47.63226" lon="14.04434"><ele>1965</ele><time>2022-04-12T07:42:29Z</time></trkpt>
    <trkpt lat="47.63233" lon="14.04413"><ele>1972</ele><time>2022-04-12T07:43:40Z</time></trkpt>
    <trkpt lat="47.63245" lon="14.04400"><ele>1978</ele><time>2022-04-12T07:44:17Z</time></trkpt>
    <trkpt lat="47.63253" lon="14.04420"><ele>1984</ele><time>2022-04-12T07:45:01Z</time></trkpt>
    <trkpt lat="47.63254" lon="14.04446"><ele>1986</ele><time>2022-04-12T07:45:39Z</time></trkpt>
    <trkpt lat="47.63266" lon="14.04440"><ele>1995</ele><time>2022-04-12T07:47:05Z</time></trkpt>
    <trkpt lat="47.63280" lon="14.04449"><ele>2006</ele><time>2022-04-12T07:48:36Z</time></trkpt>
    <trkpt lat="47.63289" lon="14.04431"><ele>2004</ele><time>2022-04-12T07:50:21Z</time></trkpt>
    <trkpt lat="47.63293" lon="14.04418"><ele>2017</ele><time>2022-04-12T07:50:40Z</time></trkpt>
    <trkpt lat="47.63306" lon="14.04429"><ele>2023</ele><time>2022-04-12T07:51:25Z</time></trkpt>
    <trkpt lat="47.63315" lon="14.04437"><ele>2024</ele><time>2022-04-12T07:51:43Z</time></trkpt>
    <trkpt lat="47.63325" lon="14.04444"><ele>2025</ele><time>2022-04-12T07:52:02Z</time></trkpt>
    <trkpt lat="47.63336" lon="14.04461"><ele>2032</ele><time>2022-04-12T07:52:39Z</time></trkpt>
    <trkpt lat="47.63341" lon="14.04485"><ele>2041</ele><time>2022-04-12T07:53:26Z</time></trkpt>
    <trkpt lat="47.63355" lon="14.04485"><ele>2049</ele><time>2022-04-12T07:54:36Z</time></trkpt>
    <trkpt lat="47.63364" lon="14.04480"><ele>2050</ele><time>2022-04-12T07:54:54Z</time></trkpt>
    <trkpt lat="47.63372" lon="14.04470"><ele>2050</ele><time>2022-04-12T07:55:13Z</time></trkpt>
    <trkpt lat="47.63379" lon="14.04460"><ele>2050</ele><time>2022-04-12T07:55:32Z</time></trkpt>
    <trkpt lat="47.63386" lon="14.04452"><ele>2055</ele><time>2022-04-12T07:55:51Z</time></trkpt>
    <trkpt lat="47.63400" lon="14.04439"><ele>2061</ele><time>2022-04-12T07:56:37Z</time></trkpt>
    <trkpt lat="47.63406" lon="14.04428"><ele>2063</ele><time>2022-04-12T07:56:55Z</time></trkpt>
    <trkpt lat="47.63412" lon="14.04416"><ele>2063</ele><time>2022-04-12T07:57:14Z</time></trkpt>
    <trkpt lat="47.63422" lon="14.04389"><ele>2065</ele><time>2022-04-12T07:57:51Z</time></trkpt>
    <trkpt lat="47.63427" lon="14.04370"><ele>2068</ele><time>2022-04-12T07:58:10Z</time></trkpt>
    <trkpt lat="47.63429" lon="14.04357"><ele>2068</ele><time>2022-04-12T07:58:28Z</time></trkpt>
    <trkpt lat="47.63426" lon="14.04335"><ele>2075</ele><time>2022-04-12T07:59:05Z</time></trkpt>
    <trkpt lat="47.63431" lon="14.04308"><ele>2077</ele><time>2022-04-12T07:59:43Z</time></trkpt>
    <trkpt lat="47.63447" lon="14.04300"><ele>2081</ele><time>2022-04-12T08:00:22Z</time></trkpt>
    <trkpt lat="47.63450" lon="14.04287"><ele>2086</ele><time>2022-04-12T08:00:41Z</time></trkpt>
    <trkpt lat="47.63453" lon="14.04261"><ele>2089</ele><time>2022-04-12T08:01:19Z</time></trkpt>
    <trkpt lat="47.63457" lon="14.04235"><ele>2092</ele><time>2022-04-12T08:01:58Z</time></trkpt>
    <trkpt lat="47.63458" lon="14.04221"><ele>2094</ele><time>2022-04-12T08:02:16Z</time></trkpt>
    <trkpt lat="47.63463" lon="14.04196"><ele>2100</ele><time>2022-04-12T08:02:54Z</time></trkpt>
    <trkpt lat="47.63467" lon="14.04173"><ele>2104</ele><time>2022-04-12T08:03:35Z</time></trkpt>
    <trkpt lat="47.63471" lon="14.04146"><ele>2083</ele><time>2022-04-12T08:04:13Z</time></trkpt>
    <trkpt lat="47.63474" lon="14.04123"><ele>2114</ele><time>2022-04-12T08:04:53Z</time></trkpt>
    <trkpt lat="47.63476" lon="14.04099"><ele>2117</ele><time>2022-04-12T08:05:51Z</time></trkpt>
    <trkpt lat="47.63477" lon="14.04075"><ele>2124</ele><time>2022-04-12T08:06:29Z</time></trkpt>
    <trkpt lat="47.63476" lon="14.04059"><ele>2115</ele><time>2022-04-12T08:06:48Z</time></trkpt>
    <trkpt lat="47.63478" lon="14.04044"><ele>2121</ele><time>2022-04-12T08:07:07Z</time></trkpt>
    <trkpt lat="47.63484" lon="14.04020"><ele>2124</ele><time>2022-04-12T08:07:45Z</time></trkpt>
    <trkpt lat="47.63489" lon="14.03996"><ele>2132</ele><time>2022-04-12T08:08:22Z</time></trkpt>
    <trkpt lat="47.63491" lon="14.03982"><ele>2101</ele><time>2022-04-12T08:08:41Z</time></trkpt>
    <trkpt lat="47.63492" lon="14.03967"><ele>2136</ele><time>2022-04-12T08:09:00Z</time></trkpt>
    <trkpt lat="47.63495" lon="14.03954"><ele>2133</ele><time>2022-04-12T08:09:18Z</time></trkpt>
    <trkpt lat="47.63498" lon="14.03940"><ele>2138</ele><time>2022-04-12T08:09:37Z</time></trkpt>
    <trkpt lat="47.63489" lon="14.03924"><ele>2144</ele><time>2022-04-12T08:10:23Z</time></trkpt>
    <trkpt lat="47.63481" lon="14.03904"><ele>2143</ele><time>2022-04-12T08:11:19Z</time></trkpt>
    <trkpt lat="47.63485" lon="14.03889"><ele>2145</ele><time>2022-04-12T08:11:37Z</time></trkpt>
    <trkpt lat="47.63491" lon="14.03867"><ele>2148</ele><time>2022-04-12T08:12:17Z</time></trkpt>
    <trkpt lat="47.63476" lon="14.03856"><ele>2151</ele><time>2022-04-12T08:12:59Z</time></trkpt>
    <trkpt lat="47.63458" lon="14.03850"><ele>2155</ele><time>2022-04-12T08:13:49Z</time></trkpt>
    <trkpt lat="47.63451" lon="14.03841"><ele>2159</ele><time>2022-04-12T08:34:51Z</time></trkpt>
    <trkpt lat="47.63429" lon="14.03850"><ele>2144</ele><time>2022-04-12T08:35:09Z</time></trkpt>
    <trkpt lat="47.63422" lon="14.03861"><ele>2144</ele><time>2022-04-12T08:35:29Z</time></trkpt>
    <trkpt lat="47.63374" lon="14.03934"><ele>2124</ele><time>2022-04-12T08:35:48Z</time></trkpt>
    <trkpt lat="47.63365" lon="14.03938"><ele>2108</ele><time>2022-04-12T08:36:22Z</time></trkpt>
    <trkpt lat="47.63323" lon="14.04020"><ele>2063</ele><time>2022-04-12T08:36:41Z</time></trkpt>
    <trkpt lat="47.63313" lon="14.04048"><ele>2054</ele><time>2022-04-12T08:36:59Z</time></trkpt>
    <trkpt lat="47.63287" lon="14.04156"><ele>2013</ele><time>2022-04-12T08:37:58Z</time></trkpt>
    <trkpt lat="47.63259" lon="14.04207"><ele>1995</ele><time>2022-04-12T08:38:16Z</time></trkpt>
    <trkpt lat="47.63251" lon="14.04219"><ele>1982</ele><time>2022-04-12T08:39:02Z</time></trkpt>
    <trkpt lat="47.63220" lon="14.04304"><ele>1960</ele><time>2022-04-12T08:39:20Z</time></trkpt>
    <trkpt lat="47.63230" lon="14.04318"><ele>1970</ele><time>2022-04-12T08:43:53Z</time></trkpt>
    <trkpt lat="47.63216" lon="14.04326"><ele>1968</ele><time>2022-04-12T08:44:12Z</time></trkpt>
    <trkpt lat="47.63196" lon="14.04331"><ele>1965</ele><time>2022-04-12T08:44:31Z</time></trkpt>
    <trkpt lat="47.63178" lon="14.04346"><ele>1967</ele><time>2022-04-12T08:45:13Z</time></trkpt>
    <trkpt lat="47.63167" lon="14.04363"><ele>1968</ele><time>2022-04-12T08:45:55Z</time></trkpt>
    <trkpt lat="47.63153" lon="14.04380"><ele>1972</ele><time>2022-04-12T08:46:31Z</time></trkpt>
    <trkpt lat="47.63141" lon="14.04397"><ele>1978</ele><time>2022-04-12T08:47:14Z</time></trkpt>
    <trkpt lat="47.63134" lon="14.04421"><ele>1978</ele><time>2022-04-12T08:47:55Z</time></trkpt>
    <trkpt lat="47.63135" lon="14.04447"><ele>1979</ele><time>2022-04-12T08:50:58Z</time></trkpt>
    <trkpt lat="47.63148" lon="14.04494"><ele>1980</ele><time>2022-04-12T08:51:16Z</time></trkpt>
    <trkpt lat="47.63148" lon="14.04510"><ele>1976</ele><time>2022-04-12T08:51:35Z</time></trkpt>
    <trkpt lat="47.63147" lon="14.04524"><ele>1979</ele><time>2022-04-12T08:51:54Z</time></trkpt>
    <trkpt lat="47.63140" lon="14.04552"><ele>1977</ele><time>2022-04-12T08:52:13Z</time></trkpt>
    <trkpt lat="47.63128" lon="14.04624"><ele>1979</ele><time>2022-04-12T08:52:31Z</time></trkpt>
    <trkpt lat="47.63115" lon="14.04647"><ele>1979</ele><time>2022-04-12T08:52:50Z</time></trkpt>
    <trkpt lat="47.63112" lon="14.04671"><ele>1971</ele><time>2022-04-12T08:53:08Z</time></trkpt>
    <trkpt lat="47.63092" lon="14.04693"><ele>1960</ele><time>2022-04-12T08:55:53Z</time></trkpt>
    <trkpt lat="47.63075" lon="14.04696"><ele>1958</ele><time>2022-04-12T08:57:37Z</time></trkpt>
    <trkpt lat="47.63070" lon="14.04707"><ele>1950</ele><time>2022-04-12T08:58:02Z</time></trkpt>
    <trkpt lat="47.63070" lon="14.04726"><ele>1950</ele><time>2022-04-12T08:58:20Z</time></trkpt>
    <trkpt lat="47.63067" lon="14.04765"><ele>1928</ele><time>2022-04-12T08:59:05Z</time></trkpt>
    <trkpt lat="47.63044" lon="14.04818"><ele>1893</ele><time>2022-04-12T09:00:07Z</time></trkpt>
    <trkpt lat="47.63034" lon="14.04849"><ele>1882</ele><time>2022-04-12T09:00:25Z</time></trkpt>
    <trkpt lat="47.63079" lon="14.04896"><ele>1862</ele><time>2022-04-12T09:01:49Z</time></trkpt>
    <trkpt lat="47.63090" lon="14.04914"><ele>1844</ele><time>2022-04-12T09:03:33Z</time></trkpt>
    <trkpt lat="47.63062" lon="14.04963"><ele>1883</ele><time>2022-04-12T09:17:59Z</time></trkpt>
    <trkpt lat="47.63052" lon="14.04982"><ele>1888</ele><time>2022-04-12T09:22:54Z</time></trkpt>
    <trkpt lat="47.63059" lon="14.04966"><ele>1838</ele><time>2022-04-12T09:32:53Z</time></trkpt>
    <trkpt lat="47.63063" lon="14.04996"><ele>1829</ele><time>2022-04-12T09:33:12Z</time></trkpt>
    <trkpt lat="47.63063" lon="14.05011"><ele>1805</ele><time>2022-04-12T09:34:33Z</time></trkpt>
    <trkpt lat="47.63048" lon="14.04997"><ele>1856</ele><time>2022-04-12T09:34:52Z</time></trkpt>
    <trkpt lat="47.63048" lon="14.05011"><ele>1793</ele><time>2022-04-12T09:35:12Z</time></trkpt>
    <trkpt lat="47.63059" lon="14.05049"><ele>1727</ele><time>2022-04-12T09:35:58Z</time></trkpt>
    <trkpt lat="47.63045" lon="14.05237"><ele>1700</ele><time>2022-04-12T09:36:16Z</time></trkpt>
    <trkpt lat="47.63005" lon="14.05433"><ele>1637</ele><time>2022-04-12T09:36:53Z</time></trkpt>
    <trkpt lat="47.62996" lon="14.05474"><ele>1648</ele><time>2022-04-12T09:39:25Z</time></trkpt>
    <trkpt lat="47.62992" lon="14.05489"><ele>1650</ele><time>2022-04-12T09:39:43Z</time></trkpt>
    <trkpt lat="47.62989" lon="14.05508"><ele>1652</ele><time>2022-04-12T09:40:01Z</time></trkpt>
    <trkpt lat="47.62971" lon="14.05568"><ele>1648</ele><time>2022-04-12T09:40:53Z</time></trkpt>
    <trkpt lat="47.62947" lon="14.05616"><ele>1648</ele><time>2022-04-12T09:41:11Z</time></trkpt>
    <trkpt lat="47.62939" lon="14.05638"><ele>1649</ele><time>2022-04-12T09:41:30Z</time></trkpt>
    <trkpt lat="47.62942" lon="14.05716"><ele>1642</ele><time>2022-04-12T09:41:49Z</time></trkpt>
    <trkpt lat="47.62938" lon="14.05760"><ele>1642</ele><time>2022-04-12T09:42:08Z</time></trkpt>
    <trkpt lat="47.62936" lon="14.05882"><ele>1611</ele><time>2022-04-12T09:42:27Z</time></trkpt>
    <trkpt lat="47.62926" lon="14.05975"><ele>1579</ele><time>2022-04-12T09:42:46Z</time></trkpt>
    <trkpt lat="47.62923" lon="14.05989"><ele>1570</ele><time>2022-04-12T09:43:15Z</time></trkpt>
    <trkpt lat="47.62881" lon="14.06000"><ele>1561</ele><time>2022-04-12T09:43:34Z</time></trkpt>
    <trkpt lat="47.62879" lon="14.06013"><ele>1564</ele><time>2022-04-12T09:43:54Z</time></trkpt>
    <trkpt lat="47.62882" lon="14.06095"><ele>1527</ele><time>2022-04-12T09:44:13Z</time></trkpt>
    <trkpt lat="47.62882" lon="14.06145"><ele>1513</ele><time>2022-04-12T09:44:31Z</time></trkpt>
    <trkpt lat="47.62877" lon="14.06229"><ele>1469</ele><time>2022-04-12T09:45:48Z</time></trkpt>
    <trkpt lat="47.62872" lon="14.06260"><ele>1453</ele><time>2022-04-12T09:46:06Z</time></trkpt>
    <trkpt lat="47.62869" lon="14.06273"><ele>1453</ele><time>2022-04-12T09:46:42Z</time></trkpt>
    <trkpt lat="47.62883" lon="14.06403"><ele>1397</ele><time>2022-04-12T09:47:00Z</time></trkpt>
    <trkpt lat="47.62885" lon="14.06454"><ele>1377</ele><time>2022-04-12T09:47:19Z</time></trkpt>
    <trkpt lat="47.62886" lon="14.06467"><ele>1364</ele><time>2022-04-12T09:48:40Z</time></trkpt>
    <trkpt lat="47.62855" lon="14.06552"><ele>1333</ele><time>2022-04-12T09:48:58Z</time></trkpt>
    <trkpt lat="47.62853" lon="14.06616"><ele>1302</ele><time>2022-04-12T09:49:16Z</time></trkpt>
    <trkpt lat="47.62847" lon="14.06766"><ele>1249</ele><time>2022-04-12T09:50:49Z</time></trkpt>
    <trkpt lat="47.62858" lon="14.06790"><ele>1228</ele><time>2022-04-12T09:51:08Z</time></trkpt>
    <trkpt lat="47.62874" lon="14.06887"><ele>1198</ele><time>2022-04-12T09:51:46Z</time></trkpt>
    <trkpt lat="47.62896" lon="14.06912"><ele>1181</ele><time>2022-04-12T09:52:04Z</time></trkpt>
    <trkpt lat="47.62908" lon="14.06923"><ele>1175</ele><time>2022-04-12T09:52:23Z</time></trkpt>
    <trkpt lat="47.62919" lon="14.06946"><ele>1162</ele><time>2022-04-12T09:52:42Z</time></trkpt>
    <trkpt lat="47.62930" lon="14.06964"><ele>1152</ele><time>2022-04-12T09:57:13Z</time></trkpt>
    <trkpt lat="47.62928" lon="14.06987"><ele>1137</ele><time>2022-04-12T10:00:08Z</time></trkpt>
    <trkpt lat="47.62926" lon="14.07008"><ele>1121</ele><time>2022-04-12T10:06:46Z</time></trkpt>
    <trkpt lat="47.62927" lon="14.07035"><ele>1092</ele><time>2022-04-12T10:15:47Z</time></trkpt>
    <trkpt lat="47.62971" lon="14.07180"><ele>1078</ele><time>2022-04-12T10:16:06Z</time></trkpt>
    <trkpt lat="47.62989" lon="14.07219"><ele>1067</ele><time>2022-04-12T10:16:24Z</time></trkpt>
    <trkpt lat="47.62998" lon="14.07254"><ele>1057</ele><time>2022-04-12T10:16:43Z</time></trkpt>
    <trkpt lat="47.63007" lon="14.07272"><ele>1060</ele><time>2022-04-12T10:17:01Z</time></trkpt>
    <trkpt lat="47.63013" lon="14.07291"><ele>1060</ele><time>2022-04-12T10:17:19Z</time></trkpt>
    <trkpt lat="47.63016" lon="14.07321"><ele>1063</ele><time>2022-04-12T10:17:38Z</time></trkpt>
    <trkpt lat="47.63023" lon="14.07351"><ele>1063</ele><time>2022-04-12T10:17:56Z</time></trkpt>
    <trkpt lat="47.63030" lon="14.07373"><ele>1065</ele><time>2022-04-12T10:18:15Z</time></trkpt>
    <trkpt lat="47.63034" lon="14.07396"><ele>1070</ele><time>2022-04-12T10:18:33Z</time></trkpt>
    <trkpt lat="47.63030" lon="14.07418"><ele>1063</ele><time>2022-04-12T10:19:12Z</time></trkpt>
    <trkpt lat="47.63030" lon="14.07437"><ele>1060</ele><time>2022-04-12T10:19:30Z</time></trkpt>
    <trkpt lat="47.63037" lon="14.07448"><ele>1058</ele><time>2022-04-12T10:19:52Z</time></trkpt>
    <trkpt lat="47.63064" lon="14.07464"><ele>1052</ele><time>2022-04-12T10:20:11Z</time></trkpt>
    <trkpt lat="47.63076" lon="14.07505"><ele>1050</ele><time>2022-04-12T10:20:49Z</time></trkpt>
    <trkpt lat="47.63086" lon="14.07532"><ele>1060</ele><time>2022-04-12T10:21:08Z</time></trkpt>
    <trkpt lat="47.63096" lon="14.07563"><ele>1050</ele><time>2022-04-12T10:21:27Z</time></trkpt>
    <trkpt lat="47.63125" lon="14.07589"><ele>1045</ele><time>2022-04-12T10:21:45Z</time></trkpt>
    <trkpt lat="47.63135" lon="14.07590"><ele>1054</ele><time>2022-04-12T10:22:03Z</time></trkpt>
    <trkpt lat="47.63162" lon="14.07609"><ele>1047</ele><time>2022-04-12T10:22:22Z</time></trkpt>
    <trkpt lat="47.63184" lon="14.07617"><ele>1042</ele><time>2022-04-12T10:22:41Z</time></trkpt>
    <trkpt lat="47.63189" lon="14.07658"><ele>1036</ele><time>2022-04-12T10:22:59Z</time></trkpt>
    <trkpt lat="47.63192" lon="14.07717"><ele>1033</ele><time>2022-04-12T10:23:18Z</time></trkpt>
    <trkpt lat="47.63255" lon="14.07823"><ele>1024</ele><time>2022-04-12T10:23:36Z</time></trkpt>
    <trkpt lat="47.63272" lon="14.07867"><ele>1020</ele><time>2022-04-12T10:23:54Z</time></trkpt>
    <trkpt lat="47.63279" lon="14.07832"><ele>1007</ele><time>2022-04-12T10:24:31Z</time></trkpt>
    <trkpt lat="47.63309" lon="14.07757"><ele>1001</ele><time>2022-04-12T10:25:25Z</time></trkpt>
    <trkpt lat="47.63329" lon="14.07684"><ele>997</ele><time>2022-04-12T10:25:43Z</time></trkpt>
    <trkpt lat="47.63368" lon="14.07662"><ele>966</ele><time>2022-04-12T10:26:02Z</time></trkpt>
    <trkpt lat="47.63390" lon="14.07659"><ele>963</ele><time>2022-04-12T10:26:21Z</time></trkpt>
    <trkpt lat="47.63405" lon="14.07647"><ele>973</ele><time>2022-04-12T10:27:07Z</time></trkpt>
    <trkpt lat="47.63472" lon="14.07635"><ele>941</ele><time>2022-04-12T10:28:09Z</time></trkpt>
    <trkpt lat="47.63499" lon="14.07676"><ele>937</ele><time>2022-04-12T10:28:27Z</time></trkpt>
    <trkpt lat="47.63553" lon="14.07743"><ele>935</ele><time>2022-04-12T10:28:45Z</time></trkpt>
    <trkpt lat="47.63568" lon="14.07782"><ele>926</ele><time>2022-04-12T10:29:04Z</time></trkpt>
    <trkpt lat="47.63568" lon="14.07809"><ele>923</ele><time>2022-04-12T10:30:48Z</time></trkpt>
    <trkpt lat="47.63569" lon="14.07827"><ele>920</ele><time>2022-04-12T10:31:07Z</time></trkpt>
    <trkpt lat="47.63575" lon="14.07857"><ele>917</ele><time>2022-04-12T10:31:26Z</time></trkpt>
    <trkpt lat="47.63582" lon="14.07887"><ele>915</ele><time>2022-04-12T10:31:45Z</time></trkpt>
    <trkpt lat="47.63594" lon="14.07915"><ele>911</ele><time>2022-04-12T10:32:04Z</time></trkpt>
    <trkpt lat="47.63604" lon="14.07939"><ele>908</ele><time>2022-04-12T10:32:22Z</time></trkpt>
    <trkpt lat="47.63617" lon="14.07957"><ele>904</ele><time>2022-04-12T10:32:40Z</time></trkpt>
    <trkpt lat="47.63630" lon="14.07979"><ele>900</ele><time>2022-04-12T10:32:59Z</time></trkpt>
    <trkpt lat="47.63643" lon="14.07998"><ele>896</ele><time>2022-04-12T10:33:17Z</time></trkpt>
    <trkpt lat="47.63658" lon="14.08009"><ele>893</ele><time>2022-04-12T10:33:35Z</time></trkpt>
    <trkpt lat="47.63672" lon="14.08016"><ele>891</ele><time>2022-04-12T10:33:54Z</time></trkpt>
    <trkpt lat="47.63691" lon="14.08031"><ele>892</ele><time>2022-04-12T10:34:13Z</time></trkpt>
    <trkpt lat="47.63710" lon="14.08046"><ele>889</ele><time>2022-04-12T10:34:32Z</time></trkpt>
    <trkpt lat="47.63726" lon="14.08057"><ele>892</ele><time>2022-04-12T10:34:51Z</time></trkpt>
    <trkpt lat="47.63733" lon="14.08080"><ele>895</ele><time>2022-04-12T10:35:10Z</time></trkpt>
    <trkpt lat="47.63743" lon="14.08102"><ele>884</ele><time>2022-04-12T10:35:28Z</time></trkpt>
    <trkpt lat="47.63752" lon="14.08128"><ele>880</ele><time>2022-04-12T10:35:47Z</time></trkpt>
    <trkpt lat="47.63761" lon="14.08154"><ele>879</ele><time>2022-04-12T10:36:05Z</time></trkpt>
    <trkpt lat="47.63768" lon="14.08180"><ele>873</ele><time>2022-04-12T10:36:23Z</time></trkpt>
    <trkpt lat="47.63777" lon="14.08208"><ele>871</ele><time>2022-04-12T10:36:41Z</time></trkpt>
    <trkpt lat="47.63782" lon="14.08233"><ele>867</ele><time>2022-04-12T10:37:00Z</time></trkpt>
    <trkpt lat="47.63790" lon="14.08257"><ele>905</ele><time>2022-04-12T10:37:19Z</time></trkpt>
    <trkpt lat="47.63795" lon="14.08281"><ele>870</ele><time>2022-04-12T10:37:38Z</time></trkpt>
    <trkpt lat="47.63807" lon="14.08301"><ele>869</ele><time>2022-04-12T10:37:56Z</time></trkpt>
    <trkpt lat="47.63817" lon="14.08319"><ele>859</ele><time>2022-04-12T10:38:14Z</time></trkpt>
    <trkpt lat="47.63827" lon="14.08340"><ele>856</ele><time>2022-04-12T10:38:32Z</time></trkpt>
    <trkpt lat="47.63836" lon="14.08364"><ele>846</ele><time>2022-04-12T10:38:50Z</time></trkpt>
    <trkpt lat="47.63848" lon="14.08386"><ele>844</ele><time>2022-04-12T10:39:09Z</time></trkpt>
    <trkpt lat="47.63859" lon="14.08411"><ele>846</ele><time>2022-04-12T10:39:27Z</time></trkpt>
    <trkpt lat="47.63869" lon="14.08435"><ele>847</ele><time>2022-04-12T10:39:46Z</time></trkpt>
    <trkpt lat="47.63875" lon="14.08459"><ele>842</ele><time>2022-04-12T10:40:05Z</time></trkpt>
    <trkpt lat="47.63892" lon="14.08476"><ele>839</ele><time>2022-04-12T10:40:23Z</time></trkpt>
    <trkpt lat="47.63909" lon="14.08491"><ele>870</ele><time>2022-04-12T10:40:42Z</time></trkpt>
    <trkpt lat="47.63924" lon="14.08502"><ele>843</ele><time>2022-04-12T10:41:01Z</time></trkpt>
    <trkpt lat="47.63939" lon="14.08516"><ele>840</ele><time>2022-04-12T10:41:20Z</time></trkpt>
    <trkpt lat="47.63952" lon="14.08522"><ele>832</ele><time>2022-04-12T10:41:38Z</time></trkpt>
    <trkpt lat="47.63970" lon="14.08533"><ele>832</ele><time>2022-04-12T10:41:57Z</time></trkpt>
    <trkpt lat="47.63985" lon="14.08549"><ele>826</ele><time>2022-04-12T10:42:16Z</time></trkpt>
    <trkpt lat="47.64007" lon="14.08561"><ele>824</ele><time>2022-04-12T10:42:35Z</time></trkpt>
    <trkpt lat="47.64027" lon="14.08560"><ele>821</ele><time>2022-04-12T10:42:53Z</time></trkpt>
    <trkpt lat="47.64049" lon="14.08557"><ele>822</ele><time>2022-04-12T10:43:12Z</time></trkpt>
    <trkpt lat="47.64069" lon="14.08566"><ele>822</ele><time>2022-04-12T10:43:31Z</time></trkpt>
    <trkpt lat="47.64089" lon="14.08561"><ele>822</ele><time>2022-04-12T10:43:50Z</time></trkpt>
    <trkpt lat="47.64110" lon="14.08557"><ele>820</ele><time>2022-04-12T10:44:08Z</time></trkpt>
    <trkpt lat="47.64131" lon="14.08555"><ele>815</ele><time>2022-04-12T10:44:26Z</time></trkpt>
    <trkpt lat="47.64151" lon="14.08555"><ele>811</ele><time>2022-04-12T10:44:45Z</time></trkpt>
    <trkpt lat="47.64171" lon="14.08555"><ele>807</ele><time>2022-04-12T10:45:04Z</time></trkpt>
    <trkpt lat="47.64191" lon="14.08552"><ele>811</ele><time>2022-04-12T10:45:23Z</time></trkpt>
    <trkpt lat="47.64214" lon="14.08561"><ele>805</ele><time>2022-04-12T10:45:42Z</time></trkpt>
    <trkpt lat="47.64223" lon="14.08585"><ele>802</ele><time>2022-04-12T10:46:00Z</time></trkpt>
    <trkpt lat="47.64236" lon="14.08608"><ele>797</ele><time>2022-04-12T10:46:19Z</time></trkpt>
    <trkpt lat="47.64243" lon="14.08630"><ele>797</ele><time>2022-04-12T10:46:37Z</time></trkpt>
    <trkpt lat="47.64249" lon="14.08656"><ele>792</ele><time>2022-04-12T10:46:55Z</time></trkpt>
    <trkpt lat="47.64268" lon="14.08673"><ele>784</ele><time>2022-04-12T10:47:14Z</time></trkpt>
    <trkpt lat="47.64283" lon="14.08697"><ele>783</ele><time>2022-04-12T10:47:33Z</time></trkpt>
    <trkpt lat="47.64290" lon="14.08728"><ele>783</ele><time>2022-04-12T10:47:51Z</time></trkpt>
    <trkpt lat="47.64287" lon="14.08757"><ele>779</ele><time>2022-04-12T10:48:10Z</time></trkpt>
    <trkpt lat="47.64301" lon="14.08776"><ele>774</ele><time>2022-04-12T10:48:29Z</time></trkpt>
    <trkpt lat="47.64317" lon="14.08784"><ele>775</ele><time>2022-04-12T10:48:48Z</time></trkpt>
    <trkpt lat="47.64329" lon="14.08802"><ele>767</ele><time>2022-04-12T10:49:07Z</time></trkpt>
    <trkpt lat="47.64341" lon="14.08825"><ele>768</ele><time>2022-04-12T10:49:25Z</time></trkpt>
    <trkpt lat="47.64335" lon="14.08845"><ele>764</ele><time>2022-04-12T10:49:44Z</time></trkpt>
    <trkpt lat="47.64331" lon="14.08871"><ele>760</ele><time>2022-04-12T10:50:02Z</time></trkpt>
    <trkpt lat="47.64340" lon="14.08900"><ele>755</ele><time>2022-04-12T10:50:39Z</time></trkpt>
    <trkpt lat="47.64351" lon="14.08926"><ele>763</ele><time>2022-04-12T10:50:58Z</time></trkpt>
    <trkpt lat="47.64367" lon="14.08944"><ele>760</ele><time>2022-04-12T10:51:17Z</time></trkpt>
    <trkpt lat="47.64384" lon="14.08973"><ele>761</ele><time>2022-04-12T10:51:35Z</time></trkpt>
    <trkpt lat="47.64399" lon="14.08994"><ele>763</ele><time>2022-04-12T10:51:54Z</time></trkpt>
    <trkpt lat="47.64411" lon="14.09022"><ele>762</ele><time>2022-04-12T10:52:13Z</time></trkpt>
    <trkpt lat="47.64419" lon="14.09051"><ele>757</ele><time>2022-04-12T10:52:31Z</time></trkpt>
    <trkpt lat="47.64426" lon="14.09076"><ele>749</ele><time>2022-04-12T10:52:49Z</time></trkpt>
    <trkpt lat="47.64429" lon="14.09111"><ele>749</ele><time>2022-04-12T10:53:08Z</time></trkpt>
    <trkpt lat="47.64426" lon="14.09140"><ele>741</ele><time>2022-04-12T10:53:26Z</time></trkpt>
    <trkpt lat="47.64432" lon="14.09168"><ele>739</ele><time>2022-04-12T10:53:45Z</time></trkpt>
    <trkpt lat="47.64440" lon="14.09197"><ele>738</ele><time>2022-04-12T10:54:04Z</time></trkpt>
    <trkpt lat="47.64441" lon="14.09222"><ele>734</ele><time>2022-04-12T10:54:23Z</time></trkpt>
    <trkpt lat="47.64442" lon="14.09250"><ele>737</ele><time>2022-04-12T10:54:42Z</time></trkpt>
    <trkpt lat="47.64453" lon="14.09278"><ele>740</ele><time>2022-04-12T10:55:00Z</time></trkpt>
    <trkpt lat="47.64468" lon="14.09303"><ele>749</ele><time>2022-04-12T10:55:18Z</time></trkpt>
    <trkpt lat="47.64483" lon="14.09332"><ele>754</ele><time>2022-04-12T10:55:37Z</time></trkpt>
    <trkpt lat="47.64487" lon="14.09355"><ele>752</ele><time>2022-04-12T10:55:56Z</time></trkpt>
    <trkpt lat="47.64495" lon="14.09384"><ele>755</ele><time>2022-04-12T10:56:15Z</time></trkpt>
    <trkpt lat="47.64494" lon="14.09407"><ele>742</ele><time>2022-04-12T10:56:34Z</time></trkpt>
    <trkpt lat="47.64499" lon="14.09427"><ele>741</ele><time>2022-04-12T10:56:53Z</time></trkpt>
    <trkpt lat="47.64514" lon="14.09444"><ele>741</ele><time>2022-04-12T10:57:11Z</time></trkpt>
    <trkpt lat="47.64528" lon="14.09467"><ele>747</ele><time>2022-04-12T10:57:29Z</time></trkpt>
    <trkpt lat="47.64534" lon="14.09489"><ele>739</ele><time>2022-04-12T10:57:47Z</time></trkpt>
    <trkpt lat="47.64538" lon="14.09520"><ele>739</ele><time>2022-04-12T10:58:06Z</time></trkpt>
    <trkpt lat="47.64548" lon="14.09542"><ele>752</ele><time>2022-04-12T10:58:25Z</time></trkpt>
    <trkpt lat="47.64547" lon="14.09559"><ele>743</ele><time>2022-04-12T10:58:43Z</time></trkpt>
    <trkpt lat="47.64544" lon="14.09578"><ele>739</ele><time>2022-04-12T10:59:01Z</time></trkpt>
    <trkpt lat="47.64526" lon="14.09584"><ele>735</ele><time>2022-04-12T10:59:19Z</time></trkpt>
    <trkpt lat="47.64515" lon="14.09598"><ele>731</ele><time>2022-04-12T10:59:38Z</time></trkpt>
  </trkseg>
</trk>
</gpx>