<?xml version="1.0" encoding="UTF-8"?>
<gpx version="1.1" creator="GPX-Pro" xmlns="http://www.topografix.com/GPX/1/1">
<trk>
  <name>Hike_Schoberstein</name>
  <trkseg>
    <trkpt lat="47.89294" lon="14.31542"><ele>568</ele><time>2022-05-26T08:54:34Z</time></trkpt>
    <trkpt lat="47.89294" lon="14.31577"><ele>552</ele><time>2022-05-26T08:55:31Z</time></trkpt>
    <trkpt lat="47.89296" lon="14.31596"><ele>556</ele><time>2022-05-26T08:55:49Z</time></trkpt>
    <trkpt lat="47.89298" lon="14.31619"><ele>559</ele><time>2022-05-26T08:56:08Z</time></trkpt>
    <trkpt lat="47.89301" lon="14.31639"><ele>558</ele><time>2022-05-26T08:56:26Z</time></trkpt>
    <trkpt lat="47.89303" lon="14.31661"><ele>563</ele><time>2022-05-26T08:56:45Z</time></trkpt>
    <trkpt lat="47.89305" lon="14.31674"><ele>565</ele><time>2022-05-26T08:57:03Z</time></trkpt>
    <trkpt lat="47.89306" lon="14.31699"><ele>571</ele><time>2022-05-26T08:59:24Z</time></trkpt>
    <trkpt lat="47.89313" lon="14.31707"><ele>572</ele><time>2022-05-26T08:59:42Z</time></trkpt>
    <trkpt lat="47.89323" lon="14.31708"><ele>576</ele><time>2022-05-26T09:00:02Z</time></trkpt>
    <trkpt lat="47.89339" lon="14.31713"><ele>583</ele><time>2022-05-26T09:00:41Z</time></trkpt>
    <trkpt lat="47.89356" lon="14.31709"><ele>586</ele><time>2022-05-26T09:01:21Z</time></trkpt>
    <trkpt lat="47.89371" lon="14.31705"><ele>591</ele><time>2022-05-26T09:02:01Z</time></trkpt>
    <trkpt lat="47.89387" lon="14.31696"><ele>596</ele><time>2022-05-26T09:02:39Z</time></trkpt>
    <trkpt lat="47.89402" lon="14.31687"><ele>602</ele><time>2022-05-26T09:03:18Z</time></trkpt>
    <trkpt lat="47.89410" lon="14.31680"><ele>603</ele><time>2022-05-26T09:03:37Z</time></trkpt>
    <trkpt lat="47.89417" lon="14.31671"><ele>595</ele><time>2022-05-26T09:03:56Z</time></trkpt>
    <trkpt lat="47.89424" lon="14.31663"><ele>608</ele><time>2022-05-26T09:04:15Z</time></trkpt>
    <trkpt lat="47.89438" lon="14.31648"><ele>613</ele><time>2022-05-26T09:04:53Z</time></trkpt>
    <trkpt lat="47.89442" lon="14.31635"><ele>616</ele><time>2022-05-26T09:05:12Z</time></trkpt>
    <trkpt lat="47.89457" lon="14.31653"><ele>624</ele><time>2022-05-26T09:05:57Z</time></trkpt>
    <trkpt lat="47.89474" lon="14.31660"><ele>630</ele><time>2022-05-26T09:06:34Z</time></trkpt>
    <trkpt lat="47.89481" lon="14.31671"><ele>630</ele><time>2022-05-26T09:06:52Z</time></trkpt>
    <trkpt lat="47.89488" lon="14.31685"><ele>631</ele><time>2022-05-26T09:07:11Z</time></trkpt>
    <trkpt lat="47.89498" lon="14.31699"><ele>600</ele><time>2022-05-26T09:07:30Z</time></trkpt>
    <trkpt lat="47.89507" lon="14.31703"><ele>632</ele><time>2022-05-26T09:07:48Z</time></trkpt>
    <trkpt lat="47.89514" lon="14.31711"><ele>639</ele><time>2022-05-26T09:08:07Z</time></trkpt>
    <trkpt lat="47.89520" lon="14.31724"><ele>639</ele><time>2022-05-26T09:08:26Z</time></trkpt>
    <trkpt lat="47.89528" lon="14.31735"><ele>642</ele><time>2022-05-26T09:08:45Z</time></trkpt>
    <trkpt lat="47.89538" lon="14.31747"><ele>643</ele><time>2022-05-26T09:09:03Z</time></trkpt>
    <trkpt lat="47.89548" lon="14.31758"><ele>644</ele><time>2022-05-26T09:09:21Z</time></trkpt>
    <trkpt lat="47.89558" lon="14.31769"><ele>615</ele><time>2022-05-26T09:09:40Z</time></trkpt>
    <trkpt lat="47.89566" lon="14.31784"><ele>655</ele><time>2022-05-26T09:09:59Z</time></trkpt>
    <trkpt lat="47.89574" lon="14.31809"><ele>653</ele><time>2022-05-26T09:10:46Z</time></trkpt>
    <trkpt lat="47.89590" lon="14.31809"><ele>669</ele><time>2022-05-26T09:12:36Z</time></trkpt>
    <trkpt lat="47.89600" lon="14.31781"><ele>658</ele><time>2022-05-26T09:13:21Z</time></trkpt>
    <trkpt lat="47.89607" lon="14.31759"><ele>668</ele><time>2022-05-26T09:15:19Z</time></trkpt>
    <trkpt lat="47.89593" lon="14.31793"><ele>643</ele><time>2022-05-26T09:19:01Z</time></trkpt>
    <trkpt lat="47.89580" lon="14.31819"><ele>665</ele><time>2022-05-26T09:19:19Z</time></trkpt>
    <trkpt lat="47.89569" lon="14.31848"><ele>663</ele><time>2022-05-26T09:19:38Z</time></trkpt>
    <trkpt lat="47.89558" lon="14.31878"><ele>639</ele><time>2022-05-26T09:19:57Z</time></trkpt>
    <trkpt lat="47.89548" lon="14.31913"><ele>605</ele><time>2022-05-26T09:20:16Z</time></trkpt>
    <trkpt lat="47.89543" lon="14.31948"><ele>653</ele><time>2022-05-26T09:20:35Z</time></trkpt>
    <trkpt lat="47.89540" lon="14.31985"><ele>648</ele><time>2022-05-26T09:20:53Z</time></trkpt>
    <trkpt lat="47.89539" lon="14.32024"><ele>648</ele><time>2022-05-26T09:21:11Z</time></trkpt>
    <trkpt lat="47.89520" lon="14.32054"><ele>648</ele><time>2022-05-26T09:21:30Z</time></trkpt>
    <trkpt lat="47.89510" lon="14.32093"><ele>647</ele><time>2022-05-26T09:21:49Z</time></trkpt>
    <trkpt lat="47.89525" lon="14.32122"><ele>644</ele><time>2022-05-26T09:22:07Z</time></trkpt>
    <trkpt lat="47.89520" lon="14.32153"><ele>647</ele><time>2022-05-26T09:22:26Z</time></trkpt>
    <trkpt lat="47.89507" lon="14.32182"><ele>639</ele><time>2022-05-26T09:22:44Z</time></trkpt>
    <trkpt lat="47.89498" lon="14.32212"><ele>635</ele><time>2022-05-26T09:23:02Z</time></trkpt>
    <trkpt lat="47.89503" lon="14.32235"><ele>640</ele><time>2022-05-26T09:23:21Z</time></trkpt>
    <trkpt lat="47.89508" lon="14.32254"><ele>635</ele><time>2022-05-26T09:23:39Z</time></trkpt>
    <trkpt lat="47.89503" lon="14.32284"><ele>634</ele><time>2022-05-26T09:23:57Z</time></trkpt>
    <trkpt lat="47.89496" lon="14.32314"><ele>634</ele><time>2022-05-26T09:24:15Z</time></trkpt>
    <trkpt lat="47.89487" lon="14.32346"><ele>637</ele><time>2022-05-26T09:24:34Z</time></trkpt>
    <trkpt lat="47.89478" lon="14.32375"><ele>638</ele><time>2022-05-26T09:24:53Z</time></trkpt>
    <trkpt lat="47.89477" lon="14.32406"><ele>643</ele><time>2022-05-26T09:25:12Z</time></trkpt>
    <trkpt lat="47.89488" lon="14.32424"><ele>642</ele><time>2022-05-26T09:25:31Z</time></trkpt>
    <trkpt lat="47.89499" lon="14.32437"><ele>641</ele><time>2022-05-26T09:25:50Z</time></trkpt>
    <trkpt lat="47.89512" lon="14.32469"><ele>635</ele><time>2022-05-26T09:26:09Z</time></trkpt>
    <trkpt lat="47.89505" lon="14.32509"><ele>642</ele><time>2022-05-26T09:26:28Z</time></trkpt>
    <trkpt lat="47.89498" lon="14.32547"><ele>644</ele><time>2022-05-26T09:26:47Z</time></trkpt>
    <trkpt lat="47.89483" lon="14.32575"><ele>647</ele><time>2022-05-26T09:27:05Z</time></trkpt>
    <trkpt lat="47.89467" lon="14.32600"><ele>642</ele><time>2022-05-26T09:27:24Z</time></trkpt>
    <trkpt lat="47.89449" lon="14.32621"><ele>643</ele><time>2022-05-26T09:27:42Z</time></trkpt>
    <trkpt lat="47.89440" lon="14.32641"><ele>643</ele><time>2022-05-26T09:28:01Z</time></trkpt>
    <trkpt lat="47.89435" lon="14.32659"><ele>642</ele><time>2022-05-26T09:28:19Z</time></trkpt>
    <trkpt lat="47.89430" lon="14.32676"><ele>646</ele><time>2022-05-26T09:28:38Z</time></trkpt>
    <trkpt lat="47.89424" lon="14.32695"><ele>647</ele><time>2022-05-26T09:28:56Z</time></trkpt>
    <trkpt lat="47.89419" lon="14.32715"><ele>652</ele><time>2022-05-26T09:29:15Z</time></trkpt>
    <trkpt lat="47.89421" lon="14.32735"><ele>655</ele><time>2022-05-26T09:29:33Z</time></trkpt>
    <trkpt lat="47.89431" lon="14.32748"><ele>660</ele><time>2022-05-26T09:29:52Z</time></trkpt>
    <trkpt lat="47.89442" lon="14.32755"><ele>664</ele><time>2022-05-26T09:30:10Z</time></trkpt>
    <trkpt lat="47.89455" lon="14.32760"><ele>655</ele><time>2022-05-26T09:30:29Z</time></trkpt>
    <trkpt lat="47.89463" lon="14.32767"><ele>668</ele><time>2022-05-26T09:30:48Z</time></trkpt>
    <trkpt lat="47.89481" lon="14.32779"><ele>657</ele><time>2022-05-26T09:31:30Z</time></trkpt>
    <trkpt lat="47.89493" lon="14.32788"><ele>650</ele><time>2022-05-26T09:31:49Z</time></trkpt>
    <trkpt lat="47.89510" lon="14.32805"><ele>654</ele><time>2022-05-26T09:32:08Z</time></trkpt>
    <trkpt lat="47.89533" lon="14.32817"><ele>652</ele><time>2022-05-26T09:32:26Z</time></trkpt>
    <trkpt lat="47.89564" lon="14.32836"><ele>665</ele><time>2022-05-26T09:32:45Z</time></trkpt>
    <trkpt lat="47.89578" lon="14.32853"><ele>664</ele><time>2022-05-26T09:33:03Z</time></trkpt>
    <trkpt lat="47.89579" lon="14.32885"><ele>667</ele><time>2022-05-26T09:33:21Z</time></trkpt>
    <trkpt lat="47.89576" lon="14.32915"><ele>667</ele><time>2022-05-26T09:33:40Z</time></trkpt>
    <trkpt lat="47.89567" lon="14.32946"><ele>664</ele><time>2022-05-26T09:33:59Z</time></trkpt>
    <trkpt lat="47.89554" lon="14.32973"><ele>666</ele><time>2022-05-26T09:34:18Z</time></trkpt>
    <trkpt lat="47.89547" lon="14.32994"><ele>667</ele><time>2022-05-26T09:34:36Z</time></trkpt>
    <trkpt lat="47.89538" lon="14.33014"><ele>665</ele><time>2022-05-26T09:34:55Z</time></trkpt>
    <trkpt lat="47.89537" lon="14.33034"><ele>670</ele><time>2022-05-26T09:35:13Z</time></trkpt>
    <trkpt lat="47.89539" lon="14.33055"><ele>664</ele><time>2022-05-26T09:35:31Z</time></trkpt>
    <trkpt lat="47.89542" lon="14.33076"><ele>662</ele><time>2022-05-26T09:35:50Z</time></trkpt>
    <trkpt lat="47.89543" lon="14.33095"><ele>668</ele><time>2022-05-26T09:36:08Z</time></trkpt>
    <trkpt lat="47.89543" lon="14.33110"><ele>660</ele><time>2022-05-26T09:36:26Z</time></trkpt>
    <trkpt lat="47.89538" lon="14.33133"><ele>670</ele><time>2022-05-26T09:36:45Z</time></trkpt>
    <trkpt lat="47.89526" lon="14.33150"><ele>673</ele><time>2022-05-26T09:37:03Z</time></trkpt>
    <trkpt lat="47.89522" lon="14.33174"><ele>667</ele><time>2022-05-26T09:37:22Z</time></trkpt>
    <trkpt lat="47.89530" lon="14.33188"><ele>685</ele><time>2022-05-26T09:37:40Z</time></trkpt>
    <trkpt lat="47.89540" lon="14.33202"><ele>693</ele><time>2022-05-26T09:37:59Z</time></trkpt>
    <trkpt lat="47.89553" lon="14.33208"><ele>697</ele><time>2022-05-26T09:38:17Z</time></trkpt>
    <trkpt lat="47.89564" lon="14.33212"><ele>698</ele><time>2022-05-26T09:38:36Z</time></trkpt>
    <trkpt lat="47.89585" lon="14.33223"><ele>698</ele><time>2022-05-26T09:39:48Z</time></trkpt>
    <trkpt lat="47.89596" lon="14.33230"><ele>704</ele><time>2022-05-26T09:40:06Z</time></trkpt>
    <trkpt lat="47.89610" lon="14.33237"><ele>706</ele><time>2022-05-26T09:40:25Z</time></trkpt>
    <trkpt lat="47.89624" lon="14.33248"><ele>697</ele><time>2022-05-26T09:40:43Z</time></trkpt>
    <trkpt lat="47.89638" lon="14.33251"><ele>688</ele><time>2022-05-26T09:41:02Z</time></trkpt>
    <trkpt lat="47.89655" lon="14.33249"><ele>677</ele><time>2022-05-26T09:41:21Z</time></trkpt>
    <trkpt lat="47.89675" lon="14.33275"><ele>697</ele><time>2022-05-26T09:41:40Z</time></trkpt>
    <trkpt lat="47.89697" lon="14.33287"><ele>703</ele><time>2022-05-26T09:41:58Z</time></trkpt>
    <trkpt lat="47.89713" lon="14.33298"><ele>705</ele><time>2022-05-26T09:42:17Z</time></trkpt>
    <trkpt lat="47.89728" lon="14.33296"><ele>694</ele><time>2022-05-26T09:42:36Z</time></trkpt>
    <trkpt lat="47.89740" lon="14.33323"><ele>702</ele><time>2022-05-26T09:42:56Z</time></trkpt>
    <trkpt lat="47.89748" lon="14.33359"><ele>713</ele><time>2022-05-26T09:43:14Z</time></trkpt>
    <trkpt lat="47.89752" lon="14.33390"><ele>714</ele><time>2022-05-26T09:43:32Z</time></trkpt>
    <trkpt lat="47.89750" lon="14.33413"><ele>712</ele><time>2022-05-26T09:43:50Z</time></trkpt>
    <trkpt lat="47.89748" lon="14.33446"><ele>709</ele><time>2022-05-26T09:44:08Z</time></trkpt>
    <trkpt lat="47.89744" lon="14.33475"><ele>695</ele><time>2022-05-26T09:44:27Z</time></trkpt>
    <trkpt lat="47.89731" lon="14.33503"><ele>692</ele><time>2022-05-26T09:44:45Z</time></trkpt>
    <trkpt lat="47.89719" lon="14.33525"><ele>681</ele><time>2022-05-26T09:45:03Z</time></trkpt>
    <trkpt lat="47.89706" lon="14.33555"><ele>697</ele><time>2022-05-26T09:45:22Z</time></trkpt>
    <trkpt lat="47.89699" lon="14.33580"><ele>700</ele><time>2022-05-26T09:45:41Z</time></trkpt>
    <trkpt lat="47.89696" lon="14.33601"><ele>713</ele><time>2022-05-26T09:45:59Z</time></trkpt>
    <trkpt lat="47.89697" lon="14.33619"><ele>705</ele><time>2022-05-26T09:46:17Z</time></trkpt>
    <trkpt lat="47.89695" lon="14.33640"><ele>709</ele><time>2022-05-26T09:46:36Z</time></trkpt>
    <trkpt lat="47.89688" lon="14.33667"><ele>712</ele><time>2022-05-26T09:46:55Z</time></trkpt>
    <trkpt lat="47.89682" lon="14.33684"><ele>714</ele><time>2022-05-26T09:47:13Z</time></trkpt>
    <trkpt lat="47.89673" lon="14.33703"><ele>723</ele><time>2022-05-26T09:47:32Z</time></trkpt>
    <trkpt lat="47.89661" lon="14.33717"><ele>725</ele><time>2022-05-26T09:47:51Z</time></trkpt>
    <trkpt lat="47.89649" lon="14.33729"><ele>725</ele><time>2022-05-26T09:48:09Z</time></trkpt>
    <trkpt lat="47.89649" lon="14.33749"><ele>731</ele><time>2022-05-26T09:48:28Z</time></trkpt>
    <trkpt lat="47.89659" lon="14.33749"><ele>725</ele><time>2022-05-26T09:48:46Z</time></trkpt>
    <trkpt lat="47.89672" lon="14.33730"><ele>737</ele><time>2022-05-26T09:49:05Z</time></trkpt>
    <trkpt lat="47.89684" lon="14.33716"><ele>742</ele><time>2022-05-26T09:49:23Z</time></trkpt>
    <trkpt lat="47.89696" lon="14.33706"><ele>745</ele><time>2022-05-26T09:49:42Z</time></trkpt>
    <trkpt lat="47.89706" lon="14.33686"><ele>739</ele><time>2022-05-26T09:50:01Z</time></trkpt>
    <trkpt lat="47.89714" lon="14.33667"><ele>745</ele><time>2022-05-26T09:50:19Z</time></trkpt>
    <trkpt lat="47.89722" lon="14.33646"><ele>728</ele><time>2022-05-26T09:50:38Z</time></trkpt>
    <trkpt lat="47.89733" lon="14.33630"><ele>745</ele><time>2022-05-26T09:50:57Z</time></trkpt>
    <trkpt lat="47.89743" lon="14.33610"><ele>750</ele><time>2022-05-26T09:51:16Z</time></trkpt>
    <trkpt lat="47.89758" lon="14.33603"><ele>730</ele><time>2022-05-26T09:51:34Z</time></trkpt>
    <trkpt lat="47.89771" lon="14.33591"><ele>750</ele><time>2022-05-26T09:51:52Z</time></trkpt>
    <trkpt lat="47.89787" lon="14.33580"><ele>756</ele><time>2022-05-26T09:52:11Z</time></trkpt>
    <trkpt lat="47.89801" lon="14.33566"><ele>760</ele><time>2022-05-26T09:52:30Z</time></trkpt>
    <trkpt lat="47.89813" lon="14.33554"><ele>750</ele><time>2022-05-26T09:52:48Z</time></trkpt>
    <trkpt lat="47.89824" lon="14.33539"><ele>765</ele><time>2022-05-26T09:53:06Z</time></trkpt>
    <trkpt lat="47.89835" lon="14.33522"><ele>767</ele><time>2022-05-26T09:53:25Z</time></trkpt>
    <trkpt lat="47.89835" lon="14.33501"><ele>755</ele><time>2022-05-26T09:53:43Z</time></trkpt>
    <trkpt lat="47.89831" lon="14.33478"><ele>739</ele><time>2022-05-26T09:54:02Z</time></trkpt>
    <trkpt lat="47.89837" lon="14.33458"><ele>765</ele><time>2022-05-26T09:54:20Z</time></trkpt>
    <trkpt lat="47.89837" lon="14.33434"><ele>768</ele><time>2022-05-26T09:54:39Z</time></trkpt>
    <trkpt lat="47.89839" lon="14.33415"><ele>772</ele><time>2022-05-26T09:54:57Z</time></trkpt>
    <trkpt lat="47.89852" lon="14.33400"><ele>738</ele><time>2022-05-26T09:55:16Z</time></trkpt>
    <trkpt lat="47.89867" lon="14.33389"><ele>768</ele><time>2022-05-26T09:55:34Z</time></trkpt>
    <trkpt lat="47.89860" lon="14.33358"><ele>781</ele><time>2022-05-26T09:55:52Z</time></trkpt>
    <trkpt lat="47.89856" lon="14.33335"><ele>779</ele><time>2022-05-26T09:56:10Z</time></trkpt>
    <trkpt lat="47.89854" lon="14.33312"><ele>781</ele><time>2022-05-26T09:56:29Z</time></trkpt>
    <trkpt lat="47.89852" lon="14.33295"><ele>780</ele><time>2022-05-26T09:56:47Z</time></trkpt>
    <trkpt lat="47.89849" lon="14.33270"><ele>784</ele><time>2022-05-26T09:57:06Z</time></trkpt>
    <trkpt lat="47.89838" lon="14.33252"><ele>788</ele><time>2022-05-26T09:57:24Z</time></trkpt>
    <trkpt lat="47.89828" lon="14.33234"><ele>787</ele><time>2022-05-26T09:57:43Z</time></trkpt>
    <trkpt lat="47.89823" lon="14.33214"><ele>785</ele><time>2022-05-26T09:58:01Z</time></trkpt>
    <trkpt lat="47.89813" lon="14.33191"><ele>789</ele><time>2022-05-26T09:58:20Z</time></trkpt>
    <trkpt lat="47.89799" lon="14.33175"><ele>791</ele><time>2022-05-26T09:58:39Z</time></trkpt>
    <trkpt lat="47.89786" lon="14.33161"><ele>796</ele><time>2022-05-26T09:58:58Z</time></trkpt>
    <trkpt lat="47.89772" lon="14.33145"><ele>801</ele><time>2022-05-26T09:59:16Z</time></trkpt>
    <trkpt lat="47.89759" lon="14.33133"><ele>803</ele><time>2022-05-26T09:59:35Z</time></trkpt>
    <trkpt lat="47.89749" lon="14.33118"><ele>805</ele><time>2022-05-26T09:59:53Z</time></trkpt>
    <trkpt lat="47.89751" lon="14.33096"><ele>805</ele><time>2022-05-26T10:00:12Z</time></trkpt>
    <trkpt lat="47.89761" lon="14.33075"><ele>792</ele><time>2022-05-26T10:00:31Z</time></trkpt>
    <trkpt lat="47.89776" lon="14.33068"><ele>794</ele><time>2022-05-26T10:00:50Z</time></trkpt>
    <trkpt lat="47.89787" lon="14.33052"><ele>804</ele><time>2022-05-26T10:01:09Z</time></trkpt>
    <trkpt lat="47.89804" lon="14.33044"><ele>812</ele><time>2022-05-26T10:01:27Z</time></trkpt>
    <trkpt lat="47.89817" lon="14.33032"><ele>778</ele><time>2022-05-26T10:01:45Z</time></trkpt>
    <trkpt lat="47.89830" lon="14.33015"><ele>800</ele><time>2022-05-26T10:02:04Z</time></trkpt>
    <trkpt lat="47.89843" lon="14.32999"><ele>759</ele><time>2022-05-26T10:02:23Z</time></trkpt>
    <trkpt lat="47.89854" lon="14.32979"><ele>810</ele><time>2022-05-26T10:02:41Z</time></trkpt>
    <trkpt lat="47.89870" lon="14.32965"><ele>824</ele><time>2022-05-26T10:03:00Z</time></trkpt>
    <trkpt lat="47.89881" lon="14.32947"><ele>829</ele><time>2022-05-26T10:03:19Z</time></trkpt>
    <trkpt lat="47.89889" lon="14.32930"><ele>820</ele><time>2022-05-26T10:03:37Z</time></trkpt>
    <trkpt lat="47.89891" lon="14.32901"><ele>827</ele><time>2022-05-26T10:03:56Z</time></trkpt>
    <trkpt lat="47.89885" lon="14.32877"><ele>813</ele><time>2022-05-26T10:04:14Z</time></trkpt>
    <trkpt lat="47.89886" lon="14.32850"><ele>818</ele><time>2022-05-26T10:04:32Z</time></trkpt>
    <trkpt lat="47.89886" lon="14.32828"><ele>819</ele><time>2022-05-26T10:04:50Z</time></trkpt>
    <trkpt lat="47.89887" lon="14.32793"><ele>833</ele><time>2022-05-26T10:05:09Z</time></trkpt>
    <trkpt lat="47.89892" lon="14.32761"><ele>837</ele><time>2022-05-26T10:05:28Z</time></trkpt>
    <trkpt lat="47.89900" lon="14.32730"><ele>831</ele><time>2022-05-26T10:05:47Z</time></trkpt>
    <trkpt lat="47.89893" lon="14.32708"><ele>832</ele><time>2022-05-26T10:06:05Z</time></trkpt>
    <trkpt lat="47.89877" lon="14.32686"><ele>839</ele><time>2022-05-26T10:06:24Z</time></trkpt>
    <trkpt lat="47.89858" lon="14.32671"><ele>841</ele><time>2022-05-26T10:06:43Z</time></trkpt>
    <trkpt lat="47.89838" lon="14.32660"><ele>840</ele><time>2022-05-26T10:07:02Z</time></trkpt>
    <trkpt lat="47.89818" lon="14.32647"><ele>838</ele><time>2022-05-26T10:07:21Z</time></trkpt>
    <trkpt lat="47.89815" lon="14.32614"><ele>838</ele><time>2022-05-26T10:07:40Z</time></trkpt>
    <trkpt lat="47.89812" lon="14.32585"><ele>842</ele><time>2022-05-26T10:07:59Z</time></trkpt>
    <trkpt lat="47.89813" lon="14.32555"><ele>845</ele><time>2022-05-26T10:08:18Z</time></trkpt>
    <trkpt lat="47.89818" lon="14.32526"><ele>844</ele><time>2022-05-26T10:08:37Z</time></trkpt>
    <trkpt lat="47.89816" lon="14.32549"><ele>850</ele><time>2022-05-26T10:13:57Z</time></trkpt>
    <trkpt lat="47.89825" lon="14.32569"><ele>853</ele><time>2022-05-26T10:14:38Z</time></trkpt>
    <trkpt lat="47.89833" lon="14.32579"><ele>853</ele><time>2022-05-26T10:14:56Z</time></trkpt>
    <trkpt lat="47.89843" lon="14.32598"><ele>860</ele><time>2022-05-26T10:15:44Z</time></trkpt>
    <trkpt lat="47.89857" lon="14.32590"><ele>869</ele><time>2022-05-26T10:16:48Z</time></trkpt>
    <trkpt lat="47.89861" lon="14.32576"><ele>874</ele><time>2022-05-26T10:17:07Z</time></trkpt>
    <trkpt lat="47.89869" lon="14.32597"><ele>878</ele><time>2022-05-26T10:17:55Z</time></trkpt>
    <trkpt lat="47.89879" lon="14.32577"><ele>884</ele><time>2022-05-26T10:18:36Z</time></trkpt>
    <trkpt lat="47.89891" lon="14.32584"><ele>892</ele><time>2022-05-26T10:19:34Z</time></trkpt>
    <trkpt lat="47.89905" lon="14.32574"><ele>899</ele><time>2022-05-26T10:20:32Z</time></trkpt>
    <trkpt lat="47.89917" lon="14.32557"><ele>907</ele><time>2022-05-26T10:21:11Z</time></trkpt>
    <trkpt lat="47.89932" lon="14.32549"><ele>913</ele><time>2022-05-26T10:22:00Z</time></trkpt>
    <trkpt lat="47.89942" lon="14.32554"><ele>913</ele><time>2022-05-26T10:22:50Z</time></trkpt>
    <trkpt lat="47.89948" lon="14.32544"><ele>918</ele><time>2022-05-26T10:23:09Z</time></trkpt>
    <trkpt lat="47.89958" lon="14.32548"><ele>915</ele><time>2022-05-26T10:23:56Z</time></trkpt>
    <trkpt lat="47.89963" lon="14.32562"><ele>904</ele><time>2022-05-26T10:24:15Z</time></trkpt>
    <trkpt lat="47.89977" lon="14.32560"><ele>932</ele><time>2022-05-26T10:25:06Z</time></trkpt>
    <trkpt lat="47.89988" lon="14.32543"><ele>938</ele><time>2022-05-26T10:26:15Z</time></trkpt>
    <trkpt lat="47.89999" lon="14.32560"><ele>944</ele><time>2022-05-26T10:27:10Z</time></trkpt>
    <trkpt lat="47.90006" lon="14.32570"><ele>944</ele><time>2022-05-26T10:27:29Z</time></trkpt>
    <trkpt lat="47.90016" lon="14.32579"><ele>930</ele><time>2022-05-26T10:27:47Z</time></trkpt>
    <trkpt lat="47.90028" lon="14.32594"><ele>940</ele><time>2022-05-26T10:28:06Z</time></trkpt>
    <trkpt lat="47.90035" lon="14.32608"><ele>942</ele><time>2022-05-26T10:28:24Z</time></trkpt>
    <trkpt lat="47.90049" lon="14.32623"><ele>848</ele><time>2022-05-26T10:29:52Z</time></trkpt>
    <trkpt lat="47.90062" lon="14.32640"><ele>958</ele><time>2022-05-26T10:30:34Z</time></trkpt>
    <trkpt lat="47.90073" lon="14.32643"><ele>960</ele><time>2022-05-26T10:31:27Z</time></trkpt>
    <trkpt lat="47.90082" lon="14.32665"><ele>968</ele><time>2022-05-26T10:33:47Z</time></trkpt>
    <trkpt lat="47.90091" lon="14.32670"><ele>963</ele><time>2022-05-26T10:34:06Z</time></trkpt>
    <trkpt lat="47.90106" lon="14.32681"><ele>976</ele><time>2022-05-26T10:35:30Z</time></trkpt>
    <trkpt lat="47.90091" lon="14.32666"><ele>976</ele><time>2022-05-26T10:38:34Z</time></trkpt>
    <trkpt lat="47.90082" lon="14.32659"><ele>975</ele><time>2022-05-26T10:38:52Z</time></trkpt>
    <trkpt lat="47.90084" lon="14.32635"><ele>982</ele><time>2022-05-26T10:42:42Z</time></trkpt>
    <trkpt lat="47.90076" lon="14.32614"><ele>994</ele><time>2022-05-26T10:44:51Z</time></trkpt>
    <trkpt lat="47.90099" lon="14.32622"><ele>975</ele><time>2022-05-26T10:47:17Z</time></trkpt>
    <trkpt lat="47.90110" lon="14.32622"><ele>980</ele><time>2022-05-26T10:47:36Z</time></trkpt>
    <trkpt lat="47.90127" lon="14.32647"><ele>1006</ele><time>2022-05-26T10:48:43Z</time></trkpt>
    <trkpt lat="47.90140" lon="14.32636"><ele>903</ele><time>2022-05-26T10:49:22Z</time></trkpt>
    <trkpt lat="47.90143" lon="14.32611"><ele>1013</ele><time>2022-05-26T10:50:36Z</time></trkpt>
    <trkpt lat="47.90134" lon="14.32589"><ele>1022</ele><time>2022-05-26T10:51:20Z</time></trkpt>
    <trkpt lat="47.90132" lon="14.32573"><ele>1022</ele><time>2022-05-26T10:51:38Z</time></trkpt>
    <trkpt lat="47.90135" lon="14.32548"><ele>1032</ele><time>2022-05-26T10:53:14Z</time></trkpt>
    <trkpt lat="47.90149" lon="14.32542"><ele>1040</ele><time>2022-05-26T10:54:16Z</time></trkpt>
    <trkpt lat="47.90165" lon="14.32541"><ele>1050</ele><time>2022-05-26T10:55:23Z</time></trkpt>
    <trkpt lat="47.90178" lon="14.32549"><ele>1059</ele><time>2022-05-26T10:56:20Z</time></trkpt>
    <trkpt lat="47.90187" lon="14.32558"><ele>1065</ele><time>2022-05-26T10:56:38Z</time></trkpt>
    <trkpt lat="47.90197" lon="14.32565"><ele>1063</ele><time>2022-05-26T10:56:56Z</time></trkpt>
    <trkpt lat="47.90207" lon="14.32570"><ele>1067</ele><time>2022-05-26T10:57:15Z</time></trkpt>
    <trkpt lat="47.90224" lon="14.32576"><ele>969</ele><time>2022-05-26T10:58:02Z</time></trkpt>
    <trkpt lat="47.90236" lon="14.32592"><ele>1014</ele><time>2022-05-26T10:58:45Z</time></trkpt>
    <trkpt lat="47.90250" lon="14.32597"><ele>1088</ele><time>2022-05-26T11:00:26Z</time></trkpt>
    <trkpt lat="47.90263" lon="14.32596"><ele>1084</ele><time>2022-05-26T11:01:17Z</time></trkpt>
    <trkpt lat="47.90271" lon="14.32618"><ele>1093</ele><time>2022-05-26T11:02:48Z</time></trkpt>
    <trkpt lat="47.90274" lon="14.32634"><ele>1099</ele><time>2022-05-26T11:03:07Z</time></trkpt>
    <trkpt lat="47.90285" lon="14.32647"><ele>1114</ele><time>2022-05-26T11:05:08Z</time></trkpt>
    <trkpt lat="47.90302" lon="14.32646"><ele>1116</ele><time>2022-05-26T11:06:03Z</time></trkpt>
    <trkpt lat="47.90311" lon="14.32661"><ele>1119</ele><time>2022-05-26T11:07:14Z</time></trkpt>
    <trkpt lat="47.90321" lon="14.32681"><ele>1120</ele><time>2022-05-26T11:08:12Z</time></trkpt>
    <trkpt lat="47.90329" lon="14.32706"><ele>1127</ele><time>2022-05-26T11:09:04Z</time></trkpt>
    <trkpt lat="47.90339" lon="14.32725"><ele>1135</ele><time>2022-05-26T11:10:03Z</time></trkpt>
    <trkpt lat="47.90348" lon="14.32746"><ele>1140</ele><time>2022-05-26T11:11:39Z</time></trkpt>
    <trkpt lat="47.90355" lon="14.32769"><ele>1156</ele><time>2022-05-26T11:13:37Z</time></trkpt>
    <trkpt lat="47.90363" lon="14.32789"><ele>1170</ele><time>2022-05-26T11:15:02Z</time></trkpt>
    <trkpt lat="47.90375" lon="14.32805"><ele>1183</ele><time>2022-05-26T11:16:45Z</time></trkpt>
    <trkpt lat="47.90391" lon="14.32805"><ele>1185</ele><time>2022-05-26T11:17:47Z</time></trkpt>
    <trkpt lat="47.90398" lon="14.32828"><ele>1190</ele><time>2022-05-26T11:18:36Z</time></trkpt>
    <trkpt lat="47.90409" lon="14.32838"><ele>1206</ele><time>2022-05-26T11:20:08Z</time></trkpt>
    <trkpt lat="47.90425" lon="14.32836"><ele>1216</ele><time>2022-05-26T11:21:29Z</time></trkpt>
    <trkpt lat="47.90433" lon="14.32827"><ele>1217</ele><time>2022-05-26T11:21:47Z</time></trkpt>
    <trkpt lat="47.90437" lon="14.32813"><ele>1219</ele><time>2022-05-26T11:22:06Z</time></trkpt>
    <trkpt lat="47.90447" lon="14.32814"><ele>1228</ele><time>2022-05-26T11:23:42Z</time></trkpt>
    <trkpt lat="47.90463" lon="14.32793"><ele>1226</ele><time>2022-05-26T11:24:53Z</time></trkpt>
    <trkpt lat="47.90471" lon="14.32782"><ele>1229</ele><time>2022-05-26T11:25:11Z</time></trkpt>
    <trkpt lat="47.90456" lon="14.32803"><ele>1229</ele><time>2022-05-26T11:34:07Z</time></trkpt>
    <trkpt lat="47.90448" lon="14.32802"><ele>1215</ele><time>2022-05-26T11:36:40Z</time></trkpt>
  </trkseg>
  <trkseg>
    <trkpt lat="47.90448" lon="14.32802"><ele>1215</ele><time>2022-05-26T11:36:40Z</time></trkpt>
    <trkpt lat="47.90473" lon="14.32781"><ele>1227</ele><time>2022-05-26T11:48:05Z</time></trkpt>
    <trkpt lat="47.90477" lon="14.32757"><ele>1226</ele><time>2022-05-26T11:50:17Z</time></trkpt>
    <trkpt lat="47.90481" lon="14.32737"><ele>1232</ele><time>2022-05-26T11:50:35Z</time></trkpt>
    <trkpt lat="47.90489" lon="14.32719"><ele>1236</ele><time>2022-05-26T11:50:54Z</time></trkpt>
    <trkpt lat="47.90495" lon="14.32705"><ele>1237</ele><time>2022-05-26T11:51:13Z</time></trkpt>
    <trkpt lat="47.90504" lon="14.32685"><ele>1240</ele><time>2022-05-26T11:51:32Z</time></trkpt>
    <trkpt lat="47.90508" lon="14.32667"><ele>1245</ele><time>2022-05-26T11:51:50Z</time></trkpt>
    <trkpt lat="47.90512" lon="14.32646"><ele>1245</ele><time>2022-05-26T11:52:09Z</time></trkpt>
    <trkpt lat="47.90515" lon="14.32627"><ele>1247</ele><time>2022-05-26T11:52:28Z</time></trkpt>
    <trkpt lat="47.90511" lon="14.32613"><ele>1246</ele><time>2022-05-26T11:52:46Z</time></trkpt>
    <trkpt lat="47.90508" lon="14.32594"><ele>1249</ele><time>2022-05-26T11:53:04Z</time></trkpt>
    <trkpt lat="47.90505" lon="14.32576"><ele>1255</ele><time>2022-05-26T11:53:22Z</time></trkpt>
    <trkpt lat="47.90507" lon="14.32553"><ele>1254</ele><time>2022-05-26T11:53:41Z</time></trkpt>
    <trkpt lat="47.90508" lon="14.32536"><ele>1258</ele><time>2022-05-26T11:54:00Z</time></trkpt>
    <trkpt lat="47.90512" lon="14.32518"><ele>1259</ele><time>2022-05-26T11:54:19Z</time></trkpt>
    <trkpt lat="47.90520" lon="14.32499"><ele>1261</ele><time>2022-05-26T11:54:38Z</time></trkpt>
    <trkpt lat="47.90526" lon="14.32484"><ele>1260</ele><time>2022-05-26T11:54:57Z</time></trkpt>
    <trkpt lat="47.90538" lon="14.32502"><ele>1257</ele><time>2022-05-26T11:55:57Z</time></trkpt>
    <trkpt lat="47.90543" lon="14.32515"><ele>1268</ele><time>2022-05-26T11:56:16Z</time></trkpt>
    <trkpt lat="47.90558" lon="14.32525"><ele>1282</ele><time>2022-05-26T11:57:02Z</time></trkpt>
    <trkpt lat="47.90545" lon="14.32523"><ele>1276</ele><time>2022-05-26T12:00:50Z</time></trkpt>
    <trkpt lat="47.90537" lon="14.32508"><ele>1270</ele><time>2022-05-26T12:01:09Z</time></trkpt>
    <trkpt lat="47.90535" lon="14.32492"><ele>1265</ele><time>2022-05-26T12:01:27Z</time></trkpt>
    <trkpt lat="47.90532" lon="14.32476"><ele>1268</ele><time>2022-05-26T12:01:45Z</time></trkpt>
    <trkpt lat="47.90523" lon="14.32466"><ele>1262</ele><time>2022-05-26T12:02:04Z</time></trkpt>
    <trkpt lat="47.90513" lon="14.32451"><ele>1260</ele><time>2022-05-26T12:02:22Z</time></trkpt>
    <trkpt lat="47.90497" lon="14.32441"><ele>1261</ele><time>2022-05-26T12:02:41Z</time></trkpt>
    <trkpt lat="47.90500" lon="14.32416"><ele>1260</ele><time>2022-05-26T12:38:51Z</time></trkpt>
    <trkpt lat="47.90506" lon="14.32397"><ele>1258</ele><time>2022-05-26T12:39:09Z</time></trkpt>
    <trkpt lat="47.90518" lon="14.32371"><ele>1255</ele><time>2022-05-26T12:39:28Z</time></trkpt>
    <trkpt lat="47.90521" lon="14.32340"><ele>1258</ele><time>2022-05-26T12:42:31Z</time></trkpt>
    <trkpt lat="47.90525" lon="14.32311"><ele>1256</ele><time>2022-05-26T12:42:50Z</time></trkpt>
    <trkpt lat="47.90524" lon="14.32281"><ele>1252</ele><time>2022-05-26T12:43:09Z</time></trkpt>
    <trkpt lat="47.90523" lon="14.32251"><ele>1250</ele><time>2022-05-26T12:43:27Z</time></trkpt>
    <trkpt lat="47.90522" lon="14.32230"><ele>1242</ele><time>2022-05-26T12:43:46Z</time></trkpt>
    <trkpt lat="47.90516" lon="14.32207"><ele>1240</ele><time>2022-05-26T12:44:04Z</time></trkpt>
    <trkpt lat="47.90514" lon="14.32185"><ele>1236</ele><time>2022-05-26T12:44:22Z</time></trkpt>
    <trkpt lat="47.90510" lon="14.32159"><ele>1233</ele><time>2022-05-26T12:44:41Z</time></trkpt>
    <trkpt lat="47.90506" lon="14.32134"><ele>1228</ele><time>2022-05-26T12:44:59Z</time></trkpt>
    <trkpt lat="47.90499" lon="14.32112"><ele>1225</ele><time>2022-05-26T12:45:17Z</time></trkpt>
    <trkpt lat="47.90502" lon="14.32088"><ele>1219</ele><time>2022-05-26T12:45:36Z</time></trkpt>
    <trkpt lat="47.90495" lon="14.32071"><ele>1221</ele><time>2022-05-26T12:45:54Z</time></trkpt>
    <trkpt lat="47.90492" lon="14.32047"><ele>1212</ele><time>2022-05-26T12:46:13Z</time></trkpt>
    <trkpt lat="47.90491" lon="14.32028"><ele>1206</ele><time>2022-05-26T12:46:32Z</time></trkpt>
    <trkpt lat="47.90482" lon="14.32008"><ele>1204</ele><time>2022-05-26T12:46:51Z</time></trkpt>
    <trkpt lat="47.90479" lon="14.31993"><ele>1199</ele><time>2022-05-26T12:47:10Z</time></trkpt>
    <trkpt lat="47.90478" lon="14.31974"><ele>1197</ele><time>2022-05-26T12:47:28Z</time></trkpt>
    <trkpt lat="47.90485" lon="14.31951"><ele>1193</ele><time>2022-05-26T12:47:47Z</time></trkpt>
    <trkpt lat="47.90488" lon="14.31924"><ele>1198</ele><time>2022-05-26T12:48:05Z</time></trkpt>
    <trkpt lat="47.90490" lon="14.31897"><ele>1199</ele><time>2022-05-26T12:48:24Z</time></trkpt>
    <trkpt lat="47.90496" lon="14.31862"><ele>1200</ele><time>2022-05-26T12:48:43Z</time></trkpt>
    <trkpt lat="47.90496" lon="14.31832"><ele>1199</ele><time>2022-05-26T12:49:01Z</time></trkpt>
    <trkpt lat="47.90491" lon="14.31803"><ele>1198</ele><time>2022-05-26T12:49:20Z</time></trkpt>
    <trkpt lat="47.90487" lon="14.31779"><ele>1189</ele><time>2022-05-26T12:49:38Z</time></trkpt>
    <trkpt lat="47.90481" lon="14.31746"><ele>1189</ele><time>2022-05-26T12:49:57Z</time></trkpt>
    <trkpt lat="47.90483" lon="14.31713"><ele>1183</ele><time>2022-05-26T12:50:15Z</time></trkpt>
    <trkpt lat="47.90475" lon="14.31681"><ele>1186</ele><time>2022-05-26T12:50:34Z</time></trkpt>
    <trkpt lat="47.90463" lon="14.31665"><ele>1194</ele><time>2022-05-26T12:53:05Z</time></trkpt>
    <trkpt lat="47.90460" lon="14.31630"><ele>1195</ele><time>2022-05-26T12:53:24Z</time></trkpt>
    <trkpt lat="47.90454" lon="14.31597"><ele>1189</ele><time>2022-05-26T12:53:43Z</time></trkpt>
    <trkpt lat="47.90440" lon="14.31566"><ele>1190</ele><time>2022-05-26T12:54:01Z</time></trkpt>
    <trkpt lat="47.90424" lon="14.31548"><ele>1191</ele><time>2022-05-26T12:54:20Z</time></trkpt>
    <trkpt lat="47.90407" lon="14.31523"><ele>1186</ele><time>2022-05-26T12:54:38Z</time></trkpt>
    <trkpt lat="47.90393" lon="14.31503"><ele>1177</ele><time>2022-05-26T12:54:57Z</time></trkpt>
    <trkpt lat="47.90373" lon="14.31488"><ele>1177</ele><time>2022-05-26T12:55:15Z</time></trkpt>
    <trkpt lat="47.90358" lon="14.31467"><ele>1174</ele><time>2022-05-26T12:55:33Z</time></trkpt>
    <trkpt lat="47.90367" lon="14.31438"><ele>1166</ele><time>2022-05-26T12:55:52Z</time></trkpt>
    <trkpt lat="47.90368" lon="14.31417"><ele>1168</ele><time>2022-05-26T12:56:10Z</time></trkpt>
    <trkpt lat="47.90373" lon="14.31399"><ele>1163</ele><time>2022-05-26T12:56:29Z</time></trkpt>
    <trkpt lat="47.90363" lon="14.31373"><ele>1172</ele><time>2022-05-26T12:57:24Z</time></trkpt>
    <trkpt lat="47.90362" lon="14.31358"><ele>1157</ele><time>2022-05-26T12:57:42Z</time></trkpt>
    <trkpt lat="47.90363" lon="14.31333"><ele>1163</ele><time>2022-05-26T12:58:00Z</time></trkpt>
    <trkpt lat="47.90361" lon="14.31313"><ele>1153</ele><time>2022-05-26T12:58:18Z</time></trkpt>
    <trkpt lat="47.90362" lon="14.31299"><ele>1143</ele><time>2022-05-26T12:58:37Z</time></trkpt>
    <trkpt lat="47.90357" lon="14.31277"><ele>1142</ele><time>2022-05-26T12:58:56Z</time></trkpt>
    <trkpt lat="47.90353" lon="14.31255"><ele>1165</ele><time>2022-05-26T12:59:15Z</time></trkpt>
    <trkpt lat="47.90340" lon="14.31285"><ele>1126</ele><time>2022-05-26T13:00:54Z</time></trkpt>
    <trkpt lat="47.90328" lon="14.31317"><ele>1125</ele><time>2022-05-26T13:01:13Z</time></trkpt>
    <trkpt lat="47.90327" lon="14.31302"><ele>1122</ele><time>2022-05-26T13:01:31Z</time></trkpt>
    <trkpt lat="47.90330" lon="14.31279"><ele>1143</ele><time>2022-05-26T13:01:49Z</time></trkpt>
    <trkpt lat="47.90335" lon="14.31253"><ele>1122</ele><time>2022-05-26T13:02:08Z</time></trkpt>
    <trkpt lat="47.90337" lon="14.31219"><ele>1136</ele><time>2022-05-26T13:02:26Z</time></trkpt>
    <trkpt lat="47.90331" lon="14.31182"><ele>1112</ele><time>2022-05-26T13:02:45Z</time></trkpt>
    <trkpt lat="47.90337" lon="14.31149"><ele>1122</ele><time>2022-05-26T13:03:03Z</time></trkpt>
    <trkpt lat="47.90342" lon="14.31121"><ele>1100</ele><time>2022-05-26T13:03:22Z</time></trkpt>
    <trkpt lat="47.90342" lon="14.31093"><ele>1117</ele><time>2022-05-26T13:03:40Z</time></trkpt>
    <trkpt lat="47.90341" lon="14.31051"><ele>1108</ele><time>2022-05-26T13:03:59Z</time></trkpt>
    <trkpt lat="47.90339" lon="14.31016"><ele>1139</ele><time>2022-05-26T13:04:18Z</time></trkpt>
    <trkpt lat="47.90331" lon="14.30983"><ele>1133</ele><time>2022-05-26T13:04:37Z</time></trkpt>
    <trkpt lat="47.90339" lon="14.30937"><ele>1128</ele><time>2022-05-26T13:04:56Z</time></trkpt>
    <trkpt lat="47.90337" lon="14.30909"><ele>1146</ele><time>2022-05-26T13:05:14Z</time></trkpt>
    <trkpt lat="47.90338" lon="14.30873"><ele>1095</ele><time>2022-05-26T13:05:32Z</time></trkpt>
    <trkpt lat="47.90339" lon="14.30831"><ele>1137</ele><time>2022-05-26T13:05:50Z</time></trkpt>
    <trkpt lat="47.90340" lon="14.30806"><ele>1090</ele><time>2022-05-26T13:06:09Z</time></trkpt>
    <trkpt lat="47.90341" lon="14.30771"><ele>1135</ele><time>2022-05-26T13:06:27Z</time></trkpt>
    <trkpt lat="47.90343" lon="14.30738"><ele>1114</ele><time>2022-05-26T13:06:46Z</time></trkpt>
    <trkpt lat="47.90342" lon="14.30706"><ele>1083</ele><time>2022-05-26T13:07:04Z</time></trkpt>
    <trkpt lat="47.90339" lon="14.30664"><ele>1105</ele><time>2022-05-26T13:07:23Z</time></trkpt>
    <trkpt lat="47.90343" lon="14.30631"><ele>1118</ele><time>2022-05-26T13:07:42Z</time></trkpt>
    <trkpt lat="47.90335" lon="14.30623"><ele>1076</ele><time>2022-05-26T13:08:00Z</time></trkpt>
    <trkpt lat="47.90327" lon="14.30633"><ele>1064</ele><time>2022-05-26T13:08:19Z</time></trkpt>
    <trkpt lat="47.90329" lon="14.30620"><ele>1057</ele><time>2022-05-26T13:08:42Z</time></trkpt>
    <trkpt lat="47.90321" lon="14.30610"><ele>1053</ele><time>2022-05-26T13:09:00Z</time></trkpt>
    <trkpt lat="47.90312" lon="14.30626"><ele>1046</ele><time>2022-05-26T13:09:18Z</time></trkpt>
    <trkpt lat="47.90303" lon="14.30600"><ele>1054</ele><time>2022-05-26T13:09:58Z</time></trkpt>
    <trkpt lat="47.90285" lon="14.30606"><ele>1043</ele><time>2022-05-26T13:10:43Z</time></trkpt>
    <trkpt lat="47.90273" lon="14.30596"><ele>1078</ele><time>2022-05-26T13:11:20Z</time></trkpt>
    <trkpt lat="47.90263" lon="14.30570"><ele>1038</ele><time>2022-05-26T13:11:57Z</time></trkpt>
    <trkpt lat="47.90253" lon="14.30563"><ele>1025</ele><time>2022-05-26T13:12:16Z</time></trkpt>
    <trkpt lat="47.90241" lon="14.30569"><ele>1120</ele><time>2022-05-26T13:12:34Z</time></trkpt>
    <trkpt lat="47.90222" lon="14.30558"><ele>1048</ele><time>2022-05-26T13:13:12Z</time></trkpt>
    <trkpt lat="47.90210" lon="14.30563"><ele>1005</ele><time>2022-05-26T13:13:30Z</time></trkpt>
    <trkpt lat="47.90199" lon="14.30561"><ele>1015</ele><time>2022-05-26T13:13:48Z</time></trkpt>
    <trkpt lat="47.90192" lon="14.30545"><ele>1004</ele><time>2022-05-26T13:14:06Z</time></trkpt>
    <trkpt lat="47.90180" lon="14.30535"><ele>992</ele><time>2022-05-26T13:14:45Z</time></trkpt>
    <trkpt lat="47.90170" lon="14.30554"><ele>985</ele><time>2022-05-26T13:15:29Z</time></trkpt>
    <trkpt lat="47.90161" lon="14.30581"><ele>993</ele><time>2022-05-26T13:16:13Z</time></trkpt>
    <trkpt lat="47.90153" lon="14.30603"><ele>970</ele><time>2022-05-26T13:16:32Z</time></trkpt>
    <trkpt lat="47.90145" lon="14.30616"><ele>1000</ele><time>2022-05-26T13:16:50Z</time></trkpt>
    <trkpt lat="47.90135" lon="14.30640"><ele>1048</ele><time>2022-05-26T13:17:08Z</time></trkpt>
    <trkpt lat="47.90119" lon="14.30650"><ele>1017</ele><time>2022-05-26T13:17:26Z</time></trkpt>
    <trkpt lat="47.90109" lon="14.30671"><ele>975</ele><time>2022-05-26T13:17:45Z</time></trkpt>
    <trkpt lat="47.90105" lon="14.30684"><ele>981</ele><time>2022-05-26T13:18:04Z</time></trkpt>
    <trkpt lat="47.90098" lon="14.30697"><ele>965</ele><time>2022-05-26T13:18:22Z</time></trkpt>
    <trkpt lat="47.90092" lon="14.30726"><ele>957</ele><time>2022-05-26T13:19:00Z</time></trkpt>
    <trkpt lat="47.90082" lon="14.30741"><ele>960</ele><time>2022-05-26T13:19:18Z</time></trkpt>
    <trkpt lat="47.90075" lon="14.30759"><ele>966</ele><time>2022-05-26T13:19:37Z</time></trkpt>
    <trkpt lat="47.90064" lon="14.30771"><ele>958</ele><time>2022-05-26T13:19:55Z</time></trkpt>
    <trkpt lat="47.90058" lon="14.30791"><ele>947</ele><time>2022-05-26T13:20:14Z</time></trkpt>
    <trkpt lat="47.90051" lon="14.30804"><ele>943</ele><time>2022-05-26T13:20:33Z</time></trkpt>
    <trkpt lat="47.90048" lon="14.30820"><ele>933</ele><time>2022-05-26T13:20:51Z</time></trkpt>
    <trkpt lat="47.90046" lon="14.30855"><ele>923</ele><time>2022-05-26T13:21:31Z</time></trkpt>
    <trkpt lat="47.90048" lon="14.30870"><ele>917</ele><time>2022-05-26T13:21:49Z</time></trkpt>
    <trkpt lat="47.90044" lon="14.30894"><ele>918</ele><time>2022-05-26T13:22:08Z</time></trkpt>
    <trkpt lat="47.90037" lon="14.30919"><ele>915</ele><time>2022-05-26T13:22:27Z</time></trkpt>
    <trkpt lat="47.90033" lon="14.30940"><ele>913</ele><time>2022-05-26T13:22:45Z</time></trkpt>
    <trkpt lat="47.90039" lon="14.30957"><ele>899</ele><time>2022-05-26T13:23:04Z</time></trkpt>
    <trkpt lat="47.90025" lon="14.30980"><ele>901</ele><time>2022-05-26T13:23:22Z</time></trkpt>
    <trkpt lat="47.90022" lon="14.30993"><ele>898</ele><time>2022-05-26T13:23:41Z</time></trkpt>
    <trkpt lat="47.90014" lon="14.31019"><ele>883</ele><time>2022-05-26T13:24:21Z</time></trkpt>
    <trkpt lat="47.90005" lon="14.31040"><ele>873</ele><time>2022-05-26T13:25:19Z</time></trkpt>
    <trkpt lat="47.90002" lon="14.31055"><ele>865</ele><time>2022-05-26T13:25:37Z</time></trkpt>
    <trkpt lat="47.89989" lon="14.31076"><ele>862</ele><time>2022-05-26T13:25:55Z</time></trkpt>
    <trkpt lat="47.89992" lon="14.31093"><ele>857</ele><time>2022-05-26T13:26:14Z</time></trkpt>
    <trkpt lat="47.89987" lon="14.31118"><ele>861</ele><time>2022-05-26T13:26:33Z</time></trkpt>
    <trkpt lat="47.89993" lon="14.31144"><ele>868</ele><time>2022-05-26T13:27:16Z</time></trkpt>
    <trkpt lat="47.89981" lon="14.31177"><ele>859</ele><time>2022-05-26T13:27:54Z</time></trkpt>
    <trkpt lat="47.89976" lon="14.31190"><ele>856</ele><time>2022-05-26T13:28:13Z</time></trkpt>
    <trkpt lat="47.89970" lon="14.31201"><ele>853</ele><time>2022-05-26T13:28:31Z</time></trkpt>
    <trkpt lat="47.89974" lon="14.31216"><ele>843</ele><time>2022-05-26T13:28:49Z</time></trkpt>
    <trkpt lat="47.89965" lon="14.31229"><ele>843</ele><time>2022-05-26T13:29:08Z</time></trkpt>
    <trkpt lat="47.89955" lon="14.31239"><ele>969</ele><time>2022-05-26T13:29:27Z</time></trkpt>
    <trkpt lat="47.89943" lon="14.31247"><ele>1091</ele><time>2022-05-26T13:29:45Z</time></trkpt>
    <trkpt lat="47.89934" lon="14.31238"><ele>941</ele><time>2022-05-26T13:30:03Z</time></trkpt>
    <trkpt lat="47.89919" lon="14.31257"><ele>959</ele><time>2022-05-26T13:30:46Z</time></trkpt>
    <trkpt lat="47.89908" lon="14.31261"><ele>877</ele><time>2022-05-26T13:31:05Z</time></trkpt>
    <trkpt lat="47.89895" lon="14.31266"><ele>828</ele><time>2022-05-26T13:31:23Z</time></trkpt>
    <trkpt lat="47.89887" lon="14.31274"><ele>1021</ele><time>2022-05-26T13:31:42Z</time></trkpt>
    <trkpt lat="47.89878" lon="14.31280"><ele>826</ele><time>2022-05-26T13:32:01Z</time></trkpt>
    <trkpt lat="47.89864" lon="14.31287"><ele>816</ele><time>2022-05-26T13:32:20Z</time></trkpt>
    <trkpt lat="47.89854" lon="14.31298"><ele>810</ele><time>2022-05-26T13:32:38Z</time></trkpt>
    <trkpt lat="47.89846" lon="14.31307"><ele>803</ele><time>2022-05-26T13:32:57Z</time></trkpt>
    <trkpt lat="47.89843" lon="14.31319"><ele>798</ele><time>2022-05-26T13:33:16Z</time></trkpt>
    <trkpt lat="47.89834" lon="14.31329"><ele>794</ele><time>2022-05-26T13:33:34Z</time></trkpt>
    <trkpt lat="47.89823" lon="14.31327"><ele>797</ele><time>2022-05-26T13:41:34Z</time></trkpt>
    <trkpt lat="47.89817" lon="14.31346"><ele>794</ele><time>2022-05-26T13:41:52Z</time></trkpt>
    <trkpt lat="47.89817" lon="14.31365"><ele>781</ele><time>2022-05-26T13:42:10Z</time></trkpt>
    <trkpt lat="47.89811" lon="14.31380"><ele>775</ele><time>2022-05-26T13:42:29Z</time></trkpt>
    <trkpt lat="47.89801" lon="14.31404"><ele>781</ele><time>2022-05-26T13:42:47Z</time></trkpt>
    <trkpt lat="47.89793" lon="14.31425"><ele>776</ele><time>2022-05-26T13:43:05Z</time></trkpt>
    <trkpt lat="47.89791" lon="14.31455"><ele>773</ele><time>2022-05-26T13:43:24Z</time></trkpt>
    <trkpt lat="47.89805" lon="14.31474"><ele>771</ele><time>2022-05-26T13:43:42Z</time></trkpt>
    <trkpt lat="47.89813" lon="14.31497"><ele>765</ele><time>2022-05-26T13:44:01Z</time></trkpt>
    <trkpt lat="47.89811" lon="14.31527"><ele>765</ele><time>2022-05-26T13:44:20Z</time></trkpt>
    <trkpt lat="47.89796" lon="14.31549"><ele>763</ele><time>2022-05-26T13:44:39Z</time></trkpt>
    <trkpt lat="47.89784" lon="14.31568"><ele>773</ele><time>2022-05-26T13:44:58Z</time></trkpt>
    <trkpt lat="47.89771" lon="14.31578"><ele>770</ele><time>2022-05-26T13:45:16Z</time></trkpt>
    <trkpt lat="47.89763" lon="14.31603"><ele>753</ele><time>2022-05-26T13:45:34Z</time></trkpt>
    <trkpt lat="47.89753" lon="14.31628"><ele>753</ele><time>2022-05-26T13:45:53Z</time></trkpt>
    <trkpt lat="47.89754" lon="14.31653"><ele>754</ele><time>2022-05-26T13:46:11Z</time></trkpt>
    <trkpt lat="47.89754" lon="14.31679"><ele>750</ele><time>2022-05-26T13:46:30Z</time></trkpt>
    <trkpt lat="47.89755" lon="14.31702"><ele>771</ele><time>2022-05-26T13:46:49Z</time></trkpt>
    <trkpt lat="47.89758" lon="14.31729"><ele>746</ele><time>2022-05-26T13:47:07Z</time></trkpt>
    <trkpt lat="47.89734" lon="14.31703"><ele>741</ele><time>2022-05-26T13:47:57Z</time></trkpt>
    <trkpt lat="47.89723" lon="14.31693"><ele>739</ele><time>2022-05-26T13:48:15Z</time></trkpt>
    <trkpt lat="47.89709" lon="14.31689"><ele>733</ele><time>2022-05-26T13:48:33Z</time></trkpt>
    <trkpt lat="47.89705" lon="14.31669"><ele>725</ele><time>2022-05-26T13:48:51Z</time></trkpt>
    <trkpt lat="47.89695" lon="14.31657"><ele>720</ele><time>2022-05-26T13:49:10Z</time></trkpt>
    <trkpt lat="47.89684" lon="14.31638"><ele>713</ele><time>2022-05-26T13:49:29Z</time></trkpt>
    <trkpt lat="47.89675" lon="14.31631"><ele>708</ele><time>2022-05-26T13:49:47Z</time></trkpt>
    <trkpt lat="47.89674" lon="14.31654"><ele>709</ele><time>2022-05-26T13:50:06Z</time></trkpt>
    <trkpt lat="47.89666" lon="14.31662"><ele>707</ele><time>2022-05-26T13:50:24Z</time></trkpt>
    <trkpt lat="47.89657" lon="14.31645"><ele>705</ele><time>2022-05-26T13:50:42Z</time></trkpt>
    <trkpt lat="47.89648" lon="14.31630"><ele>705</ele><time>2022-05-26T13:51:01Z</time></trkpt>
    <trkpt lat="47.89634" lon="14.31602"><ele>694</ele><time>2022-05-26T13:51:45Z</time></trkpt>
    <trkpt lat="47.89627" lon="14.31582"><ele>687</ele><time>2022-05-26T13:52:04Z</time></trkpt>
    <trkpt lat="47.89625" lon="14.31559"><ele>681</ele><time>2022-05-26T13:52:22Z</time></trkpt>
    <trkpt lat="47.89615" lon="14.31548"><ele>683</ele><time>2022-05-26T13:52:41Z</time></trkpt>
    <trkpt lat="47.89602" lon="14.31541"><ele>683</ele><time>2022-05-26T13:53:00Z</time></trkpt>
    <trkpt lat="47.89593" lon="14.31537"><ele>675</ele><time>2022-05-26T13:53:18Z</time></trkpt>
    <trkpt lat="47.89583" lon="14.31532"><ele>699</ele><time>2022-05-26T13:53:37Z</time></trkpt>
    <trkpt lat="47.89573" lon="14.31532"><ele>670</ele><time>2022-05-26T13:53:56Z</time></trkpt>
    <trkpt lat="47.89572" lon="14.31517"><ele>836</ele><time>2022-05-26T13:54:15Z</time></trkpt>
    <trkpt lat="47.89564" lon="14.31537"><ele>725</ele><time>2022-05-26T13:54:33Z</time></trkpt>
    <trkpt lat="47.89562" lon="14.31569"><ele>669</ele><time>2022-05-26T13:54:51Z</time></trkpt>
    <trkpt lat="47.89549" lon="14.31594"><ele>657</ele><time>2022-05-26T13:55:10Z</time></trkpt>
    <trkpt lat="47.89545" lon="14.31627"><ele>677</ele><time>2022-05-26T13:55:28Z</time></trkpt>
    <trkpt lat="47.89556" lon="14.31652"><ele>660</ele><time>2022-05-26T13:55:46Z</time></trkpt>
    <trkpt lat="47.89569" lon="14.31678"><ele>679</ele><time>2022-05-26T13:56:05Z</time></trkpt>
    <trkpt lat="47.89579" lon="14.31707"><ele>665</ele><time>2022-05-26T13:56:24Z</time></trkpt>
    <trkpt lat="47.89589" lon="14.31732"><ele>664</ele><time>2022-05-26T13:56:42Z</time></trkpt>
    <trkpt lat="47.89598" lon="14.31760"><ele>698</ele><time>2022-05-26T13:57:01Z</time></trkpt>
    <trkpt lat="47.89592" lon="14.31798"><ele>669</ele><time>2022-05-26T13:57:19Z</time></trkpt>
    <trkpt lat="47.89583" lon="14.31822"><ele>669</ele><time>2022-05-26T13:57:37Z</time></trkpt>
    <trkpt lat="47.89568" lon="14.31851"><ele>658</ele><time>2022-05-26T13:57:56Z</time></trkpt>
    <trkpt lat="47.89558" lon="14.31880"><ele>654</ele><time>2022-05-26T13:58:15Z</time></trkpt>
    <trkpt lat="47.89549" lon="14.31912"><ele>653</ele><time>2022-05-26T13:58:34Z</time></trkpt>
    <trkpt lat="47.89537" lon="14.31939"><ele>674</ele><time>2022-05-26T13:58:52Z</time></trkpt>
    <trkpt lat="47.89538" lon="14.31975"><ele>648</ele><time>2022-05-26T13:59:11Z</time></trkpt>
    <trkpt lat="47.89539" lon="14.32015"><ele>650</ele><time>2022-05-26T13:59:29Z</time></trkpt>
    <trkpt lat="47.89525" lon="14.32042"><ele>650</ele><time>2022-05-26T13:59:47Z</time></trkpt>
    <trkpt lat="47.89514" lon="14.32068"><ele>643</ele><time>2022-05-26T14:00:06Z</time></trkpt>
    <trkpt lat="47.89510" lon="14.32113"><ele>638</ele><time>2022-05-26T14:00:25Z</time></trkpt>
    <trkpt lat="47.89522" lon="14.32133"><ele>639</ele><time>2022-05-26T14:00:44Z</time></trkpt>
    <trkpt lat="47.89518" lon="14.32164"><ele>635</ele><time>2022-05-26T14:01:03Z</time></trkpt>
    <trkpt lat="47.89508" lon="14.32189"><ele>640</ele><time>2022-05-26T14:01:21Z</time></trkpt>
    <trkpt lat="47.89500" lon="14.32176"><ele>631</ele><time>2022-05-26T14:01:40Z</time></trkpt>
    <trkpt lat="47.89502" lon="14.32144"><ele>629</ele><time>2022-05-26T14:01:59Z</time></trkpt>
    <trkpt lat="47.89483" lon="14.32125"><ele>630</ele><time>2022-05-26T14:02:18Z</time></trkpt>
    <trkpt lat="47.89467" lon="14.32120"><ele>626</ele><time>2022-05-26T14:02:36Z</time></trkpt>
    <trkpt lat="47.89450" lon="14.32105"><ele>619</ele><time>2022-05-26T14:02:55Z</time></trkpt>
    <trkpt lat="47.89431" lon="14.32095"><ele>614</ele><time>2022-05-26T14:03:14Z</time></trkpt>
    <trkpt lat="47.89425" lon="14.32061"><ele>607</ele><time>2022-05-26T14:03:33Z</time></trkpt>
    <trkpt lat="47.89421" lon="14.32030"><ele>603</ele><time>2022-05-26T14:03:51Z</time></trkpt>
    <trkpt lat="47.89425" lon="14.31995"><ele>599</ele><time>2022-05-26T14:04:10Z</time></trkpt>
    <trkpt lat="47.89430" lon="14.31962"><ele>600</ele><time>2022-05-26T14:04:29Z</time></trkpt>
    <trkpt lat="47.89426" lon="14.31935"><ele>596</ele><time>2022-05-26T14:04:47Z</time></trkpt>
    <trkpt lat="47.89411" lon="14.31911"><ele>593</ele><time>2022-05-26T14:05:06Z</time></trkpt>
    <trkpt lat="47.89405" lon="14.31880"><ele>587</ele><time>2022-05-26T14:05:25Z</time></trkpt>
    <trkpt lat="47.89397" lon="14.31849"><ele>585</ele><time>2022-05-26T14:05:43Z</time></trkpt>
    <trkpt lat="47.89385" lon="14.31822"><ele>580</ele><time>2022-05-26T14:06:02Z</time></trkpt>
    <trkpt lat="47.89376" lon="14.31800"><ele>578</ele><time>2022-05-26T14:06:20Z</time></trkpt>
    <trkpt lat="47.89362" lon="14.31774"><ele>572</ele><time>2022-05-26T14:06:38Z</time></trkpt>
    <trkpt lat="47.89346" lon="14.31754"><ele>571</ele><time>2022-05-26T14:06:57Z</time></trkpt>
    <trkpt lat="47.89329" lon="14.31739"><ele>573</ele><time>2022-05-26T14:07:15Z</time></trkpt>
    <trkpt lat="47.89310" lon="14.31718"><ele>568</ele><time>2022-05-26T14:07:34Z</time></trkpt>
    <trkpt lat="47.89310" lon="14.31694"><ele>556</ele><time>2022-05-26T14:07:52Z</time></trkpt>
    <trkpt lat="47.89307" lon="14.31659"><ele>557</ele><time>2022-05-26T14:08:11Z</time></trkpt>
    <trkpt lat="47.89298" lon="14.31633"><ele>556</ele><time>2022-05-26T14:08:30Z</time></trkpt>
    <trkpt lat="47.89293" lon="14.31598"><ele>555</ele><time>2022-05-26T14:08:48Z</time></trkpt>
    <trkpt lat="47.89288" lon="14.31573"><ele>548</ele><time>2022-05-26T14:09:06Z</time></trkpt>
    <trkpt lat="47.89279" lon="14.31535"><ele>550</ele><time>2022-05-26T14:09:25Z</time></trkpt>
    <trkpt lat="47.89286" lon="14.31513"><ele>543</ele><time>2022-05-26T14:09:44Z</time></trkpt>
    <trkpt lat="47.89288" lon="14.31483"><ele>536</ele><time>2022-05-26T14:10:03Z</time></trkpt>
    <trkpt lat="47.89285" lon="14.31461"><ele>528</ele><time>2022-05-26T14:10:21Z</time></trkpt>
    <trkpt lat="47.89287" lon="14.31435"><ele>525</ele><time>2022-05-26T14:10:40Z</time></trkpt>
    <trkpt lat="47.89289" lon="14.31402"><ele>528</ele><time>2022-05-26T14:10:59Z</time></trkpt>
    <trkpt lat="47.89296" lon="14.31371"><ele>528</ele><time>2022-05-26T14:11:18Z</time></trkpt>
    <trkpt lat="47.89299" lon="14.31341"><ele>532</ele><time>2022-05-26T14:11:36Z</time></trkpt>
    <trkpt lat="47.89303" lon="14.31318"><ele>531</ele><time>2022-05-26T14:11:54Z</time></trkpt>
    <trkpt lat="47.89293" lon="14.31286"><ele>524</ele><time>2022-05-26T14:12:13Z</time></trkpt>
    <trkpt lat="47.89277" lon="14.31263"><ele>519</ele><time>2022-05-26T14:12:31Z</time></trkpt>
    <trkpt lat="47.89265" lon="14.31243"><ele>520</ele><time>2022-05-26T14:12:50Z</time></trkpt>
    <trkpt lat="47.89252" lon="14.31217"><ele>516</ele><time>2022-05-26T14:13:08Z</time></trkpt>
    <trkpt lat="47.89246" lon="14.31192"><ele>515</ele><time>2022-05-26T14:13:27Z</time></trkpt>
    <trkpt lat="47.89235" lon="14.31165"><ele>508</ele><time>2022-05-26T14:13:46Z</time></trkpt>
    <trkpt lat="47.89233" lon="14.31135"><ele>500</ele><time>2022-05-26T14:14:04Z</time></trkpt>
    <trkpt lat="47.89222" lon="14.31105"><ele>496</ele><time>2022-05-26T14:14:23Z</time></trkpt>
    <trkpt lat="47.89220" lon="14.31074"><ele>488</ele><time>2022-05-26T14:14:41Z</time></trkpt>
    <trkpt lat="47.89220" lon="14.31046"><ele>485</ele><time>2022-05-26T14:15:00Z</time></trkpt>
    <trkpt lat="47.89227" lon="14.31020"><ele>474</ele><time>2022-05-26T14:15:19Z</time></trkpt>
    <trkpt lat="47.89219" lon="14.30995"><ele>473</ele><time>2022-05-26T14:15:37Z</time></trkpt>
    <trkpt lat="47.89201" lon="14.30961"><ele>476</ele><time>2022-05-26T14:15:56Z</time></trkpt>
    <trkpt lat="47.89189" lon="14.30934"><ele>474</ele><time>2022-05-26T14:16:15Z</time></trkpt>
    <trkpt lat="47.89196" lon="14.30904"><ele>456</ele><time>2022-05-26T14:16:33Z</time></trkpt>
    <trkpt lat="47.89197" lon="14.30873"><ele>450</ele><time>2022-05-26T14:16:52Z</time></trkpt>
    <trkpt lat="47.89198" lon="14.30836"><ele>451</ele><time>2022-05-26T14:17:11Z</time></trkpt>
    <trkpt lat="47.89193" lon="14.30802"><ele>447</ele><time>2022-05-26T14:17:29Z</time></trkpt>
    <trkpt lat="47.89174" lon="14.30780"><ele>450</ele><time>2022-05-26T14:17:48Z</time></trkpt>
  </trkseg>
</trk>
</gpx>