<?xml version="1.0" encoding="UTF-8"?>
<gpx version="1.1" creator="GPX-Pro" xmlns="http://www.topografix.com/GPX/1/1">
<trk>
  <name>Ski_Geißelköpfe&Wallnerrinne</name>
  <trkseg>
    <trkpt lat="47.06004" lon="13.05760"><ele>1589</ele><time>2022-05-15T03:08:54Z</time></trkpt>
    <trkpt lat="47.05989" lon="13.05760"><ele>1584</ele><time>2022-05-15T03:08:58Z</time></trkpt>
    <trkpt lat="47.05932" lon="13.05724"><ele>1582</ele><time>2022-05-15T03:09:17Z</time></trkpt>
    <trkpt lat="47.05883" lon="13.05644"><ele>1583</ele><time>2022-05-15T03:09:36Z</time></trkpt>
    <trkpt lat="47.05789" lon="13.05623"><ele>1582</ele><time>2022-05-15T03:09:55Z</time></trkpt>
    <trkpt lat="47.05726" lon="13.05580"><ele>1582</ele><time>2022-05-15T03:10:14Z</time></trkpt>
    <trkpt lat="47.05653" lon="13.05564"><ele>1585</ele><time>2022-05-15T03:10:33Z</time></trkpt>
    <trkpt lat="47.05613" lon="13.05500"><ele>1585</ele><time>2022-05-15T03:10:52Z</time></trkpt>
    <trkpt lat="47.05564" lon="13.05485"><ele>1592</ele><time>2022-05-15T03:11:11Z</time></trkpt>
    <trkpt lat="47.05518" lon="13.05468"><ele>1592</ele><time>2022-05-15T03:11:29Z</time></trkpt>
    <trkpt lat="47.05468" lon="13.05480"><ele>1591</ele><time>2022-05-15T03:11:48Z</time></trkpt>
    <trkpt lat="47.05434" lon="13.05513"><ele>1597</ele><time>2022-05-15T03:12:07Z</time></trkpt>
    <trkpt lat="47.05390" lon="13.05535"><ele>1597</ele><time>2022-05-15T03:12:26Z</time></trkpt>
    <trkpt lat="47.05354" lon="13.05561"><ele>1596</ele><time>2022-05-15T03:12:44Z</time></trkpt>
    <trkpt lat="47.05318" lon="13.05599"><ele>1598</ele><time>2022-05-15T03:13:03Z</time></trkpt>
    <trkpt lat="47.05283" lon="13.05640"><ele>1600</ele><time>2022-05-15T03:13:21Z</time></trkpt>
    <trkpt lat="47.05243" lon="13.05682"><ele>1599</ele><time>2022-05-15T03:13:40Z</time></trkpt>
    <trkpt lat="47.05193" lon="13.05699"><ele>1603</ele><time>2022-05-15T03:13:59Z</time></trkpt>
    <trkpt lat="47.05145" lon="13.05710"><ele>1609</ele><time>2022-05-15T03:14:18Z</time></trkpt>
    <trkpt lat="47.05101" lon="13.05730"><ele>1606</ele><time>2022-05-15T03:14:37Z</time></trkpt>
    <trkpt lat="47.05043" lon="13.05735"><ele>1612</ele><time>2022-05-15T03:14:55Z</time></trkpt>
    <trkpt lat="47.04982" lon="13.05771"><ele>1608</ele><time>2022-05-15T03:15:14Z</time></trkpt>
    <trkpt lat="47.04922" lon="13.05786"><ele>1606</ele><time>2022-05-15T03:15:32Z</time></trkpt>
    <trkpt lat="47.04869" lon="13.05847"><ele>1603</ele><time>2022-05-15T03:15:51Z</time></trkpt>
    <trkpt lat="47.04818" lon="13.05884"><ele>1604</ele><time>2022-05-15T03:16:09Z</time></trkpt>
    <trkpt lat="47.04766" lon="13.05931"><ele>1606</ele><time>2022-05-15T03:16:28Z</time></trkpt>
    <trkpt lat="47.04725" lon="13.05973"><ele>1603</ele><time>2022-05-15T03:16:47Z</time></trkpt>
    <trkpt lat="47.04690" lon="13.06008"><ele>1599</ele><time>2022-05-15T03:17:06Z</time></trkpt>
    <trkpt lat="47.04654" lon="13.06055"><ele>1598</ele><time>2022-05-15T03:17:24Z</time></trkpt>
    <trkpt lat="47.04609" lon="13.06115"><ele>1598</ele><time>2022-05-15T03:17:43Z</time></trkpt>
    <trkpt lat="47.04564" lon="13.06172"><ele>1602</ele><time>2022-05-15T03:18:01Z</time></trkpt>
    <trkpt lat="47.04523" lon="13.06223"><ele>1604</ele><time>2022-05-15T03:18:20Z</time></trkpt>
    <trkpt lat="47.04493" lon="13.06271"><ele>1607</ele><time>2022-05-15T03:18:38Z</time></trkpt>
    <trkpt lat="47.04454" lon="13.06299"><ele>1612</ele><time>2022-05-15T03:18:57Z</time></trkpt>
    <trkpt lat="47.04414" lon="13.06321"><ele>1612</ele><time>2022-05-15T03:19:16Z</time></trkpt>
    <trkpt lat="47.04376" lon="13.06339"><ele>1616</ele><time>2022-05-15T03:19:35Z</time></trkpt>
    <trkpt lat="47.04332" lon="13.06362"><ele>1628</ele><time>2022-05-15T03:19:53Z</time></trkpt>
    <trkpt lat="47.04304" lon="13.06370"><ele>1619</ele><time>2022-05-15T03:20:12Z</time></trkpt>
    <trkpt lat="47.04250" lon="13.06420"><ele>1631</ele><time>2022-05-15T03:20:30Z</time></trkpt>
    <trkpt lat="47.04217" lon="13.06453"><ele>1631</ele><time>2022-05-15T03:20:48Z</time></trkpt>
    <trkpt lat="47.04184" lon="13.06471"><ele>1631</ele><time>2022-05-15T03:21:07Z</time></trkpt>
    <trkpt lat="47.04156" lon="13.06487"><ele>1633</ele><time>2022-05-15T03:21:25Z</time></trkpt>
    <trkpt lat="47.04130" lon="13.06516"><ele>1633</ele><time>2022-05-15T03:21:43Z</time></trkpt>
    <trkpt lat="47.04107" lon="13.06560"><ele>1640</ele><time>2022-05-15T03:22:02Z</time></trkpt>
    <trkpt lat="47.04082" lon="13.06585"><ele>1637</ele><time>2022-05-15T03:22:21Z</time></trkpt>
    <trkpt lat="47.04057" lon="13.06613"><ele>1633</ele><time>2022-05-15T03:22:40Z</time></trkpt>
    <trkpt lat="47.04026" lon="13.06617"><ele>1642</ele><time>2022-05-15T03:22:59Z</time></trkpt>
    <trkpt lat="47.03993" lon="13.06594"><ele>1649</ele><time>2022-05-15T03:23:18Z</time></trkpt>
    <trkpt lat="47.03971" lon="13.06568"><ele>1649</ele><time>2022-05-15T03:23:36Z</time></trkpt>
    <trkpt lat="47.03960" lon="13.06587"><ele>1650</ele><time>2022-05-15T03:24:19Z</time></trkpt>
    <trkpt lat="47.03952" lon="13.06595"><ele>1652</ele><time>2022-05-15T03:28:00Z</time></trkpt>
    <trkpt lat="47.03935" lon="13.06599"><ele>1652</ele><time>2022-05-15T03:28:18Z</time></trkpt>
    <trkpt lat="47.03917" lon="13.06596"><ele>1652</ele><time>2022-05-15T03:28:37Z</time></trkpt>
    <trkpt lat="47.03904" lon="13.06590"><ele>1650</ele><time>2022-05-15T03:28:55Z</time></trkpt>
    <trkpt lat="47.03886" lon="13.06586"><ele>1650</ele><time>2022-05-15T03:29:14Z</time></trkpt>
    <trkpt lat="47.03869" lon="13.06584"><ele>1651</ele><time>2022-05-15T03:29:33Z</time></trkpt>
    <trkpt lat="47.03858" lon="13.06569"><ele>1658</ele><time>2022-05-15T03:29:51Z</time></trkpt>
    <trkpt lat="47.03860" lon="13.06546"><ele>1661</ele><time>2022-05-15T03:30:10Z</time></trkpt>
    <trkpt lat="47.03862" lon="13.06525"><ele>1660</ele><time>2022-05-15T03:30:28Z</time></trkpt>
    <trkpt lat="47.03855" lon="13.06499"><ele>1661</ele><time>2022-05-15T03:30:47Z</time></trkpt>
    <trkpt lat="47.03844" lon="13.06480"><ele>1662</ele><time>2022-05-15T03:31:05Z</time></trkpt>
    <trkpt lat="47.03827" lon="13.06468"><ele>1660</ele><time>2022-05-15T03:31:23Z</time></trkpt>
    <trkpt lat="47.03818" lon="13.06453"><ele>1661</ele><time>2022-05-15T03:31:41Z</time></trkpt>
    <trkpt lat="47.03802" lon="13.06441"><ele>1663</ele><time>2022-05-15T03:32:00Z</time></trkpt>
    <trkpt lat="47.03789" lon="13.06427"><ele>1663</ele><time>2022-05-15T03:32:19Z</time></trkpt>
    <trkpt lat="47.03774" lon="13.06416"><ele>1668</ele><time>2022-05-15T03:32:38Z</time></trkpt>
    <trkpt lat="47.03759" lon="13.06407"><ele>1672</ele><time>2022-05-15T03:32:57Z</time></trkpt>
    <trkpt lat="47.03749" lon="13.06403"><ele>1677</ele><time>2022-05-15T03:33:16Z</time></trkpt>
    <trkpt lat="47.03732" lon="13.06406"><ele>1684</ele><time>2022-05-15T03:34:26Z</time></trkpt>
    <trkpt lat="47.03720" lon="13.06408"><ele>1684</ele><time>2022-05-15T03:34:44Z</time></trkpt>
    <trkpt lat="47.03706" lon="13.06412"><ele>1684</ele><time>2022-05-15T03:35:03Z</time></trkpt>
    <trkpt lat="47.03692" lon="13.06417"><ele>1685</ele><time>2022-05-15T03:35:21Z</time></trkpt>
    <trkpt lat="47.03680" lon="13.06418"><ele>1686</ele><time>2022-05-15T03:35:40Z</time></trkpt>
    <trkpt lat="47.03672" lon="13.06427"><ele>1686</ele><time>2022-05-15T03:35:59Z</time></trkpt>
    <trkpt lat="47.03663" lon="13.06441"><ele>1684</ele><time>2022-05-15T03:36:17Z</time></trkpt>
    <trkpt lat="47.03656" lon="13.06455"><ele>1684</ele><time>2022-05-15T03:36:36Z</time></trkpt>
    <trkpt lat="47.03643" lon="13.06462"><ele>1688</ele><time>2022-05-15T03:36:55Z</time></trkpt>
    <trkpt lat="47.03635" lon="13.06475"><ele>1692</ele><time>2022-05-15T03:37:13Z</time></trkpt>
    <trkpt lat="47.03626" lon="13.06489"><ele>1691</ele><time>2022-05-15T03:37:32Z</time></trkpt>
    <trkpt lat="47.03615" lon="13.06494"><ele>1691</ele><time>2022-05-15T03:37:51Z</time></trkpt>
    <trkpt lat="47.03604" lon="13.06497"><ele>1695</ele><time>2022-05-15T03:38:09Z</time></trkpt>
    <trkpt lat="47.03593" lon="13.06498"><ele>1699</ele><time>2022-05-15T03:38:28Z</time></trkpt>
    <trkpt lat="47.03582" lon="13.06503"><ele>1700</ele><time>2022-05-15T03:38:47Z</time></trkpt>
    <trkpt lat="47.03576" lon="13.06516"><ele>1702</ele><time>2022-05-15T03:39:06Z</time></trkpt>
    <trkpt lat="47.03562" lon="13.06530"><ele>1705</ele><time>2022-05-15T03:39:44Z</time></trkpt>
    <trkpt lat="47.03564" lon="13.06552"><ele>1707</ele><time>2022-05-15T03:40:02Z</time></trkpt>
    <trkpt lat="47.03559" lon="13.06566"><ele>1709</ele><time>2022-05-15T03:40:20Z</time></trkpt>
    <trkpt lat="47.03553" lon="13.06576"><ele>1710</ele><time>2022-05-15T03:40:38Z</time></trkpt>
    <trkpt lat="47.03539" lon="13.06599"><ele>1720</ele><time>2022-05-15T03:41:20Z</time></trkpt>
    <trkpt lat="47.03525" lon="13.06612"><ele>1725</ele><time>2022-05-15T03:41:59Z</time></trkpt>
    <trkpt lat="47.03516" lon="13.06627"><ele>1729</ele><time>2022-05-15T03:42:38Z</time></trkpt>
    <trkpt lat="47.03507" lon="13.06636"><ele>1730</ele><time>2022-05-15T03:42:57Z</time></trkpt>
    <trkpt lat="47.03500" lon="13.06647"><ele>1731</ele><time>2022-05-15T03:43:16Z</time></trkpt>
    <trkpt lat="47.03487" lon="13.06652"><ele>1736</ele><time>2022-05-15T03:43:34Z</time></trkpt>
    <trkpt lat="47.03477" lon="13.06658"><ele>1735</ele><time>2022-05-15T03:43:52Z</time></trkpt>
    <trkpt lat="47.03466" lon="13.06666"><ele>1736</ele><time>2022-05-15T03:44:11Z</time></trkpt>
    <trkpt lat="47.03469" lon="13.06693"><ele>1752</ele><time>2022-05-15T03:44:48Z</time></trkpt>
    <trkpt lat="47.03475" lon="13.06706"><ele>1754</ele><time>2022-05-15T03:45:06Z</time></trkpt>
    <trkpt lat="47.03470" lon="13.06721"><ele>1753</ele><time>2022-05-15T03:45:25Z</time></trkpt>
    <trkpt lat="47.03473" lon="13.06735"><ele>1761</ele><time>2022-05-15T03:45:43Z</time></trkpt>
    <trkpt lat="47.03475" lon="13.06760"><ele>1768</ele><time>2022-05-15T03:46:20Z</time></trkpt>
    <trkpt lat="47.03472" lon="13.06773"><ele>1768</ele><time>2022-05-15T03:46:38Z</time></trkpt>
    <trkpt lat="47.03465" lon="13.06795"><ele>1774</ele><time>2022-05-15T03:47:16Z</time></trkpt>
    <trkpt lat="47.03459" lon="13.06817"><ele>1782</ele><time>2022-05-15T03:47:58Z</time></trkpt>
    <trkpt lat="47.03462" lon="13.06842"><ele>1792</ele><time>2022-05-15T03:50:14Z</time></trkpt>
    <trkpt lat="47.03464" lon="13.06856"><ele>1794</ele><time>2022-05-15T03:50:32Z</time></trkpt>
    <trkpt lat="47.03457" lon="13.06866"><ele>1800</ele><time>2022-05-15T03:50:51Z</time></trkpt>
    <trkpt lat="47.03462" lon="13.06884"><ele>1803</ele><time>2022-05-15T03:51:10Z</time></trkpt>
    <trkpt lat="47.03449" lon="13.06889"><ele>1799</ele><time>2022-05-15T03:51:28Z</time></trkpt>
    <trkpt lat="47.03441" lon="13.06898"><ele>1799</ele><time>2022-05-15T03:51:47Z</time></trkpt>
    <trkpt lat="47.03430" lon="13.06915"><ele>1811</ele><time>2022-05-15T03:52:25Z</time></trkpt>
    <trkpt lat="47.03430" lon="13.06939"><ele>1816</ele><time>2022-05-15T03:53:20Z</time></trkpt>
    <trkpt lat="47.03419" lon="13.06943"><ele>1817</ele><time>2022-05-15T03:53:39Z</time></trkpt>
    <trkpt lat="47.03410" lon="13.06942"><ele>1822</ele><time>2022-05-15T03:53:57Z</time></trkpt>
    <trkpt lat="47.03421" lon="13.06969"><ele>1836</ele><time>2022-05-15T03:54:36Z</time></trkpt>
    <trkpt lat="47.03406" lon="13.06988"><ele>1837</ele><time>2022-05-15T03:55:18Z</time></trkpt>
    <trkpt lat="47.03395" lon="13.07001"><ele>1846</ele><time>2022-05-15T03:55:55Z</time></trkpt>
    <trkpt lat="47.03396" lon="13.07016"><ele>1853</ele><time>2022-05-15T03:56:13Z</time></trkpt>
    <trkpt lat="47.03397" lon="13.07040"><ele>1861</ele><time>2022-05-15T03:56:55Z</time></trkpt>
    <trkpt lat="47.03391" lon="13.07050"><ele>1858</ele><time>2022-05-15T03:57:13Z</time></trkpt>
    <trkpt lat="47.03393" lon="13.07069"><ele>1871</ele><time>2022-05-15T03:57:57Z</time></trkpt>
    <trkpt lat="47.03378" lon="13.07087"><ele>1880</ele><time>2022-05-15T03:58:36Z</time></trkpt>
    <trkpt lat="47.03372" lon="13.07110"><ele>1886</ele><time>2022-05-15T03:59:27Z</time></trkpt>
    <trkpt lat="47.03366" lon="13.07131"><ele>1896</ele><time>2022-05-15T04:00:04Z</time></trkpt>
    <trkpt lat="47.03370" lon="13.07154"><ele>1901</ele><time>2022-05-15T04:00:48Z</time></trkpt>
    <trkpt lat="47.03371" lon="13.07178"><ele>1911</ele><time>2022-05-15T04:01:39Z</time></trkpt>
    <trkpt lat="47.03356" lon="13.07171"><ele>1912</ele><time>2022-05-15T04:01:57Z</time></trkpt>
    <trkpt lat="47.03356" lon="13.07195"><ele>1927</ele><time>2022-05-15T04:02:50Z</time></trkpt>
    <trkpt lat="47.03356" lon="13.07215"><ele>1925</ele><time>2022-05-15T04:03:30Z</time></trkpt>
    <trkpt lat="47.03349" lon="13.07235"><ele>1837</ele><time>2022-05-15T04:04:07Z</time></trkpt>
    <trkpt lat="47.03337" lon="13.07246"><ele>1862</ele><time>2022-05-15T04:04:58Z</time></trkpt>
    <trkpt lat="47.03348" lon="13.07267"><ele>1952</ele><time>2022-05-15T04:05:41Z</time></trkpt>
    <trkpt lat="47.03331" lon="13.07274"><ele>1951</ele><time>2022-05-15T04:06:40Z</time></trkpt>
    <trkpt lat="47.03320" lon="13.07276"><ele>1953</ele><time>2022-05-15T04:06:59Z</time></trkpt>
    <trkpt lat="47.03328" lon="13.07291"><ele>1959</ele><time>2022-05-15T04:07:18Z</time></trkpt>
    <trkpt lat="47.03311" lon="13.07292"><ele>1966</ele><time>2022-05-15T04:07:59Z</time></trkpt>
    <trkpt lat="47.03310" lon="13.07319"><ele>1977</ele><time>2022-05-15T04:08:55Z</time></trkpt>
    <trkpt lat="47.03310" lon="13.07335"><ele>1979</ele><time>2022-05-15T04:09:13Z</time></trkpt>
    <trkpt lat="47.03315" lon="13.07349"><ele>1981</ele><time>2022-05-15T04:09:32Z</time></trkpt>
    <trkpt lat="47.03321" lon="13.07374"><ele>1989</ele><time>2022-05-15T04:10:09Z</time></trkpt>
    <trkpt lat="47.03324" lon="13.07389"><ele>1991</ele><time>2022-05-15T04:10:28Z</time></trkpt>
    <trkpt lat="47.03307" lon="13.07395"><ele>1992</ele><time>2022-05-15T04:11:08Z</time></trkpt>
    <trkpt lat="47.03309" lon="13.07422"><ele>2000</ele><time>2022-05-15T04:12:47Z</time></trkpt>
    <trkpt lat="47.03294" lon="13.07433"><ele>2005</ele><time>2022-05-15T04:13:24Z</time></trkpt>
    <trkpt lat="47.03292" lon="13.07461"><ele>2014</ele><time>2022-05-15T04:14:09Z</time></trkpt>
    <trkpt lat="47.03290" lon="13.07477"><ele>2021</ele><time>2022-05-15T04:14:28Z</time></trkpt>
    <trkpt lat="47.03287" lon="13.07496"><ele>2025</ele><time>2022-05-15T04:14:47Z</time></trkpt>
    <trkpt lat="47.03286" lon="13.07511"><ele>2029</ele><time>2022-05-15T04:15:05Z</time></trkpt>
    <trkpt lat="47.03287" lon="13.07526"><ele>2030</ele><time>2022-05-15T04:15:24Z</time></trkpt>
    <trkpt lat="47.03290" lon="13.07541"><ele>2033</ele><time>2022-05-15T04:15:42Z</time></trkpt>
    <trkpt lat="47.03272" lon="13.07542"><ele>2035</ele><time>2022-05-15T04:16:23Z</time></trkpt>
    <trkpt lat="47.03263" lon="13.07534"><ele>2040</ele><time>2022-05-15T04:16:42Z</time></trkpt>
    <trkpt lat="47.03264" lon="13.07549"><ele>2047</ele><time>2022-05-15T04:17:01Z</time></trkpt>
    <trkpt lat="47.03265" lon="13.07569"><ele>2052</ele><time>2022-05-15T04:17:20Z</time></trkpt>
    <trkpt lat="47.03267" lon="13.07583"><ele>2053</ele><time>2022-05-15T04:17:39Z</time></trkpt>
    <trkpt lat="47.03266" lon="13.07598"><ele>2056</ele><time>2022-05-15T04:17:57Z</time></trkpt>
    <trkpt lat="47.03253" lon="13.07591"><ele>2057</ele><time>2022-05-15T04:18:16Z</time></trkpt>
    <trkpt lat="47.03252" lon="13.07617"><ele>2065</ele><time>2022-05-15T04:18:53Z</time></trkpt>
    <trkpt lat="47.03254" lon="13.07632"><ele>2066</ele><time>2022-05-15T04:19:12Z</time></trkpt>
    <trkpt lat="47.03254" lon="13.07647"><ele>2069</ele><time>2022-05-15T04:19:31Z</time></trkpt>
    <trkpt lat="47.03255" lon="13.07666"><ele>2075</ele><time>2022-05-15T04:19:49Z</time></trkpt>
    <trkpt lat="47.03256" lon="13.07683"><ele>2078</ele><time>2022-05-15T04:20:08Z</time></trkpt>
    <trkpt lat="47.03258" lon="13.07701"><ele>2082</ele><time>2022-05-15T04:20:26Z</time></trkpt>
    <trkpt lat="47.03259" lon="13.07720"><ele>2085</ele><time>2022-05-15T04:20:45Z</time></trkpt>
    <trkpt lat="47.03261" lon="13.07736"><ele>2088</ele><time>2022-05-15T04:21:03Z</time></trkpt>
    <trkpt lat="47.03265" lon="13.07755"><ele>2094</ele><time>2022-05-15T04:21:22Z</time></trkpt>
    <trkpt lat="47.03251" lon="13.07773"><ele>2092</ele><time>2022-05-15T04:22:00Z</time></trkpt>
    <trkpt lat="47.03242" lon="13.07794"><ele>2095</ele><time>2022-05-15T04:22:40Z</time></trkpt>
    <trkpt lat="47.03239" lon="13.07806"><ele>2099</ele><time>2022-05-15T04:22:58Z</time></trkpt>
    <trkpt lat="47.03234" lon="13.07819"><ele>2100</ele><time>2022-05-15T04:23:17Z</time></trkpt>
    <trkpt lat="47.03224" lon="13.07845"><ele>2084</ele><time>2022-05-15T04:24:05Z</time></trkpt>
    <trkpt lat="47.03214" lon="13.07856"><ele>2104</ele><time>2022-05-15T04:24:23Z</time></trkpt>
    <trkpt lat="47.03205" lon="13.07865"><ele>2104</ele><time>2022-05-15T04:24:41Z</time></trkpt>
    <trkpt lat="47.03193" lon="13.07883"><ele>2121</ele><time>2022-05-15T04:25:20Z</time></trkpt>
    <trkpt lat="47.03190" lon="13.07902"><ele>2126</ele><time>2022-05-15T04:25:38Z</time></trkpt>
    <trkpt lat="47.03189" lon="13.07915"><ele>2130</ele><time>2022-05-15T04:25:57Z</time></trkpt>
    <trkpt lat="47.03185" lon="13.07928"><ele>2128</ele><time>2022-05-15T04:26:15Z</time></trkpt>
    <trkpt lat="47.03180" lon="13.07956"><ele>2140</ele><time>2022-05-15T04:26:52Z</time></trkpt>
    <trkpt lat="47.03172" lon="13.07970"><ele>2136</ele><time>2022-05-15T04:27:10Z</time></trkpt>
    <trkpt lat="47.03166" lon="13.07983"><ele>2135</ele><time>2022-05-15T04:27:28Z</time></trkpt>
    <trkpt lat="47.03162" lon="13.07995"><ele>2141</ele><time>2022-05-15T04:27:47Z</time></trkpt>
    <trkpt lat="47.03153" lon="13.08006"><ele>2142</ele><time>2022-05-15T04:28:05Z</time></trkpt>
    <trkpt lat="47.03147" lon="13.08019"><ele>2146</ele><time>2022-05-15T04:28:23Z</time></trkpt>
    <trkpt lat="47.03143" lon="13.08030"><ele>2151</ele><time>2022-05-15T04:28:42Z</time></trkpt>
    <trkpt lat="47.03138" lon="13.08044"><ele>2157</ele><time>2022-05-15T04:29:01Z</time></trkpt>
    <trkpt lat="47.03130" lon="13.08059"><ele>2157</ele><time>2022-05-15T04:29:19Z</time></trkpt>
    <trkpt lat="47.03122" lon="13.08086"><ele>2165</ele><time>2022-05-15T04:30:02Z</time></trkpt>
    <trkpt lat="47.03114" lon="13.08108"><ele>2168</ele><time>2022-05-15T04:30:39Z</time></trkpt>
    <trkpt lat="47.03108" lon="13.08121"><ele>2172</ele><time>2022-05-15T04:30:58Z</time></trkpt>
    <trkpt lat="47.03095" lon="13.08140"><ele>2173</ele><time>2022-05-15T04:31:37Z</time></trkpt>
    <trkpt lat="47.03083" lon="13.08159"><ele>2172</ele><time>2022-05-15T04:32:15Z</time></trkpt>
    <trkpt lat="47.03075" lon="13.08173"><ele>2179</ele><time>2022-05-15T04:32:33Z</time></trkpt>
    <trkpt lat="47.03060" lon="13.08193"><ele>2184</ele><time>2022-05-15T04:33:14Z</time></trkpt>
    <trkpt lat="47.03053" lon="13.08201"><ele>2189</ele><time>2022-05-15T04:33:32Z</time></trkpt>
    <trkpt lat="47.03041" lon="13.08211"><ele>2193</ele><time>2022-05-15T04:33:51Z</time></trkpt>
    <trkpt lat="47.03032" lon="13.08218"><ele>2195</ele><time>2022-05-15T04:34:09Z</time></trkpt>
    <trkpt lat="47.03021" lon="13.08216"><ele>2193</ele><time>2022-05-15T04:34:27Z</time></trkpt>
    <trkpt lat="47.03014" lon="13.08204"><ele>2188</ele><time>2022-05-15T04:35:07Z</time></trkpt>
    <trkpt lat="47.03015" lon="13.08177"><ele>2212</ele><time>2022-05-15T04:35:53Z</time></trkpt>
    <trkpt lat="47.03007" lon="13.08155"><ele>2217</ele><time>2022-05-15T04:36:48Z</time></trkpt>
    <trkpt lat="47.03001" lon="13.08141"><ele>2217</ele><time>2022-05-15T04:37:07Z</time></trkpt>
    <trkpt lat="47.02997" lon="13.08127"><ele>2222</ele><time>2022-05-15T04:37:26Z</time></trkpt>
    <trkpt lat="47.02987" lon="13.08147"><ele>2233</ele><time>2022-05-15T04:38:08Z</time></trkpt>
    <trkpt lat="47.02977" lon="13.08152"><ele>2233</ele><time>2022-05-15T04:38:26Z</time></trkpt>
    <trkpt lat="47.02974" lon="13.08172"><ele>2246</ele><time>2022-05-15T04:39:05Z</time></trkpt>
    <trkpt lat="47.02958" lon="13.08169"><ele>2241</ele><time>2022-05-15T04:40:01Z</time></trkpt>
    <trkpt lat="47.02957" lon="13.08186"><ele>2263</ele><time>2022-05-15T04:41:03Z</time></trkpt>
    <trkpt lat="47.02960" lon="13.08212"><ele>2267</ele><time>2022-05-15T04:41:47Z</time></trkpt>
    <trkpt lat="47.02968" lon="13.08219"><ele>2272</ele><time>2022-05-15T04:42:06Z</time></trkpt>
    <trkpt lat="47.02948" lon="13.08229"><ele>2271</ele><time>2022-05-15T04:43:00Z</time></trkpt>
    <trkpt lat="47.02931" lon="13.08229"><ele>2278</ele><time>2022-05-15T04:43:40Z</time></trkpt>
    <trkpt lat="47.02921" lon="13.08214"><ele>2285</ele><time>2022-05-15T04:44:18Z</time></trkpt>
    <trkpt lat="47.02924" lon="13.08227"><ele>2289</ele><time>2022-05-15T04:44:37Z</time></trkpt>
    <trkpt lat="47.02911" lon="13.08234"><ele>2292</ele><time>2022-05-15T04:45:53Z</time></trkpt>
    <trkpt lat="47.02902" lon="13.08241"><ele>2297</ele><time>2022-05-15T04:46:34Z</time></trkpt>
    <trkpt lat="47.02893" lon="13.08227"><ele>2300</ele><time>2022-05-15T04:46:52Z</time></trkpt>
    <trkpt lat="47.02887" lon="13.08250"><ele>2316</ele><time>2022-05-15T04:48:27Z</time></trkpt>
    <trkpt lat="47.02879" lon="13.08266"><ele>2323</ele><time>2022-05-15T04:49:35Z</time></trkpt>
    <trkpt lat="47.02866" lon="13.08275"><ele>2327</ele><time>2022-05-15T04:51:16Z</time></trkpt>
    <trkpt lat="47.02871" lon="13.08301"><ele>2342</ele><time>2022-05-15T04:52:15Z</time></trkpt>
    <trkpt lat="47.02857" lon="13.08308"><ele>2347</ele><time>2022-05-15T04:53:14Z</time></trkpt>
    <trkpt lat="47.02847" lon="13.08303"><ele>2347</ele><time>2022-05-15T04:53:32Z</time></trkpt>
    <trkpt lat="47.02838" lon="13.08295"><ele>2353</ele><time>2022-05-15T04:53:50Z</time></trkpt>
    <trkpt lat="47.02846" lon="13.08318"><ele>2362</ele><time>2022-05-15T04:54:40Z</time></trkpt>
    <trkpt lat="47.02828" lon="13.08318"><ele>2353</ele><time>2022-05-15T04:55:38Z</time></trkpt>
    <trkpt lat="47.02818" lon="13.08312"><ele>2366</ele><time>2022-05-15T04:55:57Z</time></trkpt>
    <trkpt lat="47.02808" lon="13.08329"><ele>2379</ele><time>2022-05-15T04:57:23Z</time></trkpt>
    <trkpt lat="47.02801" lon="13.08319"><ele>2387</ele><time>2022-05-15T04:57:42Z</time></trkpt>
    <trkpt lat="47.02800" lon="13.08347"><ele>2360</ele><time>2022-05-15T04:58:48Z</time></trkpt>
    <trkpt lat="47.02784" lon="13.08332"><ele>2401</ele><time>2022-05-15T05:00:55Z</time></trkpt>
    <trkpt lat="47.02774" lon="13.08327"><ele>2409</ele><time>2022-05-15T05:02:22Z</time></trkpt>
    <trkpt lat="47.02763" lon="13.08337"><ele>2407</ele><time>2022-05-15T05:03:46Z</time></trkpt>
    <trkpt lat="47.02747" lon="13.08342"><ele>2423</ele><time>2022-05-15T05:04:46Z</time></trkpt>
    <trkpt lat="47.02732" lon="13.08348"><ele>2431</ele><time>2022-05-15T05:05:25Z</time></trkpt>
    <trkpt lat="47.02722" lon="13.08355"><ele>2417</ele><time>2022-05-15T05:05:43Z</time></trkpt>
    <trkpt lat="47.02712" lon="13.08362"><ele>2430</ele><time>2022-05-15T05:06:02Z</time></trkpt>
    <trkpt lat="47.02702" lon="13.08369"><ele>2436</ele><time>2022-05-15T05:06:20Z</time></trkpt>
    <trkpt lat="47.02690" lon="13.08376"><ele>2441</ele><time>2022-05-15T05:06:38Z</time></trkpt>
    <trkpt lat="47.02673" lon="13.08371"><ele>2444</ele><time>2022-05-15T05:08:51Z</time></trkpt>
    <trkpt lat="47.02662" lon="13.08365"><ele>2447</ele><time>2022-05-15T05:09:10Z</time></trkpt>
    <trkpt lat="47.02652" lon="13.08357"><ele>2448</ele><time>2022-05-15T05:09:29Z</time></trkpt>
    <trkpt lat="47.02641" lon="13.08351"><ele>2449</ele><time>2022-05-15T05:09:48Z</time></trkpt>
    <trkpt lat="47.02629" lon="13.08320"><ele>2453</ele><time>2022-05-15T05:12:16Z</time></trkpt>
    <trkpt lat="47.02620" lon="13.08305"><ele>2457</ele><time>2022-05-15T05:12:34Z</time></trkpt>
    <trkpt lat="47.02611" lon="13.08296"><ele>2458</ele><time>2022-05-15T05:12:53Z</time></trkpt>
    <trkpt lat="47.02598" lon="13.08292"><ele>2461</ele><time>2022-05-15T05:13:12Z</time></trkpt>
    <trkpt lat="47.02577" lon="13.08281"><ele>2464</ele><time>2022-05-15T05:15:16Z</time></trkpt>
    <trkpt lat="47.02566" lon="13.08275"><ele>2465</ele><time>2022-05-15T05:15:35Z</time></trkpt>
    <trkpt lat="47.02556" lon="13.08274"><ele>2469</ele><time>2022-05-15T05:15:53Z</time></trkpt>
    <trkpt lat="47.02538" lon="13.08272"><ele>2472</ele><time>2022-05-15T05:16:35Z</time></trkpt>
    <trkpt lat="47.02530" lon="13.08259"><ele>2477</ele><time>2022-05-15T05:16:54Z</time></trkpt>
    <trkpt lat="47.02517" lon="13.08256"><ele>2480</ele><time>2022-05-15T05:17:12Z</time></trkpt>
    <trkpt lat="47.02504" lon="13.08254"><ele>2480</ele><time>2022-05-15T05:17:31Z</time></trkpt>
    <trkpt lat="47.02490" lon="13.08250"><ele>2483</ele><time>2022-05-15T05:17:50Z</time></trkpt>
    <trkpt lat="47.02477" lon="13.08247"><ele>2488</ele><time>2022-05-15T05:18:08Z</time></trkpt>
    <trkpt lat="47.02468" lon="13.08245"><ele>2489</ele><time>2022-05-15T05:18:27Z</time></trkpt>
    <trkpt lat="47.02451" lon="13.08242"><ele>2494</ele><time>2022-05-15T05:19:03Z</time></trkpt>
    <trkpt lat="47.02450" lon="13.08227"><ele>2500</ele><time>2022-05-15T05:19:22Z</time></trkpt>
    <trkpt lat="47.02449" lon="13.08214"><ele>2506</ele><time>2022-05-15T05:19:40Z</time></trkpt>
    <trkpt lat="47.02434" lon="13.08219"><ele>2511</ele><time>2022-05-15T05:20:57Z</time></trkpt>
    <trkpt lat="47.02430" lon="13.08204"><ele>2517</ele><time>2022-05-15T05:22:06Z</time></trkpt>
    <trkpt lat="47.02423" lon="13.08212"><ele>2522</ele><time>2022-05-15T05:22:25Z</time></trkpt>
    <trkpt lat="47.02409" lon="13.08217"><ele>2532</ele><time>2022-05-15T05:24:10Z</time></trkpt>
    <trkpt lat="47.02398" lon="13.08218"><ele>2533</ele><time>2022-05-15T05:24:29Z</time></trkpt>
    <trkpt lat="47.02389" lon="13.08218"><ele>2535</ele><time>2022-05-15T05:24:48Z</time></trkpt>
    <trkpt lat="47.02372" lon="13.08215"><ele>2538</ele><time>2022-05-15T05:25:32Z</time></trkpt>
    <trkpt lat="47.02362" lon="13.08202"><ele>2550</ele><time>2022-05-15T05:26:34Z</time></trkpt>
    <trkpt lat="47.02370" lon="13.08178"><ele>2556</ele><time>2022-05-15T05:27:14Z</time></trkpt>
    <trkpt lat="47.02362" lon="13.08170"><ele>2559</ele><time>2022-05-15T05:28:18Z</time></trkpt>
    <trkpt lat="47.02366" lon="13.08157"><ele>2562</ele><time>2022-05-15T05:28:36Z</time></trkpt>
    <trkpt lat="47.02360" lon="13.08141"><ele>2532</ele><time>2022-05-15T05:29:45Z</time></trkpt>
    <trkpt lat="47.02344" lon="13.08144"><ele>2576</ele><time>2022-05-15T05:30:32Z</time></trkpt>
    <trkpt lat="47.02337" lon="13.08125"><ele>2581</ele><time>2022-05-15T05:31:56Z</time></trkpt>
    <trkpt lat="47.02327" lon="13.08108"><ele>2599</ele><time>2022-05-15T05:35:06Z</time></trkpt>
    <trkpt lat="47.02320" lon="13.08089"><ele>2605</ele><time>2022-05-15T05:37:13Z</time></trkpt>
    <trkpt lat="47.02309" lon="13.08099"><ele>2617</ele><time>2022-05-15T05:38:26Z</time></trkpt>
    <trkpt lat="47.02290" lon="13.08111"><ele>2623</ele><time>2022-05-15T05:41:10Z</time></trkpt>
    <trkpt lat="47.02276" lon="13.08114"><ele>2620</ele><time>2022-05-15T05:41:29Z</time></trkpt>
    <trkpt lat="47.02267" lon="13.08116"><ele>2617</ele><time>2022-05-15T05:41:48Z</time></trkpt>
    <trkpt lat="47.02247" lon="13.08108"><ele>2619</ele><time>2022-05-15T05:42:31Z</time></trkpt>
    <trkpt lat="47.02236" lon="13.08107"><ele>2623</ele><time>2022-05-15T05:42:49Z</time></trkpt>
    <trkpt lat="47.02228" lon="13.08089"><ele>2620</ele><time>2022-05-15T05:43:34Z</time></trkpt>
    <trkpt lat="47.02212" lon="13.08083"><ele>2622</ele><time>2022-05-15T05:44:18Z</time></trkpt>
    <trkpt lat="47.02203" lon="13.08074"><ele>2625</ele><time>2022-05-15T05:44:37Z</time></trkpt>
    <trkpt lat="47.02205" lon="13.08052"><ele>2637</ele><time>2022-05-15T05:46:13Z</time></trkpt>
    <trkpt lat="47.02189" lon="13.08039"><ele>2642</ele><time>2022-05-15T05:47:49Z</time></trkpt>
    <trkpt lat="47.02177" lon="13.08019"><ele>2649</ele><time>2022-05-15T05:48:26Z</time></trkpt>
    <trkpt lat="47.02165" lon="13.08003"><ele>2656</ele><time>2022-05-15T05:49:08Z</time></trkpt>
    <trkpt lat="47.02153" lon="13.07987"><ele>2662</ele><time>2022-05-15T05:50:01Z</time></trkpt>
    <trkpt lat="47.02142" lon="13.07969"><ele>2664</ele><time>2022-05-15T05:50:57Z</time></trkpt>
    <trkpt lat="47.02136" lon="13.07950"><ele>2668</ele><time>2022-05-15T05:52:19Z</time></trkpt>
    <trkpt lat="47.02122" lon="13.07939"><ele>2683</ele><time>2022-05-15T05:56:06Z</time></trkpt>
    <trkpt lat="47.02112" lon="13.07937"><ele>2679</ele><time>2022-05-15T05:56:24Z</time></trkpt>
    <trkpt lat="47.02097" lon="13.07924"><ele>2675</ele><time>2022-05-15T05:56:43Z</time></trkpt>
    <trkpt lat="47.02095" lon="13.07893"><ele>2675</ele><time>2022-05-15T05:57:01Z</time></trkpt>
    <trkpt lat="47.02105" lon="13.07865"><ele>2676</ele><time>2022-05-15T05:57:19Z</time></trkpt>
    <trkpt lat="47.02091" lon="13.07856"><ele>2658</ele><time>2022-05-15T06:04:37Z</time></trkpt>
    <trkpt lat="47.02085" lon="13.07843"><ele>2668</ele><time>2022-05-15T06:04:56Z</time></trkpt>
    <trkpt lat="47.02079" lon="13.07832"><ele>2670</ele><time>2022-05-15T06:05:14Z</time></trkpt>
    <trkpt lat="47.02072" lon="13.07818"><ele>2673</ele><time>2022-05-15T06:05:33Z</time></trkpt>
    <trkpt lat="47.02063" lon="13.07800"><ele>2678</ele><time>2022-05-15T06:05:51Z</time></trkpt>
    <trkpt lat="47.02051" lon="13.07785"><ele>2678</ele><time>2022-05-15T06:06:10Z</time></trkpt>
    <trkpt lat="47.02045" lon="13.07771"><ele>2683</ele><time>2022-05-15T06:06:29Z</time></trkpt>
    <trkpt lat="47.02043" lon="13.07756"><ele>2687</ele><time>2022-05-15T06:06:48Z</time></trkpt>
    <trkpt lat="47.02026" lon="13.07752"><ele>2694</ele><time>2022-05-15T06:07:30Z</time></trkpt>
    <trkpt lat="47.02029" lon="13.07729"><ele>2701</ele><time>2022-05-15T06:08:32Z</time></trkpt>
    <trkpt lat="47.02031" lon="13.07705"><ele>2708</ele><time>2022-05-15T06:09:24Z</time></trkpt>
    <trkpt lat="47.02021" lon="13.07702"><ele>2721</ele><time>2022-05-15T06:12:33Z</time></trkpt>
    <trkpt lat="47.01995" lon="13.07726"><ele>2724</ele><time>2022-05-15T06:14:29Z</time></trkpt>
    <trkpt lat="47.01984" lon="13.07736"><ele>2722</ele><time>2022-05-15T06:14:47Z</time></trkpt>
    <trkpt lat="47.01963" lon="13.07747"><ele>2646</ele><time>2022-05-15T06:15:05Z</time></trkpt>
    <trkpt lat="47.01953" lon="13.07743"><ele>2719</ele><time>2022-05-15T06:15:23Z</time></trkpt>
    <trkpt lat="47.01941" lon="13.07733"><ele>2722</ele><time>2022-05-15T06:15:41Z</time></trkpt>
    <trkpt lat="47.01929" lon="13.07725"><ele>2555</ele><time>2022-05-15T06:16:00Z</time></trkpt>
    <trkpt lat="47.01920" lon="13.07716"><ele>2704</ele><time>2022-05-15T06:16:18Z</time></trkpt>
    <trkpt lat="47.01912" lon="13.07705"><ele>2719</ele><time>2022-05-15T06:16:37Z</time></trkpt>
    <trkpt lat="47.01903" lon="13.07685"><ele>2737</ele><time>2022-05-15T06:17:15Z</time></trkpt>
    <trkpt lat="47.01896" lon="13.07663"><ele>2734</ele><time>2022-05-15T06:17:55Z</time></trkpt>
    <trkpt lat="47.01879" lon="13.07658"><ele>2742</ele><time>2022-05-15T06:18:32Z</time></trkpt>
    <trkpt lat="47.01865" lon="13.07644"><ele>2751</ele><time>2022-05-15T06:19:12Z</time></trkpt>
    <trkpt lat="47.01851" lon="13.07631"><ele>2757</ele><time>2022-05-15T06:19:51Z</time></trkpt>
    <trkpt lat="47.01841" lon="13.07625"><ele>2599</ele><time>2022-05-15T06:20:09Z</time></trkpt>
    <trkpt lat="47.01828" lon="13.07625"><ele>2745</ele><time>2022-05-15T06:20:28Z</time></trkpt>
    <trkpt lat="47.01812" lon="13.07627"><ele>2618</ele><time>2022-05-15T06:20:46Z</time></trkpt>
    <trkpt lat="47.01797" lon="13.07622"><ele>2730</ele><time>2022-05-15T06:21:05Z</time></trkpt>
    <trkpt lat="47.01787" lon="13.07617"><ele>2750</ele><time>2022-05-15T06:21:23Z</time></trkpt>
    <trkpt lat="47.01775" lon="13.07609"><ele>2751</ele><time>2022-05-15T06:21:42Z</time></trkpt>
    <trkpt lat="47.01762" lon="13.07597"><ele>2765</ele><time>2022-05-15T06:22:00Z</time></trkpt>
    <trkpt lat="47.01753" lon="13.07588"><ele>2769</ele><time>2022-05-15T06:22:19Z</time></trkpt>
    <trkpt lat="47.01745" lon="13.07580"><ele>2569</ele><time>2022-05-15T06:22:38Z</time></trkpt>
    <trkpt lat="47.01731" lon="13.07563"><ele>2775</ele><time>2022-05-15T06:23:15Z</time></trkpt>
    <trkpt lat="47.01719" lon="13.07544"><ele>2781</ele><time>2022-05-15T06:23:55Z</time></trkpt>
    <trkpt lat="47.01705" lon="13.07528"><ele>2785</ele><time>2022-05-15T06:24:33Z</time></trkpt>
    <trkpt lat="47.01699" lon="13.07519"><ele>2778</ele><time>2022-05-15T06:24:52Z</time></trkpt>
    <trkpt lat="47.01685" lon="13.07503"><ele>2783</ele><time>2022-05-15T06:25:32Z</time></trkpt>
    <trkpt lat="47.01669" lon="13.07484"><ele>2529</ele><time>2022-05-15T06:26:10Z</time></trkpt>
    <trkpt lat="47.01656" lon="13.07472"><ele>2780</ele><time>2022-05-15T06:26:29Z</time></trkpt>
    <trkpt lat="47.01646" lon="13.07451"><ele>2798</ele><time>2022-05-15T06:27:09Z</time></trkpt>
    <trkpt lat="47.01636" lon="13.07432"><ele>2813</ele><time>2022-05-15T06:27:49Z</time></trkpt>
    <trkpt lat="47.01625" lon="13.07414"><ele>2814</ele><time>2022-05-15T06:28:28Z</time></trkpt>
    <trkpt lat="47.01615" lon="13.07395"><ele>2822</ele><time>2022-05-15T06:29:19Z</time></trkpt>
    <trkpt lat="47.01603" lon="13.07378"><ele>2823</ele><time>2022-05-15T06:29:56Z</time></trkpt>
    <trkpt lat="47.01586" lon="13.07374"><ele>2586</ele><time>2022-05-15T06:30:33Z</time></trkpt>
    <trkpt lat="47.01564" lon="13.07367"><ele>2722</ele><time>2022-05-15T06:31:12Z</time></trkpt>
    <trkpt lat="47.01550" lon="13.07357"><ele>2820</ele><time>2022-05-15T06:31:30Z</time></trkpt>
    <trkpt lat="47.01537" lon="13.07349"><ele>2813</ele><time>2022-05-15T06:31:49Z</time></trkpt>
    <trkpt lat="47.01525" lon="13.07339"><ele>2824</ele><time>2022-05-15T06:32:08Z</time></trkpt>
    <trkpt lat="47.01516" lon="13.07332"><ele>2828</ele><time>2022-05-15T06:32:27Z</time></trkpt>
    <trkpt lat="47.01506" lon="13.07313"><ele>2840</ele><time>2022-05-15T06:33:10Z</time></trkpt>
    <trkpt lat="47.01495" lon="13.07296"><ele>2846</ele><time>2022-05-15T06:34:00Z</time></trkpt>
    <trkpt lat="47.01484" lon="13.07278"><ele>2841</ele><time>2022-05-15T06:34:41Z</time></trkpt>
    <trkpt lat="47.01471" lon="13.07270"><ele>2863</ele><time>2022-05-15T06:35:48Z</time></trkpt>
    <trkpt lat="47.01459" lon="13.07287"><ele>2809</ele><time>2022-05-15T06:36:48Z</time></trkpt>
    <trkpt lat="47.01454" lon="13.07263"><ele>2882</ele><time>2022-05-15T06:38:19Z</time></trkpt>
    <trkpt lat="47.01444" lon="13.07261"><ele>2892</ele><time>2022-05-15T06:40:05Z</time></trkpt>
    <trkpt lat="47.01430" lon="13.07272"><ele>2897</ele><time>2022-05-15T06:41:30Z</time></trkpt>
    <trkpt lat="47.01419" lon="13.07261"><ele>2900</ele><time>2022-05-15T06:42:51Z</time></trkpt>
    <trkpt lat="47.01417" lon="13.07237"><ele>2769</ele><time>2022-05-15T06:43:43Z</time></trkpt>
    <trkpt lat="47.01415" lon="13.07212"><ele>2913</ele><time>2022-05-15T06:45:09Z</time></trkpt>
    <trkpt lat="47.01410" lon="13.07199"><ele>2875</ele><time>2022-05-15T06:45:27Z</time></trkpt>
    <trkpt lat="47.01402" lon="13.07191"><ele>2917</ele><time>2022-05-15T06:45:46Z</time></trkpt>
    <trkpt lat="47.01387" lon="13.07182"><ele>2912</ele><time>2022-05-15T06:47:01Z</time></trkpt>
    <trkpt lat="47.01380" lon="13.07190"><ele>2845</ele><time>2022-05-15T06:47:20Z</time></trkpt>
    <trkpt lat="47.01365" lon="13.07201"><ele>2941</ele><time>2022-05-15T06:48:04Z</time></trkpt>
    <trkpt lat="47.01362" lon="13.07220"><ele>2950</ele><time>2022-05-15T06:53:39Z</time></trkpt>
    <trkpt lat="47.01358" lon="13.07244"><ele>2947</ele><time>2022-05-15T06:58:22Z</time></trkpt>
    <trkpt lat="47.01354" lon="13.07268"><ele>2934</ele><time>2022-05-15T07:00:05Z</time></trkpt>
    <trkpt lat="47.01350" lon="13.07290"><ele>2864</ele><time>2022-05-15T07:01:51Z</time></trkpt>
    <trkpt lat="47.01343" lon="13.07302"><ele>2976</ele><time>2022-05-15T07:06:25Z</time></trkpt>
    <trkpt lat="47.01350" lon="13.07288"><ele>2973</ele><time>2022-05-15T07:21:11Z</time></trkpt>
    <trkpt lat="47.01353" lon="13.07265"><ele>2957</ele><time>2022-05-15T07:22:21Z</time></trkpt>
    <trkpt lat="47.01358" lon="13.07241"><ele>2954</ele><time>2022-05-15T07:23:15Z</time></trkpt>
    <trkpt lat="47.01360" lon="13.07217"><ele>2947</ele><time>2022-05-15T07:24:15Z</time></trkpt>
    <trkpt lat="47.01360" lon="13.07192"><ele>2944</ele><time>2022-05-15T07:24:55Z</time></trkpt>
    <trkpt lat="47.01372" lon="13.07144"><ele>2923</ele><time>2022-05-15T07:25:46Z</time></trkpt>
    <trkpt lat="47.01383" lon="13.07116"><ele>2934</ele><time>2022-05-15T07:26:05Z</time></trkpt>
    <trkpt lat="47.01390" lon="13.07097"><ele>2937</ele><time>2022-05-15T07:26:23Z</time></trkpt>
    <trkpt lat="47.01396" lon="13.07083"><ele>2940</ele><time>2022-05-15T07:26:42Z</time></trkpt>
    <trkpt lat="47.01400" lon="13.07070"><ele>2940</ele><time>2022-05-15T07:27:00Z</time></trkpt>
    <trkpt lat="47.01402" lon="13.07046"><ele>2948</ele><time>2022-05-15T07:30:27Z</time></trkpt>
    <trkpt lat="47.01412" lon="13.07026"><ele>2953</ele><time>2022-05-15T07:31:21Z</time></trkpt>
    <trkpt lat="47.01417" lon="13.07012"><ele>2956</ele><time>2022-05-15T07:31:40Z</time></trkpt>
    <trkpt lat="47.01423" lon="13.06989"><ele>2960</ele><time>2022-05-15T07:32:20Z</time></trkpt>
    <trkpt lat="47.01428" lon="13.06966"><ele>2963</ele><time>2022-05-15T07:33:24Z</time></trkpt>
    <trkpt lat="47.01434" lon="13.06949"><ele>2961</ele><time>2022-05-15T07:40:58Z</time></trkpt>
    <trkpt lat="47.01448" lon="13.06945"><ele>2951</ele><time>2022-05-15T07:41:17Z</time></trkpt>
    <trkpt lat="47.01452" lon="13.06909"><ele>2937</ele><time>2022-05-15T07:41:35Z</time></trkpt>
    <trkpt lat="47.01444" lon="13.06862"><ele>2924</ele><time>2022-05-15T07:41:53Z</time></trkpt>
    <trkpt lat="47.01451" lon="13.06845"><ele>2921</ele><time>2022-05-15T07:42:12Z</time></trkpt>
    <trkpt lat="47.01516" lon="13.06757"><ele>2895</ele><time>2022-05-15T07:42:31Z</time></trkpt>
    <trkpt lat="47.01528" lon="13.06723"><ele>2892</ele><time>2022-05-15T07:42:50Z</time></trkpt>
    <trkpt lat="47.01554" lon="13.06669"><ele>2888</ele><time>2022-05-15T07:44:44Z</time></trkpt>
    <trkpt lat="47.01563" lon="13.06640"><ele>2885</ele><time>2022-05-15T07:45:03Z</time></trkpt>
    <trkpt lat="47.01573" lon="13.06634"><ele>2882</ele><time>2022-05-15T07:45:29Z</time></trkpt>
    <trkpt lat="47.01584" lon="13.06600"><ele>2872</ele><time>2022-05-15T07:45:48Z</time></trkpt>
    <trkpt lat="47.01602" lon="13.06580"><ele>2861</ele><time>2022-05-15T07:46:07Z</time></trkpt>
    <trkpt lat="47.01673" lon="13.06560"><ele>2817</ele><time>2022-05-15T07:48:41Z</time></trkpt>
    <trkpt lat="47.01724" lon="13.06535"><ele>2792</ele><time>2022-05-15T07:49:00Z</time></trkpt>
    <trkpt lat="47.01706" lon="13.06533"><ele>2792</ele><time>2022-05-15T07:55:35Z</time></trkpt>
    <trkpt lat="47.01697" lon="13.06528"><ele>2793</ele><time>2022-05-15T07:55:53Z</time></trkpt>
    <trkpt lat="47.01689" lon="13.06508"><ele>2795</ele><time>2022-05-15T07:56:32Z</time></trkpt>
    <trkpt lat="47.01676" lon="13.06524"><ele>2768</ele><time>2022-05-15T07:57:24Z</time></trkpt>
    <trkpt lat="47.01665" lon="13.06543"><ele>2811</ele><time>2022-05-15T07:58:05Z</time></trkpt>
    <trkpt lat="47.01652" lon="13.06537"><ele>2818</ele><time>2022-05-15T07:58:48Z</time></trkpt>
    <trkpt lat="47.01644" lon="13.06516"><ele>2825</ele><time>2022-05-15T07:59:27Z</time></trkpt>
    <trkpt lat="47.01642" lon="13.06503"><ele>2828</ele><time>2022-05-15T07:59:46Z</time></trkpt>
    <trkpt lat="47.01643" lon="13.06479"><ele>2831</ele><time>2022-05-15T08:00:36Z</time></trkpt>
    <trkpt lat="47.01647" lon="13.06453"><ele>2838</ele><time>2022-05-15T08:01:12Z</time></trkpt>
    <trkpt lat="47.01651" lon="13.06430"><ele>2792</ele><time>2022-05-15T08:01:58Z</time></trkpt>
    <trkpt lat="47.01635" lon="13.06423"><ele>2849</ele><time>2022-05-15T08:03:00Z</time></trkpt>
    <trkpt lat="47.01618" lon="13.06420"><ele>2830</ele><time>2022-05-15T08:03:38Z</time></trkpt>
    <trkpt lat="47.01625" lon="13.06398"><ele>2864</ele><time>2022-05-15T08:04:37Z</time></trkpt>
    <trkpt lat="47.01632" lon="13.06379"><ele>2873</ele><time>2022-05-15T08:07:35Z</time></trkpt>
    <trkpt lat="47.01644" lon="13.06366"><ele>2866</ele><time>2022-05-15T08:07:54Z</time></trkpt>
    <trkpt lat="47.01653" lon="13.06346"><ele>2867</ele><time>2022-05-15T08:08:36Z</time></trkpt>
    <trkpt lat="47.01655" lon="13.06322"><ele>2883</ele><time>2022-05-15T08:14:00Z</time></trkpt>
    <trkpt lat="47.01666" lon="13.06305"><ele>2884</ele><time>2022-05-15T08:15:20Z</time></trkpt>
    <trkpt lat="47.01671" lon="13.06282"><ele>2888</ele><time>2022-05-15T08:16:59Z</time></trkpt>
    <trkpt lat="47.01684" lon="13.06267"><ele>2821</ele><time>2022-05-15T08:22:07Z</time></trkpt>
    <trkpt lat="47.01694" lon="13.06254"><ele>2884</ele><time>2022-05-15T08:22:26Z</time></trkpt>
    <trkpt lat="47.01722" lon="13.06232"><ele>2800</ele><time>2022-05-15T08:24:23Z</time></trkpt>
    <trkpt lat="47.01745" lon="13.06196"><ele>2858</ele><time>2022-05-15T08:24:42Z</time></trkpt>
    <trkpt lat="47.01729" lon="13.06112"><ele>2842</ele><time>2022-05-15T08:25:00Z</time></trkpt>
    <trkpt lat="47.01726" lon="13.06067"><ele>2832</ele><time>2022-05-15T08:25:19Z</time></trkpt>
    <trkpt lat="47.01724" lon="13.06044"><ele>2813</ele><time>2022-05-15T08:27:49Z</time></trkpt>
    <trkpt lat="47.01727" lon="13.06021"><ele>2849</ele><time>2022-05-15T08:28:59Z</time></trkpt>
    <trkpt lat="47.01726" lon="13.05997"><ele>2862</ele><time>2022-05-15T08:33:13Z</time></trkpt>
    <trkpt lat="47.01743" lon="13.05900"><ele>2839</ele><time>2022-05-15T08:33:31Z</time></trkpt>
    <trkpt lat="47.01756" lon="13.05855"><ele>2831</ele><time>2022-05-15T08:33:49Z</time></trkpt>
    <trkpt lat="47.01765" lon="13.05842"><ele>2829</ele><time>2022-05-15T08:37:31Z</time></trkpt>
    <trkpt lat="47.01800" lon="13.05873"><ele>2800</ele><time>2022-05-15T08:37:49Z</time></trkpt>
    <trkpt lat="47.01799" lon="13.05886"><ele>2798</ele><time>2022-05-15T08:39:09Z</time></trkpt>
    <trkpt lat="47.01842" lon="13.05930"><ele>2767</ele><time>2022-05-15T08:39:28Z</time></trkpt>
    <trkpt lat="47.01858" lon="13.05959"><ele>2723</ele><time>2022-05-15T08:39:47Z</time></trkpt>
    <trkpt lat="47.01857" lon="13.05983"><ele>2728</ele><time>2022-05-15T08:40:47Z</time></trkpt>
    <trkpt lat="47.01855" lon="13.05997"><ele>2726</ele><time>2022-05-15T08:41:06Z</time></trkpt>
    <trkpt lat="47.01875" lon="13.06030"><ele>2712</ele><time>2022-05-15T08:41:24Z</time></trkpt>
    <trkpt lat="47.01882" lon="13.06046"><ele>2685</ele><time>2022-05-15T08:41:43Z</time></trkpt>
    <trkpt lat="47.01889" lon="13.06055"><ele>2700</ele><time>2022-05-15T08:42:07Z</time></trkpt>
    <trkpt lat="47.01941" lon="13.06094"><ele>2636</ele><time>2022-05-15T08:42:26Z</time></trkpt>
    <trkpt lat="47.01961" lon="13.06120"><ele>2639</ele><time>2022-05-15T08:42:45Z</time></trkpt>
    <trkpt lat="47.01983" lon="13.06199"><ele>2601</ele><time>2022-05-15T08:44:40Z</time></trkpt>
    <trkpt lat="47.01996" lon="13.06229"><ele>2596</ele><time>2022-05-15T08:44:59Z</time></trkpt>
    <trkpt lat="47.02013" lon="13.06282"><ele>2554</ele><time>2022-05-15T08:46:45Z</time></trkpt>
    <trkpt lat="47.02006" lon="13.06291"><ele>2552</ele><time>2022-05-15T08:47:50Z</time></trkpt>
    <trkpt lat="47.02021" lon="13.06369"><ele>2513</ele><time>2022-05-15T08:48:08Z</time></trkpt>
    <trkpt lat="47.01998" lon="13.06437"><ele>2487</ele><time>2022-05-15T08:48:26Z</time></trkpt>
    <trkpt lat="47.01986" lon="13.06483"><ele>2474</ele><time>2022-05-15T08:48:44Z</time></trkpt>
    <trkpt lat="47.01985" lon="13.06506"><ele>2473</ele><time>2022-05-15T08:49:03Z</time></trkpt>
    <trkpt lat="47.01994" lon="13.06512"><ele>2472</ele><time>2022-05-15T08:49:51Z</time></trkpt>
    <trkpt lat="47.02044" lon="13.06574"><ele>2431</ele><time>2022-05-15T08:50:10Z</time></trkpt>
    <trkpt lat="47.02029" lon="13.06596"><ele>2424</ele><time>2022-05-15T08:50:28Z</time></trkpt>
    <trkpt lat="47.02005" lon="13.06634"><ele>2421</ele><time>2022-05-15T08:50:47Z</time></trkpt>
    <trkpt lat="47.02006" lon="13.06648"><ele>2420</ele><time>2022-05-15T08:52:04Z</time></trkpt>
    <trkpt lat="47.02075" lon="13.06713"><ele>2360</ele><time>2022-05-15T08:52:22Z</time></trkpt>
    <trkpt lat="47.02160" lon="13.06764"><ele>2183</ele><time>2022-05-15T08:52:40Z</time></trkpt>
    <trkpt lat="47.02170" lon="13.06774"><ele>2313</ele><time>2022-05-15T08:54:10Z</time></trkpt>
    <trkpt lat="47.02252" lon="13.06832"><ele>2264</ele><time>2022-05-15T08:54:28Z</time></trkpt>
    <trkpt lat="47.02281" lon="13.06853"><ele>2250</ele><time>2022-05-15T08:54:46Z</time></trkpt>
    <trkpt lat="47.02284" lon="13.06867"><ele>2242</ele><time>2022-05-15T08:55:34Z</time></trkpt>
    <trkpt lat="47.02334" lon="13.06948"><ele>2207</ele><time>2022-05-15T08:55:53Z</time></trkpt>
    <trkpt lat="47.02364" lon="13.06998"><ele>2185</ele><time>2022-05-15T08:56:11Z</time></trkpt>
    <trkpt lat="47.02373" lon="13.07022"><ele>2213</ele><time>2022-05-15T09:01:29Z</time></trkpt>
    <trkpt lat="47.02376" lon="13.07039"><ele>2214</ele><time>2022-05-15T09:01:47Z</time></trkpt>
    <trkpt lat="47.02380" lon="13.07055"><ele>2215</ele><time>2022-05-15T09:02:06Z</time></trkpt>
    <trkpt lat="47.02384" lon="13.07071"><ele>2215</ele><time>2022-05-15T09:02:24Z</time></trkpt>
    <trkpt lat="47.02392" lon="13.07099"><ele>2170</ele><time>2022-05-15T09:03:03Z</time></trkpt>
    <trkpt lat="47.02398" lon="13.07110"><ele>2357</ele><time>2022-05-15T09:03:22Z</time></trkpt>
    <trkpt lat="47.02403" lon="13.07123"><ele>2243</ele><time>2022-05-15T09:03:40Z</time></trkpt>
    <trkpt lat="47.02411" lon="13.07135"><ele>2236</ele><time>2022-05-15T09:03:59Z</time></trkpt>
    <trkpt lat="47.02419" lon="13.07157"><ele>2234</ele><time>2022-05-15T09:04:36Z</time></trkpt>
    <trkpt lat="47.02430" lon="13.07176"><ele>2246</ele><time>2022-05-15T09:05:31Z</time></trkpt>
    <trkpt lat="47.02439" lon="13.07196"><ele>2086</ele><time>2022-05-15T09:06:19Z</time></trkpt>
    <trkpt lat="47.02452" lon="13.07216"><ele>2243</ele><time>2022-05-15T09:06:58Z</time></trkpt>
    <trkpt lat="47.02456" lon="13.07229"><ele>2219</ele><time>2022-05-15T09:07:17Z</time></trkpt>
    <trkpt lat="47.02467" lon="13.07248"><ele>2261</ele><time>2022-05-15T09:08:04Z</time></trkpt>
    <trkpt lat="47.02476" lon="13.07268"><ele>2055</ele><time>2022-05-15T09:08:46Z</time></trkpt>
    <trkpt lat="47.02483" lon="13.07278"><ele>2265</ele><time>2022-05-15T09:09:05Z</time></trkpt>
    <trkpt lat="47.02492" lon="13.07298"><ele>2270</ele><time>2022-05-15T09:10:04Z</time></trkpt>
    <trkpt lat="47.02500" lon="13.07308"><ele>2226</ele><time>2022-05-15T09:10:23Z</time></trkpt>
    <trkpt lat="47.02511" lon="13.07329"><ele>2269</ele><time>2022-05-15T09:11:00Z</time></trkpt>
    <trkpt lat="47.02521" lon="13.07349"><ele>2259</ele><time>2022-05-15T09:11:51Z</time></trkpt>
    <trkpt lat="47.02528" lon="13.07357"><ele>2287</ele><time>2022-05-15T09:12:09Z</time></trkpt>
    <trkpt lat="47.02533" lon="13.07381"><ele>2184</ele><time>2022-05-15T09:12:51Z</time></trkpt>
    <trkpt lat="47.02542" lon="13.07400"><ele>2300</ele><time>2022-05-15T09:13:31Z</time></trkpt>
    <trkpt lat="47.02532" lon="13.07403"><ele>2300</ele><time>2022-05-15T09:13:49Z</time></trkpt>
    <trkpt lat="47.02540" lon="13.07424"><ele>2308</ele><time>2022-05-15T09:14:37Z</time></trkpt>
    <trkpt lat="47.02549" lon="13.07429"><ele>2269</ele><time>2022-05-15T09:14:55Z</time></trkpt>
    <trkpt lat="47.02568" lon="13.07439"><ele>2239</ele><time>2022-05-15T09:15:40Z</time></trkpt>
    <trkpt lat="47.02586" lon="13.07451"><ele>2335</ele><time>2022-05-15T09:16:23Z</time></trkpt>
    <trkpt lat="47.02596" lon="13.07452"><ele>2337</ele><time>2022-05-15T09:16:41Z</time></trkpt>
    <trkpt lat="47.02605" lon="13.07454"><ele>2339</ele><time>2022-05-15T09:17:00Z</time></trkpt>
    <trkpt lat="47.02598" lon="13.07477"><ele>2337</ele><time>2022-05-15T09:19:28Z</time></trkpt>
    <trkpt lat="47.02589" lon="13.07501"><ele>2343</ele><time>2022-05-15T09:20:11Z</time></trkpt>
    <trkpt lat="47.02592" lon="13.07514"><ele>2379</ele><time>2022-05-15T09:20:57Z</time></trkpt>
    <trkpt lat="47.02608" lon="13.07522"><ele>2335</ele><time>2022-05-15T09:21:46Z</time></trkpt>
    <trkpt lat="47.02626" lon="13.07521"><ele>2339</ele><time>2022-05-15T09:22:23Z</time></trkpt>
    <trkpt lat="47.02642" lon="13.07526"><ele>2362</ele><time>2022-05-15T09:23:06Z</time></trkpt>
    <trkpt lat="47.02638" lon="13.07549"><ele>2377</ele><time>2022-05-15T09:23:55Z</time></trkpt>
    <trkpt lat="47.02627" lon="13.07568"><ele>2384</ele><time>2022-05-15T09:24:38Z</time></trkpt>
    <trkpt lat="47.02623" lon="13.07591"><ele>2385</ele><time>2022-05-15T09:25:26Z</time></trkpt>
    <trkpt lat="47.02619" lon="13.07612"><ele>2399</ele><time>2022-05-15T09:26:08Z</time></trkpt>
    <trkpt lat="47.02623" lon="13.07636"><ele>2394</ele><time>2022-05-15T09:26:51Z</time></trkpt>
    <trkpt lat="47.02626" lon="13.07660"><ele>2402</ele><time>2022-05-15T09:27:35Z</time></trkpt>
    <trkpt lat="47.02631" lon="13.07683"><ele>2410</ele><time>2022-05-15T09:28:19Z</time></trkpt>
    <trkpt lat="47.02633" lon="13.07708"><ele>2414</ele><time>2022-05-15T09:28:58Z</time></trkpt>
    <trkpt lat="47.02626" lon="13.07718"><ele>2171</ele><time>2022-05-15T09:31:59Z</time></trkpt>
    <trkpt lat="47.02610" lon="13.07725"><ele>2424</ele><time>2022-05-15T09:32:43Z</time></trkpt>
    <trkpt lat="47.02616" lon="13.07744"><ele>2437</ele><time>2022-05-15T09:33:48Z</time></trkpt>
    <trkpt lat="47.02626" lon="13.07762"><ele>2302</ele><time>2022-05-15T09:34:56Z</time></trkpt>
    <trkpt lat="47.02641" lon="13.07773"><ele>2336</ele><time>2022-05-15T09:35:37Z</time></trkpt>
    <trkpt lat="47.02650" lon="13.07779"><ele>2375</ele><time>2022-05-15T09:35:56Z</time></trkpt>
    <trkpt lat="47.02664" lon="13.07791"><ele>2454</ele><time>2022-05-15T09:36:42Z</time></trkpt>
    <trkpt lat="47.02674" lon="13.07795"><ele>2459</ele><time>2022-05-15T09:37:01Z</time></trkpt>
    <trkpt lat="47.02679" lon="13.07814"><ele>2459</ele><time>2022-05-15T09:37:49Z</time></trkpt>
    <trkpt lat="47.02676" lon="13.07827"><ele>2463</ele><time>2022-05-15T09:38:08Z</time></trkpt>
    <trkpt lat="47.02691" lon="13.07836"><ele>2456</ele><time>2022-05-15T09:39:03Z</time></trkpt>
    <trkpt lat="47.02701" lon="13.07853"><ele>2480</ele><time>2022-05-15T09:40:07Z</time></trkpt>
    <trkpt lat="47.02700" lon="13.07872"><ele>2393</ele><time>2022-05-15T09:41:21Z</time></trkpt>
    <trkpt lat="47.02700" lon="13.07896"><ele>2477</ele><time>2022-05-15T09:50:10Z</time></trkpt>
    <trkpt lat="47.02711" lon="13.07904"><ele>2477</ele><time>2022-05-15T09:50:28Z</time></trkpt>
    <trkpt lat="47.02711" lon="13.07886"><ele>2476</ele><time>2022-05-15T09:51:11Z</time></trkpt>
    <trkpt lat="47.02769" lon="13.07841"><ele>2452</ele><time>2022-05-15T09:51:30Z</time></trkpt>
    <trkpt lat="47.02799" lon="13.07779"><ele>2426</ele><time>2022-05-15T09:51:49Z</time></trkpt>
    <trkpt lat="47.02812" lon="13.07768"><ele>2412</ele><time>2022-05-15T09:52:07Z</time></trkpt>
    <trkpt lat="47.02822" lon="13.07768"><ele>2402</ele><time>2022-05-15T09:52:56Z</time></trkpt>
    <trkpt lat="47.02880" lon="13.07717"><ele>2375</ele><time>2022-05-15T09:53:14Z</time></trkpt>
    <trkpt lat="47.02928" lon="13.07670"><ele>2338</ele><time>2022-05-15T09:53:33Z</time></trkpt>
    <trkpt lat="47.02972" lon="13.07557"><ele>2284</ele><time>2022-05-15T09:55:08Z</time></trkpt>
    <trkpt lat="47.03000" lon="13.07551"><ele>2267</ele><time>2022-05-15T09:55:26Z</time></trkpt>
    <trkpt lat="47.03008" lon="13.07543"><ele>2259</ele><time>2022-05-15T09:56:00Z</time></trkpt>
    <trkpt lat="47.03045" lon="13.07512"><ele>2240</ele><time>2022-05-15T09:56:18Z</time></trkpt>
    <trkpt lat="47.03046" lon="13.07498"><ele>2220</ele><time>2022-05-15T09:57:06Z</time></trkpt>
    <trkpt lat="47.03090" lon="13.07444"><ele>2180</ele><time>2022-05-15T09:57:24Z</time></trkpt>
    <trkpt lat="47.03112" lon="13.07421"><ele>2162</ele><time>2022-05-15T09:57:42Z</time></trkpt>
    <trkpt lat="47.03119" lon="13.07412"><ele>2135</ele><time>2022-05-15T09:58:20Z</time></trkpt>
    <trkpt lat="47.03130" lon="13.07392"><ele>2125</ele><time>2022-05-15T09:58:38Z</time></trkpt>
    <trkpt lat="47.03143" lon="13.07387"><ele>2112</ele><time>2022-05-15T09:58:57Z</time></trkpt>
    <trkpt lat="47.03142" lon="13.07372"><ele>2105</ele><time>2022-05-15T09:59:29Z</time></trkpt>
    <trkpt lat="47.03176" lon="13.07331"><ele>2085</ele><time>2022-05-15T09:59:48Z</time></trkpt>
    <trkpt lat="47.03194" lon="13.07285"><ele>2067</ele><time>2022-05-15T10:00:06Z</time></trkpt>
    <trkpt lat="47.03240" lon="13.07281"><ele>2039</ele><time>2022-05-15T10:01:18Z</time></trkpt>
    <trkpt lat="47.03260" lon="13.07276"><ele>2021</ele><time>2022-05-15T10:01:37Z</time></trkpt>
    <trkpt lat="47.03264" lon="13.07263"><ele>2003</ele><time>2022-05-15T10:02:23Z</time></trkpt>
    <trkpt lat="47.03311" lon="13.07254"><ele>1984</ele><time>2022-05-15T10:02:42Z</time></trkpt>
    <trkpt lat="47.03340" lon="13.07283"><ele>1967</ele><time>2022-05-15T10:03:01Z</time></trkpt>
    <trkpt lat="47.03358" lon="13.07274"><ele>1958</ele><time>2022-05-15T10:04:16Z</time></trkpt>
    <trkpt lat="47.03374" lon="13.07281"><ele>1950</ele><time>2022-05-15T10:06:19Z</time></trkpt>
    <trkpt lat="47.03421" lon="13.07273"><ele>1942</ele><time>2022-05-15T10:06:37Z</time></trkpt>
    <trkpt lat="47.03431" lon="13.07282"><ele>1939</ele><time>2022-05-15T10:06:56Z</time></trkpt>
    <trkpt lat="47.03483" lon="13.07306"><ele>1917</ele><time>2022-05-15T10:07:39Z</time></trkpt>
    <trkpt lat="47.03536" lon="13.07271"><ele>1895</ele><time>2022-05-15T10:07:57Z</time></trkpt>
    <trkpt lat="47.03577" lon="13.07239"><ele>1867</ele><time>2022-05-15T10:08:16Z</time></trkpt>
    <trkpt lat="47.03597" lon="13.07242"><ele>1849</ele><time>2022-05-15T10:09:09Z</time></trkpt>
    <trkpt lat="47.03643" lon="13.07274"><ele>1830</ele><time>2022-05-15T10:10:26Z</time></trkpt>
    <trkpt lat="47.03651" lon="13.07281"><ele>1820</ele><time>2022-05-15T10:10:52Z</time></trkpt>
    <trkpt lat="47.03714" lon="13.07217"><ele>1801</ele><time>2022-05-15T10:11:10Z</time></trkpt>
    <trkpt lat="47.03760" lon="13.07187"><ele>1771</ele><time>2022-05-15T10:11:29Z</time></trkpt>
    <trkpt lat="47.03835" lon="13.07142"><ele>1744</ele><time>2022-05-15T10:12:58Z</time></trkpt>
    <trkpt lat="47.03897" lon="13.07089"><ele>1728</ele><time>2022-05-15T10:13:17Z</time></trkpt>
    <trkpt lat="47.03922" lon="13.07049"><ele>1714</ele><time>2022-05-15T10:13:35Z</time></trkpt>
    <trkpt lat="47.03922" lon="13.07030"><ele>1700</ele><time>2022-05-15T10:33:19Z</time></trkpt>
    <trkpt lat="47.03927" lon="13.07017"><ele>1682</ele><time>2022-05-15T10:33:38Z</time></trkpt>
    <trkpt lat="47.03930" lon="13.06999"><ele>1679</ele><time>2022-05-15T10:33:56Z</time></trkpt>
    <trkpt lat="47.03937" lon="13.06983"><ele>1679</ele><time>2022-05-15T10:34:15Z</time></trkpt>
    <trkpt lat="47.03943" lon="13.06969"><ele>1675</ele><time>2022-05-15T10:34:34Z</time></trkpt>
    <trkpt lat="47.03954" lon="13.06945"><ele>1667</ele><time>2022-05-15T10:35:15Z</time></trkpt>
    <trkpt lat="47.03952" lon="13.06927"><ele>1664</ele><time>2022-05-15T10:35:34Z</time></trkpt>
    <trkpt lat="47.03958" lon="13.06907"><ele>1659</ele><time>2022-05-15T10:35:52Z</time></trkpt>
    <trkpt lat="47.03961" lon="13.06887"><ele>1655</ele><time>2022-05-15T10:36:11Z</time></trkpt>
    <trkpt lat="47.03966" lon="13.06861"><ele>1651</ele><time>2022-05-15T10:36:29Z</time></trkpt>
    <trkpt lat="47.03971" lon="13.06822"><ele>1639</ele><time>2022-05-15T10:37:20Z</time></trkpt>
    <trkpt lat="47.03979" lon="13.06801"><ele>1836</ele><time>2022-05-15T10:37:39Z</time></trkpt>
    <trkpt lat="47.03986" lon="13.06767"><ele>1658</ele><time>2022-05-15T10:37:58Z</time></trkpt>
    <trkpt lat="47.03987" lon="13.06746"><ele>1637</ele><time>2022-05-15T10:38:16Z</time></trkpt>
    <trkpt lat="47.03992" lon="13.06724"><ele>1659</ele><time>2022-05-15T10:38:35Z</time></trkpt>
    <trkpt lat="47.03994" lon="13.06687"><ele>1633</ele><time>2022-05-15T10:39:12Z</time></trkpt>
    <trkpt lat="47.03993" lon="13.06667"><ele>1628</ele><time>2022-05-15T10:39:31Z</time></trkpt>
    <trkpt lat="47.03992" lon="13.06646"><ele>1631</ele><time>2022-05-15T10:39:50Z</time></trkpt>
    <trkpt lat="47.03985" lon="13.06632"><ele>1631</ele><time>2022-05-15T10:40:09Z</time></trkpt>
    <trkpt lat="47.03978" lon="13.06616"><ele>1637</ele><time>2022-05-15T10:40:27Z</time></trkpt>
    <trkpt lat="47.03964" lon="13.06591"><ele>1645</ele><time>2022-05-15T10:41:17Z</time></trkpt>
    <trkpt lat="47.04014" lon="13.06612"><ele>1642</ele><time>2022-05-15T10:43:40Z</time></trkpt>
    <trkpt lat="47.04092" lon="13.06569"><ele>1639</ele><time>2022-05-15T10:43:58Z</time></trkpt>
    <trkpt lat="47.04191" lon="13.06468"><ele>1633</ele><time>2022-05-15T10:44:16Z</time></trkpt>
    <trkpt lat="47.04291" lon="13.06379"><ele>1628</ele><time>2022-05-15T10:44:35Z</time></trkpt>
    <trkpt lat="47.04376" lon="13.06352"><ele>1620</ele><time>2022-05-15T10:44:54Z</time></trkpt>
    <trkpt lat="47.04477" lon="13.06295"><ele>1615</ele><time>2022-05-15T10:45:12Z</time></trkpt>
    <trkpt lat="47.04579" lon="13.06165"><ele>1609</ele><time>2022-05-15T10:45:30Z</time></trkpt>
    <trkpt lat="47.04665" lon="13.06055"><ele>1607</ele><time>2022-05-15T10:45:49Z</time></trkpt>
    <trkpt lat="47.04740" lon="13.05959"><ele>1604</ele><time>2022-05-15T10:46:08Z</time></trkpt>
    <trkpt lat="47.04844" lon="13.05867"><ele>1600</ele><time>2022-05-15T10:46:26Z</time></trkpt>
    <trkpt lat="47.04926" lon="13.05791"><ele>1605</ele><time>2022-05-15T10:46:45Z</time></trkpt>
    <trkpt lat="47.05001" lon="13.05766"><ele>1605</ele><time>2022-05-15T10:47:03Z</time></trkpt>
    <trkpt lat="47.05056" lon="13.05739"><ele>1607</ele><time>2022-05-15T10:47:22Z</time></trkpt>
    <trkpt lat="47.05105" lon="13.05734"><ele>1607</ele><time>2022-05-15T10:47:40Z</time></trkpt>
    <trkpt lat="47.05165" lon="13.05704"><ele>1604</ele><time>2022-05-15T10:47:58Z</time></trkpt>
    <trkpt lat="47.05259" lon="13.05665"><ele>1602</ele><time>2022-05-15T10:48:17Z</time></trkpt>
    <trkpt lat="47.05332" lon="13.05582"><ele>1593</ele><time>2022-05-15T10:48:35Z</time></trkpt>
    <trkpt lat="47.05450" lon="13.05500"><ele>1592</ele><time>2022-05-15T10:48:54Z</time></trkpt>
    <trkpt lat="47.05587" lon="13.05497"><ele>1588</ele><time>2022-05-15T10:49:12Z</time></trkpt>
    <trkpt lat="47.05699" lon="13.05585"><ele>1585</ele><time>2022-05-15T10:49:31Z</time></trkpt>
    <trkpt lat="47.05781" lon="13.05628"><ele>1586</ele><time>2022-05-15T10:49:49Z</time></trkpt>
    <trkpt lat="47.05858" lon="13.05626"><ele>1583</ele><time>2022-05-15T10:50:08Z</time></trkpt>
    <trkpt lat="47.05890" lon="13.05656"><ele>1611</ele><time>2022-05-15T10:50:27Z</time></trkpt>
    <trkpt lat="47.05907" lon="13.05690"><ele>1590</ele><time>2022-05-15T10:50:45Z</time></trkpt>
    <trkpt lat="47.05938" lon="13.05734"><ele>1589</ele><time>2022-05-15T10:53:37Z</time></trkpt>
    <trkpt lat="47.05990" lon="13.05761"><ele>1584</ele><time>2022-05-15T10:53:56Z</time></trkpt>
    <trkpt lat="47.06050" lon="13.05776"><ele>1584</ele><time>2022-05-15T10:54:14Z</time></trkpt>
    <trkpt lat="47.06097" lon="13.05784"><ele>1582</ele><time>2022-05-15T10:54:32Z</time></trkpt>
    <trkpt lat="47.06101" lon="13.05748"><ele>1582</ele><time>2022-05-15T10:54:51Z</time></trkpt>
  </trkseg>
</trk>
</gpx>