<?xml version="1.0" encoding="UTF-8"?>
<gpx version="1.1" creator="GPX-Pro" xmlns="http://www.topografix.com/GPX/1/1">
<trk>
  <name>Mtb_Nebelstein-Gmünd</name>
  <trkseg>
    <trkpt lat="48.67095" lon="14.77473"><ele>960</ele><time>2022-06-04T08:08:58Z</time></trkpt>
    <trkpt lat="48.67086" lon="14.77475"><ele>957</ele><time>2022-06-04T08:09:57Z</time></trkpt>
    <trkpt lat="48.67065" lon="14.77530"><ele>953</ele><time>2022-06-04T08:10:15Z</time></trkpt>
    <trkpt lat="48.67026" lon="14.77682"><ele>949</ele><time>2022-06-04T08:10:34Z</time></trkpt>
    <trkpt lat="48.67014" lon="14.77960"><ele>943</ele><time>2022-06-04T08:10:53Z</time></trkpt>
    <trkpt lat="48.67050" lon="14.78222"><ele>935</ele><time>2022-06-04T08:11:11Z</time></trkpt>
    <trkpt lat="48.67153" lon="14.78430"><ele>938</ele><time>2022-06-04T08:11:29Z</time></trkpt>
    <trkpt lat="48.67267" lon="14.78540"><ele>926</ele><time>2022-06-04T08:11:48Z</time></trkpt>
    <trkpt lat="48.67381" lon="14.78623"><ele>922</ele><time>2022-06-04T08:12:06Z</time></trkpt>
    <trkpt lat="48.67521" lon="14.78630"><ele>915</ele><time>2022-06-04T08:12:25Z</time></trkpt>
    <trkpt lat="48.67676" lon="14.78689"><ele>899</ele><time>2022-06-04T08:12:43Z</time></trkpt>
    <trkpt lat="48.67786" lon="14.78649"><ele>890</ele><time>2022-06-04T08:13:02Z</time></trkpt>
    <trkpt lat="48.67887" lon="14.78614"><ele>878</ele><time>2022-06-04T08:13:21Z</time></trkpt>
    <trkpt lat="48.67903" lon="14.78624"><ele>890</ele><time>2022-06-04T08:15:51Z</time></trkpt>
    <trkpt lat="48.67951" lon="14.78680"><ele>892</ele><time>2022-06-04T08:16:10Z</time></trkpt>
    <trkpt lat="48.68003" lon="14.78690"><ele>884</ele><time>2022-06-04T08:16:28Z</time></trkpt>
    <trkpt lat="48.68108" lon="14.78664"><ele>874</ele><time>2022-06-04T08:16:47Z</time></trkpt>
    <trkpt lat="48.68165" lon="14.78747"><ele>873</ele><time>2022-06-04T08:17:05Z</time></trkpt>
    <trkpt lat="48.68200" lon="14.78850"><ele>861</ele><time>2022-06-04T08:17:23Z</time></trkpt>
    <trkpt lat="48.68207" lon="14.78889"><ele>848</ele><time>2022-06-04T08:17:41Z</time></trkpt>
    <trkpt lat="48.68215" lon="14.78898"><ele>835</ele><time>2022-06-04T08:18:03Z</time></trkpt>
    <trkpt lat="48.68258" lon="14.78908"><ele>828</ele><time>2022-06-04T08:18:22Z</time></trkpt>
    <trkpt lat="48.68341" lon="14.78982"><ele>819</ele><time>2022-06-04T08:18:41Z</time></trkpt>
    <trkpt lat="48.68338" lon="14.79047"><ele>815</ele><time>2022-06-04T08:18:59Z</time></trkpt>
    <trkpt lat="48.68329" lon="14.79120"><ele>825</ele><time>2022-06-04T08:20:39Z</time></trkpt>
    <trkpt lat="48.68344" lon="14.79161"><ele>821</ele><time>2022-06-04T08:20:57Z</time></trkpt>
    <trkpt lat="48.68386" lon="14.79161"><ele>808</ele><time>2022-06-04T08:21:16Z</time></trkpt>
    <trkpt lat="48.68400" lon="14.79164"><ele>804</ele><time>2022-06-04T08:21:34Z</time></trkpt>
    <trkpt lat="48.68416" lon="14.79163"><ele>807</ele><time>2022-06-04T08:21:52Z</time></trkpt>
    <trkpt lat="48.68471" lon="14.79091"><ele>807</ele><time>2022-06-04T08:22:34Z</time></trkpt>
    <trkpt lat="48.68517" lon="14.78901"><ele>800</ele><time>2022-06-04T08:23:11Z</time></trkpt>
    <trkpt lat="48.68534" lon="14.78871"><ele>786</ele><time>2022-06-04T08:23:29Z</time></trkpt>
    <trkpt lat="48.68571" lon="14.78881"><ele>773</ele><time>2022-06-04T08:23:48Z</time></trkpt>
    <trkpt lat="48.68622" lon="14.78875"><ele>755</ele><time>2022-06-04T08:24:07Z</time></trkpt>
    <trkpt lat="48.68654" lon="14.78802"><ele>751</ele><time>2022-06-04T08:24:26Z</time></trkpt>
    <trkpt lat="48.68732" lon="14.78829"><ele>748</ele><time>2022-06-04T08:24:45Z</time></trkpt>
    <trkpt lat="48.68785" lon="14.78860"><ele>737</ele><time>2022-06-04T08:25:03Z</time></trkpt>
    <trkpt lat="48.68797" lon="14.78866"><ele>728</ele><time>2022-06-04T08:31:52Z</time></trkpt>
    <trkpt lat="48.68862" lon="14.78946"><ele>718</ele><time>2022-06-04T08:32:11Z</time></trkpt>
    <trkpt lat="48.68863" lon="14.78930"><ele>715</ele><time>2022-06-04T08:32:30Z</time></trkpt>
    <trkpt lat="48.68859" lon="14.78870"><ele>715</ele><time>2022-06-04T08:32:49Z</time></trkpt>
    <trkpt lat="48.68957" lon="14.78769"><ele>701</ele><time>2022-06-04T08:33:07Z</time></trkpt>
    <trkpt lat="48.68971" lon="14.78708"><ele>696</ele><time>2022-06-04T08:33:26Z</time></trkpt>
    <trkpt lat="48.68956" lon="14.78756"><ele>696</ele><time>2022-06-04T08:33:44Z</time></trkpt>
    <trkpt lat="48.68940" lon="14.78807"><ele>696</ele><time>2022-06-04T08:34:02Z</time></trkpt>
    <trkpt lat="48.68899" lon="14.78836"><ele>699</ele><time>2022-06-04T08:34:20Z</time></trkpt>
    <trkpt lat="48.68863" lon="14.78867"><ele>712</ele><time>2022-06-04T08:34:38Z</time></trkpt>
    <trkpt lat="48.68838" lon="14.78809"><ele>711</ele><time>2022-06-04T08:34:57Z</time></trkpt>
    <trkpt lat="48.68883" lon="14.78753"><ele>699</ele><time>2022-06-04T08:35:15Z</time></trkpt>
    <trkpt lat="48.68877" lon="14.78695"><ele>696</ele><time>2022-06-04T08:35:34Z</time></trkpt>
    <trkpt lat="48.68887" lon="14.78659"><ele>696</ele><time>2022-06-04T08:35:52Z</time></trkpt>
    <trkpt lat="48.68886" lon="14.78611"><ele>693</ele><time>2022-06-04T08:36:10Z</time></trkpt>
    <trkpt lat="48.68924" lon="14.78572"><ele>701</ele><time>2022-06-04T08:36:29Z</time></trkpt>
    <trkpt lat="48.68938" lon="14.78556"><ele>697</ele><time>2022-06-04T08:36:47Z</time></trkpt>
    <trkpt lat="48.68965" lon="14.78541"><ele>695</ele><time>2022-06-04T08:37:06Z</time></trkpt>
    <trkpt lat="48.69004" lon="14.78542"><ele>698</ele><time>2022-06-04T08:37:25Z</time></trkpt>
    <trkpt lat="48.69052" lon="14.78560"><ele>710</ele><time>2022-06-04T08:37:44Z</time></trkpt>
    <trkpt lat="48.69099" lon="14.78621"><ele>690</ele><time>2022-06-04T08:38:03Z</time></trkpt>
    <trkpt lat="48.69143" lon="14.78772"><ele>700</ele><time>2022-06-04T08:38:22Z</time></trkpt>
    <trkpt lat="48.69208" lon="14.78891"><ele>692</ele><time>2022-06-04T08:38:41Z</time></trkpt>
    <trkpt lat="48.69357" lon="14.79009"><ele>674</ele><time>2022-06-04T08:39:00Z</time></trkpt>
    <trkpt lat="48.69496" lon="14.79104"><ele>676</ele><time>2022-06-04T08:39:18Z</time></trkpt>
    <trkpt lat="48.69596" lon="14.79168"><ele>672</ele><time>2022-06-04T08:39:37Z</time></trkpt>
    <trkpt lat="48.69665" lon="14.79237"><ele>672</ele><time>2022-06-04T08:39:56Z</time></trkpt>
    <trkpt lat="48.69696" lon="14.79338"><ele>664</ele><time>2022-06-04T08:40:14Z</time></trkpt>
    <trkpt lat="48.69714" lon="14.79333"><ele>666</ele><time>2022-06-04T08:40:32Z</time></trkpt>
    <trkpt lat="48.69790" lon="14.79406"><ele>666</ele><time>2022-06-04T08:40:50Z</time></trkpt>
    <trkpt lat="48.69888" lon="14.79439"><ele>661</ele><time>2022-06-04T08:41:08Z</time></trkpt>
    <trkpt lat="48.69984" lon="14.79489"><ele>661</ele><time>2022-06-04T08:41:27Z</time></trkpt>
    <trkpt lat="48.70054" lon="14.79526"><ele>664</ele><time>2022-06-04T08:41:45Z</time></trkpt>
    <trkpt lat="48.70114" lon="14.79560"><ele>675</ele><time>2022-06-04T08:42:04Z</time></trkpt>
    <trkpt lat="48.70174" lon="14.79587"><ele>674</ele><time>2022-06-04T08:42:22Z</time></trkpt>
    <trkpt lat="48.70254" lon="14.79591"><ele>666</ele><time>2022-06-04T08:42:41Z</time></trkpt>
    <trkpt lat="48.70392" lon="14.79589"><ele>659</ele><time>2022-06-04T08:43:00Z</time></trkpt>
    <trkpt lat="48.70485" lon="14.79614"><ele>654</ele><time>2022-06-04T08:43:19Z</time></trkpt>
    <trkpt lat="48.70564" lon="14.79654"><ele>661</ele><time>2022-06-04T08:43:38Z</time></trkpt>
    <trkpt lat="48.70656" lon="14.79783"><ele>665</ele><time>2022-06-04T08:44:14Z</time></trkpt>
    <trkpt lat="48.70711" lon="14.79809"><ele>673</ele><time>2022-06-04T08:44:33Z</time></trkpt>
    <trkpt lat="48.70764" lon="14.79800"><ele>679</ele><time>2022-06-04T08:44:51Z</time></trkpt>
    <trkpt lat="48.70814" lon="14.79781"><ele>677</ele><time>2022-06-04T08:45:10Z</time></trkpt>
    <trkpt lat="48.70856" lon="14.79770"><ele>689</ele><time>2022-06-04T08:45:28Z</time></trkpt>
    <trkpt lat="48.70896" lon="14.79774"><ele>695</ele><time>2022-06-04T08:45:47Z</time></trkpt>
    <trkpt lat="48.70935" lon="14.79812"><ele>686</ele><time>2022-06-04T08:46:06Z</time></trkpt>
    <trkpt lat="48.70991" lon="14.79818"><ele>688</ele><time>2022-06-04T08:46:24Z</time></trkpt>
    <trkpt lat="48.71009" lon="14.79898"><ele>688</ele><time>2022-06-04T08:46:43Z</time></trkpt>
    <trkpt lat="48.70990" lon="14.79947"><ele>691</ele><time>2022-06-04T08:47:01Z</time></trkpt>
    <trkpt lat="48.70989" lon="14.79987"><ele>694</ele><time>2022-06-04T08:47:20Z</time></trkpt>
    <trkpt lat="48.71011" lon="14.80005"><ele>694</ele><time>2022-06-04T08:47:39Z</time></trkpt>
    <trkpt lat="48.71026" lon="14.80028"><ele>694</ele><time>2022-06-04T08:47:57Z</time></trkpt>
    <trkpt lat="48.71042" lon="14.80036"><ele>701</ele><time>2022-06-04T08:48:15Z</time></trkpt>
    <trkpt lat="48.71057" lon="14.80064"><ele>711</ele><time>2022-06-04T08:48:34Z</time></trkpt>
    <trkpt lat="48.71076" lon="14.80076"><ele>712</ele><time>2022-06-04T08:48:53Z</time></trkpt>
    <trkpt lat="48.71095" lon="14.80093"><ele>717</ele><time>2022-06-04T08:49:12Z</time></trkpt>
    <trkpt lat="48.71119" lon="14.80106"><ele>718</ele><time>2022-06-04T08:49:31Z</time></trkpt>
    <trkpt lat="48.71138" lon="14.80140"><ele>718</ele><time>2022-06-04T08:49:50Z</time></trkpt>
    <trkpt lat="48.71151" lon="14.80170"><ele>722</ele><time>2022-06-04T08:50:08Z</time></trkpt>
    <trkpt lat="48.71163" lon="14.80197"><ele>724</ele><time>2022-06-04T08:50:27Z</time></trkpt>
    <trkpt lat="48.71180" lon="14.80219"><ele>724</ele><time>2022-06-04T08:50:45Z</time></trkpt>
    <trkpt lat="48.71199" lon="14.80232"><ele>723</ele><time>2022-06-04T08:51:04Z</time></trkpt>
    <trkpt lat="48.71217" lon="14.80249"><ele>735</ele><time>2022-06-04T08:51:22Z</time></trkpt>
    <trkpt lat="48.71238" lon="14.80267"><ele>732</ele><time>2022-06-04T08:51:41Z</time></trkpt>
    <trkpt lat="48.71257" lon="14.80297"><ele>730</ele><time>2022-06-04T08:51:59Z</time></trkpt>
    <trkpt lat="48.71276" lon="14.80309"><ele>730</ele><time>2022-06-04T08:52:17Z</time></trkpt>
    <trkpt lat="48.71294" lon="14.80313"><ele>744</ele><time>2022-06-04T08:52:36Z</time></trkpt>
    <trkpt lat="48.71311" lon="14.80339"><ele>751</ele><time>2022-06-04T08:52:55Z</time></trkpt>
    <trkpt lat="48.71322" lon="14.80377"><ele>754</ele><time>2022-06-04T08:53:13Z</time></trkpt>
    <trkpt lat="48.71330" lon="14.80421"><ele>743</ele><time>2022-06-04T08:53:32Z</time></trkpt>
    <trkpt lat="48.71320" lon="14.80465"><ele>743</ele><time>2022-06-04T08:53:50Z</time></trkpt>
    <trkpt lat="48.71345" lon="14.80500"><ele>746</ele><time>2022-06-04T08:54:09Z</time></trkpt>
    <trkpt lat="48.71376" lon="14.80500"><ele>752</ele><time>2022-06-04T08:54:28Z</time></trkpt>
    <trkpt lat="48.71398" lon="14.80488"><ele>750</ele><time>2022-06-04T08:54:47Z</time></trkpt>
    <trkpt lat="48.71414" lon="14.80526"><ele>756</ele><time>2022-06-04T08:55:05Z</time></trkpt>
    <trkpt lat="48.71418" lon="14.80548"><ele>767</ele><time>2022-06-04T08:55:24Z</time></trkpt>
    <trkpt lat="48.71431" lon="14.80566"><ele>772</ele><time>2022-06-04T08:55:43Z</time></trkpt>
    <trkpt lat="48.71441" lon="14.80589"><ele>783</ele><time>2022-06-04T08:56:02Z</time></trkpt>
    <trkpt lat="48.71455" lon="14.80604"><ele>788</ele><time>2022-06-04T08:56:20Z</time></trkpt>
    <trkpt lat="48.71471" lon="14.80621"><ele>791</ele><time>2022-06-04T08:56:39Z</time></trkpt>
    <trkpt lat="48.71488" lon="14.80627"><ele>795</ele><time>2022-06-04T08:56:57Z</time></trkpt>
    <trkpt lat="48.71504" lon="14.80635"><ele>799</ele><time>2022-06-04T08:57:16Z</time></trkpt>
    <trkpt lat="48.71522" lon="14.80648"><ele>788</ele><time>2022-06-04T08:57:34Z</time></trkpt>
    <trkpt lat="48.71550" lon="14.80660"><ele>798</ele><time>2022-06-04T08:57:53Z</time></trkpt>
    <trkpt lat="48.71585" lon="14.80676"><ele>801</ele><time>2022-06-04T08:58:11Z</time></trkpt>
    <trkpt lat="48.71616" lon="14.80689"><ele>782</ele><time>2022-06-04T08:58:30Z</time></trkpt>
    <trkpt lat="48.71660" lon="14.80700"><ele>798</ele><time>2022-06-04T08:58:49Z</time></trkpt>
    <trkpt lat="48.71701" lon="14.80711"><ele>796</ele><time>2022-06-04T08:59:07Z</time></trkpt>
    <trkpt lat="48.71744" lon="14.80759"><ele>785</ele><time>2022-06-04T08:59:26Z</time></trkpt>
    <trkpt lat="48.71796" lon="14.80790"><ele>788</ele><time>2022-06-04T08:59:45Z</time></trkpt>
    <trkpt lat="48.71845" lon="14.80815"><ele>791</ele><time>2022-06-04T09:00:03Z</time></trkpt>
    <trkpt lat="48.71871" lon="14.80828"><ele>788</ele><time>2022-06-04T09:00:22Z</time></trkpt>
    <trkpt lat="48.71902" lon="14.80841"><ele>783</ele><time>2022-06-04T09:00:40Z</time></trkpt>
    <trkpt lat="48.71948" lon="14.80870"><ele>785</ele><time>2022-06-04T09:00:59Z</time></trkpt>
    <trkpt lat="48.71988" lon="14.80862"><ele>795</ele><time>2022-06-04T09:01:17Z</time></trkpt>
    <trkpt lat="48.72031" lon="14.80858"><ele>803</ele><time>2022-06-04T09:01:36Z</time></trkpt>
    <trkpt lat="48.72084" lon="14.80842"><ele>808</ele><time>2022-06-04T09:01:54Z</time></trkpt>
    <trkpt lat="48.72143" lon="14.80826"><ele>794</ele><time>2022-06-04T09:02:13Z</time></trkpt>
    <trkpt lat="48.72183" lon="14.80809"><ele>794</ele><time>2022-06-04T09:02:31Z</time></trkpt>
    <trkpt lat="48.72219" lon="14.80794"><ele>794</ele><time>2022-06-04T09:02:49Z</time></trkpt>
    <trkpt lat="48.72249" lon="14.80779"><ele>797</ele><time>2022-06-04T09:03:07Z</time></trkpt>
    <trkpt lat="48.72280" lon="14.80784"><ele>789</ele><time>2022-06-04T09:03:26Z</time></trkpt>
    <trkpt lat="48.72312" lon="14.80785"><ele>794</ele><time>2022-06-04T09:03:45Z</time></trkpt>
    <trkpt lat="48.72346" lon="14.80783"><ele>800</ele><time>2022-06-04T09:04:03Z</time></trkpt>
    <trkpt lat="48.72379" lon="14.80781"><ele>800</ele><time>2022-06-04T09:04:22Z</time></trkpt>
    <trkpt lat="48.72412" lon="14.80781"><ele>799</ele><time>2022-06-04T09:04:40Z</time></trkpt>
    <trkpt lat="48.72443" lon="14.80779"><ele>802</ele><time>2022-06-04T09:04:58Z</time></trkpt>
    <trkpt lat="48.72468" lon="14.80773"><ele>801</ele><time>2022-06-04T09:05:17Z</time></trkpt>
    <trkpt lat="48.72494" lon="14.80767"><ele>802</ele><time>2022-06-04T09:05:35Z</time></trkpt>
    <trkpt lat="48.72520" lon="14.80762"><ele>796</ele><time>2022-06-04T09:05:54Z</time></trkpt>
    <trkpt lat="48.72549" lon="14.80777"><ele>803</ele><time>2022-06-04T09:06:12Z</time></trkpt>
    <trkpt lat="48.72564" lon="14.80790"><ele>809</ele><time>2022-06-04T09:06:31Z</time></trkpt>
    <trkpt lat="48.72584" lon="14.80808"><ele>794</ele><time>2022-06-04T09:07:08Z</time></trkpt>
    <trkpt lat="48.72607" lon="14.80818"><ele>822</ele><time>2022-06-04T09:07:27Z</time></trkpt>
    <trkpt lat="48.72627" lon="14.80828"><ele>828</ele><time>2022-06-04T09:07:46Z</time></trkpt>
    <trkpt lat="48.72670" lon="14.80843"><ele>839</ele><time>2022-06-04T09:08:04Z</time></trkpt>
    <trkpt lat="48.72711" lon="14.80862"><ele>824</ele><time>2022-06-04T09:08:23Z</time></trkpt>
    <trkpt lat="48.72764" lon="14.80851"><ele>832</ele><time>2022-06-04T09:08:41Z</time></trkpt>
    <trkpt lat="48.72784" lon="14.80870"><ele>829</ele><time>2022-06-04T09:09:00Z</time></trkpt>
    <trkpt lat="48.72792" lon="14.80904"><ele>835</ele><time>2022-06-04T09:09:19Z</time></trkpt>
    <trkpt lat="48.72806" lon="14.80924"><ele>828</ele><time>2022-06-04T09:09:38Z</time></trkpt>
    <trkpt lat="48.72827" lon="14.80947"><ele>834</ele><time>2022-06-04T09:09:56Z</time></trkpt>
    <trkpt lat="48.72838" lon="14.80977"><ele>828</ele><time>2022-06-04T09:10:14Z</time></trkpt>
    <trkpt lat="48.72853" lon="14.81000"><ele>840</ele><time>2022-06-04T09:10:33Z</time></trkpt>
    <trkpt lat="48.72870" lon="14.81026"><ele>842</ele><time>2022-06-04T09:10:51Z</time></trkpt>
    <trkpt lat="48.72878" lon="14.81042"><ele>851</ele><time>2022-06-04T09:11:10Z</time></trkpt>
    <trkpt lat="48.72893" lon="14.81079"><ele>848</ele><time>2022-06-04T09:11:29Z</time></trkpt>
    <trkpt lat="48.72900" lon="14.81112"><ele>843</ele><time>2022-06-04T09:11:47Z</time></trkpt>
    <trkpt lat="48.72905" lon="14.81132"><ele>826</ele><time>2022-06-04T09:12:06Z</time></trkpt>
    <trkpt lat="48.72915" lon="14.81144"><ele>843</ele><time>2022-06-04T09:12:25Z</time></trkpt>
    <trkpt lat="48.72930" lon="14.81157"><ele>854</ele><time>2022-06-04T09:13:14Z</time></trkpt>
    <trkpt lat="48.72953" lon="14.81185"><ele>855</ele><time>2022-06-04T09:13:33Z</time></trkpt>
    <trkpt lat="48.72969" lon="14.81205"><ele>854</ele><time>2022-06-04T09:13:51Z</time></trkpt>
    <trkpt lat="48.72979" lon="14.81208"><ele>865</ele><time>2022-06-04T09:14:14Z</time></trkpt>
    <trkpt lat="48.73020" lon="14.81228"><ele>848</ele><time>2022-06-04T09:14:33Z</time></trkpt>
    <trkpt lat="48.73034" lon="14.81173"><ele>858</ele><time>2022-06-04T09:15:55Z</time></trkpt>
    <trkpt lat="48.73053" lon="14.81094"><ele>855</ele><time>2022-06-04T09:16:14Z</time></trkpt>
    <trkpt lat="48.73109" lon="14.81000"><ele>851</ele><time>2022-06-04T09:16:50Z</time></trkpt>
    <trkpt lat="48.73138" lon="14.80971"><ele>854</ele><time>2022-06-04T09:17:09Z</time></trkpt>
    <trkpt lat="48.73162" lon="14.80962"><ele>857</ele><time>2022-06-04T09:17:27Z</time></trkpt>
    <trkpt lat="48.73181" lon="14.80941"><ele>862</ele><time>2022-06-04T09:18:05Z</time></trkpt>
    <trkpt lat="48.73191" lon="14.80938"><ele>863</ele><time>2022-06-04T09:18:24Z</time></trkpt>
    <trkpt lat="48.73209" lon="14.80923"><ele>871</ele><time>2022-06-04T09:19:20Z</time></trkpt>
    <trkpt lat="48.73219" lon="14.80915"><ele>869</ele><time>2022-06-04T09:19:38Z</time></trkpt>
    <trkpt lat="48.73234" lon="14.80909"><ele>874</ele><time>2022-06-04T09:19:56Z</time></trkpt>
    <trkpt lat="48.73248" lon="14.80901"><ele>877</ele><time>2022-06-04T09:20:14Z</time></trkpt>
    <trkpt lat="48.73262" lon="14.80897"><ele>876</ele><time>2022-06-04T09:20:33Z</time></trkpt>
    <trkpt lat="48.73276" lon="14.80890"><ele>869</ele><time>2022-06-04T09:20:52Z</time></trkpt>
    <trkpt lat="48.73252" lon="14.80896"><ele>851</ele><time>2022-06-04T09:23:43Z</time></trkpt>
    <trkpt lat="48.73241" lon="14.80901"><ele>866</ele><time>2022-06-04T09:24:02Z</time></trkpt>
    <trkpt lat="48.73225" lon="14.80907"><ele>890</ele><time>2022-06-04T09:24:20Z</time></trkpt>
    <trkpt lat="48.73216" lon="14.80919"><ele>861</ele><time>2022-06-04T09:24:38Z</time></trkpt>
    <trkpt lat="48.73201" lon="14.80929"><ele>863</ele><time>2022-06-04T09:24:57Z</time></trkpt>
    <trkpt lat="48.73198" lon="14.80946"><ele>869</ele><time>2022-06-04T09:25:16Z</time></trkpt>
    <trkpt lat="48.73172" lon="14.80955"><ele>876</ele><time>2022-06-04T09:25:34Z</time></trkpt>
    <trkpt lat="48.73133" lon="14.80962"><ele>858</ele><time>2022-06-04T09:25:53Z</time></trkpt>
    <trkpt lat="48.73101" lon="14.81016"><ele>841</ele><time>2022-06-04T09:26:11Z</time></trkpt>
    <trkpt lat="48.73065" lon="14.81069"><ele>843</ele><time>2022-06-04T09:26:30Z</time></trkpt>
    <trkpt lat="48.73042" lon="14.81140"><ele>833</ele><time>2022-06-04T09:26:48Z</time></trkpt>
    <trkpt lat="48.73032" lon="14.81218"><ele>841</ele><time>2022-06-04T09:27:06Z</time></trkpt>
    <trkpt lat="48.73018" lon="14.81295"><ele>849</ele><time>2022-06-04T09:27:25Z</time></trkpt>
    <trkpt lat="48.73004" lon="14.81372"><ele>841</ele><time>2022-06-04T09:27:43Z</time></trkpt>
    <trkpt lat="48.72955" lon="14.81412"><ele>839</ele><time>2022-06-04T09:28:47Z</time></trkpt>
    <trkpt lat="48.72914" lon="14.81384"><ele>851</ele><time>2022-06-04T09:29:05Z</time></trkpt>
    <trkpt lat="48.72875" lon="14.81348"><ele>849</ele><time>2022-06-04T09:29:23Z</time></trkpt>
    <trkpt lat="48.72838" lon="14.81311"><ele>839</ele><time>2022-06-04T09:29:42Z</time></trkpt>
    <trkpt lat="48.72796" lon="14.81233"><ele>839</ele><time>2022-06-04T09:30:01Z</time></trkpt>
    <trkpt lat="48.72787" lon="14.81024"><ele>834</ele><time>2022-06-04T09:30:19Z</time></trkpt>
    <trkpt lat="48.72772" lon="14.80848"><ele>826</ele><time>2022-06-04T09:30:38Z</time></trkpt>
    <trkpt lat="48.72742" lon="14.80871"><ele>818</ele><time>2022-06-04T09:30:57Z</time></trkpt>
    <trkpt lat="48.72733" lon="14.80871"><ele>808</ele><time>2022-06-04T09:31:16Z</time></trkpt>
    <trkpt lat="48.72669" lon="14.80845"><ele>815</ele><time>2022-06-04T09:31:35Z</time></trkpt>
    <trkpt lat="48.72633" lon="14.80825"><ele>813</ele><time>2022-06-04T09:31:53Z</time></trkpt>
    <trkpt lat="48.72592" lon="14.80805"><ele>808</ele><time>2022-06-04T09:32:12Z</time></trkpt>
    <trkpt lat="48.72551" lon="14.80777"><ele>801</ele><time>2022-06-04T09:32:30Z</time></trkpt>
    <trkpt lat="48.72517" lon="14.80760"><ele>796</ele><time>2022-06-04T09:32:49Z</time></trkpt>
    <trkpt lat="48.72473" lon="14.80765"><ele>805</ele><time>2022-06-04T09:33:07Z</time></trkpt>
    <trkpt lat="48.72458" lon="14.80768"><ele>805</ele><time>2022-06-04T09:33:26Z</time></trkpt>
    <trkpt lat="48.72472" lon="14.80768"><ele>798</ele><time>2022-06-04T09:34:39Z</time></trkpt>
    <trkpt lat="48.72508" lon="14.80762"><ele>801</ele><time>2022-06-04T09:34:58Z</time></trkpt>
    <trkpt lat="48.72543" lon="14.80772"><ele>789</ele><time>2022-06-04T09:35:17Z</time></trkpt>
    <trkpt lat="48.72560" lon="14.80779"><ele>796</ele><time>2022-06-04T09:35:35Z</time></trkpt>
    <trkpt lat="48.72576" lon="14.80793"><ele>806</ele><time>2022-06-04T09:35:53Z</time></trkpt>
    <trkpt lat="48.72599" lon="14.80809"><ele>809</ele><time>2022-06-04T09:36:31Z</time></trkpt>
    <trkpt lat="48.72636" lon="14.80836"><ele>814</ele><time>2022-06-04T09:36:50Z</time></trkpt>
    <trkpt lat="48.72689" lon="14.80859"><ele>816</ele><time>2022-06-04T09:37:08Z</time></trkpt>
    <trkpt lat="48.72735" lon="14.80863"><ele>804</ele><time>2022-06-04T09:37:26Z</time></trkpt>
    <trkpt lat="48.72766" lon="14.80867"><ele>813</ele><time>2022-06-04T09:37:44Z</time></trkpt>
    <trkpt lat="48.72771" lon="14.80925"><ele>818</ele><time>2022-06-04T09:38:03Z</time></trkpt>
    <trkpt lat="48.72781" lon="14.80983"><ele>816</ele><time>2022-06-04T09:38:21Z</time></trkpt>
    <trkpt lat="48.72792" lon="14.81042"><ele>818</ele><time>2022-06-04T09:38:40Z</time></trkpt>
    <trkpt lat="48.72789" lon="14.81095"><ele>822</ele><time>2022-06-04T09:38:58Z</time></trkpt>
    <trkpt lat="48.72780" lon="14.81145"><ele>832</ele><time>2022-06-04T09:39:16Z</time></trkpt>
    <trkpt lat="48.72792" lon="14.81204"><ele>831</ele><time>2022-06-04T09:39:35Z</time></trkpt>
    <trkpt lat="48.72807" lon="14.81253"><ele>830</ele><time>2022-06-04T09:39:54Z</time></trkpt>
    <trkpt lat="48.72837" lon="14.81308"><ele>838</ele><time>2022-06-04T09:40:13Z</time></trkpt>
    <trkpt lat="48.72921" lon="14.81466"><ele>864</ele><time>2022-06-04T09:40:31Z</time></trkpt>
    <trkpt lat="48.73042" lon="14.81587"><ele>820</ele><time>2022-06-04T09:40:50Z</time></trkpt>
    <trkpt lat="48.73051" lon="14.81593"><ele>815</ele><time>2022-06-04T09:41:12Z</time></trkpt>
    <trkpt lat="48.73064" lon="14.81615"><ele>820</ele><time>2022-06-04T09:41:30Z</time></trkpt>
    <trkpt lat="48.73072" lon="14.81599"><ele>848</ele><time>2022-06-04T09:42:21Z</time></trkpt>
    <trkpt lat="48.73089" lon="14.81583"><ele>865</ele><time>2022-06-04T09:42:39Z</time></trkpt>
    <trkpt lat="48.73121" lon="14.81600"><ele>832</ele><time>2022-06-04T09:42:57Z</time></trkpt>
    <trkpt lat="48.73152" lon="14.81651"><ele>809</ele><time>2022-06-04T09:43:16Z</time></trkpt>
    <trkpt lat="48.73181" lon="14.81723"><ele>812</ele><time>2022-06-04T09:43:35Z</time></trkpt>
    <trkpt lat="48.73216" lon="14.81750"><ele>847</ele><time>2022-06-04T09:43:53Z</time></trkpt>
    <trkpt lat="48.73251" lon="14.81769"><ele>811</ele><time>2022-06-04T09:44:12Z</time></trkpt>
    <trkpt lat="48.73270" lon="14.81773"><ele>820</ele><time>2022-06-04T09:44:31Z</time></trkpt>
    <trkpt lat="48.73301" lon="14.81774"><ele>818</ele><time>2022-06-04T09:44:50Z</time></trkpt>
    <trkpt lat="48.73337" lon="14.81786"><ele>823</ele><time>2022-06-04T09:45:09Z</time></trkpt>
    <trkpt lat="48.73366" lon="14.81821"><ele>810</ele><time>2022-06-04T09:45:28Z</time></trkpt>
    <trkpt lat="48.73405" lon="14.81870"><ele>811</ele><time>2022-06-04T09:45:46Z</time></trkpt>
    <trkpt lat="48.73441" lon="14.81909"><ele>812</ele><time>2022-06-04T09:46:05Z</time></trkpt>
    <trkpt lat="48.73505" lon="14.81939"><ele>837</ele><time>2022-06-04T09:46:42Z</time></trkpt>
    <trkpt lat="48.73529" lon="14.81984"><ele>815</ele><time>2022-06-04T09:47:00Z</time></trkpt>
    <trkpt lat="48.73563" lon="14.82050"><ele>820</ele><time>2022-06-04T09:47:19Z</time></trkpt>
    <trkpt lat="48.73581" lon="14.82095"><ele>814</ele><time>2022-06-04T09:47:37Z</time></trkpt>
    <trkpt lat="48.73603" lon="14.82133"><ele>818</ele><time>2022-06-04T09:47:56Z</time></trkpt>
    <trkpt lat="48.73609" lon="14.82171"><ele>845</ele><time>2022-06-04T09:48:15Z</time></trkpt>
    <trkpt lat="48.73622" lon="14.82197"><ele>828</ele><time>2022-06-04T09:48:33Z</time></trkpt>
    <trkpt lat="48.73637" lon="14.82189"><ele>833</ele><time>2022-06-04T09:48:52Z</time></trkpt>
    <trkpt lat="48.73682" lon="14.82187"><ele>828</ele><time>2022-06-04T09:49:10Z</time></trkpt>
    <trkpt lat="48.73704" lon="14.82204"><ele>818</ele><time>2022-06-04T09:49:29Z</time></trkpt>
    <trkpt lat="48.73701" lon="14.82234"><ele>826</ele><time>2022-06-04T09:49:48Z</time></trkpt>
    <trkpt lat="48.73683" lon="14.82256"><ele>825</ele><time>2022-06-04T09:50:07Z</time></trkpt>
    <trkpt lat="48.73661" lon="14.82287"><ele>822</ele><time>2022-06-04T09:50:25Z</time></trkpt>
    <trkpt lat="48.73650" lon="14.82305"><ele>826</ele><time>2022-06-04T09:50:43Z</time></trkpt>
    <trkpt lat="48.73638" lon="14.82323"><ele>819</ele><time>2022-06-04T09:51:02Z</time></trkpt>
    <trkpt lat="48.73629" lon="14.82336"><ele>823</ele><time>2022-06-04T09:51:21Z</time></trkpt>
    <trkpt lat="48.73622" lon="14.82356"><ele>816</ele><time>2022-06-04T09:51:40Z</time></trkpt>
    <trkpt lat="48.73614" lon="14.82379"><ele>819</ele><time>2022-06-04T09:51:58Z</time></trkpt>
    <trkpt lat="48.73606" lon="14.82408"><ele>826</ele><time>2022-06-04T09:52:17Z</time></trkpt>
    <trkpt lat="48.73590" lon="14.82427"><ele>811</ele><time>2022-06-04T09:52:36Z</time></trkpt>
    <trkpt lat="48.73581" lon="14.82442"><ele>807</ele><time>2022-06-04T09:52:54Z</time></trkpt>
    <trkpt lat="48.73573" lon="14.82451"><ele>838</ele><time>2022-06-04T09:53:13Z</time></trkpt>
    <trkpt lat="48.73575" lon="14.82483"><ele>803</ele><time>2022-06-04T09:53:50Z</time></trkpt>
    <trkpt lat="48.73579" lon="14.82500"><ele>801</ele><time>2022-06-04T09:54:09Z</time></trkpt>
    <trkpt lat="48.73588" lon="14.82576"><ele>792</ele><time>2022-06-04T09:54:27Z</time></trkpt>
    <trkpt lat="48.73582" lon="14.82632"><ele>791</ele><time>2022-06-04T09:54:46Z</time></trkpt>
    <trkpt lat="48.73560" lon="14.82695"><ele>796</ele><time>2022-06-04T09:55:05Z</time></trkpt>
    <trkpt lat="48.73545" lon="14.82764"><ele>791</ele><time>2022-06-04T09:55:24Z</time></trkpt>
    <trkpt lat="48.73533" lon="14.82826"><ele>786</ele><time>2022-06-04T09:55:42Z</time></trkpt>
    <trkpt lat="48.73500" lon="14.82876"><ele>790</ele><time>2022-06-04T09:56:01Z</time></trkpt>
    <trkpt lat="48.73469" lon="14.82937"><ele>794</ele><time>2022-06-04T09:56:19Z</time></trkpt>
    <trkpt lat="48.73448" lon="14.83015"><ele>793</ele><time>2022-06-04T09:56:38Z</time></trkpt>
    <trkpt lat="48.73445" lon="14.83092"><ele>783</ele><time>2022-06-04T09:56:56Z</time></trkpt>
    <trkpt lat="48.73468" lon="14.83180"><ele>777</ele><time>2022-06-04T09:57:14Z</time></trkpt>
    <trkpt lat="48.73530" lon="14.83392"><ele>755</ele><time>2022-06-04T09:57:51Z</time></trkpt>
    <trkpt lat="48.73548" lon="14.83562"><ele>734</ele><time>2022-06-04T10:01:19Z</time></trkpt>
    <trkpt lat="48.73553" lon="14.83600"><ele>737</ele><time>2022-06-04T10:01:37Z</time></trkpt>
    <trkpt lat="48.73553" lon="14.83586"><ele>750</ele><time>2022-06-04T10:01:55Z</time></trkpt>
    <trkpt lat="48.73573" lon="14.83556"><ele>746</ele><time>2022-06-04T10:02:13Z</time></trkpt>
    <trkpt lat="48.73658" lon="14.83490"><ele>738</ele><time>2022-06-04T10:02:32Z</time></trkpt>
    <trkpt lat="48.73754" lon="14.83511"><ele>718</ele><time>2022-06-04T10:02:50Z</time></trkpt>
    <trkpt lat="48.73896" lon="14.83583"><ele>703</ele><time>2022-06-04T10:03:11Z</time></trkpt>
    <trkpt lat="48.73989" lon="14.83621"><ele>699</ele><time>2022-06-04T10:03:30Z</time></trkpt>
    <trkpt lat="48.74093" lon="14.83654"><ele>680</ele><time>2022-06-04T10:03:48Z</time></trkpt>
    <trkpt lat="48.74174" lon="14.83645"><ele>670</ele><time>2022-06-04T10:04:07Z</time></trkpt>
    <trkpt lat="48.74336" lon="14.83598"><ele>654</ele><time>2022-06-04T10:04:26Z</time></trkpt>
    <trkpt lat="48.74535" lon="14.83566"><ele>614</ele><time>2022-06-04T10:04:44Z</time></trkpt>
    <trkpt lat="48.74693" lon="14.83724"><ele>596</ele><time>2022-06-04T10:05:03Z</time></trkpt>
    <trkpt lat="48.74715" lon="14.83745"><ele>591</ele><time>2022-06-04T10:05:21Z</time></trkpt>
    <trkpt lat="48.74778" lon="14.83869"><ele>585</ele><time>2022-06-04T10:05:40Z</time></trkpt>
    <trkpt lat="48.74835" lon="14.84104"><ele>571</ele><time>2022-06-04T10:05:58Z</time></trkpt>
    <trkpt lat="48.74963" lon="14.84204"><ele>566</ele><time>2022-06-04T10:06:17Z</time></trkpt>
    <trkpt lat="48.75023" lon="14.84267"><ele>583</ele><time>2022-06-04T10:06:36Z</time></trkpt>
    <trkpt lat="48.75012" lon="14.84249"><ele>570</ele><time>2022-06-04T10:06:54Z</time></trkpt>
    <trkpt lat="48.75068" lon="14.84104"><ele>580</ele><time>2022-06-04T10:07:31Z</time></trkpt>
    <trkpt lat="48.75164" lon="14.84095"><ele>566</ele><time>2022-06-04T10:07:49Z</time></trkpt>
    <trkpt lat="48.75294" lon="14.84119"><ele>556</ele><time>2022-06-04T10:08:08Z</time></trkpt>
    <trkpt lat="48.75410" lon="14.84129"><ele>555</ele><time>2022-06-04T10:08:26Z</time></trkpt>
    <trkpt lat="48.75491" lon="14.84120"><ele>556</ele><time>2022-06-04T10:08:45Z</time></trkpt>
    <trkpt lat="48.75527" lon="14.84273"><ele>549</ele><time>2022-06-04T10:09:03Z</time></trkpt>
    <trkpt lat="48.75518" lon="14.84474"><ele>542</ele><time>2022-06-04T10:09:22Z</time></trkpt>
    <trkpt lat="48.75509" lon="14.84525"><ele>541</ele><time>2022-06-04T10:09:41Z</time></trkpt>
    <trkpt lat="48.75504" lon="14.84559"><ele>540</ele><time>2022-06-04T10:09:59Z</time></trkpt>
    <trkpt lat="48.75550" lon="14.84578"><ele>535</ele><time>2022-06-04T10:10:17Z</time></trkpt>
    <trkpt lat="48.75631" lon="14.84634"><ele>536</ele><time>2022-06-04T10:10:36Z</time></trkpt>
    <trkpt lat="48.75721" lon="14.84624"><ele>536</ele><time>2022-06-04T10:10:55Z</time></trkpt>
    <trkpt lat="48.75821" lon="14.84589"><ele>538</ele><time>2022-06-04T10:11:14Z</time></trkpt>
    <trkpt lat="48.75867" lon="14.84491"><ele>534</ele><time>2022-06-04T10:11:32Z</time></trkpt>
    <trkpt lat="48.75863" lon="14.84406"><ele>539</ele><time>2022-06-04T10:11:51Z</time></trkpt>
    <trkpt lat="48.75868" lon="14.84364"><ele>539</ele><time>2022-06-04T10:12:10Z</time></trkpt>
    <trkpt lat="48.75884" lon="14.84328"><ele>538</ele><time>2022-06-04T10:12:29Z</time></trkpt>
    <trkpt lat="48.75925" lon="14.84299"><ele>539</ele><time>2022-06-04T10:12:47Z</time></trkpt>
    <trkpt lat="48.75967" lon="14.84303"><ele>541</ele><time>2022-06-04T10:13:06Z</time></trkpt>
    <trkpt lat="48.76013" lon="14.84306"><ele>538</ele><time>2022-06-04T10:13:25Z</time></trkpt>
    <trkpt lat="48.76058" lon="14.84308"><ele>537</ele><time>2022-06-04T10:13:43Z</time></trkpt>
    <trkpt lat="48.76114" lon="14.84312"><ele>535</ele><time>2022-06-04T10:14:02Z</time></trkpt>
    <trkpt lat="48.76165" lon="14.84316"><ele>536</ele><time>2022-06-04T10:14:21Z</time></trkpt>
    <trkpt lat="48.76217" lon="14.84323"><ele>535</ele><time>2022-06-04T10:14:40Z</time></trkpt>
    <trkpt lat="48.76265" lon="14.84334"><ele>535</ele><time>2022-06-04T10:14:58Z</time></trkpt>
    <trkpt lat="48.76320" lon="14.84351"><ele>535</ele><time>2022-06-04T10:15:17Z</time></trkpt>
    <trkpt lat="48.76363" lon="14.84365"><ele>532</ele><time>2022-06-04T10:15:35Z</time></trkpt>
    <trkpt lat="48.76380" lon="14.84345"><ele>534</ele><time>2022-06-04T10:15:53Z</time></trkpt>
    <trkpt lat="48.76414" lon="14.84301"><ele>537</ele><time>2022-06-04T10:16:11Z</time></trkpt>
    <trkpt lat="48.76451" lon="14.84276"><ele>541</ele><time>2022-06-04T10:16:30Z</time></trkpt>
    <trkpt lat="48.76478" lon="14.84239"><ele>544</ele><time>2022-06-04T10:16:48Z</time></trkpt>
    <trkpt lat="48.76520" lon="14.84269"><ele>542</ele><time>2022-06-04T10:17:07Z</time></trkpt>
    <trkpt lat="48.76560" lon="14.84307"><ele>548</ele><time>2022-06-04T10:17:25Z</time></trkpt>
    <trkpt lat="48.76583" lon="14.84366"><ele>552</ele><time>2022-06-04T10:17:44Z</time></trkpt>
    <trkpt lat="48.76605" lon="14.84422"><ele>558</ele><time>2022-06-04T10:18:03Z</time></trkpt>
    <trkpt lat="48.76623" lon="14.84472"><ele>567</ele><time>2022-06-04T10:18:22Z</time></trkpt>
    <trkpt lat="48.76639" lon="14.84513"><ele>571</ele><time>2022-06-04T10:18:41Z</time></trkpt>
    <trkpt lat="48.76660" lon="14.84547"><ele>574</ele><time>2022-06-04T10:18:59Z</time></trkpt>
    <trkpt lat="48.76687" lon="14.84579"><ele>575</ele><time>2022-06-04T10:19:17Z</time></trkpt>
    <trkpt lat="48.76714" lon="14.84616"><ele>576</ele><time>2022-06-04T10:19:36Z</time></trkpt>
    <trkpt lat="48.76733" lon="14.84662"><ele>581</ele><time>2022-06-04T10:19:55Z</time></trkpt>
    <trkpt lat="48.76743" lon="14.84735"><ele>582</ele><time>2022-06-04T10:20:14Z</time></trkpt>
    <trkpt lat="48.76785" lon="14.84806"><ele>583</ele><time>2022-06-04T10:20:32Z</time></trkpt>
    <trkpt lat="48.76841" lon="14.84845"><ele>586</ele><time>2022-06-04T10:20:51Z</time></trkpt>
    <trkpt lat="48.76888" lon="14.84903"><ele>584</ele><time>2022-06-04T10:21:10Z</time></trkpt>
    <trkpt lat="48.76930" lon="14.84962"><ele>585</ele><time>2022-06-04T10:21:28Z</time></trkpt>
    <trkpt lat="48.76906" lon="14.85054"><ele>591</ele><time>2022-06-04T10:21:46Z</time></trkpt>
    <trkpt lat="48.76901" lon="14.85155"><ele>595</ele><time>2022-06-04T10:22:05Z</time></trkpt>
    <trkpt lat="48.76905" lon="14.85250"><ele>604</ele><time>2022-06-04T10:22:23Z</time></trkpt>
    <trkpt lat="48.76906" lon="14.85348"><ele>608</ele><time>2022-06-04T10:22:41Z</time></trkpt>
    <trkpt lat="48.76887" lon="14.85487"><ele>607</ele><time>2022-06-04T10:22:59Z</time></trkpt>
    <trkpt lat="48.76862" lon="14.85618"><ele>605</ele><time>2022-06-04T10:23:18Z</time></trkpt>
    <trkpt lat="48.76849" lon="14.85712"><ele>604</ele><time>2022-06-04T10:23:36Z</time></trkpt>
    <trkpt lat="48.76806" lon="14.85806"><ele>611</ele><time>2022-06-04T10:23:55Z</time></trkpt>
    <trkpt lat="48.76768" lon="14.85895"><ele>618</ele><time>2022-06-04T10:24:14Z</time></trkpt>
    <trkpt lat="48.76754" lon="14.85986"><ele>619</ele><time>2022-06-04T10:24:33Z</time></trkpt>
    <trkpt lat="48.76766" lon="14.86080"><ele>624</ele><time>2022-06-04T10:24:52Z</time></trkpt>
    <trkpt lat="48.76782" lon="14.86164"><ele>626</ele><time>2022-06-04T10:25:11Z</time></trkpt>
    <trkpt lat="48.76794" lon="14.86249"><ele>629</ele><time>2022-06-04T10:25:29Z</time></trkpt>
    <trkpt lat="48.76813" lon="14.86341"><ele>630</ele><time>2022-06-04T10:25:48Z</time></trkpt>
    <trkpt lat="48.76824" lon="14.86422"><ele>628</ele><time>2022-06-04T10:26:06Z</time></trkpt>
    <trkpt lat="48.76826" lon="14.86493"><ele>632</ele><time>2022-06-04T10:26:24Z</time></trkpt>
    <trkpt lat="48.76831" lon="14.86560"><ele>631</ele><time>2022-06-04T10:26:43Z</time></trkpt>
    <trkpt lat="48.76836" lon="14.86622"><ele>645</ele><time>2022-06-04T10:27:02Z</time></trkpt>
    <trkpt lat="48.76843" lon="14.86686"><ele>646</ele><time>2022-06-04T10:27:20Z</time></trkpt>
    <trkpt lat="48.76852" lon="14.86758"><ele>648</ele><time>2022-06-04T10:27:38Z</time></trkpt>
    <trkpt lat="48.76862" lon="14.86837"><ele>646</ele><time>2022-06-04T10:27:57Z</time></trkpt>
    <trkpt lat="48.76866" lon="14.86966"><ele>635</ele><time>2022-06-04T10:28:16Z</time></trkpt>
    <trkpt lat="48.76890" lon="14.87220"><ele>633</ele><time>2022-06-04T10:28:34Z</time></trkpt>
    <trkpt lat="48.76930" lon="14.87438"><ele>692</ele><time>2022-06-04T10:28:52Z</time></trkpt>
    <trkpt lat="48.76934" lon="14.87795"><ele>693</ele><time>2022-06-04T10:29:11Z</time></trkpt>
    <trkpt lat="48.76927" lon="14.87871"><ele>604</ele><time>2022-06-04T10:29:29Z</time></trkpt>
    <trkpt lat="48.76957" lon="14.87989"><ele>586</ele><time>2022-06-04T10:29:48Z</time></trkpt>
    <trkpt lat="48.76980" lon="14.88100"><ele>651</ele><time>2022-06-04T10:30:06Z</time></trkpt>
    <trkpt lat="48.76940" lon="14.88373"><ele>563</ele><time>2022-06-04T10:30:24Z</time></trkpt>
    <trkpt lat="48.76925" lon="14.88634"><ele>549</ele><time>2022-06-04T10:30:42Z</time></trkpt>
    <trkpt lat="48.76992" lon="14.88838"><ele>541</ele><time>2022-06-04T10:31:01Z</time></trkpt>
    <trkpt lat="48.77071" lon="14.89022"><ele>544</ele><time>2022-06-04T10:31:19Z</time></trkpt>
    <trkpt lat="48.77080" lon="14.89244"><ele>560</ele><time>2022-06-04T10:31:38Z</time></trkpt>
    <trkpt lat="48.76973" lon="14.89618"><ele>538</ele><time>2022-06-04T10:32:15Z</time></trkpt>
    <trkpt lat="48.76837" lon="14.89699"><ele>532</ele><time>2022-06-04T10:32:34Z</time></trkpt>
    <trkpt lat="48.76726" lon="14.89774"><ele>531</ele><time>2022-06-04T10:32:52Z</time></trkpt>
    <trkpt lat="48.76577" lon="14.90055"><ele>529</ele><time>2022-06-04T10:33:29Z</time></trkpt>
    <trkpt lat="48.76492" lon="14.90163"><ele>521</ele><time>2022-06-04T10:33:48Z</time></trkpt>
    <trkpt lat="48.76438" lon="14.90288"><ele>512</ele><time>2022-06-04T10:34:07Z</time></trkpt>
    <trkpt lat="48.76338" lon="14.90401"><ele>525</ele><time>2022-06-04T10:34:26Z</time></trkpt>
    <trkpt lat="48.76233" lon="14.90550"><ele>509</ele><time>2022-06-04T10:34:44Z</time></trkpt>
    <trkpt lat="48.76145" lon="14.90683"><ele>509</ele><time>2022-06-04T10:35:02Z</time></trkpt>
    <trkpt lat="48.76037" lon="14.90743"><ele>509</ele><time>2022-06-04T10:35:21Z</time></trkpt>
    <trkpt lat="48.75927" lon="14.90742"><ele>509</ele><time>2022-06-04T10:35:39Z</time></trkpt>
    <trkpt lat="48.75805" lon="14.90757"><ele>511</ele><time>2022-06-04T10:35:58Z</time></trkpt>
    <trkpt lat="48.75681" lon="14.90857"><ele>514</ele><time>2022-06-04T10:36:17Z</time></trkpt>
    <trkpt lat="48.75577" lon="14.90966"><ele>513</ele><time>2022-06-04T10:36:35Z</time></trkpt>
    <trkpt lat="48.75458" lon="14.91064"><ele>511</ele><time>2022-06-04T10:36:54Z</time></trkpt>
    <trkpt lat="48.75325" lon="14.91165"><ele>506</ele><time>2022-06-04T10:37:12Z</time></trkpt>
    <trkpt lat="48.75199" lon="14.91326"><ele>505</ele><time>2022-06-04T10:37:31Z</time></trkpt>
    <trkpt lat="48.75071" lon="14.91429"><ele>504</ele><time>2022-06-04T10:37:49Z</time></trkpt>
    <trkpt lat="48.74978" lon="14.91539"><ele>505</ele><time>2022-06-04T10:38:07Z</time></trkpt>
    <trkpt lat="48.74961" lon="14.91720"><ele>503</ele><time>2022-06-04T10:38:26Z</time></trkpt>
    <trkpt lat="48.74979" lon="14.91911"><ele>499</ele><time>2022-06-04T10:38:44Z</time></trkpt>
    <trkpt lat="48.74999" lon="14.92095"><ele>500</ele><time>2022-06-04T10:39:02Z</time></trkpt>
    <trkpt lat="48.75019" lon="14.92265"><ele>502</ele><time>2022-06-04T10:39:20Z</time></trkpt>
    <trkpt lat="48.75040" lon="14.92443"><ele>500</ele><time>2022-06-04T10:39:39Z</time></trkpt>
    <trkpt lat="48.75067" lon="14.92622"><ele>501</ele><time>2022-06-04T10:39:58Z</time></trkpt>
    <trkpt lat="48.75110" lon="14.92789"><ele>500</ele><time>2022-06-04T10:40:16Z</time></trkpt>
    <trkpt lat="48.75147" lon="14.92975"><ele>500</ele><time>2022-06-04T10:40:35Z</time></trkpt>
    <trkpt lat="48.75192" lon="14.93153"><ele>500</ele><time>2022-06-04T10:40:54Z</time></trkpt>
    <trkpt lat="48.75200" lon="14.93348"><ele>499</ele><time>2022-06-04T10:41:13Z</time></trkpt>
    <trkpt lat="48.75238" lon="14.93512"><ele>494</ele><time>2022-06-04T10:41:32Z</time></trkpt>
    <trkpt lat="48.75306" lon="14.93642"><ele>496</ele><time>2022-06-04T10:41:51Z</time></trkpt>
    <trkpt lat="48.75350" lon="14.93784"><ele>499</ele><time>2022-06-04T10:42:09Z</time></trkpt>
    <trkpt lat="48.75416" lon="14.93906"><ele>500</ele><time>2022-06-04T10:42:27Z</time></trkpt>
    <trkpt lat="48.75496" lon="14.94034"><ele>497</ele><time>2022-06-04T10:42:46Z</time></trkpt>
    <trkpt lat="48.75544" lon="14.94173"><ele>501</ele><time>2022-06-04T10:43:04Z</time></trkpt>
    <trkpt lat="48.75584" lon="14.94288"><ele>502</ele><time>2022-06-04T10:43:22Z</time></trkpt>
    <trkpt lat="48.75610" lon="14.94449"><ele>502</ele><time>2022-06-04T10:43:41Z</time></trkpt>
    <trkpt lat="48.75668" lon="14.94616"><ele>505</ele><time>2022-06-04T10:44:00Z</time></trkpt>
    <trkpt lat="48.75732" lon="14.94796"><ele>500</ele><time>2022-06-04T10:44:18Z</time></trkpt>
    <trkpt lat="48.75786" lon="14.94965"><ele>504</ele><time>2022-06-04T10:44:37Z</time></trkpt>
    <trkpt lat="48.75851" lon="14.95099"><ele>508</ele><time>2022-06-04T10:44:55Z</time></trkpt>
    <trkpt lat="48.75936" lon="14.95209"><ele>507</ele><time>2022-06-04T10:45:14Z</time></trkpt>
    <trkpt lat="48.75857" lon="14.95299"><ele>499</ele><time>2022-06-04T10:45:32Z</time></trkpt>
    <trkpt lat="48.75736" lon="14.95413"><ele>493</ele><time>2022-06-04T10:45:51Z</time></trkpt>
    <trkpt lat="48.75672" lon="14.95595"><ele>493</ele><time>2022-06-04T10:46:09Z</time></trkpt>
    <trkpt lat="48.75632" lon="14.95766"><ele>499</ele><time>2022-06-04T10:46:28Z</time></trkpt>
    <trkpt lat="48.75771" lon="14.95962"><ele>504</ele><time>2022-06-04T10:47:05Z</time></trkpt>
    <trkpt lat="48.75795" lon="14.96114"><ele>495</ele><time>2022-06-04T10:47:24Z</time></trkpt>
    <trkpt lat="48.75822" lon="14.96238"><ele>500</ele><time>2022-06-04T10:47:42Z</time></trkpt>
    <trkpt lat="48.75880" lon="14.96326"><ele>501</ele><time>2022-06-04T10:48:01Z</time></trkpt>
    <trkpt lat="48.75936" lon="14.96426"><ele>494</ele><time>2022-06-04T10:48:20Z</time></trkpt>
    <trkpt lat="48.76001" lon="14.96540"><ele>494</ele><time>2022-06-04T10:48:38Z</time></trkpt>
    <trkpt lat="48.76072" lon="14.96705"><ele>490</ele><time>2022-06-04T10:48:57Z</time></trkpt>
    <trkpt lat="48.76147" lon="14.96828"><ele>494</ele><time>2022-06-04T10:49:15Z</time></trkpt>
    <trkpt lat="48.76216" lon="14.96948"><ele>520</ele><time>2022-06-04T10:49:33Z</time></trkpt>
    <trkpt lat="48.76273" lon="14.97076"><ele>498</ele><time>2022-06-04T10:49:52Z</time></trkpt>
    <trkpt lat="48.76273" lon="14.97090"><ele>500</ele><time>2022-06-04T10:50:11Z</time></trkpt>
    <trkpt lat="48.76349" lon="14.97209"><ele>493</ele><time>2022-06-04T10:51:33Z</time></trkpt>
    <trkpt lat="48.76435" lon="14.97335"><ele>490</ele><time>2022-06-04T10:51:51Z</time></trkpt>
    <trkpt lat="48.76501" lon="14.97451"><ele>490</ele><time>2022-06-04T10:52:09Z</time></trkpt>
    <trkpt lat="48.76567" lon="14.97574"><ele>491</ele><time>2022-06-04T10:52:28Z</time></trkpt>
    <trkpt lat="48.76637" lon="14.97704"><ele>490</ele><time>2022-06-04T10:52:46Z</time></trkpt>
    <trkpt lat="48.76717" lon="14.97841"><ele>489</ele><time>2022-06-04T10:53:05Z</time></trkpt>
    <trkpt lat="48.76785" lon="14.97961"><ele>488</ele><time>2022-06-04T10:53:23Z</time></trkpt>
    <trkpt lat="48.76860" lon="14.98060"><ele>492</ele><time>2022-06-04T10:53:41Z</time></trkpt>
    <trkpt lat="48.76930" lon="14.98148"><ele>496</ele><time>2022-06-04T10:54:00Z</time></trkpt>
    <trkpt lat="48.76978" lon="14.98247"><ele>502</ele><time>2022-06-04T10:54:19Z</time></trkpt>
    <trkpt lat="48.76997" lon="14.98364"><ele>499</ele><time>2022-06-04T10:54:37Z</time></trkpt>
    <trkpt lat="48.77034" lon="14.98494"><ele>491</ele><time>2022-06-04T10:54:56Z</time></trkpt>
    <trkpt lat="48.77072" lon="14.98512"><ele>491</ele><time>2022-06-04T10:55:14Z</time></trkpt>
    <trkpt lat="48.77169" lon="14.98549"><ele>499</ele><time>2022-06-04T10:55:33Z</time></trkpt>
    <trkpt lat="48.77178" lon="14.98714"><ele>492</ele><time>2022-06-04T10:55:51Z</time></trkpt>
    <trkpt lat="48.77204" lon="14.98953"><ele>483</ele><time>2022-06-04T10:56:10Z</time></trkpt>
    <trkpt lat="48.77270" lon="14.99017"><ele>477</ele><time>2022-06-04T10:56:28Z</time></trkpt>
    <trkpt lat="48.77317" lon="14.99146"><ele>478</ele><time>2022-06-04T10:56:47Z</time></trkpt>
    <trkpt lat="48.77318" lon="14.99228"><ele>482</ele><time>2022-06-04T10:57:05Z</time></trkpt>
    <trkpt lat="48.77351" lon="14.99229"><ele>480</ele><time>2022-06-04T10:57:23Z</time></trkpt>
    <trkpt lat="48.77339" lon="14.99234"><ele>475</ele><time>2022-06-04T10:57:41Z</time></trkpt>
    <trkpt lat="48.77396" lon="14.99220"><ele>470</ele><time>2022-06-04T10:58:35Z</time></trkpt>
    <trkpt lat="48.77411" lon="14.99205"><ele>468</ele><time>2022-06-04T10:58:54Z</time></trkpt>
    <trkpt lat="48.77400" lon="14.99189"><ele>481</ele><time>2022-06-04T11:03:06Z</time></trkpt>
    <trkpt lat="48.77374" lon="14.99194"><ele>482</ele><time>2022-06-04T11:03:25Z</time></trkpt>
    <trkpt lat="48.77355" lon="14.99192"><ele>488</ele><time>2022-06-04T11:03:44Z</time></trkpt>
    <trkpt lat="48.77346" lon="14.99186"><ele>486</ele><time>2022-06-04T11:04:03Z</time></trkpt>
  </trkseg>
</trk>
</gpx>