<?xml version="1.0" encoding="UTF-8"?>
<gpx version="1.1" creator="GPX-Pro" xmlns="http://www.topografix.com/GPX/1/1">
<trk>
  <name>Hike_Rehkogel</name>
  <trkseg>
    <trkpt lat="47.87303" lon="14.33092"><ele>462</ele><time>2022-06-11T12:47:15Z</time></trkpt>
    <trkpt lat="47.87299" lon="14.33104"><ele>457</ele><time>2022-06-11T12:47:34Z</time></trkpt>
    <trkpt lat="47.87290" lon="14.33109"><ele>459</ele><time>2022-06-11T12:47:56Z</time></trkpt>
    <trkpt lat="47.87271" lon="14.33122"><ele>467</ele><time>2022-06-11T12:48:15Z</time></trkpt>
    <trkpt lat="47.87252" lon="14.33131"><ele>469</ele><time>2022-06-11T12:48:33Z</time></trkpt>
    <trkpt lat="47.87235" lon="14.33130"><ele>468</ele><time>2022-06-11T12:48:51Z</time></trkpt>
    <trkpt lat="47.87223" lon="14.33133"><ele>469</ele><time>2022-06-11T12:49:09Z</time></trkpt>
    <trkpt lat="47.87204" lon="14.33139"><ele>472</ele><time>2022-06-11T12:49:28Z</time></trkpt>
    <trkpt lat="47.87189" lon="14.33148"><ele>472</ele><time>2022-06-11T12:49:47Z</time></trkpt>
    <trkpt lat="47.87174" lon="14.33164"><ele>478</ele><time>2022-06-11T12:50:05Z</time></trkpt>
    <trkpt lat="47.87166" lon="14.33190"><ele>478</ele><time>2022-06-11T12:50:24Z</time></trkpt>
    <trkpt lat="47.87160" lon="14.33219"><ele>483</ele><time>2022-06-11T12:50:42Z</time></trkpt>
    <trkpt lat="47.87155" lon="14.33248"><ele>485</ele><time>2022-06-11T12:51:00Z</time></trkpt>
    <trkpt lat="47.87149" lon="14.33282"><ele>487</ele><time>2022-06-11T12:51:19Z</time></trkpt>
    <trkpt lat="47.87135" lon="14.33307"><ele>482</ele><time>2022-06-11T12:51:37Z</time></trkpt>
    <trkpt lat="47.87121" lon="14.33338"><ele>481</ele><time>2022-06-11T12:51:56Z</time></trkpt>
    <trkpt lat="47.87112" lon="14.33370"><ele>484</ele><time>2022-06-11T12:52:15Z</time></trkpt>
    <trkpt lat="47.87107" lon="14.33402"><ele>490</ele><time>2022-06-11T12:52:33Z</time></trkpt>
    <trkpt lat="47.87102" lon="14.33439"><ele>482</ele><time>2022-06-11T12:52:52Z</time></trkpt>
    <trkpt lat="47.87092" lon="14.33465"><ele>480</ele><time>2022-06-11T12:53:11Z</time></trkpt>
    <trkpt lat="47.87084" lon="14.33493"><ele>483</ele><time>2022-06-11T12:53:29Z</time></trkpt>
    <trkpt lat="47.87080" lon="14.33522"><ele>490</ele><time>2022-06-11T12:53:47Z</time></trkpt>
    <trkpt lat="47.87074" lon="14.33551"><ele>488</ele><time>2022-06-11T12:54:06Z</time></trkpt>
    <trkpt lat="47.87079" lon="14.33578"><ele>496</ele><time>2022-06-11T12:54:24Z</time></trkpt>
    <trkpt lat="47.87082" lon="14.33608"><ele>497</ele><time>2022-06-11T12:54:43Z</time></trkpt>
    <trkpt lat="47.87081" lon="14.33639"><ele>497</ele><time>2022-06-11T12:55:01Z</time></trkpt>
    <trkpt lat="47.87085" lon="14.33673"><ele>499</ele><time>2022-06-11T12:55:20Z</time></trkpt>
    <trkpt lat="47.87101" lon="14.33693"><ele>498</ele><time>2022-06-11T12:55:38Z</time></trkpt>
    <trkpt lat="47.87116" lon="14.33712"><ele>500</ele><time>2022-06-11T12:55:57Z</time></trkpt>
    <trkpt lat="47.87124" lon="14.33738"><ele>502</ele><time>2022-06-11T12:56:15Z</time></trkpt>
    <trkpt lat="47.87136" lon="14.33760"><ele>503</ele><time>2022-06-11T12:56:34Z</time></trkpt>
    <trkpt lat="47.87151" lon="14.33780"><ele>503</ele><time>2022-06-11T12:56:53Z</time></trkpt>
    <trkpt lat="47.87150" lon="14.33802"><ele>506</ele><time>2022-06-11T12:58:15Z</time></trkpt>
    <trkpt lat="47.87159" lon="14.33824"><ele>503</ele><time>2022-06-11T12:58:33Z</time></trkpt>
    <trkpt lat="47.87168" lon="14.33843"><ele>509</ele><time>2022-06-11T12:58:51Z</time></trkpt>
    <trkpt lat="47.87172" lon="14.33864"><ele>517</ele><time>2022-06-11T12:59:10Z</time></trkpt>
    <trkpt lat="47.87175" lon="14.33888"><ele>516</ele><time>2022-06-11T12:59:28Z</time></trkpt>
    <trkpt lat="47.87175" lon="14.33910"><ele>513</ele><time>2022-06-11T12:59:47Z</time></trkpt>
    <trkpt lat="47.87178" lon="14.33932"><ele>518</ele><time>2022-06-11T13:00:05Z</time></trkpt>
    <trkpt lat="47.87173" lon="14.33955"><ele>521</ele><time>2022-06-11T13:00:24Z</time></trkpt>
    <trkpt lat="47.87178" lon="14.33976"><ele>522</ele><time>2022-06-11T13:00:42Z</time></trkpt>
    <trkpt lat="47.87181" lon="14.33989"><ele>520</ele><time>2022-06-11T13:01:01Z</time></trkpt>
    <trkpt lat="47.87190" lon="14.34021"><ele>529</ele><time>2022-06-11T13:01:41Z</time></trkpt>
    <trkpt lat="47.87192" lon="14.34042"><ele>528</ele><time>2022-06-11T13:01:59Z</time></trkpt>
    <trkpt lat="47.87193" lon="14.34066"><ele>534</ele><time>2022-06-11T13:02:17Z</time></trkpt>
    <trkpt lat="47.87204" lon="14.34091"><ele>535</ele><time>2022-06-11T13:02:36Z</time></trkpt>
    <trkpt lat="47.87212" lon="14.34122"><ele>501</ele><time>2022-06-11T13:02:55Z</time></trkpt>
    <trkpt lat="47.87212" lon="14.34145"><ele>533</ele><time>2022-06-11T13:03:14Z</time></trkpt>
    <trkpt lat="47.87209" lon="14.34171"><ele>537</ele><time>2022-06-11T13:03:32Z</time></trkpt>
    <trkpt lat="47.87200" lon="14.34200"><ele>537</ele><time>2022-06-11T13:03:50Z</time></trkpt>
    <trkpt lat="47.87214" lon="14.34227"><ele>550</ele><time>2022-06-11T13:04:09Z</time></trkpt>
    <trkpt lat="47.87216" lon="14.34252"><ele>546</ele><time>2022-06-11T13:04:28Z</time></trkpt>
    <trkpt lat="47.87213" lon="14.34277"><ele>545</ele><time>2022-06-11T13:04:47Z</time></trkpt>
    <trkpt lat="47.87224" lon="14.34299"><ele>553</ele><time>2022-06-11T13:05:05Z</time></trkpt>
    <trkpt lat="47.87238" lon="14.34321"><ele>558</ele><time>2022-06-11T13:05:24Z</time></trkpt>
    <trkpt lat="47.87238" lon="14.34343"><ele>557</ele><time>2022-06-11T13:05:42Z</time></trkpt>
    <trkpt lat="47.87246" lon="14.34370"><ele>559</ele><time>2022-06-11T13:06:01Z</time></trkpt>
    <trkpt lat="47.87250" lon="14.34395"><ele>556</ele><time>2022-06-11T13:06:20Z</time></trkpt>
    <trkpt lat="47.87255" lon="14.34422"><ele>563</ele><time>2022-06-11T13:06:38Z</time></trkpt>
    <trkpt lat="47.87251" lon="14.34446"><ele>561</ele><time>2022-06-11T13:06:57Z</time></trkpt>
    <trkpt lat="47.87260" lon="14.34468"><ele>566</ele><time>2022-06-11T13:07:15Z</time></trkpt>
    <trkpt lat="47.87264" lon="14.34490"><ele>573</ele><time>2022-06-11T13:07:33Z</time></trkpt>
    <trkpt lat="47.87277" lon="14.34516"><ele>575</ele><time>2022-06-11T13:07:52Z</time></trkpt>
    <trkpt lat="47.87284" lon="14.34538"><ele>577</ele><time>2022-06-11T13:08:10Z</time></trkpt>
    <trkpt lat="47.87296" lon="14.34561"><ele>573</ele><time>2022-06-11T13:08:29Z</time></trkpt>
    <trkpt lat="47.87312" lon="14.34581"><ele>580</ele><time>2022-06-11T13:08:48Z</time></trkpt>
    <trkpt lat="47.87321" lon="14.34602"><ele>581</ele><time>2022-06-11T13:09:06Z</time></trkpt>
    <trkpt lat="47.87325" lon="14.34625"><ele>583</ele><time>2022-06-11T13:09:25Z</time></trkpt>
    <trkpt lat="47.87324" lon="14.34645"><ele>583</ele><time>2022-06-11T13:09:43Z</time></trkpt>
    <trkpt lat="47.87332" lon="14.34668"><ele>583</ele><time>2022-06-11T13:10:01Z</time></trkpt>
    <trkpt lat="47.87343" lon="14.34685"><ele>588</ele><time>2022-06-11T13:10:19Z</time></trkpt>
    <trkpt lat="47.87355" lon="14.34702"><ele>587</ele><time>2022-06-11T13:10:38Z</time></trkpt>
    <trkpt lat="47.87372" lon="14.34715"><ele>585</ele><time>2022-06-11T13:10:56Z</time></trkpt>
    <trkpt lat="47.87383" lon="14.34733"><ele>585</ele><time>2022-06-11T13:11:15Z</time></trkpt>
    <trkpt lat="47.87397" lon="14.34756"><ele>585</ele><time>2022-06-11T13:11:34Z</time></trkpt>
    <trkpt lat="47.87401" lon="14.34787"><ele>592</ele><time>2022-06-11T13:11:53Z</time></trkpt>
    <trkpt lat="47.87412" lon="14.34806"><ele>594</ele><time>2022-06-11T13:12:12Z</time></trkpt>
    <trkpt lat="47.87424" lon="14.34823"><ele>596</ele><time>2022-06-11T13:12:30Z</time></trkpt>
    <trkpt lat="47.87411" lon="14.34842"><ele>588</ele><time>2022-06-11T13:13:39Z</time></trkpt>
    <trkpt lat="47.87399" lon="14.34828"><ele>592</ele><time>2022-06-11T13:13:57Z</time></trkpt>
    <trkpt lat="47.87382" lon="14.34804"><ele>599</ele><time>2022-06-11T13:14:36Z</time></trkpt>
    <trkpt lat="47.87373" lon="14.34790"><ele>599</ele><time>2022-06-11T13:14:54Z</time></trkpt>
    <trkpt lat="47.87358" lon="14.34780"><ele>602</ele><time>2022-06-11T13:15:12Z</time></trkpt>
    <trkpt lat="47.87340" lon="14.34773"><ele>599</ele><time>2022-06-11T13:15:31Z</time></trkpt>
    <trkpt lat="47.87324" lon="14.34766"><ele>601</ele><time>2022-06-11T13:15:49Z</time></trkpt>
    <trkpt lat="47.87310" lon="14.34761"><ele>599</ele><time>2022-06-11T13:16:07Z</time></trkpt>
    <trkpt lat="47.87293" lon="14.34746"><ele>600</ele><time>2022-06-11T13:16:26Z</time></trkpt>
    <trkpt lat="47.87282" lon="14.34722"><ele>600</ele><time>2022-06-11T13:16:44Z</time></trkpt>
    <trkpt lat="47.87269" lon="14.34709"><ele>599</ele><time>2022-06-11T13:17:02Z</time></trkpt>
    <trkpt lat="47.87255" lon="14.34698"><ele>582</ele><time>2022-06-11T13:17:21Z</time></trkpt>
    <trkpt lat="47.87243" lon="14.34678"><ele>594</ele><time>2022-06-11T13:17:39Z</time></trkpt>
    <trkpt lat="47.87230" lon="14.34658"><ele>602</ele><time>2022-06-11T13:17:58Z</time></trkpt>
    <trkpt lat="47.87221" lon="14.34638"><ele>599</ele><time>2022-06-11T13:18:16Z</time></trkpt>
    <trkpt lat="47.87211" lon="14.34625"><ele>604</ele><time>2022-06-11T13:18:34Z</time></trkpt>
    <trkpt lat="47.87200" lon="14.34606"><ele>606</ele><time>2022-06-11T13:18:52Z</time></trkpt>
    <trkpt lat="47.87191" lon="14.34583"><ele>616</ele><time>2022-06-11T13:19:11Z</time></trkpt>
    <trkpt lat="47.87181" lon="14.34559"><ele>617</ele><time>2022-06-11T13:19:30Z</time></trkpt>
    <trkpt lat="47.87171" lon="14.34538"><ele>616</ele><time>2022-06-11T13:19:48Z</time></trkpt>
    <trkpt lat="47.87159" lon="14.34517"><ele>622</ele><time>2022-06-11T13:20:07Z</time></trkpt>
    <trkpt lat="47.87139" lon="14.34504"><ele>621</ele><time>2022-06-11T13:20:25Z</time></trkpt>
    <trkpt lat="47.87123" lon="14.34492"><ele>610</ele><time>2022-06-11T13:20:44Z</time></trkpt>
    <trkpt lat="47.87119" lon="14.34465"><ele>618</ele><time>2022-06-11T13:21:03Z</time></trkpt>
    <trkpt lat="47.87118" lon="14.34442"><ele>623</ele><time>2022-06-11T13:21:22Z</time></trkpt>
    <trkpt lat="47.87109" lon="14.34413"><ele>628</ele><time>2022-06-11T13:21:40Z</time></trkpt>
    <trkpt lat="47.87095" lon="14.34394"><ele>634</ele><time>2022-06-11T13:21:59Z</time></trkpt>
    <trkpt lat="47.87077" lon="14.34383"><ele>638</ele><time>2022-06-11T13:22:18Z</time></trkpt>
    <trkpt lat="47.87063" lon="14.34363"><ele>645</ele><time>2022-06-11T13:22:36Z</time></trkpt>
    <trkpt lat="47.87050" lon="14.34356"><ele>642</ele><time>2022-06-11T13:22:55Z</time></trkpt>
    <trkpt lat="47.87067" lon="14.34371"><ele>647</ele><time>2022-06-11T13:23:13Z</time></trkpt>
    <trkpt lat="47.87084" lon="14.34392"><ele>642</ele><time>2022-06-11T13:23:31Z</time></trkpt>
    <trkpt lat="47.87100" lon="14.34414"><ele>654</ele><time>2022-06-11T13:23:49Z</time></trkpt>
    <trkpt lat="47.87097" lon="14.34435"><ele>647</ele><time>2022-06-11T13:24:08Z</time></trkpt>
    <trkpt lat="47.87096" lon="14.34457"><ele>648</ele><time>2022-06-11T13:24:27Z</time></trkpt>
    <trkpt lat="47.87095" lon="14.34490"><ele>657</ele><time>2022-06-11T13:24:46Z</time></trkpt>
    <trkpt lat="47.87099" lon="14.34515"><ele>657</ele><time>2022-06-11T13:25:05Z</time></trkpt>
    <trkpt lat="47.87108" lon="14.34534"><ele>648</ele><time>2022-06-11T13:25:23Z</time></trkpt>
    <trkpt lat="47.87121" lon="14.34553"><ele>649</ele><time>2022-06-11T13:25:42Z</time></trkpt>
    <trkpt lat="47.87134" lon="14.34578"><ele>655</ele><time>2022-06-11T13:26:00Z</time></trkpt>
    <trkpt lat="47.87135" lon="14.34605"><ele>663</ele><time>2022-06-11T13:26:18Z</time></trkpt>
    <trkpt lat="47.87142" lon="14.34631"><ele>668</ele><time>2022-06-11T13:26:37Z</time></trkpt>
    <trkpt lat="47.87147" lon="14.34658"><ele>665</ele><time>2022-06-11T13:26:56Z</time></trkpt>
    <trkpt lat="47.87154" lon="14.34685"><ele>666</ele><time>2022-06-11T13:27:15Z</time></trkpt>
    <trkpt lat="47.87165" lon="14.34705"><ele>675</ele><time>2022-06-11T13:27:33Z</time></trkpt>
    <trkpt lat="47.87160" lon="14.34736"><ele>674</ele><time>2022-06-11T13:27:52Z</time></trkpt>
    <trkpt lat="47.87165" lon="14.34763"><ele>677</ele><time>2022-06-11T13:28:10Z</time></trkpt>
    <trkpt lat="47.87182" lon="14.34779"><ele>675</ele><time>2022-06-11T13:28:29Z</time></trkpt>
    <trkpt lat="47.87203" lon="14.34793"><ele>685</ele><time>2022-06-11T13:28:48Z</time></trkpt>
    <trkpt lat="47.87212" lon="14.34813"><ele>681</ele><time>2022-06-11T13:29:07Z</time></trkpt>
    <trkpt lat="47.87215" lon="14.34837"><ele>684</ele><time>2022-06-11T13:29:25Z</time></trkpt>
    <trkpt lat="47.87215" lon="14.34863"><ele>684</ele><time>2022-06-11T13:29:44Z</time></trkpt>
    <trkpt lat="47.87220" lon="14.34888"><ele>686</ele><time>2022-06-11T13:30:03Z</time></trkpt>
    <trkpt lat="47.87239" lon="14.34904"><ele>693</ele><time>2022-06-11T13:30:22Z</time></trkpt>
    <trkpt lat="47.87252" lon="14.34922"><ele>697</ele><time>2022-06-11T13:30:40Z</time></trkpt>
    <trkpt lat="47.87259" lon="14.34948"><ele>684</ele><time>2022-06-11T13:30:59Z</time></trkpt>
    <trkpt lat="47.87262" lon="14.34971"><ele>629</ele><time>2022-06-11T13:31:17Z</time></trkpt>
    <trkpt lat="47.87274" lon="14.34983"><ele>699</ele><time>2022-06-11T13:31:36Z</time></trkpt>
    <trkpt lat="47.87290" lon="14.34999"><ele>702</ele><time>2022-06-11T13:31:55Z</time></trkpt>
    <trkpt lat="47.87302" lon="14.35026"><ele>702</ele><time>2022-06-11T13:32:14Z</time></trkpt>
    <trkpt lat="47.87294" lon="14.35053"><ele>674</ele><time>2022-06-11T13:32:33Z</time></trkpt>
    <trkpt lat="47.87293" lon="14.35078"><ele>708</ele><time>2022-06-11T13:32:51Z</time></trkpt>
    <trkpt lat="47.87297" lon="14.35100"><ele>711</ele><time>2022-06-11T13:33:09Z</time></trkpt>
    <trkpt lat="47.87305" lon="14.35125"><ele>715</ele><time>2022-06-11T13:33:27Z</time></trkpt>
    <trkpt lat="47.87322" lon="14.35142"><ele>720</ele><time>2022-06-11T13:33:45Z</time></trkpt>
    <trkpt lat="47.87338" lon="14.35159"><ele>720</ele><time>2022-06-11T13:34:04Z</time></trkpt>
    <trkpt lat="47.87340" lon="14.35188"><ele>718</ele><time>2022-06-11T13:34:23Z</time></trkpt>
    <trkpt lat="47.87339" lon="14.35216"><ele>724</ele><time>2022-06-11T13:34:42Z</time></trkpt>
    <trkpt lat="47.87333" lon="14.35246"><ele>717</ele><time>2022-06-11T13:35:01Z</time></trkpt>
    <trkpt lat="47.87348" lon="14.35271"><ele>722</ele><time>2022-06-11T13:35:20Z</time></trkpt>
    <trkpt lat="47.87370" lon="14.35284"><ele>727</ele><time>2022-06-11T13:35:38Z</time></trkpt>
    <trkpt lat="47.87380" lon="14.35307"><ele>725</ele><time>2022-06-11T13:35:57Z</time></trkpt>
    <trkpt lat="47.87377" lon="14.35330"><ele>729</ele><time>2022-06-11T13:36:15Z</time></trkpt>
    <trkpt lat="47.87367" lon="14.35356"><ele>722</ele><time>2022-06-11T13:36:33Z</time></trkpt>
    <trkpt lat="47.87373" lon="14.35385"><ele>730</ele><time>2022-06-11T13:36:51Z</time></trkpt>
    <trkpt lat="47.87388" lon="14.35409"><ele>737</ele><time>2022-06-11T13:37:10Z</time></trkpt>
    <trkpt lat="47.87417" lon="14.35425"><ele>746</ele><time>2022-06-11T13:37:29Z</time></trkpt>
    <trkpt lat="47.87432" lon="14.35449"><ele>749</ele><time>2022-06-11T13:37:48Z</time></trkpt>
    <trkpt lat="47.87410" lon="14.35483"><ele>737</ele><time>2022-06-11T13:38:06Z</time></trkpt>
    <trkpt lat="47.87405" lon="14.35507"><ele>735</ele><time>2022-06-11T13:38:24Z</time></trkpt>
    <trkpt lat="47.87396" lon="14.35536"><ele>738</ele><time>2022-06-11T13:38:43Z</time></trkpt>
    <trkpt lat="47.87397" lon="14.35562"><ele>744</ele><time>2022-06-11T13:39:01Z</time></trkpt>
    <trkpt lat="47.87392" lon="14.35592"><ele>748</ele><time>2022-06-11T13:39:20Z</time></trkpt>
    <trkpt lat="47.87406" lon="14.35616"><ele>751</ele><time>2022-06-11T13:39:38Z</time></trkpt>
    <trkpt lat="47.87425" lon="14.35635"><ele>751</ele><time>2022-06-11T13:39:57Z</time></trkpt>
    <trkpt lat="47.87436" lon="14.35655"><ele>752</ele><time>2022-06-11T13:40:16Z</time></trkpt>
    <trkpt lat="47.87434" lon="14.35680"><ele>747</ele><time>2022-06-11T13:40:34Z</time></trkpt>
    <trkpt lat="47.87443" lon="14.35708"><ele>751</ele><time>2022-06-11T13:40:53Z</time></trkpt>
    <trkpt lat="47.87441" lon="14.35733"><ele>755</ele><time>2022-06-11T13:41:12Z</time></trkpt>
    <trkpt lat="47.87440" lon="14.35760"><ele>754</ele><time>2022-06-11T13:41:31Z</time></trkpt>
    <trkpt lat="47.87446" lon="14.35785"><ele>760</ele><time>2022-06-11T13:41:49Z</time></trkpt>
    <trkpt lat="47.87451" lon="14.35810"><ele>762</ele><time>2022-06-11T13:42:07Z</time></trkpt>
    <trkpt lat="47.87455" lon="14.35836"><ele>762</ele><time>2022-06-11T13:42:26Z</time></trkpt>
    <trkpt lat="47.87468" lon="14.35856"><ele>762</ele><time>2022-06-11T13:42:45Z</time></trkpt>
    <trkpt lat="47.87464" lon="14.35880"><ele>764</ele><time>2022-06-11T13:43:03Z</time></trkpt>
    <trkpt lat="47.87459" lon="14.35903"><ele>766</ele><time>2022-06-11T13:43:21Z</time></trkpt>
    <trkpt lat="47.87461" lon="14.35931"><ele>769</ele><time>2022-06-11T13:43:40Z</time></trkpt>
    <trkpt lat="47.87461" lon="14.35957"><ele>770</ele><time>2022-06-11T13:44:34Z</time></trkpt>
    <trkpt lat="47.87463" lon="14.35971"><ele>770</ele><time>2022-06-11T13:44:53Z</time></trkpt>
    <trkpt lat="47.87465" lon="14.35996"><ele>776</ele><time>2022-06-11T13:46:33Z</time></trkpt>
    <trkpt lat="47.87464" lon="14.36011"><ele>780</ele><time>2022-06-11T13:46:52Z</time></trkpt>
    <trkpt lat="47.87452" lon="14.36041"><ele>773</ele><time>2022-06-11T13:53:31Z</time></trkpt>
    <trkpt lat="47.87449" lon="14.36066"><ele>771</ele><time>2022-06-11T13:53:49Z</time></trkpt>
    <trkpt lat="47.87437" lon="14.36099"><ele>772</ele><time>2022-06-11T13:54:31Z</time></trkpt>
    <trkpt lat="47.87443" lon="14.36124"><ele>773</ele><time>2022-06-11T13:55:11Z</time></trkpt>
    <trkpt lat="47.87470" lon="14.36106"><ele>769</ele><time>2022-06-11T13:57:29Z</time></trkpt>
    <trkpt lat="47.87488" lon="14.36110"><ele>766</ele><time>2022-06-11T13:57:48Z</time></trkpt>
    <trkpt lat="47.87508" lon="14.36127"><ele>768</ele><time>2022-06-11T14:01:08Z</time></trkpt>
    <trkpt lat="47.87521" lon="14.36141"><ele>772</ele><time>2022-06-11T14:01:27Z</time></trkpt>
    <trkpt lat="47.87534" lon="14.36155"><ele>767</ele><time>2022-06-11T14:01:45Z</time></trkpt>
    <trkpt lat="47.87549" lon="14.36174"><ele>769</ele><time>2022-06-11T14:02:04Z</time></trkpt>
    <trkpt lat="47.87556" lon="14.36196"><ele>595</ele><time>2022-06-11T14:02:22Z</time></trkpt>
    <trkpt lat="47.87563" lon="14.36225"><ele>765</ele><time>2022-06-11T14:02:41Z</time></trkpt>
    <trkpt lat="47.87569" lon="14.36256"><ele>774</ele><time>2022-06-11T14:03:00Z</time></trkpt>
    <trkpt lat="47.87572" lon="14.36292"><ele>788</ele><time>2022-06-11T14:03:18Z</time></trkpt>
    <trkpt lat="47.87572" lon="14.36326"><ele>791</ele><time>2022-06-11T14:03:37Z</time></trkpt>
    <trkpt lat="47.87576" lon="14.36354"><ele>792</ele><time>2022-06-11T14:03:56Z</time></trkpt>
    <trkpt lat="47.87582" lon="14.36378"><ele>783</ele><time>2022-06-11T14:04:14Z</time></trkpt>
    <trkpt lat="47.87587" lon="14.36408"><ele>780</ele><time>2022-06-11T14:04:33Z</time></trkpt>
    <trkpt lat="47.87606" lon="14.36431"><ele>771</ele><time>2022-06-11T14:04:51Z</time></trkpt>
    <trkpt lat="47.87622" lon="14.36437"><ele>769</ele><time>2022-06-11T14:05:10Z</time></trkpt>
    <trkpt lat="47.87642" lon="14.36439"><ele>581</ele><time>2022-06-11T14:05:28Z</time></trkpt>
    <trkpt lat="47.87663" lon="14.36446"><ele>749</ele><time>2022-06-11T14:05:47Z</time></trkpt>
    <trkpt lat="47.87674" lon="14.36455"><ele>756</ele><time>2022-06-11T14:06:05Z</time></trkpt>
    <trkpt lat="47.87697" lon="14.36471"><ele>764</ele><time>2022-06-11T14:06:24Z</time></trkpt>
    <trkpt lat="47.87717" lon="14.36501"><ele>774</ele><time>2022-06-11T14:06:43Z</time></trkpt>
    <trkpt lat="47.87731" lon="14.36524"><ele>772</ele><time>2022-06-11T14:07:01Z</time></trkpt>
    <trkpt lat="47.87747" lon="14.36543"><ele>773</ele><time>2022-06-11T14:07:20Z</time></trkpt>
    <trkpt lat="47.87760" lon="14.36572"><ele>770</ele><time>2022-06-11T14:07:38Z</time></trkpt>
    <trkpt lat="47.87768" lon="14.36597"><ele>766</ele><time>2022-06-11T14:07:56Z</time></trkpt>
    <trkpt lat="47.87783" lon="14.36619"><ele>756</ele><time>2022-06-11T14:08:15Z</time></trkpt>
    <trkpt lat="47.87802" lon="14.36632"><ele>761</ele><time>2022-06-11T14:08:33Z</time></trkpt>
    <trkpt lat="47.87819" lon="14.36636"><ele>759</ele><time>2022-06-11T14:08:51Z</time></trkpt>
    <trkpt lat="47.87834" lon="14.36633"><ele>748</ele><time>2022-06-11T14:10:27Z</time></trkpt>
    <trkpt lat="47.87856" lon="14.36634"><ele>745</ele><time>2022-06-11T14:11:08Z</time></trkpt>
    <trkpt lat="47.87870" lon="14.36637"><ele>747</ele><time>2022-06-11T14:11:27Z</time></trkpt>
    <trkpt lat="47.87890" lon="14.36638"><ele>752</ele><time>2022-06-11T14:11:45Z</time></trkpt>
    <trkpt lat="47.87906" lon="14.36638"><ele>746</ele><time>2022-06-11T14:12:04Z</time></trkpt>
    <trkpt lat="47.87902" lon="14.36662"><ele>748</ele><time>2022-06-11T14:12:22Z</time></trkpt>
    <trkpt lat="47.87898" lon="14.36675"><ele>742</ele><time>2022-06-11T14:17:18Z</time></trkpt>
    <trkpt lat="47.87885" lon="14.36692"><ele>744</ele><time>2022-06-11T14:17:36Z</time></trkpt>
    <trkpt lat="47.87876" lon="14.36706"><ele>735</ele><time>2022-06-11T14:17:55Z</time></trkpt>
    <trkpt lat="47.87861" lon="14.36723"><ele>738</ele><time>2022-06-11T14:18:14Z</time></trkpt>
    <trkpt lat="47.87853" lon="14.36733"><ele>737</ele><time>2022-06-11T14:18:32Z</time></trkpt>
    <trkpt lat="47.87841" lon="14.36746"><ele>748</ele><time>2022-06-11T14:20:17Z</time></trkpt>
    <trkpt lat="47.87826" lon="14.36749"><ele>750</ele><time>2022-06-11T14:20:35Z</time></trkpt>
    <trkpt lat="47.87805" lon="14.36756"><ele>752</ele><time>2022-06-11T14:20:53Z</time></trkpt>
    <trkpt lat="47.87781" lon="14.36770"><ele>753</ele><time>2022-06-11T14:21:11Z</time></trkpt>
    <trkpt lat="47.87760" lon="14.36779"><ele>751</ele><time>2022-06-11T14:21:29Z</time></trkpt>
    <trkpt lat="47.87741" lon="14.36793"><ele>640</ele><time>2022-06-11T14:21:48Z</time></trkpt>
    <trkpt lat="47.87724" lon="14.36815"><ele>742</ele><time>2022-06-11T14:22:06Z</time></trkpt>
    <trkpt lat="47.87702" lon="14.36828"><ele>746</ele><time>2022-06-11T14:22:25Z</time></trkpt>
    <trkpt lat="47.87687" lon="14.36848"><ele>739</ele><time>2022-06-11T14:22:44Z</time></trkpt>
    <trkpt lat="47.87683" lon="14.36892"><ele>709</ele><time>2022-06-11T14:23:29Z</time></trkpt>
    <trkpt lat="47.87692" lon="14.36897"><ele>561</ele><time>2022-06-11T14:23:47Z</time></trkpt>
    <trkpt lat="47.87709" lon="14.36894"><ele>707</ele><time>2022-06-11T14:25:16Z</time></trkpt>
    <trkpt lat="47.87720" lon="14.36897"><ele>732</ele><time>2022-06-11T14:25:34Z</time></trkpt>
    <trkpt lat="47.87731" lon="14.36898"><ele>739</ele><time>2022-06-11T14:25:52Z</time></trkpt>
    <trkpt lat="47.87742" lon="14.36896"><ele>745</ele><time>2022-06-11T14:26:11Z</time></trkpt>
    <trkpt lat="47.87754" lon="14.36903"><ele>742</ele><time>2022-06-11T14:26:29Z</time></trkpt>
    <trkpt lat="47.87764" lon="14.36905"><ele>742</ele><time>2022-06-11T14:26:47Z</time></trkpt>
    <trkpt lat="47.87773" lon="14.36898"><ele>753</ele><time>2022-06-11T14:27:06Z</time></trkpt>
    <trkpt lat="47.87783" lon="14.36893"><ele>752</ele><time>2022-06-11T14:27:24Z</time></trkpt>
    <trkpt lat="47.87796" lon="14.36884"><ele>752</ele><time>2022-06-11T14:27:43Z</time></trkpt>
    <trkpt lat="47.87807" lon="14.36881"><ele>756</ele><time>2022-06-11T14:28:01Z</time></trkpt>
    <trkpt lat="47.87822" lon="14.36867"><ele>762</ele><time>2022-06-11T14:28:38Z</time></trkpt>
    <trkpt lat="47.87831" lon="14.36867"><ele>760</ele><time>2022-06-11T14:28:56Z</time></trkpt>
    <trkpt lat="47.87841" lon="14.36871"><ele>765</ele><time>2022-06-11T14:29:14Z</time></trkpt>
    <trkpt lat="47.87850" lon="14.36872"><ele>771</ele><time>2022-06-11T14:29:32Z</time></trkpt>
    <trkpt lat="47.87860" lon="14.36878"><ele>774</ele><time>2022-06-11T14:29:51Z</time></trkpt>
    <trkpt lat="47.87854" lon="14.36900"><ele>785</ele><time>2022-06-11T14:30:28Z</time></trkpt>
    <trkpt lat="47.87850" lon="14.36914"><ele>794</ele><time>2022-06-11T14:30:46Z</time></trkpt>
    <trkpt lat="47.87853" lon="14.36930"><ele>794</ele><time>2022-06-11T14:31:05Z</time></trkpt>
    <trkpt lat="47.87875" lon="14.36929"><ele>794</ele><time>2022-06-11T14:31:45Z</time></trkpt>
    <trkpt lat="47.87882" lon="14.36942"><ele>793</ele><time>2022-06-11T14:32:04Z</time></trkpt>
    <trkpt lat="47.87881" lon="14.36957"><ele>799</ele><time>2022-06-11T14:32:23Z</time></trkpt>
    <trkpt lat="47.87885" lon="14.36975"><ele>810</ele><time>2022-06-11T14:32:42Z</time></trkpt>
    <trkpt lat="47.87902" lon="14.36974"><ele>804</ele><time>2022-06-11T14:33:20Z</time></trkpt>
    <trkpt lat="47.87911" lon="14.36962"><ele>806</ele><time>2022-06-11T14:33:38Z</time></trkpt>
    <trkpt lat="47.87927" lon="14.36977"><ele>806</ele><time>2022-06-11T14:34:21Z</time></trkpt>
    <trkpt lat="47.87938" lon="14.36981"><ele>815</ele><time>2022-06-11T14:34:39Z</time></trkpt>
    <trkpt lat="47.87948" lon="14.36983"><ele>811</ele><time>2022-06-11T14:34:57Z</time></trkpt>
    <trkpt lat="47.87957" lon="14.36991"><ele>815</ele><time>2022-06-11T14:35:16Z</time></trkpt>
    <trkpt lat="47.87972" lon="14.36985"><ele>810</ele><time>2022-06-11T14:35:35Z</time></trkpt>
    <trkpt lat="47.87972" lon="14.36971"><ele>811</ele><time>2022-06-11T14:35:53Z</time></trkpt>
    <trkpt lat="47.87972" lon="14.36938"><ele>812</ele><time>2022-06-11T14:37:13Z</time></trkpt>
    <trkpt lat="47.87976" lon="14.36916"><ele>816</ele><time>2022-06-11T14:37:31Z</time></trkpt>
    <trkpt lat="47.87986" lon="14.36895"><ele>818</ele><time>2022-06-11T14:37:50Z</time></trkpt>
    <trkpt lat="47.87998" lon="14.36876"><ele>820</ele><time>2022-06-11T14:38:08Z</time></trkpt>
    <trkpt lat="47.88008" lon="14.36854"><ele>822</ele><time>2022-06-11T14:38:27Z</time></trkpt>
    <trkpt lat="47.88019" lon="14.36842"><ele>822</ele><time>2022-06-11T14:38:45Z</time></trkpt>
    <trkpt lat="47.88040" lon="14.36852"><ele>822</ele><time>2022-06-11T14:39:04Z</time></trkpt>
    <trkpt lat="47.88057" lon="14.36857"><ele>816</ele><time>2022-06-11T14:39:23Z</time></trkpt>
    <trkpt lat="47.88072" lon="14.36864"><ele>824</ele><time>2022-06-11T14:39:42Z</time></trkpt>
    <trkpt lat="47.88085" lon="14.36855"><ele>823</ele><time>2022-06-11T14:40:01Z</time></trkpt>
    <trkpt lat="47.88084" lon="14.36837"><ele>826</ele><time>2022-06-11T14:40:19Z</time></trkpt>
    <trkpt lat="47.88090" lon="14.36806"><ele>822</ele><time>2022-06-11T14:40:38Z</time></trkpt>
    <trkpt lat="47.88095" lon="14.36783"><ele>824</ele><time>2022-06-11T14:40:57Z</time></trkpt>
    <trkpt lat="47.88102" lon="14.36758"><ele>824</ele><time>2022-06-11T14:41:16Z</time></trkpt>
    <trkpt lat="47.88118" lon="14.36744"><ele>827</ele><time>2022-06-11T14:41:34Z</time></trkpt>
    <trkpt lat="47.88135" lon="14.36729"><ele>832</ele><time>2022-06-11T14:41:52Z</time></trkpt>
    <trkpt lat="47.88152" lon="14.36720"><ele>825</ele><time>2022-06-11T14:42:11Z</time></trkpt>
    <trkpt lat="47.88170" lon="14.36708"><ele>829</ele><time>2022-06-11T14:42:29Z</time></trkpt>
    <trkpt lat="47.88190" lon="14.36697"><ele>827</ele><time>2022-06-11T14:42:47Z</time></trkpt>
    <trkpt lat="47.88205" lon="14.36685"><ele>827</ele><time>2022-06-11T14:43:05Z</time></trkpt>
    <trkpt lat="47.88219" lon="14.36675"><ele>826</ele><time>2022-06-11T14:43:24Z</time></trkpt>
    <trkpt lat="47.88233" lon="14.36672"><ele>833</ele><time>2022-06-11T14:43:42Z</time></trkpt>
    <trkpt lat="47.88253" lon="14.36662"><ele>833</ele><time>2022-06-11T14:44:01Z</time></trkpt>
    <trkpt lat="47.88264" lon="14.36656"><ele>829</ele><time>2022-06-11T14:44:20Z</time></trkpt>
    <trkpt lat="47.88272" lon="14.36663"><ele>831</ele><time>2022-06-11T14:45:08Z</time></trkpt>
    <trkpt lat="47.88274" lon="14.36687"><ele>837</ele><time>2022-06-11T14:45:27Z</time></trkpt>
    <trkpt lat="47.88276" lon="14.36711"><ele>840</ele><time>2022-06-11T14:45:45Z</time></trkpt>
    <trkpt lat="47.88268" lon="14.36678"><ele>840</ele><time>2022-06-11T14:47:29Z</time></trkpt>
    <trkpt lat="47.88275" lon="14.36650"><ele>843</ele><time>2022-06-11T14:47:48Z</time></trkpt>
    <trkpt lat="47.88269" lon="14.36629"><ele>831</ele><time>2022-06-11T14:48:06Z</time></trkpt>
    <trkpt lat="47.88260" lon="14.36593"><ele>835</ele><time>2022-06-11T14:48:24Z</time></trkpt>
    <trkpt lat="47.88250" lon="14.36568"><ele>836</ele><time>2022-06-11T14:48:43Z</time></trkpt>
    <trkpt lat="47.88256" lon="14.36531"><ele>836</ele><time>2022-06-11T14:49:01Z</time></trkpt>
    <trkpt lat="47.88260" lon="14.36500"><ele>842</ele><time>2022-06-11T14:49:20Z</time></trkpt>
    <trkpt lat="47.88265" lon="14.36475"><ele>839</ele><time>2022-06-11T14:49:39Z</time></trkpt>
    <trkpt lat="47.88252" lon="14.36460"><ele>849</ele><time>2022-06-11T14:51:02Z</time></trkpt>
    <trkpt lat="47.88238" lon="14.36459"><ele>844</ele><time>2022-06-11T14:51:20Z</time></trkpt>
    <trkpt lat="47.88220" lon="14.36465"><ele>848</ele><time>2022-06-11T14:51:38Z</time></trkpt>
    <trkpt lat="47.88205" lon="14.36467"><ele>846</ele><time>2022-06-11T14:51:56Z</time></trkpt>
    <trkpt lat="47.88195" lon="14.36460"><ele>856</ele><time>2022-06-11T14:52:14Z</time></trkpt>
    <trkpt lat="47.88189" lon="14.36449"><ele>857</ele><time>2022-06-11T14:52:32Z</time></trkpt>
    <trkpt lat="47.88174" lon="14.36455"><ele>858</ele><time>2022-06-11T14:52:51Z</time></trkpt>
    <trkpt lat="47.88159" lon="14.36447"><ele>859</ele><time>2022-06-11T14:53:41Z</time></trkpt>
    <trkpt lat="47.88150" lon="14.36425"><ele>855</ele><time>2022-06-11T14:54:39Z</time></trkpt>
    <trkpt lat="47.88141" lon="14.36427"><ele>861</ele><time>2022-06-11T14:54:58Z</time></trkpt>
    <trkpt lat="47.88146" lon="14.36403"><ele>871</ele><time>2022-06-11T14:55:53Z</time></trkpt>
    <trkpt lat="47.88143" lon="14.36382"><ele>876</ele><time>2022-06-11T14:59:04Z</time></trkpt>
    <trkpt lat="47.88138" lon="14.36358"><ele>882</ele><time>2022-06-11T14:59:55Z</time></trkpt>
    <trkpt lat="47.88137" lon="14.36334"><ele>889</ele><time>2022-06-11T15:01:28Z</time></trkpt>
    <trkpt lat="47.88129" lon="14.36323"><ele>884</ele><time>2022-06-11T15:01:46Z</time></trkpt>
    <trkpt lat="47.88123" lon="14.36301"><ele>891</ele><time>2022-06-11T15:02:23Z</time></trkpt>
    <trkpt lat="47.88112" lon="14.36281"><ele>898</ele><time>2022-06-11T15:03:12Z</time></trkpt>
    <trkpt lat="47.88120" lon="14.36264"><ele>897</ele><time>2022-06-11T15:03:31Z</time></trkpt>
    <trkpt lat="47.88124" lon="14.36233"><ele>896</ele><time>2022-06-11T15:03:50Z</time></trkpt>
    <trkpt lat="47.88121" lon="14.36204"><ele>897</ele><time>2022-06-11T15:04:08Z</time></trkpt>
    <trkpt lat="47.88125" lon="14.36169"><ele>900</ele><time>2022-06-11T15:04:27Z</time></trkpt>
    <trkpt lat="47.88121" lon="14.36136"><ele>900</ele><time>2022-06-11T15:04:46Z</time></trkpt>
    <trkpt lat="47.88122" lon="14.36106"><ele>903</ele><time>2022-06-11T15:05:04Z</time></trkpt>
    <trkpt lat="47.88124" lon="14.36069"><ele>900</ele><time>2022-06-11T15:05:23Z</time></trkpt>
    <trkpt lat="47.88129" lon="14.36041"><ele>895</ele><time>2022-06-11T15:05:42Z</time></trkpt>
    <trkpt lat="47.88130" lon="14.36006"><ele>895</ele><time>2022-06-11T15:06:01Z</time></trkpt>
    <trkpt lat="47.88136" lon="14.35970"><ele>896</ele><time>2022-06-11T15:06:19Z</time></trkpt>
    <trkpt lat="47.88142" lon="14.35941"><ele>895</ele><time>2022-06-11T15:06:38Z</time></trkpt>
    <trkpt lat="47.88153" lon="14.35909"><ele>893</ele><time>2022-06-11T15:06:56Z</time></trkpt>
    <trkpt lat="47.88165" lon="14.35878"><ele>894</ele><time>2022-06-11T15:07:15Z</time></trkpt>
    <trkpt lat="47.88165" lon="14.35843"><ele>894</ele><time>2022-06-11T15:07:33Z</time></trkpt>
    <trkpt lat="47.88168" lon="14.35809"><ele>893</ele><time>2022-06-11T15:07:52Z</time></trkpt>
    <trkpt lat="47.88172" lon="14.35783"><ele>887</ele><time>2022-06-11T15:08:10Z</time></trkpt>
    <trkpt lat="47.88182" lon="14.35753"><ele>845</ele><time>2022-06-11T15:08:29Z</time></trkpt>
    <trkpt lat="47.88192" lon="14.35727"><ele>796</ele><time>2022-06-11T15:08:47Z</time></trkpt>
    <trkpt lat="47.88199" lon="14.35701"><ele>874</ele><time>2022-06-11T15:09:06Z</time></trkpt>
    <trkpt lat="47.88205" lon="14.35661"><ele>882</ele><time>2022-06-11T15:09:24Z</time></trkpt>
    <trkpt lat="47.88192" lon="14.35644"><ele>883</ele><time>2022-06-11T15:09:43Z</time></trkpt>
    <trkpt lat="47.88182" lon="14.35647"><ele>886</ele><time>2022-06-11T15:10:01Z</time></trkpt>
    <trkpt lat="47.88191" lon="14.35670"><ele>897</ele><time>2022-06-11T15:10:57Z</time></trkpt>
    <trkpt lat="47.88177" lon="14.35682"><ele>900</ele><time>2022-06-11T15:13:24Z</time></trkpt>
    <trkpt lat="47.88165" lon="14.35702"><ele>908</ele><time>2022-06-11T15:14:10Z</time></trkpt>
    <trkpt lat="47.88152" lon="14.35716"><ele>916</ele><time>2022-06-11T15:15:04Z</time></trkpt>
    <trkpt lat="47.88142" lon="14.35737"><ele>925</ele><time>2022-06-11T15:15:49Z</time></trkpt>
    <trkpt lat="47.88130" lon="14.35754"><ele>931</ele><time>2022-06-11T15:16:30Z</time></trkpt>
    <trkpt lat="47.88120" lon="14.35761"><ele>931</ele><time>2022-06-11T15:16:49Z</time></trkpt>
    <trkpt lat="47.88106" lon="14.35773"><ele>941</ele><time>2022-06-11T15:17:42Z</time></trkpt>
    <trkpt lat="47.88100" lon="14.35798"><ele>942</ele><time>2022-06-11T15:18:22Z</time></trkpt>
    <trkpt lat="47.88100" lon="14.35833"><ele>942</ele><time>2022-06-11T15:19:32Z</time></trkpt>
    <trkpt lat="47.88098" lon="14.35856"><ele>938</ele><time>2022-06-11T15:19:51Z</time></trkpt>
    <trkpt lat="47.88092" lon="14.35879"><ele>938</ele><time>2022-06-11T15:20:09Z</time></trkpt>
    <trkpt lat="47.88085" lon="14.35908"><ele>936</ele><time>2022-06-11T15:20:28Z</time></trkpt>
    <trkpt lat="47.88077" lon="14.35931"><ele>941</ele><time>2022-06-11T15:20:46Z</time></trkpt>
    <trkpt lat="47.88075" lon="14.35963"><ele>944</ele><time>2022-06-11T15:21:05Z</time></trkpt>
    <trkpt lat="47.88082" lon="14.35977"><ele>942</ele><time>2022-06-11T15:21:24Z</time></trkpt>
    <trkpt lat="47.88073" lon="14.35984"><ele>944</ele><time>2022-06-11T15:21:42Z</time></trkpt>
    <trkpt lat="47.88066" lon="14.36023"><ele>946</ele><time>2022-06-11T15:24:03Z</time></trkpt>
    <trkpt lat="47.88062" lon="14.36041"><ele>943</ele><time>2022-06-11T15:24:22Z</time></trkpt>
    <trkpt lat="47.88042" lon="14.36073"><ele>950</ele><time>2022-06-11T15:25:05Z</time></trkpt>
    <trkpt lat="47.88043" lon="14.36087"><ele>952</ele><time>2022-06-11T15:25:23Z</time></trkpt>
    <trkpt lat="47.88034" lon="14.36125"><ele>852</ele><time>2022-06-11T15:26:09Z</time></trkpt>
    <trkpt lat="47.88023" lon="14.36145"><ele>967</ele><time>2022-06-11T15:27:00Z</time></trkpt>
    <trkpt lat="47.88014" lon="14.36144"><ele>966</ele><time>2022-06-11T15:28:30Z</time></trkpt>
    <trkpt lat="47.87996" lon="14.36136"><ele>962</ele><time>2022-06-11T15:28:49Z</time></trkpt>
    <trkpt lat="47.87987" lon="14.36123"><ele>965</ele><time>2022-06-11T15:29:08Z</time></trkpt>
    <trkpt lat="47.87979" lon="14.36129"><ele>962</ele><time>2022-06-11T15:29:48Z</time></trkpt>
    <trkpt lat="47.87970" lon="14.36117"><ele>960</ele><time>2022-06-11T15:30:06Z</time></trkpt>
    <trkpt lat="47.87956" lon="14.36112"><ele>953</ele><time>2022-06-11T15:30:25Z</time></trkpt>
    <trkpt lat="47.87945" lon="14.36091"><ele>953</ele><time>2022-06-11T15:30:44Z</time></trkpt>
    <trkpt lat="47.87928" lon="14.36094"><ele>953</ele><time>2022-06-11T15:31:03Z</time></trkpt>
    <trkpt lat="47.87917" lon="14.36086"><ele>942</ele><time>2022-06-11T15:31:21Z</time></trkpt>
    <trkpt lat="47.87902" lon="14.36089"><ele>939</ele><time>2022-06-11T15:31:40Z</time></trkpt>
    <trkpt lat="47.87889" lon="14.36088"><ele>936</ele><time>2022-06-11T15:31:58Z</time></trkpt>
    <trkpt lat="47.87875" lon="14.36081"><ele>927</ele><time>2022-06-11T15:32:16Z</time></trkpt>
    <trkpt lat="47.87856" lon="14.36081"><ele>923</ele><time>2022-06-11T15:32:35Z</time></trkpt>
    <trkpt lat="47.87843" lon="14.36071"><ele>925</ele><time>2022-06-11T15:32:54Z</time></trkpt>
    <trkpt lat="47.87843" lon="14.36054"><ele>923</ele><time>2022-06-11T15:33:13Z</time></trkpt>
    <trkpt lat="47.87827" lon="14.36026"><ele>921</ele><time>2022-06-11T15:33:51Z</time></trkpt>
    <trkpt lat="47.87821" lon="14.36000"><ele>900</ele><time>2022-06-11T15:34:36Z</time></trkpt>
    <trkpt lat="47.87815" lon="14.35986"><ele>897</ele><time>2022-06-11T15:34:54Z</time></trkpt>
    <trkpt lat="47.87814" lon="14.35968"><ele>898</ele><time>2022-06-11T15:35:13Z</time></trkpt>
    <trkpt lat="47.87813" lon="14.35953"><ele>896</ele><time>2022-06-11T15:35:32Z</time></trkpt>
    <trkpt lat="47.87796" lon="14.35953"><ele>875</ele><time>2022-06-11T15:36:47Z</time></trkpt>
    <trkpt lat="47.87819" lon="14.35937"><ele>864</ele><time>2022-06-11T15:39:40Z</time></trkpt>
    <trkpt lat="47.87843" lon="14.35922"><ele>862</ele><time>2022-06-11T15:39:58Z</time></trkpt>
    <trkpt lat="47.87869" lon="14.35899"><ele>867</ele><time>2022-06-11T15:40:16Z</time></trkpt>
    <trkpt lat="47.87896" lon="14.35885"><ele>860</ele><time>2022-06-11T15:40:35Z</time></trkpt>
    <trkpt lat="47.87920" lon="14.35862"><ele>863</ele><time>2022-06-11T15:40:54Z</time></trkpt>
    <trkpt lat="47.87935" lon="14.35821"><ele>858</ele><time>2022-06-11T15:41:13Z</time></trkpt>
    <trkpt lat="47.87924" lon="14.35788"><ele>857</ele><time>2022-06-11T15:41:32Z</time></trkpt>
    <trkpt lat="47.87910" lon="14.35763"><ele>849</ele><time>2022-06-11T15:41:50Z</time></trkpt>
    <trkpt lat="47.87892" lon="14.35728"><ele>845</ele><time>2022-06-11T15:42:09Z</time></trkpt>
    <trkpt lat="47.87877" lon="14.35699"><ele>843</ele><time>2022-06-11T15:42:27Z</time></trkpt>
    <trkpt lat="47.87855" lon="14.35691"><ele>842</ele><time>2022-06-11T15:42:45Z</time></trkpt>
    <trkpt lat="47.87844" lon="14.35658"><ele>838</ele><time>2022-06-11T15:43:03Z</time></trkpt>
    <trkpt lat="47.87837" lon="14.35619"><ele>835</ele><time>2022-06-11T15:43:22Z</time></trkpt>
    <trkpt lat="47.87824" lon="14.35586"><ele>837</ele><time>2022-06-11T15:43:41Z</time></trkpt>
    <trkpt lat="47.87807" lon="14.35564"><ele>832</ele><time>2022-06-11T15:43:59Z</time></trkpt>
    <trkpt lat="47.87798" lon="14.35549"><ele>829</ele><time>2022-06-11T15:44:17Z</time></trkpt>
    <trkpt lat="47.87791" lon="14.35514"><ele>833</ele><time>2022-06-11T15:45:12Z</time></trkpt>
    <trkpt lat="47.87804" lon="14.35486"><ele>828</ele><time>2022-06-11T15:45:30Z</time></trkpt>
    <trkpt lat="47.87813" lon="14.35456"><ele>829</ele><time>2022-06-11T15:45:49Z</time></trkpt>
    <trkpt lat="47.87824" lon="14.35421"><ele>827</ele><time>2022-06-11T15:46:07Z</time></trkpt>
    <trkpt lat="47.87827" lon="14.35382"><ele>822</ele><time>2022-06-11T15:46:26Z</time></trkpt>
    <trkpt lat="47.87825" lon="14.35350"><ele>821</ele><time>2022-06-11T15:46:45Z</time></trkpt>
    <trkpt lat="47.87823" lon="14.35316"><ele>816</ele><time>2022-06-11T15:47:03Z</time></trkpt>
    <trkpt lat="47.87808" lon="14.35283"><ele>813</ele><time>2022-06-11T15:47:22Z</time></trkpt>
    <trkpt lat="47.87795" lon="14.35255"><ele>810</ele><time>2022-06-11T15:47:40Z</time></trkpt>
    <trkpt lat="47.87777" lon="14.35231"><ele>810</ele><time>2022-06-11T15:47:58Z</time></trkpt>
    <trkpt lat="47.87765" lon="14.35202"><ele>809</ele><time>2022-06-11T15:48:16Z</time></trkpt>
    <trkpt lat="47.87763" lon="14.35163"><ele>814</ele><time>2022-06-11T15:48:34Z</time></trkpt>
    <trkpt lat="47.87768" lon="14.35128"><ele>816</ele><time>2022-06-11T15:48:53Z</time></trkpt>
    <trkpt lat="47.87767" lon="14.35091"><ele>811</ele><time>2022-06-11T15:49:11Z</time></trkpt>
    <trkpt lat="47.87772" lon="14.35059"><ele>810</ele><time>2022-06-11T15:49:30Z</time></trkpt>
    <trkpt lat="47.87779" lon="14.35025"><ele>809</ele><time>2022-06-11T15:49:49Z</time></trkpt>
    <trkpt lat="47.87786" lon="14.34993"><ele>798</ele><time>2022-06-11T15:50:07Z</time></trkpt>
    <trkpt lat="47.87781" lon="14.34961"><ele>797</ele><time>2022-06-11T15:50:26Z</time></trkpt>
    <trkpt lat="47.87778" lon="14.34948"><ele>791</ele><time>2022-06-11T15:51:14Z</time></trkpt>
    <trkpt lat="47.87773" lon="14.34923"><ele>795</ele><time>2022-06-11T15:51:32Z</time></trkpt>
    <trkpt lat="47.87773" lon="14.34886"><ele>806</ele><time>2022-06-11T15:51:51Z</time></trkpt>
    <trkpt lat="47.87757" lon="14.34884"><ele>792</ele><time>2022-06-11T15:52:38Z</time></trkpt>
    <trkpt lat="47.87747" lon="14.34866"><ele>787</ele><time>2022-06-11T15:52:57Z</time></trkpt>
    <trkpt lat="47.87728" lon="14.34845"><ele>784</ele><time>2022-06-11T15:53:47Z</time></trkpt>
    <trkpt lat="47.87710" lon="14.34819"><ele>785</ele><time>2022-06-11T15:54:26Z</time></trkpt>
    <trkpt lat="47.87703" lon="14.34796"><ele>780</ele><time>2022-06-11T15:54:45Z</time></trkpt>
    <trkpt lat="47.87693" lon="14.34779"><ele>776</ele><time>2022-06-11T15:55:03Z</time></trkpt>
    <trkpt lat="47.87690" lon="14.34753"><ele>771</ele><time>2022-06-11T15:55:21Z</time></trkpt>
    <trkpt lat="47.87680" lon="14.34727"><ele>769</ele><time>2022-06-11T15:55:40Z</time></trkpt>
    <trkpt lat="47.87674" lon="14.34706"><ele>765</ele><time>2022-06-11T15:55:58Z</time></trkpt>
    <trkpt lat="47.87670" lon="14.34677"><ele>764</ele><time>2022-06-11T15:56:17Z</time></trkpt>
    <trkpt lat="47.87666" lon="14.34654"><ele>759</ele><time>2022-06-11T15:56:35Z</time></trkpt>
    <trkpt lat="47.87662" lon="14.34634"><ele>752</ele><time>2022-06-11T15:56:54Z</time></trkpt>
    <trkpt lat="47.87662" lon="14.34611"><ele>750</ele><time>2022-06-11T15:57:12Z</time></trkpt>
    <trkpt lat="47.87660" lon="14.34580"><ele>742</ele><time>2022-06-11T15:57:30Z</time></trkpt>
    <trkpt lat="47.87655" lon="14.34549"><ele>738</ele><time>2022-06-11T15:57:49Z</time></trkpt>
    <trkpt lat="47.87652" lon="14.34520"><ele>732</ele><time>2022-06-11T15:58:07Z</time></trkpt>
    <trkpt lat="47.87648" lon="14.34498"><ele>725</ele><time>2022-06-11T15:58:26Z</time></trkpt>
    <trkpt lat="47.87643" lon="14.34471"><ele>720</ele><time>2022-06-11T15:58:44Z</time></trkpt>
    <trkpt lat="47.87637" lon="14.34443"><ele>724</ele><time>2022-06-11T15:59:03Z</time></trkpt>
    <trkpt lat="47.87635" lon="14.34415"><ele>720</ele><time>2022-06-11T15:59:22Z</time></trkpt>
    <trkpt lat="47.87631" lon="14.34386"><ele>714</ele><time>2022-06-11T15:59:40Z</time></trkpt>
    <trkpt lat="47.87626" lon="14.34350"><ele>714</ele><time>2022-06-11T15:59:59Z</time></trkpt>
    <trkpt lat="47.87623" lon="14.34316"><ele>698</ele><time>2022-06-11T16:00:17Z</time></trkpt>
    <trkpt lat="47.87621" lon="14.34288"><ele>707</ele><time>2022-06-11T16:00:35Z</time></trkpt>
    <trkpt lat="47.87619" lon="14.34255"><ele>707</ele><time>2022-06-11T16:00:54Z</time></trkpt>
    <trkpt lat="47.87619" lon="14.34221"><ele>697</ele><time>2022-06-11T16:01:12Z</time></trkpt>
    <trkpt lat="47.87616" lon="14.34188"><ele>691</ele><time>2022-06-11T16:01:31Z</time></trkpt>
    <trkpt lat="47.87613" lon="14.34156"><ele>690</ele><time>2022-06-11T16:01:49Z</time></trkpt>
    <trkpt lat="47.87614" lon="14.34122"><ele>686</ele><time>2022-06-11T16:02:08Z</time></trkpt>
    <trkpt lat="47.87609" lon="14.34089"><ele>690</ele><time>2022-06-11T16:02:26Z</time></trkpt>
    <trkpt lat="47.87610" lon="14.34053"><ele>687</ele><time>2022-06-11T16:02:44Z</time></trkpt>
    <trkpt lat="47.87610" lon="14.34023"><ele>690</ele><time>2022-06-11T16:03:25Z</time></trkpt>
    <trkpt lat="47.87605" lon="14.33996"><ele>686</ele><time>2022-06-11T16:03:44Z</time></trkpt>
    <trkpt lat="47.87606" lon="14.33955"><ele>685</ele><time>2022-06-11T16:04:02Z</time></trkpt>
    <trkpt lat="47.87604" lon="14.33913"><ele>689</ele><time>2022-06-11T16:04:20Z</time></trkpt>
    <trkpt lat="47.87601" lon="14.33876"><ele>685</ele><time>2022-06-11T16:04:56Z</time></trkpt>
    <trkpt lat="47.87593" lon="14.33863"><ele>689</ele><time>2022-06-11T16:05:15Z</time></trkpt>
    <trkpt lat="47.87587" lon="14.33840"><ele>683</ele><time>2022-06-11T16:05:59Z</time></trkpt>
    <trkpt lat="47.87590" lon="14.33864"><ele>680</ele><time>2022-06-11T16:08:20Z</time></trkpt>
    <trkpt lat="47.87586" lon="14.33896"><ele>679</ele><time>2022-06-11T16:08:38Z</time></trkpt>
    <trkpt lat="47.87581" lon="14.33928"><ele>681</ele><time>2022-06-11T16:08:57Z</time></trkpt>
    <trkpt lat="47.87579" lon="14.33964"><ele>683</ele><time>2022-06-11T16:09:16Z</time></trkpt>
    <trkpt lat="47.87581" lon="14.33911"><ele>684</ele><time>2022-06-11T16:10:06Z</time></trkpt>
    <trkpt lat="47.87586" lon="14.33879"><ele>683</ele><time>2022-06-11T16:10:25Z</time></trkpt>
    <trkpt lat="47.87583" lon="14.33844"><ele>683</ele><time>2022-06-11T16:10:44Z</time></trkpt>
    <trkpt lat="47.87578" lon="14.33806"><ele>683</ele><time>2022-06-11T16:11:03Z</time></trkpt>
    <trkpt lat="47.87573" lon="14.33775"><ele>672</ele><time>2022-06-11T16:11:21Z</time></trkpt>
    <trkpt lat="47.87573" lon="14.33746"><ele>672</ele><time>2022-06-11T16:11:39Z</time></trkpt>
    <trkpt lat="47.87570" lon="14.33705"><ele>674</ele><time>2022-06-11T16:11:58Z</time></trkpt>
    <trkpt lat="47.87565" lon="14.33671"><ele>679</ele><time>2022-06-11T16:12:36Z</time></trkpt>
    <trkpt lat="47.87551" lon="14.33636"><ele>683</ele><time>2022-06-11T16:12:54Z</time></trkpt>
    <trkpt lat="47.87536" lon="14.33606"><ele>689</ele><time>2022-06-11T16:13:12Z</time></trkpt>
    <trkpt lat="47.87530" lon="14.33573"><ele>682</ele><time>2022-06-11T16:13:31Z</time></trkpt>
    <trkpt lat="47.87527" lon="14.33544"><ele>651</ele><time>2022-06-11T16:13:49Z</time></trkpt>
    <trkpt lat="47.87528" lon="14.33518"><ele>671</ele><time>2022-06-11T16:14:07Z</time></trkpt>
    <trkpt lat="47.87525" lon="14.33491"><ele>678</ele><time>2022-06-11T16:14:25Z</time></trkpt>
    <trkpt lat="47.87525" lon="14.33461"><ele>674</ele><time>2022-06-11T16:14:44Z</time></trkpt>
    <trkpt lat="47.87521" lon="14.33438"><ele>668</ele><time>2022-06-11T16:15:36Z</time></trkpt>
    <trkpt lat="47.87517" lon="14.33417"><ele>666</ele><time>2022-06-11T16:16:21Z</time></trkpt>
    <trkpt lat="47.87506" lon="14.33422"><ele>660</ele><time>2022-06-11T16:16:39Z</time></trkpt>
    <trkpt lat="47.87490" lon="14.33422"><ele>649</ele><time>2022-06-11T16:17:38Z</time></trkpt>
    <trkpt lat="47.87475" lon="14.33465"><ele>637</ele><time>2022-06-11T16:19:38Z</time></trkpt>
    <trkpt lat="47.87467" lon="14.33486"><ele>635</ele><time>2022-06-11T16:19:57Z</time></trkpt>
    <trkpt lat="47.87463" lon="14.33509"><ele>637</ele><time>2022-06-11T16:20:15Z</time></trkpt>
    <trkpt lat="47.87453" lon="14.33530"><ele>634</ele><time>2022-06-11T16:20:33Z</time></trkpt>
    <trkpt lat="47.87441" lon="14.33555"><ele>628</ele><time>2022-06-11T16:20:52Z</time></trkpt>
    <trkpt lat="47.87422" lon="14.33584"><ele>627</ele><time>2022-06-11T16:21:11Z</time></trkpt>
    <trkpt lat="47.87404" lon="14.33614"><ele>626</ele><time>2022-06-11T16:21:30Z</time></trkpt>
    <trkpt lat="47.87381" lon="14.33631"><ele>620</ele><time>2022-06-11T16:21:48Z</time></trkpt>
    <trkpt lat="47.87366" lon="14.33628"><ele>623</ele><time>2022-06-11T16:22:06Z</time></trkpt>
    <trkpt lat="47.87342" lon="14.33612"><ele>620</ele><time>2022-06-11T16:22:24Z</time></trkpt>
    <trkpt lat="47.87329" lon="14.33589"><ele>615</ele><time>2022-06-11T16:22:42Z</time></trkpt>
    <trkpt lat="47.87315" lon="14.33562"><ele>617</ele><time>2022-06-11T16:23:01Z</time></trkpt>
    <trkpt lat="47.87303" lon="14.33545"><ele>610</ele><time>2022-06-11T16:23:56Z</time></trkpt>
    <trkpt lat="47.87287" lon="14.33549"><ele>602</ele><time>2022-06-11T16:24:37Z</time></trkpt>
    <trkpt lat="47.87270" lon="14.33538"><ele>594</ele><time>2022-06-11T16:25:19Z</time></trkpt>
    <trkpt lat="47.87265" lon="14.33519"><ele>592</ele><time>2022-06-11T16:25:38Z</time></trkpt>
    <trkpt lat="47.87254" lon="14.33514"><ele>587</ele><time>2022-06-11T16:25:57Z</time></trkpt>
    <trkpt lat="47.87248" lon="14.33529"><ele>581</ele><time>2022-06-11T16:26:16Z</time></trkpt>
    <trkpt lat="47.87240" lon="14.33517"><ele>582</ele><time>2022-06-11T16:26:34Z</time></trkpt>
    <trkpt lat="47.87234" lon="14.33505"><ele>578</ele><time>2022-06-11T16:26:53Z</time></trkpt>
    <trkpt lat="47.87231" lon="14.33486"><ele>570</ele><time>2022-06-11T16:27:11Z</time></trkpt>
    <trkpt lat="47.87234" lon="14.33459"><ele>566</ele><time>2022-06-11T16:27:30Z</time></trkpt>
    <trkpt lat="47.87236" lon="14.33440"><ele>562</ele><time>2022-06-11T16:27:48Z</time></trkpt>
    <trkpt lat="47.87239" lon="14.33403"><ele>551</ele><time>2022-06-11T16:28:26Z</time></trkpt>
    <trkpt lat="47.87234" lon="14.33386"><ele>547</ele><time>2022-06-11T16:28:45Z</time></trkpt>
    <trkpt lat="47.87227" lon="14.33364"><ele>544</ele><time>2022-06-11T16:29:04Z</time></trkpt>
    <trkpt lat="47.87224" lon="14.33347"><ele>536</ele><time>2022-06-11T16:29:22Z</time></trkpt>
    <trkpt lat="47.87225" lon="14.33327"><ele>528</ele><time>2022-06-11T16:29:41Z</time></trkpt>
    <trkpt lat="47.87215" lon="14.33320"><ele>523</ele><time>2022-06-11T16:29:59Z</time></trkpt>
    <trkpt lat="47.87214" lon="14.33303"><ele>520</ele><time>2022-06-11T16:30:17Z</time></trkpt>
    <trkpt lat="47.87212" lon="14.33281"><ele>519</ele><time>2022-06-11T16:30:36Z</time></trkpt>
    <trkpt lat="47.87202" lon="14.33243"><ele>522</ele><time>2022-06-11T16:31:14Z</time></trkpt>
    <trkpt lat="47.87200" lon="14.33223"><ele>517</ele><time>2022-06-11T16:31:33Z</time></trkpt>
    <trkpt lat="47.87194" lon="14.33208"><ele>509</ele><time>2022-06-11T16:31:51Z</time></trkpt>
    <trkpt lat="47.87187" lon="14.33193"><ele>504</ele><time>2022-06-11T16:32:09Z</time></trkpt>
    <trkpt lat="47.87177" lon="14.33174"><ele>489</ele><time>2022-06-11T16:32:48Z</time></trkpt>
    <trkpt lat="47.87197" lon="14.33145"><ele>486</ele><time>2022-06-11T16:33:56Z</time></trkpt>
    <trkpt lat="47.87214" lon="14.33135"><ele>480</ele><time>2022-06-11T16:34:14Z</time></trkpt>
    <trkpt lat="47.87234" lon="14.33131"><ele>476</ele><time>2022-06-11T16:34:32Z</time></trkpt>
    <trkpt lat="47.87258" lon="14.33128"><ele>476</ele><time>2022-06-11T16:34:51Z</time></trkpt>
    <trkpt lat="47.87284" lon="14.33114"><ele>476</ele><time>2022-06-11T16:35:09Z</time></trkpt>
    <trkpt lat="47.87305" lon="14.33095"><ele>478</ele><time>2022-06-11T16:35:28Z</time></trkpt>
    <trkpt lat="47.87304" lon="14.33071"><ele>472</ele><time>2022-06-11T16:37:47Z</time></trkpt>
  </trkseg>
</trk>
</gpx>