<?xml version="1.0" encoding="UTF-8"?>
<gpx version="1.1" creator="GPX-Pro" xmlns="http://www.topografix.com/GPX/1/1">
<trk>
  <name>Wartsteinwand-Scharnsteinpfeiler</name>
  <trkseg>
    <trkpt lat="47.66808" lon="12.80353"><ele>633</ele><time>2022-07-28T04:53:19Z</time></trkpt>
    <trkpt lat="47.66817" lon="12.80374"><ele>638</ele><time>2022-07-28T04:55:13Z</time></trkpt>
    <trkpt lat="47.66792" lon="12.80291"><ele>646</ele><time>2022-07-28T04:56:42Z</time></trkpt>
    <trkpt lat="47.66759" lon="12.80229"><ele>655</ele><time>2022-07-28T04:57:01Z</time></trkpt>
    <trkpt lat="47.66734" lon="12.80177"><ele>656</ele><time>2022-07-28T04:57:19Z</time></trkpt>
    <trkpt lat="47.66694" lon="12.80124"><ele>660</ele><time>2022-07-28T04:57:38Z</time></trkpt>
    <trkpt lat="47.66656" lon="12.80087"><ele>666</ele><time>2022-07-28T04:57:56Z</time></trkpt>
    <trkpt lat="47.66627" lon="12.80060"><ele>673</ele><time>2022-07-28T04:58:14Z</time></trkpt>
    <trkpt lat="47.66602" lon="12.80037"><ele>677</ele><time>2022-07-28T04:58:33Z</time></trkpt>
    <trkpt lat="47.66582" lon="12.80000"><ele>686</ele><time>2022-07-28T04:58:51Z</time></trkpt>
    <trkpt lat="47.66572" lon="12.79958"><ele>682</ele><time>2022-07-28T04:59:10Z</time></trkpt>
    <trkpt lat="47.66559" lon="12.79909"><ele>670</ele><time>2022-07-28T04:59:29Z</time></trkpt>
    <trkpt lat="47.66550" lon="12.79866"><ele>678</ele><time>2022-07-28T04:59:47Z</time></trkpt>
    <trkpt lat="47.66544" lon="12.79820"><ele>682</ele><time>2022-07-28T05:00:06Z</time></trkpt>
    <trkpt lat="47.66516" lon="12.79791"><ele>688</ele><time>2022-07-28T05:00:25Z</time></trkpt>
    <trkpt lat="47.66491" lon="12.79811"><ele>692</ele><time>2022-07-28T05:00:43Z</time></trkpt>
    <trkpt lat="47.66475" lon="12.79850"><ele>689</ele><time>2022-07-28T05:01:01Z</time></trkpt>
    <trkpt lat="47.66456" lon="12.79872"><ele>693</ele><time>2022-07-28T05:01:19Z</time></trkpt>
    <trkpt lat="47.66435" lon="12.79862"><ele>696</ele><time>2022-07-28T05:01:38Z</time></trkpt>
    <trkpt lat="47.66443" lon="12.79836"><ele>708</ele><time>2022-07-28T05:01:56Z</time></trkpt>
    <trkpt lat="47.66450" lon="12.79803"><ele>705</ele><time>2022-07-28T05:02:15Z</time></trkpt>
    <trkpt lat="47.66455" lon="12.79771"><ele>707</ele><time>2022-07-28T05:02:33Z</time></trkpt>
    <trkpt lat="47.66457" lon="12.79738"><ele>712</ele><time>2022-07-28T05:02:51Z</time></trkpt>
    <trkpt lat="47.66458" lon="12.79701"><ele>712</ele><time>2022-07-28T05:03:09Z</time></trkpt>
    <trkpt lat="47.66454" lon="12.79661"><ele>717</ele><time>2022-07-28T05:03:28Z</time></trkpt>
    <trkpt lat="47.66455" lon="12.79625"><ele>720</ele><time>2022-07-28T05:03:47Z</time></trkpt>
    <trkpt lat="47.66462" lon="12.79595"><ele>729</ele><time>2022-07-28T05:04:06Z</time></trkpt>
    <trkpt lat="47.66464" lon="12.79558"><ele>734</ele><time>2022-07-28T05:04:25Z</time></trkpt>
    <trkpt lat="47.66456" lon="12.79526"><ele>737</ele><time>2022-07-28T05:04:43Z</time></trkpt>
    <trkpt lat="47.66439" lon="12.79493"><ele>738</ele><time>2022-07-28T05:05:02Z</time></trkpt>
    <trkpt lat="47.66435" lon="12.79462"><ele>741</ele><time>2022-07-28T05:05:20Z</time></trkpt>
    <trkpt lat="47.66436" lon="12.79414"><ele>739</ele><time>2022-07-28T05:05:38Z</time></trkpt>
    <trkpt lat="47.66454" lon="12.79390"><ele>743</ele><time>2022-07-28T05:05:56Z</time></trkpt>
    <trkpt lat="47.66462" lon="12.79358"><ele>744</ele><time>2022-07-28T05:06:15Z</time></trkpt>
    <trkpt lat="47.66463" lon="12.79318"><ele>745</ele><time>2022-07-28T05:06:33Z</time></trkpt>
    <trkpt lat="47.66477" lon="12.79291"><ele>732</ele><time>2022-07-28T05:06:52Z</time></trkpt>
    <trkpt lat="47.66480" lon="12.79256"><ele>753</ele><time>2022-07-28T05:07:10Z</time></trkpt>
    <trkpt lat="47.66464" lon="12.79229"><ele>759</ele><time>2022-07-28T05:07:29Z</time></trkpt>
    <trkpt lat="47.66434" lon="12.79237"><ele>766</ele><time>2022-07-28T05:07:48Z</time></trkpt>
    <trkpt lat="47.66409" lon="12.79257"><ele>769</ele><time>2022-07-28T05:08:06Z</time></trkpt>
    <trkpt lat="47.66390" lon="12.79267"><ele>771</ele><time>2022-07-28T05:08:24Z</time></trkpt>
    <trkpt lat="47.66364" lon="12.79274"><ele>779</ele><time>2022-07-28T05:08:43Z</time></trkpt>
    <trkpt lat="47.66341" lon="12.79299"><ele>782</ele><time>2022-07-28T05:09:01Z</time></trkpt>
    <trkpt lat="47.66319" lon="12.79344"><ele>789</ele><time>2022-07-28T05:09:20Z</time></trkpt>
    <trkpt lat="47.66310" lon="12.79395"><ele>791</ele><time>2022-07-28T05:09:38Z</time></trkpt>
    <trkpt lat="47.66296" lon="12.79434"><ele>783</ele><time>2022-07-28T05:09:57Z</time></trkpt>
    <trkpt lat="47.66282" lon="12.79450"><ele>781</ele><time>2022-07-28T05:11:05Z</time></trkpt>
    <trkpt lat="47.66266" lon="12.79482"><ele>785</ele><time>2022-07-28T05:11:23Z</time></trkpt>
    <trkpt lat="47.66239" lon="12.79522"><ele>783</ele><time>2022-07-28T05:11:42Z</time></trkpt>
    <trkpt lat="47.66219" lon="12.79490"><ele>778</ele><time>2022-07-28T05:12:01Z</time></trkpt>
    <trkpt lat="47.66207" lon="12.79448"><ele>789</ele><time>2022-07-28T05:12:20Z</time></trkpt>
    <trkpt lat="47.66201" lon="12.79401"><ele>794</ele><time>2022-07-28T05:12:39Z</time></trkpt>
    <trkpt lat="47.66205" lon="12.79351"><ele>799</ele><time>2022-07-28T05:12:58Z</time></trkpt>
    <trkpt lat="47.66188" lon="12.79314"><ele>780</ele><time>2022-07-28T05:13:16Z</time></trkpt>
    <trkpt lat="47.66166" lon="12.79341"><ele>802</ele><time>2022-07-28T05:13:34Z</time></trkpt>
    <trkpt lat="47.66140" lon="12.79354"><ele>806</ele><time>2022-07-28T05:13:53Z</time></trkpt>
    <trkpt lat="47.66111" lon="12.79361"><ele>812</ele><time>2022-07-28T05:14:11Z</time></trkpt>
    <trkpt lat="47.66074" lon="12.79375"><ele>809</ele><time>2022-07-28T05:14:30Z</time></trkpt>
    <trkpt lat="47.66037" lon="12.79370"><ele>813</ele><time>2022-07-28T05:14:49Z</time></trkpt>
    <trkpt lat="47.66000" lon="12.79362"><ele>813</ele><time>2022-07-28T05:15:08Z</time></trkpt>
    <trkpt lat="47.65983" lon="12.79299"><ele>809</ele><time>2022-07-28T05:15:27Z</time></trkpt>
    <trkpt lat="47.65995" lon="12.79267"><ele>811</ele><time>2022-07-28T05:15:45Z</time></trkpt>
    <trkpt lat="47.65995" lon="12.79228"><ele>816</ele><time>2022-07-28T05:16:04Z</time></trkpt>
    <trkpt lat="47.66001" lon="12.79195"><ele>759</ele><time>2022-07-28T05:16:22Z</time></trkpt>
    <trkpt lat="47.66016" lon="12.79169"><ele>821</ele><time>2022-07-28T05:16:41Z</time></trkpt>
    <trkpt lat="47.66029" lon="12.79145"><ele>829</ele><time>2022-07-28T05:17:00Z</time></trkpt>
    <trkpt lat="47.66036" lon="12.79116"><ele>828</ele><time>2022-07-28T05:17:19Z</time></trkpt>
    <trkpt lat="47.66030" lon="12.79079"><ele>831</ele><time>2022-07-28T05:17:38Z</time></trkpt>
    <trkpt lat="47.66044" lon="12.79044"><ele>830</ele><time>2022-07-28T05:17:57Z</time></trkpt>
    <trkpt lat="47.66068" lon="12.79035"><ele>837</ele><time>2022-07-28T05:18:15Z</time></trkpt>
    <trkpt lat="47.66080" lon="12.79007"><ele>840</ele><time>2022-07-28T05:18:34Z</time></trkpt>
    <trkpt lat="47.66087" lon="12.78975"><ele>842</ele><time>2022-07-28T05:18:52Z</time></trkpt>
    <trkpt lat="47.66060" lon="12.78954"><ele>819</ele><time>2022-07-28T05:19:11Z</time></trkpt>
    <trkpt lat="47.66019" lon="12.78954"><ele>844</ele><time>2022-07-28T05:19:29Z</time></trkpt>
    <trkpt lat="47.65998" lon="12.78968"><ele>853</ele><time>2022-07-28T05:19:47Z</time></trkpt>
    <trkpt lat="47.65975" lon="12.78985"><ele>853</ele><time>2022-07-28T05:20:05Z</time></trkpt>
    <trkpt lat="47.65959" lon="12.79009"><ele>854</ele><time>2022-07-28T05:20:24Z</time></trkpt>
    <trkpt lat="47.65940" lon="12.79028"><ele>866</ele><time>2022-07-28T05:20:42Z</time></trkpt>
    <trkpt lat="47.65914" lon="12.79056"><ele>839</ele><time>2022-07-28T05:21:00Z</time></trkpt>
    <trkpt lat="47.65892" lon="12.79076"><ele>874</ele><time>2022-07-28T05:21:19Z</time></trkpt>
    <trkpt lat="47.65873" lon="12.79080"><ele>877</ele><time>2022-07-28T05:21:37Z</time></trkpt>
    <trkpt lat="47.65856" lon="12.79079"><ele>885</ele><time>2022-07-28T05:21:56Z</time></trkpt>
    <trkpt lat="47.65845" lon="12.79083"><ele>886</ele><time>2022-07-28T05:22:14Z</time></trkpt>
    <trkpt lat="47.65830" lon="12.79082"><ele>890</ele><time>2022-07-28T05:22:32Z</time></trkpt>
    <trkpt lat="47.65815" lon="12.79084"><ele>892</ele><time>2022-07-28T05:22:50Z</time></trkpt>
    <trkpt lat="47.65802" lon="12.79095"><ele>892</ele><time>2022-07-28T05:23:09Z</time></trkpt>
    <trkpt lat="47.65787" lon="12.79098"><ele>894</ele><time>2022-07-28T05:23:27Z</time></trkpt>
    <trkpt lat="47.65773" lon="12.79096"><ele>900</ele><time>2022-07-28T05:23:46Z</time></trkpt>
    <trkpt lat="47.65758" lon="12.79102"><ele>901</ele><time>2022-07-28T05:24:05Z</time></trkpt>
    <trkpt lat="47.65743" lon="12.79109"><ele>901</ele><time>2022-07-28T05:24:23Z</time></trkpt>
    <trkpt lat="47.65730" lon="12.79114"><ele>905</ele><time>2022-07-28T05:24:42Z</time></trkpt>
    <trkpt lat="47.65716" lon="12.79127"><ele>909</ele><time>2022-07-28T05:25:00Z</time></trkpt>
    <trkpt lat="47.65704" lon="12.79136"><ele>914</ele><time>2022-07-28T05:25:19Z</time></trkpt>
    <trkpt lat="47.65691" lon="12.79137"><ele>914</ele><time>2022-07-28T05:25:38Z</time></trkpt>
    <trkpt lat="47.65679" lon="12.79139"><ele>916</ele><time>2022-07-28T05:25:56Z</time></trkpt>
    <trkpt lat="47.65658" lon="12.79123"><ele>928</ele><time>2022-07-28T05:26:40Z</time></trkpt>
    <trkpt lat="47.65642" lon="12.79122"><ele>935</ele><time>2022-07-28T05:26:59Z</time></trkpt>
    <trkpt lat="47.65628" lon="12.79130"><ele>939</ele><time>2022-07-28T05:27:17Z</time></trkpt>
    <trkpt lat="47.65614" lon="12.79139"><ele>937</ele><time>2022-07-28T05:27:35Z</time></trkpt>
    <trkpt lat="47.65597" lon="12.79144"><ele>938</ele><time>2022-07-28T05:27:54Z</time></trkpt>
    <trkpt lat="47.65584" lon="12.79134"><ele>940</ele><time>2022-07-28T05:28:12Z</time></trkpt>
    <trkpt lat="47.65571" lon="12.79127"><ele>942</ele><time>2022-07-28T05:28:31Z</time></trkpt>
    <trkpt lat="47.65546" lon="12.79129"><ele>941</ele><time>2022-07-28T05:28:49Z</time></trkpt>
    <trkpt lat="47.65502" lon="12.79138"><ele>944</ele><time>2022-07-28T05:29:07Z</time></trkpt>
    <trkpt lat="47.65440" lon="12.79134"><ele>937</ele><time>2022-07-28T05:29:25Z</time></trkpt>
    <trkpt lat="47.65427" lon="12.79062"><ele>939</ele><time>2022-07-28T05:29:44Z</time></trkpt>
    <trkpt lat="47.65416" lon="12.79018"><ele>944</ele><time>2022-07-28T05:30:03Z</time></trkpt>
    <trkpt lat="47.65390" lon="12.79024"><ele>950</ele><time>2022-07-28T05:30:21Z</time></trkpt>
    <trkpt lat="47.65366" lon="12.79031"><ele>950</ele><time>2022-07-28T05:30:39Z</time></trkpt>
    <trkpt lat="47.65337" lon="12.79040"><ele>952</ele><time>2022-07-28T05:30:58Z</time></trkpt>
    <trkpt lat="47.65309" lon="12.79037"><ele>955</ele><time>2022-07-28T05:31:16Z</time></trkpt>
    <trkpt lat="47.65284" lon="12.79038"><ele>959</ele><time>2022-07-28T05:31:35Z</time></trkpt>
    <trkpt lat="47.65262" lon="12.79046"><ele>961</ele><time>2022-07-28T05:31:53Z</time></trkpt>
    <trkpt lat="47.65239" lon="12.79042"><ele>968</ele><time>2022-07-28T05:32:12Z</time></trkpt>
    <trkpt lat="47.65207" lon="12.79041"><ele>970</ele><time>2022-07-28T05:32:31Z</time></trkpt>
    <trkpt lat="47.65178" lon="12.79046"><ele>972</ele><time>2022-07-28T05:32:49Z</time></trkpt>
    <trkpt lat="47.65151" lon="12.79044"><ele>976</ele><time>2022-07-28T05:33:07Z</time></trkpt>
    <trkpt lat="47.65129" lon="12.79028"><ele>979</ele><time>2022-07-28T05:33:26Z</time></trkpt>
    <trkpt lat="47.65107" lon="12.79033"><ele>987</ele><time>2022-07-28T05:33:44Z</time></trkpt>
    <trkpt lat="47.65081" lon="12.79045"><ele>989</ele><time>2022-07-28T05:34:03Z</time></trkpt>
    <trkpt lat="47.65057" lon="12.79043"><ele>992</ele><time>2022-07-28T05:34:21Z</time></trkpt>
    <trkpt lat="47.65072" lon="12.79069"><ele>995</ele><time>2022-07-28T05:34:39Z</time></trkpt>
    <trkpt lat="47.65085" lon="12.79082"><ele>999</ele><time>2022-07-28T05:34:58Z</time></trkpt>
    <trkpt lat="47.65098" lon="12.79096"><ele>1004</ele><time>2022-07-28T05:35:17Z</time></trkpt>
    <trkpt lat="47.65112" lon="12.79110"><ele>1002</ele><time>2022-07-28T05:35:35Z</time></trkpt>
    <trkpt lat="47.65103" lon="12.79121"><ele>1001</ele><time>2022-07-28T05:36:31Z</time></trkpt>
    <trkpt lat="47.65088" lon="12.79124"><ele>1000</ele><time>2022-07-28T05:36:49Z</time></trkpt>
    <trkpt lat="47.65075" lon="12.79129"><ele>1001</ele><time>2022-07-28T05:37:08Z</time></trkpt>
    <trkpt lat="47.65052" lon="12.79134"><ele>1005</ele><time>2022-07-28T05:37:27Z</time></trkpt>
    <trkpt lat="47.65028" lon="12.79126"><ele>1008</ele><time>2022-07-28T05:37:46Z</time></trkpt>
    <trkpt lat="47.65007" lon="12.79142"><ele>1010</ele><time>2022-07-28T05:38:04Z</time></trkpt>
    <trkpt lat="47.64988" lon="12.79153"><ele>1018</ele><time>2022-07-28T05:38:22Z</time></trkpt>
    <trkpt lat="47.64963" lon="12.79155"><ele>1023</ele><time>2022-07-28T05:38:41Z</time></trkpt>
    <trkpt lat="47.64941" lon="12.79125"><ele>1030</ele><time>2022-07-28T05:38:59Z</time></trkpt>
    <trkpt lat="47.64919" lon="12.79128"><ele>1026</ele><time>2022-07-28T05:39:18Z</time></trkpt>
    <trkpt lat="47.64916" lon="12.79143"><ele>1029</ele><time>2022-07-28T05:39:36Z</time></trkpt>
    <trkpt lat="47.64911" lon="12.79159"><ele>1035</ele><time>2022-07-28T05:39:55Z</time></trkpt>
    <trkpt lat="47.64895" lon="12.79146"><ele>1037</ele><time>2022-07-28T05:40:44Z</time></trkpt>
    <trkpt lat="47.64907" lon="12.79171"><ele>1028</ele><time>2022-07-28T05:43:32Z</time></trkpt>
    <trkpt lat="47.64904" lon="12.79185"><ele>1039</ele><time>2022-07-28T05:43:50Z</time></trkpt>
    <trkpt lat="47.64892" lon="12.79186"><ele>1047</ele><time>2022-07-28T05:44:09Z</time></trkpt>
    <trkpt lat="47.64879" lon="12.79186"><ele>1038</ele><time>2022-07-28T05:44:27Z</time></trkpt>
    <trkpt lat="47.64873" lon="12.79197"><ele>1052</ele><time>2022-07-28T05:44:45Z</time></trkpt>
    <trkpt lat="47.64865" lon="12.79221"><ele>1056</ele><time>2022-07-28T05:45:23Z</time></trkpt>
    <trkpt lat="47.64857" lon="12.79242"><ele>1056</ele><time>2022-07-28T05:46:08Z</time></trkpt>
    <trkpt lat="47.64841" lon="12.79251"><ele>1056</ele><time>2022-07-28T05:46:45Z</time></trkpt>
    <trkpt lat="47.64844" lon="12.79270"><ele>1033</ele><time>2022-07-28T05:47:03Z</time></trkpt>
    <trkpt lat="47.64842" lon="12.79290"><ele>1076</ele><time>2022-07-28T05:47:22Z</time></trkpt>
    <trkpt lat="47.64839" lon="12.79314"><ele>1073</ele><time>2022-07-28T05:48:01Z</time></trkpt>
    <trkpt lat="47.64834" lon="12.79339"><ele>1081</ele><time>2022-07-28T05:48:46Z</time></trkpt>
    <trkpt lat="47.64827" lon="12.79362"><ele>1101</ele><time>2022-07-28T05:49:57Z</time></trkpt>
    <trkpt lat="47.64823" lon="12.79386"><ele>1107</ele><time>2022-07-28T05:50:44Z</time></trkpt>
    <trkpt lat="47.64823" lon="12.79410"><ele>1112</ele><time>2022-07-28T05:51:28Z</time></trkpt>
    <trkpt lat="47.64826" lon="12.79431"><ele>1118</ele><time>2022-07-28T05:52:13Z</time></trkpt>
    <trkpt lat="47.64827" lon="12.79456"><ele>1130</ele><time>2022-07-28T05:53:18Z</time></trkpt>
    <trkpt lat="47.64833" lon="12.79477"><ele>1129</ele><time>2022-07-28T05:54:16Z</time></trkpt>
    <trkpt lat="47.64846" lon="12.79487"><ele>1142</ele><time>2022-07-28T05:55:02Z</time></trkpt>
    <trkpt lat="47.64840" lon="12.79511"><ele>1148</ele><time>2022-07-28T05:56:11Z</time></trkpt>
    <trkpt lat="47.64817" lon="12.79518"><ele>1155</ele><time>2022-07-28T05:57:04Z</time></trkpt>
    <trkpt lat="47.64802" lon="12.79507"><ele>1160</ele><time>2022-07-28T05:57:22Z</time></trkpt>
    <trkpt lat="47.64790" lon="12.79513"><ele>1165</ele><time>2022-07-28T05:57:40Z</time></trkpt>
    <trkpt lat="47.64778" lon="12.79514"><ele>1173</ele><time>2022-07-28T05:57:58Z</time></trkpt>
    <trkpt lat="47.64768" lon="12.79511"><ele>1178</ele><time>2022-07-28T05:58:17Z</time></trkpt>
    <trkpt lat="47.64752" lon="12.79503"><ele>1182</ele><time>2022-07-28T05:58:54Z</time></trkpt>
    <trkpt lat="47.64744" lon="12.79494"><ele>1179</ele><time>2022-07-28T05:59:12Z</time></trkpt>
    <trkpt lat="47.64743" lon="12.79508"><ele>1181</ele><time>2022-07-28T05:59:31Z</time></trkpt>
    <trkpt lat="47.64737" lon="12.79519"><ele>1188</ele><time>2022-07-28T05:59:49Z</time></trkpt>
    <trkpt lat="47.64729" lon="12.79529"><ele>1190</ele><time>2022-07-28T06:00:40Z</time></trkpt>
    <trkpt lat="47.64717" lon="12.79509"><ele>1198</ele><time>2022-07-28T06:01:17Z</time></trkpt>
    <trkpt lat="47.64709" lon="12.79501"><ele>1198</ele><time>2022-07-28T06:01:35Z</time></trkpt>
    <trkpt lat="47.64701" lon="12.79495"><ele>1207</ele><time>2022-07-28T06:01:54Z</time></trkpt>
    <trkpt lat="47.64689" lon="12.79517"><ele>1208</ele><time>2022-07-28T06:02:33Z</time></trkpt>
    <trkpt lat="47.64690" lon="12.79543"><ele>1212</ele><time>2022-07-28T06:03:12Z</time></trkpt>
    <trkpt lat="47.64698" lon="12.79555"><ele>1221</ele><time>2022-07-28T06:03:30Z</time></trkpt>
    <trkpt lat="47.64704" lon="12.79568"><ele>1230</ele><time>2022-07-28T06:03:49Z</time></trkpt>
    <trkpt lat="47.64690" lon="12.79548"><ele>1233</ele><time>2022-07-28T06:04:30Z</time></trkpt>
    <trkpt lat="47.64683" lon="12.79539"><ele>1242</ele><time>2022-07-28T06:04:49Z</time></trkpt>
    <trkpt lat="47.64673" lon="12.79538"><ele>1245</ele><time>2022-07-28T06:05:07Z</time></trkpt>
    <trkpt lat="47.64664" lon="12.79533"><ele>1247</ele><time>2022-07-28T06:05:26Z</time></trkpt>
    <trkpt lat="47.64648" lon="12.79538"><ele>1253</ele><time>2022-07-28T06:06:03Z</time></trkpt>
    <trkpt lat="47.64635" lon="12.79557"><ele>1255</ele><time>2022-07-28T06:06:47Z</time></trkpt>
    <trkpt lat="47.64627" lon="12.79566"><ele>1255</ele><time>2022-07-28T06:07:05Z</time></trkpt>
    <trkpt lat="47.64621" lon="12.79577"><ele>1250</ele><time>2022-07-28T06:07:24Z</time></trkpt>
    <trkpt lat="47.64611" lon="12.79590"><ele>1252</ele><time>2022-07-28T06:07:43Z</time></trkpt>
    <trkpt lat="47.64620" lon="12.79598"><ele>1251</ele><time>2022-07-28T06:08:02Z</time></trkpt>
    <trkpt lat="47.64615" lon="12.79616"><ele>1254</ele><time>2022-07-28T06:08:48Z</time></trkpt>
    <trkpt lat="47.64598" lon="12.79626"><ele>1263</ele><time>2022-07-28T06:09:38Z</time></trkpt>
    <trkpt lat="47.64604" lon="12.79638"><ele>1264</ele><time>2022-07-28T06:09:57Z</time></trkpt>
    <trkpt lat="47.64594" lon="12.79645"><ele>1271</ele><time>2022-07-28T06:10:15Z</time></trkpt>
    <trkpt lat="47.64590" lon="12.79667"><ele>1271</ele><time>2022-07-28T06:11:13Z</time></trkpt>
    <trkpt lat="47.64584" lon="12.79689"><ele>1275</ele><time>2022-07-28T06:12:05Z</time></trkpt>
    <trkpt lat="47.64603" lon="12.79689"><ele>1278</ele><time>2022-07-28T06:12:44Z</time></trkpt>
    <trkpt lat="47.64615" lon="12.79697"><ele>1279</ele><time>2022-07-28T06:13:23Z</time></trkpt>
    <trkpt lat="47.64628" lon="12.79708"><ele>1257</ele><time>2022-07-28T06:14:46Z</time></trkpt>
    <trkpt lat="47.64636" lon="12.79729"><ele>1269</ele><time>2022-07-28T06:15:39Z</time></trkpt>
    <trkpt lat="47.64642" lon="12.79739"><ele>1271</ele><time>2022-07-28T06:15:58Z</time></trkpt>
    <trkpt lat="47.64632" lon="12.79750"><ele>1307</ele><time>2022-07-28T06:18:59Z</time></trkpt>
    <trkpt lat="47.64634" lon="12.79773"><ele>1325</ele><time>2022-07-28T06:20:40Z</time></trkpt>
    <trkpt lat="47.64634" lon="12.79797"><ele>1336</ele><time>2022-07-28T06:22:04Z</time></trkpt>
    <trkpt lat="47.64635" lon="12.79821"><ele>1348</ele><time>2022-07-28T06:23:59Z</time></trkpt>
    <trkpt lat="47.64630" lon="12.79842"><ele>1347</ele><time>2022-07-28T06:24:44Z</time></trkpt>
    <trkpt lat="47.64634" lon="12.79860"><ele>1379</ele><time>2022-07-28T06:27:30Z</time></trkpt>
    <trkpt lat="47.64636" lon="12.79882"><ele>1393</ele><time>2022-07-28T06:29:14Z</time></trkpt>
    <trkpt lat="47.64645" lon="12.79897"><ele>1391</ele><time>2022-07-28T06:29:33Z</time></trkpt>
    <trkpt lat="47.64655" lon="12.79899"><ele>1385</ele><time>2022-07-28T06:29:52Z</time></trkpt>
    <trkpt lat="47.64678" lon="12.79901"><ele>1391</ele><time>2022-07-28T06:30:34Z</time></trkpt>
    <trkpt lat="47.64691" lon="12.79898"><ele>1395</ele><time>2022-07-28T06:30:53Z</time></trkpt>
    <trkpt lat="47.64703" lon="12.79893"><ele>1396</ele><time>2022-07-28T06:31:12Z</time></trkpt>
    <trkpt lat="47.64711" lon="12.79881"><ele>1401</ele><time>2022-07-28T06:31:31Z</time></trkpt>
    <trkpt lat="47.64721" lon="12.79887"><ele>1396</ele><time>2022-07-28T06:31:49Z</time></trkpt>
    <trkpt lat="47.64740" lon="12.79892"><ele>1392</ele><time>2022-07-28T06:32:33Z</time></trkpt>
    <trkpt lat="47.64752" lon="12.79885"><ele>1390</ele><time>2022-07-28T06:35:36Z</time></trkpt>
    <trkpt lat="47.64736" lon="12.79872"><ele>1404</ele><time>2022-07-28T06:36:58Z</time></trkpt>
    <trkpt lat="47.64737" lon="12.79886"><ele>1400</ele><time>2022-07-28T06:37:16Z</time></trkpt>
    <trkpt lat="47.64751" lon="12.79899"><ele>1415</ele><time>2022-07-28T06:40:20Z</time></trkpt>
    <trkpt lat="47.64753" lon="12.79921"><ele>1439</ele><time>2022-07-28T06:44:48Z</time></trkpt>
    <trkpt lat="47.64754" lon="12.79946"><ele>1452</ele><time>2022-07-28T06:48:14Z</time></trkpt>
    <trkpt lat="47.64741" lon="12.79948"><ele>1474</ele><time>2022-07-28T06:51:43Z</time></trkpt>
    <trkpt lat="47.64730" lon="12.79965"><ele>1494</ele><time>2022-07-28T06:55:32Z</time></trkpt>
    <trkpt lat="47.64717" lon="12.79962"><ele>1503</ele><time>2022-07-28T06:57:46Z</time></trkpt>
    <trkpt lat="47.64701" lon="12.79955"><ele>1518</ele><time>2022-07-28T07:00:31Z</time></trkpt>
    <trkpt lat="47.64700" lon="12.79975"><ele>1637</ele><time>2022-07-28T08:50:23Z</time></trkpt>
    <trkpt lat="47.64705" lon="12.79998"><ele>1691</ele><time>2022-07-28T10:07:26Z</time></trkpt>
    <trkpt lat="47.64704" lon="12.80022"><ele>1717</ele><time>2022-07-28T10:45:08Z</time></trkpt>
    <trkpt lat="47.64699" lon="12.80045"><ele>1671</ele><time>2022-07-28T10:47:37Z</time></trkpt>
    <trkpt lat="47.64699" lon="12.80069"><ele>1730</ele><time>2022-07-28T10:48:42Z</time></trkpt>
    <trkpt lat="47.64692" lon="12.80092"><ele>1732</ele><time>2022-07-28T10:49:51Z</time></trkpt>
    <trkpt lat="47.64674" lon="12.80108"><ele>1728</ele><time>2022-07-28T10:50:35Z</time></trkpt>
    <trkpt lat="47.64667" lon="12.80118"><ele>1727</ele><time>2022-07-28T10:50:54Z</time></trkpt>
    <trkpt lat="47.64653" lon="12.80123"><ele>1727</ele><time>2022-07-28T10:51:12Z</time></trkpt>
    <trkpt lat="47.64642" lon="12.80127"><ele>1727</ele><time>2022-07-28T10:51:30Z</time></trkpt>
    <trkpt lat="47.64629" lon="12.80133"><ele>1725</ele><time>2022-07-28T10:51:48Z</time></trkpt>
    <trkpt lat="47.64614" lon="12.80151"><ele>1721</ele><time>2022-07-28T10:52:33Z</time></trkpt>
    <trkpt lat="47.64617" lon="12.80169"><ele>1718</ele><time>2022-07-28T10:52:51Z</time></trkpt>
    <trkpt lat="47.64614" lon="12.80191"><ele>1718</ele><time>2022-07-28T10:53:10Z</time></trkpt>
    <trkpt lat="47.64612" lon="12.80213"><ele>1716</ele><time>2022-07-28T10:53:28Z</time></trkpt>
    <trkpt lat="47.64620" lon="12.80220"><ele>1716</ele><time>2022-07-28T10:53:54Z</time></trkpt>
    <trkpt lat="47.64635" lon="12.80230"><ele>1715</ele><time>2022-07-28T10:54:13Z</time></trkpt>
    <trkpt lat="47.64644" lon="12.80245"><ele>1715</ele><time>2022-07-28T10:54:32Z</time></trkpt>
    <trkpt lat="47.64648" lon="12.80261"><ele>1715</ele><time>2022-07-28T10:54:51Z</time></trkpt>
    <trkpt lat="47.64645" lon="12.80291"><ele>1716</ele><time>2022-07-28T10:55:38Z</time></trkpt>
    <trkpt lat="47.64639" lon="12.80308"><ele>1717</ele><time>2022-07-28T10:55:56Z</time></trkpt>
    <trkpt lat="47.64640" lon="12.80327"><ele>1709</ele><time>2022-07-28T10:57:54Z</time></trkpt>
    <trkpt lat="47.64635" lon="12.80342"><ele>1702</ele><time>2022-07-28T10:58:12Z</time></trkpt>
    <trkpt lat="47.64626" lon="12.80357"><ele>1695</ele><time>2022-07-28T10:58:31Z</time></trkpt>
    <trkpt lat="47.64614" lon="12.80362"><ele>1694</ele><time>2022-07-28T10:58:49Z</time></trkpt>
    <trkpt lat="47.64602" lon="12.80374"><ele>1693</ele><time>2022-07-28T10:59:08Z</time></trkpt>
    <trkpt lat="47.64593" lon="12.80379"><ele>1690</ele><time>2022-07-28T10:59:26Z</time></trkpt>
    <trkpt lat="47.64581" lon="12.80381"><ele>1689</ele><time>2022-07-28T10:59:45Z</time></trkpt>
    <trkpt lat="47.64571" lon="12.80390"><ele>1687</ele><time>2022-07-28T11:00:03Z</time></trkpt>
    <trkpt lat="47.64560" lon="12.80400"><ele>1685</ele><time>2022-07-28T11:00:21Z</time></trkpt>
    <trkpt lat="47.64550" lon="12.80404"><ele>1682</ele><time>2022-07-28T11:00:39Z</time></trkpt>
    <trkpt lat="47.64536" lon="12.80409"><ele>1681</ele><time>2022-07-28T11:00:58Z</time></trkpt>
    <trkpt lat="47.64524" lon="12.80408"><ele>1681</ele><time>2022-07-28T11:01:17Z</time></trkpt>
    <trkpt lat="47.64517" lon="12.80423"><ele>1677</ele><time>2022-07-28T11:01:35Z</time></trkpt>
    <trkpt lat="47.64505" lon="12.80428"><ele>1672</ele><time>2022-07-28T11:01:54Z</time></trkpt>
    <trkpt lat="47.64493" lon="12.80433"><ele>1669</ele><time>2022-07-28T11:02:12Z</time></trkpt>
    <trkpt lat="47.64481" lon="12.80430"><ele>1671</ele><time>2022-07-28T11:02:30Z</time></trkpt>
    <trkpt lat="47.64469" lon="12.80424"><ele>1667</ele><time>2022-07-28T11:02:48Z</time></trkpt>
    <trkpt lat="47.64457" lon="12.80420"><ele>1655</ele><time>2022-07-28T11:03:07Z</time></trkpt>
    <trkpt lat="47.64443" lon="12.80414"><ele>1655</ele><time>2022-07-28T11:03:26Z</time></trkpt>
    <trkpt lat="47.64437" lon="12.80403"><ele>1659</ele><time>2022-07-28T11:03:44Z</time></trkpt>
    <trkpt lat="47.64427" lon="12.80391"><ele>1657</ele><time>2022-07-28T11:04:03Z</time></trkpt>
    <trkpt lat="47.64413" lon="12.80376"><ele>1661</ele><time>2022-07-28T11:04:22Z</time></trkpt>
    <trkpt lat="47.64406" lon="12.80367"><ele>1659</ele><time>2022-07-28T11:04:40Z</time></trkpt>
    <trkpt lat="47.64397" lon="12.80358"><ele>1654</ele><time>2022-07-28T11:04:59Z</time></trkpt>
    <trkpt lat="47.64384" lon="12.80346"><ele>1648</ele><time>2022-07-28T11:05:18Z</time></trkpt>
    <trkpt lat="47.64375" lon="12.80337"><ele>1644</ele><time>2022-07-28T11:05:36Z</time></trkpt>
    <trkpt lat="47.64362" lon="12.80327"><ele>1639</ele><time>2022-07-28T11:05:54Z</time></trkpt>
    <trkpt lat="47.64355" lon="12.80318"><ele>1633</ele><time>2022-07-28T11:06:13Z</time></trkpt>
    <trkpt lat="47.64336" lon="12.80317"><ele>1624</ele><time>2022-07-28T11:06:53Z</time></trkpt>
    <trkpt lat="47.64333" lon="12.80280"><ele>1620</ele><time>2022-07-28T11:07:32Z</time></trkpt>
    <trkpt lat="47.64335" lon="12.80251"><ele>1630</ele><time>2022-07-28T11:07:51Z</time></trkpt>
    <trkpt lat="47.64339" lon="12.80220"><ele>1633</ele><time>2022-07-28T11:08:09Z</time></trkpt>
    <trkpt lat="47.64336" lon="12.80195"><ele>1582</ele><time>2022-07-28T11:08:27Z</time></trkpt>
    <trkpt lat="47.64334" lon="12.80169"><ele>1617</ele><time>2022-07-28T11:08:46Z</time></trkpt>
    <trkpt lat="47.64316" lon="12.80154"><ele>1597</ele><time>2022-07-28T11:09:04Z</time></trkpt>
    <trkpt lat="47.64303" lon="12.80134"><ele>1616</ele><time>2022-07-28T11:09:23Z</time></trkpt>
    <trkpt lat="47.64285" lon="12.80118"><ele>1566</ele><time>2022-07-28T11:09:41Z</time></trkpt>
    <trkpt lat="47.64272" lon="12.80097"><ele>1614</ele><time>2022-07-28T11:10:00Z</time></trkpt>
    <trkpt lat="47.64262" lon="12.80071"><ele>1613</ele><time>2022-07-28T11:10:18Z</time></trkpt>
    <trkpt lat="47.64268" lon="12.80054"><ele>1615</ele><time>2022-07-28T11:10:37Z</time></trkpt>
    <trkpt lat="47.64284" lon="12.80052"><ele>1612</ele><time>2022-07-28T11:12:00Z</time></trkpt>
    <trkpt lat="47.64301" lon="12.80035"><ele>1609</ele><time>2022-07-28T11:18:34Z</time></trkpt>
    <trkpt lat="47.64312" lon="12.80038"><ele>1609</ele><time>2022-07-28T11:18:53Z</time></trkpt>
    <trkpt lat="47.64319" lon="12.80017"><ele>1598</ele><time>2022-07-28T11:19:11Z</time></trkpt>
    <trkpt lat="47.64326" lon="12.80002"><ele>1596</ele><time>2022-07-28T11:19:29Z</time></trkpt>
    <trkpt lat="47.64340" lon="12.79996"><ele>1592</ele><time>2022-07-28T11:19:48Z</time></trkpt>
    <trkpt lat="47.64346" lon="12.79977"><ele>1584</ele><time>2022-07-28T11:20:06Z</time></trkpt>
    <trkpt lat="47.64347" lon="12.79959"><ele>1590</ele><time>2022-07-28T11:20:24Z</time></trkpt>
    <trkpt lat="47.64336" lon="12.79972"><ele>1593</ele><time>2022-07-28T11:20:42Z</time></trkpt>
    <trkpt lat="47.64317" lon="12.79977"><ele>1577</ele><time>2022-07-28T11:21:01Z</time></trkpt>
    <trkpt lat="47.64306" lon="12.79994"><ele>1586</ele><time>2022-07-28T11:21:19Z</time></trkpt>
    <trkpt lat="47.64297" lon="12.80004"><ele>1574</ele><time>2022-07-28T11:21:37Z</time></trkpt>
    <trkpt lat="47.64304" lon="12.79982"><ele>1563</ele><time>2022-07-28T11:22:35Z</time></trkpt>
    <trkpt lat="47.64290" lon="12.79986"><ele>1558</ele><time>2022-07-28T11:22:53Z</time></trkpt>
    <trkpt lat="47.64280" lon="12.79976"><ele>1553</ele><time>2022-07-28T11:23:12Z</time></trkpt>
    <trkpt lat="47.64274" lon="12.79964"><ele>1551</ele><time>2022-07-28T11:23:30Z</time></trkpt>
    <trkpt lat="47.64266" lon="12.79952"><ele>1547</ele><time>2022-07-28T11:23:49Z</time></trkpt>
    <trkpt lat="47.64255" lon="12.79936"><ele>1546</ele><time>2022-07-28T11:24:08Z</time></trkpt>
    <trkpt lat="47.64241" lon="12.79930"><ele>1546</ele><time>2022-07-28T11:24:26Z</time></trkpt>
    <trkpt lat="47.64229" lon="12.79940"><ele>1540</ele><time>2022-07-28T11:24:45Z</time></trkpt>
    <trkpt lat="47.64215" lon="12.79928"><ele>1544</ele><time>2022-07-28T11:25:04Z</time></trkpt>
    <trkpt lat="47.64200" lon="12.79919"><ele>1535</ele><time>2022-07-28T11:27:25Z</time></trkpt>
    <trkpt lat="47.64192" lon="12.79900"><ele>1536</ele><time>2022-07-28T11:28:40Z</time></trkpt>
    <trkpt lat="47.64195" lon="12.79881"><ele>1543</ele><time>2022-07-28T11:28:58Z</time></trkpt>
    <trkpt lat="47.64190" lon="12.79857"><ele>1548</ele><time>2022-07-28T11:29:16Z</time></trkpt>
    <trkpt lat="47.64195" lon="12.79833"><ele>1554</ele><time>2022-07-28T11:29:35Z</time></trkpt>
    <trkpt lat="47.64184" lon="12.79819"><ele>1539</ele><time>2022-07-28T11:30:14Z</time></trkpt>
    <trkpt lat="47.64188" lon="12.79807"><ele>1534</ele><time>2022-07-28T11:30:32Z</time></trkpt>
    <trkpt lat="47.64190" lon="12.79791"><ele>1542</ele><time>2022-07-28T11:30:51Z</time></trkpt>
    <trkpt lat="47.64180" lon="12.79762"><ele>1511</ele><time>2022-07-28T11:31:40Z</time></trkpt>
    <trkpt lat="47.64183" lon="12.79741"><ele>1520</ele><time>2022-07-28T11:31:58Z</time></trkpt>
    <trkpt lat="47.64191" lon="12.79728"><ele>1520</ele><time>2022-07-28T11:32:17Z</time></trkpt>
    <trkpt lat="47.64188" lon="12.79713"><ele>1508</ele><time>2022-07-28T11:32:35Z</time></trkpt>
    <trkpt lat="47.64199" lon="12.79717"><ele>1511</ele><time>2022-07-28T11:32:54Z</time></trkpt>
    <trkpt lat="47.64206" lon="12.79743"><ele>1506</ele><time>2022-07-28T11:34:08Z</time></trkpt>
    <trkpt lat="47.64219" lon="12.79735"><ele>1511</ele><time>2022-07-28T11:34:26Z</time></trkpt>
    <trkpt lat="47.64223" lon="12.79723"><ele>1501</ele><time>2022-07-28T11:34:45Z</time></trkpt>
    <trkpt lat="47.64222" lon="12.79709"><ele>1496</ele><time>2022-07-28T11:35:04Z</time></trkpt>
    <trkpt lat="47.64235" lon="12.79728"><ele>1495</ele><time>2022-07-28T11:35:54Z</time></trkpt>
    <trkpt lat="47.64245" lon="12.79716"><ele>1507</ele><time>2022-07-28T11:36:13Z</time></trkpt>
    <trkpt lat="47.64261" lon="12.79710"><ele>1418</ele><time>2022-07-28T11:37:15Z</time></trkpt>
    <trkpt lat="47.64266" lon="12.79694"><ele>1457</ele><time>2022-07-28T11:37:34Z</time></trkpt>
    <trkpt lat="47.64269" lon="12.79676"><ele>1460</ele><time>2022-07-28T11:37:53Z</time></trkpt>
    <trkpt lat="47.64274" lon="12.79658"><ele>1458</ele><time>2022-07-28T11:38:12Z</time></trkpt>
    <trkpt lat="47.64276" lon="12.79630"><ele>1428</ele><time>2022-07-28T11:38:50Z</time></trkpt>
    <trkpt lat="47.64286" lon="12.79636"><ele>1428</ele><time>2022-07-28T11:39:09Z</time></trkpt>
    <trkpt lat="47.64299" lon="12.79657"><ele>1339</ele><time>2022-07-28T11:40:08Z</time></trkpt>
    <trkpt lat="47.64310" lon="12.79671"><ele>1412</ele><time>2022-07-28T11:40:56Z</time></trkpt>
    <trkpt lat="47.64327" lon="12.79667"><ele>1389</ele><time>2022-07-28T11:41:34Z</time></trkpt>
    <trkpt lat="47.64348" lon="12.79669"><ele>1395</ele><time>2022-07-28T11:42:15Z</time></trkpt>
    <trkpt lat="47.64363" lon="12.79667"><ele>1395</ele><time>2022-07-28T11:42:34Z</time></trkpt>
    <trkpt lat="47.64372" lon="12.79671"><ele>1394</ele><time>2022-07-28T11:42:53Z</time></trkpt>
    <trkpt lat="47.64383" lon="12.79665"><ele>1389</ele><time>2022-07-28T11:43:12Z</time></trkpt>
    <trkpt lat="47.64391" lon="12.79678"><ele>1375</ele><time>2022-07-28T11:43:30Z</time></trkpt>
    <trkpt lat="47.64398" lon="12.79700"><ele>1377</ele><time>2022-07-28T11:43:49Z</time></trkpt>
    <trkpt lat="47.64398" lon="12.79714"><ele>1383</ele><time>2022-07-28T11:44:08Z</time></trkpt>
    <trkpt lat="47.64401" lon="12.79729"><ele>1386</ele><time>2022-07-28T11:44:26Z</time></trkpt>
    <trkpt lat="47.64406" lon="12.79745"><ele>1389</ele><time>2022-07-28T11:44:44Z</time></trkpt>
    <trkpt lat="47.64415" lon="12.79761"><ele>1382</ele><time>2022-07-28T11:45:03Z</time></trkpt>
    <trkpt lat="47.64424" lon="12.79751"><ele>1383</ele><time>2022-07-28T11:45:21Z</time></trkpt>
    <trkpt lat="47.64436" lon="12.79746"><ele>1375</ele><time>2022-07-28T11:45:39Z</time></trkpt>
    <trkpt lat="47.64449" lon="12.79731"><ele>1267</ele><time>2022-07-28T11:45:58Z</time></trkpt>
    <trkpt lat="47.64458" lon="12.79716"><ele>1387</ele><time>2022-07-28T11:46:17Z</time></trkpt>
    <trkpt lat="47.64469" lon="12.79738"><ele>1347</ele><time>2022-07-28T11:50:32Z</time></trkpt>
    <trkpt lat="47.64487" lon="12.79721"><ele>1346</ele><time>2022-07-28T11:51:09Z</time></trkpt>
    <trkpt lat="47.64494" lon="12.79734"><ele>1343</ele><time>2022-07-28T11:51:28Z</time></trkpt>
    <trkpt lat="47.64501" lon="12.79749"><ele>1337</ele><time>2022-07-28T11:51:47Z</time></trkpt>
    <trkpt lat="47.64514" lon="12.79757"><ele>1330</ele><time>2022-07-28T11:52:06Z</time></trkpt>
    <trkpt lat="47.64525" lon="12.79759"><ele>1328</ele><time>2022-07-28T11:52:25Z</time></trkpt>
    <trkpt lat="47.64535" lon="12.79750"><ele>1323</ele><time>2022-07-28T11:52:44Z</time></trkpt>
    <trkpt lat="47.64544" lon="12.79742"><ele>1320</ele><time>2022-07-28T11:53:02Z</time></trkpt>
    <trkpt lat="47.64555" lon="12.79736"><ele>1320</ele><time>2022-07-28T11:53:21Z</time></trkpt>
    <trkpt lat="47.64564" lon="12.79733"><ele>1323</ele><time>2022-07-28T11:53:40Z</time></trkpt>
    <trkpt lat="47.64572" lon="12.79722"><ele>1322</ele><time>2022-07-28T11:53:58Z</time></trkpt>
    <trkpt lat="47.64581" lon="12.79716"><ele>1317</ele><time>2022-07-28T11:54:16Z</time></trkpt>
    <trkpt lat="47.64593" lon="12.79709"><ele>1320</ele><time>2022-07-28T11:54:34Z</time></trkpt>
    <trkpt lat="47.64605" lon="12.79702"><ele>1296</ele><time>2022-07-28T11:54:53Z</time></trkpt>
    <trkpt lat="47.64618" lon="12.79687"><ele>1311</ele><time>2022-07-28T11:55:12Z</time></trkpt>
    <trkpt lat="47.64610" lon="12.79665"><ele>1306</ele><time>2022-07-28T11:55:31Z</time></trkpt>
    <trkpt lat="47.64599" lon="12.79667"><ele>1366</ele><time>2022-07-28T11:55:50Z</time></trkpt>
    <trkpt lat="47.64587" lon="12.79677"><ele>1374</ele><time>2022-07-28T11:56:09Z</time></trkpt>
    <trkpt lat="47.64588" lon="12.79663"><ele>1286</ele><time>2022-07-28T11:58:49Z</time></trkpt>
    <trkpt lat="47.64590" lon="12.79648"><ele>1283</ele><time>2022-07-28T11:59:08Z</time></trkpt>
    <trkpt lat="47.64596" lon="12.79625"><ele>1273</ele><time>2022-07-28T12:00:15Z</time></trkpt>
    <trkpt lat="47.64611" lon="12.79615"><ele>1261</ele><time>2022-07-28T12:01:05Z</time></trkpt>
    <trkpt lat="47.64618" lon="12.79606"><ele>1254</ele><time>2022-07-28T12:01:23Z</time></trkpt>
    <trkpt lat="47.64615" lon="12.79582"><ele>1253</ele><time>2022-07-28T12:02:07Z</time></trkpt>
    <trkpt lat="47.64634" lon="12.79572"><ele>1244</ele><time>2022-07-28T12:02:47Z</time></trkpt>
    <trkpt lat="47.64643" lon="12.79556"><ele>1249</ele><time>2022-07-28T12:03:05Z</time></trkpt>
    <trkpt lat="47.64649" lon="12.79538"><ele>1252</ele><time>2022-07-28T12:03:24Z</time></trkpt>
    <trkpt lat="47.64658" lon="12.79541"><ele>1243</ele><time>2022-07-28T12:03:43Z</time></trkpt>
    <trkpt lat="47.64674" lon="12.79552"><ele>1231</ele><time>2022-07-28T12:04:01Z</time></trkpt>
    <trkpt lat="47.64683" lon="12.79559"><ele>1234</ele><time>2022-07-28T12:04:19Z</time></trkpt>
    <trkpt lat="47.64692" lon="12.79558"><ele>1236</ele><time>2022-07-28T12:04:38Z</time></trkpt>
    <trkpt lat="47.64702" lon="12.79556"><ele>1231</ele><time>2022-07-28T12:04:56Z</time></trkpt>
    <trkpt lat="47.64696" lon="12.79537"><ele>1212</ele><time>2022-07-28T12:05:43Z</time></trkpt>
    <trkpt lat="47.64704" lon="12.79503"><ele>1214</ele><time>2022-07-28T12:06:40Z</time></trkpt>
    <trkpt lat="47.64715" lon="12.79496"><ele>1212</ele><time>2022-07-28T12:06:58Z</time></trkpt>
    <trkpt lat="47.64723" lon="12.79511"><ele>1207</ele><time>2022-07-28T12:07:17Z</time></trkpt>
    <trkpt lat="47.64730" lon="12.79523"><ele>1204</ele><time>2022-07-28T12:07:36Z</time></trkpt>
    <trkpt lat="47.64740" lon="12.79529"><ele>1197</ele><time>2022-07-28T12:07:55Z</time></trkpt>
    <trkpt lat="47.64742" lon="12.79502"><ele>1193</ele><time>2022-07-28T12:08:44Z</time></trkpt>
    <trkpt lat="47.64754" lon="12.79506"><ele>1190</ele><time>2022-07-28T12:09:03Z</time></trkpt>
    <trkpt lat="47.64766" lon="12.79507"><ele>1187</ele><time>2022-07-28T12:09:21Z</time></trkpt>
    <trkpt lat="47.64785" lon="12.79495"><ele>1180</ele><time>2022-07-28T12:09:58Z</time></trkpt>
    <trkpt lat="47.64801" lon="12.79494"><ele>1170</ele><time>2022-07-28T12:10:17Z</time></trkpt>
    <trkpt lat="47.64817" lon="12.79496"><ele>1171</ele><time>2022-07-28T12:10:35Z</time></trkpt>
    <trkpt lat="47.64833" lon="12.79492"><ele>1170</ele><time>2022-07-28T12:10:54Z</time></trkpt>
    <trkpt lat="47.64849" lon="12.79484"><ele>1164</ele><time>2022-07-28T12:11:43Z</time></trkpt>
    <trkpt lat="47.64840" lon="12.79464"><ele>1148</ele><time>2022-07-28T12:12:43Z</time></trkpt>
    <trkpt lat="47.64829" lon="12.79443"><ele>1142</ele><time>2022-07-28T12:13:24Z</time></trkpt>
    <trkpt lat="47.64823" lon="12.79418"><ele>1132</ele><time>2022-07-28T12:14:06Z</time></trkpt>
    <trkpt lat="47.64824" lon="12.79403"><ele>1131</ele><time>2022-07-28T12:14:25Z</time></trkpt>
    <trkpt lat="47.64822" lon="12.79378"><ele>1121</ele><time>2022-07-28T12:15:05Z</time></trkpt>
    <trkpt lat="47.64828" lon="12.79352"><ele>1138</ele><time>2022-07-28T12:15:49Z</time></trkpt>
    <trkpt lat="47.64837" lon="12.79332"><ele>1097</ele><time>2022-07-28T12:16:29Z</time></trkpt>
    <trkpt lat="47.64841" lon="12.79303"><ele>1082</ele><time>2022-07-28T12:17:10Z</time></trkpt>
    <trkpt lat="47.64852" lon="12.79284"><ele>1075</ele><time>2022-07-28T12:17:49Z</time></trkpt>
    <trkpt lat="47.64853" lon="12.79259"><ele>1071</ele><time>2022-07-28T12:18:34Z</time></trkpt>
    <trkpt lat="47.64865" lon="12.79250"><ele>1107</ele><time>2022-07-28T12:18:53Z</time></trkpt>
    <trkpt lat="47.64873" lon="12.79225"><ele>1082</ele><time>2022-07-28T12:19:31Z</time></trkpt>
    <trkpt lat="47.64880" lon="12.79212"><ele>1073</ele><time>2022-07-28T12:19:50Z</time></trkpt>
    <trkpt lat="47.64882" lon="12.79195"><ele>1113</ele><time>2022-07-28T12:20:08Z</time></trkpt>
    <trkpt lat="47.64886" lon="12.79178"><ele>1057</ele><time>2022-07-28T12:20:27Z</time></trkpt>
    <trkpt lat="47.64890" lon="12.79166"><ele>1055</ele><time>2022-07-28T12:20:45Z</time></trkpt>
    <trkpt lat="47.64903" lon="12.79161"><ele>1045</ele><time>2022-07-28T12:25:32Z</time></trkpt>
    <trkpt lat="47.64927" lon="12.79112"><ele>1038</ele><time>2022-07-28T12:25:51Z</time></trkpt>
    <trkpt lat="47.64944" lon="12.79139"><ele>1041</ele><time>2022-07-28T12:26:09Z</time></trkpt>
    <trkpt lat="47.64977" lon="12.79160"><ele>1040</ele><time>2022-07-28T12:26:27Z</time></trkpt>
    <trkpt lat="47.65050" lon="12.79126"><ele>1027</ele><time>2022-07-28T12:26:46Z</time></trkpt>
    <trkpt lat="47.65118" lon="12.79112"><ele>1021</ele><time>2022-07-28T12:27:05Z</time></trkpt>
    <trkpt lat="47.65064" lon="12.79049"><ele>1022</ele><time>2022-07-28T12:27:24Z</time></trkpt>
    <trkpt lat="47.65140" lon="12.79037"><ele>752</ele><time>2022-07-28T12:27:43Z</time></trkpt>
    <trkpt lat="47.65276" lon="12.79030"><ele>825</ele><time>2022-07-28T12:28:02Z</time></trkpt>
    <trkpt lat="47.65416" lon="12.79019"><ele>952</ele><time>2022-07-28T12:28:21Z</time></trkpt>
    <trkpt lat="47.65462" lon="12.79142"><ele>945</ele><time>2022-07-28T12:28:40Z</time></trkpt>
    <trkpt lat="47.65521" lon="12.79151"><ele>953</ele><time>2022-07-28T12:28:58Z</time></trkpt>
    <trkpt lat="47.65582" lon="12.79144"><ele>950</ele><time>2022-07-28T12:29:16Z</time></trkpt>
    <trkpt lat="47.65665" lon="12.79143"><ele>932</ele><time>2022-07-28T12:29:35Z</time></trkpt>
    <trkpt lat="47.65747" lon="12.79115"><ele>925</ele><time>2022-07-28T12:29:53Z</time></trkpt>
    <trkpt lat="47.65842" lon="12.79083"><ele>909</ele><time>2022-07-28T12:30:12Z</time></trkpt>
    <trkpt lat="47.65923" lon="12.79046"><ele>881</ele><time>2022-07-28T12:30:31Z</time></trkpt>
    <trkpt lat="47.65999" lon="12.78943"><ele>860</ele><time>2022-07-28T12:30:50Z</time></trkpt>
    <trkpt lat="47.66064" lon="12.78955"><ele>852</ele><time>2022-07-28T12:31:08Z</time></trkpt>
    <trkpt lat="47.66080" lon="12.78961"><ele>858</ele><time>2022-07-28T12:31:26Z</time></trkpt>
    <trkpt lat="47.66079" lon="12.79025"><ele>770</ele><time>2022-07-28T12:31:45Z</time></trkpt>
    <trkpt lat="47.66046" lon="12.79130"><ele>844</ele><time>2022-07-28T12:33:12Z</time></trkpt>
    <trkpt lat="47.65990" lon="12.79279"><ele>830</ele><time>2022-07-28T12:33:30Z</time></trkpt>
    <trkpt lat="47.65985" lon="12.79368"><ele>798</ele><time>2022-07-28T12:33:48Z</time></trkpt>
    <trkpt lat="47.66060" lon="12.79383"><ele>806</ele><time>2022-07-28T12:34:07Z</time></trkpt>
    <trkpt lat="47.66163" lon="12.79350"><ele>795</ele><time>2022-07-28T12:34:25Z</time></trkpt>
    <trkpt lat="47.66199" lon="12.79384"><ele>795</ele><time>2022-07-28T12:34:44Z</time></trkpt>
    <trkpt lat="47.66230" lon="12.79517"><ele>798</ele><time>2022-07-28T12:35:03Z</time></trkpt>
    <trkpt lat="47.66307" lon="12.79404"><ele>773</ele><time>2022-07-28T12:35:21Z</time></trkpt>
    <trkpt lat="47.66372" lon="12.79280"><ele>767</ele><time>2022-07-28T12:35:40Z</time></trkpt>
    <trkpt lat="47.66466" lon="12.79259"><ele>755</ele><time>2022-07-28T12:35:59Z</time></trkpt>
    <trkpt lat="47.66427" lon="12.79394"><ele>753</ele><time>2022-07-28T12:36:17Z</time></trkpt>
    <trkpt lat="47.66419" lon="12.79454"><ele>755</ele><time>2022-07-28T12:36:35Z</time></trkpt>
    <trkpt lat="47.66419" lon="12.79470"><ele>756</ele><time>2022-07-28T12:36:54Z</time></trkpt>
    <trkpt lat="47.66454" lon="12.79602"><ele>743</ele><time>2022-07-28T12:37:13Z</time></trkpt>
    <trkpt lat="47.66455" lon="12.79743"><ele>716</ele><time>2022-07-28T12:37:31Z</time></trkpt>
    <trkpt lat="47.66429" lon="12.79873"><ele>707</ele><time>2022-07-28T12:37:49Z</time></trkpt>
    <trkpt lat="47.66469" lon="12.79881"><ele>697</ele><time>2022-07-28T12:38:08Z</time></trkpt>
    <trkpt lat="47.66508" lon="12.79797"><ele>693</ele><time>2022-07-28T12:38:27Z</time></trkpt>
    <trkpt lat="47.66602" lon="12.80065"><ele>674</ele><time>2022-07-28T12:38:46Z</time></trkpt>
    <trkpt lat="47.66775" lon="12.80280"><ele>661</ele><time>2022-07-28T12:39:04Z</time></trkpt>
    <trkpt lat="47.66820" lon="12.80381"><ele>655</ele><time>2022-07-28T12:39:23Z</time></trkpt>
  </trkseg>
</trk>
</gpx>