<?xml version="1.0" encoding="UTF-8"?>
<gpx version="1.1" creator="GPX-Pro" xmlns="http://www.topografix.com/GPX/1/1">
<trk>
  <name>Hochkogel-Nestlersteig</name>
  <trkseg>
    <trkpt lat="47.75393" lon="13.76694"><ele>491</ele><time>2022-07-17T06:17:37Z</time></trkpt>
    <trkpt lat="47.75383" lon="13.76676"><ele>503</ele><time>2022-07-17T06:17:56Z</time></trkpt>
    <trkpt lat="47.75368" lon="13.76662"><ele>508</ele><time>2022-07-17T06:18:14Z</time></trkpt>
    <trkpt lat="47.75351" lon="13.76652"><ele>510</ele><time>2022-07-17T06:18:32Z</time></trkpt>
    <trkpt lat="47.75328" lon="13.76633"><ele>520</ele><time>2022-07-17T06:19:45Z</time></trkpt>
    <trkpt lat="47.75312" lon="13.76621"><ele>521</ele><time>2022-07-17T06:20:04Z</time></trkpt>
    <trkpt lat="47.75297" lon="13.76612"><ele>527</ele><time>2022-07-17T06:20:23Z</time></trkpt>
    <trkpt lat="47.75282" lon="13.76607"><ele>524</ele><time>2022-07-17T06:20:42Z</time></trkpt>
    <trkpt lat="47.75265" lon="13.76603"><ele>515</ele><time>2022-07-17T06:21:01Z</time></trkpt>
    <trkpt lat="47.75245" lon="13.76598"><ele>515</ele><time>2022-07-17T06:21:19Z</time></trkpt>
    <trkpt lat="47.75226" lon="13.76595"><ele>535</ele><time>2022-07-17T06:21:38Z</time></trkpt>
    <trkpt lat="47.75209" lon="13.76595"><ele>534</ele><time>2022-07-17T06:21:57Z</time></trkpt>
    <trkpt lat="47.75195" lon="13.76596"><ele>536</ele><time>2022-07-17T06:22:15Z</time></trkpt>
    <trkpt lat="47.75181" lon="13.76599"><ele>535</ele><time>2022-07-17T06:22:34Z</time></trkpt>
    <trkpt lat="47.75168" lon="13.76603"><ele>534</ele><time>2022-07-17T06:22:52Z</time></trkpt>
    <trkpt lat="47.75156" lon="13.76609"><ele>538</ele><time>2022-07-17T06:23:10Z</time></trkpt>
    <trkpt lat="47.75145" lon="13.76614"><ele>542</ele><time>2022-07-17T06:23:29Z</time></trkpt>
    <trkpt lat="47.75133" lon="13.76619"><ele>547</ele><time>2022-07-17T06:23:47Z</time></trkpt>
    <trkpt lat="47.75121" lon="13.76623"><ele>552</ele><time>2022-07-17T06:24:06Z</time></trkpt>
    <trkpt lat="47.75108" lon="13.76633"><ele>548</ele><time>2022-07-17T06:24:25Z</time></trkpt>
    <trkpt lat="47.75097" lon="13.76643"><ele>551</ele><time>2022-07-17T06:24:44Z</time></trkpt>
    <trkpt lat="47.75088" lon="13.76661"><ele>550</ele><time>2022-07-17T06:25:03Z</time></trkpt>
    <trkpt lat="47.75082" lon="13.76676"><ele>548</ele><time>2022-07-17T06:25:22Z</time></trkpt>
    <trkpt lat="47.75074" lon="13.76692"><ele>549</ele><time>2022-07-17T06:25:40Z</time></trkpt>
    <trkpt lat="47.75062" lon="13.76700"><ele>557</ele><time>2022-07-17T06:25:59Z</time></trkpt>
    <trkpt lat="47.75048" lon="13.76710"><ele>550</ele><time>2022-07-17T06:26:17Z</time></trkpt>
    <trkpt lat="47.75043" lon="13.76722"><ele>559</ele><time>2022-07-17T06:26:36Z</time></trkpt>
    <trkpt lat="47.75035" lon="13.76735"><ele>559</ele><time>2022-07-17T06:26:54Z</time></trkpt>
    <trkpt lat="47.75022" lon="13.76745"><ele>557</ele><time>2022-07-17T06:27:13Z</time></trkpt>
    <trkpt lat="47.75012" lon="13.76754"><ele>557</ele><time>2022-07-17T06:27:32Z</time></trkpt>
    <trkpt lat="47.75000" lon="13.76767"><ele>563</ele><time>2022-07-17T06:27:50Z</time></trkpt>
    <trkpt lat="47.74988" lon="13.76776"><ele>577</ele><time>2022-07-17T06:28:09Z</time></trkpt>
    <trkpt lat="47.74974" lon="13.76793"><ele>578</ele><time>2022-07-17T06:28:28Z</time></trkpt>
    <trkpt lat="47.74962" lon="13.76794"><ele>572</ele><time>2022-07-17T06:28:47Z</time></trkpt>
    <trkpt lat="47.74947" lon="13.76812"><ele>571</ele><time>2022-07-17T06:29:05Z</time></trkpt>
    <trkpt lat="47.74932" lon="13.76822"><ele>572</ele><time>2022-07-17T06:29:23Z</time></trkpt>
    <trkpt lat="47.74913" lon="13.76838"><ele>572</ele><time>2022-07-17T06:29:42Z</time></trkpt>
    <trkpt lat="47.74896" lon="13.76853"><ele>578</ele><time>2022-07-17T06:30:00Z</time></trkpt>
    <trkpt lat="47.74875" lon="13.76862"><ele>579</ele><time>2022-07-17T06:30:18Z</time></trkpt>
    <trkpt lat="47.74855" lon="13.76873"><ele>590</ele><time>2022-07-17T06:30:36Z</time></trkpt>
    <trkpt lat="47.74839" lon="13.76883"><ele>592</ele><time>2022-07-17T06:30:55Z</time></trkpt>
    <trkpt lat="47.74825" lon="13.76893"><ele>589</ele><time>2022-07-17T06:31:14Z</time></trkpt>
    <trkpt lat="47.74807" lon="13.76902"><ele>588</ele><time>2022-07-17T06:31:32Z</time></trkpt>
    <trkpt lat="47.74790" lon="13.76918"><ele>584</ele><time>2022-07-17T06:31:51Z</time></trkpt>
    <trkpt lat="47.74780" lon="13.76935"><ele>586</ele><time>2022-07-17T06:32:09Z</time></trkpt>
    <trkpt lat="47.74759" lon="13.76946"><ele>584</ele><time>2022-07-17T06:32:27Z</time></trkpt>
    <trkpt lat="47.74746" lon="13.76958"><ele>593</ele><time>2022-07-17T06:32:46Z</time></trkpt>
    <trkpt lat="47.74734" lon="13.76970"><ele>595</ele><time>2022-07-17T06:33:05Z</time></trkpt>
    <trkpt lat="47.74711" lon="13.76982"><ele>589</ele><time>2022-07-17T06:33:23Z</time></trkpt>
    <trkpt lat="47.74694" lon="13.76992"><ele>590</ele><time>2022-07-17T06:33:42Z</time></trkpt>
    <trkpt lat="47.74672" lon="13.77011"><ele>592</ele><time>2022-07-17T06:34:01Z</time></trkpt>
    <trkpt lat="47.74666" lon="13.77026"><ele>588</ele><time>2022-07-17T06:34:20Z</time></trkpt>
    <trkpt lat="47.74657" lon="13.77039"><ele>589</ele><time>2022-07-17T06:34:39Z</time></trkpt>
    <trkpt lat="47.74647" lon="13.77039"><ele>592</ele><time>2022-07-17T06:34:57Z</time></trkpt>
    <trkpt lat="47.74638" lon="13.77032"><ele>596</ele><time>2022-07-17T06:35:16Z</time></trkpt>
    <trkpt lat="47.74627" lon="13.77034"><ele>593</ele><time>2022-07-17T06:35:34Z</time></trkpt>
    <trkpt lat="47.74617" lon="13.77032"><ele>595</ele><time>2022-07-17T06:35:53Z</time></trkpt>
    <trkpt lat="47.74606" lon="13.77029"><ele>599</ele><time>2022-07-17T06:36:11Z</time></trkpt>
    <trkpt lat="47.74584" lon="13.77021"><ele>606</ele><time>2022-07-17T06:38:40Z</time></trkpt>
    <trkpt lat="47.74571" lon="13.77017"><ele>602</ele><time>2022-07-17T06:38:59Z</time></trkpt>
    <trkpt lat="47.74557" lon="13.77007"><ele>616</ele><time>2022-07-17T06:39:18Z</time></trkpt>
    <trkpt lat="47.74544" lon="13.76997"><ele>628</ele><time>2022-07-17T06:39:37Z</time></trkpt>
    <trkpt lat="47.74529" lon="13.76996"><ele>627</ele><time>2022-07-17T06:39:55Z</time></trkpt>
    <trkpt lat="47.74520" lon="13.76990"><ele>625</ele><time>2022-07-17T06:40:14Z</time></trkpt>
    <trkpt lat="47.74501" lon="13.77001"><ele>637</ele><time>2022-07-17T06:42:23Z</time></trkpt>
    <trkpt lat="47.74507" lon="13.76985"><ele>625</ele><time>2022-07-17T06:42:42Z</time></trkpt>
    <trkpt lat="47.74496" lon="13.76983"><ele>639</ele><time>2022-07-17T06:43:01Z</time></trkpt>
    <trkpt lat="47.74489" lon="13.76974"><ele>641</ele><time>2022-07-17T06:43:19Z</time></trkpt>
    <trkpt lat="47.74473" lon="13.76985"><ele>645</ele><time>2022-07-17T06:43:56Z</time></trkpt>
    <trkpt lat="47.74465" lon="13.76991"><ele>649</ele><time>2022-07-17T06:44:15Z</time></trkpt>
    <trkpt lat="47.74451" lon="13.76985"><ele>657</ele><time>2022-07-17T06:45:03Z</time></trkpt>
    <trkpt lat="47.74445" lon="13.76961"><ele>658</ele><time>2022-07-17T06:45:39Z</time></trkpt>
    <trkpt lat="47.74438" lon="13.76985"><ele>659</ele><time>2022-07-17T06:47:42Z</time></trkpt>
    <trkpt lat="47.74430" lon="13.76996"><ele>662</ele><time>2022-07-17T06:48:00Z</time></trkpt>
    <trkpt lat="47.74422" lon="13.76973"><ele>672</ele><time>2022-07-17T06:48:45Z</time></trkpt>
    <trkpt lat="47.74406" lon="13.76972"><ele>666</ele><time>2022-07-17T06:49:23Z</time></trkpt>
    <trkpt lat="47.74390" lon="13.76973"><ele>683</ele><time>2022-07-17T06:50:14Z</time></trkpt>
    <trkpt lat="47.74375" lon="13.76989"><ele>690</ele><time>2022-07-17T06:50:53Z</time></trkpt>
    <trkpt lat="47.74366" lon="13.76994"><ele>639</ele><time>2022-07-17T06:51:12Z</time></trkpt>
    <trkpt lat="47.74358" lon="13.76999"><ele>690</ele><time>2022-07-17T06:51:30Z</time></trkpt>
    <trkpt lat="47.74346" lon="13.77002"><ele>697</ele><time>2022-07-17T06:51:49Z</time></trkpt>
    <trkpt lat="47.74332" lon="13.77004"><ele>697</ele><time>2022-07-17T06:52:07Z</time></trkpt>
    <trkpt lat="47.74320" lon="13.77009"><ele>696</ele><time>2022-07-17T06:52:26Z</time></trkpt>
    <trkpt lat="47.74314" lon="13.77022"><ele>696</ele><time>2022-07-17T06:52:45Z</time></trkpt>
    <trkpt lat="47.74302" lon="13.77027"><ele>685</ele><time>2022-07-17T06:53:03Z</time></trkpt>
    <trkpt lat="47.74301" lon="13.77002"><ele>709</ele><time>2022-07-17T06:53:43Z</time></trkpt>
    <trkpt lat="47.74297" lon="13.76990"><ele>715</ele><time>2022-07-17T06:54:01Z</time></trkpt>
    <trkpt lat="47.74290" lon="13.76973"><ele>712</ele><time>2022-07-17T06:54:20Z</time></trkpt>
    <trkpt lat="47.74280" lon="13.76969"><ele>720</ele><time>2022-07-17T06:54:38Z</time></trkpt>
    <trkpt lat="47.74267" lon="13.76965"><ele>708</ele><time>2022-07-17T06:54:56Z</time></trkpt>
    <trkpt lat="47.74255" lon="13.76961"><ele>726</ele><time>2022-07-17T06:55:15Z</time></trkpt>
    <trkpt lat="47.74239" lon="13.76964"><ele>729</ele><time>2022-07-17T06:55:52Z</time></trkpt>
    <trkpt lat="47.74227" lon="13.76965"><ele>726</ele><time>2022-07-17T06:56:11Z</time></trkpt>
    <trkpt lat="47.74219" lon="13.76956"><ele>733</ele><time>2022-07-17T06:56:29Z</time></trkpt>
    <trkpt lat="47.74211" lon="13.76948"><ele>738</ele><time>2022-07-17T06:56:47Z</time></trkpt>
    <trkpt lat="47.74201" lon="13.76968"><ele>737</ele><time>2022-07-17T06:57:26Z</time></trkpt>
    <trkpt lat="47.74194" lon="13.76979"><ele>743</ele><time>2022-07-17T06:57:45Z</time></trkpt>
    <trkpt lat="47.74190" lon="13.76993"><ele>749</ele><time>2022-07-17T06:58:04Z</time></trkpt>
    <trkpt lat="47.74186" lon="13.77010"><ele>754</ele><time>2022-07-17T06:58:23Z</time></trkpt>
    <trkpt lat="47.74174" lon="13.77015"><ele>751</ele><time>2022-07-17T06:58:41Z</time></trkpt>
    <trkpt lat="47.74164" lon="13.77009"><ele>753</ele><time>2022-07-17T06:59:00Z</time></trkpt>
    <trkpt lat="47.74154" lon="13.76984"><ele>761</ele><time>2022-07-17T06:59:36Z</time></trkpt>
    <trkpt lat="47.74144" lon="13.76981"><ele>766</ele><time>2022-07-17T07:00:13Z</time></trkpt>
    <trkpt lat="47.74131" lon="13.77003"><ele>771</ele><time>2022-07-17T07:00:55Z</time></trkpt>
    <trkpt lat="47.74122" lon="13.76981"><ele>782</ele><time>2022-07-17T07:01:32Z</time></trkpt>
    <trkpt lat="47.74113" lon="13.76957"><ele>795</ele><time>2022-07-17T07:02:14Z</time></trkpt>
    <trkpt lat="47.74102" lon="13.76934"><ele>797</ele><time>2022-07-17T07:02:51Z</time></trkpt>
    <trkpt lat="47.74100" lon="13.76913"><ele>793</ele><time>2022-07-17T07:03:10Z</time></trkpt>
    <trkpt lat="47.74091" lon="13.76901"><ele>797</ele><time>2022-07-17T07:03:28Z</time></trkpt>
    <trkpt lat="47.74085" lon="13.76889"><ele>806</ele><time>2022-07-17T07:03:46Z</time></trkpt>
    <trkpt lat="47.74080" lon="13.76872"><ele>801</ele><time>2022-07-17T07:11:39Z</time></trkpt>
    <trkpt lat="47.74067" lon="13.76868"><ele>800</ele><time>2022-07-17T07:11:57Z</time></trkpt>
    <trkpt lat="47.74057" lon="13.76877"><ele>803</ele><time>2022-07-17T07:12:15Z</time></trkpt>
    <trkpt lat="47.74050" lon="13.76897"><ele>810</ele><time>2022-07-17T07:12:33Z</time></trkpt>
    <trkpt lat="47.74042" lon="13.76911"><ele>812</ele><time>2022-07-17T07:12:52Z</time></trkpt>
    <trkpt lat="47.74042" lon="13.76928"><ele>814</ele><time>2022-07-17T07:13:11Z</time></trkpt>
    <trkpt lat="47.74033" lon="13.76935"><ele>818</ele><time>2022-07-17T07:13:29Z</time></trkpt>
    <trkpt lat="47.74021" lon="13.76958"><ele>828</ele><time>2022-07-17T07:14:07Z</time></trkpt>
    <trkpt lat="47.74005" lon="13.76973"><ele>821</ele><time>2022-07-17T07:14:43Z</time></trkpt>
    <trkpt lat="47.73993" lon="13.76979"><ele>816</ele><time>2022-07-17T07:15:02Z</time></trkpt>
    <trkpt lat="47.73987" lon="13.76966"><ele>811</ele><time>2022-07-17T07:15:20Z</time></trkpt>
    <trkpt lat="47.73972" lon="13.76955"><ele>808</ele><time>2022-07-17T07:15:38Z</time></trkpt>
    <trkpt lat="47.73960" lon="13.76957"><ele>810</ele><time>2022-07-17T07:15:57Z</time></trkpt>
    <trkpt lat="47.73945" lon="13.76959"><ele>813</ele><time>2022-07-17T07:16:15Z</time></trkpt>
    <trkpt lat="47.73931" lon="13.76966"><ele>815</ele><time>2022-07-17T07:16:34Z</time></trkpt>
    <trkpt lat="47.73921" lon="13.76982"><ele>820</ele><time>2022-07-17T07:16:53Z</time></trkpt>
    <trkpt lat="47.73905" lon="13.76978"><ele>816</ele><time>2022-07-17T07:17:11Z</time></trkpt>
    <trkpt lat="47.73887" lon="13.76980"><ele>814</ele><time>2022-07-17T07:17:29Z</time></trkpt>
    <trkpt lat="47.73872" lon="13.76974"><ele>815</ele><time>2022-07-17T07:17:48Z</time></trkpt>
    <trkpt lat="47.73855" lon="13.76969"><ele>812</ele><time>2022-07-17T07:18:07Z</time></trkpt>
    <trkpt lat="47.73840" lon="13.76958"><ele>802</ele><time>2022-07-17T07:18:26Z</time></trkpt>
    <trkpt lat="47.73828" lon="13.76970"><ele>801</ele><time>2022-07-17T07:18:44Z</time></trkpt>
    <trkpt lat="47.73822" lon="13.76985"><ele>797</ele><time>2022-07-17T07:19:02Z</time></trkpt>
    <trkpt lat="47.73803" lon="13.76984"><ele>790</ele><time>2022-07-17T07:19:21Z</time></trkpt>
    <trkpt lat="47.73783" lon="13.76969"><ele>799</ele><time>2022-07-17T07:22:14Z</time></trkpt>
    <trkpt lat="47.73784" lon="13.76946"><ele>801</ele><time>2022-07-17T07:22:33Z</time></trkpt>
    <trkpt lat="47.73781" lon="13.76923"><ele>802</ele><time>2022-07-17T07:22:51Z</time></trkpt>
    <trkpt lat="47.73781" lon="13.76898"><ele>801</ele><time>2022-07-17T07:23:10Z</time></trkpt>
    <trkpt lat="47.73777" lon="13.76885"><ele>804</ele><time>2022-07-17T07:23:29Z</time></trkpt>
    <trkpt lat="47.73763" lon="13.76908"><ele>806</ele><time>2022-07-17T07:23:48Z</time></trkpt>
    <trkpt lat="47.73746" lon="13.76928"><ele>806</ele><time>2022-07-17T07:24:07Z</time></trkpt>
    <trkpt lat="47.73719" lon="13.76939"><ele>799</ele><time>2022-07-17T07:24:25Z</time></trkpt>
    <trkpt lat="47.73693" lon="13.76946"><ele>799</ele><time>2022-07-17T07:24:44Z</time></trkpt>
    <trkpt lat="47.73674" lon="13.76958"><ele>798</ele><time>2022-07-17T07:25:03Z</time></trkpt>
    <trkpt lat="47.73656" lon="13.76984"><ele>793</ele><time>2022-07-17T07:25:22Z</time></trkpt>
    <trkpt lat="47.73647" lon="13.77010"><ele>798</ele><time>2022-07-17T07:25:40Z</time></trkpt>
    <trkpt lat="47.73645" lon="13.77041"><ele>805</ele><time>2022-07-17T07:25:59Z</time></trkpt>
    <trkpt lat="47.73636" lon="13.77062"><ele>798</ele><time>2022-07-17T07:26:17Z</time></trkpt>
    <trkpt lat="47.73618" lon="13.77054"><ele>803</ele><time>2022-07-17T07:27:09Z</time></trkpt>
    <trkpt lat="47.73605" lon="13.77062"><ele>802</ele><time>2022-07-17T07:27:27Z</time></trkpt>
    <trkpt lat="47.73593" lon="13.77066"><ele>811</ele><time>2022-07-17T07:27:46Z</time></trkpt>
    <trkpt lat="47.73580" lon="13.77074"><ele>806</ele><time>2022-07-17T07:28:26Z</time></trkpt>
    <trkpt lat="47.73568" lon="13.77078"><ele>809</ele><time>2022-07-17T07:28:44Z</time></trkpt>
    <trkpt lat="47.73563" lon="13.77101"><ele>797</ele><time>2022-07-17T07:29:24Z</time></trkpt>
    <trkpt lat="47.73554" lon="13.77114"><ele>817</ele><time>2022-07-17T07:29:42Z</time></trkpt>
    <trkpt lat="47.73545" lon="13.77129"><ele>818</ele><time>2022-07-17T07:30:00Z</time></trkpt>
    <trkpt lat="47.73538" lon="13.77140"><ele>829</ele><time>2022-07-17T07:30:19Z</time></trkpt>
    <trkpt lat="47.73533" lon="13.77151"><ele>820</ele><time>2022-07-17T07:30:37Z</time></trkpt>
    <trkpt lat="47.73534" lon="13.77165"><ele>823</ele><time>2022-07-17T07:30:55Z</time></trkpt>
    <trkpt lat="47.73542" lon="13.77174"><ele>816</ele><time>2022-07-17T07:31:14Z</time></trkpt>
    <trkpt lat="47.73532" lon="13.77186"><ele>818</ele><time>2022-07-17T07:31:33Z</time></trkpt>
    <trkpt lat="47.73521" lon="13.77202"><ele>819</ele><time>2022-07-17T07:31:52Z</time></trkpt>
    <trkpt lat="47.73515" lon="13.77215"><ele>824</ele><time>2022-07-17T07:32:10Z</time></trkpt>
    <trkpt lat="47.73501" lon="13.77238"><ele>827</ele><time>2022-07-17T07:32:52Z</time></trkpt>
    <trkpt lat="47.73496" lon="13.77257"><ele>811</ele><time>2022-07-17T07:33:33Z</time></trkpt>
    <trkpt lat="47.73487" lon="13.77269"><ele>837</ele><time>2022-07-17T07:34:14Z</time></trkpt>
    <trkpt lat="47.73479" lon="13.77288"><ele>832</ele><time>2022-07-17T07:35:03Z</time></trkpt>
    <trkpt lat="47.73473" lon="13.77302"><ele>857</ele><time>2022-07-17T07:35:52Z</time></trkpt>
    <trkpt lat="47.73473" lon="13.77317"><ele>856</ele><time>2022-07-17T07:36:11Z</time></trkpt>
    <trkpt lat="47.73461" lon="13.77331"><ele>868</ele><time>2022-07-17T07:37:04Z</time></trkpt>
    <trkpt lat="47.73466" lon="13.77347"><ele>870</ele><time>2022-07-17T07:37:23Z</time></trkpt>
    <trkpt lat="47.73466" lon="13.77361"><ele>875</ele><time>2022-07-17T07:37:42Z</time></trkpt>
    <trkpt lat="47.73454" lon="13.77356"><ele>875</ele><time>2022-07-17T07:43:05Z</time></trkpt>
    <trkpt lat="47.73442" lon="13.77374"><ele>887</ele><time>2022-07-17T07:44:07Z</time></trkpt>
    <trkpt lat="47.73436" lon="13.77399"><ele>889</ele><time>2022-07-17T07:44:49Z</time></trkpt>
    <trkpt lat="47.73430" lon="13.77408"><ele>892</ele><time>2022-07-17T07:45:08Z</time></trkpt>
    <trkpt lat="47.73423" lon="13.77398"><ele>885</ele><time>2022-07-17T07:45:27Z</time></trkpt>
    <trkpt lat="47.73425" lon="13.77423"><ele>907</ele><time>2022-07-17T07:46:23Z</time></trkpt>
    <trkpt lat="47.73415" lon="13.77417"><ele>912</ele><time>2022-07-17T07:47:01Z</time></trkpt>
    <trkpt lat="47.73401" lon="13.77435"><ele>912</ele><time>2022-07-17T07:47:42Z</time></trkpt>
    <trkpt lat="47.73397" lon="13.77422"><ele>917</ele><time>2022-07-17T07:48:00Z</time></trkpt>
    <trkpt lat="47.73399" lon="13.77408"><ele>922</ele><time>2022-07-17T07:48:19Z</time></trkpt>
    <trkpt lat="47.73386" lon="13.77394"><ele>927</ele><time>2022-07-17T07:49:17Z</time></trkpt>
    <trkpt lat="47.73376" lon="13.77411"><ele>935</ele><time>2022-07-17T07:50:15Z</time></trkpt>
    <trkpt lat="47.73364" lon="13.77393"><ele>939</ele><time>2022-07-17T07:50:54Z</time></trkpt>
    <trkpt lat="47.73360" lon="13.77381"><ele>944</ele><time>2022-07-17T07:51:13Z</time></trkpt>
    <trkpt lat="47.73351" lon="13.77372"><ele>948</ele><time>2022-07-17T07:51:31Z</time></trkpt>
    <trkpt lat="47.73346" lon="13.77359"><ele>954</ele><time>2022-07-17T07:51:50Z</time></trkpt>
    <trkpt lat="47.73340" lon="13.77348"><ele>954</ele><time>2022-07-17T07:52:09Z</time></trkpt>
    <trkpt lat="47.73324" lon="13.77326"><ele>955</ele><time>2022-07-17T07:55:08Z</time></trkpt>
    <trkpt lat="47.73316" lon="13.77312"><ele>960</ele><time>2022-07-17T07:55:26Z</time></trkpt>
    <trkpt lat="47.73310" lon="13.77302"><ele>968</ele><time>2022-07-17T07:55:45Z</time></trkpt>
    <trkpt lat="47.73299" lon="13.77291"><ele>964</ele><time>2022-07-17T07:56:04Z</time></trkpt>
    <trkpt lat="47.73290" lon="13.77270"><ele>977</ele><time>2022-07-17T07:56:49Z</time></trkpt>
    <trkpt lat="47.73282" lon="13.77257"><ele>940</ele><time>2022-07-17T07:57:08Z</time></trkpt>
    <trkpt lat="47.73281" lon="13.77242"><ele>970</ele><time>2022-07-17T07:57:27Z</time></trkpt>
    <trkpt lat="47.73270" lon="13.77227"><ele>978</ele><time>2022-07-17T07:57:46Z</time></trkpt>
    <trkpt lat="47.73268" lon="13.77211"><ele>985</ele><time>2022-07-17T07:58:04Z</time></trkpt>
    <trkpt lat="47.73260" lon="13.77198"><ele>992</ele><time>2022-07-17T07:58:23Z</time></trkpt>
    <trkpt lat="47.73259" lon="13.77176"><ele>994</ele><time>2022-07-17T07:58:41Z</time></trkpt>
    <trkpt lat="47.73262" lon="13.77159"><ele>999</ele><time>2022-07-17T07:59:00Z</time></trkpt>
    <trkpt lat="47.73261" lon="13.77140"><ele>1001</ele><time>2022-07-17T07:59:18Z</time></trkpt>
    <trkpt lat="47.73265" lon="13.77122"><ele>1004</ele><time>2022-07-17T07:59:37Z</time></trkpt>
    <trkpt lat="47.73273" lon="13.77108"><ele>1012</ele><time>2022-07-17T07:59:56Z</time></trkpt>
    <trkpt lat="47.73280" lon="13.77086"><ele>1007</ele><time>2022-07-17T08:00:57Z</time></trkpt>
    <trkpt lat="47.73280" lon="13.77071"><ele>1010</ele><time>2022-07-17T08:01:15Z</time></trkpt>
    <trkpt lat="47.73280" lon="13.77056"><ele>1010</ele><time>2022-07-17T08:01:33Z</time></trkpt>
    <trkpt lat="47.73267" lon="13.77050"><ele>1019</ele><time>2022-07-17T08:03:09Z</time></trkpt>
    <trkpt lat="47.73265" lon="13.77035"><ele>1020</ele><time>2022-07-17T08:03:27Z</time></trkpt>
    <trkpt lat="47.73261" lon="13.77011"><ele>1017</ele><time>2022-07-17T08:04:58Z</time></trkpt>
    <trkpt lat="47.73249" lon="13.76984"><ele>1026</ele><time>2022-07-17T08:10:35Z</time></trkpt>
    <trkpt lat="47.73239" lon="13.76992"><ele>1034</ele><time>2022-07-17T08:11:25Z</time></trkpt>
    <trkpt lat="47.73230" lon="13.77013"><ele>1038</ele><time>2022-07-17T08:12:12Z</time></trkpt>
    <trkpt lat="47.73215" lon="13.77025"><ele>1041</ele><time>2022-07-17T08:12:55Z</time></trkpt>
    <trkpt lat="47.73205" lon="13.77029"><ele>1044</ele><time>2022-07-17T08:13:13Z</time></trkpt>
    <trkpt lat="47.73196" lon="13.77048"><ele>1059</ele><time>2022-07-17T08:14:15Z</time></trkpt>
    <trkpt lat="47.73186" lon="13.77054"><ele>1057</ele><time>2022-07-17T08:14:34Z</time></trkpt>
    <trkpt lat="47.73178" lon="13.77064"><ele>1061</ele><time>2022-07-17T08:14:52Z</time></trkpt>
    <trkpt lat="47.73162" lon="13.77080"><ele>1057</ele><time>2022-07-17T08:15:29Z</time></trkpt>
    <trkpt lat="47.73156" lon="13.77095"><ele>1067</ele><time>2022-07-17T08:16:20Z</time></trkpt>
    <trkpt lat="47.73147" lon="13.77108"><ele>1066</ele><time>2022-07-17T08:17:17Z</time></trkpt>
    <trkpt lat="47.73143" lon="13.77131"><ele>1071</ele><time>2022-07-17T08:18:47Z</time></trkpt>
    <trkpt lat="47.73127" lon="13.77128"><ele>1082</ele><time>2022-07-17T08:19:35Z</time></trkpt>
    <trkpt lat="47.73140" lon="13.77135"><ele>1075</ele><time>2022-07-17T08:22:17Z</time></trkpt>
    <trkpt lat="47.73145" lon="13.77158"><ele>1089</ele><time>2022-07-17T08:23:02Z</time></trkpt>
    <trkpt lat="47.73138" lon="13.77182"><ele>1095</ele><time>2022-07-17T08:24:15Z</time></trkpt>
    <trkpt lat="47.73134" lon="13.77204"><ele>1118</ele><time>2022-07-17T08:25:26Z</time></trkpt>
    <trkpt lat="47.73126" lon="13.77184"><ele>1141</ele><time>2022-07-17T08:27:47Z</time></trkpt>
    <trkpt lat="47.73127" lon="13.77165"><ele>1140</ele><time>2022-07-17T08:28:05Z</time></trkpt>
    <trkpt lat="47.73111" lon="13.77157"><ele>1152</ele><time>2022-07-17T08:28:45Z</time></trkpt>
    <trkpt lat="47.73100" lon="13.77141"><ele>1156</ele><time>2022-07-17T08:30:00Z</time></trkpt>
    <trkpt lat="47.73089" lon="13.77124"><ele>1160</ele><time>2022-07-17T08:31:02Z</time></trkpt>
    <trkpt lat="47.73076" lon="13.77138"><ele>1161</ele><time>2022-07-17T08:31:53Z</time></trkpt>
    <trkpt lat="47.73066" lon="13.77157"><ele>1172</ele><time>2022-07-17T08:32:42Z</time></trkpt>
    <trkpt lat="47.73050" lon="13.77173"><ele>1162</ele><time>2022-07-17T08:33:20Z</time></trkpt>
    <trkpt lat="47.73040" lon="13.77180"><ele>1184</ele><time>2022-07-17T08:43:48Z</time></trkpt>
    <trkpt lat="47.73023" lon="13.77188"><ele>1175</ele><time>2022-07-17T08:44:07Z</time></trkpt>
    <trkpt lat="47.73007" lon="13.77197"><ele>1181</ele><time>2022-07-17T08:44:25Z</time></trkpt>
    <trkpt lat="47.72990" lon="13.77212"><ele>1187</ele><time>2022-07-17T08:44:44Z</time></trkpt>
    <trkpt lat="47.72978" lon="13.77220"><ele>1193</ele><time>2022-07-17T08:45:02Z</time></trkpt>
    <trkpt lat="47.72960" lon="13.77216"><ele>1134</ele><time>2022-07-17T08:45:21Z</time></trkpt>
    <trkpt lat="47.72935" lon="13.77219"><ele>1180</ele><time>2022-07-17T08:45:58Z</time></trkpt>
    <trkpt lat="47.72918" lon="13.77227"><ele>1190</ele><time>2022-07-17T08:46:16Z</time></trkpt>
    <trkpt lat="47.72903" lon="13.77237"><ele>1125</ele><time>2022-07-17T08:46:35Z</time></trkpt>
    <trkpt lat="47.72891" lon="13.77253"><ele>1167</ele><time>2022-07-17T08:46:54Z</time></trkpt>
    <trkpt lat="47.72878" lon="13.77260"><ele>1185</ele><time>2022-07-17T08:47:12Z</time></trkpt>
    <trkpt lat="47.72864" lon="13.77249"><ele>1184</ele><time>2022-07-17T08:47:31Z</time></trkpt>
    <trkpt lat="47.72853" lon="13.77230"><ele>1181</ele><time>2022-07-17T08:47:49Z</time></trkpt>
    <trkpt lat="47.72839" lon="13.77223"><ele>1180</ele><time>2022-07-17T08:48:07Z</time></trkpt>
    <trkpt lat="47.72820" lon="13.77219"><ele>1180</ele><time>2022-07-17T08:48:26Z</time></trkpt>
    <trkpt lat="47.72803" lon="13.77211"><ele>1183</ele><time>2022-07-17T08:48:45Z</time></trkpt>
    <trkpt lat="47.72794" lon="13.77195"><ele>1182</ele><time>2022-07-17T08:49:04Z</time></trkpt>
    <trkpt lat="47.72786" lon="13.77178"><ele>1183</ele><time>2022-07-17T08:49:22Z</time></trkpt>
    <trkpt lat="47.72764" lon="13.77181"><ele>1187</ele><time>2022-07-17T08:50:13Z</time></trkpt>
    <trkpt lat="47.72753" lon="13.77198"><ele>1180</ele><time>2022-07-17T08:50:32Z</time></trkpt>
    <trkpt lat="47.72739" lon="13.77213"><ele>1185</ele><time>2022-07-17T08:50:50Z</time></trkpt>
    <trkpt lat="47.72741" lon="13.77238"><ele>1193</ele><time>2022-07-17T08:51:41Z</time></trkpt>
    <trkpt lat="47.72745" lon="13.77251"><ele>1197</ele><time>2022-07-17T08:51:59Z</time></trkpt>
    <trkpt lat="47.72736" lon="13.77256"><ele>1202</ele><time>2022-07-17T08:52:18Z</time></trkpt>
    <trkpt lat="47.72728" lon="13.77244"><ele>1208</ele><time>2022-07-17T08:52:36Z</time></trkpt>
    <trkpt lat="47.72717" lon="13.77233"><ele>1206</ele><time>2022-07-17T08:52:55Z</time></trkpt>
    <trkpt lat="47.72705" lon="13.77221"><ele>1214</ele><time>2022-07-17T08:53:46Z</time></trkpt>
    <trkpt lat="47.72686" lon="13.77201"><ele>1216</ele><time>2022-07-17T08:54:28Z</time></trkpt>
    <trkpt lat="47.72676" lon="13.77200"><ele>1222</ele><time>2022-07-17T08:54:47Z</time></trkpt>
    <trkpt lat="47.72668" lon="13.77187"><ele>1230</ele><time>2022-07-17T08:55:05Z</time></trkpt>
    <trkpt lat="47.72671" lon="13.77202"><ele>1236</ele><time>2022-07-17T08:55:23Z</time></trkpt>
    <trkpt lat="47.72685" lon="13.77215"><ele>1247</ele><time>2022-07-17T08:56:09Z</time></trkpt>
    <trkpt lat="47.72702" lon="13.77216"><ele>1252</ele><time>2022-07-17T08:56:27Z</time></trkpt>
    <trkpt lat="47.72694" lon="13.77236"><ele>1235</ele><time>2022-07-17T08:56:46Z</time></trkpt>
    <trkpt lat="47.72679" lon="13.77245"><ele>1253</ele><time>2022-07-17T08:57:36Z</time></trkpt>
    <trkpt lat="47.72669" lon="13.77271"><ele>1264</ele><time>2022-07-17T08:58:15Z</time></trkpt>
    <trkpt lat="47.72652" lon="13.77269"><ele>1266</ele><time>2022-07-17T08:58:58Z</time></trkpt>
    <trkpt lat="47.72638" lon="13.77252"><ele>1276</ele><time>2022-07-17T08:59:39Z</time></trkpt>
    <trkpt lat="47.72626" lon="13.77254"><ele>1281</ele><time>2022-07-17T08:59:58Z</time></trkpt>
    <trkpt lat="47.72613" lon="13.77265"><ele>1291</ele><time>2022-07-17T09:00:34Z</time></trkpt>
    <trkpt lat="47.72614" lon="13.77289"><ele>1292</ele><time>2022-07-17T09:00:53Z</time></trkpt>
    <trkpt lat="47.72605" lon="13.77297"><ele>1292</ele><time>2022-07-17T09:01:12Z</time></trkpt>
    <trkpt lat="47.72596" lon="13.77287"><ele>1294</ele><time>2022-07-17T09:01:30Z</time></trkpt>
    <trkpt lat="47.72596" lon="13.77273"><ele>1299</ele><time>2022-07-17T09:01:48Z</time></trkpt>
    <trkpt lat="47.72581" lon="13.77275"><ele>1326</ele><time>2022-07-17T09:03:18Z</time></trkpt>
    <trkpt lat="47.72579" lon="13.77290"><ele>1327</ele><time>2022-07-17T09:03:37Z</time></trkpt>
    <trkpt lat="47.72569" lon="13.77294"><ele>1326</ele><time>2022-07-17T09:03:56Z</time></trkpt>
    <trkpt lat="47.72562" lon="13.77309"><ele>1330</ele><time>2022-07-17T09:04:14Z</time></trkpt>
    <trkpt lat="47.72554" lon="13.77301"><ele>1339</ele><time>2022-07-17T09:04:33Z</time></trkpt>
    <trkpt lat="47.72544" lon="13.77314"><ele>1342</ele><time>2022-07-17T09:04:52Z</time></trkpt>
    <trkpt lat="47.72531" lon="13.77313"><ele>1333</ele><time>2022-07-17T09:05:10Z</time></trkpt>
    <trkpt lat="47.72522" lon="13.77305"><ele>1338</ele><time>2022-07-17T09:05:29Z</time></trkpt>
    <trkpt lat="47.72510" lon="13.77297"><ele>1342</ele><time>2022-07-17T09:05:47Z</time></trkpt>
    <trkpt lat="47.72501" lon="13.77286"><ele>1345</ele><time>2022-07-17T09:06:06Z</time></trkpt>
    <trkpt lat="47.72488" lon="13.77281"><ele>1353</ele><time>2022-07-17T09:06:24Z</time></trkpt>
    <trkpt lat="47.72473" lon="13.77273"><ele>1349</ele><time>2022-07-17T09:06:43Z</time></trkpt>
    <trkpt lat="47.72480" lon="13.77303"><ele>1342</ele><time>2022-07-17T09:08:08Z</time></trkpt>
    <trkpt lat="47.72486" lon="13.77316"><ele>1344</ele><time>2022-07-17T09:08:26Z</time></trkpt>
    <trkpt lat="47.72500" lon="13.77342"><ele>1359</ele><time>2022-07-17T09:09:03Z</time></trkpt>
    <trkpt lat="47.72502" lon="13.77360"><ele>1359</ele><time>2022-07-17T09:09:21Z</time></trkpt>
    <trkpt lat="47.72501" lon="13.77375"><ele>1363</ele><time>2022-07-17T09:09:40Z</time></trkpt>
    <trkpt lat="47.72487" lon="13.77379"><ele>1335</ele><time>2022-07-17T09:09:59Z</time></trkpt>
    <trkpt lat="47.72475" lon="13.77390"><ele>1358</ele><time>2022-07-17T09:10:17Z</time></trkpt>
    <trkpt lat="47.72466" lon="13.77408"><ele>1334</ele><time>2022-07-17T09:10:36Z</time></trkpt>
    <trkpt lat="47.72460" lon="13.77430"><ele>1371</ele><time>2022-07-17T09:10:55Z</time></trkpt>
    <trkpt lat="47.72457" lon="13.77455"><ele>1375</ele><time>2022-07-17T09:11:13Z</time></trkpt>
    <trkpt lat="47.72452" lon="13.77469"><ele>1378</ele><time>2022-07-17T09:11:32Z</time></trkpt>
    <trkpt lat="47.72450" lon="13.77486"><ele>1379</ele><time>2022-07-17T09:11:51Z</time></trkpt>
    <trkpt lat="47.72455" lon="13.77514"><ele>1380</ele><time>2022-07-17T09:12:27Z</time></trkpt>
    <trkpt lat="47.72467" lon="13.77526"><ele>1379</ele><time>2022-07-17T09:12:46Z</time></trkpt>
    <trkpt lat="47.72479" lon="13.77536"><ele>1379</ele><time>2022-07-17T09:13:05Z</time></trkpt>
    <trkpt lat="47.72492" lon="13.77553"><ele>1384</ele><time>2022-07-17T09:13:23Z</time></trkpt>
    <trkpt lat="47.72511" lon="13.77571"><ele>1340</ele><time>2022-07-17T09:14:00Z</time></trkpt>
    <trkpt lat="47.72525" lon="13.77580"><ele>1375</ele><time>2022-07-17T09:14:19Z</time></trkpt>
    <trkpt lat="47.72530" lon="13.77593"><ele>1380</ele><time>2022-07-17T09:14:38Z</time></trkpt>
    <trkpt lat="47.72532" lon="13.77608"><ele>1375</ele><time>2022-07-17T09:14:57Z</time></trkpt>
    <trkpt lat="47.72549" lon="13.77632"><ele>1374</ele><time>2022-07-17T09:15:34Z</time></trkpt>
    <trkpt lat="47.72558" lon="13.77645"><ele>1385</ele><time>2022-07-17T09:15:53Z</time></trkpt>
    <trkpt lat="47.72558" lon="13.77660"><ele>1395</ele><time>2022-07-17T09:16:11Z</time></trkpt>
    <trkpt lat="47.72572" lon="13.77667"><ele>1406</ele><time>2022-07-17T09:16:30Z</time></trkpt>
    <trkpt lat="47.72587" lon="13.77685"><ele>1405</ele><time>2022-07-17T09:17:07Z</time></trkpt>
    <trkpt lat="47.72588" lon="13.77701"><ele>1388</ele><time>2022-07-17T09:17:25Z</time></trkpt>
    <trkpt lat="47.72596" lon="13.77719"><ele>1408</ele><time>2022-07-17T09:17:44Z</time></trkpt>
    <trkpt lat="47.72601" lon="13.77738"><ele>1406</ele><time>2022-07-17T09:18:02Z</time></trkpt>
    <trkpt lat="47.72610" lon="13.77760"><ele>1404</ele><time>2022-07-17T09:18:21Z</time></trkpt>
    <trkpt lat="47.72618" lon="13.77777"><ele>1412</ele><time>2022-07-17T09:18:40Z</time></trkpt>
    <trkpt lat="47.72629" lon="13.77796"><ele>1418</ele><time>2022-07-17T09:18:58Z</time></trkpt>
    <trkpt lat="47.72626" lon="13.77814"><ele>1417</ele><time>2022-07-17T09:19:17Z</time></trkpt>
    <trkpt lat="47.72625" lon="13.77834"><ele>1400</ele><time>2022-07-17T09:19:36Z</time></trkpt>
    <trkpt lat="47.72608" lon="13.77833"><ele>1423</ele><time>2022-07-17T09:20:19Z</time></trkpt>
    <trkpt lat="47.72592" lon="13.77838"><ele>1433</ele><time>2022-07-17T09:20:58Z</time></trkpt>
    <trkpt lat="47.72591" lon="13.77864"><ele>1443</ele><time>2022-07-17T09:21:45Z</time></trkpt>
    <trkpt lat="47.72601" lon="13.77879"><ele>1451</ele><time>2022-07-17T09:22:03Z</time></trkpt>
    <trkpt lat="47.72603" lon="13.77893"><ele>1453</ele><time>2022-07-17T09:22:22Z</time></trkpt>
    <trkpt lat="47.72613" lon="13.77918"><ele>1458</ele><time>2022-07-17T09:22:59Z</time></trkpt>
    <trkpt lat="47.72618" lon="13.77930"><ele>1466</ele><time>2022-07-17T09:23:23Z</time></trkpt>
    <trkpt lat="47.72616" lon="13.77950"><ele>1393</ele><time>2022-07-17T09:23:41Z</time></trkpt>
    <trkpt lat="47.72596" lon="13.77963"><ele>1468</ele><time>2022-07-17T09:24:20Z</time></trkpt>
    <trkpt lat="47.72595" lon="13.77982"><ele>1470</ele><time>2022-07-17T09:24:38Z</time></trkpt>
    <trkpt lat="47.72599" lon="13.78004"><ele>1473</ele><time>2022-07-17T09:24:56Z</time></trkpt>
    <trkpt lat="47.72600" lon="13.78024"><ele>1475</ele><time>2022-07-17T09:25:15Z</time></trkpt>
    <trkpt lat="47.72605" lon="13.78042"><ele>1481</ele><time>2022-07-17T09:25:33Z</time></trkpt>
    <trkpt lat="47.72602" lon="13.78062"><ele>1480</ele><time>2022-07-17T09:25:52Z</time></trkpt>
    <trkpt lat="47.72602" lon="13.78084"><ele>1455</ele><time>2022-07-17T09:26:10Z</time></trkpt>
    <trkpt lat="47.72599" lon="13.78107"><ele>1477</ele><time>2022-07-17T09:26:28Z</time></trkpt>
    <trkpt lat="47.72598" lon="13.78126"><ele>1480</ele><time>2022-07-17T09:26:46Z</time></trkpt>
    <trkpt lat="47.72603" lon="13.78149"><ele>1476</ele><time>2022-07-17T09:27:04Z</time></trkpt>
    <trkpt lat="47.72602" lon="13.78170"><ele>1485</ele><time>2022-07-17T09:27:23Z</time></trkpt>
    <trkpt lat="47.72603" lon="13.78188"><ele>1481</ele><time>2022-07-17T09:27:42Z</time></trkpt>
    <trkpt lat="47.72602" lon="13.78207"><ele>1484</ele><time>2022-07-17T09:28:01Z</time></trkpt>
    <trkpt lat="47.72589" lon="13.78235"><ele>1484</ele><time>2022-07-17T09:28:38Z</time></trkpt>
    <trkpt lat="47.72587" lon="13.78256"><ele>1488</ele><time>2022-07-17T09:28:57Z</time></trkpt>
    <trkpt lat="47.72579" lon="13.78268"><ele>1491</ele><time>2022-07-17T09:29:16Z</time></trkpt>
    <trkpt lat="47.72584" lon="13.78284"><ele>1493</ele><time>2022-07-17T09:29:34Z</time></trkpt>
    <trkpt lat="47.72592" lon="13.78309"><ele>1497</ele><time>2022-07-17T09:29:53Z</time></trkpt>
    <trkpt lat="47.72596" lon="13.78332"><ele>1499</ele><time>2022-07-17T09:30:12Z</time></trkpt>
    <trkpt lat="47.72594" lon="13.78346"><ele>1498</ele><time>2022-07-17T09:30:30Z</time></trkpt>
    <trkpt lat="47.72586" lon="13.78353"><ele>1451</ele><time>2022-07-17T09:30:49Z</time></trkpt>
    <trkpt lat="47.72579" lon="13.78371"><ele>1500</ele><time>2022-07-17T09:31:08Z</time></trkpt>
    <trkpt lat="47.72570" lon="13.78367"><ele>1500</ele><time>2022-07-17T09:31:27Z</time></trkpt>
    <trkpt lat="47.72562" lon="13.78375"><ele>1498</ele><time>2022-07-17T09:31:46Z</time></trkpt>
    <trkpt lat="47.72553" lon="13.78385"><ele>1498</ele><time>2022-07-17T09:32:04Z</time></trkpt>
    <trkpt lat="47.72541" lon="13.78403"><ele>1495</ele><time>2022-07-17T09:33:09Z</time></trkpt>
    <trkpt lat="47.72554" lon="13.78414"><ele>1493</ele><time>2022-07-17T09:34:17Z</time></trkpt>
    <trkpt lat="47.72560" lon="13.78425"><ele>1493</ele><time>2022-07-17T09:34:35Z</time></trkpt>
    <trkpt lat="47.72566" lon="13.78439"><ele>1489</ele><time>2022-07-17T09:34:54Z</time></trkpt>
    <trkpt lat="47.72572" lon="13.78454"><ele>1489</ele><time>2022-07-17T09:35:12Z</time></trkpt>
    <trkpt lat="47.72585" lon="13.78492"><ele>1489</ele><time>2022-07-17T09:35:51Z</time></trkpt>
    <trkpt lat="47.72600" lon="13.78510"><ele>1416</ele><time>2022-07-17T09:36:10Z</time></trkpt>
    <trkpt lat="47.72609" lon="13.78538"><ele>1298</ele><time>2022-07-17T09:36:28Z</time></trkpt>
    <trkpt lat="47.72619" lon="13.78569"><ele>1483</ele><time>2022-07-17T09:36:47Z</time></trkpt>
    <trkpt lat="47.72620" lon="13.78583"><ele>1481</ele><time>2022-07-17T09:37:06Z</time></trkpt>
    <trkpt lat="47.72623" lon="13.78598"><ele>1480</ele><time>2022-07-17T09:37:24Z</time></trkpt>
    <trkpt lat="47.72632" lon="13.78623"><ele>1470</ele><time>2022-07-17T09:37:42Z</time></trkpt>
    <trkpt lat="47.72634" lon="13.78637"><ele>1480</ele><time>2022-07-17T09:38:01Z</time></trkpt>
    <trkpt lat="47.72625" lon="13.78640"><ele>1363</ele><time>2022-07-17T09:38:20Z</time></trkpt>
    <trkpt lat="47.72630" lon="13.78657"><ele>1445</ele><time>2022-07-17T09:38:38Z</time></trkpt>
    <trkpt lat="47.72642" lon="13.78672"><ele>1497</ele><time>2022-07-17T09:38:57Z</time></trkpt>
    <trkpt lat="47.72651" lon="13.78687"><ele>1312</ele><time>2022-07-17T09:39:15Z</time></trkpt>
    <trkpt lat="47.72659" lon="13.78713"><ele>1499</ele><time>2022-07-17T09:39:52Z</time></trkpt>
    <trkpt lat="47.72641" lon="13.78706"><ele>1503</ele><time>2022-07-17T09:40:29Z</time></trkpt>
    <trkpt lat="47.72631" lon="13.78694"><ele>1509</ele><time>2022-07-17T09:40:47Z</time></trkpt>
    <trkpt lat="47.72618" lon="13.78707"><ele>1502</ele><time>2022-07-17T09:41:31Z</time></trkpt>
    <trkpt lat="47.72602" lon="13.78701"><ele>1520</ele><time>2022-07-17T09:42:28Z</time></trkpt>
    <trkpt lat="47.72597" lon="13.78713"><ele>1525</ele><time>2022-07-17T09:43:20Z</time></trkpt>
    <trkpt lat="47.72603" lon="13.78725"><ele>1550</ele><time>2022-07-17T09:43:39Z</time></trkpt>
    <trkpt lat="47.72598" lon="13.78747"><ele>1534</ele><time>2022-07-17T09:44:20Z</time></trkpt>
    <trkpt lat="47.72620" lon="13.78768"><ele>1553</ele><time>2022-07-17T09:44:58Z</time></trkpt>
    <trkpt lat="47.72631" lon="13.78784"><ele>1553</ele><time>2022-07-17T09:45:16Z</time></trkpt>
    <trkpt lat="47.72645" lon="13.78800"><ele>1553</ele><time>2022-07-17T09:45:34Z</time></trkpt>
    <trkpt lat="47.72662" lon="13.78815"><ele>1555</ele><time>2022-07-17T09:45:52Z</time></trkpt>
    <trkpt lat="47.72674" lon="13.78832"><ele>1553</ele><time>2022-07-17T09:46:11Z</time></trkpt>
    <trkpt lat="47.72685" lon="13.78851"><ele>1556</ele><time>2022-07-17T09:46:30Z</time></trkpt>
    <trkpt lat="47.72678" lon="13.78866"><ele>1557</ele><time>2022-07-17T09:46:49Z</time></trkpt>
    <trkpt lat="47.72665" lon="13.78859"><ele>1560</ele><time>2022-07-17T09:47:07Z</time></trkpt>
    <trkpt lat="47.72679" lon="13.78866"><ele>1559</ele><time>2022-07-17T09:47:26Z</time></trkpt>
    <trkpt lat="47.72694" lon="13.78884"><ele>1557</ele><time>2022-07-17T09:47:44Z</time></trkpt>
    <trkpt lat="47.72693" lon="13.78906"><ele>1553</ele><time>2022-07-17T09:48:03Z</time></trkpt>
    <trkpt lat="47.72702" lon="13.78915"><ele>1554</ele><time>2022-07-17T09:48:21Z</time></trkpt>
    <trkpt lat="47.72719" lon="13.78923"><ele>1552</ele><time>2022-07-17T09:48:40Z</time></trkpt>
    <trkpt lat="47.72738" lon="13.78927"><ele>1549</ele><time>2022-07-17T09:48:59Z</time></trkpt>
    <trkpt lat="47.72755" lon="13.78937"><ele>1550</ele><time>2022-07-17T09:49:17Z</time></trkpt>
    <trkpt lat="47.72764" lon="13.78963"><ele>1549</ele><time>2022-07-17T09:49:35Z</time></trkpt>
    <trkpt lat="47.72781" lon="13.78986"><ele>1546</ele><time>2022-07-17T09:49:54Z</time></trkpt>
    <trkpt lat="47.72780" lon="13.79009"><ele>1547</ele><time>2022-07-17T09:50:13Z</time></trkpt>
    <trkpt lat="47.72793" lon="13.79028"><ele>1550</ele><time>2022-07-17T09:50:32Z</time></trkpt>
    <trkpt lat="47.72801" lon="13.79041"><ele>1552</ele><time>2022-07-17T09:50:50Z</time></trkpt>
    <trkpt lat="47.72806" lon="13.79054"><ele>1559</ele><time>2022-07-17T09:51:09Z</time></trkpt>
    <trkpt lat="47.72817" lon="13.79056"><ele>1560</ele><time>2022-07-17T09:51:28Z</time></trkpt>
    <trkpt lat="47.72817" lon="13.79074"><ele>1562</ele><time>2022-07-17T09:51:46Z</time></trkpt>
    <trkpt lat="47.72830" lon="13.79083"><ele>1564</ele><time>2022-07-17T09:52:05Z</time></trkpt>
    <trkpt lat="47.72845" lon="13.79089"><ele>1566</ele><time>2022-07-17T09:52:24Z</time></trkpt>
    <trkpt lat="47.72854" lon="13.79085"><ele>1569</ele><time>2022-07-17T09:52:42Z</time></trkpt>
    <trkpt lat="47.72863" lon="13.79084"><ele>1575</ele><time>2022-07-17T09:53:00Z</time></trkpt>
    <trkpt lat="47.72876" lon="13.79079"><ele>1582</ele><time>2022-07-17T09:53:19Z</time></trkpt>
    <trkpt lat="47.72876" lon="13.79097"><ele>1583</ele><time>2022-07-17T09:56:48Z</time></trkpt>
    <trkpt lat="47.72870" lon="13.79086"><ele>1581</ele><time>2022-07-17T09:57:07Z</time></trkpt>
    <trkpt lat="47.72854" lon="13.79080"><ele>1572</ele><time>2022-07-17T10:01:36Z</time></trkpt>
    <trkpt lat="47.72840" lon="13.79080"><ele>1568</ele><time>2022-07-17T10:01:54Z</time></trkpt>
    <trkpt lat="47.72827" lon="13.79086"><ele>1566</ele><time>2022-07-17T10:02:13Z</time></trkpt>
    <trkpt lat="47.72820" lon="13.79070"><ele>1564</ele><time>2022-07-17T10:02:31Z</time></trkpt>
    <trkpt lat="47.72817" lon="13.79050"><ele>1567</ele><time>2022-07-17T10:02:49Z</time></trkpt>
    <trkpt lat="47.72803" lon="13.79036"><ele>1560</ele><time>2022-07-17T10:03:08Z</time></trkpt>
    <trkpt lat="47.72795" lon="13.79020"><ele>1550</ele><time>2022-07-17T10:03:26Z</time></trkpt>
    <trkpt lat="47.72782" lon="13.79007"><ele>1550</ele><time>2022-07-17T10:03:45Z</time></trkpt>
    <trkpt lat="47.72778" lon="13.78979"><ele>1552</ele><time>2022-07-17T10:04:03Z</time></trkpt>
    <trkpt lat="47.72767" lon="13.78965"><ele>1551</ele><time>2022-07-17T10:04:21Z</time></trkpt>
    <trkpt lat="47.72764" lon="13.78936"><ele>1550</ele><time>2022-07-17T10:04:40Z</time></trkpt>
    <trkpt lat="47.72752" lon="13.78920"><ele>1552</ele><time>2022-07-17T10:04:59Z</time></trkpt>
    <trkpt lat="47.72738" lon="13.78923"><ele>1557</ele><time>2022-07-17T10:05:17Z</time></trkpt>
    <trkpt lat="47.72723" lon="13.78917"><ele>1560</ele><time>2022-07-17T10:05:36Z</time></trkpt>
    <trkpt lat="47.72721" lon="13.78902"><ele>1561</ele><time>2022-07-17T10:05:54Z</time></trkpt>
    <trkpt lat="47.72710" lon="13.78887"><ele>1555</ele><time>2022-07-17T10:06:13Z</time></trkpt>
    <trkpt lat="47.72691" lon="13.78881"><ele>1534</ele><time>2022-07-17T10:06:31Z</time></trkpt>
    <trkpt lat="47.72680" lon="13.78895"><ele>1553</ele><time>2022-07-17T10:06:50Z</time></trkpt>
    <trkpt lat="47.72666" lon="13.78900"><ele>1550</ele><time>2022-07-17T10:07:08Z</time></trkpt>
    <trkpt lat="47.72655" lon="13.78911"><ele>1545</ele><time>2022-07-17T10:07:27Z</time></trkpt>
    <trkpt lat="47.72640" lon="13.78909"><ele>1541</ele><time>2022-07-17T10:07:46Z</time></trkpt>
    <trkpt lat="47.72625" lon="13.78896"><ele>1532</ele><time>2022-07-17T10:08:04Z</time></trkpt>
    <trkpt lat="47.72611" lon="13.78894"><ele>1536</ele><time>2022-07-17T10:08:22Z</time></trkpt>
    <trkpt lat="47.72594" lon="13.78888"><ele>1528</ele><time>2022-07-17T10:08:41Z</time></trkpt>
    <trkpt lat="47.72578" lon="13.78883"><ele>1527</ele><time>2022-07-17T10:08:59Z</time></trkpt>
    <trkpt lat="47.72567" lon="13.78890"><ele>1524</ele><time>2022-07-17T10:09:18Z</time></trkpt>
    <trkpt lat="47.72560" lon="13.78899"><ele>1521</ele><time>2022-07-17T10:09:37Z</time></trkpt>
    <trkpt lat="47.72554" lon="13.78912"><ele>1517</ele><time>2022-07-17T10:09:55Z</time></trkpt>
    <trkpt lat="47.72556" lon="13.78931"><ele>1514</ele><time>2022-07-17T10:10:14Z</time></trkpt>
    <trkpt lat="47.72559" lon="13.78945"><ele>1510</ele><time>2022-07-17T10:10:32Z</time></trkpt>
    <trkpt lat="47.72550" lon="13.78963"><ele>1499</ele><time>2022-07-17T10:11:17Z</time></trkpt>
    <trkpt lat="47.72554" lon="13.78980"><ele>1497</ele><time>2022-07-17T10:11:36Z</time></trkpt>
    <trkpt lat="47.72540" lon="13.78990"><ele>1489</ele><time>2022-07-17T10:12:14Z</time></trkpt>
    <trkpt lat="47.72536" lon="13.79006"><ele>1478</ele><time>2022-07-17T10:12:56Z</time></trkpt>
    <trkpt lat="47.72517" lon="13.78993"><ele>1469</ele><time>2022-07-17T10:13:33Z</time></trkpt>
    <trkpt lat="47.72504" lon="13.79010"><ele>1162</ele><time>2022-07-17T10:14:17Z</time></trkpt>
    <trkpt lat="47.72515" lon="13.79024"><ele>1468</ele><time>2022-07-17T10:14:36Z</time></trkpt>
    <trkpt lat="47.72522" lon="13.79038"><ele>1465</ele><time>2022-07-17T10:14:54Z</time></trkpt>
    <trkpt lat="47.72528" lon="13.79064"><ele>1460</ele><time>2022-07-17T10:15:32Z</time></trkpt>
    <trkpt lat="47.72537" lon="13.79078"><ele>1317</ele><time>2022-07-17T10:15:51Z</time></trkpt>
    <trkpt lat="47.72546" lon="13.79092"><ele>1447</ele><time>2022-07-17T10:16:10Z</time></trkpt>
    <trkpt lat="47.72538" lon="13.79112"><ele>1442</ele><time>2022-07-17T10:16:52Z</time></trkpt>
    <trkpt lat="47.72543" lon="13.79126"><ele>1439</ele><time>2022-07-17T10:17:12Z</time></trkpt>
    <trkpt lat="47.72552" lon="13.79149"><ele>1407</ele><time>2022-07-17T10:17:58Z</time></trkpt>
    <trkpt lat="47.72558" lon="13.79161"><ele>1440</ele><time>2022-07-17T10:18:17Z</time></trkpt>
    <trkpt lat="47.72566" lon="13.79192"><ele>1426</ele><time>2022-07-17T10:18:53Z</time></trkpt>
    <trkpt lat="47.72573" lon="13.79209"><ele>1429</ele><time>2022-07-17T10:19:11Z</time></trkpt>
    <trkpt lat="47.72575" lon="13.79227"><ele>1420</ele><time>2022-07-17T10:19:30Z</time></trkpt>
    <trkpt lat="47.72581" lon="13.79237"><ele>1410</ele><time>2022-07-17T10:19:48Z</time></trkpt>
    <trkpt lat="47.72584" lon="13.79255"><ele>1405</ele><time>2022-07-17T10:20:06Z</time></trkpt>
    <trkpt lat="47.72577" lon="13.79270"><ele>1398</ele><time>2022-07-17T10:20:24Z</time></trkpt>
    <trkpt lat="47.72582" lon="13.79290"><ele>1398</ele><time>2022-07-17T10:21:05Z</time></trkpt>
    <trkpt lat="47.72598" lon="13.79313"><ele>1381</ele><time>2022-07-17T10:21:51Z</time></trkpt>
    <trkpt lat="47.72610" lon="13.79317"><ele>1390</ele><time>2022-07-17T10:22:09Z</time></trkpt>
    <trkpt lat="47.72625" lon="13.79320"><ele>1411</ele><time>2022-07-17T10:22:28Z</time></trkpt>
    <trkpt lat="47.72613" lon="13.79334"><ele>1167</ele><time>2022-07-17T10:22:47Z</time></trkpt>
    <trkpt lat="47.72604" lon="13.79360"><ele>1366</ele><time>2022-07-17T10:23:28Z</time></trkpt>
    <trkpt lat="47.72617" lon="13.79363"><ele>1362</ele><time>2022-07-17T10:23:47Z</time></trkpt>
    <trkpt lat="47.72627" lon="13.79357"><ele>1356</ele><time>2022-07-17T10:24:06Z</time></trkpt>
    <trkpt lat="47.72633" lon="13.79371"><ele>1321</ele><time>2022-07-17T10:24:50Z</time></trkpt>
    <trkpt lat="47.72645" lon="13.79358"><ele>1357</ele><time>2022-07-17T10:25:09Z</time></trkpt>
    <trkpt lat="47.72655" lon="13.79357"><ele>1349</ele><time>2022-07-17T10:25:27Z</time></trkpt>
    <trkpt lat="47.72673" lon="13.79356"><ele>1416</ele><time>2022-07-17T10:25:46Z</time></trkpt>
    <trkpt lat="47.72690" lon="13.79355"><ele>1360</ele><time>2022-07-17T10:26:04Z</time></trkpt>
    <trkpt lat="47.72696" lon="13.79366"><ele>1358</ele><time>2022-07-17T10:26:23Z</time></trkpt>
    <trkpt lat="47.72712" lon="13.79384"><ele>1388</ele><time>2022-07-17T10:27:03Z</time></trkpt>
    <trkpt lat="47.72719" lon="13.79406"><ele>1336</ele><time>2022-07-17T10:27:45Z</time></trkpt>
    <trkpt lat="47.72722" lon="13.79426"><ele>1324</ele><time>2022-07-17T10:28:46Z</time></trkpt>
    <trkpt lat="47.72741" lon="13.79438"><ele>1322</ele><time>2022-07-17T10:29:27Z</time></trkpt>
    <trkpt lat="47.72750" lon="13.79439"><ele>1321</ele><time>2022-07-17T10:29:45Z</time></trkpt>
    <trkpt lat="47.72766" lon="13.79439"><ele>1295</ele><time>2022-07-17T10:30:36Z</time></trkpt>
    <trkpt lat="47.72771" lon="13.79458"><ele>1284</ele><time>2022-07-17T10:31:16Z</time></trkpt>
    <trkpt lat="47.72760" lon="13.79473"><ele>1280</ele><time>2022-07-17T10:31:35Z</time></trkpt>
    <trkpt lat="47.72758" lon="13.79488"><ele>1274</ele><time>2022-07-17T10:31:54Z</time></trkpt>
    <trkpt lat="47.72755" lon="13.79506"><ele>1265</ele><time>2022-07-17T10:32:13Z</time></trkpt>
    <trkpt lat="47.72770" lon="13.79516"><ele>1257</ele><time>2022-07-17T10:33:08Z</time></trkpt>
    <trkpt lat="47.72783" lon="13.79528"><ele>1255</ele><time>2022-07-17T10:33:45Z</time></trkpt>
    <trkpt lat="47.72802" lon="13.79533"><ele>1257</ele><time>2022-07-17T10:34:30Z</time></trkpt>
    <trkpt lat="47.72817" lon="13.79537"><ele>1159</ele><time>2022-07-17T10:34:48Z</time></trkpt>
    <trkpt lat="47.72826" lon="13.79541"><ele>1281</ele><time>2022-07-17T10:35:08Z</time></trkpt>
    <trkpt lat="47.72833" lon="13.79557"><ele>1256</ele><time>2022-07-17T10:35:26Z</time></trkpt>
    <trkpt lat="47.72845" lon="13.79578"><ele>1258</ele><time>2022-07-17T10:35:45Z</time></trkpt>
    <trkpt lat="47.72854" lon="13.79584"><ele>1261</ele><time>2022-07-17T10:36:03Z</time></trkpt>
    <trkpt lat="47.72865" lon="13.79583"><ele>1262</ele><time>2022-07-17T10:36:22Z</time></trkpt>
    <trkpt lat="47.72874" lon="13.79599"><ele>1248</ele><time>2022-07-17T10:36:40Z</time></trkpt>
    <trkpt lat="47.72887" lon="13.79592"><ele>1194</ele><time>2022-07-17T10:38:06Z</time></trkpt>
    <trkpt lat="47.72893" lon="13.79579"><ele>1183</ele><time>2022-07-17T10:38:24Z</time></trkpt>
    <trkpt lat="47.72902" lon="13.79573"><ele>1177</ele><time>2022-07-17T10:38:43Z</time></trkpt>
    <trkpt lat="47.72913" lon="13.79576"><ele>1155</ele><time>2022-07-17T10:39:22Z</time></trkpt>
    <trkpt lat="47.72923" lon="13.79580"><ele>1156</ele><time>2022-07-17T10:39:40Z</time></trkpt>
    <trkpt lat="47.72935" lon="13.79596"><ele>1037</ele><time>2022-07-17T10:40:22Z</time></trkpt>
    <trkpt lat="47.72944" lon="13.79594"><ele>1150</ele><time>2022-07-17T10:40:40Z</time></trkpt>
    <trkpt lat="47.72959" lon="13.79584"><ele>1133</ele><time>2022-07-17T10:41:19Z</time></trkpt>
    <trkpt lat="47.72969" lon="13.79594"><ele>1132</ele><time>2022-07-17T10:41:37Z</time></trkpt>
    <trkpt lat="47.72982" lon="13.79600"><ele>1136</ele><time>2022-07-17T10:41:56Z</time></trkpt>
    <trkpt lat="47.72989" lon="13.79616"><ele>1133</ele><time>2022-07-17T10:42:15Z</time></trkpt>
    <trkpt lat="47.73009" lon="13.79633"><ele>1128</ele><time>2022-07-17T10:42:53Z</time></trkpt>
    <trkpt lat="47.73029" lon="13.79640"><ele>1114</ele><time>2022-07-17T10:43:38Z</time></trkpt>
    <trkpt lat="47.73039" lon="13.79646"><ele>1114</ele><time>2022-07-17T10:43:56Z</time></trkpt>
    <trkpt lat="47.73052" lon="13.79654"><ele>1092</ele><time>2022-07-17T10:44:45Z</time></trkpt>
    <trkpt lat="47.73066" lon="13.79642"><ele>1084</ele><time>2022-07-17T10:45:31Z</time></trkpt>
    <trkpt lat="47.73073" lon="13.79635"><ele>1080</ele><time>2022-07-17T10:45:50Z</time></trkpt>
    <trkpt lat="47.73083" lon="13.79635"><ele>1070</ele><time>2022-07-17T10:46:09Z</time></trkpt>
    <trkpt lat="47.73093" lon="13.79626"><ele>1067</ele><time>2022-07-17T10:46:28Z</time></trkpt>
    <trkpt lat="47.73106" lon="13.79622"><ele>1052</ele><time>2022-07-17T10:46:46Z</time></trkpt>
    <trkpt lat="47.73116" lon="13.79616"><ele>1056</ele><time>2022-07-17T10:47:04Z</time></trkpt>
    <trkpt lat="47.73125" lon="13.79615"><ele>1045</ele><time>2022-07-17T10:47:23Z</time></trkpt>
    <trkpt lat="47.73137" lon="13.79620"><ele>1045</ele><time>2022-07-17T10:47:41Z</time></trkpt>
    <trkpt lat="47.73133" lon="13.79607"><ele>1232</ele><time>2022-07-17T10:47:59Z</time></trkpt>
    <trkpt lat="47.73139" lon="13.79588"><ele>1038</ele><time>2022-07-17T10:48:40Z</time></trkpt>
    <trkpt lat="47.73154" lon="13.79595"><ele>1035</ele><time>2022-07-17T10:49:32Z</time></trkpt>
    <trkpt lat="47.73165" lon="13.79592"><ele>1037</ele><time>2022-07-17T10:49:51Z</time></trkpt>
    <trkpt lat="47.73170" lon="13.79574"><ele>1023</ele><time>2022-07-17T10:50:28Z</time></trkpt>
    <trkpt lat="47.73186" lon="13.79569"><ele>1000</ele><time>2022-07-17T10:51:16Z</time></trkpt>
    <trkpt lat="47.73193" lon="13.79584"><ele>992</ele><time>2022-07-17T10:51:34Z</time></trkpt>
    <trkpt lat="47.73192" lon="13.79552"><ele>975</ele><time>2022-07-17T10:52:22Z</time></trkpt>
    <trkpt lat="47.73194" lon="13.79536"><ele>908</ele><time>2022-07-17T10:52:40Z</time></trkpt>
    <trkpt lat="47.73203" lon="13.79519"><ele>965</ele><time>2022-07-17T10:52:59Z</time></trkpt>
    <trkpt lat="47.73205" lon="13.79505"><ele>966</ele><time>2022-07-17T10:53:17Z</time></trkpt>
    <trkpt lat="47.73219" lon="13.79495"><ele>944</ele><time>2022-07-17T10:53:54Z</time></trkpt>
    <trkpt lat="47.73234" lon="13.79483"><ele>852</ele><time>2022-07-17T10:54:47Z</time></trkpt>
    <trkpt lat="47.73249" lon="13.79481"><ele>945</ele><time>2022-07-17T10:55:36Z</time></trkpt>
    <trkpt lat="47.73265" lon="13.79492"><ele>937</ele><time>2022-07-17T10:56:17Z</time></trkpt>
    <trkpt lat="47.73282" lon="13.79485"><ele>916</ele><time>2022-07-17T10:57:07Z</time></trkpt>
    <trkpt lat="47.73289" lon="13.79467"><ele>908</ele><time>2022-07-17T10:57:49Z</time></trkpt>
    <trkpt lat="47.73301" lon="13.79479"><ele>768</ele><time>2022-07-17T10:58:07Z</time></trkpt>
    <trkpt lat="47.73317" lon="13.79481"><ele>898</ele><time>2022-07-17T10:59:19Z</time></trkpt>
    <trkpt lat="47.73328" lon="13.79462"><ele>880</ele><time>2022-07-17T11:00:03Z</time></trkpt>
    <trkpt lat="47.73342" lon="13.79467"><ele>870</ele><time>2022-07-17T11:01:05Z</time></trkpt>
    <trkpt lat="47.73349" lon="13.79454"><ele>869</ele><time>2022-07-17T11:01:23Z</time></trkpt>
    <trkpt lat="47.73361" lon="13.79433"><ele>864</ele><time>2022-07-17T11:02:05Z</time></trkpt>
    <trkpt lat="47.73374" lon="13.79419"><ele>851</ele><time>2022-07-17T11:03:01Z</time></trkpt>
    <trkpt lat="47.73381" lon="13.79403"><ele>853</ele><time>2022-07-17T11:03:19Z</time></trkpt>
    <trkpt lat="47.73397" lon="13.79399"><ele>841</ele><time>2022-07-17T11:04:03Z</time></trkpt>
    <trkpt lat="47.73401" lon="13.79371"><ele>836</ele><time>2022-07-17T11:04:39Z</time></trkpt>
    <trkpt lat="47.73408" lon="13.79353"><ele>830</ele><time>2022-07-17T11:04:58Z</time></trkpt>
    <trkpt lat="47.73417" lon="13.79340"><ele>827</ele><time>2022-07-17T11:05:16Z</time></trkpt>
    <trkpt lat="47.73424" lon="13.79329"><ele>827</ele><time>2022-07-17T11:05:35Z</time></trkpt>
    <trkpt lat="47.73427" lon="13.79316"><ele>822</ele><time>2022-07-17T11:05:53Z</time></trkpt>
    <trkpt lat="47.73428" lon="13.79300"><ele>820</ele><time>2022-07-17T11:06:12Z</time></trkpt>
    <trkpt lat="47.73424" lon="13.79279"><ele>819</ele><time>2022-07-17T11:06:30Z</time></trkpt>
    <trkpt lat="47.73424" lon="13.79257"><ele>816</ele><time>2022-07-17T11:06:49Z</time></trkpt>
    <trkpt lat="47.73426" lon="13.79240"><ele>814</ele><time>2022-07-17T11:07:07Z</time></trkpt>
    <trkpt lat="47.73428" lon="13.79219"><ele>814</ele><time>2022-07-17T11:07:26Z</time></trkpt>
    <trkpt lat="47.73441" lon="13.79204"><ele>806</ele><time>2022-07-17T11:07:44Z</time></trkpt>
    <trkpt lat="47.73450" lon="13.79181"><ele>802</ele><time>2022-07-17T11:08:03Z</time></trkpt>
    <trkpt lat="47.73459" lon="13.79159"><ele>802</ele><time>2022-07-17T11:08:21Z</time></trkpt>
    <trkpt lat="47.73473" lon="13.79144"><ele>799</ele><time>2022-07-17T11:08:40Z</time></trkpt>
    <trkpt lat="47.73482" lon="13.79133"><ele>795</ele><time>2022-07-17T11:08:58Z</time></trkpt>
    <trkpt lat="47.73493" lon="13.79114"><ele>794</ele><time>2022-07-17T11:09:16Z</time></trkpt>
    <trkpt lat="47.73511" lon="13.79095"><ele>788</ele><time>2022-07-17T11:09:35Z</time></trkpt>
    <trkpt lat="47.73526" lon="13.79076"><ele>786</ele><time>2022-07-17T11:09:53Z</time></trkpt>
    <trkpt lat="47.73542" lon="13.79054"><ele>788</ele><time>2022-07-17T11:10:12Z</time></trkpt>
    <trkpt lat="47.73550" lon="13.79030"><ele>785</ele><time>2022-07-17T11:10:31Z</time></trkpt>
    <trkpt lat="47.73556" lon="13.78997"><ele>784</ele><time>2022-07-17T11:10:50Z</time></trkpt>
    <trkpt lat="47.73573" lon="13.78972"><ele>786</ele><time>2022-07-17T11:11:09Z</time></trkpt>
    <trkpt lat="47.73587" lon="13.78956"><ele>787</ele><time>2022-07-17T11:11:27Z</time></trkpt>
    <trkpt lat="47.73602" lon="13.78942"><ele>792</ele><time>2022-07-17T11:11:46Z</time></trkpt>
    <trkpt lat="47.73622" lon="13.78924"><ele>790</ele><time>2022-07-17T11:12:05Z</time></trkpt>
    <trkpt lat="47.73646" lon="13.78909"><ele>788</ele><time>2022-07-17T11:12:23Z</time></trkpt>
    <trkpt lat="47.73654" lon="13.78890"><ele>787</ele><time>2022-07-17T11:12:41Z</time></trkpt>
    <trkpt lat="47.73670" lon="13.78875"><ele>787</ele><time>2022-07-17T11:12:59Z</time></trkpt>
    <trkpt lat="47.73685" lon="13.78864"><ele>786</ele><time>2022-07-17T11:13:18Z</time></trkpt>
    <trkpt lat="47.73707" lon="13.78857"><ele>782</ele><time>2022-07-17T11:13:36Z</time></trkpt>
    <trkpt lat="47.73725" lon="13.78846"><ele>778</ele><time>2022-07-17T11:13:55Z</time></trkpt>
    <trkpt lat="47.73740" lon="13.78837"><ele>771</ele><time>2022-07-17T11:14:14Z</time></trkpt>
    <trkpt lat="47.73765" lon="13.78822"><ele>770</ele><time>2022-07-17T11:14:32Z</time></trkpt>
    <trkpt lat="47.73783" lon="13.78809"><ele>771</ele><time>2022-07-17T11:14:51Z</time></trkpt>
    <trkpt lat="47.73802" lon="13.78795"><ele>767</ele><time>2022-07-17T11:15:10Z</time></trkpt>
    <trkpt lat="47.73820" lon="13.78774"><ele>764</ele><time>2022-07-17T11:15:29Z</time></trkpt>
    <trkpt lat="47.73839" lon="13.78757"><ele>761</ele><time>2022-07-17T11:15:47Z</time></trkpt>
    <trkpt lat="47.73857" lon="13.78737"><ele>761</ele><time>2022-07-17T11:16:05Z</time></trkpt>
    <trkpt lat="47.73878" lon="13.78716"><ele>754</ele><time>2022-07-17T11:16:24Z</time></trkpt>
    <trkpt lat="47.73900" lon="13.78697"><ele>750</ele><time>2022-07-17T11:16:43Z</time></trkpt>
    <trkpt lat="47.73915" lon="13.78663"><ele>759</ele><time>2022-07-17T11:17:01Z</time></trkpt>
    <trkpt lat="47.73932" lon="13.78643"><ele>756</ele><time>2022-07-17T11:17:19Z</time></trkpt>
    <trkpt lat="47.73950" lon="13.78620"><ele>754</ele><time>2022-07-17T11:17:37Z</time></trkpt>
    <trkpt lat="47.73958" lon="13.78607"><ele>750</ele><time>2022-07-17T11:17:56Z</time></trkpt>
    <trkpt lat="47.73978" lon="13.78620"><ele>755</ele><time>2022-07-17T11:18:43Z</time></trkpt>
    <trkpt lat="47.73997" lon="13.78639"><ele>747</ele><time>2022-07-17T11:19:02Z</time></trkpt>
    <trkpt lat="47.74019" lon="13.78631"><ele>748</ele><time>2022-07-17T11:19:20Z</time></trkpt>
    <trkpt lat="47.74036" lon="13.78623"><ele>745</ele><time>2022-07-17T11:19:38Z</time></trkpt>
    <trkpt lat="47.74060" lon="13.78607"><ele>744</ele><time>2022-07-17T11:19:56Z</time></trkpt>
    <trkpt lat="47.74082" lon="13.78584"><ele>745</ele><time>2022-07-17T11:20:15Z</time></trkpt>
    <trkpt lat="47.74102" lon="13.78569"><ele>745</ele><time>2022-07-17T11:20:33Z</time></trkpt>
    <trkpt lat="47.74125" lon="13.78549"><ele>748</ele><time>2022-07-17T11:20:52Z</time></trkpt>
    <trkpt lat="47.74152" lon="13.78533"><ele>748</ele><time>2022-07-17T11:21:11Z</time></trkpt>
    <trkpt lat="47.74174" lon="13.78524"><ele>743</ele><time>2022-07-17T11:21:29Z</time></trkpt>
    <trkpt lat="47.74197" lon="13.78512"><ele>739</ele><time>2022-07-17T11:21:48Z</time></trkpt>
    <trkpt lat="47.74216" lon="13.78503"><ele>737</ele><time>2022-07-17T11:22:07Z</time></trkpt>
    <trkpt lat="47.74235" lon="13.78486"><ele>733</ele><time>2022-07-17T11:22:25Z</time></trkpt>
    <trkpt lat="47.74253" lon="13.78467"><ele>733</ele><time>2022-07-17T11:22:44Z</time></trkpt>
    <trkpt lat="47.74267" lon="13.78452"><ele>763</ele><time>2022-07-17T11:23:02Z</time></trkpt>
    <trkpt lat="47.74277" lon="13.78423"><ele>726</ele><time>2022-07-17T11:23:39Z</time></trkpt>
    <trkpt lat="47.74282" lon="13.78408"><ele>722</ele><time>2022-07-17T11:23:58Z</time></trkpt>
    <trkpt lat="47.74291" lon="13.78378"><ele>713</ele><time>2022-07-17T11:24:40Z</time></trkpt>
    <trkpt lat="47.74294" lon="13.78360"><ele>712</ele><time>2022-07-17T11:24:59Z</time></trkpt>
    <trkpt lat="47.74297" lon="13.78338"><ele>708</ele><time>2022-07-17T11:25:18Z</time></trkpt>
    <trkpt lat="47.74305" lon="13.78322"><ele>703</ele><time>2022-07-17T11:25:36Z</time></trkpt>
    <trkpt lat="47.74307" lon="13.78301"><ele>699</ele><time>2022-07-17T11:25:55Z</time></trkpt>
    <trkpt lat="47.74303" lon="13.78281"><ele>700</ele><time>2022-07-17T11:26:14Z</time></trkpt>
    <trkpt lat="47.74309" lon="13.78262"><ele>701</ele><time>2022-07-17T11:26:33Z</time></trkpt>
    <trkpt lat="47.74307" lon="13.78234"><ele>700</ele><time>2022-07-17T11:27:09Z</time></trkpt>
    <trkpt lat="47.74301" lon="13.78221"><ele>690</ele><time>2022-07-17T11:27:27Z</time></trkpt>
    <trkpt lat="47.74301" lon="13.78202"><ele>682</ele><time>2022-07-17T11:27:46Z</time></trkpt>
    <trkpt lat="47.74293" lon="13.78180"><ele>686</ele><time>2022-07-17T11:28:04Z</time></trkpt>
    <trkpt lat="47.74281" lon="13.78155"><ele>688</ele><time>2022-07-17T11:28:23Z</time></trkpt>
    <trkpt lat="47.74278" lon="13.78131"><ele>686</ele><time>2022-07-17T11:28:41Z</time></trkpt>
    <trkpt lat="47.74273" lon="13.78111"><ele>682</ele><time>2022-07-17T11:28:59Z</time></trkpt>
    <trkpt lat="47.74268" lon="13.78081"><ele>676</ele><time>2022-07-17T11:29:18Z</time></trkpt>
    <trkpt lat="47.74267" lon="13.78050"><ele>671</ele><time>2022-07-17T11:29:36Z</time></trkpt>
    <trkpt lat="47.74261" lon="13.78038"><ele>680</ele><time>2022-07-17T11:29:55Z</time></trkpt>
    <trkpt lat="47.74271" lon="13.78002"><ele>670</ele><time>2022-07-17T11:31:10Z</time></trkpt>
    <trkpt lat="47.74275" lon="13.77967"><ele>667</ele><time>2022-07-17T11:31:28Z</time></trkpt>
    <trkpt lat="47.74296" lon="13.77951"><ele>663</ele><time>2022-07-17T11:31:47Z</time></trkpt>
    <trkpt lat="47.74305" lon="13.77921"><ele>664</ele><time>2022-07-17T11:32:05Z</time></trkpt>
    <trkpt lat="47.74311" lon="13.77889"><ele>663</ele><time>2022-07-17T11:32:23Z</time></trkpt>
    <trkpt lat="47.74298" lon="13.77846"><ele>664</ele><time>2022-07-17T11:32:42Z</time></trkpt>
    <trkpt lat="47.74307" lon="13.77820"><ele>662</ele><time>2022-07-17T11:33:01Z</time></trkpt>
    <trkpt lat="47.74319" lon="13.77798"><ele>671</ele><time>2022-07-17T11:33:20Z</time></trkpt>
    <trkpt lat="47.74335" lon="13.77774"><ele>674</ele><time>2022-07-17T11:33:39Z</time></trkpt>
    <trkpt lat="47.74351" lon="13.77752"><ele>674</ele><time>2022-07-17T11:33:57Z</time></trkpt>
    <trkpt lat="47.74371" lon="13.77729"><ele>672</ele><time>2022-07-17T11:34:16Z</time></trkpt>
    <trkpt lat="47.74394" lon="13.77713"><ele>662</ele><time>2022-07-17T11:34:34Z</time></trkpt>
    <trkpt lat="47.74405" lon="13.77678"><ele>656</ele><time>2022-07-17T11:34:52Z</time></trkpt>
    <trkpt lat="47.74416" lon="13.77648"><ele>657</ele><time>2022-07-17T11:35:11Z</time></trkpt>
    <trkpt lat="47.74417" lon="13.77607"><ele>652</ele><time>2022-07-17T11:35:29Z</time></trkpt>
    <trkpt lat="47.74422" lon="13.77579"><ele>661</ele><time>2022-07-17T11:35:47Z</time></trkpt>
    <trkpt lat="47.74440" lon="13.77551"><ele>649</ele><time>2022-07-17T11:36:06Z</time></trkpt>
    <trkpt lat="47.74449" lon="13.77524"><ele>645</ele><time>2022-07-17T11:36:24Z</time></trkpt>
    <trkpt lat="47.74462" lon="13.77490"><ele>638</ele><time>2022-07-17T11:36:43Z</time></trkpt>
    <trkpt lat="47.74479" lon="13.77463"><ele>678</ele><time>2022-07-17T11:37:01Z</time></trkpt>
    <trkpt lat="47.74487" lon="13.77441"><ele>645</ele><time>2022-07-17T11:37:20Z</time></trkpt>
    <trkpt lat="47.74499" lon="13.77418"><ele>640</ele><time>2022-07-17T11:37:39Z</time></trkpt>
    <trkpt lat="47.74507" lon="13.77395"><ele>632</ele><time>2022-07-17T11:37:57Z</time></trkpt>
    <trkpt lat="47.74517" lon="13.77361"><ele>635</ele><time>2022-07-17T11:38:16Z</time></trkpt>
    <trkpt lat="47.74523" lon="13.77332"><ele>621</ele><time>2022-07-17T11:38:35Z</time></trkpt>
    <trkpt lat="47.74529" lon="13.77310"><ele>618</ele><time>2022-07-17T11:38:54Z</time></trkpt>
    <trkpt lat="47.74546" lon="13.77281"><ele>619</ele><time>2022-07-17T11:39:13Z</time></trkpt>
    <trkpt lat="47.74559" lon="13.77258"><ele>616</ele><time>2022-07-17T11:39:31Z</time></trkpt>
    <trkpt lat="47.74570" lon="13.77228"><ele>614</ele><time>2022-07-17T11:39:49Z</time></trkpt>
    <trkpt lat="47.74581" lon="13.77200"><ele>614</ele><time>2022-07-17T11:40:08Z</time></trkpt>
    <trkpt lat="47.74595" lon="13.77169"><ele>610</ele><time>2022-07-17T11:40:26Z</time></trkpt>
    <trkpt lat="47.74608" lon="13.77145"><ele>609</ele><time>2022-07-17T11:40:44Z</time></trkpt>
    <trkpt lat="47.74622" lon="13.77119"><ele>609</ele><time>2022-07-17T11:41:02Z</time></trkpt>
    <trkpt lat="47.74633" lon="13.77093"><ele>604</ele><time>2022-07-17T11:41:21Z</time></trkpt>
    <trkpt lat="47.74646" lon="13.77066"><ele>603</ele><time>2022-07-17T11:41:39Z</time></trkpt>
    <trkpt lat="47.74662" lon="13.77046"><ele>757</ele><time>2022-07-17T11:41:57Z</time></trkpt>
    <trkpt lat="47.74676" lon="13.77022"><ele>598</ele><time>2022-07-17T11:42:16Z</time></trkpt>
    <trkpt lat="47.74693" lon="13.76995"><ele>589</ele><time>2022-07-17T11:42:35Z</time></trkpt>
    <trkpt lat="47.74716" lon="13.76976"><ele>586</ele><time>2022-07-17T11:42:53Z</time></trkpt>
    <trkpt lat="47.74737" lon="13.76963"><ele>581</ele><time>2022-07-17T11:43:12Z</time></trkpt>
    <trkpt lat="47.74765" lon="13.76946"><ele>575</ele><time>2022-07-17T11:43:30Z</time></trkpt>
    <trkpt lat="47.74785" lon="13.76930"><ele>574</ele><time>2022-07-17T11:43:48Z</time></trkpt>
    <trkpt lat="47.74807" lon="13.76909"><ele>576</ele><time>2022-07-17T11:44:07Z</time></trkpt>
    <trkpt lat="47.74831" lon="13.76894"><ele>571</ele><time>2022-07-17T11:44:26Z</time></trkpt>
    <trkpt lat="47.74849" lon="13.76872"><ele>575</ele><time>2022-07-17T11:44:45Z</time></trkpt>
    <trkpt lat="47.74873" lon="13.76858"><ele>565</ele><time>2022-07-17T11:45:04Z</time></trkpt>
    <trkpt lat="47.74904" lon="13.76851"><ele>571</ele><time>2022-07-17T11:45:23Z</time></trkpt>
    <trkpt lat="47.74926" lon="13.76837"><ele>567</ele><time>2022-07-17T11:45:43Z</time></trkpt>
    <trkpt lat="47.74950" lon="13.76819"><ele>573</ele><time>2022-07-17T11:46:01Z</time></trkpt>
    <trkpt lat="47.74964" lon="13.76801"><ele>568</ele><time>2022-07-17T11:46:20Z</time></trkpt>
    <trkpt lat="47.74985" lon="13.76789"><ele>629</ele><time>2022-07-17T11:46:39Z</time></trkpt>
    <trkpt lat="47.75000" lon="13.76769"><ele>575</ele><time>2022-07-17T11:46:58Z</time></trkpt>
    <trkpt lat="47.75018" lon="13.76737"><ele>559</ele><time>2022-07-17T11:47:16Z</time></trkpt>
    <trkpt lat="47.75042" lon="13.76712"><ele>560</ele><time>2022-07-17T11:47:35Z</time></trkpt>
    <trkpt lat="47.75060" lon="13.76703"><ele>551</ele><time>2022-07-17T11:47:53Z</time></trkpt>
    <trkpt lat="47.75073" lon="13.76681"><ele>547</ele><time>2022-07-17T11:48:12Z</time></trkpt>
    <trkpt lat="47.75088" lon="13.76660"><ele>545</ele><time>2022-07-17T11:48:30Z</time></trkpt>
    <trkpt lat="47.75107" lon="13.76644"><ele>543</ele><time>2022-07-17T11:48:49Z</time></trkpt>
    <trkpt lat="47.75126" lon="13.76634"><ele>536</ele><time>2022-07-17T11:49:08Z</time></trkpt>
    <trkpt lat="47.75148" lon="13.76631"><ele>541</ele><time>2022-07-17T11:49:27Z</time></trkpt>
    <trkpt lat="47.75161" lon="13.76616"><ele>533</ele><time>2022-07-17T11:49:45Z</time></trkpt>
    <trkpt lat="47.75176" lon="13.76613"><ele>525</ele><time>2022-07-17T11:50:28Z</time></trkpt>
    <trkpt lat="47.75188" lon="13.76607"><ele>536</ele><time>2022-07-17T11:52:03Z</time></trkpt>
    <trkpt lat="47.75202" lon="13.76599"><ele>529</ele><time>2022-07-17T11:52:21Z</time></trkpt>
    <trkpt lat="47.75218" lon="13.76600"><ele>529</ele><time>2022-07-17T11:52:40Z</time></trkpt>
    <trkpt lat="47.75236" lon="13.76601"><ele>523</ele><time>2022-07-17T11:52:59Z</time></trkpt>
    <trkpt lat="47.75253" lon="13.76598"><ele>522</ele><time>2022-07-17T11:53:17Z</time></trkpt>
    <trkpt lat="47.75266" lon="13.76609"><ele>554</ele><time>2022-07-17T11:53:36Z</time></trkpt>
    <trkpt lat="47.75285" lon="13.76618"><ele>527</ele><time>2022-07-17T11:53:54Z</time></trkpt>
    <trkpt lat="47.75303" lon="13.76626"><ele>520</ele><time>2022-07-17T11:54:13Z</time></trkpt>
    <trkpt lat="47.75327" lon="13.76637"><ele>515</ele><time>2022-07-17T11:54:31Z</time></trkpt>
    <trkpt lat="47.75347" lon="13.76649"><ele>511</ele><time>2022-07-17T11:54:50Z</time></trkpt>
    <trkpt lat="47.75365" lon="13.76659"><ele>506</ele><time>2022-07-17T11:55:09Z</time></trkpt>
    <trkpt lat="47.75383" lon="13.76668"><ele>511</ele><time>2022-07-17T11:55:28Z</time></trkpt>
    <trkpt lat="47.75393" lon="13.76665"><ele>510</ele><time>2022-07-17T11:55:46Z</time></trkpt>
  </trkseg>
</trk>
</gpx>