<?xml version="1.0" encoding="UTF-8"?>
<gpx version="1.1" creator="GPX-Pro" xmlns="http://www.topografix.com/GPX/1/1">
<trk>
  <name>Bike+Hike_Trins-St.Magdalena</name>
  <trkseg>
    <trkpt lat="47.04478" lon="11.37453"><ele>1375</ele><time>2022-08-04T07:29:44Z</time></trkpt>
    <trkpt lat="47.04465" lon="11.37478"><ele>1409</ele><time>2022-08-04T07:30:24Z</time></trkpt>
    <trkpt lat="47.04451" lon="11.37476"><ele>1414</ele><time>2022-08-04T07:30:42Z</time></trkpt>
    <trkpt lat="47.04441" lon="11.37487"><ele>1420</ele><time>2022-08-04T07:31:01Z</time></trkpt>
    <trkpt lat="47.04422" lon="11.37499"><ele>1423</ele><time>2022-08-04T07:31:44Z</time></trkpt>
    <trkpt lat="47.04417" lon="11.37518"><ele>1422</ele><time>2022-08-04T07:32:03Z</time></trkpt>
    <trkpt lat="47.04404" lon="11.37513"><ele>1423</ele><time>2022-08-04T07:32:22Z</time></trkpt>
    <trkpt lat="47.04393" lon="11.37514"><ele>1433</ele><time>2022-08-04T07:32:41Z</time></trkpt>
    <trkpt lat="47.04382" lon="11.37517"><ele>1432</ele><time>2022-08-04T07:32:59Z</time></trkpt>
    <trkpt lat="47.04368" lon="11.37507"><ele>1431</ele><time>2022-08-04T07:33:18Z</time></trkpt>
    <trkpt lat="47.04353" lon="11.37501"><ele>1431</ele><time>2022-08-04T07:33:36Z</time></trkpt>
    <trkpt lat="47.04339" lon="11.37505"><ele>1430</ele><time>2022-08-04T07:33:55Z</time></trkpt>
    <trkpt lat="47.04329" lon="11.37491"><ele>1436</ele><time>2022-08-04T07:34:13Z</time></trkpt>
    <trkpt lat="47.04319" lon="11.37496"><ele>1439</ele><time>2022-08-04T07:35:23Z</time></trkpt>
    <trkpt lat="47.04289" lon="11.37513"><ele>1464</ele><time>2022-08-04T07:35:42Z</time></trkpt>
    <trkpt lat="47.04266" lon="11.37518"><ele>1466</ele><time>2022-08-04T07:36:45Z</time></trkpt>
    <trkpt lat="47.04254" lon="11.37524"><ele>1466</ele><time>2022-08-04T07:37:03Z</time></trkpt>
    <trkpt lat="47.04272" lon="11.37531"><ele>1472</ele><time>2022-08-04T07:37:57Z</time></trkpt>
    <trkpt lat="47.04287" lon="11.37542"><ele>1471</ele><time>2022-08-04T07:38:15Z</time></trkpt>
    <trkpt lat="47.04299" lon="11.37550"><ele>1477</ele><time>2022-08-04T07:38:34Z</time></trkpt>
    <trkpt lat="47.04284" lon="11.37563"><ele>1488</ele><time>2022-08-04T07:39:19Z</time></trkpt>
    <trkpt lat="47.04279" lon="11.37576"><ele>1490</ele><time>2022-08-04T07:39:38Z</time></trkpt>
    <trkpt lat="47.04267" lon="11.37595"><ele>1495</ele><time>2022-08-04T07:40:47Z</time></trkpt>
    <trkpt lat="47.04257" lon="11.37602"><ele>1506</ele><time>2022-08-04T07:41:06Z</time></trkpt>
    <trkpt lat="47.04276" lon="11.37613"><ele>1519</ele><time>2022-08-04T07:42:11Z</time></trkpt>
    <trkpt lat="47.04284" lon="11.37625"><ele>1525</ele><time>2022-08-04T07:42:29Z</time></trkpt>
    <trkpt lat="47.04265" lon="11.37629"><ele>1531</ele><time>2022-08-04T07:43:24Z</time></trkpt>
    <trkpt lat="47.04249" lon="11.37632"><ele>1538</ele><time>2022-08-04T07:43:42Z</time></trkpt>
    <trkpt lat="47.04238" lon="11.37631"><ele>1538</ele><time>2022-08-04T07:44:01Z</time></trkpt>
    <trkpt lat="47.04226" lon="11.37625"><ele>1545</ele><time>2022-08-04T07:44:19Z</time></trkpt>
    <trkpt lat="47.04219" lon="11.37641"><ele>1533</ele><time>2022-08-04T07:45:07Z</time></trkpt>
    <trkpt lat="47.04232" lon="11.37656"><ele>1537</ele><time>2022-08-04T07:45:53Z</time></trkpt>
    <trkpt lat="47.04242" lon="11.37662"><ele>1548</ele><time>2022-08-04T07:46:12Z</time></trkpt>
    <trkpt lat="47.04259" lon="11.37677"><ele>1565</ele><time>2022-08-04T07:46:49Z</time></trkpt>
    <trkpt lat="47.04277" lon="11.37677"><ele>1573</ele><time>2022-08-04T07:47:31Z</time></trkpt>
    <trkpt lat="47.04286" lon="11.37681"><ele>1578</ele><time>2022-08-04T07:47:49Z</time></trkpt>
    <trkpt lat="47.04303" lon="11.37684"><ele>1575</ele><time>2022-08-04T07:48:31Z</time></trkpt>
    <trkpt lat="47.04314" lon="11.37685"><ele>1582</ele><time>2022-08-04T07:48:50Z</time></trkpt>
    <trkpt lat="47.04324" lon="11.37691"><ele>1584</ele><time>2022-08-04T07:49:09Z</time></trkpt>
    <trkpt lat="47.04331" lon="11.37682"><ele>1585</ele><time>2022-08-04T07:49:27Z</time></trkpt>
    <trkpt lat="47.04339" lon="11.37673"><ele>1528</ele><time>2022-08-04T07:49:46Z</time></trkpt>
    <trkpt lat="47.04350" lon="11.37669"><ele>1585</ele><time>2022-08-04T07:50:05Z</time></trkpt>
    <trkpt lat="47.04362" lon="11.37663"><ele>1593</ele><time>2022-08-04T07:50:24Z</time></trkpt>
    <trkpt lat="47.04375" lon="11.37662"><ele>1594</ele><time>2022-08-04T07:50:43Z</time></trkpt>
    <trkpt lat="47.04392" lon="11.37660"><ele>1605</ele><time>2022-08-04T07:51:22Z</time></trkpt>
    <trkpt lat="47.04400" lon="11.37654"><ele>1608</ele><time>2022-08-04T07:51:40Z</time></trkpt>
    <trkpt lat="47.04410" lon="11.37659"><ele>1611</ele><time>2022-08-04T07:51:58Z</time></trkpt>
    <trkpt lat="47.04412" lon="11.37686"><ele>1607</ele><time>2022-08-04T07:52:35Z</time></trkpt>
    <trkpt lat="47.04401" lon="11.37692"><ele>1612</ele><time>2022-08-04T07:52:54Z</time></trkpt>
    <trkpt lat="47.04403" lon="11.37709"><ele>1611</ele><time>2022-08-04T07:53:12Z</time></trkpt>
    <trkpt lat="47.04391" lon="11.37714"><ele>1610</ele><time>2022-08-04T07:53:30Z</time></trkpt>
    <trkpt lat="47.04383" lon="11.37721"><ele>1618</ele><time>2022-08-04T07:53:49Z</time></trkpt>
    <trkpt lat="47.04404" lon="11.37716"><ele>1626</ele><time>2022-08-04T07:54:42Z</time></trkpt>
    <trkpt lat="47.04414" lon="11.37708"><ele>1635</ele><time>2022-08-04T07:55:01Z</time></trkpt>
    <trkpt lat="47.04425" lon="11.37707"><ele>1638</ele><time>2022-08-04T07:55:19Z</time></trkpt>
    <trkpt lat="47.04444" lon="11.37701"><ele>1642</ele><time>2022-08-04T07:56:01Z</time></trkpt>
    <trkpt lat="47.04459" lon="11.37697"><ele>1637</ele><time>2022-08-04T07:56:20Z</time></trkpt>
    <trkpt lat="47.04473" lon="11.37684"><ele>1643</ele><time>2022-08-04T07:56:38Z</time></trkpt>
    <trkpt lat="47.04478" lon="11.37664"><ele>1653</ele><time>2022-08-04T07:56:57Z</time></trkpt>
    <trkpt lat="47.04492" lon="11.37662"><ele>1654</ele><time>2022-08-04T07:57:15Z</time></trkpt>
    <trkpt lat="47.04500" lon="11.37659"><ele>1652</ele><time>2022-08-04T07:57:35Z</time></trkpt>
    <trkpt lat="47.04508" lon="11.37651"><ele>1651</ele><time>2022-08-04T07:57:54Z</time></trkpt>
    <trkpt lat="47.04523" lon="11.37640"><ele>1661</ele><time>2022-08-04T07:58:31Z</time></trkpt>
    <trkpt lat="47.04532" lon="11.37663"><ele>1662</ele><time>2022-08-04T07:59:25Z</time></trkpt>
    <trkpt lat="47.04523" lon="11.37684"><ele>1631</ele><time>2022-08-04T08:00:04Z</time></trkpt>
    <trkpt lat="47.04515" lon="11.37704"><ele>1666</ele><time>2022-08-04T08:00:48Z</time></trkpt>
    <trkpt lat="47.04494" lon="11.37722"><ele>1670</ele><time>2022-08-04T08:01:31Z</time></trkpt>
    <trkpt lat="47.04494" lon="11.37738"><ele>1670</ele><time>2022-08-04T08:01:49Z</time></trkpt>
    <trkpt lat="47.04484" lon="11.37755"><ele>1679</ele><time>2022-08-04T08:02:46Z</time></trkpt>
    <trkpt lat="47.04465" lon="11.37777"><ele>1673</ele><time>2022-08-04T08:03:38Z</time></trkpt>
    <trkpt lat="47.04450" lon="11.37774"><ele>1677</ele><time>2022-08-04T08:03:57Z</time></trkpt>
    <trkpt lat="47.04434" lon="11.37774"><ele>1679</ele><time>2022-08-04T08:04:16Z</time></trkpt>
    <trkpt lat="47.04425" lon="11.37780"><ele>1672</ele><time>2022-08-04T08:04:35Z</time></trkpt>
    <trkpt lat="47.04411" lon="11.37788"><ele>1675</ele><time>2022-08-04T08:04:53Z</time></trkpt>
    <trkpt lat="47.04396" lon="11.37798"><ele>1680</ele><time>2022-08-04T08:05:41Z</time></trkpt>
    <trkpt lat="47.04386" lon="11.37814"><ele>1679</ele><time>2022-08-04T08:06:20Z</time></trkpt>
    <trkpt lat="47.04378" lon="11.37824"><ele>1679</ele><time>2022-08-04T08:06:39Z</time></trkpt>
    <trkpt lat="47.04368" lon="11.37833"><ele>1680</ele><time>2022-08-04T08:06:57Z</time></trkpt>
    <trkpt lat="47.04355" lon="11.37823"><ele>1686</ele><time>2022-08-04T08:07:16Z</time></trkpt>
    <trkpt lat="47.04346" lon="11.37829"><ele>1684</ele><time>2022-08-04T08:07:35Z</time></trkpt>
    <trkpt lat="47.04339" lon="11.37845"><ele>1685</ele><time>2022-08-04T08:08:18Z</time></trkpt>
    <trkpt lat="47.04326" lon="11.37839"><ele>1698</ele><time>2022-08-04T08:15:13Z</time></trkpt>
    <trkpt lat="47.04331" lon="11.37876"><ele>1663</ele><time>2022-08-04T09:44:02Z</time></trkpt>
    <trkpt lat="47.04315" lon="11.37835"><ele>1683</ele><time>2022-08-04T09:57:59Z</time></trkpt>
    <trkpt lat="47.04318" lon="11.37851"><ele>1683</ele><time>2022-08-04T09:58:59Z</time></trkpt>
    <trkpt lat="47.04333" lon="11.37835"><ele>1688</ele><time>2022-08-04T10:00:15Z</time></trkpt>
    <trkpt lat="47.04346" lon="11.37821"><ele>1692</ele><time>2022-08-04T10:01:18Z</time></trkpt>
    <trkpt lat="47.04353" lon="11.37811"><ele>1690</ele><time>2022-08-04T10:01:37Z</time></trkpt>
    <trkpt lat="47.04366" lon="11.37811"><ele>1687</ele><time>2022-08-04T10:01:55Z</time></trkpt>
    <trkpt lat="47.04378" lon="11.37793"><ele>1689</ele><time>2022-08-04T10:02:57Z</time></trkpt>
    <trkpt lat="47.04390" lon="11.37777"><ele>1692</ele><time>2022-08-04T10:03:16Z</time></trkpt>
    <trkpt lat="47.04411" lon="11.37759"><ele>1687</ele><time>2022-08-04T10:04:19Z</time></trkpt>
    <trkpt lat="47.04428" lon="11.37758"><ele>1685</ele><time>2022-08-04T10:04:38Z</time></trkpt>
    <trkpt lat="47.04440" lon="11.37751"><ele>1685</ele><time>2022-08-04T10:04:56Z</time></trkpt>
    <trkpt lat="47.04450" lon="11.37751"><ele>1690</ele><time>2022-08-04T10:05:15Z</time></trkpt>
    <trkpt lat="47.04459" lon="11.37740"><ele>1697</ele><time>2022-08-04T10:05:33Z</time></trkpt>
    <trkpt lat="47.04474" lon="11.37754"><ele>1685</ele><time>2022-08-04T11:04:21Z</time></trkpt>
    <trkpt lat="47.04483" lon="11.37737"><ele>1674</ele><time>2022-08-04T11:07:00Z</time></trkpt>
    <trkpt lat="47.04490" lon="11.37724"><ele>1670</ele><time>2022-08-04T11:07:19Z</time></trkpt>
    <trkpt lat="47.04505" lon="11.37710"><ele>1666</ele><time>2022-08-04T11:07:38Z</time></trkpt>
    <trkpt lat="47.04521" lon="11.37685"><ele>1665</ele><time>2022-08-04T11:09:30Z</time></trkpt>
    <trkpt lat="47.04528" lon="11.37669"><ele>1666</ele><time>2022-08-04T11:09:48Z</time></trkpt>
    <trkpt lat="47.04548" lon="11.37682"><ele>1662</ele><time>2022-08-04T12:19:39Z</time></trkpt>
    <trkpt lat="47.04559" lon="11.37695"><ele>1665</ele><time>2022-08-04T12:19:57Z</time></trkpt>
    <trkpt lat="47.04541" lon="11.37680"><ele>1666</ele><time>2022-08-04T12:25:11Z</time></trkpt>
    <trkpt lat="47.04537" lon="11.37666"><ele>1666</ele><time>2022-08-04T12:25:30Z</time></trkpt>
    <trkpt lat="47.04526" lon="11.37664"><ele>1672</ele><time>2022-08-04T12:27:01Z</time></trkpt>
    <trkpt lat="47.04556" lon="11.37673"><ele>1668</ele><time>2022-08-04T12:28:55Z</time></trkpt>
    <trkpt lat="47.04529" lon="11.37659"><ele>1663</ele><time>2022-08-04T12:29:22Z</time></trkpt>
    <trkpt lat="47.04525" lon="11.37678"><ele>1673</ele><time>2022-08-04T12:29:43Z</time></trkpt>
    <trkpt lat="47.04523" lon="11.37657"><ele>1639</ele><time>2022-08-04T12:30:23Z</time></trkpt>
    <trkpt lat="47.04531" lon="11.37644"><ele>1659</ele><time>2022-08-04T12:30:42Z</time></trkpt>
    <trkpt lat="47.04513" lon="11.37648"><ele>1661</ele><time>2022-08-04T12:31:18Z</time></trkpt>
    <trkpt lat="47.04500" lon="11.37653"><ele>1658</ele><time>2022-08-04T12:31:37Z</time></trkpt>
    <trkpt lat="47.04495" lon="11.37667"><ele>1657</ele><time>2022-08-04T12:31:55Z</time></trkpt>
    <trkpt lat="47.04481" lon="11.37676"><ele>1653</ele><time>2022-08-04T12:32:14Z</time></trkpt>
    <trkpt lat="47.04468" lon="11.37691"><ele>1651</ele><time>2022-08-04T12:32:32Z</time></trkpt>
    <trkpt lat="47.04456" lon="11.37714"><ele>1641</ele><time>2022-08-04T12:32:51Z</time></trkpt>
    <trkpt lat="47.04443" lon="11.37722"><ele>1634</ele><time>2022-08-04T12:33:10Z</time></trkpt>
    <trkpt lat="47.04430" lon="11.37718"><ele>1632</ele><time>2022-08-04T12:33:28Z</time></trkpt>
    <trkpt lat="47.04417" lon="11.37721"><ele>1632</ele><time>2022-08-04T12:33:47Z</time></trkpt>
    <trkpt lat="47.04399" lon="11.37719"><ele>1633</ele><time>2022-08-04T12:34:05Z</time></trkpt>
    <trkpt lat="47.04387" lon="11.37728"><ele>1632</ele><time>2022-08-04T12:34:23Z</time></trkpt>
    <trkpt lat="47.04396" lon="11.37705"><ele>1624</ele><time>2022-08-04T12:35:00Z</time></trkpt>
    <trkpt lat="47.04399" lon="11.37686"><ele>1624</ele><time>2022-08-04T12:35:19Z</time></trkpt>
    <trkpt lat="47.04411" lon="11.37677"><ele>1618</ele><time>2022-08-04T12:35:38Z</time></trkpt>
    <trkpt lat="47.04391" lon="11.37660"><ele>1621</ele><time>2022-08-04T12:36:25Z</time></trkpt>
    <trkpt lat="47.04380" lon="11.37665"><ele>1611</ele><time>2022-08-04T12:36:43Z</time></trkpt>
    <trkpt lat="47.04370" lon="11.37668"><ele>1603</ele><time>2022-08-04T12:37:02Z</time></trkpt>
    <trkpt lat="47.04359" lon="11.37679"><ele>1594</ele><time>2022-08-04T12:37:20Z</time></trkpt>
    <trkpt lat="47.04344" lon="11.37688"><ele>1641</ele><time>2022-08-04T12:37:39Z</time></trkpt>
    <trkpt lat="47.04332" lon="11.37705"><ele>1625</ele><time>2022-08-04T12:37:58Z</time></trkpt>
    <trkpt lat="47.04316" lon="11.37702"><ele>1606</ele><time>2022-08-04T12:38:16Z</time></trkpt>
    <trkpt lat="47.04305" lon="11.37703"><ele>1585</ele><time>2022-08-04T12:38:35Z</time></trkpt>
    <trkpt lat="47.04292" lon="11.37693"><ele>1584</ele><time>2022-08-04T12:38:53Z</time></trkpt>
    <trkpt lat="47.04278" lon="11.37690"><ele>1580</ele><time>2022-08-04T12:39:11Z</time></trkpt>
    <trkpt lat="47.04264" lon="11.37693"><ele>1575</ele><time>2022-08-04T12:39:30Z</time></trkpt>
    <trkpt lat="47.04239" lon="11.37677"><ele>1561</ele><time>2022-08-04T12:40:18Z</time></trkpt>
    <trkpt lat="47.04221" lon="11.37668"><ele>1618</ele><time>2022-08-04T12:40:36Z</time></trkpt>
    <trkpt lat="47.04211" lon="11.37662"><ele>1575</ele><time>2022-08-04T12:40:54Z</time></trkpt>
    <trkpt lat="47.04224" lon="11.37650"><ele>1562</ele><time>2022-08-04T12:41:13Z</time></trkpt>
    <trkpt lat="47.04235" lon="11.37638"><ele>1566</ele><time>2022-08-04T12:41:50Z</time></trkpt>
    <trkpt lat="47.04245" lon="11.37629"><ele>1547</ele><time>2022-08-04T12:42:08Z</time></trkpt>
    <trkpt lat="47.04261" lon="11.37624"><ele>1545</ele><time>2022-08-04T12:42:27Z</time></trkpt>
    <trkpt lat="47.04282" lon="11.37626"><ele>1548</ele><time>2022-08-04T12:42:46Z</time></trkpt>
    <trkpt lat="47.04264" lon="11.37607"><ele>1530</ele><time>2022-08-04T12:44:02Z</time></trkpt>
    <trkpt lat="47.04245" lon="11.37597"><ele>1535</ele><time>2022-08-04T12:44:21Z</time></trkpt>
    <trkpt lat="47.04232" lon="11.37584"><ele>1534</ele><time>2022-08-04T12:44:40Z</time></trkpt>
    <trkpt lat="47.04246" lon="11.37581"><ele>1530</ele><time>2022-08-04T12:44:59Z</time></trkpt>
    <trkpt lat="47.04258" lon="11.37575"><ele>1523</ele><time>2022-08-04T12:45:17Z</time></trkpt>
    <trkpt lat="47.04277" lon="11.37569"><ele>1520</ele><time>2022-08-04T12:45:36Z</time></trkpt>
    <trkpt lat="47.04288" lon="11.37561"><ele>1516</ele><time>2022-08-04T12:45:55Z</time></trkpt>
    <trkpt lat="47.04298" lon="11.37554"><ele>1508</ele><time>2022-08-04T12:46:14Z</time></trkpt>
    <trkpt lat="47.04276" lon="11.37536"><ele>1510</ele><time>2022-08-04T12:46:59Z</time></trkpt>
    <trkpt lat="47.04260" lon="11.37533"><ele>1504</ele><time>2022-08-04T12:47:18Z</time></trkpt>
    <trkpt lat="47.04246" lon="11.37532"><ele>1615</ele><time>2022-08-04T12:47:36Z</time></trkpt>
    <trkpt lat="47.04259" lon="11.37509"><ele>1638</ele><time>2022-08-04T12:48:21Z</time></trkpt>
    <trkpt lat="47.04269" lon="11.37504"><ele>1535</ele><time>2022-08-04T12:48:39Z</time></trkpt>
    <trkpt lat="47.04265" lon="11.37482"><ele>1480</ele><time>2022-08-04T12:48:57Z</time></trkpt>
    <trkpt lat="47.04275" lon="11.37481"><ele>1482</ele><time>2022-08-04T12:49:56Z</time></trkpt>
    <trkpt lat="47.04298" lon="11.37485"><ele>1474</ele><time>2022-08-04T12:50:14Z</time></trkpt>
    <trkpt lat="47.04311" lon="11.37477"><ele>1476</ele><time>2022-08-04T12:50:33Z</time></trkpt>
    <trkpt lat="47.04320" lon="11.37480"><ele>1469</ele><time>2022-08-04T12:51:25Z</time></trkpt>
    <trkpt lat="47.04349" lon="11.37492"><ele>1459</ele><time>2022-08-04T12:51:44Z</time></trkpt>
    <trkpt lat="47.04371" lon="11.37498"><ele>1452</ele><time>2022-08-04T12:52:03Z</time></trkpt>
    <trkpt lat="47.04385" lon="11.37503"><ele>1449</ele><time>2022-08-04T12:52:22Z</time></trkpt>
    <trkpt lat="47.04400" lon="11.37507"><ele>1447</ele><time>2022-08-04T12:52:41Z</time></trkpt>
    <trkpt lat="47.04423" lon="11.37495"><ele>1440</ele><time>2022-08-04T12:53:18Z</time></trkpt>
    <trkpt lat="47.04436" lon="11.37496"><ele>1437</ele><time>2022-08-04T12:53:36Z</time></trkpt>
    <trkpt lat="47.04455" lon="11.37475"><ele>1425</ele><time>2022-08-04T12:54:26Z</time></trkpt>
    <trkpt lat="47.04468" lon="11.37474"><ele>1424</ele><time>2022-08-04T12:54:44Z</time></trkpt>
    <trkpt lat="47.04483" lon="11.37454"><ele>1417</ele><time>2022-08-04T12:55:02Z</time></trkpt>
    <trkpt lat="47.04500" lon="11.37439"><ele>1416</ele><time>2022-08-04T12:55:20Z</time></trkpt>
    <trkpt lat="47.04513" lon="11.37427"><ele>1417</ele><time>2022-08-04T12:55:38Z</time></trkpt>
    <trkpt lat="47.04529" lon="11.37425"><ele>1418</ele><time>2022-08-04T12:55:56Z</time></trkpt>
    <trkpt lat="47.04548" lon="11.37422"><ele>1413</ele><time>2022-08-04T12:56:14Z</time></trkpt>
    <trkpt lat="47.04564" lon="11.37410"><ele>1404</ele><time>2022-08-04T12:57:03Z</time></trkpt>
    <trkpt lat="47.04582" lon="11.37403"><ele>1407</ele><time>2022-08-04T12:57:22Z</time></trkpt>
    <trkpt lat="47.04600" lon="11.37400"><ele>1410</ele><time>2022-08-04T12:57:40Z</time></trkpt>
    <trkpt lat="47.04602" lon="11.37384"><ele>1418</ele><time>2022-08-04T12:57:58Z</time></trkpt>
    <trkpt lat="47.04614" lon="11.37383"><ele>1409</ele><time>2022-08-04T12:58:16Z</time></trkpt>
    <trkpt lat="47.04642" lon="11.37389"><ele>1408</ele><time>2022-08-04T12:58:34Z</time></trkpt>
    <trkpt lat="47.04658" lon="11.37384"><ele>1409</ele><time>2022-08-04T12:58:52Z</time></trkpt>
    <trkpt lat="47.04673" lon="11.37394"><ele>1405</ele><time>2022-08-04T12:59:11Z</time></trkpt>
    <trkpt lat="47.04688" lon="11.37404"><ele>1390</ele><time>2022-08-04T13:00:10Z</time></trkpt>
    <trkpt lat="47.04717" lon="11.37410"><ele>1385</ele><time>2022-08-04T13:00:29Z</time></trkpt>
    <trkpt lat="47.04730" lon="11.37411"><ele>1385</ele><time>2022-08-04T13:01:07Z</time></trkpt>
    <trkpt lat="47.04752" lon="11.37420"><ele>1379</ele><time>2022-08-04T13:01:26Z</time></trkpt>
    <trkpt lat="47.04764" lon="11.37422"><ele>1371</ele><time>2022-08-04T13:01:44Z</time></trkpt>
    <trkpt lat="47.04786" lon="11.37439"><ele>1372</ele><time>2022-08-04T13:02:03Z</time></trkpt>
    <trkpt lat="47.04800" lon="11.37445"><ele>1366</ele><time>2022-08-04T13:02:21Z</time></trkpt>
    <trkpt lat="47.04811" lon="11.37446"><ele>1362</ele><time>2022-08-04T13:02:40Z</time></trkpt>
    <trkpt lat="47.04827" lon="11.37450"><ele>1359</ele><time>2022-08-04T13:02:58Z</time></trkpt>
    <trkpt lat="47.04845" lon="11.37459"><ele>1351</ele><time>2022-08-04T13:03:17Z</time></trkpt>
    <trkpt lat="47.04864" lon="11.37475"><ele>1344</ele><time>2022-08-04T13:04:05Z</time></trkpt>
    <trkpt lat="47.04874" lon="11.37484"><ele>1338</ele><time>2022-08-04T13:04:23Z</time></trkpt>
    <trkpt lat="47.04894" lon="11.37498"><ele>1332</ele><time>2022-08-04T13:08:53Z</time></trkpt>
    <trkpt lat="47.04935" lon="11.37583"><ele>1328</ele><time>2022-08-04T13:09:12Z</time></trkpt>
    <trkpt lat="47.04950" lon="11.37596"><ele>1329</ele><time>2022-08-04T13:09:30Z</time></trkpt>
    <trkpt lat="47.05007" lon="11.37619"><ele>1308</ele><time>2022-08-04T13:11:53Z</time></trkpt>
    <trkpt lat="47.05029" lon="11.37635"><ele>1309</ele><time>2022-08-04T13:12:12Z</time></trkpt>
    <trkpt lat="47.05043" lon="11.37642"><ele>1307</ele><time>2022-08-04T13:13:28Z</time></trkpt>
    <trkpt lat="47.05067" lon="11.37656"><ele>1300</ele><time>2022-08-04T13:13:46Z</time></trkpt>
    <trkpt lat="47.05087" lon="11.37673"><ele>1299</ele><time>2022-08-04T13:15:01Z</time></trkpt>
    <trkpt lat="47.05096" lon="11.37679"><ele>1301</ele><time>2022-08-04T13:15:46Z</time></trkpt>
    <trkpt lat="47.05127" lon="11.37711"><ele>1300</ele><time>2022-08-04T13:16:04Z</time></trkpt>
    <trkpt lat="47.05158" lon="11.37728"><ele>1298</ele><time>2022-08-04T13:16:23Z</time></trkpt>
    <trkpt lat="47.05151" lon="11.37738"><ele>1287</ele><time>2022-08-04T13:16:41Z</time></trkpt>
    <trkpt lat="47.05154" lon="11.37751"><ele>1281</ele><time>2022-08-04T13:18:05Z</time></trkpt>
    <trkpt lat="47.05164" lon="11.37786"><ele>1278</ele><time>2022-08-04T13:18:23Z</time></trkpt>
    <trkpt lat="47.05171" lon="11.37812"><ele>1299</ele><time>2022-08-04T13:19:13Z</time></trkpt>
    <trkpt lat="47.05162" lon="11.37814"><ele>1273</ele><time>2022-08-04T13:19:35Z</time></trkpt>
    <trkpt lat="47.05179" lon="11.37836"><ele>1266</ele><time>2022-08-04T13:21:54Z</time></trkpt>
    <trkpt lat="47.05262" lon="11.37927"><ele>1267</ele><time>2022-08-04T13:22:13Z</time></trkpt>
    <trkpt lat="47.05303" lon="11.37974"><ele>1261</ele><time>2022-08-04T13:22:32Z</time></trkpt>
    <trkpt lat="47.05312" lon="11.37996"><ele>1249</ele><time>2022-08-04T13:24:04Z</time></trkpt>
    <trkpt lat="47.05343" lon="11.38025"><ele>1249</ele><time>2022-08-04T13:24:23Z</time></trkpt>
    <trkpt lat="47.05346" lon="11.38038"><ele>1247</ele><time>2022-08-04T13:24:48Z</time></trkpt>
    <trkpt lat="47.05387" lon="11.38061"><ele>1248</ele><time>2022-08-04T13:25:28Z</time></trkpt>
    <trkpt lat="47.05427" lon="11.38082"><ele>1247</ele><time>2022-08-04T13:25:47Z</time></trkpt>
    <trkpt lat="47.05460" lon="11.38130"><ele>1250</ele><time>2022-08-04T13:26:05Z</time></trkpt>
    <trkpt lat="47.05483" lon="11.38163"><ele>1250</ele><time>2022-08-04T13:26:23Z</time></trkpt>
    <trkpt lat="47.05577" lon="11.38270"><ele>1248</ele><time>2022-08-04T13:26:42Z</time></trkpt>
    <trkpt lat="47.05604" lon="11.38300"><ele>1246</ele><time>2022-08-04T13:27:00Z</time></trkpt>
    <trkpt lat="47.05639" lon="11.38311"><ele>1252</ele><time>2022-08-04T13:27:19Z</time></trkpt>
    <trkpt lat="47.05671" lon="11.38336"><ele>1229</ele><time>2022-08-04T13:27:37Z</time></trkpt>
    <trkpt lat="47.05760" lon="11.38433"><ele>1225</ele><time>2022-08-04T13:27:56Z</time></trkpt>
    <trkpt lat="47.05810" lon="11.38565"><ele>1212</ele><time>2022-08-04T13:28:15Z</time></trkpt>
    <trkpt lat="47.05863" lon="11.38669"><ele>1209</ele><time>2022-08-04T13:28:34Z</time></trkpt>
    <trkpt lat="47.05916" lon="11.38760"><ele>1215</ele><time>2022-08-04T13:28:52Z</time></trkpt>
    <trkpt lat="47.05985" lon="11.38770"><ele>1220</ele><time>2022-08-04T13:29:10Z</time></trkpt>
    <trkpt lat="47.06065" lon="11.38818"><ele>1220</ele><time>2022-08-04T13:29:29Z</time></trkpt>
    <trkpt lat="47.06141" lon="11.38906"><ele>1220</ele><time>2022-08-04T13:29:47Z</time></trkpt>
    <trkpt lat="47.06211" lon="11.39018"><ele>1218</ele><time>2022-08-04T13:30:06Z</time></trkpt>
    <trkpt lat="47.06271" lon="11.39127"><ele>1215</ele><time>2022-08-04T13:30:24Z</time></trkpt>
    <trkpt lat="47.06345" lon="11.39158"><ele>1218</ele><time>2022-08-04T13:30:43Z</time></trkpt>
    <trkpt lat="47.06415" lon="11.39185"><ele>1223</ele><time>2022-08-04T13:31:02Z</time></trkpt>
    <trkpt lat="47.06476" lon="11.39218"><ele>1226</ele><time>2022-08-04T13:31:20Z</time></trkpt>
    <trkpt lat="47.06540" lon="11.39269"><ele>1226</ele><time>2022-08-04T13:31:38Z</time></trkpt>
    <trkpt lat="47.06611" lon="11.39354"><ele>1222</ele><time>2022-08-04T13:31:57Z</time></trkpt>
    <trkpt lat="47.06676" lon="11.39497"><ele>1213</ele><time>2022-08-04T13:32:16Z</time></trkpt>
    <trkpt lat="47.06723" lon="11.39651"><ele>1211</ele><time>2022-08-04T13:32:34Z</time></trkpt>
    <trkpt lat="47.06775" lon="11.39795"><ele>1206</ele><time>2022-08-04T13:32:52Z</time></trkpt>
    <trkpt lat="47.06839" lon="11.39901"><ele>1206</ele><time>2022-08-04T13:33:11Z</time></trkpt>
    <trkpt lat="47.06911" lon="11.39950"><ele>1211</ele><time>2022-08-04T13:33:30Z</time></trkpt>
    <trkpt lat="47.06979" lon="11.40011"><ele>1209</ele><time>2022-08-04T13:33:49Z</time></trkpt>
    <trkpt lat="47.07033" lon="11.40071"><ele>1210</ele><time>2022-08-04T13:34:07Z</time></trkpt>
    <trkpt lat="47.07072" lon="11.40120"><ele>1212</ele><time>2022-08-04T13:34:25Z</time></trkpt>
    <trkpt lat="47.07099" lon="11.40103"><ele>1214</ele><time>2022-08-04T13:34:44Z</time></trkpt>
    <trkpt lat="47.07198" lon="11.40049"><ele>1204</ele><time>2022-08-04T13:35:02Z</time></trkpt>
    <trkpt lat="47.07274" lon="11.40091"><ele>1222</ele><time>2022-08-04T13:35:21Z</time></trkpt>
    <trkpt lat="47.07344" lon="11.40135"><ele>1214</ele><time>2022-08-04T13:35:40Z</time></trkpt>
    <trkpt lat="47.07390" lon="11.40222"><ele>1209</ele><time>2022-08-04T13:35:58Z</time></trkpt>
    <trkpt lat="47.07427" lon="11.40320"><ele>1204</ele><time>2022-08-04T13:36:17Z</time></trkpt>
    <trkpt lat="47.07459" lon="11.40421"><ele>1205</ele><time>2022-08-04T13:36:35Z</time></trkpt>
    <trkpt lat="47.07492" lon="11.40389"><ele>1205</ele><time>2022-08-04T13:36:54Z</time></trkpt>
    <trkpt lat="47.07483" lon="11.40396"><ele>1205</ele><time>2022-08-04T13:38:59Z</time></trkpt>
    <trkpt lat="47.07485" lon="11.40395"><ele>1203</ele><time>2022-08-04T13:42:37Z</time></trkpt>
  </trkseg>
</trk>
</gpx>