<?xml version="1.0" encoding="UTF-8"?>
<gpx version="1.1" creator="GPX-Pro" xmlns="http://www.topografix.com/GPX/1/1">
<trk>
  <name>Mtb_Summerau-Pregarten</name>
  <trkseg>
    <trkpt lat="48.55742" lon="14.44836"><ele>709</ele><time>2022-09-10T08:48:18Z</time></trkpt>
    <trkpt lat="48.55695" lon="14.44846"><ele>657</ele><time>2022-09-10T08:48:42Z</time></trkpt>
    <trkpt lat="48.55690" lon="14.44909"><ele>650</ele><time>2022-09-10T08:49:01Z</time></trkpt>
    <trkpt lat="48.55726" lon="14.45015"><ele>651</ele><time>2022-09-10T08:49:19Z</time></trkpt>
    <trkpt lat="48.55755" lon="14.45127"><ele>649</ele><time>2022-09-10T08:49:38Z</time></trkpt>
    <trkpt lat="48.55763" lon="14.45241"><ele>653</ele><time>2022-09-10T08:49:57Z</time></trkpt>
    <trkpt lat="48.55761" lon="14.45227"><ele>650</ele><time>2022-09-10T08:50:15Z</time></trkpt>
    <trkpt lat="48.55748" lon="14.45112"><ele>649</ele><time>2022-09-10T08:50:33Z</time></trkpt>
    <trkpt lat="48.55691" lon="14.45131"><ele>652</ele><time>2022-09-10T08:50:52Z</time></trkpt>
    <trkpt lat="48.55630" lon="14.45164"><ele>655</ele><time>2022-09-10T08:51:10Z</time></trkpt>
    <trkpt lat="48.55581" lon="14.45192"><ele>668</ele><time>2022-09-10T08:51:28Z</time></trkpt>
    <trkpt lat="48.55519" lon="14.45224"><ele>676</ele><time>2022-09-10T08:51:47Z</time></trkpt>
    <trkpt lat="48.55483" lon="14.45278"><ele>684</ele><time>2022-09-10T08:52:05Z</time></trkpt>
    <trkpt lat="48.55495" lon="14.45381"><ele>677</ele><time>2022-09-10T08:52:24Z</time></trkpt>
    <trkpt lat="48.55505" lon="14.45477"><ele>675</ele><time>2022-09-10T08:52:43Z</time></trkpt>
    <trkpt lat="48.55431" lon="14.45495"><ele>691</ele><time>2022-09-10T08:53:02Z</time></trkpt>
    <trkpt lat="48.55397" lon="14.45560"><ele>677</ele><time>2022-09-10T08:53:21Z</time></trkpt>
    <trkpt lat="48.55426" lon="14.45707"><ele>675</ele><time>2022-09-10T08:53:40Z</time></trkpt>
    <trkpt lat="48.55477" lon="14.45935"><ele>668</ele><time>2022-09-10T08:53:58Z</time></trkpt>
    <trkpt lat="48.55548" lon="14.46198"><ele>658</ele><time>2022-09-10T08:54:17Z</time></trkpt>
    <trkpt lat="48.55584" lon="14.46348"><ele>657</ele><time>2022-09-10T08:54:35Z</time></trkpt>
    <trkpt lat="48.55606" lon="14.46434"><ele>659</ele><time>2022-09-10T08:54:53Z</time></trkpt>
    <trkpt lat="48.55630" lon="14.46533"><ele>659</ele><time>2022-09-10T08:55:12Z</time></trkpt>
    <trkpt lat="48.55653" lon="14.46641"><ele>660</ele><time>2022-09-10T08:55:30Z</time></trkpt>
    <trkpt lat="48.55635" lon="14.46733"><ele>658</ele><time>2022-09-10T08:55:48Z</time></trkpt>
    <trkpt lat="48.55608" lon="14.46829"><ele>658</ele><time>2022-09-10T08:56:07Z</time></trkpt>
    <trkpt lat="48.55615" lon="14.46936"><ele>660</ele><time>2022-09-10T08:56:25Z</time></trkpt>
    <trkpt lat="48.55658" lon="14.47012"><ele>665</ele><time>2022-09-10T08:56:44Z</time></trkpt>
    <trkpt lat="48.55684" lon="14.47084"><ele>666</ele><time>2022-09-10T08:57:03Z</time></trkpt>
    <trkpt lat="48.55700" lon="14.47156"><ele>681</ele><time>2022-09-10T08:57:21Z</time></trkpt>
    <trkpt lat="48.55711" lon="14.47215"><ele>684</ele><time>2022-09-10T08:57:39Z</time></trkpt>
    <trkpt lat="48.55719" lon="14.47277"><ele>684</ele><time>2022-09-10T08:57:58Z</time></trkpt>
    <trkpt lat="48.55727" lon="14.47345"><ele>684</ele><time>2022-09-10T08:58:17Z</time></trkpt>
    <trkpt lat="48.55750" lon="14.47416"><ele>681</ele><time>2022-09-10T08:58:35Z</time></trkpt>
    <trkpt lat="48.55774" lon="14.47497"><ele>688</ele><time>2022-09-10T08:58:54Z</time></trkpt>
    <trkpt lat="48.55786" lon="14.47581"><ele>696</ele><time>2022-09-10T08:59:13Z</time></trkpt>
    <trkpt lat="48.55817" lon="14.47652"><ele>693</ele><time>2022-09-10T08:59:32Z</time></trkpt>
    <trkpt lat="48.55806" lon="14.47710"><ele>693</ele><time>2022-09-10T08:59:50Z</time></trkpt>
    <trkpt lat="48.55794" lon="14.47784"><ele>702</ele><time>2022-09-10T09:00:09Z</time></trkpt>
    <trkpt lat="48.55793" lon="14.47886"><ele>699</ele><time>2022-09-10T09:00:27Z</time></trkpt>
    <trkpt lat="48.55784" lon="14.48068"><ele>693</ele><time>2022-09-10T09:00:46Z</time></trkpt>
    <trkpt lat="48.55785" lon="14.48315"><ele>690</ele><time>2022-09-10T09:01:05Z</time></trkpt>
    <trkpt lat="48.55734" lon="14.48580"><ele>677</ele><time>2022-09-10T09:01:24Z</time></trkpt>
    <trkpt lat="48.55760" lon="14.48729"><ele>667</ele><time>2022-09-10T09:01:43Z</time></trkpt>
    <trkpt lat="48.55746" lon="14.48665"><ele>650</ele><time>2022-09-10T09:02:01Z</time></trkpt>
    <trkpt lat="48.55721" lon="14.48680"><ele>648</ele><time>2022-09-10T09:02:20Z</time></trkpt>
    <trkpt lat="48.55683" lon="14.48704"><ele>650</ele><time>2022-09-10T09:02:39Z</time></trkpt>
    <trkpt lat="48.55646" lon="14.48723"><ele>651</ele><time>2022-09-10T09:02:57Z</time></trkpt>
    <trkpt lat="48.55589" lon="14.48758"><ele>655</ele><time>2022-09-10T09:03:16Z</time></trkpt>
    <trkpt lat="48.55561" lon="14.48792"><ele>663</ele><time>2022-09-10T09:03:34Z</time></trkpt>
    <trkpt lat="48.55530" lon="14.48762"><ele>664</ele><time>2022-09-10T09:03:52Z</time></trkpt>
    <trkpt lat="48.55463" lon="14.48746"><ele>663</ele><time>2022-09-10T09:04:11Z</time></trkpt>
    <trkpt lat="48.55439" lon="14.48730"><ele>671</ele><time>2022-09-10T09:04:29Z</time></trkpt>
    <trkpt lat="48.55413" lon="14.48738"><ele>670</ele><time>2022-09-10T09:04:48Z</time></trkpt>
    <trkpt lat="48.55385" lon="14.48800"><ele>673</ele><time>2022-09-10T09:05:06Z</time></trkpt>
    <trkpt lat="48.55322" lon="14.48854"><ele>660</ele><time>2022-09-10T09:05:24Z</time></trkpt>
    <trkpt lat="48.55288" lon="14.48857"><ele>656</ele><time>2022-09-10T09:05:43Z</time></trkpt>
    <trkpt lat="48.55236" lon="14.48862"><ele>656</ele><time>2022-09-10T09:06:01Z</time></trkpt>
    <trkpt lat="48.55189" lon="14.48898"><ele>659</ele><time>2022-09-10T09:06:20Z</time></trkpt>
    <trkpt lat="48.55117" lon="14.48942"><ele>657</ele><time>2022-09-10T09:06:38Z</time></trkpt>
    <trkpt lat="48.55060" lon="14.49003"><ele>664</ele><time>2022-09-10T09:06:57Z</time></trkpt>
    <trkpt lat="48.55026" lon="14.48967"><ele>660</ele><time>2022-09-10T09:07:15Z</time></trkpt>
    <trkpt lat="48.55000" lon="14.48875"><ele>652</ele><time>2022-09-10T09:07:34Z</time></trkpt>
    <trkpt lat="48.54944" lon="14.48837"><ele>649</ele><time>2022-09-10T09:07:52Z</time></trkpt>
    <trkpt lat="48.54886" lon="14.48872"><ele>640</ele><time>2022-09-10T09:08:10Z</time></trkpt>
    <trkpt lat="48.54847" lon="14.48949"><ele>639</ele><time>2022-09-10T09:08:29Z</time></trkpt>
    <trkpt lat="48.54798" lon="14.49004"><ele>642</ele><time>2022-09-10T09:08:47Z</time></trkpt>
    <trkpt lat="48.54776" lon="14.49034"><ele>644</ele><time>2022-09-10T09:09:06Z</time></trkpt>
    <trkpt lat="48.54767" lon="14.49049"><ele>651</ele><time>2022-09-10T09:09:24Z</time></trkpt>
    <trkpt lat="48.54735" lon="14.49141"><ele>649</ele><time>2022-09-10T09:10:05Z</time></trkpt>
    <trkpt lat="48.54715" lon="14.49208"><ele>646</ele><time>2022-09-10T09:10:23Z</time></trkpt>
    <trkpt lat="48.54699" lon="14.49237"><ele>640</ele><time>2022-09-10T09:10:42Z</time></trkpt>
    <trkpt lat="48.54670" lon="14.49311"><ele>657</ele><time>2022-09-10T09:11:01Z</time></trkpt>
    <trkpt lat="48.54656" lon="14.49381"><ele>661</ele><time>2022-09-10T09:11:19Z</time></trkpt>
    <trkpt lat="48.54669" lon="14.49426"><ele>662</ele><time>2022-09-10T09:11:37Z</time></trkpt>
    <trkpt lat="48.54688" lon="14.49464"><ele>661</ele><time>2022-09-10T09:11:56Z</time></trkpt>
    <trkpt lat="48.54704" lon="14.49468"><ele>646</ele><time>2022-09-10T09:12:14Z</time></trkpt>
    <trkpt lat="48.54732" lon="14.49468"><ele>632</ele><time>2022-09-10T09:12:32Z</time></trkpt>
    <trkpt lat="48.54747" lon="14.49473"><ele>637</ele><time>2022-09-10T09:12:51Z</time></trkpt>
    <trkpt lat="48.54739" lon="14.49498"><ele>662</ele><time>2022-09-10T09:13:50Z</time></trkpt>
    <trkpt lat="48.54719" lon="14.49542"><ele>673</ele><time>2022-09-10T09:14:08Z</time></trkpt>
    <trkpt lat="48.54690" lon="14.49611"><ele>670</ele><time>2022-09-10T09:14:27Z</time></trkpt>
    <trkpt lat="48.54670" lon="14.49663"><ele>671</ele><time>2022-09-10T09:14:45Z</time></trkpt>
    <trkpt lat="48.54670" lon="14.49704"><ele>668</ele><time>2022-09-10T09:15:04Z</time></trkpt>
    <trkpt lat="48.54678" lon="14.49735"><ele>666</ele><time>2022-09-10T09:15:22Z</time></trkpt>
    <trkpt lat="48.54673" lon="14.49786"><ele>665</ele><time>2022-09-10T09:15:40Z</time></trkpt>
    <trkpt lat="48.54676" lon="14.49842"><ele>665</ele><time>2022-09-10T09:15:58Z</time></trkpt>
    <trkpt lat="48.54671" lon="14.49916"><ele>662</ele><time>2022-09-10T09:16:17Z</time></trkpt>
    <trkpt lat="48.54642" lon="14.49987"><ele>660</ele><time>2022-09-10T09:16:35Z</time></trkpt>
    <trkpt lat="48.54584" lon="14.50072"><ele>658</ele><time>2022-09-10T09:16:53Z</time></trkpt>
    <trkpt lat="48.54520" lon="14.50169"><ele>655</ele><time>2022-09-10T09:17:11Z</time></trkpt>
    <trkpt lat="48.54444" lon="14.50281"><ele>646</ele><time>2022-09-10T09:17:29Z</time></trkpt>
    <trkpt lat="48.54330" lon="14.50413"><ele>638</ele><time>2022-09-10T09:17:48Z</time></trkpt>
    <trkpt lat="48.54277" lon="14.50469"><ele>648</ele><time>2022-09-10T09:18:06Z</time></trkpt>
    <trkpt lat="48.54286" lon="14.50539"><ele>657</ele><time>2022-09-10T09:18:25Z</time></trkpt>
    <trkpt lat="48.54291" lon="14.50609"><ele>662</ele><time>2022-09-10T09:18:43Z</time></trkpt>
    <trkpt lat="48.54298" lon="14.50685"><ele>667</ele><time>2022-09-10T09:19:01Z</time></trkpt>
    <trkpt lat="48.54312" lon="14.50767"><ele>672</ele><time>2022-09-10T09:19:19Z</time></trkpt>
    <trkpt lat="48.54302" lon="14.50866"><ele>673</ele><time>2022-09-10T09:19:38Z</time></trkpt>
    <trkpt lat="48.54292" lon="14.50994"><ele>672</ele><time>2022-09-10T09:19:56Z</time></trkpt>
    <trkpt lat="48.54272" lon="14.51198"><ele>663</ele><time>2022-09-10T09:20:14Z</time></trkpt>
    <trkpt lat="48.54261" lon="14.51375"><ele>661</ele><time>2022-09-10T09:20:32Z</time></trkpt>
    <trkpt lat="48.54190" lon="14.51560"><ele>659</ele><time>2022-09-10T09:20:51Z</time></trkpt>
    <trkpt lat="48.54150" lon="14.51644"><ele>653</ele><time>2022-09-10T09:21:09Z</time></trkpt>
    <trkpt lat="48.54128" lon="14.51696"><ele>645</ele><time>2022-09-10T09:21:27Z</time></trkpt>
    <trkpt lat="48.54119" lon="14.51756"><ele>640</ele><time>2022-09-10T09:21:45Z</time></trkpt>
    <trkpt lat="48.54100" lon="14.51825"><ele>646</ele><time>2022-09-10T09:22:04Z</time></trkpt>
    <trkpt lat="48.54079" lon="14.51901"><ele>642</ele><time>2022-09-10T09:22:23Z</time></trkpt>
    <trkpt lat="48.54060" lon="14.51977"><ele>646</ele><time>2022-09-10T09:22:41Z</time></trkpt>
    <trkpt lat="48.54040" lon="14.52053"><ele>650</ele><time>2022-09-10T09:23:00Z</time></trkpt>
    <trkpt lat="48.54021" lon="14.52123"><ele>653</ele><time>2022-09-10T09:23:18Z</time></trkpt>
    <trkpt lat="48.54003" lon="14.52186"><ele>656</ele><time>2022-09-10T09:23:36Z</time></trkpt>
    <trkpt lat="48.53987" lon="14.52257"><ele>665</ele><time>2022-09-10T09:23:55Z</time></trkpt>
    <trkpt lat="48.53964" lon="14.52321"><ele>669</ele><time>2022-09-10T09:24:13Z</time></trkpt>
    <trkpt lat="48.53935" lon="14.52373"><ele>670</ele><time>2022-09-10T09:24:32Z</time></trkpt>
    <trkpt lat="48.53905" lon="14.52418"><ele>669</ele><time>2022-09-10T09:24:50Z</time></trkpt>
    <trkpt lat="48.53876" lon="14.52464"><ele>669</ele><time>2022-09-10T09:25:09Z</time></trkpt>
    <trkpt lat="48.53858" lon="14.52537"><ele>670</ele><time>2022-09-10T09:25:27Z</time></trkpt>
    <trkpt lat="48.53851" lon="14.52558"><ele>671</ele><time>2022-09-10T09:25:46Z</time></trkpt>
    <trkpt lat="48.53848" lon="14.52571"><ele>675</ele><time>2022-09-10T09:26:05Z</time></trkpt>
    <trkpt lat="48.53830" lon="14.52648"><ele>679</ele><time>2022-09-10T09:26:24Z</time></trkpt>
    <trkpt lat="48.53809" lon="14.52723"><ele>678</ele><time>2022-09-10T09:26:42Z</time></trkpt>
    <trkpt lat="48.53780" lon="14.52793"><ele>678</ele><time>2022-09-10T09:27:01Z</time></trkpt>
    <trkpt lat="48.53752" lon="14.52869"><ele>676</ele><time>2022-09-10T09:27:20Z</time></trkpt>
    <trkpt lat="48.53729" lon="14.52939"><ele>678</ele><time>2022-09-10T09:27:38Z</time></trkpt>
    <trkpt lat="48.53701" lon="14.53000"><ele>680</ele><time>2022-09-10T09:27:57Z</time></trkpt>
    <trkpt lat="48.53664" lon="14.53061"><ele>681</ele><time>2022-09-10T09:28:16Z</time></trkpt>
    <trkpt lat="48.53617" lon="14.53114"><ele>679</ele><time>2022-09-10T09:28:34Z</time></trkpt>
    <trkpt lat="48.53586" lon="14.53178"><ele>679</ele><time>2022-09-10T09:28:52Z</time></trkpt>
    <trkpt lat="48.53526" lon="14.53126"><ele>676</ele><time>2022-09-10T09:29:11Z</time></trkpt>
    <trkpt lat="48.53486" lon="14.53105"><ele>680</ele><time>2022-09-10T09:29:29Z</time></trkpt>
    <trkpt lat="48.53453" lon="14.53099"><ele>688</ele><time>2022-09-10T09:29:48Z</time></trkpt>
    <trkpt lat="48.53428" lon="14.53098"><ele>694</ele><time>2022-09-10T09:30:06Z</time></trkpt>
    <trkpt lat="48.53403" lon="14.53095"><ele>699</ele><time>2022-09-10T09:30:24Z</time></trkpt>
    <trkpt lat="48.53375" lon="14.53086"><ele>703</ele><time>2022-09-10T09:30:43Z</time></trkpt>
    <trkpt lat="48.53349" lon="14.53075"><ele>705</ele><time>2022-09-10T09:31:01Z</time></trkpt>
    <trkpt lat="48.53319" lon="14.53062"><ele>709</ele><time>2022-09-10T09:31:19Z</time></trkpt>
    <trkpt lat="48.53288" lon="14.53045"><ele>709</ele><time>2022-09-10T09:31:38Z</time></trkpt>
    <trkpt lat="48.53243" lon="14.53046"><ele>710</ele><time>2022-09-10T09:31:57Z</time></trkpt>
    <trkpt lat="48.53180" lon="14.53056"><ele>708</ele><time>2022-09-10T09:32:15Z</time></trkpt>
    <trkpt lat="48.53107" lon="14.53046"><ele>705</ele><time>2022-09-10T09:32:33Z</time></trkpt>
    <trkpt lat="48.53025" lon="14.53008"><ele>699</ele><time>2022-09-10T09:32:52Z</time></trkpt>
    <trkpt lat="48.52932" lon="14.52908"><ele>689</ele><time>2022-09-10T09:33:11Z</time></trkpt>
    <trkpt lat="48.52875" lon="14.52897"><ele>686</ele><time>2022-09-10T09:33:29Z</time></trkpt>
    <trkpt lat="48.52834" lon="14.52956"><ele>687</ele><time>2022-09-10T09:33:47Z</time></trkpt>
    <trkpt lat="48.52796" lon="14.53027"><ele>687</ele><time>2022-09-10T09:34:06Z</time></trkpt>
    <trkpt lat="48.52739" lon="14.53094"><ele>685</ele><time>2022-09-10T09:34:24Z</time></trkpt>
    <trkpt lat="48.52662" lon="14.53142"><ele>683</ele><time>2022-09-10T09:34:43Z</time></trkpt>
    <trkpt lat="48.52703" lon="14.53216"><ele>684</ele><time>2022-09-10T09:35:02Z</time></trkpt>
    <trkpt lat="48.52736" lon="14.53291"><ele>687</ele><time>2022-09-10T09:35:21Z</time></trkpt>
    <trkpt lat="48.52732" lon="14.53380"><ele>689</ele><time>2022-09-10T09:35:39Z</time></trkpt>
    <trkpt lat="48.52697" lon="14.53505"><ele>688</ele><time>2022-09-10T09:35:57Z</time></trkpt>
    <trkpt lat="48.52700" lon="14.53628"><ele>692</ele><time>2022-09-10T09:36:16Z</time></trkpt>
    <trkpt lat="48.52702" lon="14.53703"><ele>701</ele><time>2022-09-10T09:36:34Z</time></trkpt>
    <trkpt lat="48.52705" lon="14.53770"><ele>704</ele><time>2022-09-10T09:36:53Z</time></trkpt>
    <trkpt lat="48.52712" lon="14.53831"><ele>703</ele><time>2022-09-10T09:37:11Z</time></trkpt>
    <trkpt lat="48.52713" lon="14.53888"><ele>705</ele><time>2022-09-10T09:37:29Z</time></trkpt>
    <trkpt lat="48.52708" lon="14.53945"><ele>704</ele><time>2022-09-10T09:37:47Z</time></trkpt>
    <trkpt lat="48.52698" lon="14.54004"><ele>704</ele><time>2022-09-10T09:38:06Z</time></trkpt>
    <trkpt lat="48.52683" lon="14.54059"><ele>700</ele><time>2022-09-10T09:38:24Z</time></trkpt>
    <trkpt lat="48.52675" lon="14.54078"><ele>699</ele><time>2022-09-10T09:38:43Z</time></trkpt>
    <trkpt lat="48.52658" lon="14.54151"><ele>693</ele><time>2022-09-10T09:41:07Z</time></trkpt>
    <trkpt lat="48.52628" lon="14.54195"><ele>694</ele><time>2022-09-10T09:41:25Z</time></trkpt>
    <trkpt lat="48.52591" lon="14.54229"><ele>695</ele><time>2022-09-10T09:41:44Z</time></trkpt>
    <trkpt lat="48.52573" lon="14.54284"><ele>697</ele><time>2022-09-10T09:42:03Z</time></trkpt>
    <trkpt lat="48.52563" lon="14.54340"><ele>701</ele><time>2022-09-10T09:42:21Z</time></trkpt>
    <trkpt lat="48.52553" lon="14.54399"><ele>702</ele><time>2022-09-10T09:42:40Z</time></trkpt>
    <trkpt lat="48.52544" lon="14.54451"><ele>703</ele><time>2022-09-10T09:42:58Z</time></trkpt>
    <trkpt lat="48.52514" lon="14.54491"><ele>704</ele><time>2022-09-10T09:43:17Z</time></trkpt>
    <trkpt lat="48.52517" lon="14.54528"><ele>708</ele><time>2022-09-10T09:43:35Z</time></trkpt>
    <trkpt lat="48.52502" lon="14.54586"><ele>708</ele><time>2022-09-10T09:43:53Z</time></trkpt>
    <trkpt lat="48.52533" lon="14.54599"><ele>712</ele><time>2022-09-10T09:44:12Z</time></trkpt>
    <trkpt lat="48.52570" lon="14.54599"><ele>717</ele><time>2022-09-10T09:44:30Z</time></trkpt>
    <trkpt lat="48.52547" lon="14.54606"><ele>717</ele><time>2022-09-10T09:44:49Z</time></trkpt>
    <trkpt lat="48.52482" lon="14.54683"><ele>707</ele><time>2022-09-10T09:45:07Z</time></trkpt>
    <trkpt lat="48.52362" lon="14.54650"><ele>696</ele><time>2022-09-10T09:45:26Z</time></trkpt>
    <trkpt lat="48.52335" lon="14.54721"><ele>703</ele><time>2022-09-10T09:45:45Z</time></trkpt>
    <trkpt lat="48.52329" lon="14.54794"><ele>707</ele><time>2022-09-10T09:46:03Z</time></trkpt>
    <trkpt lat="48.52326" lon="14.54862"><ele>711</ele><time>2022-09-10T09:46:21Z</time></trkpt>
    <trkpt lat="48.52338" lon="14.54914"><ele>715</ele><time>2022-09-10T09:46:40Z</time></trkpt>
    <trkpt lat="48.52382" lon="14.54899"><ele>722</ele><time>2022-09-10T09:46:59Z</time></trkpt>
    <trkpt lat="48.52429" lon="14.54886"><ele>723</ele><time>2022-09-10T09:47:18Z</time></trkpt>
    <trkpt lat="48.52476" lon="14.54872"><ele>728</ele><time>2022-09-10T09:47:37Z</time></trkpt>
    <trkpt lat="48.52516" lon="14.54862"><ele>731</ele><time>2022-09-10T09:47:55Z</time></trkpt>
    <trkpt lat="48.52554" lon="14.54851"><ele>736</ele><time>2022-09-10T09:48:14Z</time></trkpt>
    <trkpt lat="48.52593" lon="14.54845"><ele>738</ele><time>2022-09-10T09:48:33Z</time></trkpt>
    <trkpt lat="48.52606" lon="14.54874"><ele>727</ele><time>2022-09-10T09:48:51Z</time></trkpt>
    <trkpt lat="48.52596" lon="14.54909"><ele>741</ele><time>2022-09-10T09:49:09Z</time></trkpt>
    <trkpt lat="48.52587" lon="14.54945"><ele>745</ele><time>2022-09-10T09:49:28Z</time></trkpt>
    <trkpt lat="48.52582" lon="14.54984"><ele>746</ele><time>2022-09-10T09:49:46Z</time></trkpt>
    <trkpt lat="48.52583" lon="14.55023"><ele>749</ele><time>2022-09-10T09:50:05Z</time></trkpt>
    <trkpt lat="48.52587" lon="14.55064"><ele>752</ele><time>2022-09-10T09:50:24Z</time></trkpt>
    <trkpt lat="48.52590" lon="14.55103"><ele>751</ele><time>2022-09-10T09:50:42Z</time></trkpt>
    <trkpt lat="48.52595" lon="14.55145"><ele>755</ele><time>2022-09-10T09:51:01Z</time></trkpt>
    <trkpt lat="48.52600" lon="14.55186"><ele>757</ele><time>2022-09-10T09:51:19Z</time></trkpt>
    <trkpt lat="48.52607" lon="14.55229"><ele>756</ele><time>2022-09-10T09:51:38Z</time></trkpt>
    <trkpt lat="48.52613" lon="14.55271"><ele>764</ele><time>2022-09-10T09:51:56Z</time></trkpt>
    <trkpt lat="48.52621" lon="14.55309"><ele>765</ele><time>2022-09-10T09:52:14Z</time></trkpt>
    <trkpt lat="48.52630" lon="14.55354"><ele>769</ele><time>2022-09-10T09:52:33Z</time></trkpt>
    <trkpt lat="48.52635" lon="14.55400"><ele>769</ele><time>2022-09-10T09:52:51Z</time></trkpt>
    <trkpt lat="48.52646" lon="14.55462"><ele>773</ele><time>2022-09-10T09:53:09Z</time></trkpt>
    <trkpt lat="48.52660" lon="14.55515"><ele>771</ele><time>2022-09-10T09:53:28Z</time></trkpt>
    <trkpt lat="48.52666" lon="14.55531"><ele>774</ele><time>2022-09-10T09:53:47Z</time></trkpt>
    <trkpt lat="48.52680" lon="14.55540"><ele>778</ele><time>2022-09-10T09:54:25Z</time></trkpt>
    <trkpt lat="48.52703" lon="14.55555"><ele>783</ele><time>2022-09-10T09:55:03Z</time></trkpt>
    <trkpt lat="48.52717" lon="14.55568"><ele>785</ele><time>2022-09-10T09:55:22Z</time></trkpt>
    <trkpt lat="48.52750" lon="14.55592"><ele>791</ele><time>2022-09-10T09:56:57Z</time></trkpt>
    <trkpt lat="48.52771" lon="14.55607"><ele>794</ele><time>2022-09-10T09:57:15Z</time></trkpt>
    <trkpt lat="48.52793" lon="14.55617"><ele>795</ele><time>2022-09-10T09:57:33Z</time></trkpt>
    <trkpt lat="48.52815" lon="14.55631"><ele>799</ele><time>2022-09-10T09:57:52Z</time></trkpt>
    <trkpt lat="48.52831" lon="14.55656"><ele>802</ele><time>2022-09-10T09:58:10Z</time></trkpt>
    <trkpt lat="48.52853" lon="14.55678"><ele>803</ele><time>2022-09-10T09:58:29Z</time></trkpt>
    <trkpt lat="48.52876" lon="14.55687"><ele>806</ele><time>2022-09-10T09:58:48Z</time></trkpt>
    <trkpt lat="48.52898" lon="14.55699"><ele>808</ele><time>2022-09-10T09:59:06Z</time></trkpt>
    <trkpt lat="48.52919" lon="14.55714"><ele>814</ele><time>2022-09-10T09:59:25Z</time></trkpt>
    <trkpt lat="48.52935" lon="14.55731"><ele>810</ele><time>2022-09-10T09:59:44Z</time></trkpt>
    <trkpt lat="48.52956" lon="14.55739"><ele>820</ele><time>2022-09-10T10:00:03Z</time></trkpt>
    <trkpt lat="48.52963" lon="14.55768"><ele>824</ele><time>2022-09-10T10:00:21Z</time></trkpt>
    <trkpt lat="48.52978" lon="14.55800"><ele>824</ele><time>2022-09-10T10:00:40Z</time></trkpt>
    <trkpt lat="48.52999" lon="14.55821"><ele>831</ele><time>2022-09-10T10:00:58Z</time></trkpt>
    <trkpt lat="48.53011" lon="14.55869"><ele>833</ele><time>2022-09-10T10:01:17Z</time></trkpt>
    <trkpt lat="48.52979" lon="14.55921"><ele>827</ele><time>2022-09-10T10:01:36Z</time></trkpt>
    <trkpt lat="48.52981" lon="14.55984"><ele>823</ele><time>2022-09-10T10:01:55Z</time></trkpt>
    <trkpt lat="48.52993" lon="14.56035"><ele>828</ele><time>2022-09-10T10:02:13Z</time></trkpt>
    <trkpt lat="48.53009" lon="14.56078"><ele>832</ele><time>2022-09-10T10:02:31Z</time></trkpt>
    <trkpt lat="48.53020" lon="14.56121"><ele>831</ele><time>2022-09-10T10:02:50Z</time></trkpt>
    <trkpt lat="48.53017" lon="14.56166"><ele>822</ele><time>2022-09-10T10:03:09Z</time></trkpt>
    <trkpt lat="48.53000" lon="14.56210"><ele>810</ele><time>2022-09-10T10:03:27Z</time></trkpt>
    <trkpt lat="48.52990" lon="14.56224"><ele>817</ele><time>2022-09-10T10:03:46Z</time></trkpt>
    <trkpt lat="48.52983" lon="14.56233"><ele>816</ele><time>2022-09-10T10:04:22Z</time></trkpt>
    <trkpt lat="48.52940" lon="14.56267"><ele>821</ele><time>2022-09-10T10:04:41Z</time></trkpt>
    <trkpt lat="48.52894" lon="14.56308"><ele>828</ele><time>2022-09-10T10:04:59Z</time></trkpt>
    <trkpt lat="48.52853" lon="14.56358"><ele>830</ele><time>2022-09-10T10:05:18Z</time></trkpt>
    <trkpt lat="48.52808" lon="14.56402"><ele>833</ele><time>2022-09-10T10:05:37Z</time></trkpt>
    <trkpt lat="48.52755" lon="14.56438"><ele>841</ele><time>2022-09-10T10:05:55Z</time></trkpt>
    <trkpt lat="48.52718" lon="14.56495"><ele>840</ele><time>2022-09-10T10:06:14Z</time></trkpt>
    <trkpt lat="48.52705" lon="14.56532"><ele>844</ele><time>2022-09-10T10:06:33Z</time></trkpt>
    <trkpt lat="48.52699" lon="14.56543"><ele>846</ele><time>2022-09-10T10:07:30Z</time></trkpt>
    <trkpt lat="48.52679" lon="14.56602"><ele>845</ele><time>2022-09-10T10:07:48Z</time></trkpt>
    <trkpt lat="48.52648" lon="14.56657"><ele>844</ele><time>2022-09-10T10:08:06Z</time></trkpt>
    <trkpt lat="48.52619" lon="14.56725"><ele>845</ele><time>2022-09-10T10:08:25Z</time></trkpt>
    <trkpt lat="48.52581" lon="14.56805"><ele>840</ele><time>2022-09-10T10:08:44Z</time></trkpt>
    <trkpt lat="48.52530" lon="14.56807"><ele>842</ele><time>2022-09-10T10:09:03Z</time></trkpt>
    <trkpt lat="48.52497" lon="14.56828"><ele>848</ele><time>2022-09-10T10:09:21Z</time></trkpt>
    <trkpt lat="48.52463" lon="14.56881"><ele>836</ele><time>2022-09-10T10:09:39Z</time></trkpt>
    <trkpt lat="48.52492" lon="14.56941"><ele>850</ele><time>2022-09-10T10:09:58Z</time></trkpt>
    <trkpt lat="48.52477" lon="14.56969"><ele>845</ele><time>2022-09-10T10:10:17Z</time></trkpt>
    <trkpt lat="48.52427" lon="14.56972"><ele>838</ele><time>2022-09-10T10:10:35Z</time></trkpt>
    <trkpt lat="48.52408" lon="14.56997"><ele>833</ele><time>2022-09-10T10:11:28Z</time></trkpt>
    <trkpt lat="48.52376" lon="14.57067"><ele>835</ele><time>2022-09-10T10:11:47Z</time></trkpt>
    <trkpt lat="48.52331" lon="14.57141"><ele>824</ele><time>2022-09-10T10:12:06Z</time></trkpt>
    <trkpt lat="48.52320" lon="14.57276"><ele>816</ele><time>2022-09-10T10:12:24Z</time></trkpt>
    <trkpt lat="48.52298" lon="14.57312"><ele>816</ele><time>2022-09-10T10:12:43Z</time></trkpt>
    <trkpt lat="48.52271" lon="14.57362"><ele>813</ele><time>2022-09-10T10:13:01Z</time></trkpt>
    <trkpt lat="48.52253" lon="14.57448"><ele>810</ele><time>2022-09-10T10:13:20Z</time></trkpt>
    <trkpt lat="48.52235" lon="14.57561"><ele>809</ele><time>2022-09-10T10:13:39Z</time></trkpt>
    <trkpt lat="48.52206" lon="14.57693"><ele>807</ele><time>2022-09-10T10:13:58Z</time></trkpt>
    <trkpt lat="48.52110" lon="14.57740"><ele>797</ele><time>2022-09-10T10:14:16Z</time></trkpt>
    <trkpt lat="48.52097" lon="14.57827"><ele>796</ele><time>2022-09-10T10:14:35Z</time></trkpt>
    <trkpt lat="48.52096" lon="14.57947"><ele>797</ele><time>2022-09-10T10:14:54Z</time></trkpt>
    <trkpt lat="48.52138" lon="14.58076"><ele>788</ele><time>2022-09-10T10:15:13Z</time></trkpt>
    <trkpt lat="48.52154" lon="14.58079"><ele>791</ele><time>2022-09-10T10:15:32Z</time></trkpt>
    <trkpt lat="48.52177" lon="14.58070"><ele>795</ele><time>2022-09-10T10:16:18Z</time></trkpt>
    <trkpt lat="48.52208" lon="14.58091"><ele>799</ele><time>2022-09-10T10:16:55Z</time></trkpt>
    <trkpt lat="48.52231" lon="14.58125"><ele>801</ele><time>2022-09-10T10:17:14Z</time></trkpt>
    <trkpt lat="48.52254" lon="14.58146"><ele>797</ele><time>2022-09-10T10:17:32Z</time></trkpt>
    <trkpt lat="48.52285" lon="14.58180"><ele>803</ele><time>2022-09-10T10:17:51Z</time></trkpt>
    <trkpt lat="48.52309" lon="14.58211"><ele>810</ele><time>2022-09-10T10:18:10Z</time></trkpt>
    <trkpt lat="48.52330" lon="14.58250"><ele>807</ele><time>2022-09-10T10:18:29Z</time></trkpt>
    <trkpt lat="48.52349" lon="14.58288"><ele>803</ele><time>2022-09-10T10:18:47Z</time></trkpt>
    <trkpt lat="48.52350" lon="14.58323"><ele>812</ele><time>2022-09-10T10:19:06Z</time></trkpt>
    <trkpt lat="48.52347" lon="14.58357"><ele>821</ele><time>2022-09-10T10:19:24Z</time></trkpt>
    <trkpt lat="48.52356" lon="14.58361"><ele>828</ele><time>2022-09-10T10:20:23Z</time></trkpt>
    <trkpt lat="48.52382" lon="14.58384"><ele>827</ele><time>2022-09-10T10:20:42Z</time></trkpt>
    <trkpt lat="48.52407" lon="14.58408"><ele>819</ele><time>2022-09-10T10:21:00Z</time></trkpt>
    <trkpt lat="48.52425" lon="14.58440"><ele>825</ele><time>2022-09-10T10:21:18Z</time></trkpt>
    <trkpt lat="48.52447" lon="14.58478"><ele>829</ele><time>2022-09-10T10:21:36Z</time></trkpt>
    <trkpt lat="48.52464" lon="14.58505"><ele>828</ele><time>2022-09-10T10:21:55Z</time></trkpt>
    <trkpt lat="48.52486" lon="14.58514"><ele>841</ele><time>2022-09-10T10:22:14Z</time></trkpt>
    <trkpt lat="48.52510" lon="14.58532"><ele>843</ele><time>2022-09-10T10:22:32Z</time></trkpt>
    <trkpt lat="48.52523" lon="14.58545"><ele>844</ele><time>2022-09-10T10:22:51Z</time></trkpt>
    <trkpt lat="48.52537" lon="14.58566"><ele>844</ele><time>2022-09-10T10:24:07Z</time></trkpt>
    <trkpt lat="48.52544" lon="14.58579"><ele>840</ele><time>2022-09-10T10:24:25Z</time></trkpt>
    <trkpt lat="48.52561" lon="14.58613"><ele>844</ele><time>2022-09-10T10:24:44Z</time></trkpt>
    <trkpt lat="48.52573" lon="14.58634"><ele>847</ele><time>2022-09-10T10:25:03Z</time></trkpt>
    <trkpt lat="48.52594" lon="14.58658"><ele>850</ele><time>2022-09-10T10:25:21Z</time></trkpt>
    <trkpt lat="48.52602" lon="14.58673"><ele>855</ele><time>2022-09-10T10:26:44Z</time></trkpt>
    <trkpt lat="48.52618" lon="14.58678"><ele>863</ele><time>2022-09-10T10:27:03Z</time></trkpt>
    <trkpt lat="48.52644" lon="14.58690"><ele>874</ele><time>2022-09-10T10:27:21Z</time></trkpt>
    <trkpt lat="48.52668" lon="14.58705"><ele>882</ele><time>2022-09-10T10:27:40Z</time></trkpt>
    <trkpt lat="48.52687" lon="14.58718"><ele>884</ele><time>2022-09-10T10:27:58Z</time></trkpt>
    <trkpt lat="48.52716" lon="14.58737"><ele>888</ele><time>2022-09-10T10:28:17Z</time></trkpt>
    <trkpt lat="48.52726" lon="14.58760"><ele>888</ele><time>2022-09-10T10:28:35Z</time></trkpt>
    <trkpt lat="48.52724" lon="14.58794"><ele>892</ele><time>2022-09-10T10:28:54Z</time></trkpt>
    <trkpt lat="48.52719" lon="14.58823"><ele>898</ele><time>2022-09-10T10:29:13Z</time></trkpt>
    <trkpt lat="48.52706" lon="14.58859"><ele>904</ele><time>2022-09-10T10:29:31Z</time></trkpt>
    <trkpt lat="48.52687" lon="14.58895"><ele>900</ele><time>2022-09-10T10:29:50Z</time></trkpt>
    <trkpt lat="48.52682" lon="14.58934"><ele>903</ele><time>2022-09-10T10:30:08Z</time></trkpt>
    <trkpt lat="48.52665" lon="14.58963"><ele>899</ele><time>2022-09-10T10:30:27Z</time></trkpt>
    <trkpt lat="48.52664" lon="14.58992"><ele>899</ele><time>2022-09-10T10:30:45Z</time></trkpt>
    <trkpt lat="48.52696" lon="14.59037"><ele>908</ele><time>2022-09-10T10:31:04Z</time></trkpt>
    <trkpt lat="48.52718" lon="14.59093"><ele>907</ele><time>2022-09-10T10:31:23Z</time></trkpt>
    <trkpt lat="48.52748" lon="14.59153"><ele>901</ele><time>2022-09-10T10:31:42Z</time></trkpt>
    <trkpt lat="48.52754" lon="14.59231"><ele>901</ele><time>2022-09-10T10:32:00Z</time></trkpt>
    <trkpt lat="48.52720" lon="14.59264"><ele>909</ele><time>2022-09-10T10:32:18Z</time></trkpt>
    <trkpt lat="48.52681" lon="14.59297"><ele>916</ele><time>2022-09-10T10:32:37Z</time></trkpt>
    <trkpt lat="48.52646" lon="14.59334"><ele>921</ele><time>2022-09-10T10:32:56Z</time></trkpt>
    <trkpt lat="48.52609" lon="14.59376"><ele>919</ele><time>2022-09-10T10:33:14Z</time></trkpt>
    <trkpt lat="48.52572" lon="14.59412"><ele>921</ele><time>2022-09-10T10:33:32Z</time></trkpt>
    <trkpt lat="48.52525" lon="14.59441"><ele>921</ele><time>2022-09-10T10:33:51Z</time></trkpt>
    <trkpt lat="48.52484" lon="14.59420"><ele>916</ele><time>2022-09-10T10:34:09Z</time></trkpt>
    <trkpt lat="48.52452" lon="14.59407"><ele>916</ele><time>2022-09-10T10:34:28Z</time></trkpt>
    <trkpt lat="48.52431" lon="14.59370"><ele>926</ele><time>2022-09-10T10:34:47Z</time></trkpt>
    <trkpt lat="48.52391" lon="14.59334"><ele>928</ele><time>2022-09-10T10:35:06Z</time></trkpt>
    <trkpt lat="48.52348" lon="14.59340"><ele>934</ele><time>2022-09-10T10:35:24Z</time></trkpt>
    <trkpt lat="48.52317" lon="14.59358"><ele>933</ele><time>2022-09-10T10:35:43Z</time></trkpt>
    <trkpt lat="48.52291" lon="14.59376"><ele>941</ele><time>2022-09-10T10:36:02Z</time></trkpt>
    <trkpt lat="48.52265" lon="14.59366"><ele>942</ele><time>2022-09-10T10:36:21Z</time></trkpt>
    <trkpt lat="48.52248" lon="14.59360"><ele>952</ele><time>2022-09-10T10:36:39Z</time></trkpt>
    <trkpt lat="48.52224" lon="14.59352"><ele>953</ele><time>2022-09-10T10:36:58Z</time></trkpt>
    <trkpt lat="48.52203" lon="14.59345"><ele>954</ele><time>2022-09-10T10:37:17Z</time></trkpt>
    <trkpt lat="48.52187" lon="14.59324"><ele>955</ele><time>2022-09-10T10:37:36Z</time></trkpt>
    <trkpt lat="48.52156" lon="14.59304"><ele>957</ele><time>2022-09-10T10:37:54Z</time></trkpt>
    <trkpt lat="48.52147" lon="14.59312"><ele>955</ele><time>2022-09-10T10:38:13Z</time></trkpt>
    <trkpt lat="48.52142" lon="14.59281"><ele>955</ele><time>2022-09-10T10:39:04Z</time></trkpt>
    <trkpt lat="48.52139" lon="14.59300"><ele>949</ele><time>2022-09-10T10:41:17Z</time></trkpt>
    <trkpt lat="48.52124" lon="14.59283"><ele>949</ele><time>2022-09-10T10:41:36Z</time></trkpt>
    <trkpt lat="48.52114" lon="14.59265"><ele>947</ele><time>2022-09-10T10:42:26Z</time></trkpt>
    <trkpt lat="48.52110" lon="14.59247"><ele>955</ele><time>2022-09-10T10:43:09Z</time></trkpt>
    <trkpt lat="48.52118" lon="14.59269"><ele>958</ele><time>2022-09-10T10:46:00Z</time></trkpt>
    <trkpt lat="48.52104" lon="14.59294"><ele>943</ele><time>2022-09-10T10:50:08Z</time></trkpt>
    <trkpt lat="48.52087" lon="14.59323"><ele>940</ele><time>2022-09-10T10:50:27Z</time></trkpt>
    <trkpt lat="48.52075" lon="14.59322"><ele>937</ele><time>2022-09-10T10:50:45Z</time></trkpt>
    <trkpt lat="48.52068" lon="14.59340"><ele>912</ele><time>2022-09-10T10:51:03Z</time></trkpt>
    <trkpt lat="48.52059" lon="14.59339"><ele>889</ele><time>2022-09-10T10:51:26Z</time></trkpt>
    <trkpt lat="48.52025" lon="14.59391"><ele>922</ele><time>2022-09-10T10:51:45Z</time></trkpt>
    <trkpt lat="48.52025" lon="14.59470"><ele>915</ele><time>2022-09-10T10:52:04Z</time></trkpt>
    <trkpt lat="48.52011" lon="14.59522"><ele>915</ele><time>2022-09-10T10:52:23Z</time></trkpt>
    <trkpt lat="48.52011" lon="14.59565"><ele>839</ele><time>2022-09-10T10:52:42Z</time></trkpt>
    <trkpt lat="48.52018" lon="14.59617"><ele>890</ele><time>2022-09-10T10:53:00Z</time></trkpt>
    <trkpt lat="48.52015" lon="14.59701"><ele>924</ele><time>2022-09-10T10:53:19Z</time></trkpt>
    <trkpt lat="48.51991" lon="14.59761"><ele>927</ele><time>2022-09-10T10:53:37Z</time></trkpt>
    <trkpt lat="48.52023" lon="14.59845"><ele>918</ele><time>2022-09-10T10:53:55Z</time></trkpt>
    <trkpt lat="48.52088" lon="14.59893"><ele>907</ele><time>2022-09-10T10:54:14Z</time></trkpt>
    <trkpt lat="48.52059" lon="14.59947"><ele>893</ele><time>2022-09-10T10:54:32Z</time></trkpt>
    <trkpt lat="48.52050" lon="14.59948"><ele>891</ele><time>2022-09-10T10:54:50Z</time></trkpt>
    <trkpt lat="48.51980" lon="14.59946"><ele>886</ele><time>2022-09-10T10:55:08Z</time></trkpt>
    <trkpt lat="48.51957" lon="14.60118"><ele>877</ele><time>2022-09-10T10:55:27Z</time></trkpt>
    <trkpt lat="48.51926" lon="14.60232"><ele>869</ele><time>2022-09-10T10:55:46Z</time></trkpt>
    <trkpt lat="48.51896" lon="14.60299"><ele>868</ele><time>2022-09-10T10:56:05Z</time></trkpt>
    <trkpt lat="48.51888" lon="14.60312"><ele>862</ele><time>2022-09-10T10:56:24Z</time></trkpt>
    <trkpt lat="48.51903" lon="14.60338"><ele>857</ele><time>2022-09-10T10:56:42Z</time></trkpt>
    <trkpt lat="48.51980" lon="14.60351"><ele>865</ele><time>2022-09-10T10:57:01Z</time></trkpt>
    <trkpt lat="48.51990" lon="14.60350"><ele>849</ele><time>2022-09-10T10:57:22Z</time></trkpt>
    <trkpt lat="48.52043" lon="14.60359"><ele>843</ele><time>2022-09-10T10:57:40Z</time></trkpt>
    <trkpt lat="48.52111" lon="14.60403"><ele>839</ele><time>2022-09-10T10:57:58Z</time></trkpt>
    <trkpt lat="48.52146" lon="14.60473"><ele>839</ele><time>2022-09-10T10:58:17Z</time></trkpt>
    <trkpt lat="48.52134" lon="14.60515"><ele>818</ele><time>2022-09-10T10:58:36Z</time></trkpt>
    <trkpt lat="48.52154" lon="14.60561"><ele>817</ele><time>2022-09-10T10:58:54Z</time></trkpt>
    <trkpt lat="48.52186" lon="14.60607"><ele>820</ele><time>2022-09-10T10:59:13Z</time></trkpt>
    <trkpt lat="48.52208" lon="14.60657"><ele>810</ele><time>2022-09-10T10:59:31Z</time></trkpt>
    <trkpt lat="48.52225" lon="14.60699"><ele>809</ele><time>2022-09-10T10:59:50Z</time></trkpt>
    <trkpt lat="48.52237" lon="14.60731"><ele>817</ele><time>2022-09-10T11:00:08Z</time></trkpt>
    <trkpt lat="48.52228" lon="14.60793"><ele>818</ele><time>2022-09-10T11:02:27Z</time></trkpt>
    <trkpt lat="48.52228" lon="14.60846"><ele>824</ele><time>2022-09-10T11:02:45Z</time></trkpt>
    <trkpt lat="48.52261" lon="14.60871"><ele>829</ele><time>2022-09-10T11:03:04Z</time></trkpt>
    <trkpt lat="48.52296" lon="14.60863"><ele>841</ele><time>2022-09-10T11:03:22Z</time></trkpt>
    <trkpt lat="48.52332" lon="14.60862"><ele>838</ele><time>2022-09-10T11:03:41Z</time></trkpt>
    <trkpt lat="48.52364" lon="14.60866"><ele>838</ele><time>2022-09-10T11:03:59Z</time></trkpt>
    <trkpt lat="48.52392" lon="14.60874"><ele>841</ele><time>2022-09-10T11:04:18Z</time></trkpt>
    <trkpt lat="48.52415" lon="14.60892"><ele>846</ele><time>2022-09-10T11:04:37Z</time></trkpt>
    <trkpt lat="48.52434" lon="14.60908"><ele>847</ele><time>2022-09-10T11:04:55Z</time></trkpt>
    <trkpt lat="48.52419" lon="14.60947"><ele>851</ele><time>2022-09-10T11:05:14Z</time></trkpt>
    <trkpt lat="48.52393" lon="14.61010"><ele>851</ele><time>2022-09-10T11:05:32Z</time></trkpt>
    <trkpt lat="48.52368" lon="14.61076"><ele>853</ele><time>2022-09-10T11:05:51Z</time></trkpt>
    <trkpt lat="48.52377" lon="14.61154"><ele>856</ele><time>2022-09-10T11:06:09Z</time></trkpt>
    <trkpt lat="48.52365" lon="14.61253"><ele>867</ele><time>2022-09-10T11:06:27Z</time></trkpt>
    <trkpt lat="48.52377" lon="14.61333"><ele>857</ele><time>2022-09-10T11:06:46Z</time></trkpt>
    <trkpt lat="48.52374" lon="14.61430"><ele>823</ele><time>2022-09-10T11:07:05Z</time></trkpt>
    <trkpt lat="48.52402" lon="14.61515"><ele>857</ele><time>2022-09-10T11:07:23Z</time></trkpt>
    <trkpt lat="48.52430" lon="14.61578"><ele>862</ele><time>2022-09-10T11:07:42Z</time></trkpt>
    <trkpt lat="48.52453" lon="14.61629"><ele>866</ele><time>2022-09-10T11:08:00Z</time></trkpt>
    <trkpt lat="48.52478" lon="14.61686"><ele>863</ele><time>2022-09-10T11:08:19Z</time></trkpt>
    <trkpt lat="48.52533" lon="14.61736"><ele>858</ele><time>2022-09-10T11:08:38Z</time></trkpt>
    <trkpt lat="48.52531" lon="14.61790"><ele>859</ele><time>2022-09-10T11:08:57Z</time></trkpt>
    <trkpt lat="48.52455" lon="14.61851"><ele>843</ele><time>2022-09-10T11:09:15Z</time></trkpt>
    <trkpt lat="48.52442" lon="14.61944"><ele>851</ele><time>2022-09-10T11:09:34Z</time></trkpt>
    <trkpt lat="48.52396" lon="14.61918"><ele>856</ele><time>2022-09-10T11:09:53Z</time></trkpt>
    <trkpt lat="48.52354" lon="14.61892"><ele>862</ele><time>2022-09-10T11:10:11Z</time></trkpt>
    <trkpt lat="48.52310" lon="14.61861"><ele>865</ele><time>2022-09-10T11:10:30Z</time></trkpt>
    <trkpt lat="48.52266" lon="14.61835"><ele>861</ele><time>2022-09-10T11:10:49Z</time></trkpt>
    <trkpt lat="48.52281" lon="14.61877"><ele>856</ele><time>2022-09-10T11:11:08Z</time></trkpt>
    <trkpt lat="48.52320" lon="14.61919"><ele>855</ele><time>2022-09-10T11:11:26Z</time></trkpt>
    <trkpt lat="48.52337" lon="14.61963"><ele>858</ele><time>2022-09-10T11:11:45Z</time></trkpt>
    <trkpt lat="48.52352" lon="14.62003"><ele>859</ele><time>2022-09-10T11:12:03Z</time></trkpt>
    <trkpt lat="48.52361" lon="14.62045"><ele>861</ele><time>2022-09-10T11:12:21Z</time></trkpt>
    <trkpt lat="48.52353" lon="14.62081"><ele>875</ele><time>2022-09-10T11:12:39Z</time></trkpt>
    <trkpt lat="48.52347" lon="14.62112"><ele>874</ele><time>2022-09-10T11:12:58Z</time></trkpt>
    <trkpt lat="48.52337" lon="14.62139"><ele>876</ele><time>2022-09-10T11:13:17Z</time></trkpt>
    <trkpt lat="48.52325" lon="14.62166"><ele>881</ele><time>2022-09-10T11:13:35Z</time></trkpt>
    <trkpt lat="48.52310" lon="14.62186"><ele>877</ele><time>2022-09-10T11:13:54Z</time></trkpt>
    <trkpt lat="48.52303" lon="14.62216"><ele>883</ele><time>2022-09-10T11:14:13Z</time></trkpt>
    <trkpt lat="48.52282" lon="14.62249"><ele>884</ele><time>2022-09-10T11:14:31Z</time></trkpt>
    <trkpt lat="48.52261" lon="14.62270"><ele>895</ele><time>2022-09-10T11:14:49Z</time></trkpt>
    <trkpt lat="48.52242" lon="14.62285"><ele>892</ele><time>2022-09-10T11:15:08Z</time></trkpt>
    <trkpt lat="48.52220" lon="14.62295"><ele>892</ele><time>2022-09-10T11:15:26Z</time></trkpt>
    <trkpt lat="48.52198" lon="14.62301"><ele>894</ele><time>2022-09-10T11:15:45Z</time></trkpt>
    <trkpt lat="48.52185" lon="14.62294"><ele>912</ele><time>2022-09-10T11:16:03Z</time></trkpt>
    <trkpt lat="48.52172" lon="14.62264"><ele>902</ele><time>2022-09-10T11:16:22Z</time></trkpt>
    <trkpt lat="48.52153" lon="14.62248"><ele>917</ele><time>2022-09-10T11:16:41Z</time></trkpt>
    <trkpt lat="48.52138" lon="14.62228"><ele>920</ele><time>2022-09-10T11:16:59Z</time></trkpt>
    <trkpt lat="48.52124" lon="14.62207"><ele>928</ele><time>2022-09-10T11:17:18Z</time></trkpt>
    <trkpt lat="48.52106" lon="14.62206"><ele>928</ele><time>2022-09-10T11:17:36Z</time></trkpt>
    <trkpt lat="48.52086" lon="14.62214"><ele>930</ele><time>2022-09-10T11:17:54Z</time></trkpt>
    <trkpt lat="48.52065" lon="14.62219"><ele>910</ele><time>2022-09-10T11:18:13Z</time></trkpt>
    <trkpt lat="48.52041" lon="14.62224"><ele>934</ele><time>2022-09-10T11:18:32Z</time></trkpt>
    <trkpt lat="48.52019" lon="14.62228"><ele>936</ele><time>2022-09-10T11:18:50Z</time></trkpt>
    <trkpt lat="48.51996" lon="14.62235"><ele>945</ele><time>2022-09-10T11:19:08Z</time></trkpt>
    <trkpt lat="48.51972" lon="14.62247"><ele>944</ele><time>2022-09-10T11:19:27Z</time></trkpt>
    <trkpt lat="48.51945" lon="14.62257"><ele>944</ele><time>2022-09-10T11:19:46Z</time></trkpt>
    <trkpt lat="48.51919" lon="14.62277"><ele>942</ele><time>2022-09-10T11:20:04Z</time></trkpt>
    <trkpt lat="48.51894" lon="14.62301"><ele>944</ele><time>2022-09-10T11:20:23Z</time></trkpt>
    <trkpt lat="48.51872" lon="14.62319"><ele>936</ele><time>2022-09-10T11:20:41Z</time></trkpt>
    <trkpt lat="48.51846" lon="14.62343"><ele>949</ele><time>2022-09-10T11:21:00Z</time></trkpt>
    <trkpt lat="48.51825" lon="14.62370"><ele>951</ele><time>2022-09-10T11:21:19Z</time></trkpt>
    <trkpt lat="48.51807" lon="14.62397"><ele>953</ele><time>2022-09-10T11:21:38Z</time></trkpt>
    <trkpt lat="48.51775" lon="14.62429"><ele>958</ele><time>2022-09-10T11:21:56Z</time></trkpt>
    <trkpt lat="48.51740" lon="14.62451"><ele>945</ele><time>2022-09-10T11:22:14Z</time></trkpt>
    <trkpt lat="48.51703" lon="14.62472"><ele>958</ele><time>2022-09-10T11:22:33Z</time></trkpt>
    <trkpt lat="48.51671" lon="14.62484"><ele>963</ele><time>2022-09-10T11:22:52Z</time></trkpt>
    <trkpt lat="48.51665" lon="14.62539"><ele>961</ele><time>2022-09-10T11:23:10Z</time></trkpt>
    <trkpt lat="48.51642" lon="14.62613"><ele>959</ele><time>2022-09-10T11:23:29Z</time></trkpt>
    <trkpt lat="48.51559" lon="14.62699"><ele>949</ele><time>2022-09-10T11:23:48Z</time></trkpt>
    <trkpt lat="48.51521" lon="14.62727"><ele>947</ele><time>2022-09-10T11:24:06Z</time></trkpt>
    <trkpt lat="48.51523" lon="14.62771"><ele>932</ele><time>2022-09-10T11:24:25Z</time></trkpt>
    <trkpt lat="48.51514" lon="14.62844"><ele>946</ele><time>2022-09-10T11:24:43Z</time></trkpt>
    <trkpt lat="48.51486" lon="14.62996"><ele>947</ele><time>2022-09-10T11:25:02Z</time></trkpt>
    <trkpt lat="48.51477" lon="14.63117"><ele>946</ele><time>2022-09-10T11:25:21Z</time></trkpt>
    <trkpt lat="48.51457" lon="14.63211"><ele>937</ele><time>2022-09-10T11:25:39Z</time></trkpt>
    <trkpt lat="48.51435" lon="14.63293"><ele>923</ele><time>2022-09-10T11:25:58Z</time></trkpt>
    <trkpt lat="48.51397" lon="14.63325"><ele>920</ele><time>2022-09-10T11:26:17Z</time></trkpt>
    <trkpt lat="48.51387" lon="14.63343"><ele>920</ele><time>2022-09-10T11:26:35Z</time></trkpt>
    <trkpt lat="48.51382" lon="14.63355"><ele>916</ele><time>2022-09-10T11:27:10Z</time></trkpt>
    <trkpt lat="48.51415" lon="14.63423"><ele>907</ele><time>2022-09-10T11:27:29Z</time></trkpt>
    <trkpt lat="48.51416" lon="14.63456"><ele>907</ele><time>2022-09-10T11:27:47Z</time></trkpt>
    <trkpt lat="48.51394" lon="14.63426"><ele>935</ele><time>2022-09-10T11:28:42Z</time></trkpt>
    <trkpt lat="48.51360" lon="14.63427"><ele>915</ele><time>2022-09-10T11:29:01Z</time></trkpt>
    <trkpt lat="48.51336" lon="14.63445"><ele>914</ele><time>2022-09-10T11:29:20Z</time></trkpt>
    <trkpt lat="48.51323" lon="14.63437"><ele>917</ele><time>2022-09-10T11:29:38Z</time></trkpt>
    <trkpt lat="48.51338" lon="14.63401"><ele>907</ele><time>2022-09-10T11:29:57Z</time></trkpt>
    <trkpt lat="48.51351" lon="14.63362"><ele>915</ele><time>2022-09-10T11:30:16Z</time></trkpt>
    <trkpt lat="48.51299" lon="14.63472"><ele>912</ele><time>2022-09-10T11:31:21Z</time></trkpt>
    <trkpt lat="48.51254" lon="14.63601"><ele>934</ele><time>2022-09-10T11:31:40Z</time></trkpt>
    <trkpt lat="48.51254" lon="14.63698"><ele>908</ele><time>2022-09-10T11:31:59Z</time></trkpt>
    <trkpt lat="48.51228" lon="14.63709"><ele>908</ele><time>2022-09-10T11:32:18Z</time></trkpt>
    <trkpt lat="48.51195" lon="14.63694"><ele>911</ele><time>2022-09-10T11:32:37Z</time></trkpt>
    <trkpt lat="48.51169" lon="14.63693"><ele>928</ele><time>2022-09-10T11:32:56Z</time></trkpt>
    <trkpt lat="48.51182" lon="14.63830"><ele>910</ele><time>2022-09-10T11:33:14Z</time></trkpt>
    <trkpt lat="48.51208" lon="14.64020"><ele>896</ele><time>2022-09-10T11:33:33Z</time></trkpt>
    <trkpt lat="48.51191" lon="14.64188"><ele>863</ele><time>2022-09-10T11:33:51Z</time></trkpt>
    <trkpt lat="48.51172" lon="14.64229"><ele>877</ele><time>2022-09-10T11:34:10Z</time></trkpt>
    <trkpt lat="48.51163" lon="14.64267"><ele>883</ele><time>2022-09-10T11:34:28Z</time></trkpt>
    <trkpt lat="48.51178" lon="14.64228"><ele>880</ele><time>2022-09-10T11:35:19Z</time></trkpt>
    <trkpt lat="48.51220" lon="14.64272"><ele>876</ele><time>2022-09-10T11:35:38Z</time></trkpt>
    <trkpt lat="48.51296" lon="14.64308"><ele>870</ele><time>2022-09-10T11:35:57Z</time></trkpt>
    <trkpt lat="48.51316" lon="14.64398"><ele>886</ele><time>2022-09-10T11:36:15Z</time></trkpt>
    <trkpt lat="48.51296" lon="14.64455"><ele>870</ele><time>2022-09-10T11:36:33Z</time></trkpt>
    <trkpt lat="48.51294" lon="14.64508"><ele>870</ele><time>2022-09-10T11:36:52Z</time></trkpt>
    <trkpt lat="48.51299" lon="14.64552"><ele>873</ele><time>2022-09-10T11:37:10Z</time></trkpt>
    <trkpt lat="48.51298" lon="14.64601"><ele>871</ele><time>2022-09-10T11:37:29Z</time></trkpt>
    <trkpt lat="48.51287" lon="14.64656"><ele>870</ele><time>2022-09-10T11:37:47Z</time></trkpt>
    <trkpt lat="48.51298" lon="14.64702"><ele>870</ele><time>2022-09-10T11:38:05Z</time></trkpt>
    <trkpt lat="48.51310" lon="14.64740"><ele>869</ele><time>2022-09-10T11:38:23Z</time></trkpt>
    <trkpt lat="48.51333" lon="14.64775"><ele>876</ele><time>2022-09-10T11:38:42Z</time></trkpt>
    <trkpt lat="48.51355" lon="14.64803"><ele>874</ele><time>2022-09-10T11:39:00Z</time></trkpt>
    <trkpt lat="48.51352" lon="14.64843"><ele>889</ele><time>2022-09-10T11:39:18Z</time></trkpt>
    <trkpt lat="48.51314" lon="14.64885"><ele>881</ele><time>2022-09-10T11:39:36Z</time></trkpt>
    <trkpt lat="48.51267" lon="14.64988"><ele>878</ele><time>2022-09-10T11:39:55Z</time></trkpt>
    <trkpt lat="48.51148" lon="14.65099"><ele>872</ele><time>2022-09-10T11:40:14Z</time></trkpt>
    <trkpt lat="48.51080" lon="14.65149"><ele>867</ele><time>2022-09-10T11:40:32Z</time></trkpt>
    <trkpt lat="48.51071" lon="14.65173"><ele>861</ele><time>2022-09-10T11:40:51Z</time></trkpt>
    <trkpt lat="48.51053" lon="14.65225"><ele>868</ele><time>2022-09-10T11:41:10Z</time></trkpt>
    <trkpt lat="48.51028" lon="14.65284"><ele>871</ele><time>2022-09-10T11:41:28Z</time></trkpt>
    <trkpt lat="48.51012" lon="14.65338"><ele>872</ele><time>2022-09-10T11:41:47Z</time></trkpt>
    <trkpt lat="48.50997" lon="14.65410"><ele>873</ele><time>2022-09-10T11:42:05Z</time></trkpt>
    <trkpt lat="48.50963" lon="14.65502"><ele>894</ele><time>2022-09-10T11:42:24Z</time></trkpt>
    <trkpt lat="48.50900" lon="14.65532"><ele>869</ele><time>2022-09-10T11:42:42Z</time></trkpt>
    <trkpt lat="48.50823" lon="14.65531"><ele>868</ele><time>2022-09-10T11:43:00Z</time></trkpt>
    <trkpt lat="48.50721" lon="14.65509"><ele>871</ele><time>2022-09-10T11:43:18Z</time></trkpt>
    <trkpt lat="48.50630" lon="14.65460"><ele>867</ele><time>2022-09-10T11:43:37Z</time></trkpt>
    <trkpt lat="48.50563" lon="14.65415"><ele>868</ele><time>2022-09-10T11:43:56Z</time></trkpt>
    <trkpt lat="48.50512" lon="14.65366"><ele>869</ele><time>2022-09-10T11:44:15Z</time></trkpt>
    <trkpt lat="48.50524" lon="14.65383"><ele>856</ele><time>2022-09-10T11:44:34Z</time></trkpt>
    <trkpt lat="48.50478" lon="14.65439"><ele>856</ele><time>2022-09-10T11:44:53Z</time></trkpt>
    <trkpt lat="48.50422" lon="14.65473"><ele>852</ele><time>2022-09-10T11:45:12Z</time></trkpt>
    <trkpt lat="48.50378" lon="14.65498"><ele>847</ele><time>2022-09-10T11:45:30Z</time></trkpt>
    <trkpt lat="48.50369" lon="14.65500"><ele>866</ele><time>2022-09-10T11:46:20Z</time></trkpt>
    <trkpt lat="48.50309" lon="14.65534"><ele>865</ele><time>2022-09-10T11:46:39Z</time></trkpt>
    <trkpt lat="48.50232" lon="14.65526"><ele>861</ele><time>2022-09-10T11:46:58Z</time></trkpt>
    <trkpt lat="48.50190" lon="14.65518"><ele>861</ele><time>2022-09-10T11:47:16Z</time></trkpt>
    <trkpt lat="48.50098" lon="14.65584"><ele>856</ele><time>2022-09-10T11:48:18Z</time></trkpt>
    <trkpt lat="48.50091" lon="14.65567"><ele>855</ele><time>2022-09-10T11:48:33Z</time></trkpt>
    <trkpt lat="48.50057" lon="14.65607"><ele>855</ele><time>2022-09-10T11:48:56Z</time></trkpt>
    <trkpt lat="48.49984" lon="14.65691"><ele>854</ele><time>2022-09-10T11:49:14Z</time></trkpt>
    <trkpt lat="48.49915" lon="14.65747"><ele>855</ele><time>2022-09-10T11:49:33Z</time></trkpt>
    <trkpt lat="48.49869" lon="14.65814"><ele>856</ele><time>2022-09-10T11:49:51Z</time></trkpt>
    <trkpt lat="48.49806" lon="14.65866"><ele>856</ele><time>2022-09-10T11:50:09Z</time></trkpt>
    <trkpt lat="48.49714" lon="14.65909"><ele>854</ele><time>2022-09-10T11:50:28Z</time></trkpt>
    <trkpt lat="48.49675" lon="14.65913"><ele>855</ele><time>2022-09-10T11:50:46Z</time></trkpt>
    <trkpt lat="48.49612" lon="14.65836"><ele>856</ele><time>2022-09-10T11:51:05Z</time></trkpt>
    <trkpt lat="48.49557" lon="14.65780"><ele>854</ele><time>2022-09-10T11:51:23Z</time></trkpt>
    <trkpt lat="48.49489" lon="14.65722"><ele>858</ele><time>2022-09-10T11:51:42Z</time></trkpt>
    <trkpt lat="48.49454" lon="14.65654"><ele>861</ele><time>2022-09-10T11:52:00Z</time></trkpt>
    <trkpt lat="48.49422" lon="14.65506"><ele>862</ele><time>2022-09-10T11:52:18Z</time></trkpt>
    <trkpt lat="48.49392" lon="14.65401"><ele>861</ele><time>2022-09-10T11:52:36Z</time></trkpt>
    <trkpt lat="48.49379" lon="14.65315"><ele>871</ele><time>2022-09-10T11:52:54Z</time></trkpt>
    <trkpt lat="48.49369" lon="14.65228"><ele>861</ele><time>2022-09-10T11:53:13Z</time></trkpt>
    <trkpt lat="48.49372" lon="14.65200"><ele>862</ele><time>2022-09-10T11:53:31Z</time></trkpt>
    <trkpt lat="48.49355" lon="14.65007"><ele>849</ele><time>2022-09-10T11:53:49Z</time></trkpt>
    <trkpt lat="48.49362" lon="14.64897"><ele>850</ele><time>2022-09-10T11:54:07Z</time></trkpt>
    <trkpt lat="48.49369" lon="14.64839"><ele>851</ele><time>2022-09-10T11:54:26Z</time></trkpt>
    <trkpt lat="48.49352" lon="14.64792"><ele>863</ele><time>2022-09-10T11:54:44Z</time></trkpt>
    <trkpt lat="48.49340" lon="14.64734"><ele>851</ele><time>2022-09-10T11:55:03Z</time></trkpt>
    <trkpt lat="48.49327" lon="14.64680"><ele>855</ele><time>2022-09-10T11:55:21Z</time></trkpt>
    <trkpt lat="48.49332" lon="14.64637"><ele>860</ele><time>2022-09-10T11:55:39Z</time></trkpt>
    <trkpt lat="48.49343" lon="14.64591"><ele>854</ele><time>2022-09-10T11:55:58Z</time></trkpt>
    <trkpt lat="48.49345" lon="14.64543"><ele>856</ele><time>2022-09-10T11:56:17Z</time></trkpt>
    <trkpt lat="48.49341" lon="14.64508"><ele>908</ele><time>2022-09-10T11:56:36Z</time></trkpt>
    <trkpt lat="48.49339" lon="14.64474"><ele>858</ele><time>2022-09-10T11:56:54Z</time></trkpt>
    <trkpt lat="48.49320" lon="14.64430"><ele>867</ele><time>2022-09-10T11:57:13Z</time></trkpt>
    <trkpt lat="48.49291" lon="14.64367"><ele>872</ele><time>2022-09-10T11:57:31Z</time></trkpt>
    <trkpt lat="48.49242" lon="14.64304"><ele>880</ele><time>2022-09-10T11:57:50Z</time></trkpt>
    <trkpt lat="48.49208" lon="14.64227"><ele>873</ele><time>2022-09-10T11:58:09Z</time></trkpt>
    <trkpt lat="48.49182" lon="14.64169"><ele>877</ele><time>2022-09-10T11:58:27Z</time></trkpt>
    <trkpt lat="48.49149" lon="14.64110"><ele>879</ele><time>2022-09-10T11:58:46Z</time></trkpt>
    <trkpt lat="48.49115" lon="14.64059"><ele>876</ele><time>2022-09-10T11:59:04Z</time></trkpt>
    <trkpt lat="48.49053" lon="14.64024"><ele>881</ele><time>2022-09-10T11:59:23Z</time></trkpt>
    <trkpt lat="48.48987" lon="14.63961"><ele>888</ele><time>2022-09-10T11:59:42Z</time></trkpt>
    <trkpt lat="48.48944" lon="14.63894"><ele>880</ele><time>2022-09-10T12:00:00Z</time></trkpt>
    <trkpt lat="48.48958" lon="14.63781"><ele>880</ele><time>2022-09-10T12:00:19Z</time></trkpt>
    <trkpt lat="48.48925" lon="14.63670"><ele>877</ele><time>2022-09-10T12:00:37Z</time></trkpt>
    <trkpt lat="48.48888" lon="14.63522"><ele>909</ele><time>2022-09-10T12:00:56Z</time></trkpt>
    <trkpt lat="48.48842" lon="14.63380"><ele>914</ele><time>2022-09-10T12:01:15Z</time></trkpt>
    <trkpt lat="48.48794" lon="14.63262"><ele>868</ele><time>2022-09-10T12:01:34Z</time></trkpt>
    <trkpt lat="48.48758" lon="14.63183"><ele>874</ele><time>2022-09-10T12:01:53Z</time></trkpt>
    <trkpt lat="48.48716" lon="14.63140"><ele>876</ele><time>2022-09-10T12:02:12Z</time></trkpt>
    <trkpt lat="48.48682" lon="14.63095"><ele>883</ele><time>2022-09-10T12:02:30Z</time></trkpt>
    <trkpt lat="48.48634" lon="14.63064"><ele>882</ele><time>2022-09-10T12:02:49Z</time></trkpt>
    <trkpt lat="48.48585" lon="14.63035"><ele>886</ele><time>2022-09-10T12:03:07Z</time></trkpt>
    <trkpt lat="48.48530" lon="14.63002"><ele>881</ele><time>2022-09-10T12:03:26Z</time></trkpt>
    <trkpt lat="48.48498" lon="14.62925"><ele>847</ele><time>2022-09-10T12:03:44Z</time></trkpt>
    <trkpt lat="48.48473" lon="14.62878"><ele>905</ele><time>2022-09-10T12:04:02Z</time></trkpt>
    <trkpt lat="48.48428" lon="14.62876"><ele>895</ele><time>2022-09-10T12:04:21Z</time></trkpt>
    <trkpt lat="48.48380" lon="14.62836"><ele>900</ele><time>2022-09-10T12:04:40Z</time></trkpt>
    <trkpt lat="48.48325" lon="14.62651"><ele>890</ele><time>2022-09-10T12:04:58Z</time></trkpt>
    <trkpt lat="48.48301" lon="14.62484"><ele>889</ele><time>2022-09-10T12:05:17Z</time></trkpt>
    <trkpt lat="48.48304" lon="14.62228"><ele>874</ele><time>2022-09-10T12:05:36Z</time></trkpt>
    <trkpt lat="48.48301" lon="14.61923"><ele>859</ele><time>2022-09-10T12:05:54Z</time></trkpt>
    <trkpt lat="48.48236" lon="14.61787"><ele>849</ele><time>2022-09-10T12:06:12Z</time></trkpt>
    <trkpt lat="48.48228" lon="14.61711"><ele>821</ele><time>2022-09-10T12:06:31Z</time></trkpt>
    <trkpt lat="48.48223" lon="14.61680"><ele>850</ele><time>2022-09-10T12:06:50Z</time></trkpt>
    <trkpt lat="48.48221" lon="14.61644"><ele>854</ele><time>2022-09-10T12:07:09Z</time></trkpt>
    <trkpt lat="48.48214" lon="14.61591"><ele>862</ele><time>2022-09-10T12:07:28Z</time></trkpt>
    <trkpt lat="48.48209" lon="14.61546"><ele>859</ele><time>2022-09-10T12:07:46Z</time></trkpt>
    <trkpt lat="48.48209" lon="14.61497"><ele>861</ele><time>2022-09-10T12:08:05Z</time></trkpt>
    <trkpt lat="48.48214" lon="14.61445"><ele>864</ele><time>2022-09-10T12:08:24Z</time></trkpt>
    <trkpt lat="48.48212" lon="14.61364"><ele>852</ele><time>2022-09-10T12:08:42Z</time></trkpt>
    <trkpt lat="48.48189" lon="14.61254"><ele>864</ele><time>2022-09-10T12:09:01Z</time></trkpt>
    <trkpt lat="48.48180" lon="14.61124"><ele>857</ele><time>2022-09-10T12:09:19Z</time></trkpt>
    <trkpt lat="48.48162" lon="14.60987"><ele>842</ele><time>2022-09-10T12:09:38Z</time></trkpt>
    <trkpt lat="48.48120" lon="14.60827"><ele>842</ele><time>2022-09-10T12:09:56Z</time></trkpt>
    <trkpt lat="48.48089" lon="14.60683"><ele>842</ele><time>2022-09-10T12:10:14Z</time></trkpt>
    <trkpt lat="48.48085" lon="14.60550"><ele>839</ele><time>2022-09-10T12:10:32Z</time></trkpt>
    <trkpt lat="48.48065" lon="14.60327"><ele>824</ele><time>2022-09-10T12:10:51Z</time></trkpt>
    <trkpt lat="48.47965" lon="14.60122"><ele>817</ele><time>2022-09-10T12:11:10Z</time></trkpt>
    <trkpt lat="48.47902" lon="14.60089"><ele>820</ele><time>2022-09-10T12:11:28Z</time></trkpt>
    <trkpt lat="48.47868" lon="14.60042"><ele>825</ele><time>2022-09-10T12:11:47Z</time></trkpt>
    <trkpt lat="48.47892" lon="14.59990"><ele>821</ele><time>2022-09-10T12:12:06Z</time></trkpt>
    <trkpt lat="48.47909" lon="14.59954"><ele>823</ele><time>2022-09-10T12:12:24Z</time></trkpt>
    <trkpt lat="48.47928" lon="14.59908"><ele>827</ele><time>2022-09-10T12:12:43Z</time></trkpt>
    <trkpt lat="48.47945" lon="14.59863"><ele>832</ele><time>2022-09-10T12:13:01Z</time></trkpt>
    <trkpt lat="48.47951" lon="14.59813"><ele>839</ele><time>2022-09-10T12:13:20Z</time></trkpt>
    <trkpt lat="48.47943" lon="14.59764"><ele>843</ele><time>2022-09-10T12:13:39Z</time></trkpt>
    <trkpt lat="48.47923" lon="14.59724"><ele>843</ele><time>2022-09-10T12:13:57Z</time></trkpt>
    <trkpt lat="48.47894" lon="14.59689"><ele>846</ele><time>2022-09-10T12:14:16Z</time></trkpt>
    <trkpt lat="48.47866" lon="14.59657"><ele>863</ele><time>2022-09-10T12:14:34Z</time></trkpt>
    <trkpt lat="48.47841" lon="14.59619"><ele>852</ele><time>2022-09-10T12:14:53Z</time></trkpt>
    <trkpt lat="48.47824" lon="14.59582"><ele>858</ele><time>2022-09-10T12:15:11Z</time></trkpt>
    <trkpt lat="48.47797" lon="14.59547"><ele>834</ele><time>2022-09-10T12:15:29Z</time></trkpt>
    <trkpt lat="48.47729" lon="14.59560"><ele>850</ele><time>2022-09-10T12:15:48Z</time></trkpt>
    <trkpt lat="48.47652" lon="14.59691"><ele>852</ele><time>2022-09-10T12:16:07Z</time></trkpt>
    <trkpt lat="48.47572" lon="14.59757"><ele>842</ele><time>2022-09-10T12:16:25Z</time></trkpt>
    <trkpt lat="48.47484" lon="14.59759"><ele>841</ele><time>2022-09-10T12:17:03Z</time></trkpt>
    <trkpt lat="48.47385" lon="14.59753"><ele>836</ele><time>2022-09-10T12:17:22Z</time></trkpt>
    <trkpt lat="48.47278" lon="14.59738"><ele>823</ele><time>2022-09-10T12:17:41Z</time></trkpt>
    <trkpt lat="48.47171" lon="14.59869"><ele>815</ele><time>2022-09-10T12:18:00Z</time></trkpt>
    <trkpt lat="48.47073" lon="14.59951"><ele>809</ele><time>2022-09-10T12:18:19Z</time></trkpt>
    <trkpt lat="48.46936" lon="14.59904"><ele>791</ele><time>2022-09-10T12:18:38Z</time></trkpt>
    <trkpt lat="48.46886" lon="14.59733"><ele>775</ele><time>2022-09-10T12:18:57Z</time></trkpt>
    <trkpt lat="48.46881" lon="14.59817"><ele>776</ele><time>2022-09-10T12:19:16Z</time></trkpt>
    <trkpt lat="48.46873" lon="14.59911"><ele>774</ele><time>2022-09-10T12:19:34Z</time></trkpt>
    <trkpt lat="48.46855" lon="14.59997"><ele>773</ele><time>2022-09-10T12:19:52Z</time></trkpt>
    <trkpt lat="48.46786" lon="14.60104"><ele>769</ele><time>2022-09-10T12:20:11Z</time></trkpt>
    <trkpt lat="48.46724" lon="14.60209"><ele>779</ele><time>2022-09-10T12:20:30Z</time></trkpt>
    <trkpt lat="48.46648" lon="14.60306"><ele>776</ele><time>2022-09-10T12:20:48Z</time></trkpt>
    <trkpt lat="48.46607" lon="14.60537"><ele>751</ele><time>2022-09-10T12:21:07Z</time></trkpt>
    <trkpt lat="48.46583" lon="14.60534"><ele>745</ele><time>2022-09-10T12:21:26Z</time></trkpt>
    <trkpt lat="48.46559" lon="14.60573"><ele>739</ele><time>2022-09-10T12:21:45Z</time></trkpt>
    <trkpt lat="48.46523" lon="14.60721"><ele>723</ele><time>2022-09-10T12:22:03Z</time></trkpt>
    <trkpt lat="48.46521" lon="14.60739"><ele>720</ele><time>2022-09-10T12:22:22Z</time></trkpt>
    <trkpt lat="48.46520" lon="14.60754"><ele>719</ele><time>2022-09-10T12:23:29Z</time></trkpt>
    <trkpt lat="48.46471" lon="14.60786"><ele>732</ele><time>2022-09-10T12:23:48Z</time></trkpt>
    <trkpt lat="48.46383" lon="14.60811"><ele>708</ele><time>2022-09-10T12:24:06Z</time></trkpt>
    <trkpt lat="48.46337" lon="14.60867"><ele>710</ele><time>2022-09-10T12:24:24Z</time></trkpt>
    <trkpt lat="48.46323" lon="14.60874"><ele>710</ele><time>2022-09-10T12:24:43Z</time></trkpt>
    <trkpt lat="48.46270" lon="14.60892"><ele>714</ele><time>2022-09-10T12:26:13Z</time></trkpt>
    <trkpt lat="48.46246" lon="14.60904"><ele>705</ele><time>2022-09-10T12:26:32Z</time></trkpt>
    <trkpt lat="48.46187" lon="14.60879"><ele>696</ele><time>2022-09-10T12:26:50Z</time></trkpt>
    <trkpt lat="48.46092" lon="14.60889"><ele>695</ele><time>2022-09-10T12:27:09Z</time></trkpt>
    <trkpt lat="48.45987" lon="14.60863"><ele>692</ele><time>2022-09-10T12:27:28Z</time></trkpt>
    <trkpt lat="48.45919" lon="14.60932"><ele>691</ele><time>2022-09-10T12:27:47Z</time></trkpt>
    <trkpt lat="48.45892" lon="14.60971"><ele>693</ele><time>2022-09-10T12:28:05Z</time></trkpt>
    <trkpt lat="48.45845" lon="14.60959"><ele>687</ele><time>2022-09-10T12:28:24Z</time></trkpt>
    <trkpt lat="48.45800" lon="14.60945"><ele>692</ele><time>2022-09-10T12:28:42Z</time></trkpt>
    <trkpt lat="48.45750" lon="14.60938"><ele>687</ele><time>2022-09-10T12:29:00Z</time></trkpt>
    <trkpt lat="48.45707" lon="14.60941"><ele>681</ele><time>2022-09-10T12:29:18Z</time></trkpt>
    <trkpt lat="48.45662" lon="14.60960"><ele>703</ele><time>2022-09-10T12:29:37Z</time></trkpt>
    <trkpt lat="48.45616" lon="14.60993"><ele>690</ele><time>2022-09-10T12:29:56Z</time></trkpt>
    <trkpt lat="48.45570" lon="14.61006"><ele>695</ele><time>2022-09-10T12:30:15Z</time></trkpt>
    <trkpt lat="48.45531" lon="14.61026"><ele>695</ele><time>2022-09-10T12:30:34Z</time></trkpt>
    <trkpt lat="48.45503" lon="14.61067"><ele>698</ele><time>2022-09-10T12:30:52Z</time></trkpt>
    <trkpt lat="48.45481" lon="14.61120"><ele>703</ele><time>2022-09-10T12:31:11Z</time></trkpt>
    <trkpt lat="48.45449" lon="14.61167"><ele>706</ele><time>2022-09-10T12:31:30Z</time></trkpt>
    <trkpt lat="48.45374" lon="14.61225"><ele>701</ele><time>2022-09-10T12:31:49Z</time></trkpt>
    <trkpt lat="48.45245" lon="14.61216"><ele>684</ele><time>2022-09-10T12:32:07Z</time></trkpt>
    <trkpt lat="48.45182" lon="14.61282"><ele>692</ele><time>2022-09-10T12:32:26Z</time></trkpt>
    <trkpt lat="48.45145" lon="14.61299"><ele>693</ele><time>2022-09-10T12:32:45Z</time></trkpt>
    <trkpt lat="48.45111" lon="14.61312"><ele>700</ele><time>2022-09-10T12:33:03Z</time></trkpt>
    <trkpt lat="48.45076" lon="14.61330"><ele>699</ele><time>2022-09-10T12:33:22Z</time></trkpt>
    <trkpt lat="48.45041" lon="14.61349"><ele>705</ele><time>2022-09-10T12:33:41Z</time></trkpt>
    <trkpt lat="48.45006" lon="14.61370"><ele>710</ele><time>2022-09-10T12:34:00Z</time></trkpt>
    <trkpt lat="48.44972" lon="14.61392"><ele>715</ele><time>2022-09-10T12:34:19Z</time></trkpt>
    <trkpt lat="48.44934" lon="14.61416"><ele>712</ele><time>2022-09-10T12:34:38Z</time></trkpt>
    <trkpt lat="48.44887" lon="14.61445"><ele>714</ele><time>2022-09-10T12:34:57Z</time></trkpt>
    <trkpt lat="48.44830" lon="14.61422"><ele>714</ele><time>2022-09-10T12:35:16Z</time></trkpt>
    <trkpt lat="48.44759" lon="14.61373"><ele>713</ele><time>2022-09-10T12:35:34Z</time></trkpt>
    <trkpt lat="48.44693" lon="14.61366"><ele>713</ele><time>2022-09-10T12:35:52Z</time></trkpt>
    <trkpt lat="48.44643" lon="14.61373"><ele>715</ele><time>2022-09-10T12:36:11Z</time></trkpt>
    <trkpt lat="48.44603" lon="14.61361"><ele>717</ele><time>2022-09-10T12:36:29Z</time></trkpt>
    <trkpt lat="48.44571" lon="14.61330"><ele>722</ele><time>2022-09-10T12:36:47Z</time></trkpt>
    <trkpt lat="48.44547" lon="14.61289"><ele>727</ele><time>2022-09-10T12:37:06Z</time></trkpt>
    <trkpt lat="48.44523" lon="14.61248"><ele>731</ele><time>2022-09-10T12:37:25Z</time></trkpt>
    <trkpt lat="48.44495" lon="14.61218"><ele>734</ele><time>2022-09-10T12:37:43Z</time></trkpt>
    <trkpt lat="48.44460" lon="14.61195"><ele>735</ele><time>2022-09-10T12:38:02Z</time></trkpt>
    <trkpt lat="48.44424" lon="14.61164"><ele>737</ele><time>2022-09-10T12:38:20Z</time></trkpt>
    <trkpt lat="48.44373" lon="14.61107"><ele>736</ele><time>2022-09-10T12:38:39Z</time></trkpt>
    <trkpt lat="48.44274" lon="14.61062"><ele>732</ele><time>2022-09-10T12:38:58Z</time></trkpt>
    <trkpt lat="48.44287" lon="14.61034"><ele>734</ele><time>2022-09-10T12:39:16Z</time></trkpt>
    <trkpt lat="48.44284" lon="14.60982"><ele>740</ele><time>2022-09-10T12:39:35Z</time></trkpt>
    <trkpt lat="48.44294" lon="14.60941"><ele>745</ele><time>2022-09-10T12:39:54Z</time></trkpt>
    <trkpt lat="48.44306" lon="14.60903"><ele>746</ele><time>2022-09-10T12:40:12Z</time></trkpt>
    <trkpt lat="48.44311" lon="14.60870"><ele>749</ele><time>2022-09-10T12:40:30Z</time></trkpt>
    <trkpt lat="48.44307" lon="14.60831"><ele>752</ele><time>2022-09-10T12:40:49Z</time></trkpt>
    <trkpt lat="48.44300" lon="14.60792"><ele>754</ele><time>2022-09-10T12:41:07Z</time></trkpt>
    <trkpt lat="48.44297" lon="14.60748"><ele>756</ele><time>2022-09-10T12:41:26Z</time></trkpt>
    <trkpt lat="48.44294" lon="14.60705"><ele>761</ele><time>2022-09-10T12:41:45Z</time></trkpt>
    <trkpt lat="48.44271" lon="14.60655"><ele>760</ele><time>2022-09-10T12:42:04Z</time></trkpt>
    <trkpt lat="48.44240" lon="14.60649"><ele>762</ele><time>2022-09-10T12:42:23Z</time></trkpt>
    <trkpt lat="48.44167" lon="14.60573"><ele>784</ele><time>2022-09-10T12:44:57Z</time></trkpt>
    <trkpt lat="48.44088" lon="14.60479"><ele>740</ele><time>2022-09-10T12:45:16Z</time></trkpt>
    <trkpt lat="48.44071" lon="14.60431"><ele>741</ele><time>2022-09-10T12:45:34Z</time></trkpt>
    <trkpt lat="48.44026" lon="14.60334"><ele>735</ele><time>2022-09-10T12:45:52Z</time></trkpt>
    <trkpt lat="48.43972" lon="14.60355"><ele>732</ele><time>2022-09-10T12:46:11Z</time></trkpt>
    <trkpt lat="48.43929" lon="14.60390"><ele>724</ele><time>2022-09-10T12:46:30Z</time></trkpt>
    <trkpt lat="48.43885" lon="14.60453"><ele>729</ele><time>2022-09-10T12:47:24Z</time></trkpt>
    <trkpt lat="48.43836" lon="14.60532"><ele>710</ele><time>2022-09-10T12:47:42Z</time></trkpt>
    <trkpt lat="48.43724" lon="14.60545"><ele>695</ele><time>2022-09-10T12:48:01Z</time></trkpt>
    <trkpt lat="48.43631" lon="14.60500"><ele>678</ele><time>2022-09-10T12:48:19Z</time></trkpt>
    <trkpt lat="48.43595" lon="14.60577"><ele>666</ele><time>2022-09-10T12:48:37Z</time></trkpt>
    <trkpt lat="48.43559" lon="14.60695"><ele>663</ele><time>2022-09-10T12:48:55Z</time></trkpt>
    <trkpt lat="48.43518" lon="14.60717"><ele>668</ele><time>2022-09-10T12:49:13Z</time></trkpt>
    <trkpt lat="48.43481" lon="14.60736"><ele>674</ele><time>2022-09-10T12:49:31Z</time></trkpt>
    <trkpt lat="48.43449" lon="14.60760"><ele>681</ele><time>2022-09-10T12:49:49Z</time></trkpt>
    <trkpt lat="48.43422" lon="14.60797"><ele>683</ele><time>2022-09-10T12:50:07Z</time></trkpt>
    <trkpt lat="48.43390" lon="14.60839"><ele>683</ele><time>2022-09-10T12:50:26Z</time></trkpt>
    <trkpt lat="48.43349" lon="14.60864"><ele>688</ele><time>2022-09-10T12:50:45Z</time></trkpt>
    <trkpt lat="48.43312" lon="14.60884"><ele>690</ele><time>2022-09-10T12:51:03Z</time></trkpt>
    <trkpt lat="48.43287" lon="14.60931"><ele>690</ele><time>2022-09-10T12:51:22Z</time></trkpt>
    <trkpt lat="48.43284" lon="14.60900"><ele>688</ele><time>2022-09-10T12:51:41Z</time></trkpt>
    <trkpt lat="48.43214" lon="14.60904"><ele>688</ele><time>2022-09-10T12:52:00Z</time></trkpt>
    <trkpt lat="48.43123" lon="14.60852"><ele>684</ele><time>2022-09-10T12:52:18Z</time></trkpt>
    <trkpt lat="48.43092" lon="14.60811"><ele>685</ele><time>2022-09-10T12:52:36Z</time></trkpt>
    <trkpt lat="48.43073" lon="14.60712"><ele>689</ele><time>2022-09-10T12:52:54Z</time></trkpt>
    <trkpt lat="48.43031" lon="14.60657"><ele>680</ele><time>2022-09-10T12:53:12Z</time></trkpt>
    <trkpt lat="48.42972" lon="14.60661"><ele>684</ele><time>2022-09-10T12:53:30Z</time></trkpt>
    <trkpt lat="48.42909" lon="14.60681"><ele>682</ele><time>2022-09-10T12:53:49Z</time></trkpt>
    <trkpt lat="48.42878" lon="14.60702"><ele>681</ele><time>2022-09-10T12:54:07Z</time></trkpt>
    <trkpt lat="48.42861" lon="14.60707"><ele>695</ele><time>2022-09-10T12:55:29Z</time></trkpt>
    <trkpt lat="48.42878" lon="14.60655"><ele>681</ele><time>2022-09-10T12:56:34Z</time></trkpt>
    <trkpt lat="48.42885" lon="14.60645"><ele>679</ele><time>2022-09-10T12:57:56Z</time></trkpt>
    <trkpt lat="48.42928" lon="14.60551"><ele>670</ele><time>2022-09-10T12:58:14Z</time></trkpt>
    <trkpt lat="48.42980" lon="14.60434"><ele>665</ele><time>2022-09-10T12:58:33Z</time></trkpt>
    <trkpt lat="48.42929" lon="14.60321"><ele>655</ele><time>2022-09-10T12:58:51Z</time></trkpt>
    <trkpt lat="48.42852" lon="14.60197"><ele>644</ele><time>2022-09-10T12:59:10Z</time></trkpt>
    <trkpt lat="48.42731" lon="14.60145"><ele>619</ele><time>2022-09-10T12:59:28Z</time></trkpt>
    <trkpt lat="48.42617" lon="14.60168"><ele>611</ele><time>2022-09-10T12:59:46Z</time></trkpt>
    <trkpt lat="48.42526" lon="14.60207"><ele>612</ele><time>2022-09-10T13:00:05Z</time></trkpt>
    <trkpt lat="48.42432" lon="14.60281"><ele>604</ele><time>2022-09-10T13:00:24Z</time></trkpt>
    <trkpt lat="48.42408" lon="14.60297"><ele>600</ele><time>2022-09-10T13:00:43Z</time></trkpt>
    <trkpt lat="48.42392" lon="14.60374"><ele>593</ele><time>2022-09-10T13:01:01Z</time></trkpt>
    <trkpt lat="48.42341" lon="14.60386"><ele>588</ele><time>2022-09-10T13:01:19Z</time></trkpt>
    <trkpt lat="48.42297" lon="14.60381"><ele>587</ele><time>2022-09-10T13:01:37Z</time></trkpt>
    <trkpt lat="48.42200" lon="14.60318"><ele>579</ele><time>2022-09-10T13:01:55Z</time></trkpt>
    <trkpt lat="48.42043" lon="14.60270"><ele>568</ele><time>2022-09-10T13:02:14Z</time></trkpt>
    <trkpt lat="48.42066" lon="14.60228"><ele>567</ele><time>2022-09-10T13:02:32Z</time></trkpt>
    <trkpt lat="48.42114" lon="14.60171"><ele>570</ele><time>2022-09-10T13:02:50Z</time></trkpt>
    <trkpt lat="48.42157" lon="14.60117"><ele>569</ele><time>2022-09-10T13:03:09Z</time></trkpt>
    <trkpt lat="48.42194" lon="14.60072"><ele>571</ele><time>2022-09-10T13:03:28Z</time></trkpt>
    <trkpt lat="48.42242" lon="14.60008"><ele>568</ele><time>2022-09-10T13:03:46Z</time></trkpt>
    <trkpt lat="48.42293" lon="14.59947"><ele>569</ele><time>2022-09-10T13:04:04Z</time></trkpt>
    <trkpt lat="48.42320" lon="14.59867"><ele>568</ele><time>2022-09-10T13:04:23Z</time></trkpt>
    <trkpt lat="48.42346" lon="14.59814"><ele>570</ele><time>2022-09-10T13:04:41Z</time></trkpt>
    <trkpt lat="48.42362" lon="14.59763"><ele>575</ele><time>2022-09-10T13:04:59Z</time></trkpt>
    <trkpt lat="48.42371" lon="14.59714"><ele>575</ele><time>2022-09-10T13:05:18Z</time></trkpt>
    <trkpt lat="48.42341" lon="14.59725"><ele>578</ele><time>2022-09-10T13:05:36Z</time></trkpt>
    <trkpt lat="48.42315" lon="14.59734"><ele>585</ele><time>2022-09-10T13:05:55Z</time></trkpt>
    <trkpt lat="48.42291" lon="14.59745"><ele>584</ele><time>2022-09-10T13:06:14Z</time></trkpt>
    <trkpt lat="48.42263" lon="14.59745"><ele>588</ele><time>2022-09-10T13:06:33Z</time></trkpt>
    <trkpt lat="48.42222" lon="14.59753"><ele>594</ele><time>2022-09-10T13:06:52Z</time></trkpt>
    <trkpt lat="48.42196" lon="14.59792"><ele>591</ele><time>2022-09-10T13:07:11Z</time></trkpt>
    <trkpt lat="48.42178" lon="14.59821"><ele>599</ele><time>2022-09-10T13:07:30Z</time></trkpt>
    <trkpt lat="48.42158" lon="14.59845"><ele>600</ele><time>2022-09-10T13:07:48Z</time></trkpt>
    <trkpt lat="48.42143" lon="14.59882"><ele>604</ele><time>2022-09-10T13:08:06Z</time></trkpt>
    <trkpt lat="48.42126" lon="14.59905"><ele>610</ele><time>2022-09-10T13:08:24Z</time></trkpt>
    <trkpt lat="48.42097" lon="14.59920"><ele>610</ele><time>2022-09-10T13:08:43Z</time></trkpt>
    <trkpt lat="48.42092" lon="14.59885"><ele>613</ele><time>2022-09-10T13:09:02Z</time></trkpt>
    <trkpt lat="48.42088" lon="14.59826"><ele>617</ele><time>2022-09-10T13:09:21Z</time></trkpt>
    <trkpt lat="48.42080" lon="14.59793"><ele>619</ele><time>2022-09-10T13:09:39Z</time></trkpt>
    <trkpt lat="48.42089" lon="14.59797"><ele>624</ele><time>2022-09-10T13:10:33Z</time></trkpt>
    <trkpt lat="48.42060" lon="14.59792"><ele>616</ele><time>2022-09-10T13:12:12Z</time></trkpt>
    <trkpt lat="48.42048" lon="14.59796"><ele>613</ele><time>2022-09-10T13:13:11Z</time></trkpt>
    <trkpt lat="48.42017" lon="14.59741"><ele>609</ele><time>2022-09-10T13:13:30Z</time></trkpt>
    <trkpt lat="48.41955" lon="14.59717"><ele>606</ele><time>2022-09-10T13:13:48Z</time></trkpt>
    <trkpt lat="48.41905" lon="14.59778"><ele>610</ele><time>2022-09-10T13:14:07Z</time></trkpt>
    <trkpt lat="48.41863" lon="14.59835"><ele>607</ele><time>2022-09-10T13:14:25Z</time></trkpt>
    <trkpt lat="48.41785" lon="14.59830"><ele>602</ele><time>2022-09-10T13:14:44Z</time></trkpt>
    <trkpt lat="48.41675" lon="14.59823"><ele>586</ele><time>2022-09-10T13:15:03Z</time></trkpt>
    <trkpt lat="48.41537" lon="14.59800"><ele>572</ele><time>2022-09-10T13:15:22Z</time></trkpt>
    <trkpt lat="48.41483" lon="14.59812"><ele>566</ele><time>2022-09-10T13:15:40Z</time></trkpt>
    <trkpt lat="48.41406" lon="14.59807"><ele>561</ele><time>2022-09-10T13:15:59Z</time></trkpt>
    <trkpt lat="48.41305" lon="14.59702"><ele>574</ele><time>2022-09-10T13:16:17Z</time></trkpt>
    <trkpt lat="48.41251" lon="14.59633"><ele>558</ele><time>2022-09-10T13:16:36Z</time></trkpt>
    <trkpt lat="48.41220" lon="14.59595"><ele>562</ele><time>2022-09-10T13:16:54Z</time></trkpt>
    <trkpt lat="48.41185" lon="14.59560"><ele>567</ele><time>2022-09-10T13:17:13Z</time></trkpt>
    <trkpt lat="48.41152" lon="14.59521"><ele>571</ele><time>2022-09-10T13:17:32Z</time></trkpt>
    <trkpt lat="48.41121" lon="14.59481"><ele>571</ele><time>2022-09-10T13:17:50Z</time></trkpt>
    <trkpt lat="48.41089" lon="14.59430"><ele>567</ele><time>2022-09-10T13:18:09Z</time></trkpt>
    <trkpt lat="48.41087" lon="14.59368"><ele>577</ele><time>2022-09-10T13:18:27Z</time></trkpt>
    <trkpt lat="48.41099" lon="14.59313"><ele>579</ele><time>2022-09-10T13:18:46Z</time></trkpt>
    <trkpt lat="48.41121" lon="14.59268"><ele>578</ele><time>2022-09-10T13:19:05Z</time></trkpt>
    <trkpt lat="48.41140" lon="14.59231"><ele>584</ele><time>2022-09-10T13:19:23Z</time></trkpt>
    <trkpt lat="48.41161" lon="14.59191"><ele>581</ele><time>2022-09-10T13:19:42Z</time></trkpt>
    <trkpt lat="48.41182" lon="14.59142"><ele>579</ele><time>2022-09-10T13:20:01Z</time></trkpt>
    <trkpt lat="48.41199" lon="14.59101"><ele>578</ele><time>2022-09-10T13:20:20Z</time></trkpt>
    <trkpt lat="48.41210" lon="14.59064"><ele>592</ele><time>2022-09-10T13:20:38Z</time></trkpt>
    <trkpt lat="48.41231" lon="14.59065"><ele>591</ele><time>2022-09-10T13:21:20Z</time></trkpt>
    <trkpt lat="48.41239" lon="14.59051"><ele>591</ele><time>2022-09-10T13:21:39Z</time></trkpt>
    <trkpt lat="48.41251" lon="14.59047"><ele>587</ele><time>2022-09-10T13:21:58Z</time></trkpt>
    <trkpt lat="48.41263" lon="14.59041"><ele>589</ele><time>2022-09-10T13:22:16Z</time></trkpt>
    <trkpt lat="48.41280" lon="14.59033"><ele>584</ele><time>2022-09-10T13:22:35Z</time></trkpt>
    <trkpt lat="48.41284" lon="14.58975"><ele>591</ele><time>2022-09-10T13:22:53Z</time></trkpt>
    <trkpt lat="48.41278" lon="14.58916"><ele>595</ele><time>2022-09-10T13:23:12Z</time></trkpt>
    <trkpt lat="48.41265" lon="14.58856"><ele>600</ele><time>2022-09-10T13:23:30Z</time></trkpt>
    <trkpt lat="48.41246" lon="14.58808"><ele>599</ele><time>2022-09-10T13:23:49Z</time></trkpt>
    <trkpt lat="48.41226" lon="14.58773"><ele>597</ele><time>2022-09-10T13:24:07Z</time></trkpt>
    <trkpt lat="48.41214" lon="14.58753"><ele>598</ele><time>2022-09-10T13:24:26Z</time></trkpt>
    <trkpt lat="48.41220" lon="14.58766"><ele>600</ele><time>2022-09-10T13:24:50Z</time></trkpt>
    <trkpt lat="48.41212" lon="14.58797"><ele>597</ele><time>2022-09-10T13:25:08Z</time></trkpt>
    <trkpt lat="48.41150" lon="14.58808"><ele>590</ele><time>2022-09-10T13:25:26Z</time></trkpt>
    <trkpt lat="48.41110" lon="14.58802"><ele>599</ele><time>2022-09-10T13:25:45Z</time></trkpt>
    <trkpt lat="48.41083" lon="14.58786"><ele>603</ele><time>2022-09-10T13:26:04Z</time></trkpt>
    <trkpt lat="48.41065" lon="14.58748"><ele>606</ele><time>2022-09-10T13:26:23Z</time></trkpt>
    <trkpt lat="48.41042" lon="14.58727"><ele>610</ele><time>2022-09-10T13:26:41Z</time></trkpt>
    <trkpt lat="48.41026" lon="14.58706"><ele>618</ele><time>2022-09-10T13:26:59Z</time></trkpt>
    <trkpt lat="48.41006" lon="14.58690"><ele>622</ele><time>2022-09-10T13:27:18Z</time></trkpt>
    <trkpt lat="48.40986" lon="14.58682"><ele>633</ele><time>2022-09-10T13:27:36Z</time></trkpt>
    <trkpt lat="48.40969" lon="14.58673"><ele>624</ele><time>2022-09-10T13:27:55Z</time></trkpt>
    <trkpt lat="48.40952" lon="14.58662"><ele>633</ele><time>2022-09-10T13:28:13Z</time></trkpt>
    <trkpt lat="48.40933" lon="14.58654"><ele>632</ele><time>2022-09-10T13:28:32Z</time></trkpt>
    <trkpt lat="48.40916" lon="14.58636"><ele>645</ele><time>2022-09-10T13:28:50Z</time></trkpt>
    <trkpt lat="48.40901" lon="14.58621"><ele>644</ele><time>2022-09-10T13:29:08Z</time></trkpt>
    <trkpt lat="48.40885" lon="14.58603"><ele>657</ele><time>2022-09-10T13:29:27Z</time></trkpt>
    <trkpt lat="48.40868" lon="14.58591"><ele>657</ele><time>2022-09-10T13:29:45Z</time></trkpt>
    <trkpt lat="48.40848" lon="14.58587"><ele>658</ele><time>2022-09-10T13:30:04Z</time></trkpt>
    <trkpt lat="48.40830" lon="14.58575"><ele>678</ele><time>2022-09-10T13:30:23Z</time></trkpt>
    <trkpt lat="48.40814" lon="14.58572"><ele>664</ele><time>2022-09-10T13:30:41Z</time></trkpt>
    <trkpt lat="48.40794" lon="14.58578"><ele>689</ele><time>2022-09-10T13:31:00Z</time></trkpt>
    <trkpt lat="48.40775" lon="14.58591"><ele>682</ele><time>2022-09-10T13:31:19Z</time></trkpt>
    <trkpt lat="48.40757" lon="14.58596"><ele>701</ele><time>2022-09-10T13:31:37Z</time></trkpt>
    <trkpt lat="48.40738" lon="14.58597"><ele>674</ele><time>2022-09-10T13:31:55Z</time></trkpt>
    <trkpt lat="48.40694" lon="14.58616"><ele>673</ele><time>2022-09-10T13:32:14Z</time></trkpt>
    <trkpt lat="48.40669" lon="14.58638"><ele>679</ele><time>2022-09-10T13:32:32Z</time></trkpt>
    <trkpt lat="48.40643" lon="14.58644"><ele>680</ele><time>2022-09-10T13:32:51Z</time></trkpt>
    <trkpt lat="48.40596" lon="14.58656"><ele>679</ele><time>2022-09-10T13:33:10Z</time></trkpt>
    <trkpt lat="48.40558" lon="14.58678"><ele>679</ele><time>2022-09-10T13:33:28Z</time></trkpt>
    <trkpt lat="48.40506" lon="14.58720"><ele>674</ele><time>2022-09-10T13:33:46Z</time></trkpt>
    <trkpt lat="48.40421" lon="14.58914"><ele>670</ele><time>2022-09-10T13:34:05Z</time></trkpt>
    <trkpt lat="48.40370" lon="14.59032"><ele>676</ele><time>2022-09-10T13:34:23Z</time></trkpt>
    <trkpt lat="48.40379" lon="14.59037"><ele>677</ele><time>2022-09-10T13:34:52Z</time></trkpt>
    <trkpt lat="48.40402" lon="14.58933"><ele>670</ele><time>2022-09-10T13:35:10Z</time></trkpt>
    <trkpt lat="48.40408" lon="14.58818"><ele>673</ele><time>2022-09-10T13:35:28Z</time></trkpt>
    <trkpt lat="48.40401" lon="14.58648"><ele>664</ele><time>2022-09-10T13:35:46Z</time></trkpt>
    <trkpt lat="48.40427" lon="14.58548"><ele>650</ele><time>2022-09-10T13:36:05Z</time></trkpt>
    <trkpt lat="48.40309" lon="14.58381"><ele>629</ele><time>2022-09-10T13:36:24Z</time></trkpt>
    <trkpt lat="48.40256" lon="14.58328"><ele>624</ele><time>2022-09-10T13:36:42Z</time></trkpt>
    <trkpt lat="48.40279" lon="14.58208"><ele>606</ele><time>2022-09-10T13:37:00Z</time></trkpt>
    <trkpt lat="48.40325" lon="14.58042"><ele>592</ele><time>2022-09-10T13:37:18Z</time></trkpt>
    <trkpt lat="48.40363" lon="14.57877"><ele>587</ele><time>2022-09-10T13:37:37Z</time></trkpt>
    <trkpt lat="48.40394" lon="14.57788"><ele>582</ele><time>2022-09-10T13:37:56Z</time></trkpt>
    <trkpt lat="48.40390" lon="14.57801"><ele>577</ele><time>2022-09-10T13:38:15Z</time></trkpt>
    <trkpt lat="48.40369" lon="14.57863"><ele>578</ele><time>2022-09-10T13:38:33Z</time></trkpt>
    <trkpt lat="48.40385" lon="14.57765"><ele>569</ele><time>2022-09-10T13:38:51Z</time></trkpt>
    <trkpt lat="48.40384" lon="14.57667"><ele>560</ele><time>2022-09-10T13:39:10Z</time></trkpt>
    <trkpt lat="48.40377" lon="14.57646"><ele>558</ele><time>2022-09-10T13:39:29Z</time></trkpt>
    <trkpt lat="48.40370" lon="14.57569"><ele>559</ele><time>2022-09-10T13:39:48Z</time></trkpt>
    <trkpt lat="48.40371" lon="14.57471"><ele>558</ele><time>2022-09-10T13:40:06Z</time></trkpt>
    <trkpt lat="48.40371" lon="14.57391"><ele>560</ele><time>2022-09-10T13:40:24Z</time></trkpt>
    <trkpt lat="48.40350" lon="14.57350"><ele>564</ele><time>2022-09-10T13:40:42Z</time></trkpt>
    <trkpt lat="48.40330" lon="14.57313"><ele>567</ele><time>2022-09-10T13:41:01Z</time></trkpt>
    <trkpt lat="48.40311" lon="14.57281"><ele>569</ele><time>2022-09-10T13:41:19Z</time></trkpt>
    <trkpt lat="48.40297" lon="14.57261"><ele>569</ele><time>2022-09-10T13:41:37Z</time></trkpt>
    <trkpt lat="48.40258" lon="14.57242"><ele>574</ele><time>2022-09-10T13:42:20Z</time></trkpt>
    <trkpt lat="48.40301" lon="14.57035"><ele>559</ele><time>2022-09-10T13:42:39Z</time></trkpt>
    <trkpt lat="48.40377" lon="14.56885"><ele>542</ele><time>2022-09-10T13:42:57Z</time></trkpt>
    <trkpt lat="48.40419" lon="14.56962"><ele>536</ele><time>2022-09-10T13:43:16Z</time></trkpt>
    <trkpt lat="48.40387" lon="14.56864"><ele>535</ele><time>2022-09-10T13:43:34Z</time></trkpt>
    <trkpt lat="48.40316" lon="14.56735"><ele>532</ele><time>2022-09-10T13:43:53Z</time></trkpt>
    <trkpt lat="48.40319" lon="14.56749"><ele>534</ele><time>2022-09-10T13:44:16Z</time></trkpt>
    <trkpt lat="48.40282" lon="14.56769"><ele>530</ele><time>2022-09-10T13:44:34Z</time></trkpt>
    <trkpt lat="48.40207" lon="14.56787"><ele>529</ele><time>2022-09-10T13:44:53Z</time></trkpt>
    <trkpt lat="48.40147" lon="14.56803"><ele>527</ele><time>2022-09-10T13:45:12Z</time></trkpt>
    <trkpt lat="48.40138" lon="14.56803"><ele>531</ele><time>2022-09-10T13:45:55Z</time></trkpt>
    <trkpt lat="48.40079" lon="14.56813"><ele>535</ele><time>2022-09-10T13:46:13Z</time></trkpt>
    <trkpt lat="48.40027" lon="14.56863"><ele>537</ele><time>2022-09-10T13:46:31Z</time></trkpt>
    <trkpt lat="48.39998" lon="14.56911"><ele>528</ele><time>2022-09-10T13:46:50Z</time></trkpt>
    <trkpt lat="48.39978" lon="14.56952"><ele>531</ele><time>2022-09-10T13:47:08Z</time></trkpt>
    <trkpt lat="48.39943" lon="14.56972"><ele>533</ele><time>2022-09-10T13:48:17Z</time></trkpt>
    <trkpt lat="48.39896" lon="14.56961"><ele>529</ele><time>2022-09-10T13:48:36Z</time></trkpt>
    <trkpt lat="48.39852" lon="14.56966"><ele>533</ele><time>2022-09-10T13:48:54Z</time></trkpt>
    <trkpt lat="48.39843" lon="14.56968"><ele>534</ele><time>2022-09-10T13:49:26Z</time></trkpt>
    <trkpt lat="48.39810" lon="14.56967"><ele>536</ele><time>2022-09-10T13:49:44Z</time></trkpt>
    <trkpt lat="48.39780" lon="14.56965"><ele>541</ele><time>2022-09-10T13:50:02Z</time></trkpt>
    <trkpt lat="48.39742" lon="14.56958"><ele>544</ele><time>2022-09-10T13:50:20Z</time></trkpt>
    <trkpt lat="48.39699" lon="14.56954"><ele>549</ele><time>2022-09-10T13:50:39Z</time></trkpt>
    <trkpt lat="48.39660" lon="14.56945"><ele>550</ele><time>2022-09-10T13:50:57Z</time></trkpt>
    <trkpt lat="48.39588" lon="14.56980"><ele>549</ele><time>2022-09-10T13:51:16Z</time></trkpt>
    <trkpt lat="48.39509" lon="14.56952"><ele>548</ele><time>2022-09-10T13:51:34Z</time></trkpt>
    <trkpt lat="48.39487" lon="14.56990"><ele>543</ele><time>2022-09-10T13:51:52Z</time></trkpt>
    <trkpt lat="48.39499" lon="14.57069"><ele>566</ele><time>2022-09-10T13:52:10Z</time></trkpt>
    <trkpt lat="48.39484" lon="14.57099"><ele>555</ele><time>2022-09-10T13:52:28Z</time></trkpt>
    <trkpt lat="48.39442" lon="14.57058"><ele>556</ele><time>2022-09-10T13:52:47Z</time></trkpt>
    <trkpt lat="48.39433" lon="14.57086"><ele>561</ele><time>2022-09-10T13:53:06Z</time></trkpt>
    <trkpt lat="48.39439" lon="14.57062"><ele>569</ele><time>2022-09-10T13:55:42Z</time></trkpt>
    <trkpt lat="48.39452" lon="14.57052"><ele>577</ele><time>2022-09-10T13:57:33Z</time></trkpt>
    <trkpt lat="48.39447" lon="14.57064"><ele>584</ele><time>2022-09-10T13:59:09Z</time></trkpt>
    <trkpt lat="48.39412" lon="14.57018"><ele>560</ele><time>2022-09-10T13:59:28Z</time></trkpt>
    <trkpt lat="48.39382" lon="14.56991"><ele>559</ele><time>2022-09-10T13:59:47Z</time></trkpt>
    <trkpt lat="48.39265" lon="14.57047"><ele>543</ele><time>2022-09-10T14:00:05Z</time></trkpt>
    <trkpt lat="48.39189" lon="14.57069"><ele>547</ele><time>2022-09-10T14:00:24Z</time></trkpt>
    <trkpt lat="48.39153" lon="14.57073"><ele>551</ele><time>2022-09-10T14:00:43Z</time></trkpt>
    <trkpt lat="48.39121" lon="14.57073"><ele>554</ele><time>2022-09-10T14:01:01Z</time></trkpt>
    <trkpt lat="48.39088" lon="14.57066"><ele>566</ele><time>2022-09-10T14:01:19Z</time></trkpt>
    <trkpt lat="48.39030" lon="14.57064"><ele>574</ele><time>2022-09-10T14:01:37Z</time></trkpt>
    <trkpt lat="48.38976" lon="14.57089"><ele>564</ele><time>2022-09-10T14:01:56Z</time></trkpt>
    <trkpt lat="48.38967" lon="14.57017"><ele>551</ele><time>2022-09-10T14:02:15Z</time></trkpt>
    <trkpt lat="48.39000" lon="14.56849"><ele>546</ele><time>2022-09-10T14:02:33Z</time></trkpt>
    <trkpt lat="48.38996" lon="14.56863"><ele>543</ele><time>2022-09-10T14:02:57Z</time></trkpt>
    <trkpt lat="48.38979" lon="14.56962"><ele>548</ele><time>2022-09-10T14:03:16Z</time></trkpt>
    <trkpt lat="48.38952" lon="14.57052"><ele>554</ele><time>2022-09-10T14:03:35Z</time></trkpt>
    <trkpt lat="48.38913" lon="14.57129"><ele>557</ele><time>2022-09-10T14:03:54Z</time></trkpt>
    <trkpt lat="48.38864" lon="14.57179"><ele>558</ele><time>2022-09-10T14:04:12Z</time></trkpt>
    <trkpt lat="48.38797" lon="14.57170"><ele>558</ele><time>2022-09-10T14:04:31Z</time></trkpt>
    <trkpt lat="48.38736" lon="14.57034"><ele>556</ele><time>2022-09-10T14:04:50Z</time></trkpt>
    <trkpt lat="48.38662" lon="14.56903"><ele>556</ele><time>2022-09-10T14:05:08Z</time></trkpt>
    <trkpt lat="48.38596" lon="14.56802"><ele>560</ele><time>2022-09-10T14:05:26Z</time></trkpt>
    <trkpt lat="48.38534" lon="14.56699"><ele>554</ele><time>2022-09-10T14:05:45Z</time></trkpt>
    <trkpt lat="48.38487" lon="14.56563"><ele>551</ele><time>2022-09-10T14:06:03Z</time></trkpt>
    <trkpt lat="48.38431" lon="14.56459"><ele>554</ele><time>2022-09-10T14:06:22Z</time></trkpt>
    <trkpt lat="48.38386" lon="14.56372"><ele>554</ele><time>2022-09-10T14:06:40Z</time></trkpt>
    <trkpt lat="48.38252" lon="14.56329"><ele>550</ele><time>2022-09-10T14:06:58Z</time></trkpt>
    <trkpt lat="48.38197" lon="14.56171"><ele>544</ele><time>2022-09-10T14:07:17Z</time></trkpt>
    <trkpt lat="48.38109" lon="14.55966"><ele>529</ele><time>2022-09-10T14:07:35Z</time></trkpt>
    <trkpt lat="48.37919" lon="14.55774"><ele>514</ele><time>2022-09-10T14:07:54Z</time></trkpt>
    <trkpt lat="48.37774" lon="14.55626"><ele>499</ele><time>2022-09-10T14:08:12Z</time></trkpt>
    <trkpt lat="48.37716" lon="14.55492"><ele>499</ele><time>2022-09-10T14:08:30Z</time></trkpt>
    <trkpt lat="48.37667" lon="14.55384"><ele>504</ele><time>2022-09-10T14:08:49Z</time></trkpt>
    <trkpt lat="48.37649" lon="14.55301"><ele>509</ele><time>2022-09-10T14:09:07Z</time></trkpt>
    <trkpt lat="48.37633" lon="14.55229"><ele>510</ele><time>2022-09-10T14:09:26Z</time></trkpt>
    <trkpt lat="48.37619" lon="14.55135"><ele>513</ele><time>2022-09-10T14:09:45Z</time></trkpt>
    <trkpt lat="48.37580" lon="14.55064"><ele>515</ele><time>2022-09-10T14:10:03Z</time></trkpt>
    <trkpt lat="48.37512" lon="14.55031"><ele>515</ele><time>2022-09-10T14:10:21Z</time></trkpt>
    <trkpt lat="48.37464" lon="14.54938"><ele>515</ele><time>2022-09-10T14:10:39Z</time></trkpt>
    <trkpt lat="48.37394" lon="14.54821"><ele>524</ele><time>2022-09-10T14:10:57Z</time></trkpt>
    <trkpt lat="48.37314" lon="14.54707"><ele>507</ele><time>2022-09-10T14:11:16Z</time></trkpt>
    <trkpt lat="48.37175" lon="14.54646"><ele>496</ele><time>2022-09-10T14:11:34Z</time></trkpt>
    <trkpt lat="48.37089" lon="14.54499"><ele>489</ele><time>2022-09-10T14:11:53Z</time></trkpt>
    <trkpt lat="48.37160" lon="14.54323"><ele>478</ele><time>2022-09-10T14:12:11Z</time></trkpt>
    <trkpt lat="48.37075" lon="14.54279"><ele>455</ele><time>2022-09-10T14:12:30Z</time></trkpt>
    <trkpt lat="48.37041" lon="14.54277"><ele>452</ele><time>2022-09-10T14:12:49Z</time></trkpt>
    <trkpt lat="48.36968" lon="14.54196"><ele>467</ele><time>2022-09-10T14:14:03Z</time></trkpt>
    <trkpt lat="48.36942" lon="14.54094"><ele>469</ele><time>2022-09-10T14:14:21Z</time></trkpt>
    <trkpt lat="48.36916" lon="14.53972"><ele>493</ele><time>2022-09-10T14:14:39Z</time></trkpt>
    <trkpt lat="48.36814" lon="14.53908"><ele>460</ele><time>2022-09-10T14:14:58Z</time></trkpt>
    <trkpt lat="48.36668" lon="14.53858"><ele>455</ele><time>2022-09-10T14:15:17Z</time></trkpt>
    <trkpt lat="48.36564" lon="14.53689"><ele>450</ele><time>2022-09-10T14:15:36Z</time></trkpt>
    <trkpt lat="48.36483" lon="14.53652"><ele>457</ele><time>2022-09-10T14:15:55Z</time></trkpt>
    <trkpt lat="48.36419" lon="14.53601"><ele>500</ele><time>2022-09-10T14:16:13Z</time></trkpt>
    <trkpt lat="48.36323" lon="14.53518"><ele>457</ele><time>2022-09-10T14:16:31Z</time></trkpt>
    <trkpt lat="48.36179" lon="14.53378"><ele>453</ele><time>2022-09-10T14:16:49Z</time></trkpt>
    <trkpt lat="48.36030" lon="14.53327"><ele>460</ele><time>2022-09-10T14:17:07Z</time></trkpt>
    <trkpt lat="48.35888" lon="14.53299"><ele>477</ele><time>2022-09-10T14:17:25Z</time></trkpt>
    <trkpt lat="48.35816" lon="14.53219"><ele>453</ele><time>2022-09-10T14:17:44Z</time></trkpt>
    <trkpt lat="48.35741" lon="14.53094"><ele>441</ele><time>2022-09-10T14:18:02Z</time></trkpt>
    <trkpt lat="48.35632" lon="14.53060"><ele>427</ele><time>2022-09-10T14:18:21Z</time></trkpt>
    <trkpt lat="48.35525" lon="14.53082"><ele>428</ele><time>2022-09-10T14:18:39Z</time></trkpt>
    <trkpt lat="48.35444" lon="14.53034"><ele>426</ele><time>2022-09-10T14:18:57Z</time></trkpt>
    <trkpt lat="48.35477" lon="14.52793"><ele>420</ele><time>2022-09-10T14:19:15Z</time></trkpt>
    <trkpt lat="48.35526" lon="14.52610"><ele>406</ele><time>2022-09-10T14:19:34Z</time></trkpt>
    <trkpt lat="48.35539" lon="14.52489"><ele>410</ele><time>2022-09-10T14:19:52Z</time></trkpt>
    <trkpt lat="48.35528" lon="14.52398"><ele>418</ele><time>2022-09-10T14:20:10Z</time></trkpt>
    <trkpt lat="48.35525" lon="14.52329"><ele>421</ele><time>2022-09-10T14:20:28Z</time></trkpt>
    <trkpt lat="48.35531" lon="14.52262"><ele>427</ele><time>2022-09-10T14:20:46Z</time></trkpt>
    <trkpt lat="48.35558" lon="14.52227"><ele>425</ele><time>2022-09-10T14:21:05Z</time></trkpt>
    <trkpt lat="48.35571" lon="14.52235"><ele>422</ele><time>2022-09-10T14:21:23Z</time></trkpt>
    <trkpt lat="48.35580" lon="14.52250"><ele>417</ele><time>2022-09-10T14:21:42Z</time></trkpt>
    <trkpt lat="48.35598" lon="14.52241"><ele>412</ele><time>2022-09-10T14:23:05Z</time></trkpt>
    <trkpt lat="48.35581" lon="14.52282"><ele>420</ele><time>2022-09-10T14:24:27Z</time></trkpt>
    <trkpt lat="48.35595" lon="14.52230"><ele>418</ele><time>2022-09-10T14:24:33Z</time></trkpt>
    <trkpt lat="48.35594" lon="14.52215"><ele>416</ele><time>2022-09-10T14:26:17Z</time></trkpt>
    <trkpt lat="48.35604" lon="14.52247"><ele>420</ele><time>2022-09-10T14:27:40Z</time></trkpt>
    <trkpt lat="48.35597" lon="14.52220"><ele>410</ele><time>2022-09-10T14:34:19Z</time></trkpt>
    <trkpt lat="48.35574" lon="14.52090"><ele>417</ele><time>2022-09-10T14:34:37Z</time></trkpt>
  </trkseg>
</trk>
</gpx>