<?xml version="1.0" encoding="UTF-8"?>
<gpx version="1.1" creator="GPX-Pro" xmlns="http://www.topografix.com/GPX/1/1">
<trk>
  <name>Riezer Grieskogel</name>
  <trkseg>
    <trkpt lat="47.22112" lon="11.04672"><ele>1970</ele><time>2022-09-04T07:15:02Z</time></trkpt>
    <trkpt lat="47.22099" lon="11.04672"><ele>1950</ele><time>2022-09-04T07:23:35Z</time></trkpt>
    <trkpt lat="47.22088" lon="11.04655"><ele>1951</ele><time>2022-09-04T07:23:53Z</time></trkpt>
    <trkpt lat="47.22106" lon="11.04669"><ele>1950</ele><time>2022-09-04T07:25:08Z</time></trkpt>
    <trkpt lat="47.22119" lon="11.04689"><ele>1944</ele><time>2022-09-04T07:25:27Z</time></trkpt>
    <trkpt lat="47.22141" lon="11.04696"><ele>1941</ele><time>2022-09-04T07:25:45Z</time></trkpt>
    <trkpt lat="47.22159" lon="11.04702"><ele>1944</ele><time>2022-09-04T07:26:04Z</time></trkpt>
    <trkpt lat="47.22166" lon="11.04722"><ele>1945</ele><time>2022-09-04T07:26:22Z</time></trkpt>
    <trkpt lat="47.22182" lon="11.04739"><ele>1943</ele><time>2022-09-04T07:26:41Z</time></trkpt>
    <trkpt lat="47.22202" lon="11.04749"><ele>1942</ele><time>2022-09-04T07:26:59Z</time></trkpt>
    <trkpt lat="47.22221" lon="11.04773"><ele>1942</ele><time>2022-09-04T07:27:17Z</time></trkpt>
    <trkpt lat="47.22237" lon="11.04794"><ele>1940</ele><time>2022-09-04T07:27:36Z</time></trkpt>
    <trkpt lat="47.22246" lon="11.04821"><ele>1938</ele><time>2022-09-04T07:27:54Z</time></trkpt>
    <trkpt lat="47.22262" lon="11.04843"><ele>1936</ele><time>2022-09-04T07:28:13Z</time></trkpt>
    <trkpt lat="47.22276" lon="11.04871"><ele>1933</ele><time>2022-09-04T07:28:31Z</time></trkpt>
    <trkpt lat="47.22291" lon="11.04896"><ele>1929</ele><time>2022-09-04T07:28:50Z</time></trkpt>
    <trkpt lat="47.22301" lon="11.04924"><ele>1929</ele><time>2022-09-04T07:29:08Z</time></trkpt>
    <trkpt lat="47.22313" lon="11.04955"><ele>1928</ele><time>2022-09-04T07:29:27Z</time></trkpt>
    <trkpt lat="47.22326" lon="11.04990"><ele>1932</ele><time>2022-09-04T07:29:46Z</time></trkpt>
    <trkpt lat="47.22337" lon="11.05014"><ele>1926</ele><time>2022-09-04T07:30:04Z</time></trkpt>
    <trkpt lat="47.22345" lon="11.05037"><ele>1919</ele><time>2022-09-04T07:30:23Z</time></trkpt>
    <trkpt lat="47.22349" lon="11.05050"><ele>1916</ele><time>2022-09-04T07:30:42Z</time></trkpt>
    <trkpt lat="47.22359" lon="11.05070"><ele>1912</ele><time>2022-09-04T07:31:01Z</time></trkpt>
    <trkpt lat="47.22370" lon="11.05092"><ele>1920</ele><time>2022-09-04T07:31:38Z</time></trkpt>
    <trkpt lat="47.22384" lon="11.05118"><ele>1921</ele><time>2022-09-04T07:32:22Z</time></trkpt>
    <trkpt lat="47.22392" lon="11.05134"><ele>1923</ele><time>2022-09-04T07:32:40Z</time></trkpt>
    <trkpt lat="47.22403" lon="11.05152"><ele>1926</ele><time>2022-09-04T07:32:59Z</time></trkpt>
    <trkpt lat="47.22414" lon="11.05167"><ele>1930</ele><time>2022-09-04T07:33:17Z</time></trkpt>
    <trkpt lat="47.22423" lon="11.05180"><ele>1935</ele><time>2022-09-04T07:33:35Z</time></trkpt>
    <trkpt lat="47.22427" lon="11.05195"><ele>1931</ele><time>2022-09-04T07:33:53Z</time></trkpt>
    <trkpt lat="47.22432" lon="11.05210"><ele>1932</ele><time>2022-09-04T07:34:12Z</time></trkpt>
    <trkpt lat="47.22438" lon="11.05222"><ele>1933</ele><time>2022-09-04T07:34:30Z</time></trkpt>
    <trkpt lat="47.22446" lon="11.05238"><ele>1935</ele><time>2022-09-04T07:34:49Z</time></trkpt>
    <trkpt lat="47.22451" lon="11.05252"><ele>1938</ele><time>2022-09-04T07:35:08Z</time></trkpt>
    <trkpt lat="47.22458" lon="11.05267"><ele>1940</ele><time>2022-09-04T07:35:27Z</time></trkpt>
    <trkpt lat="47.22468" lon="11.05283"><ele>1945</ele><time>2022-09-04T07:35:45Z</time></trkpt>
    <trkpt lat="47.22480" lon="11.05299"><ele>1949</ele><time>2022-09-04T07:36:03Z</time></trkpt>
    <trkpt lat="47.22486" lon="11.05317"><ele>1951</ele><time>2022-09-04T07:36:21Z</time></trkpt>
    <trkpt lat="47.22492" lon="11.05329"><ele>1953</ele><time>2022-09-04T07:36:40Z</time></trkpt>
    <trkpt lat="47.22497" lon="11.05340"><ele>1954</ele><time>2022-09-04T07:37:26Z</time></trkpt>
    <trkpt lat="47.22510" lon="11.05358"><ele>1955</ele><time>2022-09-04T07:37:45Z</time></trkpt>
    <trkpt lat="47.22522" lon="11.05364"><ele>1959</ele><time>2022-09-04T07:38:03Z</time></trkpt>
    <trkpt lat="47.22533" lon="11.05358"><ele>1963</ele><time>2022-09-04T07:38:22Z</time></trkpt>
    <trkpt lat="47.22563" lon="11.05351"><ele>1974</ele><time>2022-09-04T07:39:10Z</time></trkpt>
    <trkpt lat="47.22583" lon="11.05364"><ele>1977</ele><time>2022-09-04T07:39:29Z</time></trkpt>
    <trkpt lat="47.22603" lon="11.05374"><ele>1981</ele><time>2022-09-04T07:40:20Z</time></trkpt>
    <trkpt lat="47.22594" lon="11.05351"><ele>1987</ele><time>2022-09-04T07:40:39Z</time></trkpt>
    <trkpt lat="47.22588" lon="11.05332"><ele>1980</ele><time>2022-09-04T07:40:58Z</time></trkpt>
    <trkpt lat="47.22580" lon="11.05316"><ele>1981</ele><time>2022-09-04T07:41:16Z</time></trkpt>
    <trkpt lat="47.22573" lon="11.05296"><ele>1980</ele><time>2022-09-04T07:41:35Z</time></trkpt>
    <trkpt lat="47.22562" lon="11.05285"><ele>1981</ele><time>2022-09-04T07:41:54Z</time></trkpt>
    <trkpt lat="47.22580" lon="11.05282"><ele>1997</ele><time>2022-09-04T07:42:48Z</time></trkpt>
    <trkpt lat="47.22589" lon="11.05287"><ele>2001</ele><time>2022-09-04T07:43:07Z</time></trkpt>
    <trkpt lat="47.22603" lon="11.05292"><ele>2002</ele><time>2022-09-04T07:43:26Z</time></trkpt>
    <trkpt lat="47.22613" lon="11.05298"><ele>2006</ele><time>2022-09-04T07:43:44Z</time></trkpt>
    <trkpt lat="47.22634" lon="11.05297"><ele>2003</ele><time>2022-09-04T07:45:09Z</time></trkpt>
    <trkpt lat="47.22644" lon="11.05301"><ele>2000</ele><time>2022-09-04T07:45:27Z</time></trkpt>
    <trkpt lat="47.22660" lon="11.05313"><ele>2007</ele><time>2022-09-04T07:45:45Z</time></trkpt>
    <trkpt lat="47.22687" lon="11.05320"><ele>2008</ele><time>2022-09-04T07:46:34Z</time></trkpt>
    <trkpt lat="47.22706" lon="11.05325"><ele>2004</ele><time>2022-09-04T07:46:52Z</time></trkpt>
    <trkpt lat="47.22727" lon="11.05319"><ele>1998</ele><time>2022-09-04T07:47:11Z</time></trkpt>
    <trkpt lat="47.22749" lon="11.05316"><ele>1998</ele><time>2022-09-04T07:47:29Z</time></trkpt>
    <trkpt lat="47.22764" lon="11.05307"><ele>2013</ele><time>2022-09-04T07:47:48Z</time></trkpt>
    <trkpt lat="47.22779" lon="11.05284"><ele>1986</ele><time>2022-09-04T07:48:07Z</time></trkpt>
    <trkpt lat="47.22798" lon="11.05275"><ele>2012</ele><time>2022-09-04T07:48:25Z</time></trkpt>
    <trkpt lat="47.22821" lon="11.05270"><ele>2013</ele><time>2022-09-04T07:48:43Z</time></trkpt>
    <trkpt lat="47.22844" lon="11.05268"><ele>2015</ele><time>2022-09-04T07:49:01Z</time></trkpt>
    <trkpt lat="47.22862" lon="11.05261"><ele>2017</ele><time>2022-09-04T07:49:19Z</time></trkpt>
    <trkpt lat="47.22881" lon="11.05247"><ele>2011</ele><time>2022-09-04T07:49:37Z</time></trkpt>
    <trkpt lat="47.22901" lon="11.05233"><ele>2008</ele><time>2022-09-04T07:49:56Z</time></trkpt>
    <trkpt lat="47.22920" lon="11.05230"><ele>2011</ele><time>2022-09-04T07:50:14Z</time></trkpt>
    <trkpt lat="47.22939" lon="11.05219"><ele>2011</ele><time>2022-09-04T07:50:33Z</time></trkpt>
    <trkpt lat="47.22955" lon="11.05205"><ele>2011</ele><time>2022-09-04T07:50:52Z</time></trkpt>
    <trkpt lat="47.22972" lon="11.05199"><ele>2014</ele><time>2022-09-04T07:51:10Z</time></trkpt>
    <trkpt lat="47.22990" lon="11.05196"><ele>2018</ele><time>2022-09-04T07:51:28Z</time></trkpt>
    <trkpt lat="47.23005" lon="11.05183"><ele>2023</ele><time>2022-09-04T07:51:47Z</time></trkpt>
    <trkpt lat="47.23021" lon="11.05162"><ele>2022</ele><time>2022-09-04T07:52:05Z</time></trkpt>
    <trkpt lat="47.23030" lon="11.05139"><ele>2030</ele><time>2022-09-04T07:52:24Z</time></trkpt>
    <trkpt lat="47.23046" lon="11.05124"><ele>2017</ele><time>2022-09-04T07:52:42Z</time></trkpt>
    <trkpt lat="47.23060" lon="11.05106"><ele>2034</ele><time>2022-09-04T07:53:01Z</time></trkpt>
    <trkpt lat="47.23079" lon="11.05087"><ele>2032</ele><time>2022-09-04T07:53:20Z</time></trkpt>
    <trkpt lat="47.23097" lon="11.05065"><ele>2034</ele><time>2022-09-04T07:53:39Z</time></trkpt>
    <trkpt lat="47.23112" lon="11.05048"><ele>2041</ele><time>2022-09-04T07:53:58Z</time></trkpt>
    <trkpt lat="47.23125" lon="11.05035"><ele>2041</ele><time>2022-09-04T07:54:17Z</time></trkpt>
    <trkpt lat="47.23131" lon="11.05022"><ele>2045</ele><time>2022-09-04T07:54:36Z</time></trkpt>
    <trkpt lat="47.23141" lon="11.05031"><ele>2042</ele><time>2022-09-04T07:54:54Z</time></trkpt>
    <trkpt lat="47.23150" lon="11.05052"><ele>2047</ele><time>2022-09-04T07:56:03Z</time></trkpt>
    <trkpt lat="47.23170" lon="11.05061"><ele>2054</ele><time>2022-09-04T07:56:51Z</time></trkpt>
    <trkpt lat="47.23180" lon="11.05043"><ele>2055</ele><time>2022-09-04T07:57:29Z</time></trkpt>
    <trkpt lat="47.23197" lon="11.05033"><ele>2052</ele><time>2022-09-04T07:58:51Z</time></trkpt>
    <trkpt lat="47.23212" lon="11.05025"><ele>2056</ele><time>2022-09-04T08:00:16Z</time></trkpt>
    <trkpt lat="47.23228" lon="11.05033"><ele>2061</ele><time>2022-09-04T08:00:55Z</time></trkpt>
    <trkpt lat="47.23242" lon="11.05014"><ele>2070</ele><time>2022-09-04T08:01:32Z</time></trkpt>
    <trkpt lat="47.23247" lon="11.05003"><ele>2069</ele><time>2022-09-04T08:01:51Z</time></trkpt>
    <trkpt lat="47.23255" lon="11.04985"><ele>2071</ele><time>2022-09-04T08:02:10Z</time></trkpt>
    <trkpt lat="47.23259" lon="11.04971"><ele>2069</ele><time>2022-09-04T08:02:29Z</time></trkpt>
    <trkpt lat="47.23269" lon="11.04942"><ele>2070</ele><time>2022-09-04T08:03:09Z</time></trkpt>
    <trkpt lat="47.23279" lon="11.04927"><ele>2072</ele><time>2022-09-04T08:03:27Z</time></trkpt>
    <trkpt lat="47.23291" lon="11.04921"><ele>2076</ele><time>2022-09-04T08:03:46Z</time></trkpt>
    <trkpt lat="47.23298" lon="11.04911"><ele>2085</ele><time>2022-09-04T08:04:04Z</time></trkpt>
    <trkpt lat="47.23301" lon="11.04896"><ele>2078</ele><time>2022-09-04T08:04:23Z</time></trkpt>
    <trkpt lat="47.23304" lon="11.04864"><ele>2081</ele><time>2022-09-04T08:05:02Z</time></trkpt>
    <trkpt lat="47.23307" lon="11.04841"><ele>2078</ele><time>2022-09-04T08:05:21Z</time></trkpt>
    <trkpt lat="47.23312" lon="11.04822"><ele>2081</ele><time>2022-09-04T08:05:39Z</time></trkpt>
    <trkpt lat="47.23314" lon="11.04796"><ele>2075</ele><time>2022-09-04T08:05:58Z</time></trkpt>
    <trkpt lat="47.23317" lon="11.04782"><ele>2066</ele><time>2022-09-04T08:06:17Z</time></trkpt>
    <trkpt lat="47.23322" lon="11.04766"><ele>2082</ele><time>2022-09-04T08:06:35Z</time></trkpt>
    <trkpt lat="47.23328" lon="11.04753"><ele>2083</ele><time>2022-09-04T08:06:54Z</time></trkpt>
    <trkpt lat="47.23338" lon="11.04742"><ele>2083</ele><time>2022-09-04T08:07:13Z</time></trkpt>
    <trkpt lat="47.23348" lon="11.04736"><ele>2089</ele><time>2022-09-04T08:07:31Z</time></trkpt>
    <trkpt lat="47.23358" lon="11.04713"><ele>2099</ele><time>2022-09-04T08:08:12Z</time></trkpt>
    <trkpt lat="47.23366" lon="11.04682"><ele>2097</ele><time>2022-09-04T08:08:57Z</time></trkpt>
    <trkpt lat="47.23373" lon="11.04666"><ele>2094</ele><time>2022-09-04T08:09:15Z</time></trkpt>
    <trkpt lat="47.23381" lon="11.04659"><ele>2092</ele><time>2022-09-04T08:09:33Z</time></trkpt>
    <trkpt lat="47.23397" lon="11.04634"><ele>2096</ele><time>2022-09-04T08:10:12Z</time></trkpt>
    <trkpt lat="47.23402" lon="11.04618"><ele>2099</ele><time>2022-09-04T08:10:30Z</time></trkpt>
    <trkpt lat="47.23405" lon="11.04598"><ele>2101</ele><time>2022-09-04T08:10:48Z</time></trkpt>
    <trkpt lat="47.23415" lon="11.04590"><ele>2103</ele><time>2022-09-04T08:11:06Z</time></trkpt>
    <trkpt lat="47.23429" lon="11.04567"><ele>2110</ele><time>2022-09-04T08:11:44Z</time></trkpt>
    <trkpt lat="47.23439" lon="11.04559"><ele>2115</ele><time>2022-09-04T08:12:02Z</time></trkpt>
    <trkpt lat="47.23444" lon="11.04548"><ele>2120</ele><time>2022-09-04T08:12:21Z</time></trkpt>
    <trkpt lat="47.23447" lon="11.04533"><ele>2122</ele><time>2022-09-04T08:12:39Z</time></trkpt>
    <trkpt lat="47.23453" lon="11.04510"><ele>2127</ele><time>2022-09-04T08:13:16Z</time></trkpt>
    <trkpt lat="47.23459" lon="11.04500"><ele>2122</ele><time>2022-09-04T08:13:35Z</time></trkpt>
    <trkpt lat="47.23468" lon="11.04479"><ele>2117</ele><time>2022-09-04T08:14:21Z</time></trkpt>
    <trkpt lat="47.23470" lon="11.04465"><ele>2134</ele><time>2022-09-04T08:14:39Z</time></trkpt>
    <trkpt lat="47.23486" lon="11.04455"><ele>2151</ele><time>2022-09-04T08:15:18Z</time></trkpt>
    <trkpt lat="47.23498" lon="11.04449"><ele>2149</ele><time>2022-09-04T08:15:37Z</time></trkpt>
    <trkpt lat="47.23514" lon="11.04455"><ele>2146</ele><time>2022-09-04T08:16:23Z</time></trkpt>
    <trkpt lat="47.23529" lon="11.04448"><ele>2153</ele><time>2022-09-04T08:17:16Z</time></trkpt>
    <trkpt lat="47.23539" lon="11.04444"><ele>2154</ele><time>2022-09-04T08:17:34Z</time></trkpt>
    <trkpt lat="47.23550" lon="11.04427"><ele>2157</ele><time>2022-09-04T08:18:24Z</time></trkpt>
    <trkpt lat="47.23566" lon="11.04411"><ele>2166</ele><time>2022-09-04T08:19:03Z</time></trkpt>
    <trkpt lat="47.23572" lon="11.04399"><ele>2168</ele><time>2022-09-04T08:19:22Z</time></trkpt>
    <trkpt lat="47.23588" lon="11.04389"><ele>2172</ele><time>2022-09-04T08:19:59Z</time></trkpt>
    <trkpt lat="47.23595" lon="11.04379"><ele>2175</ele><time>2022-09-04T08:20:18Z</time></trkpt>
    <trkpt lat="47.23612" lon="11.04365"><ele>2181</ele><time>2022-09-04T08:20:58Z</time></trkpt>
    <trkpt lat="47.23625" lon="11.04357"><ele>2188</ele><time>2022-09-04T08:21:17Z</time></trkpt>
    <trkpt lat="47.23644" lon="11.04354"><ele>2200</ele><time>2022-09-04T08:21:57Z</time></trkpt>
    <trkpt lat="47.23660" lon="11.04355"><ele>2204</ele><time>2022-09-04T08:22:16Z</time></trkpt>
    <trkpt lat="47.23670" lon="11.04356"><ele>2199</ele><time>2022-09-04T08:22:34Z</time></trkpt>
    <trkpt lat="47.23684" lon="11.04339"><ele>2202</ele><time>2022-09-04T08:23:12Z</time></trkpt>
    <trkpt lat="47.23702" lon="11.04338"><ele>2202</ele><time>2022-09-04T08:23:48Z</time></trkpt>
    <trkpt lat="47.23717" lon="11.04333"><ele>2204</ele><time>2022-09-04T08:24:28Z</time></trkpt>
    <trkpt lat="47.23735" lon="11.04330"><ele>2213</ele><time>2022-09-04T08:25:07Z</time></trkpt>
    <trkpt lat="47.23751" lon="11.04324"><ele>2218</ele><time>2022-09-04T08:25:55Z</time></trkpt>
    <trkpt lat="47.23748" lon="11.04337"><ele>2211</ele><time>2022-09-04T08:26:14Z</time></trkpt>
    <trkpt lat="47.23750" lon="11.04354"><ele>2222</ele><time>2022-09-04T08:26:54Z</time></trkpt>
    <trkpt lat="47.23759" lon="11.04353"><ele>2225</ele><time>2022-09-04T08:27:13Z</time></trkpt>
    <trkpt lat="47.23769" lon="11.04350"><ele>2231</ele><time>2022-09-04T08:27:31Z</time></trkpt>
    <trkpt lat="47.23785" lon="11.04352"><ele>2238</ele><time>2022-09-04T08:28:20Z</time></trkpt>
    <trkpt lat="47.23796" lon="11.04354"><ele>2243</ele><time>2022-09-04T08:28:39Z</time></trkpt>
    <trkpt lat="47.23792" lon="11.04369"><ele>2247</ele><time>2022-09-04T08:28:58Z</time></trkpt>
    <trkpt lat="47.23802" lon="11.04379"><ele>2254</ele><time>2022-09-04T08:29:50Z</time></trkpt>
    <trkpt lat="47.23806" lon="11.04399"><ele>2258</ele><time>2022-09-04T08:30:56Z</time></trkpt>
    <trkpt lat="47.23826" lon="11.04413"><ele>2265</ele><time>2022-09-04T08:32:34Z</time></trkpt>
    <trkpt lat="47.23830" lon="11.04430"><ele>2273</ele><time>2022-09-04T08:32:53Z</time></trkpt>
    <trkpt lat="47.23827" lon="11.04448"><ele>2277</ele><time>2022-09-04T08:33:12Z</time></trkpt>
    <trkpt lat="47.23830" lon="11.04465"><ele>2272</ele><time>2022-09-04T08:33:31Z</time></trkpt>
    <trkpt lat="47.23846" lon="11.04466"><ele>2279</ele><time>2022-09-04T08:34:16Z</time></trkpt>
    <trkpt lat="47.23855" lon="11.04470"><ele>2284</ele><time>2022-09-04T08:34:34Z</time></trkpt>
    <trkpt lat="47.23863" lon="11.04492"><ele>2290</ele><time>2022-09-04T08:35:17Z</time></trkpt>
    <trkpt lat="47.23863" lon="11.04513"><ele>2299</ele><time>2022-09-04T08:36:21Z</time></trkpt>
    <trkpt lat="47.23852" lon="11.04526"><ele>2305</ele><time>2022-09-04T08:36:40Z</time></trkpt>
    <trkpt lat="47.23843" lon="11.04545"><ele>2306</ele><time>2022-09-04T08:37:46Z</time></trkpt>
    <trkpt lat="47.23835" lon="11.04566"><ele>2307</ele><time>2022-09-04T08:38:05Z</time></trkpt>
    <trkpt lat="47.23828" lon="11.04579"><ele>2310</ele><time>2022-09-04T08:38:23Z</time></trkpt>
    <trkpt lat="47.23831" lon="11.04602"><ele>2319</ele><time>2022-09-04T08:46:45Z</time></trkpt>
    <trkpt lat="47.23832" lon="11.04627"><ele>2314</ele><time>2022-09-04T08:51:18Z</time></trkpt>
    <trkpt lat="47.23834" lon="11.04657"><ele>2325</ele><time>2022-09-04T08:51:55Z</time></trkpt>
    <trkpt lat="47.23833" lon="11.04675"><ele>2330</ele><time>2022-09-04T08:52:13Z</time></trkpt>
    <trkpt lat="47.23833" lon="11.04694"><ele>2334</ele><time>2022-09-04T08:52:32Z</time></trkpt>
    <trkpt lat="47.23841" lon="11.04710"><ele>2337</ele><time>2022-09-04T08:52:50Z</time></trkpt>
    <trkpt lat="47.23844" lon="11.04732"><ele>2338</ele><time>2022-09-04T08:53:09Z</time></trkpt>
    <trkpt lat="47.23839" lon="11.04751"><ele>2340</ele><time>2022-09-04T08:53:27Z</time></trkpt>
    <trkpt lat="47.23831" lon="11.04768"><ele>2344</ele><time>2022-09-04T08:53:46Z</time></trkpt>
    <trkpt lat="47.23830" lon="11.04782"><ele>2346</ele><time>2022-09-04T08:54:05Z</time></trkpt>
    <trkpt lat="47.23830" lon="11.04802"><ele>2352</ele><time>2022-09-04T08:54:42Z</time></trkpt>
    <trkpt lat="47.23838" lon="11.04820"><ele>2354</ele><time>2022-09-04T08:55:00Z</time></trkpt>
    <trkpt lat="47.23849" lon="11.04844"><ele>2333</ele><time>2022-09-04T08:55:19Z</time></trkpt>
    <trkpt lat="47.23852" lon="11.04872"><ele>2348</ele><time>2022-09-04T08:55:37Z</time></trkpt>
    <trkpt lat="47.23850" lon="11.04889"><ele>2350</ele><time>2022-09-04T08:55:55Z</time></trkpt>
    <trkpt lat="47.23853" lon="11.04905"><ele>2319</ele><time>2022-09-04T08:56:14Z</time></trkpt>
    <trkpt lat="47.23842" lon="11.04927"><ele>2352</ele><time>2022-09-04T08:57:04Z</time></trkpt>
    <trkpt lat="47.23852" lon="11.04938"><ele>2356</ele><time>2022-09-04T08:57:22Z</time></trkpt>
    <trkpt lat="47.23859" lon="11.04953"><ele>2361</ele><time>2022-09-04T08:57:41Z</time></trkpt>
    <trkpt lat="47.23851" lon="11.04975"><ele>2370</ele><time>2022-09-04T08:57:59Z</time></trkpt>
    <trkpt lat="47.23848" lon="11.04990"><ele>2370</ele><time>2022-09-04T08:58:18Z</time></trkpt>
    <trkpt lat="47.23844" lon="11.05005"><ele>2371</ele><time>2022-09-04T08:58:37Z</time></trkpt>
    <trkpt lat="47.23848" lon="11.05017"><ele>2374</ele><time>2022-09-04T08:58:55Z</time></trkpt>
    <trkpt lat="47.23842" lon="11.05043"><ele>2383</ele><time>2022-09-04T08:59:36Z</time></trkpt>
    <trkpt lat="47.23854" lon="11.05069"><ele>2382</ele><time>2022-09-04T09:00:13Z</time></trkpt>
    <trkpt lat="47.23866" lon="11.05092"><ele>2384</ele><time>2022-09-04T09:01:09Z</time></trkpt>
    <trkpt lat="47.23876" lon="11.05099"><ele>2378</ele><time>2022-09-04T09:01:28Z</time></trkpt>
    <trkpt lat="47.23886" lon="11.05117"><ele>2384</ele><time>2022-09-04T09:01:46Z</time></trkpt>
    <trkpt lat="47.23897" lon="11.05121"><ele>2386</ele><time>2022-09-04T09:02:04Z</time></trkpt>
    <trkpt lat="47.23911" lon="11.05143"><ele>2377</ele><time>2022-09-04T09:03:32Z</time></trkpt>
    <trkpt lat="47.23920" lon="11.05152"><ele>2394</ele><time>2022-09-04T09:03:50Z</time></trkpt>
    <trkpt lat="47.23930" lon="11.05151"><ele>2399</ele><time>2022-09-04T09:04:08Z</time></trkpt>
    <trkpt lat="47.23947" lon="11.05161"><ele>2393</ele><time>2022-09-04T09:04:45Z</time></trkpt>
    <trkpt lat="47.23959" lon="11.05175"><ele>2396</ele><time>2022-09-04T09:05:04Z</time></trkpt>
    <trkpt lat="47.23995" lon="11.05188"><ele>2382</ele><time>2022-09-04T09:06:01Z</time></trkpt>
    <trkpt lat="47.24011" lon="11.05218"><ele>2416</ele><time>2022-09-04T09:09:23Z</time></trkpt>
    <trkpt lat="47.24036" lon="11.05269"><ele>2406</ele><time>2022-09-04T09:10:18Z</time></trkpt>
    <trkpt lat="47.24049" lon="11.05286"><ele>2421</ele><time>2022-09-04T09:10:37Z</time></trkpt>
    <trkpt lat="47.24068" lon="11.05322"><ele>2425</ele><time>2022-09-04T09:11:14Z</time></trkpt>
    <trkpt lat="47.24076" lon="11.05349"><ele>2434</ele><time>2022-09-04T09:12:15Z</time></trkpt>
    <trkpt lat="47.24094" lon="11.05367"><ele>2436</ele><time>2022-09-04T09:12:52Z</time></trkpt>
    <trkpt lat="47.24102" lon="11.05388"><ele>2406</ele><time>2022-09-04T09:14:16Z</time></trkpt>
    <trkpt lat="47.24101" lon="11.05410"><ele>2448</ele><time>2022-09-04T09:16:39Z</time></trkpt>
    <trkpt lat="47.24124" lon="11.05416"><ele>2451</ele><time>2022-09-04T09:20:59Z</time></trkpt>
    <trkpt lat="47.24133" lon="11.05424"><ele>2451</ele><time>2022-09-04T09:21:18Z</time></trkpt>
    <trkpt lat="47.24141" lon="11.05432"><ele>2459</ele><time>2022-09-04T09:21:36Z</time></trkpt>
    <trkpt lat="47.24152" lon="11.05432"><ele>2457</ele><time>2022-09-04T09:21:55Z</time></trkpt>
    <trkpt lat="47.24167" lon="11.05444"><ele>2462</ele><time>2022-09-04T09:22:34Z</time></trkpt>
    <trkpt lat="47.24174" lon="11.05466"><ele>2472</ele><time>2022-09-04T09:23:26Z</time></trkpt>
    <trkpt lat="47.24180" lon="11.05486"><ele>2478</ele><time>2022-09-04T09:24:25Z</time></trkpt>
    <trkpt lat="47.24186" lon="11.05507"><ele>2487</ele><time>2022-09-04T09:25:34Z</time></trkpt>
    <trkpt lat="47.24192" lon="11.05520"><ele>2499</ele><time>2022-09-04T09:26:39Z</time></trkpt>
    <trkpt lat="47.24204" lon="11.05532"><ele>2515</ele><time>2022-09-04T09:28:30Z</time></trkpt>
    <trkpt lat="47.24219" lon="11.05541"><ele>2518</ele><time>2022-09-04T09:29:30Z</time></trkpt>
    <trkpt lat="47.24229" lon="11.05561"><ele>2518</ele><time>2022-09-04T09:31:01Z</time></trkpt>
    <trkpt lat="47.24233" lon="11.05577"><ele>2539</ele><time>2022-09-04T09:32:18Z</time></trkpt>
    <trkpt lat="47.24249" lon="11.05573"><ele>2544</ele><time>2022-09-04T09:33:14Z</time></trkpt>
    <trkpt lat="47.24254" lon="11.05598"><ele>2553</ele><time>2022-09-04T09:34:10Z</time></trkpt>
    <trkpt lat="47.24269" lon="11.05596"><ele>2560</ele><time>2022-09-04T09:35:24Z</time></trkpt>
    <trkpt lat="47.24279" lon="11.05584"><ele>2563</ele><time>2022-09-04T09:36:37Z</time></trkpt>
    <trkpt lat="47.24300" lon="11.05593"><ele>2577</ele><time>2022-09-04T09:38:11Z</time></trkpt>
    <trkpt lat="47.24322" lon="11.05611"><ele>2548</ele><time>2022-09-04T09:39:56Z</time></trkpt>
    <trkpt lat="47.24325" lon="11.05594"><ele>2589</ele><time>2022-09-04T09:40:14Z</time></trkpt>
    <trkpt lat="47.24336" lon="11.05582"><ele>2600</ele><time>2022-09-04T09:41:01Z</time></trkpt>
    <trkpt lat="47.24347" lon="11.05573"><ele>2605</ele><time>2022-09-04T09:41:44Z</time></trkpt>
    <trkpt lat="47.24361" lon="11.05571"><ele>2603</ele><time>2022-09-04T09:42:03Z</time></trkpt>
    <trkpt lat="47.24369" lon="11.05563"><ele>2605</ele><time>2022-09-04T09:42:22Z</time></trkpt>
    <trkpt lat="47.24371" lon="11.05548"><ele>2600</ele><time>2022-09-04T09:42:40Z</time></trkpt>
    <trkpt lat="47.24378" lon="11.05532"><ele>2604</ele><time>2022-09-04T09:44:17Z</time></trkpt>
    <trkpt lat="47.24383" lon="11.05498"><ele>2605</ele><time>2022-09-04T09:45:07Z</time></trkpt>
    <trkpt lat="47.24391" lon="11.05478"><ele>2613</ele><time>2022-09-04T09:45:53Z</time></trkpt>
    <trkpt lat="47.24406" lon="11.05466"><ele>2619</ele><time>2022-09-04T09:46:34Z</time></trkpt>
    <trkpt lat="47.24422" lon="11.05461"><ele>2630</ele><time>2022-09-04T09:47:25Z</time></trkpt>
    <trkpt lat="47.24432" lon="11.05461"><ele>2639</ele><time>2022-09-04T09:47:43Z</time></trkpt>
    <trkpt lat="47.24443" lon="11.05444"><ele>2649</ele><time>2022-09-04T09:48:30Z</time></trkpt>
    <trkpt lat="47.24457" lon="11.05430"><ele>2623</ele><time>2022-09-04T09:49:17Z</time></trkpt>
    <trkpt lat="47.24466" lon="11.05424"><ele>2645</ele><time>2022-09-04T09:49:35Z</time></trkpt>
    <trkpt lat="47.24484" lon="11.05414"><ele>2656</ele><time>2022-09-04T09:50:18Z</time></trkpt>
    <trkpt lat="47.24494" lon="11.05412"><ele>2652</ele><time>2022-09-04T09:50:37Z</time></trkpt>
    <trkpt lat="47.24507" lon="11.05409"><ele>2656</ele><time>2022-09-04T09:50:56Z</time></trkpt>
    <trkpt lat="47.24522" lon="11.05404"><ele>2667</ele><time>2022-09-04T09:51:56Z</time></trkpt>
    <trkpt lat="47.24531" lon="11.05396"><ele>2672</ele><time>2022-09-04T09:52:15Z</time></trkpt>
    <trkpt lat="47.24548" lon="11.05393"><ele>2655</ele><time>2022-09-04T09:53:17Z</time></trkpt>
    <trkpt lat="47.24562" lon="11.05384"><ele>2683</ele><time>2022-09-04T09:53:54Z</time></trkpt>
    <trkpt lat="47.24570" lon="11.05378"><ele>2684</ele><time>2022-09-04T09:54:13Z</time></trkpt>
    <trkpt lat="47.24585" lon="11.05366"><ele>2690</ele><time>2022-09-04T09:55:13Z</time></trkpt>
    <trkpt lat="47.24600" lon="11.05356"><ele>2695</ele><time>2022-09-04T09:56:13Z</time></trkpt>
    <trkpt lat="47.24614" lon="11.05341"><ele>2701</ele><time>2022-09-04T09:57:11Z</time></trkpt>
    <trkpt lat="47.24625" lon="11.05322"><ele>2709</ele><time>2022-09-04T09:57:59Z</time></trkpt>
    <trkpt lat="47.24637" lon="11.05306"><ele>2718</ele><time>2022-09-04T09:58:55Z</time></trkpt>
    <trkpt lat="47.24649" lon="11.05290"><ele>2726</ele><time>2022-09-04T09:59:54Z</time></trkpt>
    <trkpt lat="47.24666" lon="11.05295"><ele>2732</ele><time>2022-09-04T10:01:29Z</time></trkpt>
    <trkpt lat="47.24683" lon="11.05304"><ele>2730</ele><time>2022-09-04T10:02:11Z</time></trkpt>
    <trkpt lat="47.24688" lon="11.05316"><ele>2748</ele><time>2022-09-04T10:04:50Z</time></trkpt>
    <trkpt lat="47.24675" lon="11.05344"><ele>2752</ele><time>2022-09-04T10:05:59Z</time></trkpt>
    <trkpt lat="47.24672" lon="11.05373"><ele>2750</ele><time>2022-09-04T10:06:37Z</time></trkpt>
    <trkpt lat="47.24668" lon="11.05398"><ele>2752</ele><time>2022-09-04T10:07:13Z</time></trkpt>
    <trkpt lat="47.24668" lon="11.05414"><ele>2751</ele><time>2022-09-04T10:07:32Z</time></trkpt>
    <trkpt lat="47.24665" lon="11.05438"><ele>2755</ele><time>2022-09-04T10:08:45Z</time></trkpt>
    <trkpt lat="47.24658" lon="11.05461"><ele>2755</ele><time>2022-09-04T10:09:26Z</time></trkpt>
    <trkpt lat="47.24655" lon="11.05474"><ele>2750</ele><time>2022-09-04T10:10:31Z</time></trkpt>
    <trkpt lat="47.24654" lon="11.05499"><ele>2755</ele><time>2022-09-04T10:12:38Z</time></trkpt>
    <trkpt lat="47.24643" lon="11.05515"><ele>2757</ele><time>2022-09-04T10:13:28Z</time></trkpt>
    <trkpt lat="47.24643" lon="11.05539"><ele>2766</ele><time>2022-09-04T10:14:07Z</time></trkpt>
    <trkpt lat="47.24646" lon="11.05567"><ele>2764</ele><time>2022-09-04T10:14:54Z</time></trkpt>
    <trkpt lat="47.24647" lon="11.05584"><ele>2766</ele><time>2022-09-04T10:15:12Z</time></trkpt>
    <trkpt lat="47.24641" lon="11.05597"><ele>2763</ele><time>2022-09-04T10:15:30Z</time></trkpt>
    <trkpt lat="47.24636" lon="11.05620"><ele>2772</ele><time>2022-09-04T10:16:34Z</time></trkpt>
    <trkpt lat="47.24632" lon="11.05640"><ele>2775</ele><time>2022-09-04T10:17:58Z</time></trkpt>
    <trkpt lat="47.24627" lon="11.05670"><ele>2784</ele><time>2022-09-04T10:18:39Z</time></trkpt>
    <trkpt lat="47.24623" lon="11.05694"><ele>2786</ele><time>2022-09-04T10:20:01Z</time></trkpt>
    <trkpt lat="47.24623" lon="11.05717"><ele>2793</ele><time>2022-09-04T10:20:48Z</time></trkpt>
    <trkpt lat="47.24624" lon="11.05742"><ele>2787</ele><time>2022-09-04T10:21:44Z</time></trkpt>
    <trkpt lat="47.24620" lon="11.05765"><ele>2809</ele><time>2022-09-04T10:23:06Z</time></trkpt>
    <trkpt lat="47.24626" lon="11.05787"><ele>2818</ele><time>2022-09-04T10:24:50Z</time></trkpt>
    <trkpt lat="47.24624" lon="11.05802"><ele>2820</ele><time>2022-09-04T10:25:09Z</time></trkpt>
    <trkpt lat="47.24629" lon="11.05827"><ele>2826</ele><time>2022-09-04T10:26:22Z</time></trkpt>
    <trkpt lat="47.24625" lon="11.05849"><ele>2842</ele><time>2022-09-04T10:27:42Z</time></trkpt>
    <trkpt lat="47.24618" lon="11.05868"><ele>2845</ele><time>2022-09-04T10:28:39Z</time></trkpt>
    <trkpt lat="47.24607" lon="11.05886"><ele>2850</ele><time>2022-09-04T10:29:53Z</time></trkpt>
    <trkpt lat="47.24593" lon="11.05896"><ele>2862</ele><time>2022-09-04T10:31:31Z</time></trkpt>
    <trkpt lat="47.24585" lon="11.05889"><ele>2859</ele><time>2022-09-04T10:32:40Z</time></trkpt>
    <trkpt lat="47.24585" lon="11.05912"><ele>2882</ele><time>2022-09-04T10:35:03Z</time></trkpt>
    <trkpt lat="47.24589" lon="11.05898"><ele>2873</ele><time>2022-09-04T11:06:21Z</time></trkpt>
    <trkpt lat="47.24600" lon="11.05886"><ele>2864</ele><time>2022-09-04T11:08:24Z</time></trkpt>
    <trkpt lat="47.24615" lon="11.05875"><ele>2851</ele><time>2022-09-04T11:09:30Z</time></trkpt>
    <trkpt lat="47.24623" lon="11.05854"><ele>2849</ele><time>2022-09-04T11:10:22Z</time></trkpt>
    <trkpt lat="47.24630" lon="11.05837"><ele>2813</ele><time>2022-09-04T11:11:02Z</time></trkpt>
    <trkpt lat="47.24624" lon="11.05810"><ele>2821</ele><time>2022-09-04T11:11:50Z</time></trkpt>
    <trkpt lat="47.24628" lon="11.05786"><ele>2795</ele><time>2022-09-04T11:12:47Z</time></trkpt>
    <trkpt lat="47.24622" lon="11.05763"><ele>2806</ele><time>2022-09-04T11:13:28Z</time></trkpt>
    <trkpt lat="47.24624" lon="11.05742"><ele>2801</ele><time>2022-09-04T11:14:33Z</time></trkpt>
    <trkpt lat="47.24628" lon="11.05719"><ele>2771</ele><time>2022-09-04T11:15:28Z</time></trkpt>
    <trkpt lat="47.24626" lon="11.05695"><ele>2787</ele><time>2022-09-04T11:16:12Z</time></trkpt>
    <trkpt lat="47.24629" lon="11.05670"><ele>2781</ele><time>2022-09-04T11:16:49Z</time></trkpt>
    <trkpt lat="47.24631" lon="11.05652"><ele>2773</ele><time>2022-09-04T11:17:08Z</time></trkpt>
    <trkpt lat="47.24631" lon="11.05629"><ele>2774</ele><time>2022-09-04T11:18:12Z</time></trkpt>
    <trkpt lat="47.24642" lon="11.05610"><ele>2776</ele><time>2022-09-04T11:20:22Z</time></trkpt>
    <trkpt lat="47.24644" lon="11.05591"><ele>2774</ele><time>2022-09-04T11:20:41Z</time></trkpt>
    <trkpt lat="47.24644" lon="11.05566"><ele>2764</ele><time>2022-09-04T11:21:44Z</time></trkpt>
    <trkpt lat="47.24647" lon="11.05545"><ele>2761</ele><time>2022-09-04T11:22:02Z</time></trkpt>
    <trkpt lat="47.24646" lon="11.05521"><ele>2763</ele><time>2022-09-04T11:22:41Z</time></trkpt>
    <trkpt lat="47.24650" lon="11.05508"><ele>2754</ele><time>2022-09-04T11:23:00Z</time></trkpt>
    <trkpt lat="47.24655" lon="11.05496"><ele>2757</ele><time>2022-09-04T11:23:19Z</time></trkpt>
    <trkpt lat="47.24664" lon="11.05476"><ele>2760</ele><time>2022-09-04T11:24:42Z</time></trkpt>
    <trkpt lat="47.24661" lon="11.05459"><ele>2755</ele><time>2022-09-04T11:25:00Z</time></trkpt>
    <trkpt lat="47.24671" lon="11.05439"><ele>2751</ele><time>2022-09-04T11:25:44Z</time></trkpt>
    <trkpt lat="47.24670" lon="11.05415"><ele>2747</ele><time>2022-09-04T11:26:55Z</time></trkpt>
    <trkpt lat="47.24673" lon="11.05394"><ele>2746</ele><time>2022-09-04T11:27:13Z</time></trkpt>
    <trkpt lat="47.24676" lon="11.05376"><ele>2747</ele><time>2022-09-04T11:27:32Z</time></trkpt>
    <trkpt lat="47.24680" lon="11.05346"><ele>2747</ele><time>2022-09-04T11:28:09Z</time></trkpt>
    <trkpt lat="47.24689" lon="11.05318"><ele>2747</ele><time>2022-09-04T11:28:28Z</time></trkpt>
    <trkpt lat="47.24693" lon="11.05294"><ele>2748</ele><time>2022-09-04T11:28:47Z</time></trkpt>
    <trkpt lat="47.24701" lon="11.05269"><ele>2752</ele><time>2022-09-04T11:29:05Z</time></trkpt>
    <trkpt lat="47.24710" lon="11.05249"><ele>2753</ele><time>2022-09-04T11:29:23Z</time></trkpt>
    <trkpt lat="47.24716" lon="11.05232"><ele>2758</ele><time>2022-09-04T11:29:41Z</time></trkpt>
    <trkpt lat="47.24722" lon="11.05200"><ele>2755</ele><time>2022-09-04T11:30:18Z</time></trkpt>
    <trkpt lat="47.24715" lon="11.05224"><ele>2755</ele><time>2022-09-04T11:32:24Z</time></trkpt>
    <trkpt lat="47.24720" lon="11.05213"><ele>2755</ele><time>2022-09-04T11:32:43Z</time></trkpt>
    <trkpt lat="47.24713" lon="11.05237"><ele>2757</ele><time>2022-09-04T11:33:57Z</time></trkpt>
    <trkpt lat="47.24703" lon="11.05260"><ele>2757</ele><time>2022-09-04T11:34:16Z</time></trkpt>
    <trkpt lat="47.24698" lon="11.05280"><ele>2755</ele><time>2022-09-04T11:34:34Z</time></trkpt>
    <trkpt lat="47.24689" lon="11.05302"><ele>2748</ele><time>2022-09-04T11:34:53Z</time></trkpt>
    <trkpt lat="47.24669" lon="11.05295"><ele>2741</ele><time>2022-09-04T11:35:38Z</time></trkpt>
    <trkpt lat="47.24661" lon="11.05303"><ele>2739</ele><time>2022-09-04T11:35:56Z</time></trkpt>
    <trkpt lat="47.24656" lon="11.05287"><ele>2733</ele><time>2022-09-04T11:36:15Z</time></trkpt>
    <trkpt lat="47.24641" lon="11.05300"><ele>2724</ele><time>2022-09-04T11:36:57Z</time></trkpt>
    <trkpt lat="47.24627" lon="11.05315"><ele>2720</ele><time>2022-09-04T11:37:36Z</time></trkpt>
    <trkpt lat="47.24619" lon="11.05329"><ele>2712</ele><time>2022-09-04T11:37:54Z</time></trkpt>
    <trkpt lat="47.24604" lon="11.05350"><ele>2699</ele><time>2022-09-04T11:38:33Z</time></trkpt>
    <trkpt lat="47.24596" lon="11.05362"><ele>2695</ele><time>2022-09-04T11:38:51Z</time></trkpt>
    <trkpt lat="47.24587" lon="11.05362"><ele>2691</ele><time>2022-09-04T11:39:10Z</time></trkpt>
    <trkpt lat="47.24577" lon="11.05374"><ele>2686</ele><time>2022-09-04T11:39:28Z</time></trkpt>
    <trkpt lat="47.24558" lon="11.05368"><ele>2678</ele><time>2022-09-04T11:40:07Z</time></trkpt>
    <trkpt lat="47.24547" lon="11.05373"><ele>2676</ele><time>2022-09-04T11:40:25Z</time></trkpt>
    <trkpt lat="47.24536" lon="11.05381"><ele>2675</ele><time>2022-09-04T11:40:43Z</time></trkpt>
    <trkpt lat="47.24523" lon="11.05385"><ele>2667</ele><time>2022-09-04T11:41:02Z</time></trkpt>
    <trkpt lat="47.24511" lon="11.05393"><ele>2663</ele><time>2022-09-04T11:41:20Z</time></trkpt>
    <trkpt lat="47.24497" lon="11.05407"><ele>2622</ele><time>2022-09-04T11:41:39Z</time></trkpt>
    <trkpt lat="47.24481" lon="11.05412"><ele>2650</ele><time>2022-09-04T11:41:58Z</time></trkpt>
    <trkpt lat="47.24471" lon="11.05420"><ele>2645</ele><time>2022-09-04T11:42:16Z</time></trkpt>
    <trkpt lat="47.24459" lon="11.05426"><ele>2623</ele><time>2022-09-04T11:42:35Z</time></trkpt>
    <trkpt lat="47.24445" lon="11.05431"><ele>2644</ele><time>2022-09-04T11:42:53Z</time></trkpt>
    <trkpt lat="47.24437" lon="11.05449"><ele>2642</ele><time>2022-09-04T11:43:12Z</time></trkpt>
    <trkpt lat="47.24430" lon="11.05463"><ele>2622</ele><time>2022-09-04T11:43:30Z</time></trkpt>
    <trkpt lat="47.24419" lon="11.05468"><ele>2630</ele><time>2022-09-04T11:43:49Z</time></trkpt>
    <trkpt lat="47.24408" lon="11.05473"><ele>2602</ele><time>2022-09-04T11:44:08Z</time></trkpt>
    <trkpt lat="47.24399" lon="11.05468"><ele>2618</ele><time>2022-09-04T11:44:27Z</time></trkpt>
    <trkpt lat="47.24390" lon="11.05475"><ele>2624</ele><time>2022-09-04T11:44:46Z</time></trkpt>
    <trkpt lat="47.24385" lon="11.05492"><ele>2625</ele><time>2022-09-04T11:45:04Z</time></trkpt>
    <trkpt lat="47.24385" lon="11.05512"><ele>2579</ele><time>2022-09-04T11:45:23Z</time></trkpt>
    <trkpt lat="47.24376" lon="11.05523"><ele>2619</ele><time>2022-09-04T11:45:41Z</time></trkpt>
    <trkpt lat="47.24368" lon="11.05537"><ele>2616</ele><time>2022-09-04T11:45:59Z</time></trkpt>
    <trkpt lat="47.24341" lon="11.05553"><ele>2616</ele><time>2022-09-04T11:47:07Z</time></trkpt>
    <trkpt lat="47.24330" lon="11.05566"><ele>2610</ele><time>2022-09-04T11:47:26Z</time></trkpt>
    <trkpt lat="47.24322" lon="11.05592"><ele>2601</ele><time>2022-09-04T11:48:05Z</time></trkpt>
    <trkpt lat="47.24306" lon="11.05607"><ele>2593</ele><time>2022-09-04T11:48:44Z</time></trkpt>
    <trkpt lat="47.24300" lon="11.05592"><ele>2581</ele><time>2022-09-04T11:49:02Z</time></trkpt>
    <trkpt lat="47.24294" lon="11.05580"><ele>2587</ele><time>2022-09-04T11:49:21Z</time></trkpt>
    <trkpt lat="47.24285" lon="11.05584"><ele>2579</ele><time>2022-09-04T11:50:15Z</time></trkpt>
    <trkpt lat="47.24269" lon="11.05599"><ele>2576</ele><time>2022-09-04T11:51:11Z</time></trkpt>
    <trkpt lat="47.24265" lon="11.05586"><ele>2546</ele><time>2022-09-04T11:51:30Z</time></trkpt>
    <trkpt lat="47.24251" lon="11.05598"><ele>2568</ele><time>2022-09-04T11:52:19Z</time></trkpt>
    <trkpt lat="47.24246" lon="11.05574"><ele>2555</ele><time>2022-09-04T11:53:07Z</time></trkpt>
    <trkpt lat="47.24230" lon="11.05578"><ele>2525</ele><time>2022-09-04T11:54:09Z</time></trkpt>
    <trkpt lat="47.24227" lon="11.05556"><ele>2525</ele><time>2022-09-04T11:54:57Z</time></trkpt>
    <trkpt lat="47.24227" lon="11.05535"><ele>2519</ele><time>2022-09-04T11:55:42Z</time></trkpt>
    <trkpt lat="47.24218" lon="11.05540"><ele>2515</ele><time>2022-09-04T11:56:01Z</time></trkpt>
    <trkpt lat="47.24202" lon="11.05535"><ele>2507</ele><time>2022-09-04T11:57:01Z</time></trkpt>
    <trkpt lat="47.24200" lon="11.05516"><ele>2499</ele><time>2022-09-04T11:57:59Z</time></trkpt>
    <trkpt lat="47.24185" lon="11.05505"><ele>2484</ele><time>2022-09-04T11:59:37Z</time></trkpt>
    <trkpt lat="47.24182" lon="11.05483"><ele>2474</ele><time>2022-09-04T12:00:30Z</time></trkpt>
    <trkpt lat="47.24176" lon="11.05460"><ele>2428</ele><time>2022-09-04T12:01:23Z</time></trkpt>
    <trkpt lat="47.24169" lon="11.05442"><ele>2462</ele><time>2022-09-04T12:02:11Z</time></trkpt>
    <trkpt lat="47.24156" lon="11.05428"><ele>2445</ele><time>2022-09-04T12:02:52Z</time></trkpt>
    <trkpt lat="47.24145" lon="11.05434"><ele>2446</ele><time>2022-09-04T12:03:10Z</time></trkpt>
    <trkpt lat="47.24134" lon="11.05426"><ele>2445</ele><time>2022-09-04T12:03:29Z</time></trkpt>
    <trkpt lat="47.24118" lon="11.05417"><ele>2437</ele><time>2022-09-04T12:04:15Z</time></trkpt>
    <trkpt lat="47.24104" lon="11.05410"><ele>2434</ele><time>2022-09-04T12:04:33Z</time></trkpt>
    <trkpt lat="47.24119" lon="11.05404"><ele>2449</ele><time>2022-09-04T12:14:25Z</time></trkpt>
    <trkpt lat="47.24103" lon="11.05381"><ele>2441</ele><time>2022-09-04T12:15:23Z</time></trkpt>
    <trkpt lat="47.24098" lon="11.05369"><ele>2423</ele><time>2022-09-04T12:16:06Z</time></trkpt>
    <trkpt lat="47.24089" lon="11.05353"><ele>2455</ele><time>2022-09-04T12:16:24Z</time></trkpt>
    <trkpt lat="47.24084" lon="11.05338"><ele>2439</ele><time>2022-09-04T12:16:42Z</time></trkpt>
    <trkpt lat="47.24076" lon="11.05326"><ele>2443</ele><time>2022-09-04T12:17:00Z</time></trkpt>
    <trkpt lat="47.24070" lon="11.05307"><ele>2448</ele><time>2022-09-04T12:17:19Z</time></trkpt>
    <trkpt lat="47.24062" lon="11.05290"><ele>2442</ele><time>2022-09-04T12:17:37Z</time></trkpt>
    <trkpt lat="47.24050" lon="11.05276"><ele>2433</ele><time>2022-09-04T12:17:55Z</time></trkpt>
    <trkpt lat="47.24035" lon="11.05244"><ele>2424</ele><time>2022-09-04T12:18:32Z</time></trkpt>
    <trkpt lat="47.24029" lon="11.05232"><ele>2427</ele><time>2022-09-04T12:18:50Z</time></trkpt>
    <trkpt lat="47.24021" lon="11.05212"><ele>2388</ele><time>2022-09-04T12:19:13Z</time></trkpt>
    <trkpt lat="47.24009" lon="11.05201"><ele>2414</ele><time>2022-09-04T12:19:31Z</time></trkpt>
    <trkpt lat="47.23996" lon="11.05193"><ele>2421</ele><time>2022-09-04T12:19:49Z</time></trkpt>
    <trkpt lat="47.23980" lon="11.05189"><ele>2418</ele><time>2022-09-04T12:20:08Z</time></trkpt>
    <trkpt lat="47.23965" lon="11.05185"><ele>2409</ele><time>2022-09-04T12:20:26Z</time></trkpt>
    <trkpt lat="47.23940" lon="11.05167"><ele>2398</ele><time>2022-09-04T12:21:03Z</time></trkpt>
    <trkpt lat="47.23928" lon="11.05160"><ele>2407</ele><time>2022-09-04T12:21:22Z</time></trkpt>
    <trkpt lat="47.23913" lon="11.05159"><ele>2374</ele><time>2022-09-04T12:21:41Z</time></trkpt>
    <trkpt lat="47.23901" lon="11.05152"><ele>2397</ele><time>2022-09-04T12:21:59Z</time></trkpt>
    <trkpt lat="47.23894" lon="11.05132"><ele>2383</ele><time>2022-09-04T12:22:18Z</time></trkpt>
    <trkpt lat="47.23881" lon="11.05129"><ele>2397</ele><time>2022-09-04T12:22:36Z</time></trkpt>
    <trkpt lat="47.23872" lon="11.05102"><ele>2399</ele><time>2022-09-04T12:22:55Z</time></trkpt>
    <trkpt lat="47.23861" lon="11.05078"><ele>2397</ele><time>2022-09-04T12:23:14Z</time></trkpt>
    <trkpt lat="47.23851" lon="11.05067"><ele>2399</ele><time>2022-09-04T12:23:32Z</time></trkpt>
    <trkpt lat="47.23843" lon="11.05054"><ele>2397</ele><time>2022-09-04T12:23:51Z</time></trkpt>
    <trkpt lat="47.23847" lon="11.05016"><ele>2368</ele><time>2022-09-04T12:24:28Z</time></trkpt>
    <trkpt lat="47.23853" lon="11.04973"><ele>2359</ele><time>2022-09-04T12:25:23Z</time></trkpt>
    <trkpt lat="47.23850" lon="11.04946"><ele>2365</ele><time>2022-09-04T12:25:45Z</time></trkpt>
    <trkpt lat="47.23843" lon="11.04929"><ele>2364</ele><time>2022-09-04T12:26:04Z</time></trkpt>
    <trkpt lat="47.23848" lon="11.04909"><ele>2354</ele><time>2022-09-04T12:26:23Z</time></trkpt>
    <trkpt lat="47.23850" lon="11.04888"><ele>2360</ele><time>2022-09-04T12:26:41Z</time></trkpt>
    <trkpt lat="47.23850" lon="11.04861"><ele>2366</ele><time>2022-09-04T12:27:00Z</time></trkpt>
    <trkpt lat="47.23845" lon="11.04839"><ele>2367</ele><time>2022-09-04T12:27:19Z</time></trkpt>
    <trkpt lat="47.23838" lon="11.04818"><ele>2368</ele><time>2022-09-04T12:27:37Z</time></trkpt>
    <trkpt lat="47.23826" lon="11.04800"><ele>2373</ele><time>2022-09-04T12:27:55Z</time></trkpt>
    <trkpt lat="47.23829" lon="11.04783"><ele>2358</ele><time>2022-09-04T12:28:14Z</time></trkpt>
    <trkpt lat="47.23831" lon="11.04766"><ele>2340</ele><time>2022-09-04T12:28:33Z</time></trkpt>
    <trkpt lat="47.23839" lon="11.04746"><ele>2346</ele><time>2022-09-04T12:28:51Z</time></trkpt>
    <trkpt lat="47.23844" lon="11.04724"><ele>2344</ele><time>2022-09-04T12:29:10Z</time></trkpt>
    <trkpt lat="47.23829" lon="11.04678"><ele>2353</ele><time>2022-09-04T12:29:48Z</time></trkpt>
    <trkpt lat="47.23833" lon="11.04661"><ele>2344</ele><time>2022-09-04T12:30:06Z</time></trkpt>
    <trkpt lat="47.23835" lon="11.04643"><ele>2337</ele><time>2022-09-04T12:30:25Z</time></trkpt>
    <trkpt lat="47.23830" lon="11.04617"><ele>2345</ele><time>2022-09-04T12:30:44Z</time></trkpt>
    <trkpt lat="47.23822" lon="11.04595"><ele>2345</ele><time>2022-09-04T12:31:02Z</time></trkpt>
    <trkpt lat="47.23831" lon="11.04577"><ele>2330</ele><time>2022-09-04T12:31:20Z</time></trkpt>
    <trkpt lat="47.23842" lon="11.04550"><ele>2331</ele><time>2022-09-04T12:31:39Z</time></trkpt>
    <trkpt lat="47.23852" lon="11.04532"><ele>2326</ele><time>2022-09-04T12:31:57Z</time></trkpt>
    <trkpt lat="47.23864" lon="11.04512"><ele>2325</ele><time>2022-09-04T12:32:15Z</time></trkpt>
    <trkpt lat="47.23860" lon="11.04497"><ele>2324</ele><time>2022-09-04T12:32:33Z</time></trkpt>
    <trkpt lat="47.23850" lon="11.04477"><ele>2319</ele><time>2022-09-04T12:33:11Z</time></trkpt>
    <trkpt lat="47.23835" lon="11.04479"><ele>2308</ele><time>2022-09-04T12:33:30Z</time></trkpt>
    <trkpt lat="47.23823" lon="11.04482"><ele>2310</ele><time>2022-09-04T12:33:49Z</time></trkpt>
    <trkpt lat="47.23825" lon="11.04464"><ele>2301</ele><time>2022-09-04T12:34:07Z</time></trkpt>
    <trkpt lat="47.23830" lon="11.04444"><ele>2297</ele><time>2022-09-04T12:34:26Z</time></trkpt>
    <trkpt lat="47.23824" lon="11.04430"><ele>2288</ele><time>2022-09-04T12:34:45Z</time></trkpt>
    <trkpt lat="47.23814" lon="11.04424"><ele>2289</ele><time>2022-09-04T12:35:04Z</time></trkpt>
    <trkpt lat="47.23807" lon="11.04414"><ele>2290</ele><time>2022-09-04T12:35:22Z</time></trkpt>
    <trkpt lat="47.23799" lon="11.04402"><ele>2286</ele><time>2022-09-04T12:35:41Z</time></trkpt>
    <trkpt lat="47.23799" lon="11.04389"><ele>2286</ele><time>2022-09-04T12:36:00Z</time></trkpt>
    <trkpt lat="47.23803" lon="11.04377"><ele>2281</ele><time>2022-09-04T12:36:18Z</time></trkpt>
    <trkpt lat="47.23792" lon="11.04375"><ele>2283</ele><time>2022-09-04T12:36:37Z</time></trkpt>
    <trkpt lat="47.23783" lon="11.04361"><ele>2270</ele><time>2022-09-04T12:37:18Z</time></trkpt>
    <trkpt lat="47.23765" lon="11.04359"><ele>2268</ele><time>2022-09-04T12:37:57Z</time></trkpt>
    <trkpt lat="47.23743" lon="11.04362"><ele>2256</ele><time>2022-09-04T12:38:38Z</time></trkpt>
    <trkpt lat="47.23748" lon="11.04339"><ele>2251</ele><time>2022-09-04T12:39:25Z</time></trkpt>
    <trkpt lat="47.23730" lon="11.04333"><ele>2255</ele><time>2022-09-04T12:40:02Z</time></trkpt>
    <trkpt lat="47.23711" lon="11.04339"><ele>2251</ele><time>2022-09-04T12:40:38Z</time></trkpt>
    <trkpt lat="47.23695" lon="11.04347"><ele>2239</ele><time>2022-09-04T12:41:18Z</time></trkpt>
    <trkpt lat="47.23685" lon="11.04337"><ele>2236</ele><time>2022-09-04T12:41:37Z</time></trkpt>
    <trkpt lat="47.23672" lon="11.04351"><ele>2227</ele><time>2022-09-04T12:41:55Z</time></trkpt>
    <trkpt lat="47.23660" lon="11.04361"><ele>2228</ele><time>2022-09-04T12:42:14Z</time></trkpt>
    <trkpt lat="47.23640" lon="11.04361"><ele>2226</ele><time>2022-09-04T12:42:33Z</time></trkpt>
    <trkpt lat="47.23623" lon="11.04361"><ele>2208</ele><time>2022-09-04T12:44:23Z</time></trkpt>
    <trkpt lat="47.23610" lon="11.04371"><ele>2208</ele><time>2022-09-04T12:44:41Z</time></trkpt>
    <trkpt lat="47.23597" lon="11.04378"><ele>2206</ele><time>2022-09-04T12:45:00Z</time></trkpt>
    <trkpt lat="47.23582" lon="11.04393"><ele>2200</ele><time>2022-09-04T12:45:37Z</time></trkpt>
    <trkpt lat="47.23572" lon="11.04404"><ele>2202</ele><time>2022-09-04T12:45:56Z</time></trkpt>
    <trkpt lat="47.23559" lon="11.04414"><ele>2203</ele><time>2022-09-04T12:46:14Z</time></trkpt>
    <trkpt lat="47.23554" lon="11.04435"><ele>2200</ele><time>2022-09-04T12:46:33Z</time></trkpt>
    <trkpt lat="47.23522" lon="11.04456"><ele>2190</ele><time>2022-09-04T12:47:32Z</time></trkpt>
    <trkpt lat="47.23504" lon="11.04463"><ele>2182</ele><time>2022-09-04T12:48:14Z</time></trkpt>
    <trkpt lat="47.23476" lon="11.04468"><ele>2153</ele><time>2022-09-04T12:49:12Z</time></trkpt>
    <trkpt lat="47.23460" lon="11.04478"><ele>2149</ele><time>2022-09-04T12:49:58Z</time></trkpt>
    <trkpt lat="47.23459" lon="11.04495"><ele>2144</ele><time>2022-09-04T12:50:16Z</time></trkpt>
    <trkpt lat="47.23453" lon="11.04512"><ele>2144</ele><time>2022-09-04T12:50:35Z</time></trkpt>
    <trkpt lat="47.23448" lon="11.04526"><ele>2142</ele><time>2022-09-04T12:50:54Z</time></trkpt>
    <trkpt lat="47.23445" lon="11.04544"><ele>2135</ele><time>2022-09-04T12:51:12Z</time></trkpt>
    <trkpt lat="47.23437" lon="11.04566"><ele>2130</ele><time>2022-09-04T12:51:31Z</time></trkpt>
    <trkpt lat="47.23424" lon="11.04576"><ele>2131</ele><time>2022-09-04T12:51:50Z</time></trkpt>
    <trkpt lat="47.23416" lon="11.04593"><ele>2114</ele><time>2022-09-04T12:52:09Z</time></trkpt>
    <trkpt lat="47.23400" lon="11.04609"><ele>2120</ele><time>2022-09-04T12:52:28Z</time></trkpt>
    <trkpt lat="47.23395" lon="11.04637"><ele>2118</ele><time>2022-09-04T12:52:46Z</time></trkpt>
    <trkpt lat="47.23382" lon="11.04662"><ele>2115</ele><time>2022-09-04T12:53:05Z</time></trkpt>
    <trkpt lat="47.23368" lon="11.04674"><ele>2118</ele><time>2022-09-04T12:53:24Z</time></trkpt>
    <trkpt lat="47.23361" lon="11.04695"><ele>2113</ele><time>2022-09-04T12:53:42Z</time></trkpt>
    <trkpt lat="47.23355" lon="11.04717"><ele>2119</ele><time>2022-09-04T12:54:01Z</time></trkpt>
    <trkpt lat="47.23346" lon="11.04733"><ele>2108</ele><time>2022-09-04T12:54:20Z</time></trkpt>
    <trkpt lat="47.23334" lon="11.04746"><ele>2100</ele><time>2022-09-04T12:54:39Z</time></trkpt>
    <trkpt lat="47.23326" lon="11.04761"><ele>2093</ele><time>2022-09-04T12:54:57Z</time></trkpt>
    <trkpt lat="47.23306" lon="11.04762"><ele>2093</ele><time>2022-09-04T12:55:15Z</time></trkpt>
    <trkpt lat="47.23290" lon="11.04765"><ele>2093</ele><time>2022-09-04T12:55:34Z</time></trkpt>
    <trkpt lat="47.23285" lon="11.04795"><ele>2106</ele><time>2022-09-04T12:55:53Z</time></trkpt>
    <trkpt lat="47.23279" lon="11.04820"><ele>2090</ele><time>2022-09-04T12:56:12Z</time></trkpt>
    <trkpt lat="47.23276" lon="11.04844"><ele>2093</ele><time>2022-09-04T12:56:31Z</time></trkpt>
    <trkpt lat="47.23269" lon="11.04868"><ele>2092</ele><time>2022-09-04T12:56:49Z</time></trkpt>
    <trkpt lat="47.23261" lon="11.04889"><ele>2101</ele><time>2022-09-04T12:57:08Z</time></trkpt>
    <trkpt lat="47.23245" lon="11.04906"><ele>2096</ele><time>2022-09-04T12:57:27Z</time></trkpt>
    <trkpt lat="47.23232" lon="11.04932"><ele>2096</ele><time>2022-09-04T12:57:46Z</time></trkpt>
    <trkpt lat="47.23218" lon="11.04941"><ele>2095</ele><time>2022-09-04T12:58:04Z</time></trkpt>
    <trkpt lat="47.23197" lon="11.04927"><ele>2092</ele><time>2022-09-04T12:58:22Z</time></trkpt>
    <trkpt lat="47.23178" lon="11.04916"><ele>2088</ele><time>2022-09-04T12:58:40Z</time></trkpt>
    <trkpt lat="47.23156" lon="11.04919"><ele>2073</ele><time>2022-09-04T12:58:59Z</time></trkpt>
    <trkpt lat="47.23141" lon="11.04934"><ele>2069</ele><time>2022-09-04T12:59:18Z</time></trkpt>
    <trkpt lat="47.23142" lon="11.04957"><ele>2064</ele><time>2022-09-04T12:59:41Z</time></trkpt>
    <trkpt lat="47.23139" lon="11.04985"><ele>2062</ele><time>2022-09-04T12:59:59Z</time></trkpt>
    <trkpt lat="47.23137" lon="11.05008"><ele>2058</ele><time>2022-09-04T13:00:17Z</time></trkpt>
    <trkpt lat="47.23115" lon="11.05029"><ele>2056</ele><time>2022-09-04T13:00:54Z</time></trkpt>
    <trkpt lat="47.23103" lon="11.05061"><ele>2053</ele><time>2022-09-04T13:01:12Z</time></trkpt>
    <trkpt lat="47.23081" lon="11.05075"><ele>2050</ele><time>2022-09-04T13:01:31Z</time></trkpt>
    <trkpt lat="47.23058" lon="11.05093"><ele>2047</ele><time>2022-09-04T13:01:49Z</time></trkpt>
    <trkpt lat="47.23040" lon="11.05122"><ele>2046</ele><time>2022-09-04T13:02:08Z</time></trkpt>
    <trkpt lat="47.23021" lon="11.05141"><ele>2046</ele><time>2022-09-04T13:02:27Z</time></trkpt>
    <trkpt lat="47.23010" lon="11.05175"><ele>2037</ele><time>2022-09-04T13:02:46Z</time></trkpt>
    <trkpt lat="47.22992" lon="11.05198"><ele>2034</ele><time>2022-09-04T13:03:04Z</time></trkpt>
    <trkpt lat="47.22966" lon="11.05216"><ele>2038</ele><time>2022-09-04T13:03:23Z</time></trkpt>
    <trkpt lat="47.22940" lon="11.05233"><ele>2037</ele><time>2022-09-04T13:03:42Z</time></trkpt>
    <trkpt lat="47.22912" lon="11.05238"><ele>2032</ele><time>2022-09-04T13:04:00Z</time></trkpt>
    <trkpt lat="47.22883" lon="11.05255"><ele>2031</ele><time>2022-09-04T13:04:19Z</time></trkpt>
    <trkpt lat="47.22860" lon="11.05271"><ele>2030</ele><time>2022-09-04T13:04:37Z</time></trkpt>
    <trkpt lat="47.22832" lon="11.05274"><ele>2028</ele><time>2022-09-04T13:04:56Z</time></trkpt>
    <trkpt lat="47.22805" lon="11.05283"><ele>2025</ele><time>2022-09-04T13:05:15Z</time></trkpt>
    <trkpt lat="47.22781" lon="11.05297"><ele>2025</ele><time>2022-09-04T13:05:34Z</time></trkpt>
    <trkpt lat="47.22760" lon="11.05320"><ele>2023</ele><time>2022-09-04T13:05:52Z</time></trkpt>
    <trkpt lat="47.22733" lon="11.05330"><ele>2021</ele><time>2022-09-04T13:06:10Z</time></trkpt>
    <trkpt lat="47.22704" lon="11.05320"><ele>2011</ele><time>2022-09-04T13:06:29Z</time></trkpt>
    <trkpt lat="47.22681" lon="11.05316"><ele>2008</ele><time>2022-09-04T13:06:48Z</time></trkpt>
    <trkpt lat="47.22659" lon="11.05312"><ele>2005</ele><time>2022-09-04T13:07:06Z</time></trkpt>
    <trkpt lat="47.22637" lon="11.05303"><ele>2000</ele><time>2022-09-04T13:07:25Z</time></trkpt>
    <trkpt lat="47.22614" lon="11.05297"><ele>1999</ele><time>2022-09-04T13:07:43Z</time></trkpt>
    <trkpt lat="47.22595" lon="11.05282"><ele>1994</ele><time>2022-09-04T13:08:01Z</time></trkpt>
    <trkpt lat="47.22574" lon="11.05277"><ele>1990</ele><time>2022-09-04T13:08:20Z</time></trkpt>
    <trkpt lat="47.22558" lon="11.05284"><ele>1987</ele><time>2022-09-04T13:08:39Z</time></trkpt>
    <trkpt lat="47.22576" lon="11.05300"><ele>1982</ele><time>2022-09-04T13:08:58Z</time></trkpt>
    <trkpt lat="47.22587" lon="11.05326"><ele>1982</ele><time>2022-09-04T13:12:42Z</time></trkpt>
    <trkpt lat="47.22595" lon="11.05349"><ele>1978</ele><time>2022-09-04T13:14:14Z</time></trkpt>
    <trkpt lat="47.22608" lon="11.05369"><ele>1976</ele><time>2022-09-04T13:14:32Z</time></trkpt>
    <trkpt lat="47.22586" lon="11.05355"><ele>1971</ele><time>2022-09-04T13:15:09Z</time></trkpt>
    <trkpt lat="47.22566" lon="11.05345"><ele>1970</ele><time>2022-09-04T13:15:28Z</time></trkpt>
    <trkpt lat="47.22546" lon="11.05352"><ele>1966</ele><time>2022-09-04T13:15:46Z</time></trkpt>
    <trkpt lat="47.22525" lon="11.05361"><ele>1962</ele><time>2022-09-04T13:16:05Z</time></trkpt>
    <trkpt lat="47.22511" lon="11.05358"><ele>1957</ele><time>2022-09-04T13:16:23Z</time></trkpt>
    <trkpt lat="47.22498" lon="11.05337"><ele>1958</ele><time>2022-09-04T13:16:41Z</time></trkpt>
    <trkpt lat="47.22487" lon="11.05312"><ele>1957</ele><time>2022-09-04T13:17:00Z</time></trkpt>
    <trkpt lat="47.22472" lon="11.05287"><ele>1948</ele><time>2022-09-04T13:17:19Z</time></trkpt>
    <trkpt lat="47.22461" lon="11.05262"><ele>1947</ele><time>2022-09-04T13:17:38Z</time></trkpt>
    <trkpt lat="47.22446" lon="11.05236"><ele>1948</ele><time>2022-09-04T13:17:56Z</time></trkpt>
    <trkpt lat="47.22439" lon="11.05213"><ele>1939</ele><time>2022-09-04T13:18:15Z</time></trkpt>
    <trkpt lat="47.22422" lon="11.05179"><ele>1934</ele><time>2022-09-04T13:18:34Z</time></trkpt>
    <trkpt lat="47.22409" lon="11.05159"><ele>1935</ele><time>2022-09-04T13:18:52Z</time></trkpt>
    <trkpt lat="47.22394" lon="11.05137"><ele>1932</ele><time>2022-09-04T13:19:11Z</time></trkpt>
    <trkpt lat="47.22382" lon="11.05115"><ele>1928</ele><time>2022-09-04T13:19:30Z</time></trkpt>
    <trkpt lat="47.22362" lon="11.05083"><ele>1926</ele><time>2022-09-04T13:20:19Z</time></trkpt>
    <trkpt lat="47.22349" lon="11.05054"><ele>1923</ele><time>2022-09-04T13:20:37Z</time></trkpt>
    <trkpt lat="47.22346" lon="11.05027"><ele>1921</ele><time>2022-09-04T13:20:56Z</time></trkpt>
    <trkpt lat="47.22340" lon="11.05006"><ele>1921</ele><time>2022-09-04T13:21:14Z</time></trkpt>
    <trkpt lat="47.22330" lon="11.04984"><ele>1921</ele><time>2022-09-04T13:21:33Z</time></trkpt>
    <trkpt lat="47.22316" lon="11.04962"><ele>1925</ele><time>2022-09-04T13:21:51Z</time></trkpt>
    <trkpt lat="47.22308" lon="11.04940"><ele>1926</ele><time>2022-09-04T13:22:10Z</time></trkpt>
    <trkpt lat="47.22303" lon="11.04920"><ele>1927</ele><time>2022-09-04T13:22:28Z</time></trkpt>
    <trkpt lat="47.22295" lon="11.04899"><ele>1929</ele><time>2022-09-04T13:22:46Z</time></trkpt>
    <trkpt lat="47.22290" lon="11.04880"><ele>1930</ele><time>2022-09-04T13:23:04Z</time></trkpt>
    <trkpt lat="47.22278" lon="11.04863"><ele>1932</ele><time>2022-09-04T13:23:23Z</time></trkpt>
    <trkpt lat="47.22267" lon="11.04846"><ele>1934</ele><time>2022-09-04T13:23:41Z</time></trkpt>
    <trkpt lat="47.22255" lon="11.04828"><ele>1932</ele><time>2022-09-04T13:24:00Z</time></trkpt>
    <trkpt lat="47.22244" lon="11.04808"><ele>1933</ele><time>2022-09-04T13:24:18Z</time></trkpt>
    <trkpt lat="47.22230" lon="11.04788"><ele>1935</ele><time>2022-09-04T13:24:37Z</time></trkpt>
    <trkpt lat="47.22216" lon="11.04771"><ele>1938</ele><time>2022-09-04T13:24:55Z</time></trkpt>
    <trkpt lat="47.22202" lon="11.04755"><ele>1940</ele><time>2022-09-04T13:25:13Z</time></trkpt>
    <trkpt lat="47.22181" lon="11.04746"><ele>1943</ele><time>2022-09-04T13:25:32Z</time></trkpt>
    <trkpt lat="47.22171" lon="11.04735"><ele>1944</ele><time>2022-09-04T13:25:50Z</time></trkpt>
    <trkpt lat="47.22167" lon="11.04708"><ele>1945</ele><time>2022-09-04T13:26:08Z</time></trkpt>
    <trkpt lat="47.22155" lon="11.04706"><ele>1944</ele><time>2022-09-04T13:26:27Z</time></trkpt>
    <trkpt lat="47.22142" lon="11.04694"><ele>1946</ele><time>2022-09-04T13:26:45Z</time></trkpt>
    <trkpt lat="47.22140" lon="11.04711"><ele>1945</ele><time>2022-09-04T13:28:38Z</time></trkpt>
    <trkpt lat="47.22127" lon="11.04681"><ele>1945</ele><time>2022-09-04T13:29:22Z</time></trkpt>
    <trkpt lat="47.22111" lon="11.04673"><ele>1942</ele><time>2022-09-04T13:29:41Z</time></trkpt>
  </trkseg>
</trk>
</gpx>