<?xml version="1.0" encoding="UTF-8"?>
<gpx version="1.1" creator="GPX-Pro" xmlns="http://www.topografix.com/GPX/1/1">
<trk>
  <name>Brieglersberg SO Suniwel</name>
  <trkseg>
    <trkpt lat="47.64422" lon="14.09198"><ele>754</ele><time>2022-10-10T06:02:21Z</time></trkpt>
    <trkpt lat="47.64427" lon="14.09176"><ele>735</ele><time>2022-10-10T06:02:40Z</time></trkpt>
    <trkpt lat="47.64427" lon="14.09146"><ele>723</ele><time>2022-10-10T06:02:58Z</time></trkpt>
    <trkpt lat="47.64433" lon="14.09119"><ele>725</ele><time>2022-10-10T06:03:17Z</time></trkpt>
    <trkpt lat="47.64428" lon="14.09081"><ele>716</ele><time>2022-10-10T06:03:35Z</time></trkpt>
    <trkpt lat="47.64418" lon="14.09052"><ele>714</ele><time>2022-10-10T06:03:54Z</time></trkpt>
    <trkpt lat="47.64412" lon="14.09026"><ele>717</ele><time>2022-10-10T06:04:13Z</time></trkpt>
    <trkpt lat="47.64398" lon="14.09000"><ele>718</ele><time>2022-10-10T06:04:31Z</time></trkpt>
    <trkpt lat="47.64383" lon="14.08968"><ele>713</ele><time>2022-10-10T06:04:49Z</time></trkpt>
    <trkpt lat="47.64369" lon="14.08941"><ele>719</ele><time>2022-10-10T06:05:08Z</time></trkpt>
    <trkpt lat="47.64350" lon="14.08922"><ele>729</ele><time>2022-10-10T06:05:27Z</time></trkpt>
    <trkpt lat="47.64338" lon="14.08908"><ele>732</ele><time>2022-10-10T06:05:45Z</time></trkpt>
    <trkpt lat="47.64328" lon="14.08892"><ele>736</ele><time>2022-10-10T06:06:03Z</time></trkpt>
    <trkpt lat="47.64318" lon="14.08877"><ele>742</ele><time>2022-10-10T06:06:21Z</time></trkpt>
    <trkpt lat="47.64309" lon="14.08859"><ele>743</ele><time>2022-10-10T06:06:40Z</time></trkpt>
    <trkpt lat="47.64320" lon="14.08843"><ele>736</ele><time>2022-10-10T06:06:59Z</time></trkpt>
    <trkpt lat="47.64319" lon="14.08821"><ele>739</ele><time>2022-10-10T06:07:17Z</time></trkpt>
    <trkpt lat="47.64315" lon="14.08806"><ele>749</ele><time>2022-10-10T06:07:35Z</time></trkpt>
    <trkpt lat="47.64308" lon="14.08794"><ele>753</ele><time>2022-10-10T06:07:53Z</time></trkpt>
    <trkpt lat="47.64298" lon="14.08783"><ele>754</ele><time>2022-10-10T06:08:11Z</time></trkpt>
    <trkpt lat="47.64290" lon="14.08778"><ele>764</ele><time>2022-10-10T06:08:30Z</time></trkpt>
    <trkpt lat="47.64286" lon="14.08754"><ele>757</ele><time>2022-10-10T06:08:48Z</time></trkpt>
    <trkpt lat="47.64280" lon="14.08721"><ele>757</ele><time>2022-10-10T06:09:06Z</time></trkpt>
    <trkpt lat="47.64270" lon="14.08695"><ele>763</ele><time>2022-10-10T06:09:25Z</time></trkpt>
    <trkpt lat="47.64254" lon="14.08673"><ele>760</ele><time>2022-10-10T06:09:43Z</time></trkpt>
    <trkpt lat="47.64244" lon="14.08648"><ele>758</ele><time>2022-10-10T06:10:02Z</time></trkpt>
    <trkpt lat="47.64233" lon="14.08623"><ele>760</ele><time>2022-10-10T06:10:21Z</time></trkpt>
    <trkpt lat="47.64217" lon="14.08600"><ele>771</ele><time>2022-10-10T06:10:39Z</time></trkpt>
    <trkpt lat="47.64205" lon="14.08580"><ele>775</ele><time>2022-10-10T06:10:58Z</time></trkpt>
    <trkpt lat="47.64191" lon="14.08557"><ele>776</ele><time>2022-10-10T06:11:17Z</time></trkpt>
    <trkpt lat="47.64174" lon="14.08554"><ele>775</ele><time>2022-10-10T06:11:35Z</time></trkpt>
    <trkpt lat="47.64151" lon="14.08553"><ele>785</ele><time>2022-10-10T06:11:53Z</time></trkpt>
    <trkpt lat="47.64132" lon="14.08554"><ele>788</ele><time>2022-10-10T06:12:12Z</time></trkpt>
    <trkpt lat="47.64111" lon="14.08555"><ele>790</ele><time>2022-10-10T06:12:31Z</time></trkpt>
    <trkpt lat="47.64091" lon="14.08561"><ele>796</ele><time>2022-10-10T06:12:49Z</time></trkpt>
    <trkpt lat="47.64072" lon="14.08562"><ele>798</ele><time>2022-10-10T06:13:07Z</time></trkpt>
    <trkpt lat="47.64052" lon="14.08560"><ele>795</ele><time>2022-10-10T06:13:26Z</time></trkpt>
    <trkpt lat="47.64033" lon="14.08553"><ele>793</ele><time>2022-10-10T06:13:44Z</time></trkpt>
    <trkpt lat="47.64009" lon="14.08554"><ele>797</ele><time>2022-10-10T06:14:03Z</time></trkpt>
    <trkpt lat="47.63990" lon="14.08555"><ele>799</ele><time>2022-10-10T06:14:21Z</time></trkpt>
    <trkpt lat="47.63972" lon="14.08538"><ele>792</ele><time>2022-10-10T06:14:40Z</time></trkpt>
    <trkpt lat="47.63956" lon="14.08524"><ele>783</ele><time>2022-10-10T06:14:59Z</time></trkpt>
    <trkpt lat="47.63937" lon="14.08517"><ele>797</ele><time>2022-10-10T06:15:17Z</time></trkpt>
    <trkpt lat="47.63918" lon="14.08504"><ele>801</ele><time>2022-10-10T06:15:36Z</time></trkpt>
    <trkpt lat="47.63900" lon="14.08492"><ele>798</ele><time>2022-10-10T06:15:55Z</time></trkpt>
    <trkpt lat="47.63879" lon="14.08484"><ele>811</ele><time>2022-10-10T06:16:13Z</time></trkpt>
    <trkpt lat="47.63867" lon="14.08470"><ele>817</ele><time>2022-10-10T06:16:32Z</time></trkpt>
    <trkpt lat="47.63858" lon="14.08449"><ele>820</ele><time>2022-10-10T06:16:50Z</time></trkpt>
    <trkpt lat="47.63849" lon="14.08432"><ele>820</ele><time>2022-10-10T06:17:08Z</time></trkpt>
    <trkpt lat="47.63839" lon="14.08408"><ele>823</ele><time>2022-10-10T06:17:26Z</time></trkpt>
    <trkpt lat="47.63830" lon="14.08389"><ele>820</ele><time>2022-10-10T06:17:45Z</time></trkpt>
    <trkpt lat="47.63825" lon="14.08365"><ele>825</ele><time>2022-10-10T06:18:03Z</time></trkpt>
    <trkpt lat="47.63808" lon="14.08344"><ele>822</ele><time>2022-10-10T06:18:22Z</time></trkpt>
    <trkpt lat="47.63797" lon="14.08321"><ele>827</ele><time>2022-10-10T06:18:41Z</time></trkpt>
    <trkpt lat="47.63790" lon="14.08301"><ele>833</ele><time>2022-10-10T06:19:00Z</time></trkpt>
    <trkpt lat="47.63785" lon="14.08274"><ele>836</ele><time>2022-10-10T06:19:19Z</time></trkpt>
    <trkpt lat="47.63776" lon="14.08244"><ele>836</ele><time>2022-10-10T06:19:38Z</time></trkpt>
    <trkpt lat="47.63763" lon="14.08230"><ele>839</ele><time>2022-10-10T06:19:57Z</time></trkpt>
    <trkpt lat="47.63755" lon="14.08221"><ele>839</ele><time>2022-10-10T06:20:15Z</time></trkpt>
    <trkpt lat="47.63743" lon="14.08222"><ele>845</ele><time>2022-10-10T06:20:33Z</time></trkpt>
    <trkpt lat="47.63731" lon="14.08209"><ele>846</ele><time>2022-10-10T06:20:51Z</time></trkpt>
    <trkpt lat="47.63719" lon="14.08202"><ele>852</ele><time>2022-10-10T06:21:09Z</time></trkpt>
    <trkpt lat="47.63709" lon="14.08189"><ele>858</ele><time>2022-10-10T06:21:28Z</time></trkpt>
    <trkpt lat="47.63700" lon="14.08175"><ele>855</ele><time>2022-10-10T06:21:47Z</time></trkpt>
    <trkpt lat="47.63689" lon="14.08163"><ele>857</ele><time>2022-10-10T06:22:06Z</time></trkpt>
    <trkpt lat="47.63687" lon="14.08144"><ele>858</ele><time>2022-10-10T06:22:24Z</time></trkpt>
    <trkpt lat="47.63668" lon="14.08126"><ele>868</ele><time>2022-10-10T06:23:20Z</time></trkpt>
    <trkpt lat="47.63663" lon="14.08110"><ele>883</ele><time>2022-10-10T06:23:38Z</time></trkpt>
    <trkpt lat="47.63648" lon="14.08095"><ele>879</ele><time>2022-10-10T06:24:17Z</time></trkpt>
    <trkpt lat="47.63635" lon="14.08086"><ele>886</ele><time>2022-10-10T06:24:36Z</time></trkpt>
    <trkpt lat="47.63623" lon="14.08083"><ele>886</ele><time>2022-10-10T06:24:54Z</time></trkpt>
    <trkpt lat="47.63606" lon="14.08080"><ele>900</ele><time>2022-10-10T06:25:31Z</time></trkpt>
    <trkpt lat="47.63594" lon="14.08083"><ele>901</ele><time>2022-10-10T06:25:50Z</time></trkpt>
    <trkpt lat="47.63577" lon="14.08074"><ele>905</ele><time>2022-10-10T06:26:28Z</time></trkpt>
    <trkpt lat="47.63569" lon="14.08065"><ele>909</ele><time>2022-10-10T06:26:47Z</time></trkpt>
    <trkpt lat="47.63550" lon="14.08052"><ele>918</ele><time>2022-10-10T06:27:25Z</time></trkpt>
    <trkpt lat="47.63542" lon="14.08046"><ele>921</ele><time>2022-10-10T06:27:43Z</time></trkpt>
    <trkpt lat="47.63536" lon="14.08035"><ele>924</ele><time>2022-10-10T06:28:02Z</time></trkpt>
    <trkpt lat="47.63529" lon="14.08024"><ele>926</ele><time>2022-10-10T06:28:20Z</time></trkpt>
    <trkpt lat="47.63521" lon="14.08014"><ele>925</ele><time>2022-10-10T06:28:39Z</time></trkpt>
    <trkpt lat="47.63504" lon="14.08000"><ele>930</ele><time>2022-10-10T06:29:22Z</time></trkpt>
    <trkpt lat="47.63495" lon="14.07995"><ele>939</ele><time>2022-10-10T06:29:41Z</time></trkpt>
    <trkpt lat="47.63481" lon="14.07984"><ele>942</ele><time>2022-10-10T06:30:21Z</time></trkpt>
    <trkpt lat="47.63473" lon="14.07966"><ele>941</ele><time>2022-10-10T06:30:40Z</time></trkpt>
    <trkpt lat="47.63464" lon="14.07946"><ele>945</ele><time>2022-10-10T06:31:24Z</time></trkpt>
    <trkpt lat="47.63447" lon="14.07939"><ele>947</ele><time>2022-10-10T06:32:08Z</time></trkpt>
    <trkpt lat="47.63437" lon="14.07915"><ele>957</ele><time>2022-10-10T06:32:48Z</time></trkpt>
    <trkpt lat="47.63428" lon="14.07912"><ele>961</ele><time>2022-10-10T06:33:06Z</time></trkpt>
    <trkpt lat="47.63411" lon="14.07903"><ele>964</ele><time>2022-10-10T06:33:44Z</time></trkpt>
    <trkpt lat="47.63400" lon="14.07892"><ele>964</ele><time>2022-10-10T06:34:03Z</time></trkpt>
    <trkpt lat="47.63391" lon="14.07880"><ele>970</ele><time>2022-10-10T06:34:22Z</time></trkpt>
    <trkpt lat="47.63378" lon="14.07865"><ele>977</ele><time>2022-10-10T06:35:08Z</time></trkpt>
    <trkpt lat="47.63373" lon="14.07849"><ele>969</ele><time>2022-10-10T06:35:26Z</time></trkpt>
    <trkpt lat="47.63364" lon="14.07834"><ele>979</ele><time>2022-10-10T06:35:45Z</time></trkpt>
    <trkpt lat="47.63355" lon="14.07824"><ele>983</ele><time>2022-10-10T06:36:03Z</time></trkpt>
    <trkpt lat="47.63345" lon="14.07822"><ele>986</ele><time>2022-10-10T06:36:22Z</time></trkpt>
    <trkpt lat="47.63337" lon="14.07809"><ele>985</ele><time>2022-10-10T06:36:40Z</time></trkpt>
    <trkpt lat="47.63327" lon="14.07810"><ele>987</ele><time>2022-10-10T06:36:59Z</time></trkpt>
    <trkpt lat="47.63310" lon="14.07812"><ele>966</ele><time>2022-10-10T06:37:36Z</time></trkpt>
    <trkpt lat="47.63298" lon="14.07811"><ele>972</ele><time>2022-10-10T06:37:55Z</time></trkpt>
    <trkpt lat="47.63282" lon="14.07819"><ele>1007</ele><time>2022-10-10T06:38:32Z</time></trkpt>
    <trkpt lat="47.63275" lon="14.07833"><ele>1005</ele><time>2022-10-10T06:38:50Z</time></trkpt>
    <trkpt lat="47.63256" lon="14.07841"><ele>1009</ele><time>2022-10-10T06:39:29Z</time></trkpt>
    <trkpt lat="47.63251" lon="14.07823"><ele>1008</ele><time>2022-10-10T06:39:48Z</time></trkpt>
    <trkpt lat="47.63241" lon="14.07810"><ele>1008</ele><time>2022-10-10T06:40:06Z</time></trkpt>
    <trkpt lat="47.63229" lon="14.07793"><ele>1017</ele><time>2022-10-10T06:41:58Z</time></trkpt>
    <trkpt lat="47.63218" lon="14.07777"><ele>1015</ele><time>2022-10-10T06:42:16Z</time></trkpt>
    <trkpt lat="47.63206" lon="14.07762"><ele>1029</ele><time>2022-10-10T06:42:35Z</time></trkpt>
    <trkpt lat="47.63196" lon="14.07747"><ele>1007</ele><time>2022-10-10T06:42:53Z</time></trkpt>
    <trkpt lat="47.63194" lon="14.07718"><ele>1034</ele><time>2022-10-10T06:43:12Z</time></trkpt>
    <trkpt lat="47.63192" lon="14.07696"><ele>1035</ele><time>2022-10-10T06:43:30Z</time></trkpt>
    <trkpt lat="47.63197" lon="14.07669"><ele>1049</ele><time>2022-10-10T06:43:49Z</time></trkpt>
    <trkpt lat="47.63192" lon="14.07648"><ele>1005</ele><time>2022-10-10T06:44:07Z</time></trkpt>
    <trkpt lat="47.63176" lon="14.07631"><ele>1040</ele><time>2022-10-10T06:44:26Z</time></trkpt>
    <trkpt lat="47.63158" lon="14.07613"><ele>1047</ele><time>2022-10-10T06:44:45Z</time></trkpt>
    <trkpt lat="47.63137" lon="14.07599"><ele>1049</ele><time>2022-10-10T06:45:03Z</time></trkpt>
    <trkpt lat="47.63119" lon="14.07589"><ele>1050</ele><time>2022-10-10T06:45:21Z</time></trkpt>
    <trkpt lat="47.63104" lon="14.07585"><ele>1049</ele><time>2022-10-10T06:45:40Z</time></trkpt>
    <trkpt lat="47.63093" lon="14.07566"><ele>1040</ele><time>2022-10-10T06:45:59Z</time></trkpt>
    <trkpt lat="47.63089" lon="14.07535"><ele>1045</ele><time>2022-10-10T06:46:18Z</time></trkpt>
    <trkpt lat="47.63080" lon="14.07504"><ele>999</ele><time>2022-10-10T06:46:36Z</time></trkpt>
    <trkpt lat="47.63077" lon="14.07475"><ele>1049</ele><time>2022-10-10T06:46:54Z</time></trkpt>
    <trkpt lat="47.63061" lon="14.07462"><ele>1029</ele><time>2022-10-10T06:47:13Z</time></trkpt>
    <trkpt lat="47.63037" lon="14.07445"><ele>1057</ele><time>2022-10-10T06:47:53Z</time></trkpt>
    <trkpt lat="47.63023" lon="14.07430"><ele>1061</ele><time>2022-10-10T06:48:12Z</time></trkpt>
    <trkpt lat="47.63004" lon="14.07416"><ele>1060</ele><time>2022-10-10T06:48:31Z</time></trkpt>
    <trkpt lat="47.62986" lon="14.07402"><ele>1060</ele><time>2022-10-10T06:48:49Z</time></trkpt>
    <trkpt lat="47.62968" lon="14.07383"><ele>1059</ele><time>2022-10-10T06:49:07Z</time></trkpt>
    <trkpt lat="47.62950" lon="14.07363"><ele>1060</ele><time>2022-10-10T06:49:26Z</time></trkpt>
    <trkpt lat="47.62936" lon="14.07339"><ele>1062</ele><time>2022-10-10T06:49:45Z</time></trkpt>
    <trkpt lat="47.62925" lon="14.07311"><ele>1061</ele><time>2022-10-10T06:50:04Z</time></trkpt>
    <trkpt lat="47.62913" lon="14.07288"><ele>1066</ele><time>2022-10-10T06:50:22Z</time></trkpt>
    <trkpt lat="47.62896" lon="14.07271"><ele>1067</ele><time>2022-10-10T06:50:40Z</time></trkpt>
    <trkpt lat="47.62878" lon="14.07254"><ele>1071</ele><time>2022-10-10T06:50:59Z</time></trkpt>
    <trkpt lat="47.62859" lon="14.07239"><ele>1071</ele><time>2022-10-10T06:51:18Z</time></trkpt>
    <trkpt lat="47.62849" lon="14.07224"><ele>1070</ele><time>2022-10-10T06:51:37Z</time></trkpt>
    <trkpt lat="47.62845" lon="14.07236"><ele>1074</ele><time>2022-10-10T06:54:11Z</time></trkpt>
    <trkpt lat="47.62826" lon="14.07241"><ele>1075</ele><time>2022-10-10T06:54:29Z</time></trkpt>
    <trkpt lat="47.62812" lon="14.07256"><ele>1082</ele><time>2022-10-10T06:54:48Z</time></trkpt>
    <trkpt lat="47.62799" lon="14.07263"><ele>1064</ele><time>2022-10-10T06:55:06Z</time></trkpt>
    <trkpt lat="47.62784" lon="14.07279"><ele>1084</ele><time>2022-10-10T06:55:24Z</time></trkpt>
    <trkpt lat="47.62774" lon="14.07290"><ele>1063</ele><time>2022-10-10T06:55:42Z</time></trkpt>
    <trkpt lat="47.62762" lon="14.07289"><ele>1091</ele><time>2022-10-10T06:56:01Z</time></trkpt>
    <trkpt lat="47.62751" lon="14.07297"><ele>1069</ele><time>2022-10-10T06:56:19Z</time></trkpt>
    <trkpt lat="47.62735" lon="14.07296"><ele>1090</ele><time>2022-10-10T06:56:37Z</time></trkpt>
    <trkpt lat="47.62717" lon="14.07298"><ele>1091</ele><time>2022-10-10T06:56:56Z</time></trkpt>
    <trkpt lat="47.62703" lon="14.07299"><ele>1088</ele><time>2022-10-10T06:57:14Z</time></trkpt>
    <trkpt lat="47.62692" lon="14.07304"><ele>1091</ele><time>2022-10-10T06:57:32Z</time></trkpt>
    <trkpt lat="47.62677" lon="14.07312"><ele>1095</ele><time>2022-10-10T06:57:51Z</time></trkpt>
    <trkpt lat="47.62664" lon="14.07308"><ele>1094</ele><time>2022-10-10T06:58:09Z</time></trkpt>
    <trkpt lat="47.62650" lon="14.07303"><ele>1097</ele><time>2022-10-10T06:58:28Z</time></trkpt>
    <trkpt lat="47.62636" lon="14.07297"><ele>1099</ele><time>2022-10-10T06:58:46Z</time></trkpt>
    <trkpt lat="47.62624" lon="14.07298"><ele>1102</ele><time>2022-10-10T06:59:04Z</time></trkpt>
    <trkpt lat="47.62612" lon="14.07301"><ele>1101</ele><time>2022-10-10T06:59:22Z</time></trkpt>
    <trkpt lat="47.62602" lon="14.07298"><ele>1105</ele><time>2022-10-10T06:59:41Z</time></trkpt>
    <trkpt lat="47.62588" lon="14.07293"><ele>1092</ele><time>2022-10-10T07:00:00Z</time></trkpt>
    <trkpt lat="47.62576" lon="14.07274"><ele>1110</ele><time>2022-10-10T07:00:45Z</time></trkpt>
    <trkpt lat="47.62566" lon="14.07254"><ele>1116</ele><time>2022-10-10T07:01:39Z</time></trkpt>
    <trkpt lat="47.62552" lon="14.07242"><ele>1126</ele><time>2022-10-10T07:03:03Z</time></trkpt>
    <trkpt lat="47.62560" lon="14.07221"><ele>1143</ele><time>2022-10-10T07:04:06Z</time></trkpt>
    <trkpt lat="47.62548" lon="14.07210"><ele>1156</ele><time>2022-10-10T07:05:03Z</time></trkpt>
    <trkpt lat="47.62540" lon="14.07189"><ele>1159</ele><time>2022-10-10T07:05:58Z</time></trkpt>
    <trkpt lat="47.62527" lon="14.07174"><ele>1174</ele><time>2022-10-10T07:07:13Z</time></trkpt>
    <trkpt lat="47.62514" lon="14.07158"><ele>1186</ele><time>2022-10-10T07:08:17Z</time></trkpt>
    <trkpt lat="47.62500" lon="14.07145"><ele>1188</ele><time>2022-10-10T07:09:19Z</time></trkpt>
    <trkpt lat="47.62489" lon="14.07127"><ele>1207</ele><time>2022-10-10T07:10:15Z</time></trkpt>
    <trkpt lat="47.62480" lon="14.07137"><ele>1211</ele><time>2022-10-10T07:10:33Z</time></trkpt>
    <trkpt lat="47.62472" lon="14.07115"><ele>1221</ele><time>2022-10-10T07:11:36Z</time></trkpt>
    <trkpt lat="47.62453" lon="14.07106"><ele>1205</ele><time>2022-10-10T07:12:18Z</time></trkpt>
    <trkpt lat="47.62440" lon="14.07092"><ele>1212</ele><time>2022-10-10T07:13:10Z</time></trkpt>
    <trkpt lat="47.62426" lon="14.07080"><ele>1247</ele><time>2022-10-10T07:14:03Z</time></trkpt>
    <trkpt lat="47.62414" lon="14.07065"><ele>1249</ele><time>2022-10-10T07:14:44Z</time></trkpt>
    <trkpt lat="47.62398" lon="14.07070"><ele>1268</ele><time>2022-10-10T07:16:01Z</time></trkpt>
    <trkpt lat="47.62382" lon="14.07063"><ele>1279</ele><time>2022-10-10T07:17:15Z</time></trkpt>
    <trkpt lat="47.62367" lon="14.07060"><ele>1294</ele><time>2022-10-10T07:18:38Z</time></trkpt>
    <trkpt lat="47.62351" lon="14.07058"><ele>1302</ele><time>2022-10-10T07:19:36Z</time></trkpt>
    <trkpt lat="47.62335" lon="14.07053"><ele>1314</ele><time>2022-10-10T07:20:32Z</time></trkpt>
    <trkpt lat="47.62320" lon="14.07056"><ele>1324</ele><time>2022-10-10T07:21:37Z</time></trkpt>
    <trkpt lat="47.62304" lon="14.07051"><ele>1332</ele><time>2022-10-10T07:22:48Z</time></trkpt>
    <trkpt lat="47.62308" lon="14.07028"><ele>1335</ele><time>2022-10-10T07:23:27Z</time></trkpt>
    <trkpt lat="47.62314" lon="14.07016"><ele>1337</ele><time>2022-10-10T07:23:46Z</time></trkpt>
    <trkpt lat="47.62320" lon="14.07003"><ele>1338</ele><time>2022-10-10T07:24:04Z</time></trkpt>
    <trkpt lat="47.62327" lon="14.06981"><ele>1338</ele><time>2022-10-10T07:25:02Z</time></trkpt>
    <trkpt lat="47.62332" lon="14.06958"><ele>1338</ele><time>2022-10-10T07:25:39Z</time></trkpt>
    <trkpt lat="47.62340" lon="14.06943"><ele>1340</ele><time>2022-10-10T07:25:57Z</time></trkpt>
    <trkpt lat="47.62353" lon="14.06916"><ele>1339</ele><time>2022-10-10T07:26:36Z</time></trkpt>
    <trkpt lat="47.62358" lon="14.06905"><ele>1082</ele><time>2022-10-10T07:26:57Z</time></trkpt>
    <trkpt lat="47.62366" lon="14.06886"><ele>1344</ele><time>2022-10-10T07:27:44Z</time></trkpt>
    <trkpt lat="47.62366" lon="14.06872"><ele>1290</ele><time>2022-10-10T07:28:03Z</time></trkpt>
    <trkpt lat="47.62367" lon="14.06857"><ele>1352</ele><time>2022-10-10T07:28:40Z</time></trkpt>
    <trkpt lat="47.62362" lon="14.06844"><ele>1360</ele><time>2022-10-10T07:28:59Z</time></trkpt>
    <trkpt lat="47.62364" lon="14.06821"><ele>1263</ele><time>2022-10-10T07:29:47Z</time></trkpt>
    <trkpt lat="47.62370" lon="14.06801"><ele>1363</ele><time>2022-10-10T07:30:31Z</time></trkpt>
    <trkpt lat="47.62361" lon="14.06797"><ele>1341</ele><time>2022-10-10T07:30:50Z</time></trkpt>
    <trkpt lat="47.62357" lon="14.06774"><ele>1387</ele><time>2022-10-10T07:31:42Z</time></trkpt>
    <trkpt lat="47.62349" lon="14.06754"><ele>1310</ele><time>2022-10-10T07:32:22Z</time></trkpt>
    <trkpt lat="47.62343" lon="14.06731"><ele>1410</ele><time>2022-10-10T07:33:27Z</time></trkpt>
    <trkpt lat="47.62343" lon="14.06707"><ele>1361</ele><time>2022-10-10T07:34:20Z</time></trkpt>
    <trkpt lat="47.62336" lon="14.06685"><ele>1420</ele><time>2022-10-10T07:35:24Z</time></trkpt>
    <trkpt lat="47.62324" lon="14.06667"><ele>1429</ele><time>2022-10-10T07:36:06Z</time></trkpt>
    <trkpt lat="47.62317" lon="14.06646"><ele>1424</ele><time>2022-10-10T07:37:00Z</time></trkpt>
    <trkpt lat="47.62321" lon="14.06623"><ele>1440</ele><time>2022-10-10T07:38:03Z</time></trkpt>
    <trkpt lat="47.62324" lon="14.06599"><ele>1423</ele><time>2022-10-10T07:39:04Z</time></trkpt>
    <trkpt lat="47.62323" lon="14.06574"><ele>1424</ele><time>2022-10-10T07:39:59Z</time></trkpt>
    <trkpt lat="47.62316" lon="14.06551"><ele>1455</ele><time>2022-10-10T07:40:38Z</time></trkpt>
    <trkpt lat="47.62319" lon="14.06526"><ele>1464</ele><time>2022-10-10T07:41:40Z</time></trkpt>
    <trkpt lat="47.62312" lon="14.06503"><ele>1474</ele><time>2022-10-10T07:42:18Z</time></trkpt>
    <trkpt lat="47.62304" lon="14.06483"><ele>1489</ele><time>2022-10-10T07:43:23Z</time></trkpt>
    <trkpt lat="47.62310" lon="14.06461"><ele>1504</ele><time>2022-10-10T07:44:19Z</time></trkpt>
    <trkpt lat="47.62311" lon="14.06440"><ele>1523</ele><time>2022-10-10T07:45:17Z</time></trkpt>
    <trkpt lat="47.62301" lon="14.06423"><ele>1535</ele><time>2022-10-10T07:46:16Z</time></trkpt>
    <trkpt lat="47.62297" lon="14.06399"><ele>1553</ele><time>2022-10-10T07:47:19Z</time></trkpt>
    <trkpt lat="47.62304" lon="14.06377"><ele>1570</ele><time>2022-10-10T07:48:30Z</time></trkpt>
    <trkpt lat="47.62308" lon="14.06354"><ele>1579</ele><time>2022-10-10T07:49:14Z</time></trkpt>
    <trkpt lat="47.62295" lon="14.06338"><ele>1576</ele><time>2022-10-10T07:50:06Z</time></trkpt>
    <trkpt lat="47.62286" lon="14.06319"><ele>1579</ele><time>2022-10-10T07:50:59Z</time></trkpt>
    <trkpt lat="47.62272" lon="14.06305"><ele>1584</ele><time>2022-10-10T07:51:48Z</time></trkpt>
    <trkpt lat="47.62264" lon="14.06284"><ele>1588</ele><time>2022-10-10T07:52:40Z</time></trkpt>
    <trkpt lat="47.62255" lon="14.06264"><ele>1582</ele><time>2022-10-10T07:53:25Z</time></trkpt>
    <trkpt lat="47.62247" lon="14.06243"><ele>1591</ele><time>2022-10-10T07:54:09Z</time></trkpt>
    <trkpt lat="47.62237" lon="14.06222"><ele>1596</ele><time>2022-10-10T07:55:29Z</time></trkpt>
    <trkpt lat="47.62228" lon="14.06201"><ele>1605</ele><time>2022-10-10T07:56:35Z</time></trkpt>
    <trkpt lat="47.62222" lon="14.06180"><ele>1611</ele><time>2022-10-10T07:57:49Z</time></trkpt>
    <trkpt lat="47.62227" lon="14.06167"><ele>1616</ele><time>2022-10-10T07:58:08Z</time></trkpt>
    <trkpt lat="47.62227" lon="14.06153"><ele>1613</ele><time>2022-10-10T07:58:26Z</time></trkpt>
    <trkpt lat="47.62223" lon="14.06130"><ele>1616</ele><time>2022-10-10T07:59:35Z</time></trkpt>
    <trkpt lat="47.62226" lon="14.06105"><ele>1621</ele><time>2022-10-10T08:00:18Z</time></trkpt>
    <trkpt lat="47.62225" lon="14.06081"><ele>1626</ele><time>2022-10-10T08:03:13Z</time></trkpt>
    <trkpt lat="47.62235" lon="14.06054"><ele>1626</ele><time>2022-10-10T08:04:07Z</time></trkpt>
    <trkpt lat="47.62248" lon="14.06039"><ele>1625</ele><time>2022-10-10T08:05:07Z</time></trkpt>
    <trkpt lat="47.62261" lon="14.06014"><ele>1627</ele><time>2022-10-10T08:06:30Z</time></trkpt>
    <trkpt lat="47.62267" lon="14.06001"><ele>1630</ele><time>2022-10-10T08:06:49Z</time></trkpt>
    <trkpt lat="47.62271" lon="14.05981"><ele>1633</ele><time>2022-10-10T08:07:46Z</time></trkpt>
    <trkpt lat="47.62277" lon="14.05958"><ele>1642</ele><time>2022-10-10T08:09:00Z</time></trkpt>
    <trkpt lat="47.62271" lon="14.05929"><ele>1644</ele><time>2022-10-10T08:10:07Z</time></trkpt>
    <trkpt lat="47.62280" lon="14.05909"><ele>1652</ele><time>2022-10-10T08:10:57Z</time></trkpt>
    <trkpt lat="47.62278" lon="14.05884"><ele>1671</ele><time>2022-10-10T08:13:09Z</time></trkpt>
    <trkpt lat="47.62279" lon="14.05865"><ele>1674</ele><time>2022-10-10T08:15:07Z</time></trkpt>
    <trkpt lat="47.62274" lon="14.05845"><ele>1684</ele><time>2022-10-10T08:15:52Z</time></trkpt>
    <trkpt lat="47.62283" lon="14.05825"><ele>1684</ele><time>2022-10-10T08:16:35Z</time></trkpt>
    <trkpt lat="47.62287" lon="14.05800"><ele>1691</ele><time>2022-10-10T08:17:35Z</time></trkpt>
    <trkpt lat="47.62295" lon="14.05779"><ele>1695</ele><time>2022-10-10T08:18:36Z</time></trkpt>
    <trkpt lat="47.62300" lon="14.05756"><ele>1715</ele><time>2022-10-10T08:22:36Z</time></trkpt>
    <trkpt lat="47.62291" lon="14.05735"><ele>1721</ele><time>2022-10-10T08:24:21Z</time></trkpt>
    <trkpt lat="47.62283" lon="14.05714"><ele>1730</ele><time>2022-10-10T08:25:05Z</time></trkpt>
    <trkpt lat="47.62297" lon="14.05701"><ele>1735</ele><time>2022-10-10T08:27:48Z</time></trkpt>
    <trkpt lat="47.62304" lon="14.05679"><ele>1747</ele><time>2022-10-10T08:28:47Z</time></trkpt>
    <trkpt lat="47.62317" lon="14.05666"><ele>1753</ele><time>2022-10-10T08:31:34Z</time></trkpt>
    <trkpt lat="47.62326" lon="14.05672"><ele>1755</ele><time>2022-10-10T08:31:53Z</time></trkpt>
    <trkpt lat="47.62343" lon="14.05683"><ele>1755</ele><time>2022-10-10T08:32:34Z</time></trkpt>
    <trkpt lat="47.62351" lon="14.05693"><ele>1759</ele><time>2022-10-10T08:32:53Z</time></trkpt>
    <trkpt lat="47.62360" lon="14.05702"><ele>1761</ele><time>2022-10-10T08:33:11Z</time></trkpt>
    <trkpt lat="47.62369" lon="14.05709"><ele>1759</ele><time>2022-10-10T08:33:29Z</time></trkpt>
    <trkpt lat="47.62381" lon="14.05715"><ele>1762</ele><time>2022-10-10T08:33:48Z</time></trkpt>
    <trkpt lat="47.62398" lon="14.05723"><ele>1760</ele><time>2022-10-10T08:34:37Z</time></trkpt>
    <trkpt lat="47.62405" lon="14.05735"><ele>1763</ele><time>2022-10-10T08:34:56Z</time></trkpt>
    <trkpt lat="47.62417" lon="14.05742"><ele>1763</ele><time>2022-10-10T08:35:15Z</time></trkpt>
    <trkpt lat="47.62431" lon="14.05743"><ele>1749</ele><time>2022-10-10T08:35:34Z</time></trkpt>
    <trkpt lat="47.62444" lon="14.05763"><ele>1761</ele><time>2022-10-10T08:46:32Z</time></trkpt>
    <trkpt lat="47.62456" lon="14.05779"><ele>1766</ele><time>2022-10-10T08:51:25Z</time></trkpt>
    <trkpt lat="47.62470" lon="14.05789"><ele>1782</ele><time>2022-10-10T08:52:55Z</time></trkpt>
    <trkpt lat="47.62486" lon="14.05790"><ele>1800</ele><time>2022-10-10T08:55:11Z</time></trkpt>
    <trkpt lat="47.62500" lon="14.05792"><ele>1808</ele><time>2022-10-10T08:56:32Z</time></trkpt>
    <trkpt lat="47.62517" lon="14.05795"><ele>1820</ele><time>2022-10-10T08:57:21Z</time></trkpt>
    <trkpt lat="47.62532" lon="14.05802"><ele>1814</ele><time>2022-10-10T09:00:11Z</time></trkpt>
    <trkpt lat="47.62542" lon="14.05810"><ele>1837</ele><time>2022-10-10T09:00:29Z</time></trkpt>
    <trkpt lat="47.62536" lon="14.05828"><ele>1832</ele><time>2022-10-10T09:05:25Z</time></trkpt>
    <trkpt lat="47.62553" lon="14.05823"><ele>1839</ele><time>2022-10-10T09:06:27Z</time></trkpt>
    <trkpt lat="47.62568" lon="14.05826"><ele>1849</ele><time>2022-10-10T09:07:29Z</time></trkpt>
    <trkpt lat="47.62580" lon="14.05844"><ele>1816</ele><time>2022-10-10T09:08:38Z</time></trkpt>
    <trkpt lat="47.62590" lon="14.05856"><ele>1859</ele><time>2022-10-10T09:08:56Z</time></trkpt>
    <trkpt lat="47.62594" lon="14.05895"><ele>1874</ele><time>2022-10-10T09:10:18Z</time></trkpt>
    <trkpt lat="47.62590" lon="14.05917"><ele>1872</ele><time>2022-10-10T09:15:35Z</time></trkpt>
    <trkpt lat="47.62602" lon="14.05935"><ele>1887</ele><time>2022-10-10T09:19:09Z</time></trkpt>
    <trkpt lat="47.62604" lon="14.05951"><ele>1894</ele><time>2022-10-10T09:23:37Z</time></trkpt>
    <trkpt lat="47.62603" lon="14.05930"><ele>1847</ele><time>2022-10-10T09:32:39Z</time></trkpt>
    <trkpt lat="47.62599" lon="14.05916"><ele>1860</ele><time>2022-10-10T09:32:57Z</time></trkpt>
    <trkpt lat="47.62590" lon="14.05900"><ele>1876</ele><time>2022-10-10T09:33:37Z</time></trkpt>
    <trkpt lat="47.62583" lon="14.05870"><ele>1830</ele><time>2022-10-10T09:34:14Z</time></trkpt>
    <trkpt lat="47.62581" lon="14.05840"><ele>1853</ele><time>2022-10-10T09:35:02Z</time></trkpt>
    <trkpt lat="47.62572" lon="14.05841"><ele>1854</ele><time>2022-10-10T09:35:40Z</time></trkpt>
    <trkpt lat="47.62564" lon="14.05850"><ele>1858</ele><time>2022-10-10T09:35:59Z</time></trkpt>
    <trkpt lat="47.62555" lon="14.05863"><ele>1844</ele><time>2022-10-10T09:36:17Z</time></trkpt>
    <trkpt lat="47.62542" lon="14.05875"><ele>1839</ele><time>2022-10-10T09:38:46Z</time></trkpt>
    <trkpt lat="47.62529" lon="14.05871"><ele>1733</ele><time>2022-10-10T09:43:23Z</time></trkpt>
    <trkpt lat="47.62520" lon="14.05861"><ele>1782</ele><time>2022-10-10T09:43:41Z</time></trkpt>
    <trkpt lat="47.62508" lon="14.05847"><ele>1808</ele><time>2022-10-10T09:44:00Z</time></trkpt>
    <trkpt lat="47.62509" lon="14.05831"><ele>1805</ele><time>2022-10-10T09:44:18Z</time></trkpt>
    <trkpt lat="47.62507" lon="14.05817"><ele>1798</ele><time>2022-10-10T09:44:37Z</time></trkpt>
    <trkpt lat="47.62502" lon="14.05801"><ele>1795</ele><time>2022-10-10T09:44:55Z</time></trkpt>
    <trkpt lat="47.62490" lon="14.05784"><ele>1814</ele><time>2022-10-10T09:46:13Z</time></trkpt>
    <trkpt lat="47.62483" lon="14.05769"><ele>1817</ele><time>2022-10-10T09:46:32Z</time></trkpt>
    <trkpt lat="47.62473" lon="14.05744"><ele>1811</ele><time>2022-10-10T09:47:11Z</time></trkpt>
    <trkpt lat="47.62461" lon="14.05733"><ele>1827</ele><time>2022-10-10T09:48:37Z</time></trkpt>
    <trkpt lat="47.62448" lon="14.05718"><ele>1821</ele><time>2022-10-10T09:50:48Z</time></trkpt>
    <trkpt lat="47.62461" lon="14.05733"><ele>1808</ele><time>2022-10-10T09:55:19Z</time></trkpt>
    <trkpt lat="47.62476" lon="14.05746"><ele>1762</ele><time>2022-10-10T09:56:12Z</time></trkpt>
    <trkpt lat="47.62486" lon="14.05766"><ele>1698</ele><time>2022-10-10T09:57:11Z</time></trkpt>
    <trkpt lat="47.62495" lon="14.05776"><ele>1811</ele><time>2022-10-10T09:57:29Z</time></trkpt>
    <trkpt lat="47.62492" lon="14.05793"><ele>1796</ele><time>2022-10-10T09:58:31Z</time></trkpt>
    <trkpt lat="47.62476" lon="14.05797"><ele>1795</ele><time>2022-10-10T10:00:08Z</time></trkpt>
    <trkpt lat="47.62460" lon="14.05791"><ele>1794</ele><time>2022-10-10T10:01:31Z</time></trkpt>
    <trkpt lat="47.62451" lon="14.05771"><ele>1773</ele><time>2022-10-10T10:04:41Z</time></trkpt>
    <trkpt lat="47.62422" lon="14.05752"><ele>1677</ele><time>2022-10-10T10:06:44Z</time></trkpt>
    <trkpt lat="47.62415" lon="14.05739"><ele>1795</ele><time>2022-10-10T10:07:02Z</time></trkpt>
    <trkpt lat="47.62426" lon="14.05723"><ele>1758</ele><time>2022-10-10T10:07:21Z</time></trkpt>
    <trkpt lat="47.62424" lon="14.05703"><ele>1754</ele><time>2022-10-10T10:08:55Z</time></trkpt>
    <trkpt lat="47.62416" lon="14.05687"><ele>1730</ele><time>2022-10-10T10:10:21Z</time></trkpt>
    <trkpt lat="47.62401" lon="14.05666"><ele>1792</ele><time>2022-10-10T10:11:36Z</time></trkpt>
    <trkpt lat="47.62407" lon="14.05645"><ele>1830</ele><time>2022-10-10T10:16:17Z</time></trkpt>
    <trkpt lat="47.62417" lon="14.05625"><ele>1805</ele><time>2022-10-10T10:17:35Z</time></trkpt>
    <trkpt lat="47.62421" lon="14.05602"><ele>1758</ele><time>2022-10-10T10:18:26Z</time></trkpt>
    <trkpt lat="47.62420" lon="14.05588"><ele>1791</ele><time>2022-10-10T10:18:45Z</time></trkpt>
    <trkpt lat="47.62431" lon="14.05569"><ele>1842</ele><time>2022-10-10T10:19:50Z</time></trkpt>
    <trkpt lat="47.62441" lon="14.05551"><ele>1622</ele><time>2022-10-10T10:21:31Z</time></trkpt>
    <trkpt lat="47.62456" lon="14.05541"><ele>1637</ele><time>2022-10-10T10:23:31Z</time></trkpt>
    <trkpt lat="47.62473" lon="14.05539"><ele>1775</ele><time>2022-10-10T10:24:21Z</time></trkpt>
    <trkpt lat="47.62488" lon="14.05532"><ele>1847</ele><time>2022-10-10T10:25:43Z</time></trkpt>
    <trkpt lat="47.62488" lon="14.05547"><ele>1808</ele><time>2022-10-10T10:29:56Z</time></trkpt>
    <trkpt lat="47.62502" lon="14.05554"><ele>1776</ele><time>2022-10-10T10:35:13Z</time></trkpt>
    <trkpt lat="47.62519" lon="14.05551"><ele>1769</ele><time>2022-10-10T10:36:05Z</time></trkpt>
    <trkpt lat="47.62531" lon="14.05539"><ele>2012</ele><time>2022-10-10T11:17:40Z</time></trkpt>
    <trkpt lat="47.62544" lon="14.05524"><ele>2028</ele><time>2022-10-10T11:20:16Z</time></trkpt>
    <trkpt lat="47.62550" lon="14.05505"><ele>2049</ele><time>2022-10-10T11:22:59Z</time></trkpt>
    <trkpt lat="47.62556" lon="14.05482"><ele>2006</ele><time>2022-10-10T11:25:39Z</time></trkpt>
    <trkpt lat="47.62567" lon="14.05464"><ele>2079</ele><time>2022-10-10T11:27:39Z</time></trkpt>
    <trkpt lat="47.62577" lon="14.05450"><ele>2096</ele><time>2022-10-10T11:29:36Z</time></trkpt>
    <trkpt lat="47.62591" lon="14.05436"><ele>2107</ele><time>2022-10-10T11:30:38Z</time></trkpt>
    <trkpt lat="47.62599" lon="14.05420"><ele>2118</ele><time>2022-10-10T11:31:44Z</time></trkpt>
    <trkpt lat="47.62588" lon="14.05402"><ele>2119</ele><time>2022-10-10T11:32:28Z</time></trkpt>
    <trkpt lat="47.62589" lon="14.05384"><ele>2127</ele><time>2022-10-10T11:32:47Z</time></trkpt>
    <trkpt lat="47.62589" lon="14.05368"><ele>2127</ele><time>2022-10-10T11:33:05Z</time></trkpt>
    <trkpt lat="47.62591" lon="14.05352"><ele>2129</ele><time>2022-10-10T11:33:23Z</time></trkpt>
    <trkpt lat="47.62594" lon="14.05337"><ele>2130</ele><time>2022-10-10T11:33:42Z</time></trkpt>
    <trkpt lat="47.62602" lon="14.05322"><ele>2131</ele><time>2022-10-10T11:34:01Z</time></trkpt>
    <trkpt lat="47.62609" lon="14.05307"><ele>2133</ele><time>2022-10-10T11:34:19Z</time></trkpt>
    <trkpt lat="47.62610" lon="14.05290"><ele>2136</ele><time>2022-10-10T11:34:37Z</time></trkpt>
    <trkpt lat="47.62619" lon="14.05277"><ele>2138</ele><time>2022-10-10T11:34:55Z</time></trkpt>
    <trkpt lat="47.62625" lon="14.05263"><ele>2139</ele><time>2022-10-10T11:35:14Z</time></trkpt>
    <trkpt lat="47.62634" lon="14.05250"><ele>2142</ele><time>2022-10-10T11:35:33Z</time></trkpt>
    <trkpt lat="47.62642" lon="14.05238"><ele>2135</ele><time>2022-10-10T11:35:51Z</time></trkpt>
    <trkpt lat="47.62640" lon="14.05213"><ele>2144</ele><time>2022-10-10T11:37:12Z</time></trkpt>
    <trkpt lat="47.62640" lon="14.05175"><ele>2146</ele><time>2022-10-10T11:56:27Z</time></trkpt>
    <trkpt lat="47.62635" lon="14.05154"><ele>2080</ele><time>2022-10-10T11:56:45Z</time></trkpt>
    <trkpt lat="47.62633" lon="14.05140"><ele>2143</ele><time>2022-10-10T11:57:03Z</time></trkpt>
    <trkpt lat="47.62639" lon="14.05124"><ele>2143</ele><time>2022-10-10T11:57:22Z</time></trkpt>
    <trkpt lat="47.62641" lon="14.05107"><ele>2137</ele><time>2022-10-10T11:57:41Z</time></trkpt>
    <trkpt lat="47.62645" lon="14.05089"><ele>2135</ele><time>2022-10-10T11:58:00Z</time></trkpt>
    <trkpt lat="47.62651" lon="14.05075"><ele>1932</ele><time>2022-10-10T11:58:18Z</time></trkpt>
    <trkpt lat="47.62655" lon="14.05058"><ele>2127</ele><time>2022-10-10T11:58:37Z</time></trkpt>
    <trkpt lat="47.62659" lon="14.05045"><ele>1921</ele><time>2022-10-10T11:58:56Z</time></trkpt>
    <trkpt lat="47.62660" lon="14.05031"><ele>1777</ele><time>2022-10-10T11:59:57Z</time></trkpt>
    <trkpt lat="47.62669" lon="14.05015"><ele>2108</ele><time>2022-10-10T12:00:16Z</time></trkpt>
    <trkpt lat="47.62672" lon="14.05001"><ele>2114</ele><time>2022-10-10T12:00:34Z</time></trkpt>
    <trkpt lat="47.62679" lon="14.04983"><ele>2111</ele><time>2022-10-10T12:00:53Z</time></trkpt>
    <trkpt lat="47.62695" lon="14.04985"><ele>2107</ele><time>2022-10-10T12:01:34Z</time></trkpt>
    <trkpt lat="47.62710" lon="14.04991"><ele>2110</ele><time>2022-10-10T12:01:52Z</time></trkpt>
    <trkpt lat="47.62716" lon="14.04979"><ele>2102</ele><time>2022-10-10T12:02:11Z</time></trkpt>
    <trkpt lat="47.62726" lon="14.04977"><ele>2094</ele><time>2022-10-10T12:02:29Z</time></trkpt>
    <trkpt lat="47.62734" lon="14.04986"><ele>2092</ele><time>2022-10-10T12:02:48Z</time></trkpt>
    <trkpt lat="47.62754" lon="14.04992"><ele>2095</ele><time>2022-10-10T12:03:25Z</time></trkpt>
    <trkpt lat="47.62772" lon="14.04986"><ele>2092</ele><time>2022-10-10T12:03:44Z</time></trkpt>
    <trkpt lat="47.62784" lon="14.04973"><ele>2095</ele><time>2022-10-10T12:04:03Z</time></trkpt>
    <trkpt lat="47.62789" lon="14.04956"><ele>2096</ele><time>2022-10-10T12:04:21Z</time></trkpt>
    <trkpt lat="47.62786" lon="14.04919"><ele>2101</ele><time>2022-10-10T12:05:01Z</time></trkpt>
    <trkpt lat="47.62786" lon="14.04903"><ele>2101</ele><time>2022-10-10T12:05:19Z</time></trkpt>
    <trkpt lat="47.62780" lon="14.04885"><ele>2034</ele><time>2022-10-10T12:05:38Z</time></trkpt>
    <trkpt lat="47.62784" lon="14.04860"><ele>2018</ele><time>2022-10-10T12:06:15Z</time></trkpt>
    <trkpt lat="47.62791" lon="14.04825"><ele>2096</ele><time>2022-10-10T12:06:51Z</time></trkpt>
    <trkpt lat="47.62802" lon="14.04801"><ele>2095</ele><time>2022-10-10T12:07:10Z</time></trkpt>
    <trkpt lat="47.62812" lon="14.04784"><ele>2096</ele><time>2022-10-10T12:07:28Z</time></trkpt>
    <trkpt lat="47.62819" lon="14.04760"><ele>2098</ele><time>2022-10-10T12:07:47Z</time></trkpt>
    <trkpt lat="47.62827" lon="14.04748"><ele>2093</ele><time>2022-10-10T12:08:06Z</time></trkpt>
    <trkpt lat="47.62836" lon="14.04737"><ele>2091</ele><time>2022-10-10T12:08:24Z</time></trkpt>
    <trkpt lat="47.62832" lon="14.04722"><ele>2087</ele><time>2022-10-10T12:08:42Z</time></trkpt>
    <trkpt lat="47.62833" lon="14.04705"><ele>2080</ele><time>2022-10-10T12:09:00Z</time></trkpt>
    <trkpt lat="47.62828" lon="14.04684"><ele>2036</ele><time>2022-10-10T12:09:19Z</time></trkpt>
    <trkpt lat="47.62821" lon="14.04669"><ele>2070</ele><time>2022-10-10T12:09:37Z</time></trkpt>
    <trkpt lat="47.62817" lon="14.04653"><ele>2077</ele><time>2022-10-10T12:09:56Z</time></trkpt>
    <trkpt lat="47.62807" lon="14.04643"><ele>2064</ele><time>2022-10-10T12:10:14Z</time></trkpt>
    <trkpt lat="47.62809" lon="14.04625"><ele>2017</ele><time>2022-10-10T12:10:33Z</time></trkpt>
    <trkpt lat="47.62820" lon="14.04608"><ele>2065</ele><time>2022-10-10T12:11:23Z</time></trkpt>
    <trkpt lat="47.62824" lon="14.04588"><ele>2062</ele><time>2022-10-10T12:12:30Z</time></trkpt>
    <trkpt lat="47.62834" lon="14.04588"><ele>2056</ele><time>2022-10-10T12:12:49Z</time></trkpt>
    <trkpt lat="47.62846" lon="14.04576"><ele>2045</ele><time>2022-10-10T12:13:29Z</time></trkpt>
    <trkpt lat="47.62863" lon="14.04578"><ele>2034</ele><time>2022-10-10T12:14:16Z</time></trkpt>
    <trkpt lat="47.62870" lon="14.04585"><ele>2041</ele><time>2022-10-10T12:14:35Z</time></trkpt>
    <trkpt lat="47.62878" lon="14.04595"><ele>2035</ele><time>2022-10-10T12:14:53Z</time></trkpt>
    <trkpt lat="47.62880" lon="14.04616"><ele>2036</ele><time>2022-10-10T12:15:11Z</time></trkpt>
    <trkpt lat="47.62888" lon="14.04625"><ele>2031</ele><time>2022-10-10T12:15:29Z</time></trkpt>
    <trkpt lat="47.62893" lon="14.04645"><ele>2022</ele><time>2022-10-10T12:15:48Z</time></trkpt>
    <trkpt lat="47.62904" lon="14.04648"><ele>2022</ele><time>2022-10-10T12:16:07Z</time></trkpt>
    <trkpt lat="47.62927" lon="14.04640"><ele>2012</ele><time>2022-10-10T12:17:15Z</time></trkpt>
    <trkpt lat="47.62931" lon="14.04653"><ele>2009</ele><time>2022-10-10T12:17:34Z</time></trkpt>
    <trkpt lat="47.62950" lon="14.04657"><ele>2007</ele><time>2022-10-10T12:18:22Z</time></trkpt>
    <trkpt lat="47.62969" lon="14.04674"><ele>1987</ele><time>2022-10-10T12:19:03Z</time></trkpt>
    <trkpt lat="47.62991" lon="14.04679"><ele>1972</ele><time>2022-10-10T12:19:41Z</time></trkpt>
    <trkpt lat="47.63003" lon="14.04684"><ele>1974</ele><time>2022-10-10T12:19:59Z</time></trkpt>
    <trkpt lat="47.63019" lon="14.04692"><ele>1986</ele><time>2022-10-10T12:20:48Z</time></trkpt>
    <trkpt lat="47.63043" lon="14.04687"><ele>1980</ele><time>2022-10-10T12:21:31Z</time></trkpt>
    <trkpt lat="47.63056" lon="14.04677"><ele>1989</ele><time>2022-10-10T12:22:30Z</time></trkpt>
    <trkpt lat="47.63066" lon="14.04658"><ele>1977</ele><time>2022-10-10T12:22:49Z</time></trkpt>
    <trkpt lat="47.63078" lon="14.04638"><ele>1980</ele><time>2022-10-10T12:23:08Z</time></trkpt>
    <trkpt lat="47.63087" lon="14.04629"><ele>1981</ele><time>2022-10-10T12:23:27Z</time></trkpt>
    <trkpt lat="47.63094" lon="14.04651"><ele>1965</ele><time>2022-10-10T12:24:18Z</time></trkpt>
    <trkpt lat="47.63105" lon="14.04662"><ele>1967</ele><time>2022-10-10T12:24:37Z</time></trkpt>
    <trkpt lat="47.63094" lon="14.04679"><ele>1926</ele><time>2022-10-10T12:25:30Z</time></trkpt>
    <trkpt lat="47.63085" lon="14.04686"><ele>1936</ele><time>2022-10-10T12:25:49Z</time></trkpt>
    <trkpt lat="47.63085" lon="14.04699"><ele>1940</ele><time>2022-10-10T12:26:11Z</time></trkpt>
    <trkpt lat="47.63086" lon="14.04723"><ele>1953</ele><time>2022-10-10T12:27:27Z</time></trkpt>
    <trkpt lat="47.63076" lon="14.04739"><ele>1946</ele><time>2022-10-10T12:29:13Z</time></trkpt>
    <trkpt lat="47.63068" lon="14.04759"><ele>1919</ele><time>2022-10-10T12:33:40Z</time></trkpt>
    <trkpt lat="47.63065" lon="14.04780"><ele>1868</ele><time>2022-10-10T12:35:28Z</time></trkpt>
    <trkpt lat="47.63068" lon="14.04803"><ele>1856</ele><time>2022-10-10T12:37:00Z</time></trkpt>
    <trkpt lat="47.63064" lon="14.04827"><ele>1869</ele><time>2022-10-10T12:38:43Z</time></trkpt>
    <trkpt lat="47.63054" lon="14.04847"><ele>1859</ele><time>2022-10-10T12:40:50Z</time></trkpt>
    <trkpt lat="47.63059" lon="14.04871"><ele>1540</ele><time>2022-10-10T12:42:06Z</time></trkpt>
    <trkpt lat="47.63068" lon="14.04890"><ele>1828</ele><time>2022-10-10T12:43:06Z</time></trkpt>
    <trkpt lat="47.63075" lon="14.04912"><ele>1539</ele><time>2022-10-10T12:44:34Z</time></trkpt>
    <trkpt lat="47.63079" lon="14.04932"><ele>1814</ele><time>2022-10-10T12:47:33Z</time></trkpt>
    <trkpt lat="47.63064" lon="14.04938"><ele>1797</ele><time>2022-10-10T12:51:20Z</time></trkpt>
    <trkpt lat="47.63057" lon="14.04966"><ele>1273</ele><time>2022-10-10T12:58:40Z</time></trkpt>
    <trkpt lat="47.63050" lon="14.04976"><ele>1364</ele><time>2022-10-10T12:59:00Z</time></trkpt>
    <trkpt lat="47.63066" lon="14.04966"><ele>1807</ele><time>2022-10-10T13:02:59Z</time></trkpt>
    <trkpt lat="47.63072" lon="14.04955"><ele>1808</ele><time>2022-10-10T13:03:17Z</time></trkpt>
    <trkpt lat="47.63083" lon="14.04973"><ele>1548</ele><time>2022-10-10T13:04:40Z</time></trkpt>
    <trkpt lat="47.63077" lon="14.04994"><ele>1741</ele><time>2022-10-10T13:06:27Z</time></trkpt>
    <trkpt lat="47.63073" lon="14.05006"><ele>1608</ele><time>2022-10-10T13:07:58Z</time></trkpt>
    <trkpt lat="47.63058" lon="14.05015"><ele>1755</ele><time>2022-10-10T13:09:42Z</time></trkpt>
    <trkpt lat="47.63051" lon="14.05034"><ele>1759</ele><time>2022-10-10T13:12:49Z</time></trkpt>
    <trkpt lat="47.63055" lon="14.05056"><ele>1672</ele><time>2022-10-10T13:13:30Z</time></trkpt>
    <trkpt lat="47.63043" lon="14.05085"><ele>1647</ele><time>2022-10-10T13:14:12Z</time></trkpt>
    <trkpt lat="47.63029" lon="14.05103"><ele>1383</ele><time>2022-10-10T13:14:51Z</time></trkpt>
    <trkpt lat="47.63042" lon="14.05116"><ele>1690</ele><time>2022-10-10T13:15:09Z</time></trkpt>
    <trkpt lat="47.63051" lon="14.05143"><ele>1358</ele><time>2022-10-10T13:17:33Z</time></trkpt>
    <trkpt lat="47.63052" lon="14.05169"><ele>1637</ele><time>2022-10-10T13:18:11Z</time></trkpt>
    <trkpt lat="47.63069" lon="14.05185"><ele>1629</ele><time>2022-10-10T13:19:21Z</time></trkpt>
    <trkpt lat="47.63075" lon="14.05203"><ele>1651</ele><time>2022-10-10T13:19:39Z</time></trkpt>
    <trkpt lat="47.63092" lon="14.05224"><ele>1610</ele><time>2022-10-10T13:20:32Z</time></trkpt>
    <trkpt lat="47.63105" lon="14.05231"><ele>1652</ele><time>2022-10-10T13:20:50Z</time></trkpt>
    <trkpt lat="47.63111" lon="14.05246"><ele>1662</ele><time>2022-10-10T13:21:09Z</time></trkpt>
    <trkpt lat="47.63114" lon="14.05264"><ele>1262</ele><time>2022-10-10T13:21:27Z</time></trkpt>
    <trkpt lat="47.63125" lon="14.05283"><ele>1647</ele><time>2022-10-10T13:22:07Z</time></trkpt>
    <trkpt lat="47.63136" lon="14.05303"><ele>1431</ele><time>2022-10-10T13:22:45Z</time></trkpt>
    <trkpt lat="47.63141" lon="14.05316"><ele>1418</ele><time>2022-10-10T13:23:04Z</time></trkpt>
    <trkpt lat="47.63148" lon="14.05332"><ele>1371</ele><time>2022-10-10T13:23:23Z</time></trkpt>
    <trkpt lat="47.63158" lon="14.05340"><ele>1355</ele><time>2022-10-10T13:23:54Z</time></trkpt>
    <trkpt lat="47.63163" lon="14.05360"><ele>1526</ele><time>2022-10-10T13:24:13Z</time></trkpt>
    <trkpt lat="47.63172" lon="14.05377"><ele>1520</ele><time>2022-10-10T13:24:31Z</time></trkpt>
    <trkpt lat="47.63182" lon="14.05387"><ele>1361</ele><time>2022-10-10T13:24:51Z</time></trkpt>
    <trkpt lat="47.63189" lon="14.05418"><ele>1616</ele><time>2022-10-10T13:25:29Z</time></trkpt>
    <trkpt lat="47.63193" lon="14.05432"><ele>1408</ele><time>2022-10-10T13:25:48Z</time></trkpt>
    <trkpt lat="47.63185" lon="14.05453"><ele>1638</ele><time>2022-10-10T13:26:30Z</time></trkpt>
    <trkpt lat="47.63182" lon="14.05476"><ele>1643</ele><time>2022-10-10T13:26:49Z</time></trkpt>
    <trkpt lat="47.63167" lon="14.05493"><ele>1638</ele><time>2022-10-10T13:28:19Z</time></trkpt>
    <trkpt lat="47.63160" lon="14.05506"><ele>1632</ele><time>2022-10-10T13:28:38Z</time></trkpt>
    <trkpt lat="47.63157" lon="14.05530"><ele>1633</ele><time>2022-10-10T13:28:56Z</time></trkpt>
    <trkpt lat="47.63163" lon="14.05546"><ele>1630</ele><time>2022-10-10T13:29:15Z</time></trkpt>
    <trkpt lat="47.63158" lon="14.05568"><ele>1327</ele><time>2022-10-10T13:29:33Z</time></trkpt>
    <trkpt lat="47.63158" lon="14.05591"><ele>1613</ele><time>2022-10-10T13:29:51Z</time></trkpt>
    <trkpt lat="47.63152" lon="14.05615"><ele>1462</ele><time>2022-10-10T13:30:10Z</time></trkpt>
    <trkpt lat="47.63155" lon="14.05634"><ele>1615</ele><time>2022-10-10T13:30:29Z</time></trkpt>
    <trkpt lat="47.63152" lon="14.05646"><ele>1616</ele><time>2022-10-10T13:30:47Z</time></trkpt>
    <trkpt lat="47.63147" lon="14.05683"><ele>1596</ele><time>2022-10-10T13:32:20Z</time></trkpt>
    <trkpt lat="47.63146" lon="14.05711"><ele>1617</ele><time>2022-10-10T13:32:38Z</time></trkpt>
    <trkpt lat="47.63153" lon="14.05736"><ele>1623</ele><time>2022-10-10T13:32:57Z</time></trkpt>
    <trkpt lat="47.63145" lon="14.05754"><ele>1623</ele><time>2022-10-10T13:33:15Z</time></trkpt>
    <trkpt lat="47.63142" lon="14.05778"><ele>1621</ele><time>2022-10-10T13:33:34Z</time></trkpt>
    <trkpt lat="47.63155" lon="14.05797"><ele>1626</ele><time>2022-10-10T13:33:53Z</time></trkpt>
    <trkpt lat="47.63160" lon="14.05816"><ele>1626</ele><time>2022-10-10T13:34:12Z</time></trkpt>
    <trkpt lat="47.63151" lon="14.05836"><ele>1459</ele><time>2022-10-10T13:34:31Z</time></trkpt>
    <trkpt lat="47.63143" lon="14.05864"><ele>1601</ele><time>2022-10-10T13:34:49Z</time></trkpt>
    <trkpt lat="47.63141" lon="14.05886"><ele>1615</ele><time>2022-10-10T13:35:07Z</time></trkpt>
    <trkpt lat="47.63148" lon="14.05904"><ele>1615</ele><time>2022-10-10T13:35:26Z</time></trkpt>
    <trkpt lat="47.63160" lon="14.05930"><ele>1607</ele><time>2022-10-10T13:36:05Z</time></trkpt>
    <trkpt lat="47.63154" lon="14.05949"><ele>1603</ele><time>2022-10-10T13:36:23Z</time></trkpt>
    <trkpt lat="47.63161" lon="14.05978"><ele>1599</ele><time>2022-10-10T13:37:11Z</time></trkpt>
    <trkpt lat="47.63157" lon="14.05995"><ele>1600</ele><time>2022-10-10T13:37:30Z</time></trkpt>
    <trkpt lat="47.63154" lon="14.06015"><ele>1593</ele><time>2022-10-10T13:37:49Z</time></trkpt>
    <trkpt lat="47.63149" lon="14.06027"><ele>1592</ele><time>2022-10-10T13:38:07Z</time></trkpt>
    <trkpt lat="47.63144" lon="14.06047"><ele>1588</ele><time>2022-10-10T13:41:54Z</time></trkpt>
    <trkpt lat="47.63133" lon="14.06046"><ele>1585</ele><time>2022-10-10T13:42:13Z</time></trkpt>
    <trkpt lat="47.63124" lon="14.06048"><ele>1580</ele><time>2022-10-10T13:42:32Z</time></trkpt>
    <trkpt lat="47.63117" lon="14.06063"><ele>1573</ele><time>2022-10-10T13:43:10Z</time></trkpt>
    <trkpt lat="47.63102" lon="14.06087"><ele>1565</ele><time>2022-10-10T13:43:49Z</time></trkpt>
    <trkpt lat="47.63096" lon="14.06118"><ele>1557</ele><time>2022-10-10T13:44:27Z</time></trkpt>
    <trkpt lat="47.63083" lon="14.06135"><ele>1538</ele><time>2022-10-10T13:45:18Z</time></trkpt>
    <trkpt lat="47.63090" lon="14.06148"><ele>1535</ele><time>2022-10-10T13:45:37Z</time></trkpt>
    <trkpt lat="47.63097" lon="14.06160"><ele>1494</ele><time>2022-10-10T13:45:56Z</time></trkpt>
    <trkpt lat="47.63103" lon="14.06172"><ele>1518</ele><time>2022-10-10T13:46:14Z</time></trkpt>
    <trkpt lat="47.63115" lon="14.06189"><ele>1505</ele><time>2022-10-10T13:47:04Z</time></trkpt>
    <trkpt lat="47.63118" lon="14.06206"><ele>1509</ele><time>2022-10-10T13:47:53Z</time></trkpt>
    <trkpt lat="47.63131" lon="14.06222"><ele>1472</ele><time>2022-10-10T13:48:57Z</time></trkpt>
    <trkpt lat="47.63139" lon="14.06238"><ele>1468</ele><time>2022-10-10T13:49:15Z</time></trkpt>
    <trkpt lat="47.63152" lon="14.06240"><ele>1409</ele><time>2022-10-10T13:49:33Z</time></trkpt>
    <trkpt lat="47.63158" lon="14.06262"><ele>1459</ele><time>2022-10-10T13:50:22Z</time></trkpt>
    <trkpt lat="47.63165" lon="14.06272"><ele>1452</ele><time>2022-10-10T13:50:41Z</time></trkpt>
    <trkpt lat="47.63181" lon="14.06269"><ele>1437</ele><time>2022-10-10T13:51:40Z</time></trkpt>
    <trkpt lat="47.63185" lon="14.06257"><ele>1438</ele><time>2022-10-10T13:51:58Z</time></trkpt>
    <trkpt lat="47.63201" lon="14.06263"><ele>1441</ele><time>2022-10-10T13:52:44Z</time></trkpt>
    <trkpt lat="47.63212" lon="14.06278"><ele>1433</ele><time>2022-10-10T13:53:21Z</time></trkpt>
    <trkpt lat="47.63231" lon="14.06299"><ele>1435</ele><time>2022-10-10T13:54:08Z</time></trkpt>
    <trkpt lat="47.63240" lon="14.06313"><ele>1433</ele><time>2022-10-10T13:54:27Z</time></trkpt>
    <trkpt lat="47.63253" lon="14.06333"><ele>1425</ele><time>2022-10-10T13:55:06Z</time></trkpt>
    <trkpt lat="47.63266" lon="14.06344"><ele>1429</ele><time>2022-10-10T13:55:24Z</time></trkpt>
    <trkpt lat="47.63273" lon="14.06365"><ele>1432</ele><time>2022-10-10T13:55:43Z</time></trkpt>
    <trkpt lat="47.63275" lon="14.06387"><ele>1430</ele><time>2022-10-10T13:56:01Z</time></trkpt>
    <trkpt lat="47.63270" lon="14.06407"><ele>1424</ele><time>2022-10-10T13:56:20Z</time></trkpt>
    <trkpt lat="47.63258" lon="14.06423"><ele>1417</ele><time>2022-10-10T13:56:57Z</time></trkpt>
    <trkpt lat="47.63256" lon="14.06436"><ele>1415</ele><time>2022-10-10T13:57:15Z</time></trkpt>
    <trkpt lat="47.63253" lon="14.06462"><ele>1406</ele><time>2022-10-10T13:57:59Z</time></trkpt>
    <trkpt lat="47.63259" lon="14.06475"><ele>1398</ele><time>2022-10-10T13:58:17Z</time></trkpt>
    <trkpt lat="47.63267" lon="14.06484"><ele>1392</ele><time>2022-10-10T13:58:35Z</time></trkpt>
    <trkpt lat="47.63276" lon="14.06503"><ele>1362</ele><time>2022-10-10T13:59:12Z</time></trkpt>
    <trkpt lat="47.63279" lon="14.06523"><ele>1378</ele><time>2022-10-10T13:59:31Z</time></trkpt>
    <trkpt lat="47.63284" lon="14.06545"><ele>1370</ele><time>2022-10-10T14:00:30Z</time></trkpt>
    <trkpt lat="47.63287" lon="14.06571"><ele>1357</ele><time>2022-10-10T14:01:14Z</time></trkpt>
    <trkpt lat="47.63277" lon="14.06588"><ele>1352</ele><time>2022-10-10T14:01:33Z</time></trkpt>
    <trkpt lat="47.63264" lon="14.06603"><ele>1346</ele><time>2022-10-10T14:02:54Z</time></trkpt>
    <trkpt lat="47.63282" lon="14.06615"><ele>1338</ele><time>2022-10-10T14:03:39Z</time></trkpt>
    <trkpt lat="47.63285" lon="14.06639"><ele>1329</ele><time>2022-10-10T14:04:28Z</time></trkpt>
    <trkpt lat="47.63281" lon="14.06662"><ele>1319</ele><time>2022-10-10T14:04:46Z</time></trkpt>
    <trkpt lat="47.63278" lon="14.06677"><ele>1308</ele><time>2022-10-10T14:05:04Z</time></trkpt>
    <trkpt lat="47.63281" lon="14.06701"><ele>1303</ele><time>2022-10-10T14:05:23Z</time></trkpt>
    <trkpt lat="47.63284" lon="14.06727"><ele>1296</ele><time>2022-10-10T14:07:00Z</time></trkpt>
    <trkpt lat="47.63284" lon="14.06744"><ele>1291</ele><time>2022-10-10T14:07:18Z</time></trkpt>
    <trkpt lat="47.63281" lon="14.06758"><ele>1288</ele><time>2022-10-10T14:07:36Z</time></trkpt>
    <trkpt lat="47.63282" lon="14.06772"><ele>1284</ele><time>2022-10-10T14:07:55Z</time></trkpt>
    <trkpt lat="47.63289" lon="14.06791"><ele>1280</ele><time>2022-10-10T14:08:14Z</time></trkpt>
    <trkpt lat="47.63290" lon="14.06814"><ele>1280</ele><time>2022-10-10T14:09:24Z</time></trkpt>
    <trkpt lat="47.63293" lon="14.06836"><ele>1277</ele><time>2022-10-10T14:09:43Z</time></trkpt>
    <trkpt lat="47.63303" lon="14.06855"><ele>1269</ele><time>2022-10-10T14:10:02Z</time></trkpt>
    <trkpt lat="47.63314" lon="14.06860"><ele>1266</ele><time>2022-10-10T14:10:20Z</time></trkpt>
    <trkpt lat="47.63323" lon="14.06868"><ele>1266</ele><time>2022-10-10T14:10:39Z</time></trkpt>
    <trkpt lat="47.63309" lon="14.06853"><ele>1255</ele><time>2022-10-10T14:11:20Z</time></trkpt>
    <trkpt lat="47.63305" lon="14.06835"><ele>1257</ele><time>2022-10-10T14:11:38Z</time></trkpt>
    <trkpt lat="47.63298" lon="14.06823"><ele>1261</ele><time>2022-10-10T14:11:57Z</time></trkpt>
    <trkpt lat="47.63296" lon="14.06809"><ele>1266</ele><time>2022-10-10T14:12:16Z</time></trkpt>
    <trkpt lat="47.63287" lon="14.06790"><ele>1270</ele><time>2022-10-10T14:12:35Z</time></trkpt>
    <trkpt lat="47.63271" lon="14.06794"><ele>1262</ele><time>2022-10-10T14:13:19Z</time></trkpt>
    <trkpt lat="47.63266" lon="14.06816"><ele>1256</ele><time>2022-10-10T14:13:56Z</time></trkpt>
    <trkpt lat="47.63264" lon="14.06835"><ele>1255</ele><time>2022-10-10T14:14:15Z</time></trkpt>
    <trkpt lat="47.63249" lon="14.06845"><ele>1247</ele><time>2022-10-10T14:14:55Z</time></trkpt>
    <trkpt lat="47.63239" lon="14.06852"><ele>1227</ele><time>2022-10-10T14:16:14Z</time></trkpt>
    <trkpt lat="47.63243" lon="14.06876"><ele>1217</ele><time>2022-10-10T14:16:57Z</time></trkpt>
    <trkpt lat="47.63247" lon="14.06889"><ele>1138</ele><time>2022-10-10T14:17:15Z</time></trkpt>
    <trkpt lat="47.63229" lon="14.06907"><ele>1102</ele><time>2022-10-10T14:18:01Z</time></trkpt>
    <trkpt lat="47.63218" lon="14.06912"><ele>1198</ele><time>2022-10-10T14:18:19Z</time></trkpt>
    <trkpt lat="47.63225" lon="14.06929"><ele>1202</ele><time>2022-10-10T14:18:38Z</time></trkpt>
    <trkpt lat="47.63232" lon="14.06942"><ele>1197</ele><time>2022-10-10T14:18:56Z</time></trkpt>
    <trkpt lat="47.63238" lon="14.06957"><ele>1190</ele><time>2022-10-10T14:19:15Z</time></trkpt>
    <trkpt lat="47.63232" lon="14.06980"><ele>1183</ele><time>2022-10-10T14:20:02Z</time></trkpt>
    <trkpt lat="47.63217" lon="14.06991"><ele>1141</ele><time>2022-10-10T14:21:07Z</time></trkpt>
    <trkpt lat="47.63219" lon="14.07015"><ele>1132</ele><time>2022-10-10T14:21:59Z</time></trkpt>
    <trkpt lat="47.63225" lon="14.07031"><ele>1150</ele><time>2022-10-10T14:22:18Z</time></trkpt>
    <trkpt lat="47.63224" lon="14.07053"><ele>1150</ele><time>2022-10-10T14:22:37Z</time></trkpt>
    <trkpt lat="47.63222" lon="14.07071"><ele>1054</ele><time>2022-10-10T14:22:56Z</time></trkpt>
    <trkpt lat="47.63223" lon="14.07085"><ele>1134</ele><time>2022-10-10T14:23:15Z</time></trkpt>
    <trkpt lat="47.63226" lon="14.07113"><ele>1006</ele><time>2022-10-10T14:23:54Z</time></trkpt>
    <trkpt lat="47.63232" lon="14.07124"><ele>1112</ele><time>2022-10-10T14:24:12Z</time></trkpt>
    <trkpt lat="47.63241" lon="14.07144"><ele>1132</ele><time>2022-10-10T14:24:56Z</time></trkpt>
    <trkpt lat="47.63239" lon="14.07162"><ele>1131</ele><time>2022-10-10T14:25:14Z</time></trkpt>
    <trkpt lat="47.63251" lon="14.07183"><ele>1124</ele><time>2022-10-10T14:26:04Z</time></trkpt>
    <trkpt lat="47.63255" lon="14.07198"><ele>1122</ele><time>2022-10-10T14:26:23Z</time></trkpt>
    <trkpt lat="47.63259" lon="14.07212"><ele>1118</ele><time>2022-10-10T14:26:41Z</time></trkpt>
    <trkpt lat="47.63256" lon="14.07224"><ele>1034</ele><time>2022-10-10T14:27:00Z</time></trkpt>
    <trkpt lat="47.63240" lon="14.07233"><ele>1037</ele><time>2022-10-10T14:27:19Z</time></trkpt>
    <trkpt lat="47.63220" lon="14.07247"><ele>1109</ele><time>2022-10-10T14:27:38Z</time></trkpt>
    <trkpt lat="47.63207" lon="14.07251"><ele>1103</ele><time>2022-10-10T14:27:56Z</time></trkpt>
    <trkpt lat="47.63193" lon="14.07251"><ele>1096</ele><time>2022-10-10T14:28:15Z</time></trkpt>
    <trkpt lat="47.63174" lon="14.07254"><ele>1096</ele><time>2022-10-10T14:28:34Z</time></trkpt>
    <trkpt lat="47.63166" lon="14.07268"><ele>1094</ele><time>2022-10-10T14:28:53Z</time></trkpt>
    <trkpt lat="47.63159" lon="14.07278"><ele>1094</ele><time>2022-10-10T14:29:11Z</time></trkpt>
    <trkpt lat="47.63161" lon="14.07310"><ele>1078</ele><time>2022-10-10T14:29:49Z</time></trkpt>
    <trkpt lat="47.63157" lon="14.07331"><ele>1084</ele><time>2022-10-10T14:30:08Z</time></trkpt>
    <trkpt lat="47.63143" lon="14.07353"><ele>1075</ele><time>2022-10-10T14:30:48Z</time></trkpt>
    <trkpt lat="47.63135" lon="14.07377"><ele>1075</ele><time>2022-10-10T14:31:07Z</time></trkpt>
    <trkpt lat="47.63122" lon="14.07399"><ele>1050</ele><time>2022-10-10T14:31:44Z</time></trkpt>
    <trkpt lat="47.63112" lon="14.07424"><ele>1039</ele><time>2022-10-10T14:32:03Z</time></trkpt>
    <trkpt lat="47.63104" lon="14.07444"><ele>1030</ele><time>2022-10-10T14:32:22Z</time></trkpt>
    <trkpt lat="47.63096" lon="14.07462"><ele>1016</ele><time>2022-10-10T14:32:40Z</time></trkpt>
    <trkpt lat="47.63088" lon="14.07481"><ele>1028</ele><time>2022-10-10T14:32:58Z</time></trkpt>
    <trkpt lat="47.63082" lon="14.07515"><ele>967</ele><time>2022-10-10T14:35:26Z</time></trkpt>
    <trkpt lat="47.63082" lon="14.07549"><ele>1036</ele><time>2022-10-10T14:35:45Z</time></trkpt>
    <trkpt lat="47.63090" lon="14.07578"><ele>1038</ele><time>2022-10-10T14:36:03Z</time></trkpt>
    <trkpt lat="47.63101" lon="14.07596"><ele>1041</ele><time>2022-10-10T14:36:21Z</time></trkpt>
    <trkpt lat="47.63118" lon="14.07604"><ele>1001</ele><time>2022-10-10T14:36:40Z</time></trkpt>
    <trkpt lat="47.63139" lon="14.07616"><ele>968</ele><time>2022-10-10T14:36:58Z</time></trkpt>
    <trkpt lat="47.63160" lon="14.07627"><ele>1025</ele><time>2022-10-10T14:37:17Z</time></trkpt>
    <trkpt lat="47.63186" lon="14.07642"><ele>974</ele><time>2022-10-10T14:37:36Z</time></trkpt>
    <trkpt lat="47.63193" lon="14.07663"><ele>1041</ele><time>2022-10-10T14:37:54Z</time></trkpt>
    <trkpt lat="47.63184" lon="14.07684"><ele>1002</ele><time>2022-10-10T14:38:12Z</time></trkpt>
    <trkpt lat="47.63187" lon="14.07711"><ele>1024</ele><time>2022-10-10T14:38:30Z</time></trkpt>
    <trkpt lat="47.63190" lon="14.07736"><ele>1024</ele><time>2022-10-10T14:38:49Z</time></trkpt>
    <trkpt lat="47.63203" lon="14.07760"><ele>1020</ele><time>2022-10-10T14:39:07Z</time></trkpt>
    <trkpt lat="47.63217" lon="14.07775"><ele>1015</ele><time>2022-10-10T14:39:25Z</time></trkpt>
    <trkpt lat="47.63229" lon="14.07795"><ele>1014</ele><time>2022-10-10T14:39:44Z</time></trkpt>
    <trkpt lat="47.63242" lon="14.07813"><ele>1010</ele><time>2022-10-10T14:40:03Z</time></trkpt>
    <trkpt lat="47.63251" lon="14.07828"><ele>981</ele><time>2022-10-10T14:40:22Z</time></trkpt>
    <trkpt lat="47.63260" lon="14.07848"><ele>1000</ele><time>2022-10-10T14:40:41Z</time></trkpt>
    <trkpt lat="47.63274" lon="14.07832"><ele>999</ele><time>2022-10-10T14:41:00Z</time></trkpt>
    <trkpt lat="47.63285" lon="14.07819"><ele>998</ele><time>2022-10-10T14:41:19Z</time></trkpt>
    <trkpt lat="47.63296" lon="14.07799"><ele>997</ele><time>2022-10-10T14:41:37Z</time></trkpt>
    <trkpt lat="47.63304" lon="14.07784"><ele>994</ele><time>2022-10-10T14:41:55Z</time></trkpt>
    <trkpt lat="47.63310" lon="14.07771"><ele>994</ele><time>2022-10-10T14:42:14Z</time></trkpt>
    <trkpt lat="47.63314" lon="14.07751"><ele>994</ele><time>2022-10-10T14:42:32Z</time></trkpt>
    <trkpt lat="47.63324" lon="14.07730"><ele>989</ele><time>2022-10-10T14:42:50Z</time></trkpt>
    <trkpt lat="47.63332" lon="14.07710"><ele>992</ele><time>2022-10-10T14:43:09Z</time></trkpt>
    <trkpt lat="47.63339" lon="14.07685"><ele>993</ele><time>2022-10-10T14:43:27Z</time></trkpt>
    <trkpt lat="47.63345" lon="14.07666"><ele>988</ele><time>2022-10-10T14:43:45Z</time></trkpt>
    <trkpt lat="47.63352" lon="14.07642"><ele>984</ele><time>2022-10-10T14:44:03Z</time></trkpt>
    <trkpt lat="47.63364" lon="14.07634"><ele>980</ele><time>2022-10-10T14:44:22Z</time></trkpt>
    <trkpt lat="47.63376" lon="14.07642"><ele>969</ele><time>2022-10-10T14:44:41Z</time></trkpt>
    <trkpt lat="47.63387" lon="14.07652"><ele>959</ele><time>2022-10-10T14:44:59Z</time></trkpt>
    <trkpt lat="47.63400" lon="14.07658"><ele>953</ele><time>2022-10-10T14:45:17Z</time></trkpt>
    <trkpt lat="47.63414" lon="14.07665"><ele>953</ele><time>2022-10-10T14:45:36Z</time></trkpt>
    <trkpt lat="47.63429" lon="14.07674"><ele>952</ele><time>2022-10-10T14:45:55Z</time></trkpt>
    <trkpt lat="47.63447" lon="14.07679"><ele>946</ele><time>2022-10-10T14:46:13Z</time></trkpt>
    <trkpt lat="47.63465" lon="14.07689"><ele>942</ele><time>2022-10-10T14:46:31Z</time></trkpt>
    <trkpt lat="47.63477" lon="14.07700"><ele>943</ele><time>2022-10-10T14:46:49Z</time></trkpt>
    <trkpt lat="47.63488" lon="14.07708"><ele>934</ele><time>2022-10-10T14:47:08Z</time></trkpt>
    <trkpt lat="47.63501" lon="14.07727"><ele>933</ele><time>2022-10-10T14:47:26Z</time></trkpt>
    <trkpt lat="47.63515" lon="14.07746"><ele>927</ele><time>2022-10-10T14:47:45Z</time></trkpt>
    <trkpt lat="47.63527" lon="14.07766"><ele>927</ele><time>2022-10-10T14:48:03Z</time></trkpt>
    <trkpt lat="47.63531" lon="14.07787"><ele>928</ele><time>2022-10-10T14:48:22Z</time></trkpt>
    <trkpt lat="47.63537" lon="14.07814"><ele>928</ele><time>2022-10-10T14:48:40Z</time></trkpt>
    <trkpt lat="47.63543" lon="14.07839"><ele>925</ele><time>2022-10-10T14:48:58Z</time></trkpt>
    <trkpt lat="47.63550" lon="14.07866"><ele>918</ele><time>2022-10-10T14:49:17Z</time></trkpt>
    <trkpt lat="47.63561" lon="14.07883"><ele>913</ele><time>2022-10-10T14:49:36Z</time></trkpt>
    <trkpt lat="47.63572" lon="14.07904"><ele>908</ele><time>2022-10-10T14:49:55Z</time></trkpt>
    <trkpt lat="47.63587" lon="14.07916"><ele>906</ele><time>2022-10-10T14:50:13Z</time></trkpt>
    <trkpt lat="47.63597" lon="14.07935"><ele>897</ele><time>2022-10-10T14:50:32Z</time></trkpt>
    <trkpt lat="47.63605" lon="14.07955"><ele>895</ele><time>2022-10-10T14:50:50Z</time></trkpt>
    <trkpt lat="47.63614" lon="14.07977"><ele>883</ele><time>2022-10-10T14:51:09Z</time></trkpt>
    <trkpt lat="47.63628" lon="14.07993"><ele>870</ele><time>2022-10-10T14:51:28Z</time></trkpt>
    <trkpt lat="47.63641" lon="14.08005"><ele>886</ele><time>2022-10-10T14:51:47Z</time></trkpt>
    <trkpt lat="47.63654" lon="14.08016"><ele>881</ele><time>2022-10-10T14:52:05Z</time></trkpt>
    <trkpt lat="47.63667" lon="14.08023"><ele>858</ele><time>2022-10-10T14:52:23Z</time></trkpt>
    <trkpt lat="47.63681" lon="14.08035"><ele>873</ele><time>2022-10-10T14:52:41Z</time></trkpt>
    <trkpt lat="47.63695" lon="14.08049"><ele>869</ele><time>2022-10-10T14:53:00Z</time></trkpt>
    <trkpt lat="47.63709" lon="14.08066"><ele>864</ele><time>2022-10-10T14:53:18Z</time></trkpt>
    <trkpt lat="47.63723" lon="14.08080"><ele>866</ele><time>2022-10-10T14:53:37Z</time></trkpt>
    <trkpt lat="47.63731" lon="14.08100"><ele>864</ele><time>2022-10-10T14:53:55Z</time></trkpt>
    <trkpt lat="47.63735" lon="14.08123"><ele>860</ele><time>2022-10-10T14:54:14Z</time></trkpt>
    <trkpt lat="47.63745" lon="14.08149"><ele>858</ele><time>2022-10-10T14:54:33Z</time></trkpt>
    <trkpt lat="47.63751" lon="14.08169"><ele>855</ele><time>2022-10-10T14:54:51Z</time></trkpt>
    <trkpt lat="47.63761" lon="14.08194"><ele>857</ele><time>2022-10-10T14:55:10Z</time></trkpt>
    <trkpt lat="47.63767" lon="14.08221"><ele>857</ele><time>2022-10-10T14:55:29Z</time></trkpt>
    <trkpt lat="47.63772" lon="14.08236"><ele>850</ele><time>2022-10-10T14:55:48Z</time></trkpt>
    <trkpt lat="47.63779" lon="14.08254"><ele>849</ele><time>2022-10-10T14:56:06Z</time></trkpt>
    <trkpt lat="47.63788" lon="14.08281"><ele>846</ele><time>2022-10-10T14:56:25Z</time></trkpt>
    <trkpt lat="47.63798" lon="14.08305"><ele>842</ele><time>2022-10-10T14:56:44Z</time></trkpt>
    <trkpt lat="47.63808" lon="14.08327"><ele>840</ele><time>2022-10-10T14:57:02Z</time></trkpt>
    <trkpt lat="47.63817" lon="14.08352"><ele>838</ele><time>2022-10-10T14:57:20Z</time></trkpt>
    <trkpt lat="47.63828" lon="14.08374"><ele>834</ele><time>2022-10-10T14:57:38Z</time></trkpt>
    <trkpt lat="47.63836" lon="14.08399"><ele>831</ele><time>2022-10-10T14:57:57Z</time></trkpt>
    <trkpt lat="47.63847" lon="14.08418"><ele>791</ele><time>2022-10-10T14:58:15Z</time></trkpt>
    <trkpt lat="47.63859" lon="14.08440"><ele>818</ele><time>2022-10-10T14:58:34Z</time></trkpt>
    <trkpt lat="47.63870" lon="14.08461"><ele>842</ele><time>2022-10-10T14:58:53Z</time></trkpt>
    <trkpt lat="47.63889" lon="14.08481"><ele>1245</ele><time>2022-10-10T14:59:11Z</time></trkpt>
    <trkpt lat="47.63895" lon="14.08505"><ele>869</ele><time>2022-10-10T14:59:30Z</time></trkpt>
    <trkpt lat="47.63913" lon="14.08518"><ele>1251</ele><time>2022-10-10T14:59:49Z</time></trkpt>
    <trkpt lat="47.63929" lon="14.08535"><ele>860</ele><time>2022-10-10T15:00:07Z</time></trkpt>
    <trkpt lat="47.63948" lon="14.08545"><ele>826</ele><time>2022-10-10T15:00:25Z</time></trkpt>
    <trkpt lat="47.63969" lon="14.08550"><ele>811</ele><time>2022-10-10T15:00:43Z</time></trkpt>
    <trkpt lat="47.63987" lon="14.08567"><ele>806</ele><time>2022-10-10T15:01:02Z</time></trkpt>
    <trkpt lat="47.64006" lon="14.08572"><ele>808</ele><time>2022-10-10T15:01:20Z</time></trkpt>
    <trkpt lat="47.64029" lon="14.08566"><ele>817</ele><time>2022-10-10T15:01:39Z</time></trkpt>
    <trkpt lat="47.64052" lon="14.08571"><ele>795</ele><time>2022-10-10T15:01:57Z</time></trkpt>
    <trkpt lat="47.64072" lon="14.08568"><ele>784</ele><time>2022-10-10T15:02:16Z</time></trkpt>
    <trkpt lat="47.64095" lon="14.08564"><ele>793</ele><time>2022-10-10T15:02:34Z</time></trkpt>
    <trkpt lat="47.64115" lon="14.08566"><ele>794</ele><time>2022-10-10T15:02:53Z</time></trkpt>
    <trkpt lat="47.64133" lon="14.08565"><ele>790</ele><time>2022-10-10T15:03:11Z</time></trkpt>
    <trkpt lat="47.64153" lon="14.08568"><ele>795</ele><time>2022-10-10T15:03:30Z</time></trkpt>
    <trkpt lat="47.64171" lon="14.08566"><ele>788</ele><time>2022-10-10T15:03:48Z</time></trkpt>
    <trkpt lat="47.64190" lon="14.08568"><ele>788</ele><time>2022-10-10T15:04:07Z</time></trkpt>
    <trkpt lat="47.64206" lon="14.08588"><ele>782</ele><time>2022-10-10T15:04:26Z</time></trkpt>
    <trkpt lat="47.64219" lon="14.08609"><ele>784</ele><time>2022-10-10T15:04:44Z</time></trkpt>
    <trkpt lat="47.64232" lon="14.08636"><ele>778</ele><time>2022-10-10T15:05:03Z</time></trkpt>
    <trkpt lat="47.64239" lon="14.08662"><ele>776</ele><time>2022-10-10T15:05:21Z</time></trkpt>
    <trkpt lat="47.64254" lon="14.08682"><ele>771</ele><time>2022-10-10T15:05:40Z</time></trkpt>
    <trkpt lat="47.64272" lon="14.08707"><ele>771</ele><time>2022-10-10T15:05:59Z</time></trkpt>
    <trkpt lat="47.64283" lon="14.08733"><ele>765</ele><time>2022-10-10T15:06:17Z</time></trkpt>
    <trkpt lat="47.64282" lon="14.08763"><ele>766</ele><time>2022-10-10T15:06:35Z</time></trkpt>
    <trkpt lat="47.64292" lon="14.08778"><ele>768</ele><time>2022-10-10T15:06:54Z</time></trkpt>
    <trkpt lat="47.64301" lon="14.08790"><ele>760</ele><time>2022-10-10T15:07:13Z</time></trkpt>
    <trkpt lat="47.64315" lon="14.08800"><ele>755</ele><time>2022-10-10T15:07:31Z</time></trkpt>
    <trkpt lat="47.64317" lon="14.08819"><ele>760</ele><time>2022-10-10T15:07:50Z</time></trkpt>
    <trkpt lat="47.64308" lon="14.08837"><ele>766</ele><time>2022-10-10T15:08:09Z</time></trkpt>
    <trkpt lat="47.64312" lon="14.08859"><ele>755</ele><time>2022-10-10T15:08:28Z</time></trkpt>
    <trkpt lat="47.64319" lon="14.08880"><ele>751</ele><time>2022-10-10T15:08:47Z</time></trkpt>
    <trkpt lat="47.64332" lon="14.08894"><ele>750</ele><time>2022-10-10T15:09:05Z</time></trkpt>
    <trkpt lat="47.64345" lon="14.08918"><ele>746</ele><time>2022-10-10T15:09:24Z</time></trkpt>
    <trkpt lat="47.64353" lon="14.08945"><ele>744</ele><time>2022-10-10T15:09:43Z</time></trkpt>
    <trkpt lat="47.64365" lon="14.08968"><ele>741</ele><time>2022-10-10T15:10:01Z</time></trkpt>
    <trkpt lat="47.64380" lon="14.08987"><ele>736</ele><time>2022-10-10T15:10:19Z</time></trkpt>
    <trkpt lat="47.64396" lon="14.09010"><ele>730</ele><time>2022-10-10T15:10:37Z</time></trkpt>
    <trkpt lat="47.64404" lon="14.09041"><ele>734</ele><time>2022-10-10T15:10:56Z</time></trkpt>
    <trkpt lat="47.64419" lon="14.09071"><ele>735</ele><time>2022-10-10T15:11:15Z</time></trkpt>
    <trkpt lat="47.64420" lon="14.09106"><ele>739</ele><time>2022-10-10T15:11:33Z</time></trkpt>
    <trkpt lat="47.64419" lon="14.09137"><ele>738</ele><time>2022-10-10T15:11:51Z</time></trkpt>
    <trkpt lat="47.64430" lon="14.09169"><ele>733</ele><time>2022-10-10T15:12:10Z</time></trkpt>
    <trkpt lat="47.64434" lon="14.09207"><ele>729</ele><time>2022-10-10T15:12:29Z</time></trkpt>
    <trkpt lat="47.64436" lon="14.09233"><ele>731</ele><time>2022-10-10T15:12:47Z</time></trkpt>
    <trkpt lat="47.64430" lon="14.09256"><ele>736</ele><time>2022-10-10T15:13:06Z</time></trkpt>
    <trkpt lat="47.64443" lon="14.09279"><ele>730</ele><time>2022-10-10T15:13:24Z</time></trkpt>
    <trkpt lat="47.64459" lon="14.09307"><ele>720</ele><time>2022-10-10T15:13:43Z</time></trkpt>
    <trkpt lat="47.64466" lon="14.09336"><ele>728</ele><time>2022-10-10T15:14:01Z</time></trkpt>
    <trkpt lat="47.64479" lon="14.09367"><ele>719</ele><time>2022-10-10T15:14:20Z</time></trkpt>
    <trkpt lat="47.64489" lon="14.09399"><ele>721</ele><time>2022-10-10T15:14:38Z</time></trkpt>
    <trkpt lat="47.64498" lon="14.09429"><ele>724</ele><time>2022-10-10T15:14:56Z</time></trkpt>
    <trkpt lat="47.64509" lon="14.09449"><ele>724</ele><time>2022-10-10T15:15:14Z</time></trkpt>
    <trkpt lat="47.64516" lon="14.09476"><ele>724</ele><time>2022-10-10T15:15:32Z</time></trkpt>
    <trkpt lat="47.64517" lon="14.09510"><ele>721</ele><time>2022-10-10T15:15:51Z</time></trkpt>
    <trkpt lat="47.64528" lon="14.09535"><ele>716</ele><time>2022-10-10T15:16:09Z</time></trkpt>
    <trkpt lat="47.64535" lon="14.09557"><ele>717</ele><time>2022-10-10T15:16:27Z</time></trkpt>
    <trkpt lat="47.64534" lon="14.09578"><ele>719</ele><time>2022-10-10T15:16:46Z</time></trkpt>
    <trkpt lat="47.64516" lon="14.09573"><ele>717</ele><time>2022-10-10T15:17:05Z</time></trkpt>
    <trkpt lat="47.64505" lon="14.09586"><ele>714</ele><time>2022-10-10T15:17:23Z</time></trkpt>
  </trkseg>
</trk>
</gpx>