<?xml version="1.0" encoding="UTF-8"?>
<gpx version="1.1" creator="GPX-Pro" xmlns="http://www.topografix.com/GPX/1/1">
<trk>
  <name>Hike_Elefantenstein</name>
  <trkseg>
    <trkpt lat="48.32779" lon="14.75280"><ele>604</ele><time>2022-10-09T09:00:08Z</time></trkpt>
    <trkpt lat="48.32794" lon="14.75273"><ele>593</ele><time>2022-10-09T09:00:26Z</time></trkpt>
    <trkpt lat="48.32806" lon="14.75251"><ele>589</ele><time>2022-10-09T09:00:45Z</time></trkpt>
    <trkpt lat="48.32813" lon="14.75242"><ele>587</ele><time>2022-10-09T09:01:04Z</time></trkpt>
    <trkpt lat="48.32833" lon="14.75224"><ele>583</ele><time>2022-10-09T09:01:22Z</time></trkpt>
    <trkpt lat="48.32853" lon="14.75208"><ele>579</ele><time>2022-10-09T09:01:40Z</time></trkpt>
    <trkpt lat="48.32875" lon="14.75195"><ele>582</ele><time>2022-10-09T09:01:59Z</time></trkpt>
    <trkpt lat="48.32894" lon="14.75191"><ele>579</ele><time>2022-10-09T09:02:17Z</time></trkpt>
    <trkpt lat="48.32918" lon="14.75185"><ele>579</ele><time>2022-10-09T09:02:35Z</time></trkpt>
    <trkpt lat="48.32939" lon="14.75165"><ele>577</ele><time>2022-10-09T09:02:53Z</time></trkpt>
    <trkpt lat="48.32941" lon="14.75130"><ele>571</ele><time>2022-10-09T09:03:11Z</time></trkpt>
    <trkpt lat="48.32936" lon="14.75095"><ele>573</ele><time>2022-10-09T09:03:29Z</time></trkpt>
    <trkpt lat="48.32939" lon="14.75061"><ele>569</ele><time>2022-10-09T09:03:48Z</time></trkpt>
    <trkpt lat="48.32936" lon="14.75024"><ele>565</ele><time>2022-10-09T09:04:07Z</time></trkpt>
    <trkpt lat="48.32935" lon="14.74990"><ele>567</ele><time>2022-10-09T09:04:25Z</time></trkpt>
    <trkpt lat="48.32920" lon="14.74958"><ele>572</ele><time>2022-10-09T09:04:43Z</time></trkpt>
    <trkpt lat="48.32917" lon="14.74928"><ele>575</ele><time>2022-10-09T09:05:01Z</time></trkpt>
    <trkpt lat="48.32917" lon="14.74903"><ele>578</ele><time>2022-10-09T09:05:19Z</time></trkpt>
    <trkpt lat="48.32923" lon="14.74877"><ele>582</ele><time>2022-10-09T09:05:37Z</time></trkpt>
    <trkpt lat="48.32934" lon="14.74856"><ele>572</ele><time>2022-10-09T09:05:56Z</time></trkpt>
    <trkpt lat="48.32952" lon="14.74838"><ele>582</ele><time>2022-10-09T09:06:15Z</time></trkpt>
    <trkpt lat="48.32963" lon="14.74823"><ele>586</ele><time>2022-10-09T09:06:33Z</time></trkpt>
    <trkpt lat="48.32968" lon="14.74785"><ele>590</ele><time>2022-10-09T09:07:33Z</time></trkpt>
    <trkpt lat="48.32962" lon="14.74763"><ele>590</ele><time>2022-10-09T09:07:51Z</time></trkpt>
    <trkpt lat="48.32948" lon="14.74749"><ele>589</ele><time>2022-10-09T09:08:10Z</time></trkpt>
    <trkpt lat="48.32938" lon="14.74728"><ele>593</ele><time>2022-10-09T09:08:28Z</time></trkpt>
    <trkpt lat="48.32928" lon="14.74709"><ele>592</ele><time>2022-10-09T09:12:02Z</time></trkpt>
    <trkpt lat="48.32913" lon="14.74698"><ele>594</ele><time>2022-10-09T09:12:21Z</time></trkpt>
    <trkpt lat="48.32904" lon="14.74688"><ele>596</ele><time>2022-10-09T09:12:40Z</time></trkpt>
    <trkpt lat="48.32895" lon="14.74666"><ele>600</ele><time>2022-10-09T09:12:58Z</time></trkpt>
    <trkpt lat="48.32891" lon="14.74642"><ele>602</ele><time>2022-10-09T09:13:17Z</time></trkpt>
    <trkpt lat="48.32893" lon="14.74611"><ele>607</ele><time>2022-10-09T09:13:35Z</time></trkpt>
    <trkpt lat="48.32900" lon="14.74577"><ele>601</ele><time>2022-10-09T09:13:54Z</time></trkpt>
    <trkpt lat="48.32902" lon="14.74547"><ele>610</ele><time>2022-10-09T09:14:12Z</time></trkpt>
    <trkpt lat="48.32884" lon="14.74545"><ele>612</ele><time>2022-10-09T09:14:31Z</time></trkpt>
    <trkpt lat="48.32861" lon="14.74549"><ele>599</ele><time>2022-10-09T09:14:50Z</time></trkpt>
    <trkpt lat="48.32846" lon="14.74524"><ele>606</ele><time>2022-10-09T09:15:08Z</time></trkpt>
    <trkpt lat="48.32853" lon="14.74495"><ele>607</ele><time>2022-10-09T09:15:27Z</time></trkpt>
    <trkpt lat="48.32866" lon="14.74482"><ele>609</ele><time>2022-10-09T09:15:45Z</time></trkpt>
    <trkpt lat="48.32886" lon="14.74474"><ele>610</ele><time>2022-10-09T09:16:04Z</time></trkpt>
    <trkpt lat="48.32893" lon="14.74458"><ele>613</ele><time>2022-10-09T09:16:23Z</time></trkpt>
    <trkpt lat="48.32900" lon="14.74433"><ele>620</ele><time>2022-10-09T09:16:41Z</time></trkpt>
    <trkpt lat="48.32906" lon="14.74413"><ele>621</ele><time>2022-10-09T09:17:00Z</time></trkpt>
    <trkpt lat="48.32914" lon="14.74382"><ele>622</ele><time>2022-10-09T09:17:19Z</time></trkpt>
    <trkpt lat="48.32929" lon="14.74363"><ele>632</ele><time>2022-10-09T09:17:37Z</time></trkpt>
    <trkpt lat="48.32947" lon="14.74353"><ele>629</ele><time>2022-10-09T09:17:56Z</time></trkpt>
    <trkpt lat="48.32967" lon="14.74338"><ele>632</ele><time>2022-10-09T09:18:15Z</time></trkpt>
    <trkpt lat="48.32983" lon="14.74320"><ele>629</ele><time>2022-10-09T09:18:34Z</time></trkpt>
    <trkpt lat="48.32997" lon="14.74299"><ele>626</ele><time>2022-10-09T09:18:52Z</time></trkpt>
    <trkpt lat="48.33012" lon="14.74282"><ele>629</ele><time>2022-10-09T09:19:11Z</time></trkpt>
    <trkpt lat="48.33018" lon="14.74270"><ele>627</ele><time>2022-10-09T09:19:47Z</time></trkpt>
    <trkpt lat="48.33026" lon="14.74251"><ele>629</ele><time>2022-10-09T09:20:05Z</time></trkpt>
    <trkpt lat="48.33033" lon="14.74242"><ele>632</ele><time>2022-10-09T09:20:24Z</time></trkpt>
    <trkpt lat="48.33043" lon="14.74233"><ele>638</ele><time>2022-10-09T09:21:51Z</time></trkpt>
    <trkpt lat="48.33054" lon="14.74225"><ele>642</ele><time>2022-10-09T09:22:09Z</time></trkpt>
    <trkpt lat="48.33073" lon="14.74207"><ele>645</ele><time>2022-10-09T09:22:51Z</time></trkpt>
    <trkpt lat="48.33088" lon="14.74197"><ele>645</ele><time>2022-10-09T09:23:09Z</time></trkpt>
    <trkpt lat="48.33104" lon="14.74190"><ele>644</ele><time>2022-10-09T09:23:27Z</time></trkpt>
    <trkpt lat="48.33121" lon="14.74182"><ele>643</ele><time>2022-10-09T09:23:46Z</time></trkpt>
    <trkpt lat="48.33138" lon="14.74172"><ele>644</ele><time>2022-10-09T09:24:04Z</time></trkpt>
    <trkpt lat="48.33155" lon="14.74161"><ele>642</ele><time>2022-10-09T09:24:22Z</time></trkpt>
    <trkpt lat="48.33178" lon="14.74153"><ele>643</ele><time>2022-10-09T09:24:41Z</time></trkpt>
    <trkpt lat="48.33203" lon="14.74139"><ele>635</ele><time>2022-10-09T09:25:19Z</time></trkpt>
    <trkpt lat="48.33212" lon="14.74135"><ele>632</ele><time>2022-10-09T09:25:37Z</time></trkpt>
    <trkpt lat="48.33226" lon="14.74118"><ele>632</ele><time>2022-10-09T09:25:55Z</time></trkpt>
    <trkpt lat="48.33237" lon="14.74103"><ele>631</ele><time>2022-10-09T09:26:14Z</time></trkpt>
    <trkpt lat="48.33231" lon="14.74126"><ele>635</ele><time>2022-10-09T09:27:50Z</time></trkpt>
    <trkpt lat="48.33214" lon="14.74147"><ele>633</ele><time>2022-10-09T09:28:32Z</time></trkpt>
    <trkpt lat="48.33228" lon="14.74139"><ele>636</ele><time>2022-10-09T09:30:05Z</time></trkpt>
    <trkpt lat="48.33231" lon="14.74122"><ele>631</ele><time>2022-10-09T09:30:24Z</time></trkpt>
    <trkpt lat="48.33234" lon="14.74109"><ele>635</ele><time>2022-10-09T09:32:06Z</time></trkpt>
    <trkpt lat="48.33252" lon="14.74086"><ele>628</ele><time>2022-10-09T09:35:25Z</time></trkpt>
    <trkpt lat="48.33263" lon="14.74059"><ele>639</ele><time>2022-10-09T09:35:43Z</time></trkpt>
    <trkpt lat="48.33278" lon="14.74037"><ele>636</ele><time>2022-10-09T09:36:02Z</time></trkpt>
    <trkpt lat="48.33297" lon="14.74012"><ele>634</ele><time>2022-10-09T09:36:21Z</time></trkpt>
    <trkpt lat="48.33309" lon="14.73989"><ele>633</ele><time>2022-10-09T09:36:40Z</time></trkpt>
    <trkpt lat="48.33320" lon="14.73960"><ele>633</ele><time>2022-10-09T09:36:58Z</time></trkpt>
    <trkpt lat="48.33334" lon="14.73928"><ele>630</ele><time>2022-10-09T09:37:16Z</time></trkpt>
    <trkpt lat="48.33341" lon="14.73905"><ele>621</ele><time>2022-10-09T09:37:35Z</time></trkpt>
    <trkpt lat="48.33344" lon="14.73864"><ele>612</ele><time>2022-10-09T09:37:53Z</time></trkpt>
    <trkpt lat="48.33344" lon="14.73829"><ele>588</ele><time>2022-10-09T09:38:11Z</time></trkpt>
    <trkpt lat="48.33342" lon="14.73796"><ele>564</ele><time>2022-10-09T09:38:30Z</time></trkpt>
    <trkpt lat="48.33340" lon="14.73763"><ele>623</ele><time>2022-10-09T09:38:49Z</time></trkpt>
    <trkpt lat="48.33343" lon="14.73728"><ele>624</ele><time>2022-10-09T09:39:08Z</time></trkpt>
    <trkpt lat="48.33348" lon="14.73697"><ele>622</ele><time>2022-10-09T09:39:27Z</time></trkpt>
    <trkpt lat="48.33351" lon="14.73666"><ele>616</ele><time>2022-10-09T09:39:46Z</time></trkpt>
    <trkpt lat="48.33351" lon="14.73642"><ele>620</ele><time>2022-10-09T09:40:05Z</time></trkpt>
    <trkpt lat="48.33344" lon="14.73616"><ele>610</ele><time>2022-10-09T09:40:24Z</time></trkpt>
    <trkpt lat="48.33339" lon="14.73578"><ele>598</ele><time>2022-10-09T09:40:43Z</time></trkpt>
    <trkpt lat="48.33347" lon="14.73543"><ele>605</ele><time>2022-10-09T09:41:02Z</time></trkpt>
    <trkpt lat="48.33365" lon="14.73516"><ele>607</ele><time>2022-10-09T09:41:20Z</time></trkpt>
    <trkpt lat="48.33383" lon="14.73488"><ele>604</ele><time>2022-10-09T09:41:39Z</time></trkpt>
    <trkpt lat="48.33397" lon="14.73460"><ele>608</ele><time>2022-10-09T09:41:58Z</time></trkpt>
    <trkpt lat="48.33387" lon="14.73430"><ele>610</ele><time>2022-10-09T09:42:17Z</time></trkpt>
    <trkpt lat="48.33375" lon="14.73413"><ele>604</ele><time>2022-10-09T09:42:35Z</time></trkpt>
    <trkpt lat="48.33364" lon="14.73388"><ele>610</ele><time>2022-10-09T09:42:54Z</time></trkpt>
    <trkpt lat="48.33352" lon="14.73365"><ele>608</ele><time>2022-10-09T09:43:12Z</time></trkpt>
    <trkpt lat="48.33339" lon="14.73339"><ele>613</ele><time>2022-10-09T09:43:31Z</time></trkpt>
    <trkpt lat="48.33327" lon="14.73314"><ele>613</ele><time>2022-10-09T09:43:49Z</time></trkpt>
    <trkpt lat="48.33316" lon="14.73292"><ele>615</ele><time>2022-10-09T09:44:08Z</time></trkpt>
    <trkpt lat="48.33306" lon="14.73273"><ele>619</ele><time>2022-10-09T09:44:26Z</time></trkpt>
    <trkpt lat="48.33298" lon="14.73251"><ele>621</ele><time>2022-10-09T09:44:44Z</time></trkpt>
    <trkpt lat="48.33294" lon="14.73238"><ele>627</ele><time>2022-10-09T09:45:03Z</time></trkpt>
    <trkpt lat="48.33279" lon="14.73222"><ele>612</ele><time>2022-10-09T09:46:26Z</time></trkpt>
    <trkpt lat="48.33274" lon="14.73202"><ele>608</ele><time>2022-10-09T09:47:11Z</time></trkpt>
    <trkpt lat="48.33273" lon="14.73184"><ele>617</ele><time>2022-10-09T09:47:29Z</time></trkpt>
    <trkpt lat="48.33265" lon="14.73174"><ele>606</ele><time>2022-10-09T09:47:47Z</time></trkpt>
    <trkpt lat="48.33257" lon="14.73148"><ele>631</ele><time>2022-10-09T09:48:06Z</time></trkpt>
    <trkpt lat="48.33245" lon="14.73151"><ele>594</ele><time>2022-10-09T09:48:25Z</time></trkpt>
    <trkpt lat="48.33225" lon="14.73154"><ele>638</ele><time>2022-10-09T09:49:01Z</time></trkpt>
    <trkpt lat="48.33210" lon="14.73161"><ele>608</ele><time>2022-10-09T09:49:19Z</time></trkpt>
    <trkpt lat="48.33201" lon="14.73164"><ele>611</ele><time>2022-10-09T09:49:40Z</time></trkpt>
    <trkpt lat="48.33192" lon="14.73162"><ele>632</ele><time>2022-10-09T09:49:58Z</time></trkpt>
    <trkpt lat="48.33182" lon="14.73168"><ele>611</ele><time>2022-10-09T09:50:17Z</time></trkpt>
    <trkpt lat="48.33170" lon="14.73164"><ele>631</ele><time>2022-10-09T09:50:35Z</time></trkpt>
    <trkpt lat="48.33162" lon="14.73153"><ele>638</ele><time>2022-10-09T09:50:53Z</time></trkpt>
    <trkpt lat="48.33151" lon="14.73142"><ele>643</ele><time>2022-10-09T09:51:12Z</time></trkpt>
    <trkpt lat="48.33137" lon="14.73128"><ele>633</ele><time>2022-10-09T09:53:15Z</time></trkpt>
    <trkpt lat="48.33127" lon="14.73121"><ele>637</ele><time>2022-10-09T09:53:34Z</time></trkpt>
    <trkpt lat="48.33116" lon="14.73101"><ele>646</ele><time>2022-10-09T09:54:24Z</time></trkpt>
    <trkpt lat="48.33105" lon="14.73082"><ele>652</ele><time>2022-10-09T09:56:11Z</time></trkpt>
    <trkpt lat="48.33103" lon="14.73069"><ele>650</ele><time>2022-10-09T09:56:30Z</time></trkpt>
    <trkpt lat="48.33096" lon="14.73046"><ele>654</ele><time>2022-10-09T09:58:24Z</time></trkpt>
    <trkpt lat="48.33081" lon="14.73029"><ele>656</ele><time>2022-10-09T09:59:22Z</time></trkpt>
    <trkpt lat="48.33071" lon="14.73011"><ele>641</ele><time>2022-10-09T10:00:28Z</time></trkpt>
    <trkpt lat="48.33069" lon="14.72987"><ele>671</ele><time>2022-10-09T10:01:53Z</time></trkpt>
    <trkpt lat="48.33057" lon="14.72967"><ele>670</ele><time>2022-10-09T10:02:51Z</time></trkpt>
    <trkpt lat="48.33058" lon="14.72953"><ele>622</ele><time>2022-10-09T10:03:10Z</time></trkpt>
    <trkpt lat="48.33053" lon="14.72940"><ele>659</ele><time>2022-10-09T10:03:29Z</time></trkpt>
    <trkpt lat="48.33048" lon="14.72927"><ele>670</ele><time>2022-10-09T10:03:48Z</time></trkpt>
    <trkpt lat="48.33027" lon="14.72946"><ele>681</ele><time>2022-10-09T10:04:32Z</time></trkpt>
    <trkpt lat="48.33012" lon="14.72960"><ele>683</ele><time>2022-10-09T10:04:50Z</time></trkpt>
    <trkpt lat="48.32994" lon="14.72972"><ele>684</ele><time>2022-10-09T10:05:09Z</time></trkpt>
    <trkpt lat="48.32981" lon="14.72982"><ele>675</ele><time>2022-10-09T10:05:27Z</time></trkpt>
    <trkpt lat="48.32967" lon="14.72993"><ele>679</ele><time>2022-10-09T10:05:46Z</time></trkpt>
    <trkpt lat="48.32951" lon="14.73004"><ele>689</ele><time>2022-10-09T10:06:05Z</time></trkpt>
    <trkpt lat="48.32938" lon="14.73012"><ele>672</ele><time>2022-10-09T10:06:23Z</time></trkpt>
    <trkpt lat="48.32920" lon="14.73019"><ele>677</ele><time>2022-10-09T10:06:42Z</time></trkpt>
    <trkpt lat="48.32901" lon="14.73031"><ele>670</ele><time>2022-10-09T10:07:01Z</time></trkpt>
    <trkpt lat="48.32887" lon="14.73044"><ele>689</ele><time>2022-10-09T10:07:20Z</time></trkpt>
    <trkpt lat="48.32873" lon="14.73065"><ele>685</ele><time>2022-10-09T10:07:39Z</time></trkpt>
    <trkpt lat="48.32858" lon="14.73083"><ele>691</ele><time>2022-10-09T10:07:57Z</time></trkpt>
    <trkpt lat="48.32842" lon="14.73101"><ele>691</ele><time>2022-10-09T10:08:16Z</time></trkpt>
    <trkpt lat="48.32832" lon="14.73126"><ele>690</ele><time>2022-10-09T10:08:34Z</time></trkpt>
    <trkpt lat="48.32829" lon="14.73150"><ele>685</ele><time>2022-10-09T10:08:52Z</time></trkpt>
    <trkpt lat="48.32834" lon="14.73176"><ele>685</ele><time>2022-10-09T10:19:48Z</time></trkpt>
    <trkpt lat="48.32834" lon="14.73150"><ele>680</ele><time>2022-10-09T10:22:41Z</time></trkpt>
    <trkpt lat="48.32840" lon="14.73127"><ele>684</ele><time>2022-10-09T10:23:00Z</time></trkpt>
    <trkpt lat="48.32845" lon="14.73107"><ele>680</ele><time>2022-10-09T10:23:18Z</time></trkpt>
    <trkpt lat="48.32853" lon="14.73081"><ele>683</ele><time>2022-10-09T10:23:37Z</time></trkpt>
    <trkpt lat="48.32861" lon="14.73055"><ele>685</ele><time>2022-10-09T10:23:56Z</time></trkpt>
    <trkpt lat="48.32856" lon="14.73042"><ele>690</ele><time>2022-10-09T10:24:15Z</time></trkpt>
    <trkpt lat="48.32840" lon="14.73025"><ele>685</ele><time>2022-10-09T10:24:33Z</time></trkpt>
    <trkpt lat="48.32822" lon="14.72998"><ele>691</ele><time>2022-10-09T10:24:52Z</time></trkpt>
    <trkpt lat="48.32807" lon="14.72973"><ele>689</ele><time>2022-10-09T10:25:10Z</time></trkpt>
    <trkpt lat="48.32790" lon="14.72951"><ele>687</ele><time>2022-10-09T10:25:29Z</time></trkpt>
    <trkpt lat="48.32776" lon="14.72934"><ele>685</ele><time>2022-10-09T10:25:48Z</time></trkpt>
    <trkpt lat="48.32758" lon="14.72918"><ele>685</ele><time>2022-10-09T10:26:06Z</time></trkpt>
    <trkpt lat="48.32739" lon="14.72906"><ele>683</ele><time>2022-10-09T10:26:25Z</time></trkpt>
    <trkpt lat="48.32721" lon="14.72892"><ele>682</ele><time>2022-10-09T10:26:44Z</time></trkpt>
    <trkpt lat="48.32703" lon="14.72878"><ele>680</ele><time>2022-10-09T10:27:03Z</time></trkpt>
    <trkpt lat="48.32683" lon="14.72867"><ele>673</ele><time>2022-10-09T10:27:21Z</time></trkpt>
    <trkpt lat="48.32664" lon="14.72854"><ele>658</ele><time>2022-10-09T10:27:40Z</time></trkpt>
    <trkpt lat="48.32636" lon="14.72846"><ele>674</ele><time>2022-10-09T10:27:58Z</time></trkpt>
    <trkpt lat="48.32608" lon="14.72834"><ele>670</ele><time>2022-10-09T10:28:17Z</time></trkpt>
    <trkpt lat="48.32600" lon="14.72864"><ele>670</ele><time>2022-10-09T10:28:35Z</time></trkpt>
    <trkpt lat="48.32594" lon="14.72900"><ele>665</ele><time>2022-10-09T10:28:53Z</time></trkpt>
    <trkpt lat="48.32580" lon="14.72931"><ele>661</ele><time>2022-10-09T10:29:12Z</time></trkpt>
    <trkpt lat="48.32569" lon="14.72961"><ele>659</ele><time>2022-10-09T10:29:31Z</time></trkpt>
    <trkpt lat="48.32557" lon="14.72991"><ele>660</ele><time>2022-10-09T10:29:50Z</time></trkpt>
    <trkpt lat="48.32549" lon="14.73016"><ele>660</ele><time>2022-10-09T10:30:09Z</time></trkpt>
    <trkpt lat="48.32538" lon="14.73050"><ele>652</ele><time>2022-10-09T10:30:27Z</time></trkpt>
    <trkpt lat="48.32527" lon="14.73080"><ele>651</ele><time>2022-10-09T10:30:46Z</time></trkpt>
    <trkpt lat="48.32515" lon="14.73108"><ele>652</ele><time>2022-10-09T10:31:04Z</time></trkpt>
    <trkpt lat="48.32506" lon="14.73142"><ele>651</ele><time>2022-10-09T10:31:23Z</time></trkpt>
    <trkpt lat="48.32504" lon="14.73167"><ele>645</ele><time>2022-10-09T10:31:41Z</time></trkpt>
    <trkpt lat="48.32491" lon="14.73199"><ele>645</ele><time>2022-10-09T10:31:59Z</time></trkpt>
    <trkpt lat="48.32488" lon="14.73227"><ele>645</ele><time>2022-10-09T10:32:17Z</time></trkpt>
    <trkpt lat="48.32482" lon="14.73260"><ele>634</ele><time>2022-10-09T10:32:36Z</time></trkpt>
    <trkpt lat="48.32465" lon="14.73290"><ele>620</ele><time>2022-10-09T10:32:55Z</time></trkpt>
    <trkpt lat="48.32453" lon="14.73315"><ele>643</ele><time>2022-10-09T10:33:14Z</time></trkpt>
    <trkpt lat="48.32441" lon="14.73338"><ele>649</ele><time>2022-10-09T10:33:33Z</time></trkpt>
    <trkpt lat="48.32430" lon="14.73360"><ele>648</ele><time>2022-10-09T10:33:51Z</time></trkpt>
    <trkpt lat="48.32425" lon="14.73393"><ele>643</ele><time>2022-10-09T10:34:10Z</time></trkpt>
    <trkpt lat="48.32412" lon="14.73422"><ele>602</ele><time>2022-10-09T10:34:29Z</time></trkpt>
    <trkpt lat="48.32402" lon="14.73447"><ele>646</ele><time>2022-10-09T10:34:48Z</time></trkpt>
    <trkpt lat="48.32395" lon="14.73476"><ele>648</ele><time>2022-10-09T10:35:06Z</time></trkpt>
    <trkpt lat="48.32383" lon="14.73494"><ele>659</ele><time>2022-10-09T10:35:25Z</time></trkpt>
    <trkpt lat="48.32367" lon="14.73507"><ele>654</ele><time>2022-10-09T10:35:44Z</time></trkpt>
    <trkpt lat="48.32348" lon="14.73509"><ele>653</ele><time>2022-10-09T10:36:02Z</time></trkpt>
    <trkpt lat="48.32332" lon="14.73516"><ele>653</ele><time>2022-10-09T10:36:21Z</time></trkpt>
    <trkpt lat="48.32319" lon="14.73537"><ele>644</ele><time>2022-10-09T10:36:39Z</time></trkpt>
    <trkpt lat="48.32314" lon="14.73573"><ele>647</ele><time>2022-10-09T10:36:58Z</time></trkpt>
    <trkpt lat="48.32311" lon="14.73608"><ele>648</ele><time>2022-10-09T10:37:17Z</time></trkpt>
    <trkpt lat="48.32308" lon="14.73645"><ele>645</ele><time>2022-10-09T10:37:35Z</time></trkpt>
    <trkpt lat="48.32302" lon="14.73668"><ele>616</ele><time>2022-10-09T10:37:54Z</time></trkpt>
    <trkpt lat="48.32297" lon="14.73699"><ele>629</ele><time>2022-10-09T10:38:12Z</time></trkpt>
    <trkpt lat="48.32291" lon="14.73733"><ele>632</ele><time>2022-10-09T10:38:31Z</time></trkpt>
    <trkpt lat="48.32285" lon="14.73759"><ele>628</ele><time>2022-10-09T10:38:50Z</time></trkpt>
    <trkpt lat="48.32280" lon="14.73783"><ele>617</ele><time>2022-10-09T10:39:08Z</time></trkpt>
    <trkpt lat="48.32287" lon="14.73800"><ele>617</ele><time>2022-10-09T10:39:27Z</time></trkpt>
    <trkpt lat="48.32267" lon="14.73817"><ele>618</ele><time>2022-10-09T10:40:50Z</time></trkpt>
    <trkpt lat="48.32279" lon="14.73840"><ele>611</ele><time>2022-10-09T10:41:09Z</time></trkpt>
    <trkpt lat="48.32264" lon="14.73859"><ele>590</ele><time>2022-10-09T10:41:27Z</time></trkpt>
    <trkpt lat="48.32262" lon="14.73892"><ele>655</ele><time>2022-10-09T10:41:46Z</time></trkpt>
    <trkpt lat="48.32260" lon="14.73924"><ele>602</ele><time>2022-10-09T10:42:05Z</time></trkpt>
    <trkpt lat="48.32252" lon="14.73963"><ele>610</ele><time>2022-10-09T10:42:23Z</time></trkpt>
    <trkpt lat="48.32257" lon="14.73997"><ele>611</ele><time>2022-10-09T10:42:41Z</time></trkpt>
    <trkpt lat="48.32250" lon="14.74015"><ele>610</ele><time>2022-10-09T10:42:59Z</time></trkpt>
    <trkpt lat="48.32250" lon="14.74054"><ele>596</ele><time>2022-10-09T10:43:18Z</time></trkpt>
    <trkpt lat="48.32253" lon="14.74094"><ele>594</ele><time>2022-10-09T10:43:36Z</time></trkpt>
    <trkpt lat="48.32241" lon="14.74128"><ele>594</ele><time>2022-10-09T10:43:55Z</time></trkpt>
    <trkpt lat="48.32236" lon="14.74157"><ele>597</ele><time>2022-10-09T10:44:14Z</time></trkpt>
    <trkpt lat="48.32230" lon="14.74197"><ele>592</ele><time>2022-10-09T10:44:33Z</time></trkpt>
    <trkpt lat="48.32224" lon="14.74242"><ele>591</ele><time>2022-10-09T10:44:52Z</time></trkpt>
    <trkpt lat="48.32218" lon="14.74279"><ele>588</ele><time>2022-10-09T10:45:11Z</time></trkpt>
    <trkpt lat="48.32202" lon="14.74309"><ele>584</ele><time>2022-10-09T10:45:30Z</time></trkpt>
    <trkpt lat="48.32192" lon="14.74336"><ele>582</ele><time>2022-10-09T10:45:48Z</time></trkpt>
    <trkpt lat="48.32191" lon="14.74369"><ele>580</ele><time>2022-10-09T10:46:06Z</time></trkpt>
    <trkpt lat="48.32191" lon="14.74387"><ele>580</ele><time>2022-10-09T10:46:24Z</time></trkpt>
    <trkpt lat="48.32191" lon="14.74422"><ele>584</ele><time>2022-10-09T10:46:43Z</time></trkpt>
    <trkpt lat="48.32184" lon="14.74449"><ele>584</ele><time>2022-10-09T10:47:01Z</time></trkpt>
    <trkpt lat="48.32173" lon="14.74478"><ele>583</ele><time>2022-10-09T10:47:19Z</time></trkpt>
    <trkpt lat="48.32157" lon="14.74493"><ele>580</ele><time>2022-10-09T10:47:38Z</time></trkpt>
    <trkpt lat="48.32140" lon="14.74516"><ele>581</ele><time>2022-10-09T10:47:57Z</time></trkpt>
    <trkpt lat="48.32124" lon="14.74536"><ele>580</ele><time>2022-10-09T10:48:15Z</time></trkpt>
    <trkpt lat="48.32112" lon="14.74553"><ele>571</ele><time>2022-10-09T10:48:34Z</time></trkpt>
    <trkpt lat="48.32101" lon="14.74586"><ele>572</ele><time>2022-10-09T10:48:52Z</time></trkpt>
    <trkpt lat="48.32107" lon="14.74612"><ele>565</ele><time>2022-10-09T10:49:11Z</time></trkpt>
    <trkpt lat="48.32111" lon="14.74630"><ele>557</ele><time>2022-10-09T10:49:29Z</time></trkpt>
    <trkpt lat="48.32118" lon="14.74656"><ele>551</ele><time>2022-10-09T10:49:48Z</time></trkpt>
    <trkpt lat="48.32130" lon="14.74684"><ele>546</ele><time>2022-10-09T10:50:07Z</time></trkpt>
    <trkpt lat="48.32136" lon="14.74707"><ele>538</ele><time>2022-10-09T10:50:26Z</time></trkpt>
    <trkpt lat="48.32148" lon="14.74715"><ele>530</ele><time>2022-10-09T10:50:44Z</time></trkpt>
    <trkpt lat="48.32184" lon="14.74706"><ele>536</ele><time>2022-10-09T10:51:02Z</time></trkpt>
    <trkpt lat="48.32182" lon="14.74751"><ele>532</ele><time>2022-10-09T10:51:21Z</time></trkpt>
    <trkpt lat="48.32191" lon="14.74787"><ele>531</ele><time>2022-10-09T10:51:40Z</time></trkpt>
    <trkpt lat="48.32201" lon="14.74798"><ele>522</ele><time>2022-10-09T10:51:58Z</time></trkpt>
    <trkpt lat="48.32218" lon="14.74822"><ele>523</ele><time>2022-10-09T10:52:16Z</time></trkpt>
    <trkpt lat="48.32238" lon="14.74849"><ele>524</ele><time>2022-10-09T10:52:35Z</time></trkpt>
    <trkpt lat="48.32255" lon="14.74873"><ele>525</ele><time>2022-10-09T10:52:53Z</time></trkpt>
    <trkpt lat="48.32272" lon="14.74892"><ele>527</ele><time>2022-10-09T10:53:12Z</time></trkpt>
    <trkpt lat="48.32289" lon="14.74889"><ele>533</ele><time>2022-10-09T10:53:31Z</time></trkpt>
    <trkpt lat="48.32303" lon="14.74883"><ele>534</ele><time>2022-10-09T10:53:49Z</time></trkpt>
    <trkpt lat="48.32313" lon="14.74880"><ele>536</ele><time>2022-10-09T10:54:07Z</time></trkpt>
    <trkpt lat="48.32330" lon="14.74875"><ele>544</ele><time>2022-10-09T10:54:26Z</time></trkpt>
    <trkpt lat="48.32339" lon="14.74880"><ele>545</ele><time>2022-10-09T10:54:45Z</time></trkpt>
    <trkpt lat="48.32349" lon="14.74893"><ele>542</ele><time>2022-10-09T10:55:04Z</time></trkpt>
    <trkpt lat="48.32353" lon="14.74911"><ele>541</ele><time>2022-10-09T10:55:22Z</time></trkpt>
    <trkpt lat="48.32365" lon="14.74926"><ele>542</ele><time>2022-10-09T10:55:41Z</time></trkpt>
    <trkpt lat="48.32375" lon="14.74943"><ele>544</ele><time>2022-10-09T10:56:00Z</time></trkpt>
    <trkpt lat="48.32385" lon="14.74958"><ele>543</ele><time>2022-10-09T10:56:18Z</time></trkpt>
    <trkpt lat="48.32398" lon="14.74971"><ele>549</ele><time>2022-10-09T10:56:37Z</time></trkpt>
    <trkpt lat="48.32407" lon="14.74980"><ele>555</ele><time>2022-10-09T10:56:56Z</time></trkpt>
    <trkpt lat="48.32417" lon="14.74992"><ele>560</ele><time>2022-10-09T10:57:14Z</time></trkpt>
    <trkpt lat="48.32423" lon="14.75006"><ele>559</ele><time>2022-10-09T10:57:33Z</time></trkpt>
    <trkpt lat="48.32433" lon="14.75021"><ele>561</ele><time>2022-10-09T10:57:52Z</time></trkpt>
    <trkpt lat="48.32445" lon="14.75039"><ele>564</ele><time>2022-10-09T10:58:11Z</time></trkpt>
    <trkpt lat="48.32459" lon="14.75057"><ele>567</ele><time>2022-10-09T10:58:30Z</time></trkpt>
    <trkpt lat="48.32475" lon="14.75070"><ele>571</ele><time>2022-10-09T10:58:49Z</time></trkpt>
    <trkpt lat="48.32490" lon="14.75071"><ele>572</ele><time>2022-10-09T10:59:08Z</time></trkpt>
    <trkpt lat="48.32503" lon="14.75064"><ele>574</ele><time>2022-10-09T10:59:26Z</time></trkpt>
    <trkpt lat="48.32518" lon="14.75071"><ele>578</ele><time>2022-10-09T10:59:45Z</time></trkpt>
    <trkpt lat="48.32538" lon="14.75088"><ele>585</ele><time>2022-10-09T11:00:27Z</time></trkpt>
    <trkpt lat="48.32550" lon="14.75102"><ele>585</ele><time>2022-10-09T11:00:46Z</time></trkpt>
    <trkpt lat="48.32559" lon="14.75126"><ele>583</ele><time>2022-10-09T11:01:04Z</time></trkpt>
    <trkpt lat="48.32566" lon="14.75149"><ele>583</ele><time>2022-10-09T11:01:23Z</time></trkpt>
    <trkpt lat="48.32572" lon="14.75174"><ele>584</ele><time>2022-10-09T11:01:41Z</time></trkpt>
    <trkpt lat="48.32567" lon="14.75195"><ele>588</ele><time>2022-10-09T11:02:00Z</time></trkpt>
    <trkpt lat="48.32564" lon="14.75219"><ele>587</ele><time>2022-10-09T11:02:18Z</time></trkpt>
    <trkpt lat="48.32571" lon="14.75252"><ele>589</ele><time>2022-10-09T11:02:37Z</time></trkpt>
    <trkpt lat="48.32589" lon="14.75249"><ele>594</ele><time>2022-10-09T11:02:56Z</time></trkpt>
    <trkpt lat="48.32605" lon="14.75238"><ele>593</ele><time>2022-10-09T11:03:15Z</time></trkpt>
    <trkpt lat="48.32620" lon="14.75232"><ele>584</ele><time>2022-10-09T11:03:34Z</time></trkpt>
    <trkpt lat="48.32638" lon="14.75225"><ele>583</ele><time>2022-10-09T11:03:53Z</time></trkpt>
    <trkpt lat="48.32653" lon="14.75228"><ele>578</ele><time>2022-10-09T11:04:11Z</time></trkpt>
    <trkpt lat="48.32659" lon="14.75250"><ele>576</ele><time>2022-10-09T11:04:29Z</time></trkpt>
    <trkpt lat="48.32663" lon="14.75275"><ele>568</ele><time>2022-10-09T11:04:48Z</time></trkpt>
    <trkpt lat="48.32668" lon="14.75305"><ele>565</ele><time>2022-10-09T11:05:07Z</time></trkpt>
    <trkpt lat="48.32677" lon="14.75330"><ele>571</ele><time>2022-10-09T11:05:25Z</time></trkpt>
    <trkpt lat="48.32694" lon="14.75313"><ele>571</ele><time>2022-10-09T11:05:43Z</time></trkpt>
    <trkpt lat="48.32702" lon="14.75291"><ele>571</ele><time>2022-10-09T11:06:02Z</time></trkpt>
    <trkpt lat="48.32709" lon="14.75282"><ele>569</ele><time>2022-10-09T11:06:20Z</time></trkpt>
    <trkpt lat="48.32727" lon="14.75267"><ele>569</ele><time>2022-10-09T11:06:58Z</time></trkpt>
    <trkpt lat="48.32744" lon="14.75261"><ele>574</ele><time>2022-10-09T11:07:37Z</time></trkpt>
    <trkpt lat="48.32756" lon="14.75256"><ele>579</ele><time>2022-10-09T11:07:55Z</time></trkpt>
    <trkpt lat="48.32767" lon="14.75249"><ele>578</ele><time>2022-10-09T11:08:14Z</time></trkpt>
    <trkpt lat="48.32780" lon="14.75233"><ele>587</ele><time>2022-10-09T11:08:33Z</time></trkpt>
    <trkpt lat="48.32790" lon="14.75217"><ele>586</ele><time>2022-10-09T11:08:51Z</time></trkpt>
    <trkpt lat="48.32804" lon="14.75213"><ele>586</ele><time>2022-10-09T11:09:09Z</time></trkpt>
    <trkpt lat="48.32820" lon="14.75216"><ele>584</ele><time>2022-10-09T11:09:27Z</time></trkpt>
    <trkpt lat="48.32836" lon="14.75205"><ele>588</ele><time>2022-10-09T11:09:46Z</time></trkpt>
    <trkpt lat="48.32848" lon="14.75199"><ele>592</ele><time>2022-10-09T11:10:04Z</time></trkpt>
    <trkpt lat="48.32842" lon="14.75213"><ele>585</ele><time>2022-10-09T11:10:23Z</time></trkpt>
    <trkpt lat="48.32828" lon="14.75227"><ele>590</ele><time>2022-10-09T11:10:42Z</time></trkpt>
    <trkpt lat="48.32815" lon="14.75242"><ele>590</ele><time>2022-10-09T11:11:01Z</time></trkpt>
    <trkpt lat="48.32800" lon="14.75258"><ele>592</ele><time>2022-10-09T11:11:19Z</time></trkpt>
    <trkpt lat="48.32786" lon="14.75285"><ele>594</ele><time>2022-10-09T11:11:38Z</time></trkpt>
    <trkpt lat="48.32769" lon="14.75309"><ele>595</ele><time>2022-10-09T11:11:56Z</time></trkpt>
    <trkpt lat="48.32752" lon="14.75326"><ele>596</ele><time>2022-10-09T11:12:15Z</time></trkpt>
    <trkpt lat="48.32769" lon="14.75309"><ele>575</ele><time>2022-10-09T11:15:57Z</time></trkpt>
    <trkpt lat="48.32767" lon="14.75331"><ele>593</ele><time>2022-10-09T11:16:34Z</time></trkpt>
    <trkpt lat="48.32766" lon="14.75347"><ele>600</ele><time>2022-10-09T11:16:53Z</time></trkpt>
    <trkpt lat="48.32772" lon="14.75357"><ele>605</ele><time>2022-10-09T11:17:11Z</time></trkpt>
    <trkpt lat="48.32783" lon="14.75379"><ele>603</ele><time>2022-10-09T11:18:31Z</time></trkpt>
    <trkpt lat="48.32800" lon="14.75389"><ele>610</ele><time>2022-10-09T11:19:09Z</time></trkpt>
    <trkpt lat="48.32813" lon="14.75382"><ele>609</ele><time>2022-10-09T11:19:28Z</time></trkpt>
    <trkpt lat="48.32824" lon="14.75387"><ele>611</ele><time>2022-10-09T11:19:47Z</time></trkpt>
    <trkpt lat="48.32833" lon="14.75398"><ele>613</ele><time>2022-10-09T11:20:06Z</time></trkpt>
    <trkpt lat="48.32844" lon="14.75407"><ele>618</ele><time>2022-10-09T11:20:24Z</time></trkpt>
    <trkpt lat="48.32858" lon="14.75422"><ele>619</ele><time>2022-10-09T11:20:42Z</time></trkpt>
    <trkpt lat="48.32859" lon="14.75445"><ele>617</ele><time>2022-10-09T11:21:37Z</time></trkpt>
    <trkpt lat="48.32863" lon="14.75458"><ele>619</ele><time>2022-10-09T11:21:55Z</time></trkpt>
    <trkpt lat="48.32878" lon="14.75474"><ele>623</ele><time>2022-10-09T11:22:14Z</time></trkpt>
    <trkpt lat="48.32889" lon="14.75479"><ele>626</ele><time>2022-10-09T11:22:32Z</time></trkpt>
    <trkpt lat="48.32895" lon="14.75491"><ele>628</ele><time>2022-10-09T11:22:50Z</time></trkpt>
    <trkpt lat="48.32900" lon="14.75506"><ele>563</ele><time>2022-10-09T11:23:09Z</time></trkpt>
    <trkpt lat="48.32912" lon="14.75524"><ele>626</ele><time>2022-10-09T11:23:48Z</time></trkpt>
    <trkpt lat="48.32920" lon="14.75537"><ele>632</ele><time>2022-10-09T11:24:07Z</time></trkpt>
    <trkpt lat="48.32928" lon="14.75544"><ele>636</ele><time>2022-10-09T11:24:25Z</time></trkpt>
    <trkpt lat="48.32945" lon="14.75550"><ele>636</ele><time>2022-10-09T11:24:44Z</time></trkpt>
    <trkpt lat="48.32947" lon="14.75563"><ele>640</ele><time>2022-10-09T11:25:03Z</time></trkpt>
    <trkpt lat="48.32950" lon="14.75579"><ele>638</ele><time>2022-10-09T11:25:22Z</time></trkpt>
    <trkpt lat="48.32961" lon="14.75586"><ele>642</ele><time>2022-10-09T11:25:40Z</time></trkpt>
    <trkpt lat="48.32972" lon="14.75579"><ele>634</ele><time>2022-10-09T11:25:59Z</time></trkpt>
    <trkpt lat="48.32987" lon="14.75584"><ele>611</ele><time>2022-10-09T11:26:18Z</time></trkpt>
    <trkpt lat="48.32998" lon="14.75593"><ele>642</ele><time>2022-10-09T11:26:37Z</time></trkpt>
    <trkpt lat="48.33013" lon="14.75596"><ele>637</ele><time>2022-10-09T11:26:56Z</time></trkpt>
    <trkpt lat="48.33030" lon="14.75604"><ele>640</ele><time>2022-10-09T11:27:14Z</time></trkpt>
    <trkpt lat="48.33047" lon="14.75612"><ele>594</ele><time>2022-10-09T11:27:33Z</time></trkpt>
    <trkpt lat="48.33065" lon="14.75623"><ele>620</ele><time>2022-10-09T11:27:52Z</time></trkpt>
    <trkpt lat="48.33078" lon="14.75631"><ele>644</ele><time>2022-10-09T11:28:11Z</time></trkpt>
    <trkpt lat="48.33100" lon="14.75651"><ele>643</ele><time>2022-10-09T11:28:59Z</time></trkpt>
    <trkpt lat="48.33114" lon="14.75670"><ele>630</ele><time>2022-10-09T11:29:17Z</time></trkpt>
    <trkpt lat="48.33127" lon="14.75691"><ele>584</ele><time>2022-10-09T11:29:36Z</time></trkpt>
    <trkpt lat="48.33134" lon="14.75717"><ele>642</ele><time>2022-10-09T11:29:54Z</time></trkpt>
    <trkpt lat="48.33129" lon="14.75749"><ele>644</ele><time>2022-10-09T11:30:13Z</time></trkpt>
    <trkpt lat="48.33122" lon="14.75772"><ele>645</ele><time>2022-10-09T11:30:32Z</time></trkpt>
    <trkpt lat="48.33113" lon="14.75796"><ele>648</ele><time>2022-10-09T11:30:51Z</time></trkpt>
    <trkpt lat="48.33120" lon="14.75812"><ele>649</ele><time>2022-10-09T11:31:10Z</time></trkpt>
    <trkpt lat="48.33135" lon="14.75814"><ele>654</ele><time>2022-10-09T11:31:29Z</time></trkpt>
    <trkpt lat="48.33144" lon="14.75806"><ele>654</ele><time>2022-10-09T11:31:47Z</time></trkpt>
    <trkpt lat="48.33150" lon="14.75789"><ele>657</ele><time>2022-10-09T11:32:05Z</time></trkpt>
    <trkpt lat="48.33160" lon="14.75776"><ele>650</ele><time>2022-10-09T11:32:24Z</time></trkpt>
    <trkpt lat="48.33167" lon="14.75768"><ele>667</ele><time>2022-10-09T11:32:42Z</time></trkpt>
    <trkpt lat="48.33183" lon="14.75750"><ele>668</ele><time>2022-10-09T11:33:00Z</time></trkpt>
    <trkpt lat="48.33193" lon="14.75738"><ele>671</ele><time>2022-10-09T11:33:19Z</time></trkpt>
    <trkpt lat="48.33204" lon="14.75726"><ele>671</ele><time>2022-10-09T11:33:37Z</time></trkpt>
    <trkpt lat="48.33220" lon="14.75723"><ele>676</ele><time>2022-10-09T11:33:55Z</time></trkpt>
    <trkpt lat="48.33238" lon="14.75724"><ele>666</ele><time>2022-10-09T11:34:13Z</time></trkpt>
    <trkpt lat="48.33252" lon="14.75728"><ele>678</ele><time>2022-10-09T11:34:32Z</time></trkpt>
    <trkpt lat="48.33265" lon="14.75737"><ele>676</ele><time>2022-10-09T11:34:50Z</time></trkpt>
    <trkpt lat="48.33266" lon="14.75763"><ele>682</ele><time>2022-10-09T11:35:08Z</time></trkpt>
    <trkpt lat="48.33263" lon="14.75784"><ele>681</ele><time>2022-10-09T11:35:26Z</time></trkpt>
    <trkpt lat="48.33255" lon="14.75807"><ele>659</ele><time>2022-10-09T11:35:45Z</time></trkpt>
    <trkpt lat="48.33248" lon="14.75826"><ele>688</ele><time>2022-10-09T11:36:04Z</time></trkpt>
    <trkpt lat="48.33239" lon="14.75847"><ele>676</ele><time>2022-10-09T11:36:22Z</time></trkpt>
    <trkpt lat="48.33229" lon="14.75861"><ele>695</ele><time>2022-10-09T11:36:41Z</time></trkpt>
    <trkpt lat="48.33219" lon="14.75873"><ele>696</ele><time>2022-10-09T11:37:00Z</time></trkpt>
    <trkpt lat="48.33214" lon="14.75893"><ele>655</ele><time>2022-10-09T11:37:18Z</time></trkpt>
    <trkpt lat="48.33213" lon="14.75918"><ele>693</ele><time>2022-10-09T11:37:37Z</time></trkpt>
    <trkpt lat="48.33209" lon="14.75946"><ele>669</ele><time>2022-10-09T11:37:55Z</time></trkpt>
    <trkpt lat="48.33207" lon="14.75978"><ele>697</ele><time>2022-10-09T11:38:14Z</time></trkpt>
    <trkpt lat="48.33213" lon="14.76006"><ele>698</ele><time>2022-10-09T11:38:33Z</time></trkpt>
    <trkpt lat="48.33221" lon="14.76032"><ele>698</ele><time>2022-10-09T11:38:51Z</time></trkpt>
    <trkpt lat="48.33224" lon="14.76063"><ele>692</ele><time>2022-10-09T11:39:10Z</time></trkpt>
    <trkpt lat="48.33221" lon="14.76089"><ele>696</ele><time>2022-10-09T11:39:28Z</time></trkpt>
    <trkpt lat="48.33209" lon="14.76108"><ele>695</ele><time>2022-10-09T11:39:46Z</time></trkpt>
    <trkpt lat="48.33193" lon="14.76120"><ele>688</ele><time>2022-10-09T11:40:04Z</time></trkpt>
    <trkpt lat="48.33176" lon="14.76135"><ele>701</ele><time>2022-10-09T11:40:23Z</time></trkpt>
    <trkpt lat="48.33163" lon="14.76161"><ele>700</ele><time>2022-10-09T11:40:42Z</time></trkpt>
    <trkpt lat="48.33171" lon="14.76172"><ele>704</ele><time>2022-10-09T11:41:00Z</time></trkpt>
    <trkpt lat="48.33183" lon="14.76176"><ele>700</ele><time>2022-10-09T11:41:19Z</time></trkpt>
    <trkpt lat="48.33192" lon="14.76180"><ele>706</ele><time>2022-10-09T11:41:37Z</time></trkpt>
    <trkpt lat="48.33210" lon="14.76190"><ele>706</ele><time>2022-10-09T11:41:55Z</time></trkpt>
    <trkpt lat="48.33222" lon="14.76189"><ele>702</ele><time>2022-10-09T11:42:14Z</time></trkpt>
    <trkpt lat="48.33231" lon="14.76197"><ele>646</ele><time>2022-10-09T11:42:33Z</time></trkpt>
    <trkpt lat="48.33242" lon="14.76201"><ele>640</ele><time>2022-10-09T11:42:51Z</time></trkpt>
    <trkpt lat="48.33254" lon="14.76218"><ele>710</ele><time>2022-10-09T11:43:43Z</time></trkpt>
    <trkpt lat="48.33261" lon="14.76232"><ele>723</ele><time>2022-10-09T11:44:01Z</time></trkpt>
    <trkpt lat="48.33263" lon="14.76254"><ele>723</ele><time>2022-10-09T11:44:20Z</time></trkpt>
    <trkpt lat="48.33254" lon="14.76239"><ele>725</ele><time>2022-10-09T11:49:41Z</time></trkpt>
    <trkpt lat="48.33244" lon="14.76256"><ele>726</ele><time>2022-10-09T11:50:00Z</time></trkpt>
    <trkpt lat="48.33236" lon="14.76274"><ele>723</ele><time>2022-10-09T11:50:18Z</time></trkpt>
    <trkpt lat="48.33236" lon="14.76297"><ele>718</ele><time>2022-10-09T11:50:37Z</time></trkpt>
    <trkpt lat="48.33243" lon="14.76318"><ele>711</ele><time>2022-10-09T11:53:06Z</time></trkpt>
    <trkpt lat="48.33252" lon="14.76326"><ele>712</ele><time>2022-10-09T11:53:24Z</time></trkpt>
    <trkpt lat="48.33254" lon="14.76351"><ele>700</ele><time>2022-10-09T11:54:02Z</time></trkpt>
    <trkpt lat="48.33258" lon="14.76368"><ele>705</ele><time>2022-10-09T11:54:20Z</time></trkpt>
    <trkpt lat="48.33239" lon="14.76385"><ele>698</ele><time>2022-10-09T11:55:09Z</time></trkpt>
    <trkpt lat="48.33220" lon="14.76396"><ele>695</ele><time>2022-10-09T11:55:28Z</time></trkpt>
    <trkpt lat="48.33207" lon="14.76378"><ele>690</ele><time>2022-10-09T11:55:47Z</time></trkpt>
    <trkpt lat="48.33208" lon="14.76391"><ele>695</ele><time>2022-10-09T11:56:20Z</time></trkpt>
    <trkpt lat="48.33216" lon="14.76425"><ele>702</ele><time>2022-10-09T11:56:39Z</time></trkpt>
    <trkpt lat="48.33212" lon="14.76451"><ele>700</ele><time>2022-10-09T11:56:58Z</time></trkpt>
    <trkpt lat="48.33204" lon="14.76485"><ele>693</ele><time>2022-10-09T11:57:16Z</time></trkpt>
    <trkpt lat="48.33191" lon="14.76517"><ele>690</ele><time>2022-10-09T11:57:34Z</time></trkpt>
    <trkpt lat="48.33171" lon="14.76538"><ele>672</ele><time>2022-10-09T11:57:53Z</time></trkpt>
    <trkpt lat="48.33152" lon="14.76540"><ele>648</ele><time>2022-10-09T11:58:12Z</time></trkpt>
    <trkpt lat="48.33133" lon="14.76540"><ele>676</ele><time>2022-10-09T11:58:31Z</time></trkpt>
    <trkpt lat="48.33117" lon="14.76538"><ele>674</ele><time>2022-10-09T11:58:49Z</time></trkpt>
    <trkpt lat="48.33102" lon="14.76525"><ele>673</ele><time>2022-10-09T12:00:10Z</time></trkpt>
    <trkpt lat="48.33096" lon="14.76507"><ele>669</ele><time>2022-10-09T12:00:28Z</time></trkpt>
    <trkpt lat="48.33080" lon="14.76487"><ele>670</ele><time>2022-10-09T12:00:47Z</time></trkpt>
    <trkpt lat="48.33060" lon="14.76484"><ele>665</ele><time>2022-10-09T12:01:06Z</time></trkpt>
    <trkpt lat="48.33038" lon="14.76474"><ele>665</ele><time>2022-10-09T12:01:25Z</time></trkpt>
    <trkpt lat="48.33016" lon="14.76470"><ele>667</ele><time>2022-10-09T12:01:43Z</time></trkpt>
    <trkpt lat="48.32994" lon="14.76469"><ele>669</ele><time>2022-10-09T12:02:02Z</time></trkpt>
    <trkpt lat="48.32973" lon="14.76468"><ele>652</ele><time>2022-10-09T12:02:21Z</time></trkpt>
    <trkpt lat="48.32962" lon="14.76443"><ele>661</ele><time>2022-10-09T12:02:40Z</time></trkpt>
    <trkpt lat="48.32956" lon="14.76411"><ele>643</ele><time>2022-10-09T12:02:58Z</time></trkpt>
    <trkpt lat="48.32944" lon="14.76383"><ele>638</ele><time>2022-10-09T12:03:17Z</time></trkpt>
    <trkpt lat="48.32927" lon="14.76368"><ele>620</ele><time>2022-10-09T12:03:35Z</time></trkpt>
    <trkpt lat="48.32908" lon="14.76363"><ele>650</ele><time>2022-10-09T12:03:54Z</time></trkpt>
    <trkpt lat="48.32887" lon="14.76366"><ele>656</ele><time>2022-10-09T12:04:13Z</time></trkpt>
    <trkpt lat="48.32869" lon="14.76366"><ele>663</ele><time>2022-10-09T12:04:31Z</time></trkpt>
    <trkpt lat="48.32854" lon="14.76369"><ele>664</ele><time>2022-10-09T12:04:49Z</time></trkpt>
    <trkpt lat="48.32839" lon="14.76369"><ele>677</ele><time>2022-10-09T12:05:08Z</time></trkpt>
    <trkpt lat="48.32821" lon="14.76364"><ele>678</ele><time>2022-10-09T12:05:27Z</time></trkpt>
    <trkpt lat="48.32808" lon="14.76363"><ele>663</ele><time>2022-10-09T12:05:46Z</time></trkpt>
    <trkpt lat="48.32788" lon="14.76366"><ele>632</ele><time>2022-10-09T12:06:05Z</time></trkpt>
    <trkpt lat="48.32774" lon="14.76368"><ele>681</ele><time>2022-10-09T12:06:24Z</time></trkpt>
    <trkpt lat="48.32754" lon="14.76372"><ele>681</ele><time>2022-10-09T12:06:43Z</time></trkpt>
    <trkpt lat="48.32725" lon="14.76373"><ele>678</ele><time>2022-10-09T12:07:01Z</time></trkpt>
    <trkpt lat="48.32715" lon="14.76382"><ele>677</ele><time>2022-10-09T12:07:19Z</time></trkpt>
    <trkpt lat="48.32697" lon="14.76390"><ele>675</ele><time>2022-10-09T12:07:38Z</time></trkpt>
    <trkpt lat="48.32668" lon="14.76402"><ele>671</ele><time>2022-10-09T12:07:56Z</time></trkpt>
    <trkpt lat="48.32649" lon="14.76418"><ele>669</ele><time>2022-10-09T12:08:14Z</time></trkpt>
    <trkpt lat="48.32623" lon="14.76428"><ele>669</ele><time>2022-10-09T12:08:33Z</time></trkpt>
    <trkpt lat="48.32603" lon="14.76436"><ele>669</ele><time>2022-10-09T12:08:52Z</time></trkpt>
    <trkpt lat="48.32587" lon="14.76446"><ele>670</ele><time>2022-10-09T12:09:10Z</time></trkpt>
    <trkpt lat="48.32557" lon="14.76461"><ele>671</ele><time>2022-10-09T12:09:28Z</time></trkpt>
    <trkpt lat="48.32539" lon="14.76464"><ele>667</ele><time>2022-10-09T12:09:47Z</time></trkpt>
    <trkpt lat="48.32514" lon="14.76445"><ele>669</ele><time>2022-10-09T12:10:06Z</time></trkpt>
    <trkpt lat="48.32491" lon="14.76446"><ele>670</ele><time>2022-10-09T12:10:24Z</time></trkpt>
    <trkpt lat="48.32468" lon="14.76449"><ele>673</ele><time>2022-10-09T12:10:42Z</time></trkpt>
    <trkpt lat="48.32446" lon="14.76452"><ele>673</ele><time>2022-10-09T12:11:00Z</time></trkpt>
    <trkpt lat="48.32424" lon="14.76453"><ele>672</ele><time>2022-10-09T12:11:19Z</time></trkpt>
    <trkpt lat="48.32400" lon="14.76460"><ele>674</ele><time>2022-10-09T12:11:37Z</time></trkpt>
    <trkpt lat="48.32402" lon="14.76432"><ele>677</ele><time>2022-10-09T12:11:55Z</time></trkpt>
    <trkpt lat="48.32412" lon="14.76404"><ele>678</ele><time>2022-10-09T12:12:14Z</time></trkpt>
    <trkpt lat="48.32422" lon="14.76375"><ele>681</ele><time>2022-10-09T12:12:32Z</time></trkpt>
    <trkpt lat="48.32419" lon="14.76346"><ele>680</ele><time>2022-10-09T12:12:50Z</time></trkpt>
    <trkpt lat="48.32397" lon="14.76335"><ele>680</ele><time>2022-10-09T12:13:09Z</time></trkpt>
    <trkpt lat="48.32377" lon="14.76326"><ele>680</ele><time>2022-10-09T12:13:27Z</time></trkpt>
    <trkpt lat="48.32354" lon="14.76318"><ele>678</ele><time>2022-10-09T12:13:46Z</time></trkpt>
    <trkpt lat="48.32331" lon="14.76319"><ele>675</ele><time>2022-10-09T12:14:04Z</time></trkpt>
    <trkpt lat="48.32314" lon="14.76322"><ele>674</ele><time>2022-10-09T12:14:23Z</time></trkpt>
    <trkpt lat="48.32292" lon="14.76319"><ele>675</ele><time>2022-10-09T12:14:41Z</time></trkpt>
    <trkpt lat="48.32269" lon="14.76307"><ele>675</ele><time>2022-10-09T12:14:59Z</time></trkpt>
    <trkpt lat="48.32251" lon="14.76299"><ele>672</ele><time>2022-10-09T12:15:17Z</time></trkpt>
    <trkpt lat="48.32232" lon="14.76305"><ele>669</ele><time>2022-10-09T12:15:36Z</time></trkpt>
    <trkpt lat="48.32213" lon="14.76329"><ele>668</ele><time>2022-10-09T12:15:54Z</time></trkpt>
    <trkpt lat="48.32196" lon="14.76343"><ele>668</ele><time>2022-10-09T12:16:12Z</time></trkpt>
    <trkpt lat="48.32177" lon="14.76358"><ele>665</ele><time>2022-10-09T12:16:30Z</time></trkpt>
    <trkpt lat="48.32159" lon="14.76355"><ele>660</ele><time>2022-10-09T12:16:48Z</time></trkpt>
    <trkpt lat="48.32130" lon="14.76342"><ele>662</ele><time>2022-10-09T12:17:06Z</time></trkpt>
    <trkpt lat="48.32115" lon="14.76322"><ele>662</ele><time>2022-10-09T12:17:25Z</time></trkpt>
    <trkpt lat="48.32123" lon="14.76292"><ele>661</ele><time>2022-10-09T12:17:44Z</time></trkpt>
    <trkpt lat="48.32126" lon="14.76273"><ele>660</ele><time>2022-10-09T12:18:03Z</time></trkpt>
    <trkpt lat="48.32136" lon="14.76249"><ele>660</ele><time>2022-10-09T12:18:22Z</time></trkpt>
    <trkpt lat="48.32148" lon="14.76225"><ele>662</ele><time>2022-10-09T12:18:40Z</time></trkpt>
    <trkpt lat="48.32161" lon="14.76190"><ele>653</ele><time>2022-10-09T12:18:59Z</time></trkpt>
    <trkpt lat="48.32164" lon="14.76159"><ele>652</ele><time>2022-10-09T12:19:17Z</time></trkpt>
    <trkpt lat="48.32160" lon="14.76118"><ele>652</ele><time>2022-10-09T12:19:35Z</time></trkpt>
    <trkpt lat="48.32161" lon="14.76085"><ele>655</ele><time>2022-10-09T12:19:54Z</time></trkpt>
    <trkpt lat="48.32172" lon="14.76057"><ele>649</ele><time>2022-10-09T12:20:12Z</time></trkpt>
    <trkpt lat="48.32181" lon="14.76020"><ele>643</ele><time>2022-10-09T12:20:31Z</time></trkpt>
    <trkpt lat="48.32185" lon="14.75989"><ele>637</ele><time>2022-10-09T12:20:50Z</time></trkpt>
    <trkpt lat="48.32189" lon="14.75955"><ele>633</ele><time>2022-10-09T12:21:09Z</time></trkpt>
    <trkpt lat="48.32188" lon="14.75929"><ele>634</ele><time>2022-10-09T12:21:27Z</time></trkpt>
    <trkpt lat="48.32181" lon="14.75902"><ele>603</ele><time>2022-10-09T12:21:45Z</time></trkpt>
    <trkpt lat="48.32176" lon="14.75885"><ele>633</ele><time>2022-10-09T12:22:04Z</time></trkpt>
    <trkpt lat="48.32179" lon="14.75862"><ele>626</ele><time>2022-10-09T12:23:47Z</time></trkpt>
    <trkpt lat="48.32197" lon="14.75850"><ele>611</ele><time>2022-10-09T12:24:06Z</time></trkpt>
    <trkpt lat="48.32219" lon="14.75832"><ele>611</ele><time>2022-10-09T12:24:24Z</time></trkpt>
    <trkpt lat="48.32227" lon="14.75818"><ele>604</ele><time>2022-10-09T12:24:42Z</time></trkpt>
    <trkpt lat="48.32234" lon="14.75807"><ele>606</ele><time>2022-10-09T12:25:37Z</time></trkpt>
    <trkpt lat="48.32239" lon="14.75785"><ele>595</ele><time>2022-10-09T12:25:55Z</time></trkpt>
    <trkpt lat="48.32254" lon="14.75754"><ele>598</ele><time>2022-10-09T12:26:14Z</time></trkpt>
    <trkpt lat="48.32266" lon="14.75725"><ele>602</ele><time>2022-10-09T12:26:32Z</time></trkpt>
    <trkpt lat="48.32282" lon="14.75691"><ele>604</ele><time>2022-10-09T12:26:51Z</time></trkpt>
    <trkpt lat="48.32296" lon="14.75661"><ele>610</ele><time>2022-10-09T12:27:09Z</time></trkpt>
    <trkpt lat="48.32315" lon="14.75657"><ele>597</ele><time>2022-10-09T12:27:28Z</time></trkpt>
    <trkpt lat="48.32318" lon="14.75630"><ele>597</ele><time>2022-10-09T12:27:47Z</time></trkpt>
    <trkpt lat="48.32318" lon="14.75596"><ele>590</ele><time>2022-10-09T12:28:05Z</time></trkpt>
    <trkpt lat="48.32334" lon="14.75568"><ele>585</ele><time>2022-10-09T12:28:24Z</time></trkpt>
    <trkpt lat="48.32344" lon="14.75539"><ele>585</ele><time>2022-10-09T12:28:42Z</time></trkpt>
    <trkpt lat="48.32361" lon="14.75519"><ele>581</ele><time>2022-10-09T12:29:01Z</time></trkpt>
    <trkpt lat="48.32379" lon="14.75502"><ele>567</ele><time>2022-10-09T12:29:20Z</time></trkpt>
    <trkpt lat="48.32390" lon="14.75482"><ele>567</ele><time>2022-10-09T12:29:39Z</time></trkpt>
    <trkpt lat="48.32411" lon="14.75455"><ele>565</ele><time>2022-10-09T12:29:57Z</time></trkpt>
    <trkpt lat="48.32429" lon="14.75435"><ele>563</ele><time>2022-10-09T12:30:16Z</time></trkpt>
    <trkpt lat="48.32438" lon="14.75403"><ele>561</ele><time>2022-10-09T12:30:35Z</time></trkpt>
    <trkpt lat="48.32445" lon="14.75378"><ele>567</ele><time>2022-10-09T12:30:53Z</time></trkpt>
    <trkpt lat="48.32455" lon="14.75362"><ele>566</ele><time>2022-10-09T12:31:11Z</time></trkpt>
    <trkpt lat="48.32473" lon="14.75347"><ele>573</ele><time>2022-10-09T12:31:30Z</time></trkpt>
    <trkpt lat="48.32489" lon="14.75346"><ele>578</ele><time>2022-10-09T12:31:49Z</time></trkpt>
    <trkpt lat="48.32504" lon="14.75346"><ele>581</ele><time>2022-10-09T12:32:08Z</time></trkpt>
    <trkpt lat="48.32519" lon="14.75348"><ele>578</ele><time>2022-10-09T12:32:26Z</time></trkpt>
    <trkpt lat="48.32536" lon="14.75346"><ele>586</ele><time>2022-10-09T12:32:45Z</time></trkpt>
    <trkpt lat="48.32542" lon="14.75323"><ele>589</ele><time>2022-10-09T12:33:04Z</time></trkpt>
    <trkpt lat="48.32539" lon="14.75297"><ele>589</ele><time>2022-10-09T12:33:23Z</time></trkpt>
    <trkpt lat="48.32549" lon="14.75271"><ele>592</ele><time>2022-10-09T12:33:42Z</time></trkpt>
    <trkpt lat="48.32575" lon="14.75257"><ele>593</ele><time>2022-10-09T12:34:00Z</time></trkpt>
    <trkpt lat="48.32600" lon="14.75240"><ele>595</ele><time>2022-10-09T12:34:19Z</time></trkpt>
    <trkpt lat="48.32618" lon="14.75233"><ele>588</ele><time>2022-10-09T12:34:37Z</time></trkpt>
    <trkpt lat="48.32636" lon="14.75227"><ele>588</ele><time>2022-10-09T12:34:55Z</time></trkpt>
    <trkpt lat="48.32654" lon="14.75226"><ele>580</ele><time>2022-10-09T12:35:14Z</time></trkpt>
    <trkpt lat="48.32662" lon="14.75250"><ele>574</ele><time>2022-10-09T12:35:33Z</time></trkpt>
    <trkpt lat="48.32665" lon="14.75285"><ele>565</ele><time>2022-10-09T12:35:51Z</time></trkpt>
    <trkpt lat="48.32674" lon="14.75315"><ele>560</ele><time>2022-10-09T12:36:09Z</time></trkpt>
    <trkpt lat="48.32692" lon="14.75309"><ele>558</ele><time>2022-10-09T12:36:28Z</time></trkpt>
    <trkpt lat="48.32706" lon="14.75290"><ele>563</ele><time>2022-10-09T12:36:47Z</time></trkpt>
    <trkpt lat="48.32719" lon="14.75271"><ele>569</ele><time>2022-10-09T12:37:05Z</time></trkpt>
    <trkpt lat="48.32735" lon="14.75259"><ele>574</ele><time>2022-10-09T12:37:24Z</time></trkpt>
    <trkpt lat="48.32759" lon="14.75253"><ele>564</ele><time>2022-10-09T12:37:42Z</time></trkpt>
    <trkpt lat="48.32757" lon="14.75281"><ele>562</ele><time>2022-10-09T12:38:26Z</time></trkpt>
    <trkpt lat="48.32762" lon="14.75303"><ele>576</ele><time>2022-10-09T12:39:03Z</time></trkpt>
    <trkpt lat="48.32756" lon="14.75321"><ele>584</ele><time>2022-10-09T12:39:22Z</time></trkpt>
  </trkseg>
</trk>
</gpx>