<?xml version="1.0" encoding="UTF-8"?>
<gpx version="1.1" creator="GPX-Pro" xmlns="http://www.topografix.com/GPX/1/1">
<trk>
  <name>Hochtausig</name>
  <trkseg>
    <trkpt lat="47.57436" lon="14.17206"><ele>1164</ele><time>2022-11-13T07:26:25Z</time></trkpt>
    <trkpt lat="47.57454" lon="14.17184"><ele>1141</ele><time>2022-11-13T07:26:44Z</time></trkpt>
    <trkpt lat="47.57457" lon="14.17160"><ele>1140</ele><time>2022-11-13T07:27:02Z</time></trkpt>
    <trkpt lat="47.57466" lon="14.17127"><ele>1137</ele><time>2022-11-13T07:27:21Z</time></trkpt>
    <trkpt lat="47.57485" lon="14.17100"><ele>1133</ele><time>2022-11-13T07:27:39Z</time></trkpt>
    <trkpt lat="47.57500" lon="14.17068"><ele>1131</ele><time>2022-11-13T07:27:57Z</time></trkpt>
    <trkpt lat="47.57506" lon="14.17034"><ele>1137</ele><time>2022-11-13T07:28:16Z</time></trkpt>
    <trkpt lat="47.57504" lon="14.17000"><ele>1141</ele><time>2022-11-13T07:28:34Z</time></trkpt>
    <trkpt lat="47.57498" lon="14.16960"><ele>1148</ele><time>2022-11-13T07:28:52Z</time></trkpt>
    <trkpt lat="47.57501" lon="14.16923"><ele>1142</ele><time>2022-11-13T07:29:11Z</time></trkpt>
    <trkpt lat="47.57515" lon="14.16891"><ele>1136</ele><time>2022-11-13T07:30:00Z</time></trkpt>
    <trkpt lat="47.57530" lon="14.16875"><ele>1138</ele><time>2022-11-13T07:30:18Z</time></trkpt>
    <trkpt lat="47.57557" lon="14.16891"><ele>1138</ele><time>2022-11-13T07:31:08Z</time></trkpt>
    <trkpt lat="47.57574" lon="14.16906"><ele>1138</ele><time>2022-11-13T07:31:27Z</time></trkpt>
    <trkpt lat="47.57586" lon="14.16914"><ele>1143</ele><time>2022-11-13T07:31:45Z</time></trkpt>
    <trkpt lat="47.57598" lon="14.16924"><ele>1145</ele><time>2022-11-13T07:32:03Z</time></trkpt>
    <trkpt lat="47.57611" lon="14.16927"><ele>1146</ele><time>2022-11-13T07:32:22Z</time></trkpt>
    <trkpt lat="47.57623" lon="14.16928"><ele>1152</ele><time>2022-11-13T07:32:41Z</time></trkpt>
    <trkpt lat="47.57634" lon="14.16950"><ele>1162</ele><time>2022-11-13T07:33:17Z</time></trkpt>
    <trkpt lat="47.57647" lon="14.16957"><ele>1157</ele><time>2022-11-13T07:33:35Z</time></trkpt>
    <trkpt lat="47.57660" lon="14.16952"><ele>1164</ele><time>2022-11-13T07:33:54Z</time></trkpt>
    <trkpt lat="47.57676" lon="14.16947"><ele>1174</ele><time>2022-11-13T07:34:34Z</time></trkpt>
    <trkpt lat="47.57690" lon="14.16937"><ele>1173</ele><time>2022-11-13T07:34:52Z</time></trkpt>
    <trkpt lat="47.57702" lon="14.16929"><ele>1179</ele><time>2022-11-13T07:35:11Z</time></trkpt>
    <trkpt lat="47.57723" lon="14.16937"><ele>1183</ele><time>2022-11-13T07:35:52Z</time></trkpt>
    <trkpt lat="47.57741" lon="14.16937"><ele>1193</ele><time>2022-11-13T07:36:29Z</time></trkpt>
    <trkpt lat="47.57751" lon="14.16944"><ele>1195</ele><time>2022-11-13T07:36:47Z</time></trkpt>
    <trkpt lat="47.57762" lon="14.16941"><ele>1196</ele><time>2022-11-13T07:37:06Z</time></trkpt>
    <trkpt lat="47.57780" lon="14.16959"><ele>1207</ele><time>2022-11-13T07:37:46Z</time></trkpt>
    <trkpt lat="47.57790" lon="14.16964"><ele>1205</ele><time>2022-11-13T07:38:05Z</time></trkpt>
    <trkpt lat="47.57799" lon="14.16978"><ele>1207</ele><time>2022-11-13T07:38:24Z</time></trkpt>
    <trkpt lat="47.57807" lon="14.16993"><ele>1210</ele><time>2022-11-13T07:38:42Z</time></trkpt>
    <trkpt lat="47.57818" lon="14.17002"><ele>1209</ele><time>2022-11-13T07:39:00Z</time></trkpt>
    <trkpt lat="47.57826" lon="14.17020"><ele>1210</ele><time>2022-11-13T07:39:18Z</time></trkpt>
    <trkpt lat="47.57832" lon="14.17038"><ele>1217</ele><time>2022-11-13T07:39:37Z</time></trkpt>
    <trkpt lat="47.57842" lon="14.17058"><ele>1213</ele><time>2022-11-13T07:39:55Z</time></trkpt>
    <trkpt lat="47.57851" lon="14.17076"><ele>1221</ele><time>2022-11-13T07:40:13Z</time></trkpt>
    <trkpt lat="47.57865" lon="14.17093"><ele>1221</ele><time>2022-11-13T07:40:32Z</time></trkpt>
    <trkpt lat="47.57879" lon="14.17100"><ele>1224</ele><time>2022-11-13T07:40:50Z</time></trkpt>
    <trkpt lat="47.57887" lon="14.17113"><ele>1225</ele><time>2022-11-13T07:41:08Z</time></trkpt>
    <trkpt lat="47.57895" lon="14.17126"><ele>1231</ele><time>2022-11-13T07:41:27Z</time></trkpt>
    <trkpt lat="47.57898" lon="14.17140"><ele>1235</ele><time>2022-11-13T07:41:46Z</time></trkpt>
    <trkpt lat="47.57912" lon="14.17149"><ele>1234</ele><time>2022-11-13T07:42:05Z</time></trkpt>
    <trkpt lat="47.57925" lon="14.17154"><ele>1239</ele><time>2022-11-13T07:42:23Z</time></trkpt>
    <trkpt lat="47.57930" lon="14.17166"><ele>1237</ele><time>2022-11-13T07:42:41Z</time></trkpt>
    <trkpt lat="47.57938" lon="14.17183"><ele>1238</ele><time>2022-11-13T07:43:00Z</time></trkpt>
    <trkpt lat="47.57947" lon="14.17185"><ele>1242</ele><time>2022-11-13T07:43:19Z</time></trkpt>
    <trkpt lat="47.57967" lon="14.17198"><ele>1241</ele><time>2022-11-13T07:43:57Z</time></trkpt>
    <trkpt lat="47.57979" lon="14.17201"><ele>1247</ele><time>2022-11-13T07:44:16Z</time></trkpt>
    <trkpt lat="47.57987" lon="14.17215"><ele>1249</ele><time>2022-11-13T07:44:34Z</time></trkpt>
    <trkpt lat="47.57999" lon="14.17225"><ele>1251</ele><time>2022-11-13T07:44:53Z</time></trkpt>
    <trkpt lat="47.58010" lon="14.17222"><ele>1254</ele><time>2022-11-13T07:45:12Z</time></trkpt>
    <trkpt lat="47.58023" lon="14.17223"><ele>1254</ele><time>2022-11-13T07:45:31Z</time></trkpt>
    <trkpt lat="47.58035" lon="14.17216"><ele>1257</ele><time>2022-11-13T07:45:50Z</time></trkpt>
    <trkpt lat="47.58046" lon="14.17225"><ele>1261</ele><time>2022-11-13T07:46:09Z</time></trkpt>
    <trkpt lat="47.58060" lon="14.17223"><ele>1263</ele><time>2022-11-13T07:46:28Z</time></trkpt>
    <trkpt lat="47.58067" lon="14.17210"><ele>1265</ele><time>2022-11-13T07:46:47Z</time></trkpt>
    <trkpt lat="47.58069" lon="14.17193"><ele>1270</ele><time>2022-11-13T07:47:06Z</time></trkpt>
    <trkpt lat="47.58073" lon="14.17171"><ele>1274</ele><time>2022-11-13T07:47:24Z</time></trkpt>
    <trkpt lat="47.58076" lon="14.17153"><ele>1275</ele><time>2022-11-13T07:47:43Z</time></trkpt>
    <trkpt lat="47.58075" lon="14.17136"><ele>1275</ele><time>2022-11-13T07:48:01Z</time></trkpt>
    <trkpt lat="47.58079" lon="14.17117"><ele>1279</ele><time>2022-11-13T07:48:20Z</time></trkpt>
    <trkpt lat="47.58082" lon="14.17098"><ele>1280</ele><time>2022-11-13T07:48:39Z</time></trkpt>
    <trkpt lat="47.58080" lon="14.17075"><ele>1280</ele><time>2022-11-13T07:48:58Z</time></trkpt>
    <trkpt lat="47.58081" lon="14.17055"><ele>1283</ele><time>2022-11-13T07:49:17Z</time></trkpt>
    <trkpt lat="47.58083" lon="14.17034"><ele>1286</ele><time>2022-11-13T07:49:35Z</time></trkpt>
    <trkpt lat="47.58083" lon="14.17017"><ele>1288</ele><time>2022-11-13T07:49:53Z</time></trkpt>
    <trkpt lat="47.58085" lon="14.16995"><ele>1293</ele><time>2022-11-13T07:50:12Z</time></trkpt>
    <trkpt lat="47.58088" lon="14.16968"><ele>1294</ele><time>2022-11-13T07:50:31Z</time></trkpt>
    <trkpt lat="47.58089" lon="14.16942"><ele>1300</ele><time>2022-11-13T07:50:49Z</time></trkpt>
    <trkpt lat="47.58086" lon="14.16918"><ele>1299</ele><time>2022-11-13T07:51:08Z</time></trkpt>
    <trkpt lat="47.58089" lon="14.16903"><ele>1301</ele><time>2022-11-13T07:51:27Z</time></trkpt>
    <trkpt lat="47.58098" lon="14.16889"><ele>1307</ele><time>2022-11-13T07:51:45Z</time></trkpt>
    <trkpt lat="47.58108" lon="14.16870"><ele>1311</ele><time>2022-11-13T07:52:22Z</time></trkpt>
    <trkpt lat="47.58115" lon="14.16857"><ele>1314</ele><time>2022-11-13T07:52:40Z</time></trkpt>
    <trkpt lat="47.58118" lon="14.16841"><ele>1315</ele><time>2022-11-13T07:52:59Z</time></trkpt>
    <trkpt lat="47.58127" lon="14.16833"><ele>1317</ele><time>2022-11-13T07:53:17Z</time></trkpt>
    <trkpt lat="47.58138" lon="14.16835"><ele>1320</ele><time>2022-11-13T07:53:35Z</time></trkpt>
    <trkpt lat="47.58148" lon="14.16835"><ele>1321</ele><time>2022-11-13T07:53:54Z</time></trkpt>
    <trkpt lat="47.58159" lon="14.16829"><ele>1322</ele><time>2022-11-13T07:54:12Z</time></trkpt>
    <trkpt lat="47.58172" lon="14.16832"><ele>1320</ele><time>2022-11-13T07:54:31Z</time></trkpt>
    <trkpt lat="47.58185" lon="14.16836"><ele>1324</ele><time>2022-11-13T07:54:49Z</time></trkpt>
    <trkpt lat="47.58200" lon="14.16826"><ele>1326</ele><time>2022-11-13T07:55:08Z</time></trkpt>
    <trkpt lat="47.58216" lon="14.16815"><ele>1325</ele><time>2022-11-13T07:55:26Z</time></trkpt>
    <trkpt lat="47.58228" lon="14.16810"><ele>1332</ele><time>2022-11-13T07:55:44Z</time></trkpt>
    <trkpt lat="47.58240" lon="14.16795"><ele>1337</ele><time>2022-11-13T07:56:02Z</time></trkpt>
    <trkpt lat="47.58252" lon="14.16781"><ele>1336</ele><time>2022-11-13T07:56:21Z</time></trkpt>
    <trkpt lat="47.58263" lon="14.16769"><ele>1339</ele><time>2022-11-13T07:56:40Z</time></trkpt>
    <trkpt lat="47.58275" lon="14.16760"><ele>1341</ele><time>2022-11-13T07:56:59Z</time></trkpt>
    <trkpt lat="47.58284" lon="14.16750"><ele>1344</ele><time>2022-11-13T07:57:17Z</time></trkpt>
    <trkpt lat="47.58284" lon="14.16725"><ele>1349</ele><time>2022-11-13T07:57:36Z</time></trkpt>
    <trkpt lat="47.58276" lon="14.16700"><ele>1348</ele><time>2022-11-13T07:57:54Z</time></trkpt>
    <trkpt lat="47.58272" lon="14.16672"><ele>1348</ele><time>2022-11-13T07:58:12Z</time></trkpt>
    <trkpt lat="47.58271" lon="14.16647"><ele>1351</ele><time>2022-11-13T07:58:31Z</time></trkpt>
    <trkpt lat="47.58271" lon="14.16618"><ele>1354</ele><time>2022-11-13T07:58:50Z</time></trkpt>
    <trkpt lat="47.58268" lon="14.16592"><ele>1355</ele><time>2022-11-13T07:59:08Z</time></trkpt>
    <trkpt lat="47.58260" lon="14.16564"><ele>1355</ele><time>2022-11-13T07:59:27Z</time></trkpt>
    <trkpt lat="47.58251" lon="14.16539"><ele>1356</ele><time>2022-11-13T07:59:46Z</time></trkpt>
    <trkpt lat="47.58248" lon="14.16512"><ele>1359</ele><time>2022-11-13T08:00:04Z</time></trkpt>
    <trkpt lat="47.58246" lon="14.16497"><ele>1362</ele><time>2022-11-13T08:00:23Z</time></trkpt>
    <trkpt lat="47.58263" lon="14.16495"><ele>1368</ele><time>2022-11-13T08:02:14Z</time></trkpt>
    <trkpt lat="47.58270" lon="14.16480"><ele>1360</ele><time>2022-11-13T08:02:32Z</time></trkpt>
    <trkpt lat="47.58269" lon="14.16460"><ele>1352</ele><time>2022-11-13T08:02:50Z</time></trkpt>
    <trkpt lat="47.58265" lon="14.16435"><ele>1361</ele><time>2022-11-13T08:03:09Z</time></trkpt>
    <trkpt lat="47.58274" lon="14.16425"><ele>1368</ele><time>2022-11-13T08:03:27Z</time></trkpt>
    <trkpt lat="47.58270" lon="14.16403"><ele>1297</ele><time>2022-11-13T08:03:46Z</time></trkpt>
    <trkpt lat="47.58268" lon="14.16385"><ele>1362</ele><time>2022-11-13T08:04:04Z</time></trkpt>
    <trkpt lat="47.58266" lon="14.16366"><ele>1368</ele><time>2022-11-13T08:04:23Z</time></trkpt>
    <trkpt lat="47.58265" lon="14.16334"><ele>1383</ele><time>2022-11-13T08:05:01Z</time></trkpt>
    <trkpt lat="47.58265" lon="14.16312"><ele>1391</ele><time>2022-11-13T08:05:20Z</time></trkpt>
    <trkpt lat="47.58269" lon="14.16296"><ele>1394</ele><time>2022-11-13T08:05:39Z</time></trkpt>
    <trkpt lat="47.58280" lon="14.16283"><ele>1403</ele><time>2022-11-13T08:06:35Z</time></trkpt>
    <trkpt lat="47.58293" lon="14.16283"><ele>1413</ele><time>2022-11-13T08:07:36Z</time></trkpt>
    <trkpt lat="47.58306" lon="14.16291"><ele>1419</ele><time>2022-11-13T08:08:26Z</time></trkpt>
    <trkpt lat="47.58321" lon="14.16284"><ele>1424</ele><time>2022-11-13T08:09:16Z</time></trkpt>
    <trkpt lat="47.58337" lon="14.16284"><ele>1438</ele><time>2022-11-13T08:10:19Z</time></trkpt>
    <trkpt lat="47.58340" lon="14.16259"><ele>1441</ele><time>2022-11-13T08:11:00Z</time></trkpt>
    <trkpt lat="47.58338" lon="14.16234"><ele>1444</ele><time>2022-11-13T08:11:42Z</time></trkpt>
    <trkpt lat="47.58339" lon="14.16216"><ele>1446</ele><time>2022-11-13T08:12:00Z</time></trkpt>
    <trkpt lat="47.58340" lon="14.16192"><ele>1449</ele><time>2022-11-13T08:12:49Z</time></trkpt>
    <trkpt lat="47.58346" lon="14.16169"><ele>1451</ele><time>2022-11-13T08:13:43Z</time></trkpt>
    <trkpt lat="47.58343" lon="14.16144"><ele>1466</ele><time>2022-11-13T08:15:58Z</time></trkpt>
    <trkpt lat="47.58342" lon="14.16120"><ele>1452</ele><time>2022-11-13T08:16:47Z</time></trkpt>
    <trkpt lat="47.58351" lon="14.16100"><ele>1460</ele><time>2022-11-13T08:18:08Z</time></trkpt>
    <trkpt lat="47.58340" lon="14.16082"><ele>1500</ele><time>2022-11-13T08:20:47Z</time></trkpt>
    <trkpt lat="47.58330" lon="14.16059"><ele>1508</ele><time>2022-11-13T08:21:25Z</time></trkpt>
    <trkpt lat="47.58337" lon="14.16044"><ele>1528</ele><time>2022-11-13T08:24:50Z</time></trkpt>
    <trkpt lat="47.58340" lon="14.16021"><ele>1534</ele><time>2022-11-13T08:26:58Z</time></trkpt>
    <trkpt lat="47.58353" lon="14.16017"><ele>1567</ele><time>2022-11-13T08:30:02Z</time></trkpt>
    <trkpt lat="47.58360" lon="14.15996"><ele>1556</ele><time>2022-11-13T08:34:16Z</time></trkpt>
    <trkpt lat="47.58368" lon="14.15986"><ele>1618</ele><time>2022-11-13T08:39:01Z</time></trkpt>
    <trkpt lat="47.58380" lon="14.15980"><ele>1626</ele><time>2022-11-13T08:40:34Z</time></trkpt>
    <trkpt lat="47.58387" lon="14.15963"><ele>1640</ele><time>2022-11-13T08:43:25Z</time></trkpt>
    <trkpt lat="47.58380" lon="14.15956"><ele>1650</ele><time>2022-11-13T08:48:06Z</time></trkpt>
    <trkpt lat="47.58392" lon="14.15941"><ele>1648</ele><time>2022-11-13T08:51:00Z</time></trkpt>
    <trkpt lat="47.58408" lon="14.15935"><ele>1493</ele><time>2022-11-13T08:52:49Z</time></trkpt>
    <trkpt lat="47.58401" lon="14.15913"><ele>1665</ele><time>2022-11-13T08:53:39Z</time></trkpt>
    <trkpt lat="47.58403" lon="14.15890"><ele>1683</ele><time>2022-11-13T08:54:43Z</time></trkpt>
    <trkpt lat="47.58401" lon="14.15858"><ele>1652</ele><time>2022-11-13T08:56:00Z</time></trkpt>
    <trkpt lat="47.58394" lon="14.15837"><ele>1670</ele><time>2022-11-13T08:56:19Z</time></trkpt>
    <trkpt lat="47.58388" lon="14.15823"><ele>1674</ele><time>2022-11-13T08:56:38Z</time></trkpt>
    <trkpt lat="47.58384" lon="14.15811"><ele>1650</ele><time>2022-11-13T08:56:57Z</time></trkpt>
    <trkpt lat="47.58378" lon="14.15793"><ele>1714</ele><time>2022-11-13T09:00:18Z</time></trkpt>
    <trkpt lat="47.58371" lon="14.15778"><ele>1703</ele><time>2022-11-13T09:04:03Z</time></trkpt>
    <trkpt lat="47.58373" lon="14.15764"><ele>1582</ele><time>2022-11-13T09:04:21Z</time></trkpt>
    <trkpt lat="47.58380" lon="14.15742"><ele>1707</ele><time>2022-11-13T09:06:38Z</time></trkpt>
    <trkpt lat="47.58373" lon="14.15723"><ele>1640</ele><time>2022-11-13T09:08:31Z</time></trkpt>
    <trkpt lat="47.58382" lon="14.15702"><ele>1741</ele><time>2022-11-13T09:14:08Z</time></trkpt>
    <trkpt lat="47.58383" lon="14.15676"><ele>1663</ele><time>2022-11-13T09:15:24Z</time></trkpt>
    <trkpt lat="47.58392" lon="14.15656"><ele>1730</ele><time>2022-11-13T09:16:38Z</time></trkpt>
    <trkpt lat="47.58399" lon="14.15636"><ele>1766</ele><time>2022-11-13T09:17:56Z</time></trkpt>
    <trkpt lat="47.58410" lon="14.15617"><ele>1675</ele><time>2022-11-13T09:19:14Z</time></trkpt>
    <trkpt lat="47.58422" lon="14.15628"><ele>1791</ele><time>2022-11-13T09:22:06Z</time></trkpt>
    <trkpt lat="47.58434" lon="14.15624"><ele>1814</ele><time>2022-11-13T09:31:01Z</time></trkpt>
    <trkpt lat="47.58447" lon="14.15639"><ele>1821</ele><time>2022-11-13T09:31:59Z</time></trkpt>
    <trkpt lat="47.58438" lon="14.15614"><ele>1809</ele><time>2022-11-13T09:44:18Z</time></trkpt>
    <trkpt lat="47.58437" lon="14.15590"><ele>1672</ele><time>2022-11-13T09:45:20Z</time></trkpt>
    <trkpt lat="47.58439" lon="14.15565"><ele>1800</ele><time>2022-11-13T09:46:11Z</time></trkpt>
    <trkpt lat="47.58431" lon="14.15543"><ele>1788</ele><time>2022-11-13T09:46:56Z</time></trkpt>
    <trkpt lat="47.58432" lon="14.15528"><ele>1792</ele><time>2022-11-13T09:47:14Z</time></trkpt>
    <trkpt lat="47.58424" lon="14.15507"><ele>1786</ele><time>2022-11-13T09:47:53Z</time></trkpt>
    <trkpt lat="47.58419" lon="14.15483"><ele>1777</ele><time>2022-11-13T09:49:03Z</time></trkpt>
    <trkpt lat="47.58411" lon="14.15462"><ele>1756</ele><time>2022-11-13T09:50:15Z</time></trkpt>
    <trkpt lat="47.58402" lon="14.15465"><ele>1691</ele><time>2022-11-13T09:51:09Z</time></trkpt>
    <trkpt lat="47.58387" lon="14.15474"><ele>1643</ele><time>2022-11-13T09:54:10Z</time></trkpt>
    <trkpt lat="47.58388" lon="14.15451"><ele>1688</ele><time>2022-11-13T09:57:08Z</time></trkpt>
    <trkpt lat="47.58390" lon="14.15427"><ele>1702</ele><time>2022-11-13T10:02:05Z</time></trkpt>
    <trkpt lat="47.58394" lon="14.15404"><ele>1687</ele><time>2022-11-13T10:03:38Z</time></trkpt>
    <trkpt lat="47.58404" lon="14.15391"><ele>1642</ele><time>2022-11-13T10:04:45Z</time></trkpt>
    <trkpt lat="47.58421" lon="14.15389"><ele>1699</ele><time>2022-11-13T10:05:22Z</time></trkpt>
    <trkpt lat="47.58423" lon="14.15369"><ele>1684</ele><time>2022-11-13T10:05:41Z</time></trkpt>
    <trkpt lat="47.58421" lon="14.15345"><ele>1653</ele><time>2022-11-13T10:13:03Z</time></trkpt>
    <trkpt lat="47.58409" lon="14.15333"><ele>1518</ele><time>2022-11-13T10:14:25Z</time></trkpt>
    <trkpt lat="47.58393" lon="14.15310"><ele>1648</ele><time>2022-11-13T10:15:27Z</time></trkpt>
    <trkpt lat="47.58374" lon="14.15304"><ele>1347</ele><time>2022-11-13T10:15:45Z</time></trkpt>
    <trkpt lat="47.58370" lon="14.15292"><ele>1636</ele><time>2022-11-13T10:16:03Z</time></trkpt>
    <trkpt lat="47.58362" lon="14.15262"><ele>1632</ele><time>2022-11-13T10:16:49Z</time></trkpt>
    <trkpt lat="47.58378" lon="14.15246"><ele>1648</ele><time>2022-11-13T10:17:36Z</time></trkpt>
    <trkpt lat="47.58391" lon="14.15243"><ele>1641</ele><time>2022-11-13T10:17:54Z</time></trkpt>
    <trkpt lat="47.58401" lon="14.15243"><ele>1638</ele><time>2022-11-13T10:18:12Z</time></trkpt>
    <trkpt lat="47.58417" lon="14.15243"><ele>1633</ele><time>2022-11-13T10:19:21Z</time></trkpt>
    <trkpt lat="47.58427" lon="14.15242"><ele>1628</ele><time>2022-11-13T10:19:39Z</time></trkpt>
    <trkpt lat="47.58447" lon="14.15233"><ele>1618</ele><time>2022-11-13T10:21:20Z</time></trkpt>
    <trkpt lat="47.58461" lon="14.15249"><ele>1604</ele><time>2022-11-13T10:22:05Z</time></trkpt>
    <trkpt lat="47.58472" lon="14.15240"><ele>1604</ele><time>2022-11-13T10:22:23Z</time></trkpt>
    <trkpt lat="47.58477" lon="14.15226"><ele>1601</ele><time>2022-11-13T10:22:42Z</time></trkpt>
    <trkpt lat="47.58485" lon="14.15208"><ele>1595</ele><time>2022-11-13T10:23:24Z</time></trkpt>
    <trkpt lat="47.58491" lon="14.15198"><ele>1590</ele><time>2022-11-13T10:23:43Z</time></trkpt>
    <trkpt lat="47.58493" lon="14.15183"><ele>1589</ele><time>2022-11-13T10:24:01Z</time></trkpt>
    <trkpt lat="47.58504" lon="14.15164"><ele>1580</ele><time>2022-11-13T10:24:42Z</time></trkpt>
    <trkpt lat="47.58515" lon="14.15149"><ele>1577</ele><time>2022-11-13T10:25:01Z</time></trkpt>
    <trkpt lat="47.58527" lon="14.15132"><ele>1579</ele><time>2022-11-13T10:25:19Z</time></trkpt>
    <trkpt lat="47.58541" lon="14.15114"><ele>1575</ele><time>2022-11-13T10:25:38Z</time></trkpt>
    <trkpt lat="47.58556" lon="14.15099"><ele>1572</ele><time>2022-11-13T10:25:57Z</time></trkpt>
    <trkpt lat="47.58572" lon="14.15069"><ele>1562</ele><time>2022-11-13T10:26:57Z</time></trkpt>
    <trkpt lat="47.58583" lon="14.15056"><ele>1587</ele><time>2022-11-13T10:27:15Z</time></trkpt>
    <trkpt lat="47.58599" lon="14.15048"><ele>1575</ele><time>2022-11-13T10:28:26Z</time></trkpt>
    <trkpt lat="47.58614" lon="14.15029"><ele>1584</ele><time>2022-11-13T10:29:24Z</time></trkpt>
    <trkpt lat="47.58639" lon="14.15017"><ele>1603</ele><time>2022-11-13T10:30:30Z</time></trkpt>
    <trkpt lat="47.58652" lon="14.15037"><ele>1608</ele><time>2022-11-13T10:31:12Z</time></trkpt>
    <trkpt lat="47.58666" lon="14.15025"><ele>1662</ele><time>2022-11-13T10:31:51Z</time></trkpt>
    <trkpt lat="47.58678" lon="14.15007"><ele>1695</ele><time>2022-11-13T10:32:36Z</time></trkpt>
    <trkpt lat="47.58680" lon="14.14982"><ele>1629</ele><time>2022-11-13T10:33:18Z</time></trkpt>
    <trkpt lat="47.58688" lon="14.14952"><ele>1597</ele><time>2022-11-13T10:33:56Z</time></trkpt>
    <trkpt lat="47.58700" lon="14.14931"><ele>1638</ele><time>2022-11-13T10:34:34Z</time></trkpt>
    <trkpt lat="47.58710" lon="14.14903"><ele>1608</ele><time>2022-11-13T10:34:53Z</time></trkpt>
    <trkpt lat="47.58718" lon="14.14879"><ele>1635</ele><time>2022-11-13T10:35:11Z</time></trkpt>
    <trkpt lat="47.58729" lon="14.14859"><ele>1610</ele><time>2022-11-13T10:35:30Z</time></trkpt>
    <trkpt lat="47.58736" lon="14.14839"><ele>1614</ele><time>2022-11-13T10:35:48Z</time></trkpt>
    <trkpt lat="47.58748" lon="14.14821"><ele>1512</ele><time>2022-11-13T10:36:07Z</time></trkpt>
    <trkpt lat="47.58754" lon="14.14810"><ele>1643</ele><time>2022-11-13T10:36:26Z</time></trkpt>
    <trkpt lat="47.58775" lon="14.14799"><ele>1641</ele><time>2022-11-13T10:37:04Z</time></trkpt>
    <trkpt lat="47.58787" lon="14.14791"><ele>1636</ele><time>2022-11-13T10:37:23Z</time></trkpt>
    <trkpt lat="47.58796" lon="14.14772"><ele>1644</ele><time>2022-11-13T10:37:41Z</time></trkpt>
    <trkpt lat="47.58805" lon="14.14756"><ele>1643</ele><time>2022-11-13T10:37:59Z</time></trkpt>
    <trkpt lat="47.58814" lon="14.14752"><ele>1647</ele><time>2022-11-13T10:38:18Z</time></trkpt>
    <trkpt lat="47.58824" lon="14.14747"><ele>1640</ele><time>2022-11-13T10:38:37Z</time></trkpt>
    <trkpt lat="47.58841" lon="14.14748"><ele>1611</ele><time>2022-11-13T10:39:58Z</time></trkpt>
    <trkpt lat="47.58859" lon="14.14742"><ele>1630</ele><time>2022-11-13T10:40:17Z</time></trkpt>
    <trkpt lat="47.58872" lon="14.14739"><ele>1665</ele><time>2022-11-13T10:40:35Z</time></trkpt>
    <trkpt lat="47.58898" lon="14.14726"><ele>1674</ele><time>2022-11-13T10:41:24Z</time></trkpt>
    <trkpt lat="47.58910" lon="14.14717"><ele>1662</ele><time>2022-11-13T10:41:43Z</time></trkpt>
    <trkpt lat="47.58921" lon="14.14712"><ele>1685</ele><time>2022-11-13T10:42:02Z</time></trkpt>
    <trkpt lat="47.58936" lon="14.14709"><ele>1684</ele><time>2022-11-13T10:42:47Z</time></trkpt>
    <trkpt lat="47.58951" lon="14.14693"><ele>1689</ele><time>2022-11-13T10:43:23Z</time></trkpt>
    <trkpt lat="47.58964" lon="14.14702"><ele>1701</ele><time>2022-11-13T10:44:04Z</time></trkpt>
    <trkpt lat="47.58967" lon="14.14718"><ele>1689</ele><time>2022-11-13T10:44:23Z</time></trkpt>
    <trkpt lat="47.58979" lon="14.14714"><ele>1681</ele><time>2022-11-13T10:44:42Z</time></trkpt>
    <trkpt lat="47.58989" lon="14.14711"><ele>1712</ele><time>2022-11-13T10:45:00Z</time></trkpt>
    <trkpt lat="47.58996" lon="14.14702"><ele>1709</ele><time>2022-11-13T10:45:18Z</time></trkpt>
    <trkpt lat="47.59015" lon="14.14700"><ele>1725</ele><time>2022-11-13T10:46:49Z</time></trkpt>
    <trkpt lat="47.59030" lon="14.14692"><ele>1730</ele><time>2022-11-13T10:47:34Z</time></trkpt>
    <trkpt lat="47.59039" lon="14.14678"><ele>1732</ele><time>2022-11-13T10:50:08Z</time></trkpt>
    <trkpt lat="47.59055" lon="14.14667"><ele>1738</ele><time>2022-11-13T10:50:26Z</time></trkpt>
    <trkpt lat="47.59062" lon="14.14651"><ele>1735</ele><time>2022-11-13T10:50:44Z</time></trkpt>
    <trkpt lat="47.59072" lon="14.14635"><ele>1736</ele><time>2022-11-13T10:51:03Z</time></trkpt>
    <trkpt lat="47.59082" lon="14.14615"><ele>1736</ele><time>2022-11-13T10:51:21Z</time></trkpt>
    <trkpt lat="47.59092" lon="14.14598"><ele>1737</ele><time>2022-11-13T10:51:40Z</time></trkpt>
    <trkpt lat="47.59101" lon="14.14578"><ele>1736</ele><time>2022-11-13T10:51:58Z</time></trkpt>
    <trkpt lat="47.59112" lon="14.14563"><ele>1738</ele><time>2022-11-13T10:52:16Z</time></trkpt>
    <trkpt lat="47.59124" lon="14.14550"><ele>1738</ele><time>2022-11-13T10:52:35Z</time></trkpt>
    <trkpt lat="47.59137" lon="14.14536"><ele>1740</ele><time>2022-11-13T10:52:53Z</time></trkpt>
    <trkpt lat="47.59150" lon="14.14528"><ele>1739</ele><time>2022-11-13T10:53:12Z</time></trkpt>
    <trkpt lat="47.59161" lon="14.14513"><ele>1740</ele><time>2022-11-13T10:53:31Z</time></trkpt>
    <trkpt lat="47.59165" lon="14.14499"><ele>1739</ele><time>2022-11-13T10:53:50Z</time></trkpt>
    <trkpt lat="47.59169" lon="14.14476"><ele>1737</ele><time>2022-11-13T10:56:14Z</time></trkpt>
    <trkpt lat="47.59160" lon="14.14470"><ele>1733</ele><time>2022-11-13T10:56:32Z</time></trkpt>
    <trkpt lat="47.59149" lon="14.14462"><ele>1736</ele><time>2022-11-13T10:56:50Z</time></trkpt>
    <trkpt lat="47.59145" lon="14.14449"><ele>1723</ele><time>2022-11-13T10:57:09Z</time></trkpt>
    <trkpt lat="47.59145" lon="14.14431"><ele>1718</ele><time>2022-11-13T10:57:28Z</time></trkpt>
    <trkpt lat="47.59144" lon="14.14412"><ele>1714</ele><time>2022-11-13T10:57:46Z</time></trkpt>
    <trkpt lat="47.59143" lon="14.14392"><ele>1711</ele><time>2022-11-13T10:58:04Z</time></trkpt>
    <trkpt lat="47.59143" lon="14.14377"><ele>1609</ele><time>2022-11-13T10:58:23Z</time></trkpt>
    <trkpt lat="47.59140" lon="14.14357"><ele>1704</ele><time>2022-11-13T10:58:41Z</time></trkpt>
    <trkpt lat="47.59135" lon="14.14335"><ele>1694</ele><time>2022-11-13T10:59:22Z</time></trkpt>
    <trkpt lat="47.59125" lon="14.14314"><ele>1658</ele><time>2022-11-13T10:59:58Z</time></trkpt>
    <trkpt lat="47.59121" lon="14.14299"><ele>1670</ele><time>2022-11-13T11:00:17Z</time></trkpt>
    <trkpt lat="47.59117" lon="14.14282"><ele>1674</ele><time>2022-11-13T11:00:36Z</time></trkpt>
    <trkpt lat="47.59115" lon="14.14266"><ele>1674</ele><time>2022-11-13T11:00:55Z</time></trkpt>
    <trkpt lat="47.59116" lon="14.14240"><ele>1647</ele><time>2022-11-13T11:01:32Z</time></trkpt>
    <trkpt lat="47.59117" lon="14.14223"><ele>1630</ele><time>2022-11-13T11:01:51Z</time></trkpt>
    <trkpt lat="47.59118" lon="14.14207"><ele>1664</ele><time>2022-11-13T11:02:09Z</time></trkpt>
    <trkpt lat="47.59117" lon="14.14193"><ele>1658</ele><time>2022-11-13T11:02:27Z</time></trkpt>
    <trkpt lat="47.59118" lon="14.14175"><ele>1656</ele><time>2022-11-13T11:02:45Z</time></trkpt>
    <trkpt lat="47.59123" lon="14.14147"><ele>1637</ele><time>2022-11-13T11:03:22Z</time></trkpt>
    <trkpt lat="47.59130" lon="14.14131"><ele>1647</ele><time>2022-11-13T11:03:40Z</time></trkpt>
    <trkpt lat="47.59132" lon="14.14103"><ele>1630</ele><time>2022-11-13T11:03:59Z</time></trkpt>
    <trkpt lat="47.59127" lon="14.14082"><ele>1605</ele><time>2022-11-13T11:04:18Z</time></trkpt>
    <trkpt lat="47.59129" lon="14.14067"><ele>1621</ele><time>2022-11-13T11:04:37Z</time></trkpt>
    <trkpt lat="47.59127" lon="14.14044"><ele>1611</ele><time>2022-11-13T11:05:44Z</time></trkpt>
    <trkpt lat="47.59128" lon="14.14025"><ele>1582</ele><time>2022-11-13T11:06:03Z</time></trkpt>
    <trkpt lat="47.59122" lon="14.14004"><ele>1604</ele><time>2022-11-13T11:06:22Z</time></trkpt>
    <trkpt lat="47.59123" lon="14.13987"><ele>1603</ele><time>2022-11-13T11:06:40Z</time></trkpt>
    <trkpt lat="47.59126" lon="14.13964"><ele>1597</ele><time>2022-11-13T11:06:59Z</time></trkpt>
    <trkpt lat="47.59132" lon="14.13945"><ele>1599</ele><time>2022-11-13T11:07:17Z</time></trkpt>
    <trkpt lat="47.59130" lon="14.13919"><ele>1597</ele><time>2022-11-13T11:08:00Z</time></trkpt>
    <trkpt lat="47.59127" lon="14.13906"><ele>1596</ele><time>2022-11-13T11:08:18Z</time></trkpt>
    <trkpt lat="47.59119" lon="14.13886"><ele>1594</ele><time>2022-11-13T11:08:37Z</time></trkpt>
    <trkpt lat="47.59114" lon="14.13862"><ele>1578</ele><time>2022-11-13T11:08:55Z</time></trkpt>
    <trkpt lat="47.59112" lon="14.13843"><ele>1593</ele><time>2022-11-13T11:09:13Z</time></trkpt>
    <trkpt lat="47.59120" lon="14.13814"><ele>1589</ele><time>2022-11-13T11:09:57Z</time></trkpt>
    <trkpt lat="47.59121" lon="14.13797"><ele>1591</ele><time>2022-11-13T11:10:16Z</time></trkpt>
    <trkpt lat="47.59122" lon="14.13782"><ele>1592</ele><time>2022-11-13T11:10:34Z</time></trkpt>
    <trkpt lat="47.59127" lon="14.13770"><ele>1595</ele><time>2022-11-13T11:10:53Z</time></trkpt>
    <trkpt lat="47.59130" lon="14.13751"><ele>1596</ele><time>2022-11-13T11:11:12Z</time></trkpt>
    <trkpt lat="47.59140" lon="14.13725"><ele>1602</ele><time>2022-11-13T11:11:51Z</time></trkpt>
    <trkpt lat="47.59138" lon="14.13704"><ele>1603</ele><time>2022-11-13T11:12:09Z</time></trkpt>
    <trkpt lat="47.59128" lon="14.13681"><ele>1600</ele><time>2022-11-13T11:12:46Z</time></trkpt>
    <trkpt lat="47.59137" lon="14.13657"><ele>1615</ele><time>2022-11-13T11:13:26Z</time></trkpt>
    <trkpt lat="47.59133" lon="14.13645"><ele>1619</ele><time>2022-11-13T11:13:44Z</time></trkpt>
    <trkpt lat="47.59141" lon="14.13625"><ele>1620</ele><time>2022-11-13T11:14:24Z</time></trkpt>
    <trkpt lat="47.59137" lon="14.13611"><ele>1622</ele><time>2022-11-13T11:14:43Z</time></trkpt>
    <trkpt lat="47.59122" lon="14.13593"><ele>1591</ele><time>2022-11-13T11:15:23Z</time></trkpt>
    <trkpt lat="47.59109" lon="14.13578"><ele>1655</ele><time>2022-11-13T11:16:14Z</time></trkpt>
    <trkpt lat="47.59101" lon="14.13558"><ele>1650</ele><time>2022-11-13T11:16:54Z</time></trkpt>
    <trkpt lat="47.59096" lon="14.13545"><ele>1654</ele><time>2022-11-13T11:17:13Z</time></trkpt>
    <trkpt lat="47.59093" lon="14.13530"><ele>1647</ele><time>2022-11-13T11:17:32Z</time></trkpt>
    <trkpt lat="47.59086" lon="14.13521"><ele>1658</ele><time>2022-11-13T11:17:50Z</time></trkpt>
    <trkpt lat="47.59079" lon="14.13511"><ele>1654</ele><time>2022-11-13T11:18:08Z</time></trkpt>
    <trkpt lat="47.59074" lon="14.13479"><ele>1656</ele><time>2022-11-13T11:18:57Z</time></trkpt>
    <trkpt lat="47.59067" lon="14.13460"><ele>1660</ele><time>2022-11-13T11:19:15Z</time></trkpt>
    <trkpt lat="47.59059" lon="14.13437"><ele>1647</ele><time>2022-11-13T11:19:33Z</time></trkpt>
    <trkpt lat="47.59048" lon="14.13415"><ele>1665</ele><time>2022-11-13T11:19:52Z</time></trkpt>
    <trkpt lat="47.59041" lon="14.13396"><ele>1664</ele><time>2022-11-13T11:20:11Z</time></trkpt>
    <trkpt lat="47.59040" lon="14.13370"><ele>1662</ele><time>2022-11-13T11:20:29Z</time></trkpt>
    <trkpt lat="47.59031" lon="14.13343"><ele>1637</ele><time>2022-11-13T11:20:47Z</time></trkpt>
    <trkpt lat="47.59020" lon="14.13320"><ele>1647</ele><time>2022-11-13T11:21:06Z</time></trkpt>
    <trkpt lat="47.59013" lon="14.13299"><ele>1638</ele><time>2022-11-13T11:21:25Z</time></trkpt>
    <trkpt lat="47.59012" lon="14.13278"><ele>1672</ele><time>2022-11-13T11:21:44Z</time></trkpt>
    <trkpt lat="47.59009" lon="14.13262"><ele>1688</ele><time>2022-11-13T11:22:02Z</time></trkpt>
    <trkpt lat="47.58999" lon="14.13243"><ele>1665</ele><time>2022-11-13T11:22:20Z</time></trkpt>
    <trkpt lat="47.58991" lon="14.13224"><ele>1672</ele><time>2022-11-13T11:22:39Z</time></trkpt>
    <trkpt lat="47.58983" lon="14.13217"><ele>1668</ele><time>2022-11-13T11:22:57Z</time></trkpt>
    <trkpt lat="47.58973" lon="14.13200"><ele>1670</ele><time>2022-11-13T11:23:16Z</time></trkpt>
    <trkpt lat="47.58963" lon="14.13183"><ele>1672</ele><time>2022-11-13T11:23:34Z</time></trkpt>
    <trkpt lat="47.58956" lon="14.13166"><ele>1674</ele><time>2022-11-13T11:23:53Z</time></trkpt>
    <trkpt lat="47.58946" lon="14.13155"><ele>1678</ele><time>2022-11-13T11:24:12Z</time></trkpt>
    <trkpt lat="47.58940" lon="14.13143"><ele>1682</ele><time>2022-11-13T11:24:30Z</time></trkpt>
    <trkpt lat="47.58930" lon="14.13138"><ele>1686</ele><time>2022-11-13T11:24:49Z</time></trkpt>
    <trkpt lat="47.58923" lon="14.13128"><ele>1660</ele><time>2022-11-13T11:25:08Z</time></trkpt>
    <trkpt lat="47.58918" lon="14.13114"><ele>1670</ele><time>2022-11-13T11:25:27Z</time></trkpt>
    <trkpt lat="47.58914" lon="14.13101"><ele>1661</ele><time>2022-11-13T11:25:45Z</time></trkpt>
    <trkpt lat="47.58904" lon="14.13087"><ele>1693</ele><time>2022-11-13T11:26:04Z</time></trkpt>
    <trkpt lat="47.58896" lon="14.13077"><ele>1695</ele><time>2022-11-13T11:26:23Z</time></trkpt>
    <trkpt lat="47.58889" lon="14.13067"><ele>1696</ele><time>2022-11-13T11:26:42Z</time></trkpt>
    <trkpt lat="47.58883" lon="14.13056"><ele>1700</ele><time>2022-11-13T11:27:00Z</time></trkpt>
    <trkpt lat="47.58873" lon="14.13051"><ele>1703</ele><time>2022-11-13T11:27:19Z</time></trkpt>
    <trkpt lat="47.58863" lon="14.13028"><ele>1709</ele><time>2022-11-13T11:28:08Z</time></trkpt>
    <trkpt lat="47.58861" lon="14.13011"><ele>1713</ele><time>2022-11-13T11:28:26Z</time></trkpt>
    <trkpt lat="47.58855" lon="14.13001"><ele>1712</ele><time>2022-11-13T11:28:45Z</time></trkpt>
    <trkpt lat="47.58850" lon="14.12988"><ele>1630</ele><time>2022-11-13T11:29:03Z</time></trkpt>
    <trkpt lat="47.58840" lon="14.12964"><ele>1716</ele><time>2022-11-13T11:29:45Z</time></trkpt>
    <trkpt lat="47.58837" lon="14.12940"><ele>1707</ele><time>2022-11-13T11:30:26Z</time></trkpt>
    <trkpt lat="47.58830" lon="14.12917"><ele>1726</ele><time>2022-11-13T11:32:23Z</time></trkpt>
    <trkpt lat="47.58821" lon="14.12896"><ele>1733</ele><time>2022-11-13T11:33:16Z</time></trkpt>
    <trkpt lat="47.58813" lon="14.12874"><ele>1669</ele><time>2022-11-13T11:34:08Z</time></trkpt>
    <trkpt lat="47.58805" lon="14.12842"><ele>1744</ele><time>2022-11-13T11:34:47Z</time></trkpt>
    <trkpt lat="47.58798" lon="14.12822"><ele>1748</ele><time>2022-11-13T11:35:06Z</time></trkpt>
    <trkpt lat="47.58783" lon="14.12793"><ele>1748</ele><time>2022-11-13T11:35:47Z</time></trkpt>
    <trkpt lat="47.58776" lon="14.12775"><ele>1578</ele><time>2022-11-13T11:36:06Z</time></trkpt>
    <trkpt lat="47.58774" lon="14.12758"><ele>1744</ele><time>2022-11-13T11:36:24Z</time></trkpt>
    <trkpt lat="47.58764" lon="14.12748"><ele>1746</ele><time>2022-11-13T11:36:43Z</time></trkpt>
    <trkpt lat="47.58761" lon="14.12732"><ele>1732</ele><time>2022-11-13T11:37:01Z</time></trkpt>
    <trkpt lat="47.58756" lon="14.12704"><ele>1730</ele><time>2022-11-13T11:37:39Z</time></trkpt>
    <trkpt lat="47.58746" lon="14.12682"><ele>1746</ele><time>2022-11-13T11:38:16Z</time></trkpt>
    <trkpt lat="47.58735" lon="14.12673"><ele>1741</ele><time>2022-11-13T11:38:34Z</time></trkpt>
    <trkpt lat="47.58728" lon="14.12655"><ele>1749</ele><time>2022-11-13T11:38:53Z</time></trkpt>
    <trkpt lat="47.58720" lon="14.12647"><ele>1750</ele><time>2022-11-13T11:39:12Z</time></trkpt>
    <trkpt lat="47.58709" lon="14.12627"><ele>1759</ele><time>2022-11-13T11:40:12Z</time></trkpt>
    <trkpt lat="47.58703" lon="14.12605"><ele>1752</ele><time>2022-11-13T11:41:45Z</time></trkpt>
    <trkpt lat="47.58704" lon="14.12620"><ele>1754</ele><time>2022-11-13T12:03:51Z</time></trkpt>
    <trkpt lat="47.58716" lon="14.12636"><ele>1760</ele><time>2022-11-13T12:05:08Z</time></trkpt>
    <trkpt lat="47.58727" lon="14.12659"><ele>1754</ele><time>2022-11-13T12:05:53Z</time></trkpt>
    <trkpt lat="47.58736" lon="14.12677"><ele>1754</ele><time>2022-11-13T12:06:12Z</time></trkpt>
    <trkpt lat="47.58747" lon="14.12682"><ele>1756</ele><time>2022-11-13T12:06:30Z</time></trkpt>
    <trkpt lat="47.58754" lon="14.12711"><ele>1759</ele><time>2022-11-13T12:07:10Z</time></trkpt>
    <trkpt lat="47.58750" lon="14.12732"><ele>1764</ele><time>2022-11-13T12:07:28Z</time></trkpt>
    <trkpt lat="47.58763" lon="14.12755"><ele>1756</ele><time>2022-11-13T12:08:07Z</time></trkpt>
    <trkpt lat="47.58768" lon="14.12769"><ele>1757</ele><time>2022-11-13T12:08:25Z</time></trkpt>
    <trkpt lat="47.58773" lon="14.12785"><ele>1756</ele><time>2022-11-13T12:08:43Z</time></trkpt>
    <trkpt lat="47.58779" lon="14.12804"><ele>1760</ele><time>2022-11-13T12:09:02Z</time></trkpt>
    <trkpt lat="47.58793" lon="14.12813"><ele>1753</ele><time>2022-11-13T12:09:21Z</time></trkpt>
    <trkpt lat="47.58796" lon="14.12827"><ele>1749</ele><time>2022-11-13T12:09:39Z</time></trkpt>
    <trkpt lat="47.58802" lon="14.12847"><ele>1750</ele><time>2022-11-13T12:09:57Z</time></trkpt>
    <trkpt lat="47.58805" lon="14.12863"><ele>1748</ele><time>2022-11-13T12:10:16Z</time></trkpt>
    <trkpt lat="47.58807" lon="14.12878"><ele>1751</ele><time>2022-11-13T12:10:34Z</time></trkpt>
    <trkpt lat="47.58816" lon="14.12899"><ele>1741</ele><time>2022-11-13T12:11:13Z</time></trkpt>
    <trkpt lat="47.58826" lon="14.12917"><ele>1730</ele><time>2022-11-13T12:12:11Z</time></trkpt>
    <trkpt lat="47.58827" lon="14.12933"><ele>1734</ele><time>2022-11-13T12:12:29Z</time></trkpt>
    <trkpt lat="47.58832" lon="14.12956"><ele>1725</ele><time>2022-11-13T12:13:28Z</time></trkpt>
    <trkpt lat="47.58842" lon="14.12969"><ele>1720</ele><time>2022-11-13T12:13:46Z</time></trkpt>
    <trkpt lat="47.58853" lon="14.12995"><ele>1717</ele><time>2022-11-13T12:14:23Z</time></trkpt>
    <trkpt lat="47.58858" lon="14.13013"><ele>1711</ele><time>2022-11-13T12:14:42Z</time></trkpt>
    <trkpt lat="47.58863" lon="14.13027"><ele>1708</ele><time>2022-11-13T12:15:00Z</time></trkpt>
    <trkpt lat="47.58868" lon="14.13049"><ele>1706</ele><time>2022-11-13T12:15:18Z</time></trkpt>
    <trkpt lat="47.58883" lon="14.13060"><ele>1707</ele><time>2022-11-13T12:15:37Z</time></trkpt>
    <trkpt lat="47.58892" lon="14.13075"><ele>1703</ele><time>2022-11-13T12:15:55Z</time></trkpt>
    <trkpt lat="47.58900" lon="14.13084"><ele>1698</ele><time>2022-11-13T12:16:14Z</time></trkpt>
    <trkpt lat="47.58905" lon="14.13100"><ele>1696</ele><time>2022-11-13T12:16:32Z</time></trkpt>
    <trkpt lat="47.58895" lon="14.13102"><ele>1672</ele><time>2022-11-13T12:16:50Z</time></trkpt>
    <trkpt lat="47.58890" lon="14.13117"><ele>1685</ele><time>2022-11-13T12:17:09Z</time></trkpt>
    <trkpt lat="47.58892" lon="14.13136"><ele>1688</ele><time>2022-11-13T12:17:27Z</time></trkpt>
    <trkpt lat="47.58890" lon="14.13156"><ele>1687</ele><time>2022-11-13T12:17:46Z</time></trkpt>
    <trkpt lat="47.58893" lon="14.13168"><ele>1680</ele><time>2022-11-13T12:18:05Z</time></trkpt>
    <trkpt lat="47.58897" lon="14.13186"><ele>1591</ele><time>2022-11-13T12:18:24Z</time></trkpt>
    <trkpt lat="47.58902" lon="14.13200"><ele>1579</ele><time>2022-11-13T12:18:42Z</time></trkpt>
    <trkpt lat="47.58901" lon="14.13220"><ele>1665</ele><time>2022-11-13T12:19:01Z</time></trkpt>
    <trkpt lat="47.58896" lon="14.13235"><ele>1590</ele><time>2022-11-13T12:19:20Z</time></trkpt>
    <trkpt lat="47.58895" lon="14.13251"><ele>1650</ele><time>2022-11-13T12:19:39Z</time></trkpt>
    <trkpt lat="47.58896" lon="14.13264"><ele>1652</ele><time>2022-11-13T12:19:57Z</time></trkpt>
    <trkpt lat="47.58891" lon="14.13297"><ele>1647</ele><time>2022-11-13T12:20:34Z</time></trkpt>
    <trkpt lat="47.58894" lon="14.13316"><ele>1644</ele><time>2022-11-13T12:20:53Z</time></trkpt>
    <trkpt lat="47.58890" lon="14.13334"><ele>1640</ele><time>2022-11-13T12:21:11Z</time></trkpt>
    <trkpt lat="47.58897" lon="14.13363"><ele>1641</ele><time>2022-11-13T12:21:30Z</time></trkpt>
    <trkpt lat="47.58896" lon="14.13385"><ele>1641</ele><time>2022-11-13T12:21:49Z</time></trkpt>
    <trkpt lat="47.58896" lon="14.13402"><ele>1639</ele><time>2022-11-13T12:22:07Z</time></trkpt>
    <trkpt lat="47.58898" lon="14.13418"><ele>1640</ele><time>2022-11-13T12:22:26Z</time></trkpt>
    <trkpt lat="47.58900" lon="14.13437"><ele>1643</ele><time>2022-11-13T12:22:45Z</time></trkpt>
    <trkpt lat="47.58905" lon="14.13459"><ele>1644</ele><time>2022-11-13T12:23:04Z</time></trkpt>
    <trkpt lat="47.58913" lon="14.13478"><ele>1644</ele><time>2022-11-13T12:23:23Z</time></trkpt>
    <trkpt lat="47.58925" lon="14.13497"><ele>1641</ele><time>2022-11-13T12:23:41Z</time></trkpt>
    <trkpt lat="47.58935" lon="14.13514"><ele>1636</ele><time>2022-11-13T12:24:00Z</time></trkpt>
    <trkpt lat="47.58938" lon="14.13532"><ele>1634</ele><time>2022-11-13T12:24:18Z</time></trkpt>
    <trkpt lat="47.58932" lon="14.13547"><ele>1632</ele><time>2022-11-13T12:24:37Z</time></trkpt>
    <trkpt lat="47.58923" lon="14.13554"><ele>1630</ele><time>2022-11-13T12:24:56Z</time></trkpt>
    <trkpt lat="47.58926" lon="14.13574"><ele>1634</ele><time>2022-11-13T12:25:14Z</time></trkpt>
    <trkpt lat="47.58937" lon="14.13580"><ele>1628</ele><time>2022-11-13T12:25:33Z</time></trkpt>
    <trkpt lat="47.58943" lon="14.13608"><ele>1625</ele><time>2022-11-13T12:26:25Z</time></trkpt>
    <trkpt lat="47.58954" lon="14.13628"><ele>1567</ele><time>2022-11-13T12:26:43Z</time></trkpt>
    <trkpt lat="47.58964" lon="14.13637"><ele>1613</ele><time>2022-11-13T12:27:02Z</time></trkpt>
    <trkpt lat="47.58974" lon="14.13646"><ele>1606</ele><time>2022-11-13T12:27:21Z</time></trkpt>
    <trkpt lat="47.58984" lon="14.13657"><ele>1606</ele><time>2022-11-13T12:27:39Z</time></trkpt>
    <trkpt lat="47.59001" lon="14.13665"><ele>1604</ele><time>2022-11-13T12:28:16Z</time></trkpt>
    <trkpt lat="47.58999" lon="14.13686"><ele>1600</ele><time>2022-11-13T12:28:35Z</time></trkpt>
    <trkpt lat="47.59003" lon="14.13713"><ele>1602</ele><time>2022-11-13T12:28:54Z</time></trkpt>
    <trkpt lat="47.59004" lon="14.13742"><ele>1602</ele><time>2022-11-13T12:29:13Z</time></trkpt>
    <trkpt lat="47.59007" lon="14.13772"><ele>1599</ele><time>2022-11-13T12:29:32Z</time></trkpt>
    <trkpt lat="47.59007" lon="14.13800"><ele>1604</ele><time>2022-11-13T12:29:51Z</time></trkpt>
    <trkpt lat="47.59010" lon="14.13824"><ele>1601</ele><time>2022-11-13T12:30:10Z</time></trkpt>
    <trkpt lat="47.59013" lon="14.13837"><ele>1602</ele><time>2022-11-13T12:30:28Z</time></trkpt>
    <trkpt lat="47.59023" lon="14.13856"><ele>1597</ele><time>2022-11-13T12:30:47Z</time></trkpt>
    <trkpt lat="47.59030" lon="14.13876"><ele>1599</ele><time>2022-11-13T12:31:06Z</time></trkpt>
    <trkpt lat="47.59038" lon="14.13893"><ele>1597</ele><time>2022-11-13T12:31:24Z</time></trkpt>
    <trkpt lat="47.59039" lon="14.13908"><ele>1602</ele><time>2022-11-13T12:31:43Z</time></trkpt>
    <trkpt lat="47.59043" lon="14.13933"><ele>1606</ele><time>2022-11-13T12:32:02Z</time></trkpt>
    <trkpt lat="47.59064" lon="14.13948"><ele>1612</ele><time>2022-11-13T12:32:39Z</time></trkpt>
    <trkpt lat="47.59081" lon="14.13952"><ele>1613</ele><time>2022-11-13T12:32:57Z</time></trkpt>
    <trkpt lat="47.59096" lon="14.13958"><ele>1612</ele><time>2022-11-13T12:33:16Z</time></trkpt>
    <trkpt lat="47.59110" lon="14.13946"><ele>1608</ele><time>2022-11-13T12:33:34Z</time></trkpt>
    <trkpt lat="47.59129" lon="14.13939"><ele>1610</ele><time>2022-11-13T12:33:52Z</time></trkpt>
    <trkpt lat="47.59147" lon="14.13933"><ele>1613</ele><time>2022-11-13T12:34:11Z</time></trkpt>
    <trkpt lat="47.59167" lon="14.13939"><ele>1610</ele><time>2022-11-13T12:34:50Z</time></trkpt>
    <trkpt lat="47.59186" lon="14.13937"><ele>1613</ele><time>2022-11-13T12:35:07Z</time></trkpt>
    <trkpt lat="47.59206" lon="14.13945"><ele>1612</ele><time>2022-11-13T12:35:27Z</time></trkpt>
    <trkpt lat="47.59222" lon="14.13960"><ele>1615</ele><time>2022-11-13T12:35:46Z</time></trkpt>
    <trkpt lat="47.59237" lon="14.13981"><ele>1613</ele><time>2022-11-13T12:36:05Z</time></trkpt>
    <trkpt lat="47.59257" lon="14.14007"><ele>1616</ele><time>2022-11-13T12:36:24Z</time></trkpt>
    <trkpt lat="47.59266" lon="14.14033"><ele>1614</ele><time>2022-11-13T12:36:42Z</time></trkpt>
    <trkpt lat="47.59274" lon="14.14059"><ele>1614</ele><time>2022-11-13T12:37:00Z</time></trkpt>
    <trkpt lat="47.59287" lon="14.14075"><ele>1612</ele><time>2022-11-13T12:37:19Z</time></trkpt>
    <trkpt lat="47.59298" lon="14.14100"><ele>1612</ele><time>2022-11-13T12:37:38Z</time></trkpt>
    <trkpt lat="47.59304" lon="14.14126"><ele>1605</ele><time>2022-11-13T12:37:57Z</time></trkpt>
    <trkpt lat="47.59316" lon="14.14147"><ele>1603</ele><time>2022-11-13T12:38:15Z</time></trkpt>
    <trkpt lat="47.59330" lon="14.14175"><ele>1605</ele><time>2022-11-13T12:38:34Z</time></trkpt>
    <trkpt lat="47.59342" lon="14.14202"><ele>1598</ele><time>2022-11-13T12:38:52Z</time></trkpt>
    <trkpt lat="47.59355" lon="14.14229"><ele>1595</ele><time>2022-11-13T12:39:11Z</time></trkpt>
    <trkpt lat="47.59356" lon="14.14257"><ele>1596</ele><time>2022-11-13T12:39:29Z</time></trkpt>
    <trkpt lat="47.59366" lon="14.14267"><ele>1588</ele><time>2022-11-13T12:39:47Z</time></trkpt>
    <trkpt lat="47.59379" lon="14.14277"><ele>1585</ele><time>2022-11-13T12:40:05Z</time></trkpt>
    <trkpt lat="47.59391" lon="14.14299"><ele>1587</ele><time>2022-11-13T12:40:23Z</time></trkpt>
    <trkpt lat="47.59409" lon="14.14321"><ele>1587</ele><time>2022-11-13T12:40:42Z</time></trkpt>
    <trkpt lat="47.59409" lon="14.14348"><ele>1588</ele><time>2022-11-13T12:41:00Z</time></trkpt>
    <trkpt lat="47.59419" lon="14.14373"><ele>1595</ele><time>2022-11-13T12:41:18Z</time></trkpt>
    <trkpt lat="47.59422" lon="14.14400"><ele>1592</ele><time>2022-11-13T12:41:36Z</time></trkpt>
    <trkpt lat="47.59430" lon="14.14429"><ele>1590</ele><time>2022-11-13T12:41:54Z</time></trkpt>
    <trkpt lat="47.59435" lon="14.14456"><ele>1592</ele><time>2022-11-13T12:42:12Z</time></trkpt>
    <trkpt lat="47.59441" lon="14.14482"><ele>1594</ele><time>2022-11-13T12:42:30Z</time></trkpt>
    <trkpt lat="47.59450" lon="14.14508"><ele>1590</ele><time>2022-11-13T12:42:49Z</time></trkpt>
    <trkpt lat="47.59454" lon="14.14540"><ele>1592</ele><time>2022-11-13T12:43:08Z</time></trkpt>
    <trkpt lat="47.59456" lon="14.14564"><ele>1579</ele><time>2022-11-13T12:43:26Z</time></trkpt>
    <trkpt lat="47.59456" lon="14.14585"><ele>1577</ele><time>2022-11-13T12:43:45Z</time></trkpt>
    <trkpt lat="47.59460" lon="14.14614"><ele>1577</ele><time>2022-11-13T12:44:03Z</time></trkpt>
    <trkpt lat="47.59450" lon="14.14641"><ele>1576</ele><time>2022-11-13T12:44:22Z</time></trkpt>
    <trkpt lat="47.59448" lon="14.14667"><ele>1572</ele><time>2022-11-13T12:44:40Z</time></trkpt>
    <trkpt lat="47.59448" lon="14.14706"><ele>1567</ele><time>2022-11-13T12:44:59Z</time></trkpt>
    <trkpt lat="47.59437" lon="14.14733"><ele>1569</ele><time>2022-11-13T12:45:17Z</time></trkpt>
    <trkpt lat="47.59447" lon="14.14751"><ele>1553</ele><time>2022-11-13T12:45:36Z</time></trkpt>
    <trkpt lat="47.59456" lon="14.14777"><ele>1559</ele><time>2022-11-13T12:45:55Z</time></trkpt>
    <trkpt lat="47.59458" lon="14.14806"><ele>1528</ele><time>2022-11-13T12:46:14Z</time></trkpt>
    <trkpt lat="47.59448" lon="14.14827"><ele>1547</ele><time>2022-11-13T12:46:33Z</time></trkpt>
    <trkpt lat="47.59426" lon="14.14837"><ele>1547</ele><time>2022-11-13T12:46:52Z</time></trkpt>
    <trkpt lat="47.59409" lon="14.14856"><ele>1523</ele><time>2022-11-13T12:47:10Z</time></trkpt>
    <trkpt lat="47.59404" lon="14.14866"><ele>1524</ele><time>2022-11-13T12:47:29Z</time></trkpt>
    <trkpt lat="47.59405" lon="14.14902"><ele>1545</ele><time>2022-11-13T12:48:11Z</time></trkpt>
    <trkpt lat="47.59403" lon="14.14934"><ele>1532</ele><time>2022-11-13T12:48:30Z</time></trkpt>
    <trkpt lat="47.59401" lon="14.14963"><ele>1539</ele><time>2022-11-13T12:48:48Z</time></trkpt>
    <trkpt lat="47.59399" lon="14.14989"><ele>1536</ele><time>2022-11-13T12:49:07Z</time></trkpt>
    <trkpt lat="47.59410" lon="14.15018"><ele>1529</ele><time>2022-11-13T12:49:25Z</time></trkpt>
    <trkpt lat="47.59418" lon="14.15046"><ele>1479</ele><time>2022-11-13T12:49:44Z</time></trkpt>
    <trkpt lat="47.59396" lon="14.15062"><ele>1497</ele><time>2022-11-13T12:50:02Z</time></trkpt>
    <trkpt lat="47.59382" lon="14.15087"><ele>1527</ele><time>2022-11-13T12:50:20Z</time></trkpt>
    <trkpt lat="47.59376" lon="14.15119"><ele>1530</ele><time>2022-11-13T12:50:38Z</time></trkpt>
    <trkpt lat="47.59367" lon="14.15149"><ele>1490</ele><time>2022-11-13T12:50:56Z</time></trkpt>
    <trkpt lat="47.59352" lon="14.15179"><ele>1526</ele><time>2022-11-13T12:51:15Z</time></trkpt>
    <trkpt lat="47.59337" lon="14.15208"><ele>1527</ele><time>2022-11-13T12:51:34Z</time></trkpt>
    <trkpt lat="47.59325" lon="14.15237"><ele>1512</ele><time>2022-11-13T12:51:53Z</time></trkpt>
    <trkpt lat="47.59314" lon="14.15263"><ele>1520</ele><time>2022-11-13T12:52:11Z</time></trkpt>
    <trkpt lat="47.59303" lon="14.15286"><ele>1515</ele><time>2022-11-13T12:52:29Z</time></trkpt>
    <trkpt lat="47.59301" lon="14.15317"><ele>1515</ele><time>2022-11-13T12:52:48Z</time></trkpt>
    <trkpt lat="47.59297" lon="14.15349"><ele>1467</ele><time>2022-11-13T12:53:07Z</time></trkpt>
    <trkpt lat="47.59289" lon="14.15368"><ele>1508</ele><time>2022-11-13T12:53:25Z</time></trkpt>
    <trkpt lat="47.59276" lon="14.15386"><ele>1506</ele><time>2022-11-13T12:53:44Z</time></trkpt>
    <trkpt lat="47.59266" lon="14.15406"><ele>1505</ele><time>2022-11-13T12:54:03Z</time></trkpt>
    <trkpt lat="47.59257" lon="14.15426"><ele>1501</ele><time>2022-11-13T12:54:21Z</time></trkpt>
    <trkpt lat="47.59249" lon="14.15444"><ele>1496</ele><time>2022-11-13T12:54:39Z</time></trkpt>
    <trkpt lat="47.59248" lon="14.15463"><ele>1492</ele><time>2022-11-13T12:54:57Z</time></trkpt>
    <trkpt lat="47.59244" lon="14.15485"><ele>1399</ele><time>2022-11-13T12:55:16Z</time></trkpt>
    <trkpt lat="47.59241" lon="14.15505"><ele>1475</ele><time>2022-11-13T12:55:34Z</time></trkpt>
    <trkpt lat="47.59232" lon="14.15519"><ele>1485</ele><time>2022-11-13T12:55:53Z</time></trkpt>
    <trkpt lat="47.59226" lon="14.15533"><ele>1424</ele><time>2022-11-13T12:56:11Z</time></trkpt>
    <trkpt lat="47.59212" lon="14.15512"><ele>1469</ele><time>2022-11-13T12:56:29Z</time></trkpt>
    <trkpt lat="47.59195" lon="14.15527"><ele>1473</ele><time>2022-11-13T12:56:47Z</time></trkpt>
    <trkpt lat="47.59179" lon="14.15552"><ele>1473</ele><time>2022-11-13T12:57:06Z</time></trkpt>
    <trkpt lat="47.59166" lon="14.15578"><ele>1474</ele><time>2022-11-13T12:57:25Z</time></trkpt>
    <trkpt lat="47.59160" lon="14.15610"><ele>1475</ele><time>2022-11-13T12:57:44Z</time></trkpt>
    <trkpt lat="47.59153" lon="14.15640"><ele>1469</ele><time>2022-11-13T12:58:03Z</time></trkpt>
    <trkpt lat="47.59149" lon="14.15670"><ele>1470</ele><time>2022-11-13T12:58:22Z</time></trkpt>
    <trkpt lat="47.59143" lon="14.15697"><ele>1473</ele><time>2022-11-13T12:58:40Z</time></trkpt>
    <trkpt lat="47.59135" lon="14.15725"><ele>1461</ele><time>2022-11-13T12:58:59Z</time></trkpt>
    <trkpt lat="47.59132" lon="14.15758"><ele>1463</ele><time>2022-11-13T12:59:18Z</time></trkpt>
    <trkpt lat="47.59126" lon="14.15784"><ele>1470</ele><time>2022-11-13T12:59:36Z</time></trkpt>
    <trkpt lat="47.59111" lon="14.15807"><ele>1470</ele><time>2022-11-13T12:59:55Z</time></trkpt>
    <trkpt lat="47.59093" lon="14.15826"><ele>1408</ele><time>2022-11-13T13:00:14Z</time></trkpt>
    <trkpt lat="47.59073" lon="14.15829"><ele>1440</ele><time>2022-11-13T13:00:33Z</time></trkpt>
    <trkpt lat="47.59056" lon="14.15824"><ele>1464</ele><time>2022-11-13T13:02:16Z</time></trkpt>
    <trkpt lat="47.59041" lon="14.15834"><ele>1449</ele><time>2022-11-13T13:03:51Z</time></trkpt>
    <trkpt lat="47.59033" lon="14.15853"><ele>1444</ele><time>2022-11-13T13:04:09Z</time></trkpt>
    <trkpt lat="47.59021" lon="14.15872"><ele>1446</ele><time>2022-11-13T13:04:27Z</time></trkpt>
    <trkpt lat="47.59004" lon="14.15883"><ele>1421</ele><time>2022-11-13T13:04:46Z</time></trkpt>
    <trkpt lat="47.58987" lon="14.15874"><ele>1427</ele><time>2022-11-13T13:05:04Z</time></trkpt>
    <trkpt lat="47.58973" lon="14.15854"><ele>1439</ele><time>2022-11-13T13:05:23Z</time></trkpt>
    <trkpt lat="47.58952" lon="14.15841"><ele>1435</ele><time>2022-11-13T13:05:42Z</time></trkpt>
    <trkpt lat="47.58932" lon="14.15846"><ele>1436</ele><time>2022-11-13T13:06:00Z</time></trkpt>
    <trkpt lat="47.58911" lon="14.15844"><ele>1436</ele><time>2022-11-13T13:06:18Z</time></trkpt>
    <trkpt lat="47.58895" lon="14.15839"><ele>1434</ele><time>2022-11-13T13:06:36Z</time></trkpt>
    <trkpt lat="47.58874" lon="14.15842"><ele>1437</ele><time>2022-11-13T13:06:55Z</time></trkpt>
    <trkpt lat="47.58858" lon="14.15859"><ele>1429</ele><time>2022-11-13T13:07:13Z</time></trkpt>
    <trkpt lat="47.58863" lon="14.15878"><ele>1426</ele><time>2022-11-13T13:07:32Z</time></trkpt>
    <trkpt lat="47.58870" lon="14.15887"><ele>1429</ele><time>2022-11-13T13:07:50Z</time></trkpt>
    <trkpt lat="47.58898" lon="14.15916"><ele>1433</ele><time>2022-11-13T13:08:09Z</time></trkpt>
    <trkpt lat="47.58919" lon="14.15940"><ele>1435</ele><time>2022-11-13T13:08:28Z</time></trkpt>
    <trkpt lat="47.58936" lon="14.15965"><ele>1436</ele><time>2022-11-13T13:08:46Z</time></trkpt>
    <trkpt lat="47.58956" lon="14.15976"><ele>1425</ele><time>2022-11-13T13:09:05Z</time></trkpt>
    <trkpt lat="47.58938" lon="14.15985"><ele>1521</ele><time>2022-11-13T13:09:24Z</time></trkpt>
    <trkpt lat="47.58916" lon="14.15990"><ele>1385</ele><time>2022-11-13T13:09:42Z</time></trkpt>
    <trkpt lat="47.58906" lon="14.16024"><ele>1391</ele><time>2022-11-13T13:10:01Z</time></trkpt>
    <trkpt lat="47.58893" lon="14.16049"><ele>1383</ele><time>2022-11-13T13:10:20Z</time></trkpt>
    <trkpt lat="47.58883" lon="14.16075"><ele>1393</ele><time>2022-11-13T13:10:39Z</time></trkpt>
    <trkpt lat="47.58868" lon="14.16089"><ele>1398</ele><time>2022-11-13T13:10:58Z</time></trkpt>
    <trkpt lat="47.58860" lon="14.16126"><ele>1379</ele><time>2022-11-13T13:11:17Z</time></trkpt>
    <trkpt lat="47.58844" lon="14.16141"><ele>1368</ele><time>2022-11-13T13:11:36Z</time></trkpt>
    <trkpt lat="47.58828" lon="14.16165"><ele>1395</ele><time>2022-11-13T13:11:55Z</time></trkpt>
    <trkpt lat="47.58815" lon="14.16185"><ele>1334</ele><time>2022-11-13T13:12:13Z</time></trkpt>
    <trkpt lat="47.58802" lon="14.16192"><ele>1398</ele><time>2022-11-13T13:12:32Z</time></trkpt>
    <trkpt lat="47.58773" lon="14.16212"><ele>1403</ele><time>2022-11-13T13:12:50Z</time></trkpt>
    <trkpt lat="47.58749" lon="14.16203"><ele>1443</ele><time>2022-11-13T13:13:09Z</time></trkpt>
    <trkpt lat="47.58727" lon="14.16233"><ele>1412</ele><time>2022-11-13T13:13:28Z</time></trkpt>
    <trkpt lat="47.58731" lon="14.16275"><ele>1412</ele><time>2022-11-13T13:13:47Z</time></trkpt>
    <trkpt lat="47.58729" lon="14.16306"><ele>1408</ele><time>2022-11-13T13:14:05Z</time></trkpt>
    <trkpt lat="47.58729" lon="14.16339"><ele>1403</ele><time>2022-11-13T13:14:24Z</time></trkpt>
    <trkpt lat="47.58734" lon="14.16369"><ele>1401</ele><time>2022-11-13T13:14:42Z</time></trkpt>
    <trkpt lat="47.58724" lon="14.16397"><ele>1399</ele><time>2022-11-13T13:15:01Z</time></trkpt>
    <trkpt lat="47.58712" lon="14.16424"><ele>1402</ele><time>2022-11-13T13:15:20Z</time></trkpt>
    <trkpt lat="47.58702" lon="14.16454"><ele>1393</ele><time>2022-11-13T13:15:39Z</time></trkpt>
    <trkpt lat="47.58691" lon="14.16478"><ele>1394</ele><time>2022-11-13T13:15:57Z</time></trkpt>
    <trkpt lat="47.58676" lon="14.16505"><ele>1376</ele><time>2022-11-13T13:16:16Z</time></trkpt>
    <trkpt lat="47.58657" lon="14.16529"><ele>1384</ele><time>2022-11-13T13:16:35Z</time></trkpt>
    <trkpt lat="47.58655" lon="14.16570"><ele>1395</ele><time>2022-11-13T13:16:54Z</time></trkpt>
    <trkpt lat="47.58648" lon="14.16598"><ele>1393</ele><time>2022-11-13T13:17:12Z</time></trkpt>
    <trkpt lat="47.58637" lon="14.16625"><ele>1394</ele><time>2022-11-13T13:17:31Z</time></trkpt>
    <trkpt lat="47.58623" lon="14.16647"><ele>1388</ele><time>2022-11-13T13:17:49Z</time></trkpt>
    <trkpt lat="47.58605" lon="14.16657"><ele>1299</ele><time>2022-11-13T13:18:08Z</time></trkpt>
    <trkpt lat="47.58589" lon="14.16676"><ele>1318</ele><time>2022-11-13T13:18:26Z</time></trkpt>
    <trkpt lat="47.58569" lon="14.16681"><ele>1372</ele><time>2022-11-13T13:18:45Z</time></trkpt>
    <trkpt lat="47.58547" lon="14.16685"><ele>1374</ele><time>2022-11-13T13:19:03Z</time></trkpt>
    <trkpt lat="47.58523" lon="14.16683"><ele>1373</ele><time>2022-11-13T13:19:21Z</time></trkpt>
    <trkpt lat="47.58498" lon="14.16686"><ele>1376</ele><time>2022-11-13T13:19:40Z</time></trkpt>
    <trkpt lat="47.58480" lon="14.16685"><ele>1372</ele><time>2022-11-13T13:19:59Z</time></trkpt>
    <trkpt lat="47.58452" lon="14.16679"><ele>1374</ele><time>2022-11-13T13:20:18Z</time></trkpt>
    <trkpt lat="47.58427" lon="14.16673"><ele>1376</ele><time>2022-11-13T13:20:37Z</time></trkpt>
    <trkpt lat="47.58407" lon="14.16664"><ele>1372</ele><time>2022-11-13T13:20:55Z</time></trkpt>
    <trkpt lat="47.58381" lon="14.16683"><ele>1363</ele><time>2022-11-13T13:21:14Z</time></trkpt>
    <trkpt lat="47.58357" lon="14.16690"><ele>1360</ele><time>2022-11-13T13:21:33Z</time></trkpt>
    <trkpt lat="47.58336" lon="14.16683"><ele>1360</ele><time>2022-11-13T13:21:51Z</time></trkpt>
    <trkpt lat="47.58318" lon="14.16678"><ele>1360</ele><time>2022-11-13T13:22:10Z</time></trkpt>
    <trkpt lat="47.58297" lon="14.16671"><ele>1358</ele><time>2022-11-13T13:22:29Z</time></trkpt>
    <trkpt lat="47.58274" lon="14.16660"><ele>1353</ele><time>2022-11-13T13:22:48Z</time></trkpt>
    <trkpt lat="47.58266" lon="14.16682"><ele>1343</ele><time>2022-11-13T13:23:06Z</time></trkpt>
    <trkpt lat="47.58256" lon="14.16703"><ele>1340</ele><time>2022-11-13T13:23:24Z</time></trkpt>
    <trkpt lat="47.58245" lon="14.16727"><ele>1337</ele><time>2022-11-13T13:23:43Z</time></trkpt>
    <trkpt lat="47.58243" lon="14.16757"><ele>1335</ele><time>2022-11-13T13:24:02Z</time></trkpt>
    <trkpt lat="47.58233" lon="14.16784"><ele>1330</ele><time>2022-11-13T13:24:21Z</time></trkpt>
    <trkpt lat="47.58221" lon="14.16815"><ele>1330</ele><time>2022-11-13T13:24:39Z</time></trkpt>
    <trkpt lat="47.58202" lon="14.16816"><ele>1327</ele><time>2022-11-13T13:24:57Z</time></trkpt>
    <trkpt lat="47.58186" lon="14.16824"><ele>1322</ele><time>2022-11-13T13:25:15Z</time></trkpt>
    <trkpt lat="47.58167" lon="14.16824"><ele>1326</ele><time>2022-11-13T13:25:34Z</time></trkpt>
    <trkpt lat="47.58155" lon="14.16822"><ele>1313</ele><time>2022-11-13T13:25:52Z</time></trkpt>
    <trkpt lat="47.58145" lon="14.16830"><ele>1308</ele><time>2022-11-13T13:26:11Z</time></trkpt>
    <trkpt lat="47.58135" lon="14.16841"><ele>1305</ele><time>2022-11-13T13:26:30Z</time></trkpt>
    <trkpt lat="47.58118" lon="14.16834"><ele>1296</ele><time>2022-11-13T13:26:49Z</time></trkpt>
    <trkpt lat="47.58108" lon="14.16840"><ele>1300</ele><time>2022-11-13T13:27:08Z</time></trkpt>
    <trkpt lat="47.58093" lon="14.16859"><ele>1298</ele><time>2022-11-13T13:27:27Z</time></trkpt>
    <trkpt lat="47.58090" lon="14.16872"><ele>1293</ele><time>2022-11-13T13:27:45Z</time></trkpt>
    <trkpt lat="47.58080" lon="14.16863"><ele>1340</ele><time>2022-11-13T13:28:04Z</time></trkpt>
    <trkpt lat="47.58060" lon="14.16867"><ele>1303</ele><time>2022-11-13T13:28:23Z</time></trkpt>
    <trkpt lat="47.58046" lon="14.16860"><ele>1286</ele><time>2022-11-13T13:28:42Z</time></trkpt>
    <trkpt lat="47.58035" lon="14.16842"><ele>1281</ele><time>2022-11-13T13:29:00Z</time></trkpt>
    <trkpt lat="47.58027" lon="14.16825"><ele>1277</ele><time>2022-11-13T13:29:18Z</time></trkpt>
    <trkpt lat="47.58014" lon="14.16820"><ele>1263</ele><time>2022-11-13T13:29:37Z</time></trkpt>
    <trkpt lat="47.58003" lon="14.16815"><ele>1256</ele><time>2022-11-13T13:29:56Z</time></trkpt>
    <trkpt lat="47.57977" lon="14.16820"><ele>1255</ele><time>2022-11-13T13:31:00Z</time></trkpt>
    <trkpt lat="47.57968" lon="14.16799"><ele>1251</ele><time>2022-11-13T13:31:19Z</time></trkpt>
    <trkpt lat="47.57954" lon="14.16780"><ele>1247</ele><time>2022-11-13T13:31:38Z</time></trkpt>
    <trkpt lat="47.57935" lon="14.16774"><ele>1239</ele><time>2022-11-13T13:31:57Z</time></trkpt>
    <trkpt lat="47.57924" lon="14.16752"><ele>1239</ele><time>2022-11-13T13:32:15Z</time></trkpt>
    <trkpt lat="47.57917" lon="14.16787"><ele>1232</ele><time>2022-11-13T13:32:34Z</time></trkpt>
    <trkpt lat="47.57916" lon="14.16832"><ele>1232</ele><time>2022-11-13T13:33:10Z</time></trkpt>
    <trkpt lat="47.57915" lon="14.16851"><ele>1227</ele><time>2022-11-13T13:33:29Z</time></trkpt>
    <trkpt lat="47.57902" lon="14.16848"><ele>1222</ele><time>2022-11-13T13:33:47Z</time></trkpt>
    <trkpt lat="47.57887" lon="14.16847"><ele>1222</ele><time>2022-11-13T13:34:05Z</time></trkpt>
    <trkpt lat="47.57877" lon="14.16845"><ele>1216</ele><time>2022-11-13T13:34:23Z</time></trkpt>
    <trkpt lat="47.57859" lon="14.16842"><ele>1208</ele><time>2022-11-13T13:35:01Z</time></trkpt>
    <trkpt lat="47.57840" lon="14.16853"><ele>1211</ele><time>2022-11-13T13:35:20Z</time></trkpt>
    <trkpt lat="47.57822" lon="14.16852"><ele>1213</ele><time>2022-11-13T13:35:38Z</time></trkpt>
    <trkpt lat="47.57804" lon="14.16851"><ele>1215</ele><time>2022-11-13T13:35:57Z</time></trkpt>
    <trkpt lat="47.57791" lon="14.16838"><ele>1217</ele><time>2022-11-13T13:36:16Z</time></trkpt>
    <trkpt lat="47.57774" lon="14.16833"><ele>1214</ele><time>2022-11-13T13:36:35Z</time></trkpt>
    <trkpt lat="47.57760" lon="14.16836"><ele>1210</ele><time>2022-11-13T13:36:54Z</time></trkpt>
    <trkpt lat="47.57754" lon="14.16852"><ele>1189</ele><time>2022-11-13T13:37:13Z</time></trkpt>
    <trkpt lat="47.57760" lon="14.16882"><ele>1183</ele><time>2022-11-13T13:37:31Z</time></trkpt>
    <trkpt lat="47.57762" lon="14.16922"><ele>1182</ele><time>2022-11-13T13:37:50Z</time></trkpt>
    <trkpt lat="47.57754" lon="14.16936"><ele>1181</ele><time>2022-11-13T13:38:08Z</time></trkpt>
    <trkpt lat="47.57741" lon="14.16920"><ele>1175</ele><time>2022-11-13T13:38:27Z</time></trkpt>
    <trkpt lat="47.57723" lon="14.16934"><ele>1175</ele><time>2022-11-13T13:38:46Z</time></trkpt>
    <trkpt lat="47.57708" lon="14.16926"><ele>1178</ele><time>2022-11-13T13:39:04Z</time></trkpt>
    <trkpt lat="47.57695" lon="14.16925"><ele>1173</ele><time>2022-11-13T13:39:23Z</time></trkpt>
    <trkpt lat="47.57683" lon="14.16939"><ele>1171</ele><time>2022-11-13T13:39:42Z</time></trkpt>
    <trkpt lat="47.57669" lon="14.16934"><ele>1167</ele><time>2022-11-13T13:40:01Z</time></trkpt>
    <trkpt lat="47.57654" lon="14.16924"><ele>1165</ele><time>2022-11-13T13:40:20Z</time></trkpt>
    <trkpt lat="47.57640" lon="14.16917"><ele>1166</ele><time>2022-11-13T13:40:39Z</time></trkpt>
    <trkpt lat="47.57626" lon="14.16919"><ele>1163</ele><time>2022-11-13T13:40:58Z</time></trkpt>
    <trkpt lat="47.57604" lon="14.16927"><ele>1155</ele><time>2022-11-13T13:41:17Z</time></trkpt>
    <trkpt lat="47.57588" lon="14.16920"><ele>1148</ele><time>2022-11-13T13:41:36Z</time></trkpt>
    <trkpt lat="47.57569" lon="14.16907"><ele>1144</ele><time>2022-11-13T13:41:55Z</time></trkpt>
    <trkpt lat="47.57554" lon="14.16891"><ele>1139</ele><time>2022-11-13T13:42:13Z</time></trkpt>
    <trkpt lat="47.57537" lon="14.16874"><ele>1133</ele><time>2022-11-13T13:42:32Z</time></trkpt>
    <trkpt lat="47.57513" lon="14.16879"><ele>1131</ele><time>2022-11-13T13:43:17Z</time></trkpt>
    <trkpt lat="47.57501" lon="14.16900"><ele>1126</ele><time>2022-11-13T13:43:35Z</time></trkpt>
    <trkpt lat="47.57497" lon="14.16936"><ele>1130</ele><time>2022-11-13T13:43:54Z</time></trkpt>
    <trkpt lat="47.57500" lon="14.16967"><ele>1131</ele><time>2022-11-13T13:44:13Z</time></trkpt>
    <trkpt lat="47.57502" lon="14.16997"><ele>1126</ele><time>2022-11-13T13:44:31Z</time></trkpt>
    <trkpt lat="47.57501" lon="14.17033"><ele>1123</ele><time>2022-11-13T13:44:50Z</time></trkpt>
    <trkpt lat="47.57494" lon="14.17055"><ele>1122</ele><time>2022-11-13T13:45:09Z</time></trkpt>
    <trkpt lat="47.57476" lon="14.17080"><ele>1120</ele><time>2022-11-13T13:45:27Z</time></trkpt>
    <trkpt lat="47.57464" lon="14.17109"><ele>1118</ele><time>2022-11-13T13:45:46Z</time></trkpt>
    <trkpt lat="47.57460" lon="14.17146"><ele>1122</ele><time>2022-11-13T13:46:05Z</time></trkpt>
    <trkpt lat="47.57463" lon="14.17185"><ele>1122</ele><time>2022-11-13T13:46:23Z</time></trkpt>
    <trkpt lat="47.57465" lon="14.17219"><ele>1122</ele><time>2022-11-13T13:46:42Z</time></trkpt>
    <trkpt lat="47.57466" lon="14.17251"><ele>1123</ele><time>2022-11-13T13:47:00Z</time></trkpt>
  </trkseg>
</trk>
</gpx>