<?xml version="1.0" encoding="UTF-8"?>
<gpx version="1.1" creator="GPX-Pro" xmlns="http://www.topografix.com/GPX/1/1">
<trk>
  <name>Öttlberg</name>
  <trkseg>
    <trkpt lat="47.69350" lon="14.14118"><ele>601</ele><time>2022-12-08T09:25:23Z</time></trkpt>
    <trkpt lat="47.69369" lon="14.14118"><ele>602</ele><time>2022-12-08T09:25:41Z</time></trkpt>
    <trkpt lat="47.69390" lon="14.14104"><ele>603</ele><time>2022-12-08T09:26:00Z</time></trkpt>
    <trkpt lat="47.69414" lon="14.14087"><ele>601</ele><time>2022-12-08T09:26:19Z</time></trkpt>
    <trkpt lat="47.69437" lon="14.14065"><ele>594</ele><time>2022-12-08T09:26:38Z</time></trkpt>
    <trkpt lat="47.69456" lon="14.14043"><ele>602</ele><time>2022-12-08T09:26:56Z</time></trkpt>
    <trkpt lat="47.69474" lon="14.14012"><ele>603</ele><time>2022-12-08T09:27:15Z</time></trkpt>
    <trkpt lat="47.69489" lon="14.13978"><ele>610</ele><time>2022-12-08T09:27:33Z</time></trkpt>
    <trkpt lat="47.69504" lon="14.13950"><ele>606</ele><time>2022-12-08T09:27:52Z</time></trkpt>
    <trkpt lat="47.69524" lon="14.13934"><ele>600</ele><time>2022-12-08T09:28:10Z</time></trkpt>
    <trkpt lat="47.69545" lon="14.13943"><ele>601</ele><time>2022-12-08T09:28:28Z</time></trkpt>
    <trkpt lat="47.69560" lon="14.13968"><ele>598</ele><time>2022-12-08T09:28:46Z</time></trkpt>
    <trkpt lat="47.69579" lon="14.13993"><ele>594</ele><time>2022-12-08T09:29:05Z</time></trkpt>
    <trkpt lat="47.69598" lon="14.14019"><ele>597</ele><time>2022-12-08T09:29:24Z</time></trkpt>
    <trkpt lat="47.69619" lon="14.14037"><ele>598</ele><time>2022-12-08T09:29:42Z</time></trkpt>
    <trkpt lat="47.69643" lon="14.14053"><ele>597</ele><time>2022-12-08T09:30:01Z</time></trkpt>
    <trkpt lat="47.69669" lon="14.14070"><ele>597</ele><time>2022-12-08T09:30:19Z</time></trkpt>
    <trkpt lat="47.69695" lon="14.14092"><ele>596</ele><time>2022-12-08T09:30:38Z</time></trkpt>
    <trkpt lat="47.69713" lon="14.14114"><ele>600</ele><time>2022-12-08T09:30:56Z</time></trkpt>
    <trkpt lat="47.69735" lon="14.14122"><ele>599</ele><time>2022-12-08T09:31:15Z</time></trkpt>
    <trkpt lat="47.69747" lon="14.14134"><ele>596</ele><time>2022-12-08T09:31:34Z</time></trkpt>
    <trkpt lat="47.69777" lon="14.14148"><ele>593</ele><time>2022-12-08T09:31:52Z</time></trkpt>
    <trkpt lat="47.69795" lon="14.14153"><ele>598</ele><time>2022-12-08T09:32:11Z</time></trkpt>
    <trkpt lat="47.69812" lon="14.14163"><ele>600</ele><time>2022-12-08T09:32:30Z</time></trkpt>
    <trkpt lat="47.69830" lon="14.14154"><ele>603</ele><time>2022-12-08T09:32:48Z</time></trkpt>
    <trkpt lat="47.69837" lon="14.14142"><ele>607</ele><time>2022-12-08T09:33:07Z</time></trkpt>
    <trkpt lat="47.69843" lon="14.14122"><ele>608</ele><time>2022-12-08T09:33:26Z</time></trkpt>
    <trkpt lat="47.69851" lon="14.14106"><ele>616</ele><time>2022-12-08T09:33:45Z</time></trkpt>
    <trkpt lat="47.69862" lon="14.14093"><ele>620</ele><time>2022-12-08T09:34:04Z</time></trkpt>
    <trkpt lat="47.69876" lon="14.14103"><ele>614</ele><time>2022-12-08T09:34:22Z</time></trkpt>
    <trkpt lat="47.69882" lon="14.14125"><ele>616</ele><time>2022-12-08T09:34:41Z</time></trkpt>
    <trkpt lat="47.69896" lon="14.14132"><ele>616</ele><time>2022-12-08T09:35:00Z</time></trkpt>
    <trkpt lat="47.69904" lon="14.14145"><ele>613</ele><time>2022-12-08T09:35:18Z</time></trkpt>
    <trkpt lat="47.69907" lon="14.14183"><ele>612</ele><time>2022-12-08T09:36:08Z</time></trkpt>
    <trkpt lat="47.69912" lon="14.14205"><ele>618</ele><time>2022-12-08T09:36:26Z</time></trkpt>
    <trkpt lat="47.69923" lon="14.14222"><ele>619</ele><time>2022-12-08T09:36:45Z</time></trkpt>
    <trkpt lat="47.69936" lon="14.14237"><ele>628</ele><time>2022-12-08T09:37:03Z</time></trkpt>
    <trkpt lat="47.69947" lon="14.14255"><ele>626</ele><time>2022-12-08T09:37:22Z</time></trkpt>
    <trkpt lat="47.69957" lon="14.14271"><ele>631</ele><time>2022-12-08T09:37:40Z</time></trkpt>
    <trkpt lat="47.69962" lon="14.14294"><ele>621</ele><time>2022-12-08T09:37:59Z</time></trkpt>
    <trkpt lat="47.69971" lon="14.14316"><ele>633</ele><time>2022-12-08T09:38:17Z</time></trkpt>
    <trkpt lat="47.69977" lon="14.14342"><ele>636</ele><time>2022-12-08T09:38:36Z</time></trkpt>
    <trkpt lat="47.69976" lon="14.14363"><ele>641</ele><time>2022-12-08T09:38:55Z</time></trkpt>
    <trkpt lat="47.69981" lon="14.14380"><ele>643</ele><time>2022-12-08T09:39:14Z</time></trkpt>
    <trkpt lat="47.69993" lon="14.14392"><ele>648</ele><time>2022-12-08T09:39:32Z</time></trkpt>
    <trkpt lat="47.70003" lon="14.14408"><ele>650</ele><time>2022-12-08T09:39:50Z</time></trkpt>
    <trkpt lat="47.70014" lon="14.14395"><ele>650</ele><time>2022-12-08T09:40:09Z</time></trkpt>
    <trkpt lat="47.70026" lon="14.14381"><ele>654</ele><time>2022-12-08T09:40:28Z</time></trkpt>
    <trkpt lat="47.70038" lon="14.14369"><ele>663</ele><time>2022-12-08T09:40:46Z</time></trkpt>
    <trkpt lat="47.70051" lon="14.14355"><ele>664</ele><time>2022-12-08T09:41:05Z</time></trkpt>
    <trkpt lat="47.70062" lon="14.14339"><ele>672</ele><time>2022-12-08T09:41:23Z</time></trkpt>
    <trkpt lat="47.70070" lon="14.14324"><ele>675</ele><time>2022-12-08T09:41:41Z</time></trkpt>
    <trkpt lat="47.70073" lon="14.14300"><ele>678</ele><time>2022-12-08T09:42:00Z</time></trkpt>
    <trkpt lat="47.70077" lon="14.14281"><ele>677</ele><time>2022-12-08T09:42:19Z</time></trkpt>
    <trkpt lat="47.70083" lon="14.14263"><ele>681</ele><time>2022-12-08T09:42:38Z</time></trkpt>
    <trkpt lat="47.70090" lon="14.14241"><ele>685</ele><time>2022-12-08T09:42:57Z</time></trkpt>
    <trkpt lat="47.70099" lon="14.14225"><ele>684</ele><time>2022-12-08T09:43:15Z</time></trkpt>
    <trkpt lat="47.70107" lon="14.14206"><ele>665</ele><time>2022-12-08T09:43:34Z</time></trkpt>
    <trkpt lat="47.70110" lon="14.14186"><ele>688</ele><time>2022-12-08T09:43:53Z</time></trkpt>
    <trkpt lat="47.70112" lon="14.14163"><ele>686</ele><time>2022-12-08T09:44:12Z</time></trkpt>
    <trkpt lat="47.70115" lon="14.14140"><ele>689</ele><time>2022-12-08T09:44:30Z</time></trkpt>
    <trkpt lat="47.70117" lon="14.14119"><ele>691</ele><time>2022-12-08T09:44:48Z</time></trkpt>
    <trkpt lat="47.70127" lon="14.14102"><ele>692</ele><time>2022-12-08T09:45:06Z</time></trkpt>
    <trkpt lat="47.70139" lon="14.14095"><ele>694</ele><time>2022-12-08T09:45:25Z</time></trkpt>
    <trkpt lat="47.70154" lon="14.14103"><ele>698</ele><time>2022-12-08T09:45:44Z</time></trkpt>
    <trkpt lat="47.70158" lon="14.14080"><ele>675</ele><time>2022-12-08T09:46:03Z</time></trkpt>
    <trkpt lat="47.70161" lon="14.14053"><ele>697</ele><time>2022-12-08T09:46:21Z</time></trkpt>
    <trkpt lat="47.70172" lon="14.14036"><ele>702</ele><time>2022-12-08T09:46:40Z</time></trkpt>
    <trkpt lat="47.70182" lon="14.14020"><ele>707</ele><time>2022-12-08T09:46:58Z</time></trkpt>
    <trkpt lat="47.70191" lon="14.14003"><ele>711</ele><time>2022-12-08T09:47:16Z</time></trkpt>
    <trkpt lat="47.70198" lon="14.13989"><ele>717</ele><time>2022-12-08T09:47:35Z</time></trkpt>
    <trkpt lat="47.70215" lon="14.14011"><ele>718</ele><time>2022-12-08T09:48:13Z</time></trkpt>
    <trkpt lat="47.70231" lon="14.14017"><ele>708</ele><time>2022-12-08T09:48:32Z</time></trkpt>
    <trkpt lat="47.70247" lon="14.14023"><ele>722</ele><time>2022-12-08T09:48:50Z</time></trkpt>
    <trkpt lat="47.70259" lon="14.13991"><ele>717</ele><time>2022-12-08T09:51:44Z</time></trkpt>
    <trkpt lat="47.70256" lon="14.13964"><ele>707</ele><time>2022-12-08T09:52:02Z</time></trkpt>
    <trkpt lat="47.70245" lon="14.13940"><ele>701</ele><time>2022-12-08T09:52:20Z</time></trkpt>
    <trkpt lat="47.70228" lon="14.13915"><ele>735</ele><time>2022-12-08T09:53:19Z</time></trkpt>
    <trkpt lat="47.70216" lon="14.13897"><ele>729</ele><time>2022-12-08T09:53:37Z</time></trkpt>
    <trkpt lat="47.70204" lon="14.13877"><ele>733</ele><time>2022-12-08T09:53:55Z</time></trkpt>
    <trkpt lat="47.70200" lon="14.13858"><ele>727</ele><time>2022-12-08T09:54:13Z</time></trkpt>
    <trkpt lat="47.70223" lon="14.13867"><ele>726</ele><time>2022-12-08T09:54:31Z</time></trkpt>
    <trkpt lat="47.70240" lon="14.13872"><ele>721</ele><time>2022-12-08T09:54:50Z</time></trkpt>
    <trkpt lat="47.70260" lon="14.13883"><ele>722</ele><time>2022-12-08T09:55:09Z</time></trkpt>
    <trkpt lat="47.70274" lon="14.13889"><ele>727</ele><time>2022-12-08T09:55:27Z</time></trkpt>
    <trkpt lat="47.70284" lon="14.13883"><ele>722</ele><time>2022-12-08T09:55:46Z</time></trkpt>
    <trkpt lat="47.70282" lon="14.13867"><ele>745</ele><time>2022-12-08T09:56:05Z</time></trkpt>
    <trkpt lat="47.70292" lon="14.13863"><ele>736</ele><time>2022-12-08T09:56:23Z</time></trkpt>
    <trkpt lat="47.70300" lon="14.13843"><ele>690</ele><time>2022-12-08T09:57:01Z</time></trkpt>
    <trkpt lat="47.70307" lon="14.13836"><ele>749</ele><time>2022-12-08T09:57:19Z</time></trkpt>
    <trkpt lat="47.70304" lon="14.13820"><ele>756</ele><time>2022-12-08T09:57:37Z</time></trkpt>
    <trkpt lat="47.70311" lon="14.13811"><ele>752</ele><time>2022-12-08T09:57:56Z</time></trkpt>
    <trkpt lat="47.70318" lon="14.13802"><ele>758</ele><time>2022-12-08T09:58:14Z</time></trkpt>
    <trkpt lat="47.70310" lon="14.13789"><ele>751</ele><time>2022-12-08T09:58:32Z</time></trkpt>
    <trkpt lat="47.70305" lon="14.13777"><ele>768</ele><time>2022-12-08T09:58:50Z</time></trkpt>
    <trkpt lat="47.70303" lon="14.13751"><ele>773</ele><time>2022-12-08T09:59:28Z</time></trkpt>
    <trkpt lat="47.70297" lon="14.13738"><ele>773</ele><time>2022-12-08T09:59:46Z</time></trkpt>
    <trkpt lat="47.70289" lon="14.13729"><ele>779</ele><time>2022-12-08T10:00:04Z</time></trkpt>
    <trkpt lat="47.70281" lon="14.13714"><ele>784</ele><time>2022-12-08T10:00:23Z</time></trkpt>
    <trkpt lat="47.70298" lon="14.13700"><ele>783</ele><time>2022-12-08T10:01:05Z</time></trkpt>
    <trkpt lat="47.70291" lon="14.13674"><ele>791</ele><time>2022-12-08T10:01:46Z</time></trkpt>
    <trkpt lat="47.70288" lon="14.13659"><ele>796</ele><time>2022-12-08T10:02:04Z</time></trkpt>
    <trkpt lat="47.70288" lon="14.13637"><ele>788</ele><time>2022-12-08T10:02:54Z</time></trkpt>
    <trkpt lat="47.70298" lon="14.13624"><ele>798</ele><time>2022-12-08T10:03:12Z</time></trkpt>
    <trkpt lat="47.70305" lon="14.13605"><ele>789</ele><time>2022-12-08T10:03:50Z</time></trkpt>
    <trkpt lat="47.70291" lon="14.13593"><ele>803</ele><time>2022-12-08T10:04:32Z</time></trkpt>
    <trkpt lat="47.70295" lon="14.13574"><ele>799</ele><time>2022-12-08T10:05:25Z</time></trkpt>
    <trkpt lat="47.70282" lon="14.13560"><ele>824</ele><time>2022-12-08T10:06:14Z</time></trkpt>
    <trkpt lat="47.70286" lon="14.13548"><ele>837</ele><time>2022-12-08T10:07:01Z</time></trkpt>
    <trkpt lat="47.70292" lon="14.13531"><ele>839</ele><time>2022-12-08T10:07:46Z</time></trkpt>
    <trkpt lat="47.70284" lon="14.13524"><ele>841</ele><time>2022-12-08T10:08:04Z</time></trkpt>
    <trkpt lat="47.70304" lon="14.13513"><ele>853</ele><time>2022-12-08T10:09:03Z</time></trkpt>
    <trkpt lat="47.70321" lon="14.13506"><ele>837</ele><time>2022-12-08T10:09:44Z</time></trkpt>
    <trkpt lat="47.70329" lon="14.13500"><ele>815</ele><time>2022-12-08T10:10:02Z</time></trkpt>
    <trkpt lat="47.70336" lon="14.13487"><ele>800</ele><time>2022-12-08T10:10:20Z</time></trkpt>
    <trkpt lat="47.70346" lon="14.13483"><ele>860</ele><time>2022-12-08T10:10:39Z</time></trkpt>
    <trkpt lat="47.70355" lon="14.13487"><ele>857</ele><time>2022-12-08T10:10:57Z</time></trkpt>
    <trkpt lat="47.70364" lon="14.13491"><ele>846</ele><time>2022-12-08T10:11:15Z</time></trkpt>
    <trkpt lat="47.70376" lon="14.13483"><ele>848</ele><time>2022-12-08T10:11:34Z</time></trkpt>
    <trkpt lat="47.70389" lon="14.13468"><ele>869</ele><time>2022-12-08T10:12:12Z</time></trkpt>
    <trkpt lat="47.70399" lon="14.13457"><ele>826</ele><time>2022-12-08T10:12:31Z</time></trkpt>
    <trkpt lat="47.70408" lon="14.13444"><ele>849</ele><time>2022-12-08T10:12:49Z</time></trkpt>
    <trkpt lat="47.70418" lon="14.13431"><ele>826</ele><time>2022-12-08T10:13:07Z</time></trkpt>
    <trkpt lat="47.70422" lon="14.13418"><ele>875</ele><time>2022-12-08T10:13:44Z</time></trkpt>
    <trkpt lat="47.70440" lon="14.13422"><ele>877</ele><time>2022-12-08T10:14:33Z</time></trkpt>
    <trkpt lat="47.70437" lon="14.13398"><ele>887</ele><time>2022-12-08T10:15:28Z</time></trkpt>
    <trkpt lat="47.70445" lon="14.13406"><ele>890</ele><time>2022-12-08T10:15:46Z</time></trkpt>
    <trkpt lat="47.70454" lon="14.13412"><ele>896</ele><time>2022-12-08T10:16:05Z</time></trkpt>
    <trkpt lat="47.70461" lon="14.13401"><ele>886</ele><time>2022-12-08T10:16:24Z</time></trkpt>
    <trkpt lat="47.70460" lon="14.13385"><ele>848</ele><time>2022-12-08T10:17:03Z</time></trkpt>
    <trkpt lat="47.70452" lon="14.13357"><ele>714</ele><time>2022-12-08T10:17:43Z</time></trkpt>
    <trkpt lat="47.70443" lon="14.13345"><ele>887</ele><time>2022-12-08T10:18:01Z</time></trkpt>
    <trkpt lat="47.70438" lon="14.13329"><ele>809</ele><time>2022-12-08T10:18:20Z</time></trkpt>
    <trkpt lat="47.70425" lon="14.13330"><ele>827</ele><time>2022-12-08T10:18:38Z</time></trkpt>
    <trkpt lat="47.70408" lon="14.13333"><ele>690</ele><time>2022-12-08T10:18:57Z</time></trkpt>
    <trkpt lat="47.70392" lon="14.13328"><ele>863</ele><time>2022-12-08T10:19:35Z</time></trkpt>
    <trkpt lat="47.70372" lon="14.13314"><ele>925</ele><time>2022-12-08T10:20:19Z</time></trkpt>
    <trkpt lat="47.70362" lon="14.13309"><ele>903</ele><time>2022-12-08T10:20:38Z</time></trkpt>
    <trkpt lat="47.70354" lon="14.13298"><ele>842</ele><time>2022-12-08T10:20:56Z</time></trkpt>
    <trkpt lat="47.70360" lon="14.13286"><ele>884</ele><time>2022-12-08T10:21:40Z</time></trkpt>
    <trkpt lat="47.70366" lon="14.13273"><ele>948</ele><time>2022-12-08T10:21:58Z</time></trkpt>
    <trkpt lat="47.70376" lon="14.13268"><ele>927</ele><time>2022-12-08T10:22:16Z</time></trkpt>
    <trkpt lat="47.70385" lon="14.13262"><ele>944</ele><time>2022-12-08T10:22:34Z</time></trkpt>
    <trkpt lat="47.70389" lon="14.13249"><ele>953</ele><time>2022-12-08T10:22:53Z</time></trkpt>
    <trkpt lat="47.70401" lon="14.13238"><ele>954</ele><time>2022-12-08T10:23:12Z</time></trkpt>
    <trkpt lat="47.70408" lon="14.13230"><ele>952</ele><time>2022-12-08T10:23:30Z</time></trkpt>
    <trkpt lat="47.70419" lon="14.13230"><ele>953</ele><time>2022-12-08T10:23:48Z</time></trkpt>
    <trkpt lat="47.70430" lon="14.13238"><ele>863</ele><time>2022-12-08T10:24:07Z</time></trkpt>
    <trkpt lat="47.70443" lon="14.13235"><ele>931</ele><time>2022-12-08T10:24:26Z</time></trkpt>
    <trkpt lat="47.70435" lon="14.13218"><ele>896</ele><time>2022-12-08T10:25:40Z</time></trkpt>
    <trkpt lat="47.70426" lon="14.13207"><ele>965</ele><time>2022-12-08T10:25:58Z</time></trkpt>
    <trkpt lat="47.70419" lon="14.13193"><ele>974</ele><time>2022-12-08T10:26:17Z</time></trkpt>
    <trkpt lat="47.70403" lon="14.13174"><ele>976</ele><time>2022-12-08T10:26:54Z</time></trkpt>
    <trkpt lat="47.70398" lon="14.13159"><ele>977</ele><time>2022-12-08T10:27:13Z</time></trkpt>
    <trkpt lat="47.70407" lon="14.13156"><ele>960</ele><time>2022-12-08T10:27:32Z</time></trkpt>
    <trkpt lat="47.70417" lon="14.13152"><ele>977</ele><time>2022-12-08T10:27:50Z</time></trkpt>
    <trkpt lat="47.70428" lon="14.13155"><ele>986</ele><time>2022-12-08T10:28:09Z</time></trkpt>
    <trkpt lat="47.70439" lon="14.13160"><ele>831</ele><time>2022-12-08T10:28:28Z</time></trkpt>
    <trkpt lat="47.70435" lon="14.13132"><ele>982</ele><time>2022-12-08T10:34:05Z</time></trkpt>
    <trkpt lat="47.70423" lon="14.13122"><ele>983</ele><time>2022-12-08T10:34:24Z</time></trkpt>
    <trkpt lat="47.70439" lon="14.13123"><ele>991</ele><time>2022-12-08T10:35:06Z</time></trkpt>
    <trkpt lat="47.70448" lon="14.13112"><ele>1009</ele><time>2022-12-08T10:35:25Z</time></trkpt>
    <trkpt lat="47.70435" lon="14.13100"><ele>1009</ele><time>2022-12-08T10:36:09Z</time></trkpt>
    <trkpt lat="47.70423" lon="14.13080"><ele>1021</ele><time>2022-12-08T10:36:58Z</time></trkpt>
    <trkpt lat="47.70412" lon="14.13062"><ele>1020</ele><time>2022-12-08T10:37:41Z</time></trkpt>
    <trkpt lat="47.70399" lon="14.13044"><ele>1031</ele><time>2022-12-08T10:38:25Z</time></trkpt>
    <trkpt lat="47.70406" lon="14.13031"><ele>995</ele><time>2022-12-08T10:39:07Z</time></trkpt>
    <trkpt lat="47.70423" lon="14.13034"><ele>1042</ele><time>2022-12-08T10:39:55Z</time></trkpt>
    <trkpt lat="47.70420" lon="14.13010"><ele>1048</ele><time>2022-12-08T10:41:44Z</time></trkpt>
    <trkpt lat="47.70408" lon="14.12993"><ele>1058</ele><time>2022-12-08T10:42:42Z</time></trkpt>
    <trkpt lat="47.70395" lon="14.12976"><ele>1059</ele><time>2022-12-08T10:43:19Z</time></trkpt>
    <trkpt lat="47.70409" lon="14.12969"><ele>1071</ele><time>2022-12-08T10:45:56Z</time></trkpt>
    <trkpt lat="47.70396" lon="14.12953"><ele>1077</ele><time>2022-12-08T10:46:38Z</time></trkpt>
    <trkpt lat="47.70400" lon="14.12930"><ele>1085</ele><time>2022-12-08T10:48:37Z</time></trkpt>
    <trkpt lat="47.70414" lon="14.12902"><ele>1090</ele><time>2022-12-08T10:49:20Z</time></trkpt>
    <trkpt lat="47.70427" lon="14.12877"><ele>1096</ele><time>2022-12-08T10:49:57Z</time></trkpt>
    <trkpt lat="47.70434" lon="14.12864"><ele>1081</ele><time>2022-12-08T10:50:15Z</time></trkpt>
    <trkpt lat="47.70438" lon="14.12849"><ele>1099</ele><time>2022-12-08T10:50:34Z</time></trkpt>
    <trkpt lat="47.70452" lon="14.12826"><ele>1015</ele><time>2022-12-08T10:51:12Z</time></trkpt>
    <trkpt lat="47.70460" lon="14.12805"><ele>1108</ele><time>2022-12-08T10:52:06Z</time></trkpt>
    <trkpt lat="47.70451" lon="14.12795"><ele>1115</ele><time>2022-12-08T10:52:24Z</time></trkpt>
    <trkpt lat="47.70432" lon="14.12796"><ele>865</ele><time>2022-12-08T10:53:05Z</time></trkpt>
    <trkpt lat="47.70418" lon="14.12795"><ele>785</ele><time>2022-12-08T10:54:01Z</time></trkpt>
    <trkpt lat="47.70400" lon="14.12795"><ele>1105</ele><time>2022-12-08T10:54:42Z</time></trkpt>
    <trkpt lat="47.70397" lon="14.12761"><ele>1137</ele><time>2022-12-08T10:58:38Z</time></trkpt>
    <trkpt lat="47.70404" lon="14.12753"><ele>1147</ele><time>2022-12-08T10:58:56Z</time></trkpt>
    <trkpt lat="47.70407" lon="14.12732"><ele>1151</ele><time>2022-12-08T10:59:35Z</time></trkpt>
    <trkpt lat="47.70425" lon="14.12720"><ele>1152</ele><time>2022-12-08T11:00:17Z</time></trkpt>
    <trkpt lat="47.70439" lon="14.12710"><ele>1158</ele><time>2022-12-08T11:00:36Z</time></trkpt>
    <trkpt lat="47.70451" lon="14.12700"><ele>1154</ele><time>2022-12-08T11:00:55Z</time></trkpt>
    <trkpt lat="47.70467" lon="14.12690"><ele>1155</ele><time>2022-12-08T11:01:14Z</time></trkpt>
    <trkpt lat="47.70486" lon="14.12683"><ele>1159</ele><time>2022-12-08T11:01:32Z</time></trkpt>
    <trkpt lat="47.70502" lon="14.12668"><ele>1162</ele><time>2022-12-08T11:01:51Z</time></trkpt>
    <trkpt lat="47.70515" lon="14.12651"><ele>1164</ele><time>2022-12-08T11:02:10Z</time></trkpt>
    <trkpt lat="47.70529" lon="14.12637"><ele>1168</ele><time>2022-12-08T11:02:29Z</time></trkpt>
    <trkpt lat="47.70540" lon="14.12622"><ele>1176</ele><time>2022-12-08T11:02:47Z</time></trkpt>
    <trkpt lat="47.70547" lon="14.12600"><ele>1175</ele><time>2022-12-08T11:03:06Z</time></trkpt>
    <trkpt lat="47.70550" lon="14.12576"><ele>1174</ele><time>2022-12-08T11:03:25Z</time></trkpt>
    <trkpt lat="47.70554" lon="14.12552"><ele>1175</ele><time>2022-12-08T11:03:43Z</time></trkpt>
    <trkpt lat="47.70566" lon="14.12537"><ele>1175</ele><time>2022-12-08T11:04:01Z</time></trkpt>
    <trkpt lat="47.70579" lon="14.12520"><ele>1177</ele><time>2022-12-08T11:04:20Z</time></trkpt>
    <trkpt lat="47.70590" lon="14.12501"><ele>1180</ele><time>2022-12-08T11:04:38Z</time></trkpt>
    <trkpt lat="47.70599" lon="14.12484"><ele>1183</ele><time>2022-12-08T11:04:56Z</time></trkpt>
    <trkpt lat="47.70608" lon="14.12468"><ele>1182</ele><time>2022-12-08T11:05:14Z</time></trkpt>
    <trkpt lat="47.70616" lon="14.12446"><ele>1184</ele><time>2022-12-08T11:05:32Z</time></trkpt>
    <trkpt lat="47.70624" lon="14.12423"><ele>1189</ele><time>2022-12-08T11:05:51Z</time></trkpt>
    <trkpt lat="47.70634" lon="14.12401"><ele>1193</ele><time>2022-12-08T11:06:09Z</time></trkpt>
    <trkpt lat="47.70635" lon="14.12377"><ele>1193</ele><time>2022-12-08T11:06:28Z</time></trkpt>
    <trkpt lat="47.70634" lon="14.12363"><ele>1195</ele><time>2022-12-08T11:06:46Z</time></trkpt>
    <trkpt lat="47.70629" lon="14.12342"><ele>1194</ele><time>2022-12-08T11:07:04Z</time></trkpt>
    <trkpt lat="47.70617" lon="14.12356"><ele>1177</ele><time>2022-12-08T11:08:14Z</time></trkpt>
    <trkpt lat="47.70605" lon="14.12373"><ele>1202</ele><time>2022-12-08T11:12:48Z</time></trkpt>
    <trkpt lat="47.70596" lon="14.12380"><ele>1083</ele><time>2022-12-08T11:13:06Z</time></trkpt>
    <trkpt lat="47.70582" lon="14.12386"><ele>1176</ele><time>2022-12-08T11:13:45Z</time></trkpt>
    <trkpt lat="47.70566" lon="14.12382"><ele>1176</ele><time>2022-12-08T11:14:30Z</time></trkpt>
    <trkpt lat="47.70556" lon="14.12377"><ele>1148</ele><time>2022-12-08T11:14:49Z</time></trkpt>
    <trkpt lat="47.70545" lon="14.12373"><ele>1193</ele><time>2022-12-08T11:15:08Z</time></trkpt>
    <trkpt lat="47.70529" lon="14.12363"><ele>1041</ele><time>2022-12-08T11:15:55Z</time></trkpt>
    <trkpt lat="47.70512" lon="14.12357"><ele>1159</ele><time>2022-12-08T11:16:48Z</time></trkpt>
    <trkpt lat="47.70496" lon="14.12348"><ele>1226</ele><time>2022-12-08T11:17:27Z</time></trkpt>
    <trkpt lat="47.70480" lon="14.12350"><ele>846</ele><time>2022-12-08T11:18:59Z</time></trkpt>
    <trkpt lat="47.70467" lon="14.12330"><ele>1240</ele><time>2022-12-08T11:19:50Z</time></trkpt>
    <trkpt lat="47.70469" lon="14.12307"><ele>1254</ele><time>2022-12-08T11:20:44Z</time></trkpt>
    <trkpt lat="47.70462" lon="14.12282"><ele>1153</ele><time>2022-12-08T11:21:24Z</time></trkpt>
    <trkpt lat="47.70461" lon="14.12257"><ele>1264</ele><time>2022-12-08T11:22:30Z</time></trkpt>
    <trkpt lat="47.70446" lon="14.12246"><ele>1118</ele><time>2022-12-08T11:23:22Z</time></trkpt>
    <trkpt lat="47.70444" lon="14.12219"><ele>1131</ele><time>2022-12-08T11:24:04Z</time></trkpt>
    <trkpt lat="47.70441" lon="14.12206"><ele>1263</ele><time>2022-12-08T11:24:22Z</time></trkpt>
    <trkpt lat="47.70426" lon="14.12203"><ele>1284</ele><time>2022-12-08T11:25:32Z</time></trkpt>
    <trkpt lat="47.70412" lon="14.12189"><ele>1297</ele><time>2022-12-08T11:26:39Z</time></trkpt>
    <trkpt lat="47.70412" lon="14.12159"><ele>1267</ele><time>2022-12-08T11:27:38Z</time></trkpt>
    <trkpt lat="47.70415" lon="14.12135"><ele>1304</ele><time>2022-12-08T11:28:45Z</time></trkpt>
    <trkpt lat="47.70411" lon="14.12111"><ele>1185</ele><time>2022-12-08T11:32:22Z</time></trkpt>
    <trkpt lat="47.70395" lon="14.12112"><ele>1321</ele><time>2022-12-08T11:33:10Z</time></trkpt>
    <trkpt lat="47.70380" lon="14.12117"><ele>1330</ele><time>2022-12-08T11:33:57Z</time></trkpt>
    <trkpt lat="47.70379" lon="14.12148"><ele>1330</ele><time>2022-12-08T11:34:37Z</time></trkpt>
    <trkpt lat="47.70379" lon="14.12170"><ele>1329</ele><time>2022-12-08T11:34:56Z</time></trkpt>
    <trkpt lat="47.70380" lon="14.12122"><ele>1332</ele><time>2022-12-08T11:51:26Z</time></trkpt>
    <trkpt lat="47.70385" lon="14.12098"><ele>1333</ele><time>2022-12-08T11:51:45Z</time></trkpt>
    <trkpt lat="47.70387" lon="14.12081"><ele>1331</ele><time>2022-12-08T11:52:03Z</time></trkpt>
    <trkpt lat="47.70383" lon="14.12066"><ele>1337</ele><time>2022-12-08T11:52:22Z</time></trkpt>
    <trkpt lat="47.70378" lon="14.12048"><ele>1338</ele><time>2022-12-08T11:52:59Z</time></trkpt>
    <trkpt lat="47.70372" lon="14.12016"><ele>1259</ele><time>2022-12-08T11:55:29Z</time></trkpt>
    <trkpt lat="47.70377" lon="14.12004"><ele>1304</ele><time>2022-12-08T11:55:48Z</time></trkpt>
    <trkpt lat="47.70383" lon="14.11990"><ele>1303</ele><time>2022-12-08T11:56:06Z</time></trkpt>
    <trkpt lat="47.70388" lon="14.11977"><ele>1023</ele><time>2022-12-08T11:56:54Z</time></trkpt>
    <trkpt lat="47.70391" lon="14.11954"><ele>1304</ele><time>2022-12-08T11:57:35Z</time></trkpt>
    <trkpt lat="47.70395" lon="14.11942"><ele>1303</ele><time>2022-12-08T11:57:53Z</time></trkpt>
    <trkpt lat="47.70406" lon="14.11941"><ele>1240</ele><time>2022-12-08T11:58:12Z</time></trkpt>
    <trkpt lat="47.70423" lon="14.11951"><ele>1292</ele><time>2022-12-08T11:59:36Z</time></trkpt>
    <trkpt lat="47.70440" lon="14.11949"><ele>1285</ele><time>2022-12-08T12:00:12Z</time></trkpt>
    <trkpt lat="47.70461" lon="14.11956"><ele>1285</ele><time>2022-12-08T12:00:56Z</time></trkpt>
    <trkpt lat="47.70472" lon="14.11938"><ele>1111</ele><time>2022-12-08T12:02:08Z</time></trkpt>
    <trkpt lat="47.70470" lon="14.11914"><ele>1266</ele><time>2022-12-08T12:02:54Z</time></trkpt>
    <trkpt lat="47.70485" lon="14.11894"><ele>1253</ele><time>2022-12-08T12:03:37Z</time></trkpt>
    <trkpt lat="47.70491" lon="14.11882"><ele>1247</ele><time>2022-12-08T12:03:55Z</time></trkpt>
    <trkpt lat="47.70496" lon="14.11867"><ele>1247</ele><time>2022-12-08T12:04:13Z</time></trkpt>
    <trkpt lat="47.70505" lon="14.11855"><ele>1193</ele><time>2022-12-08T12:04:32Z</time></trkpt>
    <trkpt lat="47.70518" lon="14.11857"><ele>1232</ele><time>2022-12-08T12:04:50Z</time></trkpt>
    <trkpt lat="47.70530" lon="14.11837"><ele>1228</ele><time>2022-12-08T12:05:38Z</time></trkpt>
    <trkpt lat="47.70533" lon="14.11822"><ele>1230</ele><time>2022-12-08T12:05:56Z</time></trkpt>
    <trkpt lat="47.70537" lon="14.11804"><ele>1228</ele><time>2022-12-08T12:06:15Z</time></trkpt>
    <trkpt lat="47.70552" lon="14.11787"><ele>1204</ele><time>2022-12-08T12:07:00Z</time></trkpt>
    <trkpt lat="47.70563" lon="14.11781"><ele>1201</ele><time>2022-12-08T12:07:18Z</time></trkpt>
    <trkpt lat="47.70578" lon="14.11774"><ele>1200</ele><time>2022-12-08T12:07:37Z</time></trkpt>
    <trkpt lat="47.70589" lon="14.11769"><ele>1069</ele><time>2022-12-08T12:07:55Z</time></trkpt>
    <trkpt lat="47.70602" lon="14.11763"><ele>1186</ele><time>2022-12-08T12:08:14Z</time></trkpt>
    <trkpt lat="47.70616" lon="14.11752"><ele>1192</ele><time>2022-12-08T12:08:32Z</time></trkpt>
    <trkpt lat="47.70630" lon="14.11745"><ele>1193</ele><time>2022-12-08T12:08:50Z</time></trkpt>
    <trkpt lat="47.70645" lon="14.11728"><ele>1196</ele><time>2022-12-08T12:09:08Z</time></trkpt>
    <trkpt lat="47.70649" lon="14.11698"><ele>1190</ele><time>2022-12-08T12:09:26Z</time></trkpt>
    <trkpt lat="47.70647" lon="14.11671"><ele>1193</ele><time>2022-12-08T12:09:45Z</time></trkpt>
    <trkpt lat="47.70654" lon="14.11646"><ele>1205</ele><time>2022-12-08T12:10:04Z</time></trkpt>
    <trkpt lat="47.70667" lon="14.11628"><ele>1203</ele><time>2022-12-08T12:10:23Z</time></trkpt>
    <trkpt lat="47.70683" lon="14.11609"><ele>1202</ele><time>2022-12-08T12:10:42Z</time></trkpt>
    <trkpt lat="47.70699" lon="14.11596"><ele>1197</ele><time>2022-12-08T12:11:01Z</time></trkpt>
    <trkpt lat="47.70718" lon="14.11586"><ele>1217</ele><time>2022-12-08T12:11:19Z</time></trkpt>
    <trkpt lat="47.70736" lon="14.11579"><ele>1209</ele><time>2022-12-08T12:11:38Z</time></trkpt>
    <trkpt lat="47.70752" lon="14.11576"><ele>1190</ele><time>2022-12-08T12:11:56Z</time></trkpt>
    <trkpt lat="47.70769" lon="14.11574"><ele>1181</ele><time>2022-12-08T12:12:15Z</time></trkpt>
    <trkpt lat="47.70787" lon="14.11568"><ele>1199</ele><time>2022-12-08T12:12:33Z</time></trkpt>
    <trkpt lat="47.70809" lon="14.11560"><ele>1131</ele><time>2022-12-08T12:12:52Z</time></trkpt>
    <trkpt lat="47.70826" lon="14.11566"><ele>1086</ele><time>2022-12-08T12:13:10Z</time></trkpt>
    <trkpt lat="47.70840" lon="14.11574"><ele>1019</ele><time>2022-12-08T12:13:28Z</time></trkpt>
    <trkpt lat="47.70858" lon="14.11579"><ele>1212</ele><time>2022-12-08T12:13:46Z</time></trkpt>
    <trkpt lat="47.70874" lon="14.11585"><ele>1205</ele><time>2022-12-08T12:14:05Z</time></trkpt>
    <trkpt lat="47.70887" lon="14.11591"><ele>1184</ele><time>2022-12-08T12:14:24Z</time></trkpt>
    <trkpt lat="47.70899" lon="14.11601"><ele>1061</ele><time>2022-12-08T12:14:43Z</time></trkpt>
    <trkpt lat="47.70919" lon="14.11605"><ele>1123</ele><time>2022-12-08T12:15:02Z</time></trkpt>
    <trkpt lat="47.70937" lon="14.11596"><ele>1085</ele><time>2022-12-08T12:15:21Z</time></trkpt>
    <trkpt lat="47.70952" lon="14.11589"><ele>1209</ele><time>2022-12-08T12:15:39Z</time></trkpt>
    <trkpt lat="47.70963" lon="14.11571"><ele>1217</ele><time>2022-12-08T12:15:57Z</time></trkpt>
    <trkpt lat="47.70963" lon="14.11542"><ele>1226</ele><time>2022-12-08T12:16:16Z</time></trkpt>
    <trkpt lat="47.70956" lon="14.11516"><ele>1233</ele><time>2022-12-08T12:16:34Z</time></trkpt>
    <trkpt lat="47.70949" lon="14.11491"><ele>1239</ele><time>2022-12-08T12:16:52Z</time></trkpt>
    <trkpt lat="47.70944" lon="14.11473"><ele>1233</ele><time>2022-12-08T12:17:11Z</time></trkpt>
    <trkpt lat="47.70944" lon="14.11451"><ele>1234</ele><time>2022-12-08T12:17:29Z</time></trkpt>
    <trkpt lat="47.70942" lon="14.11432"><ele>1102</ele><time>2022-12-08T12:17:47Z</time></trkpt>
    <trkpt lat="47.70938" lon="14.11412"><ele>1239</ele><time>2022-12-08T12:18:05Z</time></trkpt>
    <trkpt lat="47.70933" lon="14.11389"><ele>1237</ele><time>2022-12-08T12:18:24Z</time></trkpt>
    <trkpt lat="47.70928" lon="14.11367"><ele>1238</ele><time>2022-12-08T12:18:42Z</time></trkpt>
    <trkpt lat="47.70924" lon="14.11344"><ele>1227</ele><time>2022-12-08T12:19:00Z</time></trkpt>
    <trkpt lat="47.70922" lon="14.11318"><ele>1239</ele><time>2022-12-08T12:19:18Z</time></trkpt>
    <trkpt lat="47.70923" lon="14.11290"><ele>1239</ele><time>2022-12-08T12:19:37Z</time></trkpt>
    <trkpt lat="47.70924" lon="14.11260"><ele>905</ele><time>2022-12-08T12:19:56Z</time></trkpt>
    <trkpt lat="47.70923" lon="14.11226"><ele>1230</ele><time>2022-12-08T12:20:15Z</time></trkpt>
    <trkpt lat="47.70922" lon="14.11196"><ele>1231</ele><time>2022-12-08T12:21:30Z</time></trkpt>
    <trkpt lat="47.70916" lon="14.11164"><ele>1232</ele><time>2022-12-08T12:21:49Z</time></trkpt>
    <trkpt lat="47.70913" lon="14.11142"><ele>1234</ele><time>2022-12-08T12:22:07Z</time></trkpt>
    <trkpt lat="47.70900" lon="14.11134"><ele>1227</ele><time>2022-12-08T12:22:26Z</time></trkpt>
    <trkpt lat="47.70892" lon="14.11112"><ele>1223</ele><time>2022-12-08T12:22:45Z</time></trkpt>
    <trkpt lat="47.70880" lon="14.11099"><ele>1219</ele><time>2022-12-08T12:23:03Z</time></trkpt>
    <trkpt lat="47.70865" lon="14.11087"><ele>1214</ele><time>2022-12-08T12:23:21Z</time></trkpt>
    <trkpt lat="47.70852" lon="14.11063"><ele>1208</ele><time>2022-12-08T12:23:39Z</time></trkpt>
    <trkpt lat="47.70829" lon="14.11065"><ele>1205</ele><time>2022-12-08T12:23:58Z</time></trkpt>
    <trkpt lat="47.70823" lon="14.11038"><ele>1198</ele><time>2022-12-08T12:24:17Z</time></trkpt>
    <trkpt lat="47.70814" lon="14.11021"><ele>1198</ele><time>2022-12-08T12:24:35Z</time></trkpt>
    <trkpt lat="47.70806" lon="14.10991"><ele>1191</ele><time>2022-12-08T12:24:54Z</time></trkpt>
    <trkpt lat="47.70799" lon="14.10964"><ele>1183</ele><time>2022-12-08T12:25:12Z</time></trkpt>
    <trkpt lat="47.70796" lon="14.10933"><ele>1181</ele><time>2022-12-08T12:25:31Z</time></trkpt>
    <trkpt lat="47.70789" lon="14.10907"><ele>1179</ele><time>2022-12-08T12:25:49Z</time></trkpt>
    <trkpt lat="47.70777" lon="14.10882"><ele>1173</ele><time>2022-12-08T12:26:08Z</time></trkpt>
    <trkpt lat="47.70769" lon="14.10863"><ele>1168</ele><time>2022-12-08T12:26:26Z</time></trkpt>
    <trkpt lat="47.70762" lon="14.10833"><ele>1167</ele><time>2022-12-08T12:26:45Z</time></trkpt>
    <trkpt lat="47.70758" lon="14.10813"><ele>1162</ele><time>2022-12-08T12:27:03Z</time></trkpt>
    <trkpt lat="47.70748" lon="14.10790"><ele>1162</ele><time>2022-12-08T12:27:21Z</time></trkpt>
    <trkpt lat="47.70748" lon="14.10776"><ele>1163</ele><time>2022-12-08T12:27:40Z</time></trkpt>
    <trkpt lat="47.70741" lon="14.10744"><ele>1162</ele><time>2022-12-08T12:27:59Z</time></trkpt>
    <trkpt lat="47.70740" lon="14.10714"><ele>1156</ele><time>2022-12-08T12:28:18Z</time></trkpt>
    <trkpt lat="47.70734" lon="14.10672"><ele>1158</ele><time>2022-12-08T12:28:36Z</time></trkpt>
    <trkpt lat="47.70721" lon="14.10640"><ele>1155</ele><time>2022-12-08T12:28:54Z</time></trkpt>
    <trkpt lat="47.70711" lon="14.10613"><ele>1151</ele><time>2022-12-08T12:29:13Z</time></trkpt>
    <trkpt lat="47.70698" lon="14.10586"><ele>1151</ele><time>2022-12-08T12:29:32Z</time></trkpt>
    <trkpt lat="47.70673" lon="14.10563"><ele>1154</ele><time>2022-12-08T12:29:51Z</time></trkpt>
    <trkpt lat="47.70656" lon="14.10544"><ele>1149</ele><time>2022-12-08T12:30:09Z</time></trkpt>
    <trkpt lat="47.70647" lon="14.10510"><ele>1146</ele><time>2022-12-08T12:30:28Z</time></trkpt>
    <trkpt lat="47.70636" lon="14.10491"><ele>1134</ele><time>2022-12-08T12:30:46Z</time></trkpt>
    <trkpt lat="47.70633" lon="14.10458"><ele>1133</ele><time>2022-12-08T12:31:04Z</time></trkpt>
    <trkpt lat="47.70638" lon="14.10432"><ele>1133</ele><time>2022-12-08T12:31:23Z</time></trkpt>
    <trkpt lat="47.70640" lon="14.10402"><ele>1128</ele><time>2022-12-08T12:31:42Z</time></trkpt>
    <trkpt lat="47.70642" lon="14.10365"><ele>1125</ele><time>2022-12-08T12:32:00Z</time></trkpt>
    <trkpt lat="47.70628" lon="14.10329"><ele>1123</ele><time>2022-12-08T12:32:19Z</time></trkpt>
    <trkpt lat="47.70616" lon="14.10300"><ele>1115</ele><time>2022-12-08T12:32:37Z</time></trkpt>
    <trkpt lat="47.70603" lon="14.10280"><ele>1111</ele><time>2022-12-08T12:32:55Z</time></trkpt>
    <trkpt lat="47.70596" lon="14.10271"><ele>1108</ele><time>2022-12-08T12:33:14Z</time></trkpt>
    <trkpt lat="47.70600" lon="14.10284"><ele>1104</ele><time>2022-12-08T12:33:32Z</time></trkpt>
    <trkpt lat="47.70588" lon="14.10266"><ele>1113</ele><time>2022-12-08T12:41:51Z</time></trkpt>
    <trkpt lat="47.70573" lon="14.10251"><ele>1113</ele><time>2022-12-08T12:42:10Z</time></trkpt>
    <trkpt lat="47.70562" lon="14.10245"><ele>1109</ele><time>2022-12-08T12:42:29Z</time></trkpt>
    <trkpt lat="47.70550" lon="14.10230"><ele>1105</ele><time>2022-12-08T12:46:11Z</time></trkpt>
    <trkpt lat="47.70555" lon="14.10190"><ele>1104</ele><time>2022-12-08T12:47:05Z</time></trkpt>
    <trkpt lat="47.70566" lon="14.10171"><ele>1105</ele><time>2022-12-08T12:47:23Z</time></trkpt>
    <trkpt lat="47.70575" lon="14.10136"><ele>1104</ele><time>2022-12-08T12:47:42Z</time></trkpt>
    <trkpt lat="47.70585" lon="14.10103"><ele>1095</ele><time>2022-12-08T12:48:01Z</time></trkpt>
    <trkpt lat="47.70567" lon="14.10110"><ele>1088</ele><time>2022-12-08T12:48:20Z</time></trkpt>
    <trkpt lat="47.70552" lon="14.10134"><ele>1085</ele><time>2022-12-08T12:48:38Z</time></trkpt>
    <trkpt lat="47.70535" lon="14.10154"><ele>1082</ele><time>2022-12-08T12:48:56Z</time></trkpt>
    <trkpt lat="47.70517" lon="14.10174"><ele>1079</ele><time>2022-12-08T12:49:14Z</time></trkpt>
    <trkpt lat="47.70501" lon="14.10194"><ele>1080</ele><time>2022-12-08T12:49:33Z</time></trkpt>
    <trkpt lat="47.70484" lon="14.10212"><ele>1078</ele><time>2022-12-08T12:49:51Z</time></trkpt>
    <trkpt lat="47.70472" lon="14.10232"><ele>1079</ele><time>2022-12-08T12:50:09Z</time></trkpt>
    <trkpt lat="47.70469" lon="14.10274"><ele>1076</ele><time>2022-12-08T12:51:11Z</time></trkpt>
    <trkpt lat="47.70483" lon="14.10290"><ele>1071</ele><time>2022-12-08T12:51:30Z</time></trkpt>
    <trkpt lat="47.70498" lon="14.10304"><ele>1064</ele><time>2022-12-08T12:51:49Z</time></trkpt>
    <trkpt lat="47.70491" lon="14.10337"><ele>1061</ele><time>2022-12-08T12:52:07Z</time></trkpt>
    <trkpt lat="47.70475" lon="14.10344"><ele>1060</ele><time>2022-12-08T12:52:25Z</time></trkpt>
    <trkpt lat="47.70463" lon="14.10334"><ele>1061</ele><time>2022-12-08T12:52:44Z</time></trkpt>
    <trkpt lat="47.70450" lon="14.10335"><ele>1053</ele><time>2022-12-08T12:53:03Z</time></trkpt>
    <trkpt lat="47.70438" lon="14.10341"><ele>1051</ele><time>2022-12-08T12:53:21Z</time></trkpt>
    <trkpt lat="47.70428" lon="14.10338"><ele>1047</ele><time>2022-12-08T12:53:40Z</time></trkpt>
    <trkpt lat="47.70416" lon="14.10341"><ele>1039</ele><time>2022-12-08T12:53:58Z</time></trkpt>
    <trkpt lat="47.70402" lon="14.10325"><ele>1038</ele><time>2022-12-08T12:54:17Z</time></trkpt>
    <trkpt lat="47.70384" lon="14.10316"><ele>1029</ele><time>2022-12-08T12:54:36Z</time></trkpt>
    <trkpt lat="47.70367" lon="14.10294"><ele>1031</ele><time>2022-12-08T12:54:54Z</time></trkpt>
    <trkpt lat="47.70369" lon="14.10273"><ele>1028</ele><time>2022-12-08T12:55:12Z</time></trkpt>
    <trkpt lat="47.70371" lon="14.10260"><ele>1025</ele><time>2022-12-08T12:55:31Z</time></trkpt>
    <trkpt lat="47.70381" lon="14.10231"><ele>1018</ele><time>2022-12-08T12:55:50Z</time></trkpt>
    <trkpt lat="47.70384" lon="14.10194"><ele>1018</ele><time>2022-12-08T12:56:08Z</time></trkpt>
    <trkpt lat="47.70380" lon="14.10160"><ele>1021</ele><time>2022-12-08T12:56:27Z</time></trkpt>
    <trkpt lat="47.70384" lon="14.10128"><ele>1018</ele><time>2022-12-08T12:56:46Z</time></trkpt>
    <trkpt lat="47.70382" lon="14.10087"><ele>1022</ele><time>2022-12-08T12:57:04Z</time></trkpt>
    <trkpt lat="47.70378" lon="14.10054"><ele>1015</ele><time>2022-12-08T12:57:23Z</time></trkpt>
    <trkpt lat="47.70369" lon="14.10025"><ele>1008</ele><time>2022-12-08T12:57:41Z</time></trkpt>
    <trkpt lat="47.70378" lon="14.09995"><ele>1004</ele><time>2022-12-08T12:58:00Z</time></trkpt>
    <trkpt lat="47.70386" lon="14.09970"><ele>1001</ele><time>2022-12-08T12:58:19Z</time></trkpt>
    <trkpt lat="47.70359" lon="14.09969"><ele>994</ele><time>2022-12-08T12:58:57Z</time></trkpt>
    <trkpt lat="47.70343" lon="14.09956"><ele>989</ele><time>2022-12-08T12:59:16Z</time></trkpt>
    <trkpt lat="47.70330" lon="14.09956"><ele>986</ele><time>2022-12-08T12:59:35Z</time></trkpt>
    <trkpt lat="47.70314" lon="14.09967"><ele>980</ele><time>2022-12-08T12:59:54Z</time></trkpt>
    <trkpt lat="47.70302" lon="14.09948"><ele>975</ele><time>2022-12-08T13:00:12Z</time></trkpt>
    <trkpt lat="47.70298" lon="14.09912"><ele>967</ele><time>2022-12-08T13:00:31Z</time></trkpt>
    <trkpt lat="47.70300" lon="14.09884"><ele>963</ele><time>2022-12-08T13:00:50Z</time></trkpt>
    <trkpt lat="47.70306" lon="14.09854"><ele>958</ele><time>2022-12-08T13:01:08Z</time></trkpt>
    <trkpt lat="47.70311" lon="14.09814"><ele>951</ele><time>2022-12-08T13:01:27Z</time></trkpt>
    <trkpt lat="47.70320" lon="14.09779"><ele>948</ele><time>2022-12-08T13:01:46Z</time></trkpt>
    <trkpt lat="47.70331" lon="14.09748"><ele>950</ele><time>2022-12-08T13:02:04Z</time></trkpt>
    <trkpt lat="47.70352" lon="14.09744"><ele>934</ele><time>2022-12-08T13:02:23Z</time></trkpt>
    <trkpt lat="47.70376" lon="14.09726"><ele>934</ele><time>2022-12-08T13:02:42Z</time></trkpt>
    <trkpt lat="47.70385" lon="14.09719"><ele>934</ele><time>2022-12-08T13:03:00Z</time></trkpt>
    <trkpt lat="47.70389" lon="14.09695"><ele>929</ele><time>2022-12-08T13:03:19Z</time></trkpt>
    <trkpt lat="47.70377" lon="14.09640"><ele>932</ele><time>2022-12-08T13:03:38Z</time></trkpt>
    <trkpt lat="47.70359" lon="14.09610"><ele>928</ele><time>2022-12-08T13:03:57Z</time></trkpt>
    <trkpt lat="47.70348" lon="14.09619"><ele>928</ele><time>2022-12-08T13:04:15Z</time></trkpt>
    <trkpt lat="47.70329" lon="14.09643"><ele>923</ele><time>2022-12-08T13:04:53Z</time></trkpt>
    <trkpt lat="47.70326" lon="14.09659"><ele>916</ele><time>2022-12-08T13:05:12Z</time></trkpt>
    <trkpt lat="47.70319" lon="14.09679"><ele>907</ele><time>2022-12-08T13:05:30Z</time></trkpt>
    <trkpt lat="47.70296" lon="14.09707"><ele>910</ele><time>2022-12-08T13:05:49Z</time></trkpt>
    <trkpt lat="47.70279" lon="14.09724"><ele>905</ele><time>2022-12-08T13:06:08Z</time></trkpt>
    <trkpt lat="47.70264" lon="14.09759"><ele>910</ele><time>2022-12-08T13:06:26Z</time></trkpt>
    <trkpt lat="47.70252" lon="14.09793"><ele>910</ele><time>2022-12-08T13:06:45Z</time></trkpt>
    <trkpt lat="47.70243" lon="14.09831"><ele>911</ele><time>2022-12-08T13:07:04Z</time></trkpt>
    <trkpt lat="47.70238" lon="14.09866"><ele>916</ele><time>2022-12-08T13:07:22Z</time></trkpt>
    <trkpt lat="47.70233" lon="14.09901"><ele>912</ele><time>2022-12-08T13:07:40Z</time></trkpt>
    <trkpt lat="47.70223" lon="14.09927"><ele>907</ele><time>2022-12-08T13:07:59Z</time></trkpt>
    <trkpt lat="47.70211" lon="14.09956"><ele>907</ele><time>2022-12-08T13:08:17Z</time></trkpt>
    <trkpt lat="47.70207" lon="14.09989"><ele>905</ele><time>2022-12-08T13:08:35Z</time></trkpt>
    <trkpt lat="47.70206" lon="14.10031"><ele>900</ele><time>2022-12-08T13:09:28Z</time></trkpt>
    <trkpt lat="47.70205" lon="14.10067"><ele>898</ele><time>2022-12-08T13:09:47Z</time></trkpt>
    <trkpt lat="47.70202" lon="14.10099"><ele>895</ele><time>2022-12-08T13:10:06Z</time></trkpt>
    <trkpt lat="47.70197" lon="14.10131"><ele>894</ele><time>2022-12-08T13:10:24Z</time></trkpt>
    <trkpt lat="47.70189" lon="14.10157"><ele>891</ele><time>2022-12-08T13:10:43Z</time></trkpt>
    <trkpt lat="47.70177" lon="14.10190"><ele>892</ele><time>2022-12-08T13:11:01Z</time></trkpt>
    <trkpt lat="47.70172" lon="14.10226"><ele>892</ele><time>2022-12-08T13:11:20Z</time></trkpt>
    <trkpt lat="47.70163" lon="14.10252"><ele>887</ele><time>2022-12-08T13:11:38Z</time></trkpt>
    <trkpt lat="47.70151" lon="14.10280"><ele>881</ele><time>2022-12-08T13:11:56Z</time></trkpt>
    <trkpt lat="47.70133" lon="14.10308"><ele>879</ele><time>2022-12-08T13:12:15Z</time></trkpt>
    <trkpt lat="47.70125" lon="14.10345"><ele>874</ele><time>2022-12-08T13:12:34Z</time></trkpt>
    <trkpt lat="47.70119" lon="14.10378"><ele>874</ele><time>2022-12-08T13:12:53Z</time></trkpt>
    <trkpt lat="47.70111" lon="14.10412"><ele>876</ele><time>2022-12-08T13:13:11Z</time></trkpt>
    <trkpt lat="47.70111" lon="14.10448"><ele>873</ele><time>2022-12-08T13:13:30Z</time></trkpt>
    <trkpt lat="47.70109" lon="14.10480"><ele>871</ele><time>2022-12-08T13:13:48Z</time></trkpt>
    <trkpt lat="47.70106" lon="14.10512"><ele>866</ele><time>2022-12-08T13:14:06Z</time></trkpt>
    <trkpt lat="47.70107" lon="14.10540"><ele>860</ele><time>2022-12-08T13:14:25Z</time></trkpt>
    <trkpt lat="47.70116" lon="14.10566"><ele>857</ele><time>2022-12-08T13:14:43Z</time></trkpt>
    <trkpt lat="47.70127" lon="14.10596"><ele>855</ele><time>2022-12-08T13:15:02Z</time></trkpt>
    <trkpt lat="47.70129" lon="14.10631"><ele>850</ele><time>2022-12-08T13:15:21Z</time></trkpt>
    <trkpt lat="47.70136" lon="14.10656"><ele>845</ele><time>2022-12-08T13:15:39Z</time></trkpt>
    <trkpt lat="47.70150" lon="14.10667"><ele>836</ele><time>2022-12-08T13:15:58Z</time></trkpt>
    <trkpt lat="47.70142" lon="14.10686"><ele>840</ele><time>2022-12-08T13:16:16Z</time></trkpt>
    <trkpt lat="47.70119" lon="14.10702"><ele>840</ele><time>2022-12-08T13:16:35Z</time></trkpt>
    <trkpt lat="47.70102" lon="14.10703"><ele>840</ele><time>2022-12-08T13:17:30Z</time></trkpt>
    <trkpt lat="47.70099" lon="14.10716"><ele>832</ele><time>2022-12-08T13:18:10Z</time></trkpt>
    <trkpt lat="47.70092" lon="14.10744"><ele>827</ele><time>2022-12-08T13:18:28Z</time></trkpt>
    <trkpt lat="47.70081" lon="14.10779"><ele>832</ele><time>2022-12-08T13:18:46Z</time></trkpt>
    <trkpt lat="47.70074" lon="14.10809"><ele>825</ele><time>2022-12-08T13:19:05Z</time></trkpt>
    <trkpt lat="47.70059" lon="14.10829"><ele>819</ele><time>2022-12-08T13:19:24Z</time></trkpt>
    <trkpt lat="47.70047" lon="14.10848"><ele>808</ele><time>2022-12-08T13:19:42Z</time></trkpt>
    <trkpt lat="47.70025" lon="14.10867"><ele>806</ele><time>2022-12-08T13:20:00Z</time></trkpt>
    <trkpt lat="47.70013" lon="14.10899"><ele>803</ele><time>2022-12-08T13:20:19Z</time></trkpt>
    <trkpt lat="47.69999" lon="14.10903"><ele>797</ele><time>2022-12-08T13:20:37Z</time></trkpt>
    <trkpt lat="47.70019" lon="14.10884"><ele>798</ele><time>2022-12-08T13:20:56Z</time></trkpt>
    <trkpt lat="47.70034" lon="14.10862"><ele>799</ele><time>2022-12-08T13:21:14Z</time></trkpt>
    <trkpt lat="47.70037" lon="14.10833"><ele>793</ele><time>2022-12-08T13:21:33Z</time></trkpt>
    <trkpt lat="47.70050" lon="14.10802"><ele>790</ele><time>2022-12-08T13:21:51Z</time></trkpt>
    <trkpt lat="47.70059" lon="14.10761"><ele>800</ele><time>2022-12-08T13:22:10Z</time></trkpt>
    <trkpt lat="47.70063" lon="14.10716"><ele>805</ele><time>2022-12-08T13:22:29Z</time></trkpt>
    <trkpt lat="47.70049" lon="14.10755"><ele>787</ele><time>2022-12-08T13:23:13Z</time></trkpt>
    <trkpt lat="47.70034" lon="14.10774"><ele>781</ele><time>2022-12-08T13:23:31Z</time></trkpt>
    <trkpt lat="47.70021" lon="14.10796"><ele>775</ele><time>2022-12-08T13:23:50Z</time></trkpt>
    <trkpt lat="47.70006" lon="14.10815"><ele>768</ele><time>2022-12-08T13:24:09Z</time></trkpt>
    <trkpt lat="47.69987" lon="14.10841"><ele>768</ele><time>2022-12-08T13:24:28Z</time></trkpt>
    <trkpt lat="47.69969" lon="14.10853"><ele>824</ele><time>2022-12-08T13:24:46Z</time></trkpt>
    <trkpt lat="47.69953" lon="14.10877"><ele>771</ele><time>2022-12-08T13:25:04Z</time></trkpt>
    <trkpt lat="47.69947" lon="14.10905"><ele>761</ele><time>2022-12-08T13:25:22Z</time></trkpt>
    <trkpt lat="47.69949" lon="14.10886"><ele>755</ele><time>2022-12-08T13:25:41Z</time></trkpt>
    <trkpt lat="47.69960" lon="14.10856"><ele>749</ele><time>2022-12-08T13:26:00Z</time></trkpt>
    <trkpt lat="47.69977" lon="14.10845"><ele>740</ele><time>2022-12-08T13:26:18Z</time></trkpt>
    <trkpt lat="47.69984" lon="14.10815"><ele>738</ele><time>2022-12-08T13:26:37Z</time></trkpt>
    <trkpt lat="47.69991" lon="14.10780"><ele>742</ele><time>2022-12-08T13:26:55Z</time></trkpt>
    <trkpt lat="47.69998" lon="14.10746"><ele>742</ele><time>2022-12-08T13:27:14Z</time></trkpt>
    <trkpt lat="47.70003" lon="14.10712"><ele>743</ele><time>2022-12-08T13:27:32Z</time></trkpt>
    <trkpt lat="47.70017" lon="14.10698"><ele>739</ele><time>2022-12-08T13:27:50Z</time></trkpt>
    <trkpt lat="47.70012" lon="14.10687"><ele>742</ele><time>2022-12-08T13:28:09Z</time></trkpt>
    <trkpt lat="47.70014" lon="14.10657"><ele>729</ele><time>2022-12-08T13:33:48Z</time></trkpt>
    <trkpt lat="47.70011" lon="14.10636"><ele>728</ele><time>2022-12-08T13:35:45Z</time></trkpt>
    <trkpt lat="47.70008" lon="14.10655"><ele>729</ele><time>2022-12-08T13:35:57Z</time></trkpt>
    <trkpt lat="47.69999" lon="14.10630"><ele>739</ele><time>2022-12-08T13:36:22Z</time></trkpt>
    <trkpt lat="47.69994" lon="14.10594"><ele>731</ele><time>2022-12-08T13:36:41Z</time></trkpt>
    <trkpt lat="47.69987" lon="14.10530"><ele>726</ele><time>2022-12-08T13:36:59Z</time></trkpt>
    <trkpt lat="47.69984" lon="14.10470"><ele>708</ele><time>2022-12-08T13:37:17Z</time></trkpt>
    <trkpt lat="47.69996" lon="14.10432"><ele>704</ele><time>2022-12-08T13:37:36Z</time></trkpt>
    <trkpt lat="47.69999" lon="14.10383"><ele>698</ele><time>2022-12-08T13:37:54Z</time></trkpt>
    <trkpt lat="47.69979" lon="14.10325"><ele>704</ele><time>2022-12-08T13:38:13Z</time></trkpt>
    <trkpt lat="47.69971" lon="14.10289"><ele>707</ele><time>2022-12-08T13:38:32Z</time></trkpt>
    <trkpt lat="47.69970" lon="14.10275"><ele>700</ele><time>2022-12-08T13:38:51Z</time></trkpt>
    <trkpt lat="47.69965" lon="14.10264"><ele>691</ele><time>2022-12-08T13:40:16Z</time></trkpt>
    <trkpt lat="47.69961" lon="14.10234"><ele>692</ele><time>2022-12-08T13:40:35Z</time></trkpt>
    <trkpt lat="47.69962" lon="14.10211"><ele>695</ele><time>2022-12-08T13:40:53Z</time></trkpt>
    <trkpt lat="47.69937" lon="14.10166"><ele>686</ele><time>2022-12-08T13:41:12Z</time></trkpt>
    <trkpt lat="47.69922" lon="14.10152"><ele>689</ele><time>2022-12-08T13:41:30Z</time></trkpt>
    <trkpt lat="47.69922" lon="14.10184"><ele>685</ele><time>2022-12-08T13:41:48Z</time></trkpt>
    <trkpt lat="47.69930" lon="14.10213"><ele>680</ele><time>2022-12-08T13:42:07Z</time></trkpt>
    <trkpt lat="47.69937" lon="14.10238"><ele>675</ele><time>2022-12-08T13:42:25Z</time></trkpt>
    <trkpt lat="47.69942" lon="14.10267"><ele>675</ele><time>2022-12-08T13:42:44Z</time></trkpt>
    <trkpt lat="47.69943" lon="14.10315"><ele>680</ele><time>2022-12-08T13:43:03Z</time></trkpt>
    <trkpt lat="47.69943" lon="14.10348"><ele>676</ele><time>2022-12-08T13:43:21Z</time></trkpt>
    <trkpt lat="47.69931" lon="14.10376"><ele>664</ele><time>2022-12-08T13:43:40Z</time></trkpt>
    <trkpt lat="47.69919" lon="14.10407"><ele>658</ele><time>2022-12-08T13:43:59Z</time></trkpt>
    <trkpt lat="47.69914" lon="14.10445"><ele>662</ele><time>2022-12-08T13:44:17Z</time></trkpt>
    <trkpt lat="47.69910" lon="14.10480"><ele>665</ele><time>2022-12-08T13:44:36Z</time></trkpt>
    <trkpt lat="47.69901" lon="14.10510"><ele>651</ele><time>2022-12-08T13:44:55Z</time></trkpt>
    <trkpt lat="47.69886" lon="14.10548"><ele>647</ele><time>2022-12-08T13:45:13Z</time></trkpt>
    <trkpt lat="47.69873" lon="14.10585"><ele>647</ele><time>2022-12-08T13:45:32Z</time></trkpt>
    <trkpt lat="47.69856" lon="14.10608"><ele>638</ele><time>2022-12-08T13:45:51Z</time></trkpt>
    <trkpt lat="47.69840" lon="14.10626"><ele>628</ele><time>2022-12-08T13:46:10Z</time></trkpt>
    <trkpt lat="47.69828" lon="14.10658"><ele>628</ele><time>2022-12-08T13:46:28Z</time></trkpt>
    <trkpt lat="47.69820" lon="14.10695"><ele>629</ele><time>2022-12-08T13:46:47Z</time></trkpt>
    <trkpt lat="47.69816" lon="14.10720"><ele>624</ele><time>2022-12-08T13:47:05Z</time></trkpt>
    <trkpt lat="47.69811" lon="14.10747"><ele>617</ele><time>2022-12-08T13:47:24Z</time></trkpt>
    <trkpt lat="47.69810" lon="14.10761"><ele>614</ele><time>2022-12-08T13:47:43Z</time></trkpt>
    <trkpt lat="47.69791" lon="14.10797"><ele>598</ele><time>2022-12-08T13:48:02Z</time></trkpt>
    <trkpt lat="47.69768" lon="14.10823"><ele>607</ele><time>2022-12-08T13:48:21Z</time></trkpt>
    <trkpt lat="47.69737" lon="14.10842"><ele>612</ele><time>2022-12-08T13:48:40Z</time></trkpt>
    <trkpt lat="47.69707" lon="14.10848"><ele>612</ele><time>2022-12-08T13:48:58Z</time></trkpt>
    <trkpt lat="47.69681" lon="14.10860"><ele>610</ele><time>2022-12-08T13:49:16Z</time></trkpt>
    <trkpt lat="47.69663" lon="14.10886"><ele>617</ele><time>2022-12-08T13:49:35Z</time></trkpt>
    <trkpt lat="47.69641" lon="14.10921"><ele>612</ele><time>2022-12-08T13:49:53Z</time></trkpt>
    <trkpt lat="47.69617" lon="14.10968"><ele>615</ele><time>2022-12-08T13:50:11Z</time></trkpt>
    <trkpt lat="47.69605" lon="14.11009"><ele>615</ele><time>2022-12-08T13:50:29Z</time></trkpt>
    <trkpt lat="47.69586" lon="14.11083"><ele>612</ele><time>2022-12-08T13:51:08Z</time></trkpt>
    <trkpt lat="47.69584" lon="14.11096"><ele>614</ele><time>2022-12-08T13:51:27Z</time></trkpt>
    <trkpt lat="47.69555" lon="14.11156"><ele>618</ele><time>2022-12-08T13:51:46Z</time></trkpt>
    <trkpt lat="47.69522" lon="14.11163"><ele>616</ele><time>2022-12-08T13:52:24Z</time></trkpt>
    <trkpt lat="47.69500" lon="14.11194"><ele>619</ele><time>2022-12-08T13:52:42Z</time></trkpt>
    <trkpt lat="47.69474" lon="14.11211"><ele>620</ele><time>2022-12-08T13:53:01Z</time></trkpt>
    <trkpt lat="47.69455" lon="14.11224"><ele>610</ele><time>2022-12-08T13:53:19Z</time></trkpt>
    <trkpt lat="47.69436" lon="14.11243"><ele>606</ele><time>2022-12-08T13:53:37Z</time></trkpt>
    <trkpt lat="47.69417" lon="14.11253"><ele>608</ele><time>2022-12-08T13:53:55Z</time></trkpt>
    <trkpt lat="47.69389" lon="14.11271"><ele>615</ele><time>2022-12-08T13:54:14Z</time></trkpt>
    <trkpt lat="47.69371" lon="14.11296"><ele>615</ele><time>2022-12-08T13:54:32Z</time></trkpt>
    <trkpt lat="47.69358" lon="14.11332"><ele>619</ele><time>2022-12-08T13:54:50Z</time></trkpt>
    <trkpt lat="47.69344" lon="14.11367"><ele>617</ele><time>2022-12-08T13:55:08Z</time></trkpt>
    <trkpt lat="47.69334" lon="14.11405"><ele>618</ele><time>2022-12-08T13:55:27Z</time></trkpt>
    <trkpt lat="47.69322" lon="14.11444"><ele>617</ele><time>2022-12-08T13:55:45Z</time></trkpt>
    <trkpt lat="47.69313" lon="14.11464"><ele>614</ele><time>2022-12-08T13:56:04Z</time></trkpt>
    <trkpt lat="47.69299" lon="14.11508"><ele>614</ele><time>2022-12-08T13:56:23Z</time></trkpt>
    <trkpt lat="47.69288" lon="14.11551"><ele>615</ele><time>2022-12-08T13:56:41Z</time></trkpt>
    <trkpt lat="47.69281" lon="14.11571"><ele>616</ele><time>2022-12-08T13:57:00Z</time></trkpt>
    <trkpt lat="47.69279" lon="14.11588"><ele>614</ele><time>2022-12-08T13:57:18Z</time></trkpt>
    <trkpt lat="47.69276" lon="14.11608"><ele>613</ele><time>2022-12-08T13:57:37Z</time></trkpt>
    <trkpt lat="47.69285" lon="14.11638"><ele>618</ele><time>2022-12-08T14:03:12Z</time></trkpt>
    <trkpt lat="47.69296" lon="14.11676"><ele>685</ele><time>2022-12-08T14:03:31Z</time></trkpt>
    <trkpt lat="47.69308" lon="14.11718"><ele>629</ele><time>2022-12-08T14:03:49Z</time></trkpt>
    <trkpt lat="47.69323" lon="14.11762"><ele>647</ele><time>2022-12-08T14:04:07Z</time></trkpt>
    <trkpt lat="47.69341" lon="14.11832"><ele>620</ele><time>2022-12-08T14:04:26Z</time></trkpt>
    <trkpt lat="47.69344" lon="14.11900"><ele>622</ele><time>2022-12-08T14:04:45Z</time></trkpt>
    <trkpt lat="47.69339" lon="14.11935"><ele>611</ele><time>2022-12-08T14:05:03Z</time></trkpt>
    <trkpt lat="47.69325" lon="14.11976"><ele>614</ele><time>2022-12-08T14:05:22Z</time></trkpt>
    <trkpt lat="47.69315" lon="14.12010"><ele>611</ele><time>2022-12-08T14:05:40Z</time></trkpt>
    <trkpt lat="47.69305" lon="14.12049"><ele>610</ele><time>2022-12-08T14:05:58Z</time></trkpt>
    <trkpt lat="47.69295" lon="14.12084"><ele>608</ele><time>2022-12-08T14:06:17Z</time></trkpt>
    <trkpt lat="47.69292" lon="14.12114"><ele>800</ele><time>2022-12-08T14:06:35Z</time></trkpt>
    <trkpt lat="47.69286" lon="14.12154"><ele>769</ele><time>2022-12-08T14:06:54Z</time></trkpt>
    <trkpt lat="47.69283" lon="14.12200"><ele>650</ele><time>2022-12-08T14:07:12Z</time></trkpt>
    <trkpt lat="47.69279" lon="14.12240"><ele>654</ele><time>2022-12-08T14:07:31Z</time></trkpt>
    <trkpt lat="47.69271" lon="14.12277"><ele>606</ele><time>2022-12-08T14:07:50Z</time></trkpt>
    <trkpt lat="47.69258" lon="14.12317"><ele>650</ele><time>2022-12-08T14:08:08Z</time></trkpt>
    <trkpt lat="47.69239" lon="14.12348"><ele>633</ele><time>2022-12-08T14:08:26Z</time></trkpt>
    <trkpt lat="47.69224" lon="14.12378"><ele>666</ele><time>2022-12-08T14:08:45Z</time></trkpt>
    <trkpt lat="47.69211" lon="14.12410"><ele>622</ele><time>2022-12-08T14:09:03Z</time></trkpt>
    <trkpt lat="47.69197" lon="14.12442"><ele>612</ele><time>2022-12-08T14:09:21Z</time></trkpt>
    <trkpt lat="47.69175" lon="14.12469"><ele>612</ele><time>2022-12-08T14:09:40Z</time></trkpt>
    <trkpt lat="47.69160" lon="14.12503"><ele>668</ele><time>2022-12-08T14:09:59Z</time></trkpt>
    <trkpt lat="47.69144" lon="14.12546"><ele>619</ele><time>2022-12-08T14:10:17Z</time></trkpt>
    <trkpt lat="47.69144" lon="14.12570"><ele>608</ele><time>2022-12-08T14:10:35Z</time></trkpt>
    <trkpt lat="47.69150" lon="14.12614"><ele>622</ele><time>2022-12-08T14:10:54Z</time></trkpt>
    <trkpt lat="47.69155" lon="14.12654"><ele>606</ele><time>2022-12-08T14:11:12Z</time></trkpt>
    <trkpt lat="47.69162" lon="14.12701"><ele>603</ele><time>2022-12-08T14:11:30Z</time></trkpt>
    <trkpt lat="47.69186" lon="14.12731"><ele>604</ele><time>2022-12-08T14:11:48Z</time></trkpt>
    <trkpt lat="47.69203" lon="14.12769"><ele>607</ele><time>2022-12-08T14:12:07Z</time></trkpt>
    <trkpt lat="47.69216" lon="14.12789"><ele>606</ele><time>2022-12-08T14:12:25Z</time></trkpt>
    <trkpt lat="47.69230" lon="14.12815"><ele>661</ele><time>2022-12-08T14:12:44Z</time></trkpt>
    <trkpt lat="47.69246" lon="14.12835"><ele>602</ele><time>2022-12-08T14:13:03Z</time></trkpt>
    <trkpt lat="47.69257" lon="14.12868"><ele>613</ele><time>2022-12-08T14:13:22Z</time></trkpt>
    <trkpt lat="47.69256" lon="14.12903"><ele>622</ele><time>2022-12-08T14:13:41Z</time></trkpt>
    <trkpt lat="47.69250" lon="14.12938"><ele>629</ele><time>2022-12-08T14:13:59Z</time></trkpt>
    <trkpt lat="47.69243" lon="14.12971"><ele>628</ele><time>2022-12-08T14:14:17Z</time></trkpt>
    <trkpt lat="47.69232" lon="14.13005"><ele>622</ele><time>2022-12-08T14:14:35Z</time></trkpt>
    <trkpt lat="47.69218" lon="14.13035"><ele>660</ele><time>2022-12-08T14:14:54Z</time></trkpt>
    <trkpt lat="47.69206" lon="14.13063"><ele>642</ele><time>2022-12-08T14:15:12Z</time></trkpt>
    <trkpt lat="47.69194" lon="14.13094"><ele>637</ele><time>2022-12-08T14:15:31Z</time></trkpt>
    <trkpt lat="47.69175" lon="14.13116"><ele>631</ele><time>2022-12-08T14:15:49Z</time></trkpt>
    <trkpt lat="47.69158" lon="14.13147"><ele>635</ele><time>2022-12-08T14:16:08Z</time></trkpt>
    <trkpt lat="47.69138" lon="14.13178"><ele>635</ele><time>2022-12-08T14:16:27Z</time></trkpt>
    <trkpt lat="47.69121" lon="14.13204"><ele>624</ele><time>2022-12-08T14:16:46Z</time></trkpt>
    <trkpt lat="47.69112" lon="14.13229"><ele>621</ele><time>2022-12-08T14:17:04Z</time></trkpt>
    <trkpt lat="47.69110" lon="14.13265"><ele>620</ele><time>2022-12-08T14:17:22Z</time></trkpt>
    <trkpt lat="47.69118" lon="14.13291"><ele>617</ele><time>2022-12-08T14:17:41Z</time></trkpt>
    <trkpt lat="47.69129" lon="14.13339"><ele>615</ele><time>2022-12-08T14:17:59Z</time></trkpt>
    <trkpt lat="47.69135" lon="14.13381"><ele>612</ele><time>2022-12-08T14:18:17Z</time></trkpt>
    <trkpt lat="47.69144" lon="14.13420"><ele>610</ele><time>2022-12-08T14:18:36Z</time></trkpt>
    <trkpt lat="47.69153" lon="14.13454"><ele>607</ele><time>2022-12-08T14:18:55Z</time></trkpt>
    <trkpt lat="47.69156" lon="14.13493"><ele>608</ele><time>2022-12-08T14:19:14Z</time></trkpt>
    <trkpt lat="47.69163" lon="14.13521"><ele>603</ele><time>2022-12-08T14:19:32Z</time></trkpt>
    <trkpt lat="47.69170" lon="14.13551"><ele>599</ele><time>2022-12-08T14:19:51Z</time></trkpt>
    <trkpt lat="47.69179" lon="14.13592"><ele>599</ele><time>2022-12-08T14:20:10Z</time></trkpt>
    <trkpt lat="47.69195" lon="14.13608"><ele>603</ele><time>2022-12-08T14:20:29Z</time></trkpt>
    <trkpt lat="47.69191" lon="14.13621"><ele>601</ele><time>2022-12-08T14:20:47Z</time></trkpt>
    <trkpt lat="47.69209" lon="14.13647"><ele>609</ele><time>2022-12-08T14:21:06Z</time></trkpt>
    <trkpt lat="47.69230" lon="14.13677"><ele>600</ele><time>2022-12-08T14:21:25Z</time></trkpt>
    <trkpt lat="47.69229" lon="14.13716"><ele>599</ele><time>2022-12-08T14:21:44Z</time></trkpt>
    <trkpt lat="47.69226" lon="14.13752"><ele>594</ele><time>2022-12-08T14:22:02Z</time></trkpt>
    <trkpt lat="47.69223" lon="14.13789"><ele>600</ele><time>2022-12-08T14:22:21Z</time></trkpt>
    <trkpt lat="47.69207" lon="14.13820"><ele>598</ele><time>2022-12-08T14:22:39Z</time></trkpt>
    <trkpt lat="47.69196" lon="14.13848"><ele>597</ele><time>2022-12-08T14:22:57Z</time></trkpt>
    <trkpt lat="47.69205" lon="14.13882"><ele>599</ele><time>2022-12-08T14:23:16Z</time></trkpt>
    <trkpt lat="47.69217" lon="14.13915"><ele>601</ele><time>2022-12-08T14:23:34Z</time></trkpt>
    <trkpt lat="47.69231" lon="14.13943"><ele>600</ele><time>2022-12-08T14:23:52Z</time></trkpt>
    <trkpt lat="47.69244" lon="14.13963"><ele>598</ele><time>2022-12-08T14:24:10Z</time></trkpt>
    <trkpt lat="47.69260" lon="14.13988"><ele>592</ele><time>2022-12-08T14:24:29Z</time></trkpt>
    <trkpt lat="47.69277" lon="14.14006"><ele>591</ele><time>2022-12-08T14:24:47Z</time></trkpt>
    <trkpt lat="47.69292" lon="14.14031"><ele>596</ele><time>2022-12-08T14:25:05Z</time></trkpt>
    <trkpt lat="47.69295" lon="14.14066"><ele>593</ele><time>2022-12-08T14:25:24Z</time></trkpt>
    <trkpt lat="47.69315" lon="14.14091"><ele>595</ele><time>2022-12-08T14:25:42Z</time></trkpt>
    <trkpt lat="47.69332" lon="14.14115"><ele>593</ele><time>2022-12-08T14:26:01Z</time></trkpt>
    <trkpt lat="47.69341" lon="14.14133"><ele>590</ele><time>2022-12-08T14:26:20Z</time></trkpt>
  </trkseg>
</trk>
</gpx>