<?xml version="1.0" encoding="UTF-8"?>
<gpx version="1.1" creator="GPX-Pro" xmlns="http://www.topografix.com/GPX/1/1">
<trk>
  <name>Ski_Altenberg</name>
  <trkseg>
    <trkpt lat="48.35269" lon="14.34306"><ele>494</ele><time>2021-01-14T13:02:49Z</time></trkpt>
    <trkpt lat="48.35289" lon="14.34357"><ele>513</ele><time>2021-01-14T13:04:46Z</time></trkpt>
    <trkpt lat="48.35307" lon="14.34399"><ele>512</ele><time>2021-01-14T13:05:17Z</time></trkpt>
    <trkpt lat="48.35320" lon="14.34434"><ele>518</ele><time>2021-01-14T13:05:46Z</time></trkpt>
    <trkpt lat="48.35329" lon="14.34465"><ele>516</ele><time>2021-01-14T13:06:15Z</time></trkpt>
    <trkpt lat="48.35342" lon="14.34497"><ele>522</ele><time>2021-01-14T13:06:45Z</time></trkpt>
    <trkpt lat="48.35357" lon="14.34525"><ele>522</ele><time>2021-01-14T13:07:14Z</time></trkpt>
    <trkpt lat="48.35367" lon="14.34552"><ele>524</ele><time>2021-01-14T13:07:44Z</time></trkpt>
    <trkpt lat="48.35387" lon="14.34573"><ele>523</ele><time>2021-01-14T13:08:16Z</time></trkpt>
    <trkpt lat="48.35409" lon="14.34596"><ele>529</ele><time>2021-01-14T13:08:45Z</time></trkpt>
    <trkpt lat="48.35415" lon="14.34617"><ele>527</ele><time>2021-01-14T13:09:15Z</time></trkpt>
    <trkpt lat="48.35428" lon="14.34648"><ele>535</ele><time>2021-01-14T13:09:45Z</time></trkpt>
    <trkpt lat="48.35431" lon="14.34673"><ele>535</ele><time>2021-01-14T13:10:14Z</time></trkpt>
    <trkpt lat="48.35454" lon="14.34694"><ele>548</ele><time>2021-01-14T13:10:45Z</time></trkpt>
    <trkpt lat="48.35473" lon="14.34717"><ele>556</ele><time>2021-01-14T13:11:16Z</time></trkpt>
    <trkpt lat="48.35482" lon="14.34750"><ele>554</ele><time>2021-01-14T13:11:46Z</time></trkpt>
    <trkpt lat="48.35478" lon="14.34784"><ele>567</ele><time>2021-01-14T13:12:15Z</time></trkpt>
    <trkpt lat="48.35475" lon="14.34811"><ele>567</ele><time>2021-01-14T13:12:44Z</time></trkpt>
    <trkpt lat="48.35474" lon="14.34844"><ele>575</ele><time>2021-01-14T13:13:14Z</time></trkpt>
    <trkpt lat="48.35478" lon="14.34881"><ele>575</ele><time>2021-01-14T13:13:44Z</time></trkpt>
    <trkpt lat="48.35482" lon="14.34924"><ele>576</ele><time>2021-01-14T13:14:13Z</time></trkpt>
    <trkpt lat="48.35493" lon="14.34962"><ele>570</ele><time>2021-01-14T13:14:43Z</time></trkpt>
    <trkpt lat="48.35508" lon="14.35016"><ele>571</ele><time>2021-01-14T13:15:13Z</time></trkpt>
    <trkpt lat="48.35515" lon="14.35054"><ele>572</ele><time>2021-01-14T13:15:42Z</time></trkpt>
    <trkpt lat="48.35518" lon="14.35091"><ele>559</ele><time>2021-01-14T13:16:12Z</time></trkpt>
    <trkpt lat="48.35521" lon="14.35123"><ele>570</ele><time>2021-01-14T13:16:42Z</time></trkpt>
    <trkpt lat="48.35522" lon="14.35160"><ele>573</ele><time>2021-01-14T13:17:12Z</time></trkpt>
    <trkpt lat="48.35524" lon="14.35197"><ele>579</ele><time>2021-01-14T13:17:41Z</time></trkpt>
    <trkpt lat="48.35527" lon="14.35229"><ele>583</ele><time>2021-01-14T13:18:11Z</time></trkpt>
    <trkpt lat="48.35533" lon="14.35263"><ele>580</ele><time>2021-01-14T13:18:41Z</time></trkpt>
    <trkpt lat="48.35535" lon="14.35290"><ele>579</ele><time>2021-01-14T13:19:11Z</time></trkpt>
    <trkpt lat="48.35539" lon="14.35324"><ele>588</ele><time>2021-01-14T13:19:40Z</time></trkpt>
    <trkpt lat="48.35543" lon="14.35356"><ele>591</ele><time>2021-01-14T13:20:10Z</time></trkpt>
    <trkpt lat="48.35546" lon="14.35386"><ele>597</ele><time>2021-01-14T13:20:39Z</time></trkpt>
    <trkpt lat="48.35549" lon="14.35417"><ele>603</ele><time>2021-01-14T13:21:08Z</time></trkpt>
    <trkpt lat="48.35554" lon="14.35448"><ele>611</ele><time>2021-01-14T13:21:38Z</time></trkpt>
    <trkpt lat="48.35558" lon="14.35477"><ele>603</ele><time>2021-01-14T13:22:08Z</time></trkpt>
    <trkpt lat="48.35568" lon="14.35506"><ele>620</ele><time>2021-01-14T13:22:38Z</time></trkpt>
    <trkpt lat="48.35580" lon="14.35541"><ele>623</ele><time>2021-01-14T13:23:08Z</time></trkpt>
    <trkpt lat="48.35591" lon="14.35575"><ele>619</ele><time>2021-01-14T13:23:38Z</time></trkpt>
    <trkpt lat="48.35604" lon="14.35607"><ele>631</ele><time>2021-01-14T13:24:09Z</time></trkpt>
    <trkpt lat="48.35607" lon="14.35631"><ele>628</ele><time>2021-01-14T13:24:38Z</time></trkpt>
    <trkpt lat="48.35609" lon="14.35659"><ele>635</ele><time>2021-01-14T13:25:07Z</time></trkpt>
    <trkpt lat="48.35618" lon="14.35679"><ele>628</ele><time>2021-01-14T13:25:36Z</time></trkpt>
    <trkpt lat="48.35640" lon="14.35687"><ele>642</ele><time>2021-01-14T13:26:06Z</time></trkpt>
    <trkpt lat="48.35620" lon="14.35725"><ele>650</ele><time>2021-01-14T13:26:36Z</time></trkpt>
    <trkpt lat="48.35630" lon="14.35726"><ele>645</ele><time>2021-01-14T13:27:06Z</time></trkpt>
    <trkpt lat="48.35633" lon="14.35752"><ele>648</ele><time>2021-01-14T13:27:35Z</time></trkpt>
    <trkpt lat="48.35618" lon="14.35749"><ele>646</ele><time>2021-01-14T13:34:07Z</time></trkpt>
    <trkpt lat="48.35606" lon="14.35751"><ele>636</ele><time>2021-01-14T13:34:37Z</time></trkpt>
    <trkpt lat="48.35620" lon="14.35709"><ele>634</ele><time>2021-01-14T13:35:07Z</time></trkpt>
    <trkpt lat="48.35595" lon="14.35593"><ele>610</ele><time>2021-01-14T13:35:49Z</time></trkpt>
    <trkpt lat="48.35552" lon="14.35441"><ele>599</ele><time>2021-01-14T13:36:19Z</time></trkpt>
    <trkpt lat="48.35536" lon="14.35275"><ele>577</ele><time>2021-01-14T13:36:49Z</time></trkpt>
    <trkpt lat="48.35520" lon="14.35163"><ele>572</ele><time>2021-01-14T13:37:19Z</time></trkpt>
    <trkpt lat="48.35517" lon="14.35077"><ele>562</ele><time>2021-01-14T13:37:49Z</time></trkpt>
    <trkpt lat="48.35507" lon="14.35005"><ele>559</ele><time>2021-01-14T13:38:19Z</time></trkpt>
    <trkpt lat="48.35500" lon="14.34984"><ele>563</ele><time>2021-01-14T13:38:48Z</time></trkpt>
    <trkpt lat="48.35490" lon="14.34954"><ele>566</ele><time>2021-01-14T13:39:18Z</time></trkpt>
    <trkpt lat="48.35485" lon="14.34927"><ele>565</ele><time>2021-01-14T13:39:47Z</time></trkpt>
    <trkpt lat="48.35477" lon="14.34881"><ele>568</ele><time>2021-01-14T13:40:17Z</time></trkpt>
    <trkpt lat="48.35477" lon="14.34857"><ele>559</ele><time>2021-01-14T13:40:46Z</time></trkpt>
    <trkpt lat="48.35482" lon="14.34821"><ele>561</ele><time>2021-01-14T13:41:15Z</time></trkpt>
    <trkpt lat="48.35444" lon="14.34696"><ele>537</ele><time>2021-01-14T13:41:44Z</time></trkpt>
    <trkpt lat="48.35372" lon="14.34555"><ele>520</ele><time>2021-01-14T13:42:14Z</time></trkpt>
    <trkpt lat="48.35327" lon="14.34457"><ele>511</ele><time>2021-01-14T13:42:43Z</time></trkpt>
    <trkpt lat="48.35312" lon="14.34396"><ele>508</ele><time>2021-01-14T13:43:13Z</time></trkpt>
    <trkpt lat="48.35287" lon="14.34358"><ele>509</ele><time>2021-01-14T13:43:42Z</time></trkpt>
    <trkpt lat="48.35284" lon="14.34330"><ele>511</ele><time>2021-01-14T13:44:12Z</time></trkpt>
    <trkpt lat="48.35271" lon="14.34310"><ele>509</ele><time>2021-01-14T13:44:41Z</time></trkpt>
    <trkpt lat="48.35258" lon="14.34297"><ele>535</ele><time>2021-01-14T13:45:11Z</time></trkpt>
    <trkpt lat="48.35205" lon="14.34242"><ele>505</ele><time>2021-01-14T13:45:41Z</time></trkpt>
    <trkpt lat="48.35142" lon="14.34159"><ele>497</ele><time>2021-01-14T13:46:10Z</time></trkpt>
    <trkpt lat="48.35041" lon="14.34065"><ele>479</ele><time>2021-01-14T13:46:40Z</time></trkpt>
    <trkpt lat="48.34971" lon="14.33929"><ele>454</ele><time>2021-01-14T13:47:10Z</time></trkpt>
    <trkpt lat="48.34884" lon="14.33895"><ele>437</ele><time>2021-01-14T13:47:39Z</time></trkpt>
    <trkpt lat="48.34805" lon="14.33853"><ele>418</ele><time>2021-01-14T13:48:09Z</time></trkpt>
    <trkpt lat="48.34685" lon="14.33765"><ele>391</ele><time>2021-01-14T13:48:39Z</time></trkpt>
    <trkpt lat="48.34584" lon="14.33679"><ele>371</ele><time>2021-01-14T13:49:08Z</time></trkpt>
    <trkpt lat="48.34491" lon="14.33550"><ele>357</ele><time>2021-01-14T13:49:38Z</time></trkpt>
    <trkpt lat="48.34485" lon="14.33503"><ele>460</ele><time>2021-01-14T13:50:09Z</time></trkpt>
    <trkpt lat="48.34481" lon="14.33527"><ele>351</ele><time>2021-01-14T13:50:39Z</time></trkpt>
    <trkpt lat="48.34503" lon="14.33571"><ele>356</ele><time>2021-01-14T13:53:12Z</time></trkpt>
    <trkpt lat="48.34524" lon="14.33610"><ele>358</ele><time>2021-01-14T13:53:43Z</time></trkpt>
    <trkpt lat="48.34544" lon="14.33641"><ele>364</ele><time>2021-01-14T13:54:12Z</time></trkpt>
    <trkpt lat="48.34562" lon="14.33668"><ele>368</ele><time>2021-01-14T13:54:42Z</time></trkpt>
    <trkpt lat="48.34584" lon="14.33694"><ele>375</ele><time>2021-01-14T13:55:12Z</time></trkpt>
    <trkpt lat="48.34604" lon="14.33717"><ele>378</ele><time>2021-01-14T13:55:42Z</time></trkpt>
    <trkpt lat="48.34624" lon="14.33736"><ele>387</ele><time>2021-01-14T13:56:11Z</time></trkpt>
    <trkpt lat="48.34638" lon="14.33753"><ele>388</ele><time>2021-01-14T13:56:41Z</time></trkpt>
    <trkpt lat="48.34665" lon="14.33768"><ele>386</ele><time>2021-01-14T13:57:10Z</time></trkpt>
    <trkpt lat="48.34693" lon="14.33775"><ele>397</ele><time>2021-01-14T13:57:40Z</time></trkpt>
    <trkpt lat="48.34707" lon="14.33807"><ele>402</ele><time>2021-01-14T13:58:10Z</time></trkpt>
    <trkpt lat="48.34725" lon="14.33831"><ele>429</ele><time>2021-01-14T13:58:40Z</time></trkpt>
    <trkpt lat="48.34750" lon="14.33837"><ele>408</ele><time>2021-01-14T13:59:09Z</time></trkpt>
    <trkpt lat="48.34772" lon="14.33846"><ele>413</ele><time>2021-01-14T13:59:39Z</time></trkpt>
    <trkpt lat="48.34789" lon="14.33851"><ele>414</ele><time>2021-01-14T14:00:09Z</time></trkpt>
    <trkpt lat="48.34811" lon="14.33860"><ele>419</ele><time>2021-01-14T14:00:38Z</time></trkpt>
    <trkpt lat="48.34830" lon="14.33877"><ele>426</ele><time>2021-01-14T14:01:08Z</time></trkpt>
    <trkpt lat="48.34852" lon="14.33896"><ele>431</ele><time>2021-01-14T14:01:38Z</time></trkpt>
    <trkpt lat="48.34875" lon="14.33906"><ele>438</ele><time>2021-01-14T14:02:07Z</time></trkpt>
    <trkpt lat="48.34880" lon="14.33888"><ele>440</ele><time>2021-01-14T14:02:38Z</time></trkpt>
    <trkpt lat="48.34823" lon="14.33880"><ele>426</ele><time>2021-01-14T14:05:05Z</time></trkpt>
    <trkpt lat="48.34703" lon="14.33797"><ele>396</ele><time>2021-01-14T14:05:35Z</time></trkpt>
    <trkpt lat="48.34576" lon="14.33682"><ele>374</ele><time>2021-01-14T14:06:05Z</time></trkpt>
    <trkpt lat="48.34481" lon="14.33527"><ele>342</ele><time>2021-01-14T14:06:34Z</time></trkpt>
    <trkpt lat="48.34475" lon="14.33484"><ele>355</ele><time>2021-01-14T14:07:04Z</time></trkpt>
    <trkpt lat="48.34450" lon="14.33425"><ele>384</ele><time>2021-01-14T14:07:33Z</time></trkpt>
    <trkpt lat="48.34436" lon="14.33372"><ele>428</ele><time>2021-01-14T14:08:03Z</time></trkpt>
    <trkpt lat="48.34470" lon="14.33383"><ele>374</ele><time>2021-01-14T14:08:33Z</time></trkpt>
  </trkseg>
</trk>
</gpx>