<?xml version="1.0" encoding="UTF-8"?>
<gpx version="1.1" creator="GPX-Pro" xmlns="http://www.topografix.com/GPX/1/1">
<trk>
  <name>Ski_Gamsspitz</name>
  <trkseg>
    <trkpt lat="47.64524" lon="14.09595"><ele>730</ele><time>2021-04-11T04:12:01Z</time></trkpt>
    <trkpt lat="47.64521" lon="14.09566"><ele>728</ele><time>2021-04-11T04:12:31Z</time></trkpt>
    <trkpt lat="47.64436" lon="14.09282"><ele>739</ele><time>2021-04-11T04:16:32Z</time></trkpt>
    <trkpt lat="47.64368" lon="14.08961"><ele>728</ele><time>2021-04-11T04:20:34Z</time></trkpt>
    <trkpt lat="47.64284" lon="14.08799"><ele>806</ele><time>2021-04-11T04:24:46Z</time></trkpt>
    <trkpt lat="47.64199" lon="14.08559"><ele>798</ele><time>2021-04-11T04:29:01Z</time></trkpt>
    <trkpt lat="47.64075" lon="14.08556"><ele>818</ele><time>2021-04-11T04:30:48Z</time></trkpt>
    <trkpt lat="47.64054" lon="14.08566"><ele>805</ele><time>2021-04-11T04:31:45Z</time></trkpt>
    <trkpt lat="47.63951" lon="14.08548"><ele>784</ele><time>2021-04-11T04:33:16Z</time></trkpt>
    <trkpt lat="47.63841" lon="14.08394"><ele>849</ele><time>2021-04-11T04:37:17Z</time></trkpt>
    <trkpt lat="47.63741" lon="14.08153"><ele>818</ele><time>2021-04-11T04:41:25Z</time></trkpt>
    <trkpt lat="47.63696" lon="14.08050"><ele>883</ele><time>2021-04-11T04:43:45Z</time></trkpt>
    <trkpt lat="47.63631" lon="14.07987"><ele>861</ele><time>2021-04-11T04:45:48Z</time></trkpt>
    <trkpt lat="47.63570" lon="14.07835"><ele>888</ele><time>2021-04-11T04:48:38Z</time></trkpt>
    <trkpt lat="47.63472" lon="14.07744"><ele>927</ele><time>2021-04-11T04:52:16Z</time></trkpt>
    <trkpt lat="47.63427" lon="14.07682"><ele>962</ele><time>2021-04-11T04:53:50Z</time></trkpt>
    <trkpt lat="47.63341" lon="14.07654"><ele>953</ele><time>2021-04-11T04:57:45Z</time></trkpt>
    <trkpt lat="47.63311" lon="14.07765"><ele>968</ele><time>2021-04-11T04:59:07Z</time></trkpt>
    <trkpt lat="47.63280" lon="14.07786"><ele>978</ele><time>2021-04-11T05:00:01Z</time></trkpt>
    <trkpt lat="47.63253" lon="14.07857"><ele>929</ele><time>2021-04-11T05:01:58Z</time></trkpt>
    <trkpt lat="47.63188" lon="14.07638"><ele>1129</ele><time>2021-04-11T05:04:47Z</time></trkpt>
    <trkpt lat="47.63130" lon="14.07557"><ele>1011</ele><time>2021-04-11T05:06:56Z</time></trkpt>
    <trkpt lat="47.63090" lon="14.07562"><ele>788</ele><time>2021-04-11T05:07:57Z</time></trkpt>
    <trkpt lat="47.62945" lon="14.07375"><ele>874</ele><time>2021-04-11T05:11:01Z</time></trkpt>
    <trkpt lat="47.62928" lon="14.07343"><ele>1060</ele><time>2021-04-11T05:11:37Z</time></trkpt>
    <trkpt lat="47.62905" lon="14.07302"><ele>1072</ele><time>2021-04-11T05:12:25Z</time></trkpt>
    <trkpt lat="47.62873" lon="14.07270"><ele>1072</ele><time>2021-04-11T05:13:08Z</time></trkpt>
    <trkpt lat="47.62843" lon="14.07252"><ele>1071</ele><time>2021-04-11T05:13:44Z</time></trkpt>
    <trkpt lat="47.62832" lon="14.07267"><ele>1078</ele><time>2021-04-11T05:14:05Z</time></trkpt>
    <trkpt lat="47.62768" lon="14.07286"><ele>1081</ele><time>2021-04-11T05:15:30Z</time></trkpt>
    <trkpt lat="47.62743" lon="14.07304"><ele>1082</ele><time>2021-04-11T05:16:00Z</time></trkpt>
    <trkpt lat="47.62719" lon="14.07355"><ele>1104</ele><time>2021-04-11T05:17:14Z</time></trkpt>
    <trkpt lat="47.62616" lon="14.07465"><ele>1019</ele><time>2021-04-11T05:20:46Z</time></trkpt>
    <trkpt lat="47.62549" lon="14.07453"><ele>1121</ele><time>2021-04-11T05:23:12Z</time></trkpt>
    <trkpt lat="47.62512" lon="14.07446"><ele>1165</ele><time>2021-04-11T05:24:54Z</time></trkpt>
    <trkpt lat="47.62430" lon="14.07377"><ele>1187</ele><time>2021-04-11T05:29:07Z</time></trkpt>
    <trkpt lat="47.62397" lon="14.07323"><ele>1247</ele><time>2021-04-11T05:34:16Z</time></trkpt>
    <trkpt lat="47.62308" lon="14.07222"><ele>1211</ele><time>2021-04-11T05:39:19Z</time></trkpt>
    <trkpt lat="47.62278" lon="14.07231"><ele>1269</ele><time>2021-04-11T05:44:56Z</time></trkpt>
    <trkpt lat="47.62222" lon="14.07202"><ele>1328</ele><time>2021-04-11T05:48:36Z</time></trkpt>
    <trkpt lat="47.62185" lon="14.07179"><ele>1382</ele><time>2021-04-11T05:51:37Z</time></trkpt>
    <trkpt lat="47.62143" lon="14.07149"><ele>1297</ele><time>2021-04-11T05:54:54Z</time></trkpt>
    <trkpt lat="47.62119" lon="14.07120"><ele>1367</ele><time>2021-04-11T05:57:55Z</time></trkpt>
    <trkpt lat="47.62069" lon="14.07082"><ele>1297</ele><time>2021-04-11T06:00:02Z</time></trkpt>
    <trkpt lat="47.62076" lon="14.07032"><ele>1330</ele><time>2021-04-11T06:08:05Z</time></trkpt>
    <trkpt lat="47.61989" lon="14.06912"><ele>1518</ele><time>2021-04-11T06:18:37Z</time></trkpt>
    <trkpt lat="47.61960" lon="14.06856"><ele>1465</ele><time>2021-04-11T06:20:30Z</time></trkpt>
    <trkpt lat="47.61963" lon="14.06801"><ele>1099</ele><time>2021-04-11T06:24:07Z</time></trkpt>
    <trkpt lat="47.61946" lon="14.06799"><ele>1498</ele><time>2021-04-11T06:24:41Z</time></trkpt>
    <trkpt lat="47.61924" lon="14.06738"><ele>1591</ele><time>2021-04-11T06:26:27Z</time></trkpt>
    <trkpt lat="47.61909" lon="14.06700"><ele>1625</ele><time>2021-04-11T06:28:29Z</time></trkpt>
    <trkpt lat="47.61889" lon="14.06705"><ele>1616</ele><time>2021-04-11T06:30:27Z</time></trkpt>
    <trkpt lat="47.61863" lon="14.06679"><ele>1658</ele><time>2021-04-11T06:33:12Z</time></trkpt>
    <trkpt lat="47.61846" lon="14.06650"><ele>1692</ele><time>2021-04-11T06:36:01Z</time></trkpt>
    <trkpt lat="47.61845" lon="14.06636"><ele>1682</ele><time>2021-04-11T06:38:43Z</time></trkpt>
    <trkpt lat="47.61854" lon="14.06602"><ele>1687</ele><time>2021-04-11T06:40:26Z</time></trkpt>
    <trkpt lat="47.61866" lon="14.06602"><ele>1705</ele><time>2021-04-11T06:40:56Z</time></trkpt>
    <trkpt lat="47.61888" lon="14.06591"><ele>1700</ele><time>2021-04-11T06:42:26Z</time></trkpt>
    <trkpt lat="47.61899" lon="14.06591"><ele>1704</ele><time>2021-04-11T06:43:12Z</time></trkpt>
    <trkpt lat="47.61897" lon="14.06577"><ele>1782</ele><time>2021-04-11T06:49:29Z</time></trkpt>
    <trkpt lat="47.61902" lon="14.06537"><ele>1757</ele><time>2021-04-11T06:50:53Z</time></trkpt>
    <trkpt lat="47.61892" lon="14.06517"><ele>1742</ele><time>2021-04-11T06:51:56Z</time></trkpt>
    <trkpt lat="47.61880" lon="14.06511"><ele>1749</ele><time>2021-04-11T06:54:09Z</time></trkpt>
    <trkpt lat="47.61863" lon="14.06506"><ele>1694</ele><time>2021-04-11T06:56:34Z</time></trkpt>
    <trkpt lat="47.61851" lon="14.06474"><ele>1769</ele><time>2021-04-11T06:58:59Z</time></trkpt>
    <trkpt lat="47.61854" lon="14.06444"><ele>1818</ele><time>2021-04-11T07:02:16Z</time></trkpt>
    <trkpt lat="47.61850" lon="14.06422"><ele>1825</ele><time>2021-04-11T07:03:51Z</time></trkpt>
    <trkpt lat="47.61836" lon="14.06426"><ele>1846</ele><time>2021-04-11T07:05:01Z</time></trkpt>
    <trkpt lat="47.61815" lon="14.06376"><ele>1821</ele><time>2021-04-11T07:07:55Z</time></trkpt>
    <trkpt lat="47.61815" lon="14.06346"><ele>1720</ele><time>2021-04-11T07:12:13Z</time></trkpt>
    <trkpt lat="47.61790" lon="14.06341"><ele>1792</ele><time>2021-04-11T07:16:37Z</time></trkpt>
    <trkpt lat="47.61776" lon="14.06311"><ele>1914</ele><time>2021-04-11T07:19:02Z</time></trkpt>
    <trkpt lat="47.61758" lon="14.06284"><ele>1931</ele><time>2021-04-11T07:22:36Z</time></trkpt>
    <trkpt lat="47.61763" lon="14.06261"><ele>1920</ele><time>2021-04-11T07:23:17Z</time></trkpt>
    <trkpt lat="47.61790" lon="14.06241"><ele>1968</ele><time>2021-04-11T07:25:20Z</time></trkpt>
    <trkpt lat="47.61722" lon="14.06226"><ele>1954</ele><time>2021-04-11T07:29:18Z</time></trkpt>
    <trkpt lat="47.61711" lon="14.06210"><ele>1969</ele><time>2021-04-11T07:32:37Z</time></trkpt>
    <trkpt lat="47.61726" lon="14.06149"><ele>1957</ele><time>2021-04-11T07:35:20Z</time></trkpt>
    <trkpt lat="47.61745" lon="14.06135"><ele>1964</ele><time>2021-04-11T07:36:19Z</time></trkpt>
    <trkpt lat="47.61772" lon="14.06116"><ele>2030</ele><time>2021-04-11T07:40:52Z</time></trkpt>
    <trkpt lat="47.61814" lon="14.06007"><ele>2059</ele><time>2021-04-11T07:44:03Z</time></trkpt>
    <trkpt lat="47.61819" lon="14.06022"><ele>2037</ele><time>2021-04-11T07:47:37Z</time></trkpt>
    <trkpt lat="47.61813" lon="14.06005"><ele>2056</ele><time>2021-04-11T07:48:24Z</time></trkpt>
    <trkpt lat="47.61798" lon="14.06005"><ele>2051</ele><time>2021-04-11T07:58:12Z</time></trkpt>
    <trkpt lat="47.61560" lon="14.05666"><ele>1900</ele><time>2021-04-11T08:01:38Z</time></trkpt>
    <trkpt lat="47.61488" lon="14.05692"><ele>1876</ele><time>2021-04-11T08:02:26Z</time></trkpt>
    <trkpt lat="47.61418" lon="14.05848"><ele>1774</ele><time>2021-04-11T08:04:25Z</time></trkpt>
    <trkpt lat="47.61405" lon="14.05836"><ele>1787</ele><time>2021-04-11T08:10:00Z</time></trkpt>
    <trkpt lat="47.61428" lon="14.05791"><ele>1798</ele><time>2021-04-11T08:11:47Z</time></trkpt>
    <trkpt lat="47.61469" lon="14.05736"><ele>1815</ele><time>2021-04-11T08:14:15Z</time></trkpt>
    <trkpt lat="47.61480" lon="14.05685"><ele>1851</ele><time>2021-04-11T08:15:54Z</time></trkpt>
    <trkpt lat="47.61511" lon="14.05637"><ele>1848</ele><time>2021-04-11T08:18:08Z</time></trkpt>
    <trkpt lat="47.61543" lon="14.05650"><ele>1862</ele><time>2021-04-11T08:19:27Z</time></trkpt>
    <trkpt lat="47.61598" lon="14.05656"><ele>1925</ele><time>2021-04-11T08:23:55Z</time></trkpt>
    <trkpt lat="47.61641" lon="14.05708"><ele>1954</ele><time>2021-04-11T08:26:05Z</time></trkpt>
    <trkpt lat="47.61654" lon="14.05809"><ele>1969</ele><time>2021-04-11T08:30:03Z</time></trkpt>
    <trkpt lat="47.61662" lon="14.05866"><ele>1966</ele><time>2021-04-11T08:31:21Z</time></trkpt>
    <trkpt lat="47.61683" lon="14.05866"><ele>1977</ele><time>2021-04-11T08:32:21Z</time></trkpt>
    <trkpt lat="47.61729" lon="14.05864"><ele>2004</ele><time>2021-04-11T08:34:54Z</time></trkpt>
    <trkpt lat="47.61784" lon="14.06082"><ele>1974</ele><time>2021-04-11T08:41:03Z</time></trkpt>
    <trkpt lat="47.61754" lon="14.06095"><ele>2013</ele><time>2021-04-11T08:42:38Z</time></trkpt>
    <trkpt lat="47.61702" lon="14.06225"><ele>2016</ele><time>2021-04-11T08:53:56Z</time></trkpt>
    <trkpt lat="47.61756" lon="14.06320"><ele>1926</ele><time>2021-04-11T08:54:27Z</time></trkpt>
    <trkpt lat="47.61889" lon="14.06525"><ele>1871</ele><time>2021-04-11T08:57:29Z</time></trkpt>
    <trkpt lat="47.61916" lon="14.06572"><ele>1934</ele><time>2021-04-11T08:59:52Z</time></trkpt>
    <trkpt lat="47.61854" lon="14.06645"><ele>1779</ele><time>2021-04-11T09:00:50Z</time></trkpt>
    <trkpt lat="47.61900" lon="14.06698"><ele>2039</ele><time>2021-04-11T09:02:29Z</time></trkpt>
    <trkpt lat="47.61972" lon="14.06706"><ele>1987</ele><time>2021-04-11T09:05:32Z</time></trkpt>
    <trkpt lat="47.62112" lon="14.06789"><ele>1589</ele><time>2021-04-11T09:06:49Z</time></trkpt>
    <trkpt lat="47.62160" lon="14.06864"><ele>1929</ele><time>2021-04-11T09:08:00Z</time></trkpt>
    <trkpt lat="47.62169" lon="14.06888"><ele>1426</ele><time>2021-04-11T09:09:08Z</time></trkpt>
    <trkpt lat="47.62233" lon="14.06997"><ele>1772</ele><time>2021-04-11T09:10:37Z</time></trkpt>
    <trkpt lat="47.62313" lon="14.07037"><ele>1328</ele><time>2021-04-11T09:11:32Z</time></trkpt>
    <trkpt lat="47.62391" lon="14.07058"><ele>1285</ele><time>2021-04-11T09:13:33Z</time></trkpt>
    <trkpt lat="47.62446" lon="14.07109"><ele>1592</ele><time>2021-04-11T09:15:22Z</time></trkpt>
    <trkpt lat="47.62636" lon="14.07336"><ele>1342</ele><time>2021-04-11T09:17:04Z</time></trkpt>
    <trkpt lat="47.62933" lon="14.07279"><ele>1032</ele><time>2021-04-11T09:19:02Z</time></trkpt>
    <trkpt lat="47.62987" lon="14.07422"><ele>1046</ele><time>2021-04-11T09:20:56Z</time></trkpt>
    <trkpt lat="47.63270" lon="14.07838"><ele>983</ele><time>2021-04-11T09:24:24Z</time></trkpt>
    <trkpt lat="47.63428" lon="14.07654"><ele>945</ele><time>2021-04-11T09:25:24Z</time></trkpt>
    <trkpt lat="47.63653" lon="14.08042"><ele>838</ele><time>2021-04-11T09:29:08Z</time></trkpt>
    <trkpt lat="47.63977" lon="14.08563"><ele>839</ele><time>2021-04-11T09:32:46Z</time></trkpt>
    <trkpt lat="47.64178" lon="14.08539"><ele>714</ele><time>2021-04-11T09:35:16Z</time></trkpt>
    <trkpt lat="47.64284" lon="14.08762"><ele>737</ele><time>2021-04-11T09:39:14Z</time></trkpt>
    <trkpt lat="47.64227" lon="14.08863"><ele>874</ele><time>2021-04-11T09:39:43Z</time></trkpt>
    <trkpt lat="47.64224" lon="14.08891"><ele>768</ele><time>2021-04-11T09:40:01Z</time></trkpt>
    <trkpt lat="47.64293" lon="14.08900"><ele>757</ele><time>2021-04-11T09:41:08Z</time></trkpt>
    <trkpt lat="47.64401" lon="14.09004"><ele>743</ele><time>2021-04-11T09:42:57Z</time></trkpt>
    <trkpt lat="47.64422" lon="14.09125"><ele>733</ele><time>2021-04-11T09:44:00Z</time></trkpt>
    <trkpt lat="47.64478" lon="14.09406"><ele>745</ele><time>2021-04-11T09:45:14Z</time></trkpt>
    <trkpt lat="47.64525" lon="14.09479"><ele>766</ele><time>2021-04-11T09:47:36Z</time></trkpt>
    <trkpt lat="47.64505" lon="14.09613"><ele>720</ele><time>2021-04-11T09:51:28Z</time></trkpt>
  </trkseg>
</trk>
</gpx>