<?xml version="1.0" encoding="UTF-8"?>
<gpx version="1.1" creator="GPX-Pro" xmlns="http://www.topografix.com/GPX/1/1">
<trk>
  <name>Ski_Langstein</name>
  <trkseg>
    <trkpt lat="47.67958" lon="14.48078"><ele>810</ele><time>2021-04-05T05:04:34Z</time></trkpt>
    <trkpt lat="47.67912" lon="14.48014"><ele>765</ele><time>2021-04-05T05:05:25Z</time></trkpt>
    <trkpt lat="47.67825" lon="14.47778"><ele>812</ele><time>2021-04-05T05:09:22Z</time></trkpt>
    <trkpt lat="47.67649" lon="14.47651"><ele>836</ele><time>2021-04-05T05:11:00Z</time></trkpt>
    <trkpt lat="47.67506" lon="14.47410"><ele>804</ele><time>2021-04-05T05:13:57Z</time></trkpt>
    <trkpt lat="47.67277" lon="14.47317"><ele>832</ele><time>2021-04-05T05:17:56Z</time></trkpt>
    <trkpt lat="47.67207" lon="14.47239"><ele>850</ele><time>2021-04-05T05:19:26Z</time></trkpt>
    <trkpt lat="47.67032" lon="14.47139"><ele>880</ele><time>2021-04-05T05:23:04Z</time></trkpt>
    <trkpt lat="47.66914" lon="14.47101"><ele>903</ele><time>2021-04-05T05:26:33Z</time></trkpt>
    <trkpt lat="47.66861" lon="14.47098"><ele>906</ele><time>2021-04-05T05:28:11Z</time></trkpt>
    <trkpt lat="47.66675" lon="14.47082"><ele>977</ele><time>2021-04-05T05:32:29Z</time></trkpt>
    <trkpt lat="47.66618" lon="14.47071"><ele>908</ele><time>2021-04-05T05:33:10Z</time></trkpt>
    <trkpt lat="47.66531" lon="14.47103"><ele>967</ele><time>2021-04-05T05:37:29Z</time></trkpt>
    <trkpt lat="47.66463" lon="14.47040"><ele>1028</ele><time>2021-04-05T05:38:36Z</time></trkpt>
    <trkpt lat="47.66390" lon="14.47051"><ele>1066</ele><time>2021-04-05T05:42:10Z</time></trkpt>
    <trkpt lat="47.66339" lon="14.47059"><ele>1034</ele><time>2021-04-05T05:43:04Z</time></trkpt>
    <trkpt lat="47.66328" lon="14.47061"><ele>1106</ele><time>2021-04-05T05:44:44Z</time></trkpt>
    <trkpt lat="47.66312" lon="14.47056"><ele>1081</ele><time>2021-04-05T05:45:27Z</time></trkpt>
    <trkpt lat="47.66282" lon="14.47065"><ele>1069</ele><time>2021-04-05T05:46:58Z</time></trkpt>
    <trkpt lat="47.66256" lon="14.47057"><ele>1085</ele><time>2021-04-05T05:49:47Z</time></trkpt>
    <trkpt lat="47.66240" lon="14.47086"><ele>1080</ele><time>2021-04-05T05:51:44Z</time></trkpt>
    <trkpt lat="47.66236" lon="14.47058"><ele>1087</ele><time>2021-04-05T05:53:03Z</time></trkpt>
    <trkpt lat="47.66241" lon="14.47027"><ele>1200</ele><time>2021-04-05T05:55:08Z</time></trkpt>
    <trkpt lat="47.66248" lon="14.47011"><ele>1123</ele><time>2021-04-05T05:56:52Z</time></trkpt>
    <trkpt lat="47.66236" lon="14.46984"><ele>1139</ele><time>2021-04-05T05:58:22Z</time></trkpt>
    <trkpt lat="47.66233" lon="14.46998"><ele>1119</ele><time>2021-04-05T05:58:51Z</time></trkpt>
    <trkpt lat="47.66243" lon="14.46965"><ele>1146</ele><time>2021-04-05T06:00:48Z</time></trkpt>
    <trkpt lat="47.66268" lon="14.46863"><ele>1160</ele><time>2021-04-05T06:03:32Z</time></trkpt>
    <trkpt lat="47.66273" lon="14.46842"><ele>1170</ele><time>2021-04-05T06:04:18Z</time></trkpt>
    <trkpt lat="47.66268" lon="14.46828"><ele>1178</ele><time>2021-04-05T06:04:43Z</time></trkpt>
    <trkpt lat="47.66232" lon="14.46726"><ele>1178</ele><time>2021-04-05T06:08:07Z</time></trkpt>
    <trkpt lat="47.66179" lon="14.46653"><ele>1248</ele><time>2021-04-05T06:14:03Z</time></trkpt>
    <trkpt lat="47.66180" lon="14.46631"><ele>1274</ele><time>2021-04-05T06:15:21Z</time></trkpt>
    <trkpt lat="47.66106" lon="14.46495"><ele>1328</ele><time>2021-04-05T06:20:21Z</time></trkpt>
    <trkpt lat="47.66176" lon="14.46416"><ele>1343</ele><time>2021-04-05T06:25:28Z</time></trkpt>
    <trkpt lat="47.66171" lon="14.46357"><ele>1378</ele><time>2021-04-05T06:28:24Z</time></trkpt>
    <trkpt lat="47.66236" lon="14.46197"><ele>1399</ele><time>2021-04-05T06:32:44Z</time></trkpt>
    <trkpt lat="47.66263" lon="14.46090"><ele>1445</ele><time>2021-04-05T06:37:20Z</time></trkpt>
    <trkpt lat="47.66258" lon="14.46061"><ele>1478</ele><time>2021-04-05T06:40:01Z</time></trkpt>
    <trkpt lat="47.66251" lon="14.45996"><ele>1458</ele><time>2021-04-05T06:41:58Z</time></trkpt>
    <trkpt lat="47.66262" lon="14.45950"><ele>1485</ele><time>2021-04-05T06:43:16Z</time></trkpt>
    <trkpt lat="47.66250" lon="14.45929"><ele>1517</ele><time>2021-04-05T06:45:46Z</time></trkpt>
    <trkpt lat="47.66254" lon="14.45914"><ele>1509</ele><time>2021-04-05T06:46:16Z</time></trkpt>
    <trkpt lat="47.66236" lon="14.45858"><ele>1578</ele><time>2021-04-05T06:49:10Z</time></trkpt>
    <trkpt lat="47.66177" lon="14.45692"><ele>1518</ele><time>2021-04-05T06:52:36Z</time></trkpt>
    <trkpt lat="47.66207" lon="14.45586"><ele>1550</ele><time>2021-04-05T06:55:20Z</time></trkpt>
    <trkpt lat="47.66234" lon="14.45504"><ele>1551</ele><time>2021-04-05T06:57:23Z</time></trkpt>
    <trkpt lat="47.66248" lon="14.45449"><ele>1544</ele><time>2021-04-05T06:59:14Z</time></trkpt>
    <trkpt lat="47.66223" lon="14.45382"><ele>1604</ele><time>2021-04-05T07:02:31Z</time></trkpt>
    <trkpt lat="47.66258" lon="14.45357"><ele>1632</ele><time>2021-04-05T07:05:17Z</time></trkpt>
    <trkpt lat="47.66328" lon="14.45353"><ele>1597</ele><time>2021-04-05T07:06:51Z</time></trkpt>
    <trkpt lat="47.66340" lon="14.45357"><ele>1500</ele><time>2021-04-05T07:09:56Z</time></trkpt>
    <trkpt lat="47.66353" lon="14.45381"><ele>1729</ele><time>2021-04-05T07:12:21Z</time></trkpt>
    <trkpt lat="47.66363" lon="14.45335"><ele>1717</ele><time>2021-04-05T07:15:50Z</time></trkpt>
    <trkpt lat="47.66372" lon="14.45335"><ele>1713</ele><time>2021-04-05T07:16:32Z</time></trkpt>
    <trkpt lat="47.66390" lon="14.45320"><ele>1696</ele><time>2021-04-05T07:19:57Z</time></trkpt>
    <trkpt lat="47.66398" lon="14.45282"><ele>1768</ele><time>2021-04-05T07:24:21Z</time></trkpt>
    <trkpt lat="47.66412" lon="14.45265"><ele>1766</ele><time>2021-04-05T07:28:11Z</time></trkpt>
    <trkpt lat="47.66432" lon="14.45251"><ele>1829</ele><time>2021-04-05T07:33:12Z</time></trkpt>
    <trkpt lat="47.66424" lon="14.45224"><ele>1793</ele><time>2021-04-05T07:35:20Z</time></trkpt>
    <trkpt lat="47.66408" lon="14.45219"><ele>1793</ele><time>2021-04-05T07:36:33Z</time></trkpt>
    <trkpt lat="47.66412" lon="14.45206"><ele>1803</ele><time>2021-04-05T07:37:31Z</time></trkpt>
    <trkpt lat="47.66400" lon="14.45202"><ele>1804</ele><time>2021-04-05T07:38:23Z</time></trkpt>
    <trkpt lat="47.66412" lon="14.45196"><ele>1833</ele><time>2021-04-05T07:39:22Z</time></trkpt>
    <trkpt lat="47.66412" lon="14.45181"><ele>1819</ele><time>2021-04-05T07:39:51Z</time></trkpt>
    <trkpt lat="47.66398" lon="14.45157"><ele>1810</ele><time>2021-04-05T07:40:37Z</time></trkpt>
    <trkpt lat="47.66389" lon="14.45163"><ele>1823</ele><time>2021-04-05T07:41:10Z</time></trkpt>
    <trkpt lat="47.66394" lon="14.45147"><ele>1838</ele><time>2021-04-05T07:43:09Z</time></trkpt>
    <trkpt lat="47.66385" lon="14.45130"><ele>1844</ele><time>2021-04-05T07:44:16Z</time></trkpt>
    <trkpt lat="47.66378" lon="14.45106"><ele>1819</ele><time>2021-04-05T07:47:33Z</time></trkpt>
    <trkpt lat="47.66405" lon="14.45118"><ele>1917</ele><time>2021-04-05T07:51:08Z</time></trkpt>
    <trkpt lat="47.66406" lon="14.45088"><ele>1891</ele><time>2021-04-05T07:53:44Z</time></trkpt>
    <trkpt lat="47.66423" lon="14.45092"><ele>1923</ele><time>2021-04-05T07:57:48Z</time></trkpt>
    <trkpt lat="47.66405" lon="14.45064"><ele>1846</ele><time>2021-04-05T07:59:15Z</time></trkpt>
    <trkpt lat="47.66399" lon="14.45053"><ele>1907</ele><time>2021-04-05T08:00:10Z</time></trkpt>
    <trkpt lat="47.66386" lon="14.45009"><ele>1913</ele><time>2021-04-05T08:02:37Z</time></trkpt>
    <trkpt lat="47.66394" lon="14.44989"><ele>1950</ele><time>2021-04-05T08:05:03Z</time></trkpt>
    <trkpt lat="47.66369" lon="14.44970"><ele>1989</ele><time>2021-04-05T08:06:58Z</time></trkpt>
    <trkpt lat="47.66371" lon="14.44935"><ele>1926</ele><time>2021-04-05T08:08:17Z</time></trkpt>
    <trkpt lat="47.66296" lon="14.44872"><ele>1917</ele><time>2021-04-05T08:12:05Z</time></trkpt>
    <trkpt lat="47.66240" lon="14.44885"><ele>1946</ele><time>2021-04-05T08:13:30Z</time></trkpt>
    <trkpt lat="47.66247" lon="14.44861"><ele>1977</ele><time>2021-04-05T08:23:24Z</time></trkpt>
    <trkpt lat="47.66235" lon="14.44871"><ele>1976</ele><time>2021-04-05T08:24:43Z</time></trkpt>
    <trkpt lat="47.66245" lon="14.44877"><ele>2006</ele><time>2021-04-05T08:26:40Z</time></trkpt>
    <trkpt lat="47.66374" lon="14.44933"><ele>1951</ele><time>2021-04-05T08:28:56Z</time></trkpt>
    <trkpt lat="47.66446" lon="14.45163"><ele>1845</ele><time>2021-04-05T08:31:18Z</time></trkpt>
    <trkpt lat="47.66465" lon="14.45236"><ele>1801</ele><time>2021-04-05T08:33:36Z</time></trkpt>
    <trkpt lat="47.66439" lon="14.45275"><ele>1740</ele><time>2021-04-05T08:35:32Z</time></trkpt>
    <trkpt lat="47.66382" lon="14.45347"><ele>1687</ele><time>2021-04-05T08:38:45Z</time></trkpt>
    <trkpt lat="47.66371" lon="14.45356"><ele>1705</ele><time>2021-04-05T08:40:54Z</time></trkpt>
    <trkpt lat="47.66328" lon="14.45395"><ele>1786</ele><time>2021-04-05T08:41:49Z</time></trkpt>
    <trkpt lat="47.66126" lon="14.45548"><ele>1583</ele><time>2021-04-05T08:43:58Z</time></trkpt>
    <trkpt lat="47.66101" lon="14.45555"><ele>1546</ele><time>2021-04-05T08:46:53Z</time></trkpt>
    <trkpt lat="47.66116" lon="14.45519"><ele>1532</ele><time>2021-04-05T08:49:29Z</time></trkpt>
    <trkpt lat="47.66106" lon="14.45488"><ele>1531</ele><time>2021-04-05T08:51:04Z</time></trkpt>
    <trkpt lat="47.66084" lon="14.45497"><ele>1518</ele><time>2021-04-05T08:56:27Z</time></trkpt>
    <trkpt lat="47.66050" lon="14.45515"><ele>1546</ele><time>2021-04-05T08:58:01Z</time></trkpt>
    <trkpt lat="47.66038" lon="14.45482"><ele>1535</ele><time>2021-04-05T08:59:58Z</time></trkpt>
    <trkpt lat="47.65966" lon="14.45468"><ele>1569</ele><time>2021-04-05T09:02:17Z</time></trkpt>
    <trkpt lat="47.65966" lon="14.45442"><ele>1589</ele><time>2021-04-05T09:03:19Z</time></trkpt>
    <trkpt lat="47.65956" lon="14.45433"><ele>1603</ele><time>2021-04-05T09:03:46Z</time></trkpt>
    <trkpt lat="47.65885" lon="14.45397"><ele>1623</ele><time>2021-04-05T09:07:50Z</time></trkpt>
    <trkpt lat="47.65868" lon="14.45331"><ele>1615</ele><time>2021-04-05T09:09:23Z</time></trkpt>
    <trkpt lat="47.65862" lon="14.45317"><ele>1656</ele><time>2021-04-05T09:13:11Z</time></trkpt>
    <trkpt lat="47.65850" lon="14.45295"><ele>1656</ele><time>2021-04-05T09:14:28Z</time></trkpt>
    <trkpt lat="47.65860" lon="14.45278"><ele>1775</ele><time>2021-04-05T09:24:51Z</time></trkpt>
    <trkpt lat="47.65842" lon="14.45264"><ele>1744</ele><time>2021-04-05T09:25:53Z</time></trkpt>
    <trkpt lat="47.65832" lon="14.45242"><ele>1717</ele><time>2021-04-05T09:26:55Z</time></trkpt>
    <trkpt lat="47.65836" lon="14.45230"><ele>1738</ele><time>2021-04-05T09:29:03Z</time></trkpt>
    <trkpt lat="47.65946" lon="14.45496"><ele>1684</ele><time>2021-04-05T09:31:53Z</time></trkpt>
    <trkpt lat="47.66027" lon="14.45569"><ele>1558</ele><time>2021-04-05T09:33:55Z</time></trkpt>
    <trkpt lat="47.66138" lon="14.45843"><ele>1543</ele><time>2021-04-05T09:35:50Z</time></trkpt>
    <trkpt lat="47.66098" lon="14.45975"><ele>1536</ele><time>2021-04-05T09:38:07Z</time></trkpt>
    <trkpt lat="47.66007" lon="14.46220"><ele>1426</ele><time>2021-04-05T09:40:02Z</time></trkpt>
    <trkpt lat="47.66097" lon="14.46532"><ele>1299</ele><time>2021-04-05T09:42:25Z</time></trkpt>
    <trkpt lat="47.66156" lon="14.46653"><ele>1252</ele><time>2021-04-05T09:44:06Z</time></trkpt>
    <trkpt lat="47.66266" lon="14.46854"><ele>1139</ele><time>2021-04-05T09:47:32Z</time></trkpt>
    <trkpt lat="47.66246" lon="14.46956"><ele>1140</ele><time>2021-04-05T09:48:25Z</time></trkpt>
    <trkpt lat="47.66228" lon="14.47050"><ele>1065</ele><time>2021-04-05T09:52:49Z</time></trkpt>
    <trkpt lat="47.66378" lon="14.47053"><ele>1030</ele><time>2021-04-05T09:55:44Z</time></trkpt>
    <trkpt lat="47.66669" lon="14.47112"><ele>903</ele><time>2021-04-05T10:00:15Z</time></trkpt>
    <trkpt lat="47.66795" lon="14.47092"><ele>901</ele><time>2021-04-05T10:04:21Z</time></trkpt>
    <trkpt lat="47.66933" lon="14.47054"><ele>833</ele><time>2021-04-05T10:08:16Z</time></trkpt>
    <trkpt lat="47.67051" lon="14.47168"><ele>840</ele><time>2021-04-05T10:10:31Z</time></trkpt>
    <trkpt lat="47.67083" lon="14.47163"><ele>862</ele><time>2021-04-05T10:11:00Z</time></trkpt>
    <trkpt lat="47.67136" lon="14.47190"><ele>889</ele><time>2021-04-05T10:11:38Z</time></trkpt>
    <trkpt lat="47.67183" lon="14.47219"><ele>855</ele><time>2021-04-05T10:12:31Z</time></trkpt>
    <trkpt lat="47.67301" lon="14.47342"><ele>818</ele><time>2021-04-05T10:14:51Z</time></trkpt>
    <trkpt lat="47.67494" lon="14.47431"><ele>831</ele><time>2021-04-05T10:16:47Z</time></trkpt>
    <trkpt lat="47.67593" lon="14.47604"><ele>783</ele><time>2021-04-05T10:20:31Z</time></trkpt>
    <trkpt lat="47.67800" lon="14.47743"><ele>783</ele><time>2021-04-05T10:24:45Z</time></trkpt>
    <trkpt lat="47.67970" lon="14.48125"><ele>742</ele><time>2021-04-05T10:28:16Z</time></trkpt>
  </trkseg>
</trk>
</gpx>