<?xml version="1.0" encoding="UTF-8"?>
<gpx version="1.1" creator="GPX-Pro" xmlns="http://www.topografix.com/GPX/1/1">
<trk>
  <name>Ski_Riegelscharte</name>
  <trkseg>
    <trkpt lat="47.15994" lon="12.53675"><ele>1621</ele><time>2021-05-10T03:56:52Z</time></trkpt>
    <trkpt lat="47.16014" lon="12.53664"><ele>1626</ele><time>2021-05-10T03:57:22Z</time></trkpt>
    <trkpt lat="47.15896" lon="12.53689"><ele>1552</ele><time>2021-05-10T04:01:03Z</time></trkpt>
    <trkpt lat="47.15849" lon="12.53684"><ele>1571</ele><time>2021-05-10T04:03:30Z</time></trkpt>
    <trkpt lat="47.15683" lon="12.53712"><ele>1668</ele><time>2021-05-10T04:06:32Z</time></trkpt>
    <trkpt lat="47.15579" lon="12.53835"><ele>1669</ele><time>2021-05-10T04:10:17Z</time></trkpt>
    <trkpt lat="47.15571" lon="12.53829"><ele>1620</ele><time>2021-05-10T04:10:57Z</time></trkpt>
    <trkpt lat="47.15531" lon="12.53822"><ele>1641</ele><time>2021-05-10T04:11:29Z</time></trkpt>
    <trkpt lat="47.15424" lon="12.53842"><ele>1695</ele><time>2021-05-10T04:14:07Z</time></trkpt>
    <trkpt lat="47.15337" lon="12.53862"><ele>1717</ele><time>2021-05-10T04:16:57Z</time></trkpt>
    <trkpt lat="47.15281" lon="12.53920"><ele>1740</ele><time>2021-05-10T04:18:26Z</time></trkpt>
    <trkpt lat="47.15180" lon="12.53971"><ele>1653</ele><time>2021-05-10T04:22:07Z</time></trkpt>
    <trkpt lat="47.15143" lon="12.53958"><ele>1827</ele><time>2021-05-10T04:26:05Z</time></trkpt>
    <trkpt lat="47.15131" lon="12.53886"><ele>1872</ele><time>2021-05-10T04:28:49Z</time></trkpt>
    <trkpt lat="47.15069" lon="12.53844"><ele>1881</ele><time>2021-05-10T04:33:03Z</time></trkpt>
    <trkpt lat="47.15011" lon="12.53783"><ele>1878</ele><time>2021-05-10T04:35:46Z</time></trkpt>
    <trkpt lat="47.15000" lon="12.53856"><ele>1799</ele><time>2021-05-10T04:39:33Z</time></trkpt>
    <trkpt lat="47.14897" lon="12.53744"><ele>1857</ele><time>2021-05-10T04:42:37Z</time></trkpt>
    <trkpt lat="47.14874" lon="12.53791"><ele>1922</ele><time>2021-05-10T04:46:06Z</time></trkpt>
    <trkpt lat="47.14721" lon="12.53705"><ele>1736</ele><time>2021-05-10T04:49:37Z</time></trkpt>
    <trkpt lat="47.14718" lon="12.53653"><ele>2005</ele><time>2021-05-10T04:51:53Z</time></trkpt>
    <trkpt lat="47.14670" lon="12.53693"><ele>2038</ele><time>2021-05-10T04:54:47Z</time></trkpt>
    <trkpt lat="47.14564" lon="12.53751"><ele>2121</ele><time>2021-05-10T04:57:38Z</time></trkpt>
    <trkpt lat="47.14575" lon="12.53706"><ele>2106</ele><time>2021-05-10T05:00:02Z</time></trkpt>
    <trkpt lat="47.14564" lon="12.53637"><ele>2136</ele><time>2021-05-10T05:03:01Z</time></trkpt>
    <trkpt lat="47.14539" lon="12.53549"><ele>2125</ele><time>2021-05-10T05:05:37Z</time></trkpt>
    <trkpt lat="47.14532" lon="12.53532"><ele>1788</ele><time>2021-05-10T05:08:22Z</time></trkpt>
    <trkpt lat="47.14505" lon="12.53514"><ele>2241</ele><time>2021-05-10T05:10:02Z</time></trkpt>
    <trkpt lat="47.14468" lon="12.53466"><ele>2157</ele><time>2021-05-10T05:11:37Z</time></trkpt>
    <trkpt lat="47.14427" lon="12.53422"><ele>2202</ele><time>2021-05-10T05:13:27Z</time></trkpt>
    <trkpt lat="47.14387" lon="12.53335"><ele>2241</ele><time>2021-05-10T05:15:30Z</time></trkpt>
    <trkpt lat="47.14321" lon="12.53315"><ele>2277</ele><time>2021-05-10T05:19:05Z</time></trkpt>
    <trkpt lat="47.14286" lon="12.53259"><ele>2218</ele><time>2021-05-10T05:21:37Z</time></trkpt>
    <trkpt lat="47.14282" lon="12.53228"><ele>2246</ele><time>2021-05-10T05:22:47Z</time></trkpt>
    <trkpt lat="47.14235" lon="12.53266"><ele>2354</ele><time>2021-05-10T05:25:39Z</time></trkpt>
    <trkpt lat="47.14224" lon="12.53241"><ele>2284</ele><time>2021-05-10T05:26:25Z</time></trkpt>
    <trkpt lat="47.14207" lon="12.53166"><ele>2280</ele><time>2021-05-10T05:28:41Z</time></trkpt>
    <trkpt lat="47.14170" lon="12.53159"><ele>2352</ele><time>2021-05-10T05:31:44Z</time></trkpt>
    <trkpt lat="47.14139" lon="12.53121"><ele>2318</ele><time>2021-05-10T05:33:41Z</time></trkpt>
    <trkpt lat="47.14117" lon="12.53112"><ele>2377</ele><time>2021-05-10T05:36:47Z</time></trkpt>
    <trkpt lat="47.14079" lon="12.53092"><ele>2469</ele><time>2021-05-10T05:40:02Z</time></trkpt>
    <trkpt lat="47.14039" lon="12.53110"><ele>2493</ele><time>2021-05-10T05:42:03Z</time></trkpt>
    <trkpt lat="47.14027" lon="12.53075"><ele>2415</ele><time>2021-05-10T05:43:19Z</time></trkpt>
    <trkpt lat="47.14029" lon="12.53050"><ele>2316</ele><time>2021-05-10T05:44:08Z</time></trkpt>
    <trkpt lat="47.14019" lon="12.53023"><ele>2408</ele><time>2021-05-10T05:45:21Z</time></trkpt>
    <trkpt lat="47.13993" lon="12.53015"><ele>2429</ele><time>2021-05-10T05:48:15Z</time></trkpt>
    <trkpt lat="47.13976" lon="12.53022"><ele>2541</ele><time>2021-05-10T05:50:04Z</time></trkpt>
    <trkpt lat="47.13965" lon="12.53020"><ele>2407</ele><time>2021-05-10T05:53:26Z</time></trkpt>
    <trkpt lat="47.13908" lon="12.53118"><ele>2543</ele><time>2021-05-10T05:57:29Z</time></trkpt>
    <trkpt lat="47.13857" lon="12.53115"><ele>2542</ele><time>2021-05-10T06:02:08Z</time></trkpt>
    <trkpt lat="47.13851" lon="12.53098"><ele>2583</ele><time>2021-05-10T06:03:40Z</time></trkpt>
    <trkpt lat="47.13831" lon="12.53116"><ele>2551</ele><time>2021-05-10T06:04:45Z</time></trkpt>
    <trkpt lat="47.13801" lon="12.53175"><ele>2578</ele><time>2021-05-10T06:07:36Z</time></trkpt>
    <trkpt lat="47.13798" lon="12.53150"><ele>2605</ele><time>2021-05-10T06:09:00Z</time></trkpt>
    <trkpt lat="47.13776" lon="12.53137"><ele>2619</ele><time>2021-05-10T06:11:58Z</time></trkpt>
    <trkpt lat="47.13766" lon="12.53157"><ele>2673</ele><time>2021-05-10T06:14:54Z</time></trkpt>
    <trkpt lat="47.13743" lon="12.53144"><ele>2635</ele><time>2021-05-10T06:16:07Z</time></trkpt>
    <trkpt lat="47.13736" lon="12.53173"><ele>2676</ele><time>2021-05-10T06:20:01Z</time></trkpt>
    <trkpt lat="47.13732" lon="12.53149"><ele>2683</ele><time>2021-05-10T06:22:25Z</time></trkpt>
    <trkpt lat="47.13696" lon="12.53164"><ele>2594</ele><time>2021-05-10T06:23:39Z</time></trkpt>
    <trkpt lat="47.13728" lon="12.53148"><ele>2695</ele><time>2021-05-10T06:25:54Z</time></trkpt>
    <trkpt lat="47.13836" lon="12.53074"><ele>2608</ele><time>2021-05-10T06:36:12Z</time></trkpt>
    <trkpt lat="47.13851" lon="12.53076"><ele>2609</ele><time>2021-05-10T06:37:15Z</time></trkpt>
    <trkpt lat="47.13929" lon="12.53157"><ele>2518</ele><time>2021-05-10T06:40:20Z</time></trkpt>
    <trkpt lat="47.14045" lon="12.53205"><ele>2432</ele><time>2021-05-10T06:41:31Z</time></trkpt>
    <trkpt lat="47.14115" lon="12.53247"><ele>2354</ele><time>2021-05-10T06:43:04Z</time></trkpt>
    <trkpt lat="47.14338" lon="12.53305"><ele>2235</ele><time>2021-05-10T06:45:24Z</time></trkpt>
    <trkpt lat="47.14351" lon="12.53303"><ele>2248</ele><time>2021-05-10T06:46:35Z</time></trkpt>
    <trkpt lat="47.14636" lon="12.53688"><ele>2106</ele><time>2021-05-10T06:51:07Z</time></trkpt>
    <trkpt lat="47.14854" lon="12.53672"><ele>1945</ele><time>2021-05-10T06:52:27Z</time></trkpt>
    <trkpt lat="47.14845" lon="12.53691"><ele>1975</ele><time>2021-05-10T06:52:57Z</time></trkpt>
    <trkpt lat="47.14969" lon="12.53769"><ele>1928</ele><time>2021-05-10T06:54:24Z</time></trkpt>
    <trkpt lat="47.15005" lon="12.53759"><ele>1837</ele><time>2021-05-10T06:55:38Z</time></trkpt>
    <trkpt lat="47.15117" lon="12.53818"><ele>1836</ele><time>2021-05-10T06:57:47Z</time></trkpt>
    <trkpt lat="47.15182" lon="12.53903"><ele>1816</ele><time>2021-05-10T06:58:50Z</time></trkpt>
    <trkpt lat="47.15534" lon="12.53881"><ele>1602</ele><time>2021-05-10T07:03:10Z</time></trkpt>
    <trkpt lat="47.15551" lon="12.53833"><ele>1643</ele><time>2021-05-10T07:04:55Z</time></trkpt>
    <trkpt lat="47.15573" lon="12.53701"><ele>1709</ele><time>2021-05-10T07:07:47Z</time></trkpt>
    <trkpt lat="47.15570" lon="12.53722"><ele>1714</ele><time>2021-05-10T07:08:54Z</time></trkpt>
    <trkpt lat="47.16021" lon="12.53660"><ele>1619</ele><time>2021-05-10T07:13:56Z</time></trkpt>
  </trkseg>
</trk>
</gpx>