<?xml version="1.0" encoding="UTF-8"?>
<gpx version="1.1" creator="GPX-Pro" xmlns="http://www.topografix.com/GPX/1/1">
<trk>
  <name>Ski_Hoffmannspitze</name>
  <trkseg>
    <trkpt lat="47.02232" lon="12.68954"><ele>1908</ele><time>2021-05-09T02:55:21Z</time></trkpt>
    <trkpt lat="47.02240" lon="12.68969"><ele>1893</ele><time>2021-05-09T02:55:51Z</time></trkpt>
    <trkpt lat="47.02306" lon="12.68928"><ele>1938</ele><time>2021-05-09T02:57:48Z</time></trkpt>
    <trkpt lat="47.02443" lon="12.68965"><ele>2025</ele><time>2021-05-09T02:59:46Z</time></trkpt>
    <trkpt lat="47.02510" lon="12.68981"><ele>1893</ele><time>2021-05-09T03:01:48Z</time></trkpt>
    <trkpt lat="47.02609" lon="12.68985"><ele>1931</ele><time>2021-05-09T03:04:01Z</time></trkpt>
    <trkpt lat="47.02641" lon="12.68840"><ele>2094</ele><time>2021-05-09T03:05:54Z</time></trkpt>
    <trkpt lat="47.02760" lon="12.68930"><ele>1873</ele><time>2021-05-09T03:10:22Z</time></trkpt>
    <trkpt lat="47.03011" lon="12.68952"><ele>2071</ele><time>2021-05-09T03:14:08Z</time></trkpt>
    <trkpt lat="47.03052" lon="12.69011"><ele>2039</ele><time>2021-05-09T03:15:16Z</time></trkpt>
    <trkpt lat="47.03086" lon="12.69001"><ele>2034</ele><time>2021-05-09T03:15:47Z</time></trkpt>
    <trkpt lat="47.03256" lon="12.69027"><ele>2102</ele><time>2021-05-09T03:19:48Z</time></trkpt>
    <trkpt lat="47.03501" lon="12.69119"><ele>2083</ele><time>2021-05-09T03:24:16Z</time></trkpt>
    <trkpt lat="47.03510" lon="12.69276"><ele>2057</ele><time>2021-05-09T03:27:20Z</time></trkpt>
    <trkpt lat="47.03465" lon="12.69256"><ele>2100</ele><time>2021-05-09T03:28:32Z</time></trkpt>
    <trkpt lat="47.03486" lon="12.69271"><ele>2125</ele><time>2021-05-09T03:29:21Z</time></trkpt>
    <trkpt lat="47.03591" lon="12.69283"><ele>2128</ele><time>2021-05-09T03:32:31Z</time></trkpt>
    <trkpt lat="47.03672" lon="12.69204"><ele>2187</ele><time>2021-05-09T03:36:59Z</time></trkpt>
    <trkpt lat="47.03772" lon="12.69210"><ele>2186</ele><time>2021-05-09T03:39:44Z</time></trkpt>
    <trkpt lat="47.03848" lon="12.69156"><ele>2270</ele><time>2021-05-09T03:43:25Z</time></trkpt>
    <trkpt lat="47.04016" lon="12.69081"><ele>2199</ele><time>2021-05-09T03:47:14Z</time></trkpt>
    <trkpt lat="47.04020" lon="12.69066"><ele>2219</ele><time>2021-05-09T03:47:54Z</time></trkpt>
    <trkpt lat="47.04052" lon="12.69019"><ele>2240</ele><time>2021-05-09T03:50:33Z</time></trkpt>
    <trkpt lat="47.04246" lon="12.68954"><ele>2289</ele><time>2021-05-09T03:54:56Z</time></trkpt>
    <trkpt lat="47.04379" lon="12.68893"><ele>2351</ele><time>2021-05-09T03:59:13Z</time></trkpt>
    <trkpt lat="47.04560" lon="12.68891"><ele>2310</ele><time>2021-05-09T04:02:40Z</time></trkpt>
    <trkpt lat="47.04587" lon="12.68900"><ele>2350</ele><time>2021-05-09T04:03:37Z</time></trkpt>
    <trkpt lat="47.04678" lon="12.68789"><ele>2346</ele><time>2021-05-09T04:07:23Z</time></trkpt>
    <trkpt lat="47.04689" lon="12.68771"><ele>2418</ele><time>2021-05-09T04:08:54Z</time></trkpt>
    <trkpt lat="47.04681" lon="12.68757"><ele>2393</ele><time>2021-05-09T04:09:24Z</time></trkpt>
    <trkpt lat="47.04734" lon="12.68792"><ele>2398</ele><time>2021-05-09T04:11:40Z</time></trkpt>
    <trkpt lat="47.04804" lon="12.68833"><ele>2399</ele><time>2021-05-09T04:16:03Z</time></trkpt>
    <trkpt lat="47.04873" lon="12.68829"><ele>2493</ele><time>2021-05-09T04:20:37Z</time></trkpt>
    <trkpt lat="47.04897" lon="12.68835"><ele>2488</ele><time>2021-05-09T04:21:07Z</time></trkpt>
    <trkpt lat="47.05004" lon="12.68793"><ele>2514</ele><time>2021-05-09T04:25:00Z</time></trkpt>
    <trkpt lat="47.05101" lon="12.68755"><ele>2561</ele><time>2021-05-09T04:29:03Z</time></trkpt>
    <trkpt lat="47.05235" lon="12.68683"><ele>2594</ele><time>2021-05-09T04:33:44Z</time></trkpt>
    <trkpt lat="47.05347" lon="12.68642"><ele>2670</ele><time>2021-05-09T04:38:26Z</time></trkpt>
    <trkpt lat="47.05462" lon="12.68415"><ele>2717</ele><time>2021-05-09T04:45:32Z</time></trkpt>
    <trkpt lat="47.05464" lon="12.68358"><ele>2740</ele><time>2021-05-09T04:46:38Z</time></trkpt>
    <trkpt lat="47.05505" lon="12.68346"><ele>2756</ele><time>2021-05-09T04:48:03Z</time></trkpt>
    <trkpt lat="47.05487" lon="12.68306"><ele>2743</ele><time>2021-05-09T04:48:32Z</time></trkpt>
    <trkpt lat="47.05480" lon="12.68280"><ele>2742</ele><time>2021-05-09T04:49:02Z</time></trkpt>
    <trkpt lat="47.05495" lon="12.68269"><ele>2758</ele><time>2021-05-09T04:49:38Z</time></trkpt>
    <trkpt lat="47.05502" lon="12.68260"><ele>2740</ele><time>2021-05-09T04:50:07Z</time></trkpt>
    <trkpt lat="47.05510" lon="12.68198"><ele>2791</ele><time>2021-05-09T04:51:37Z</time></trkpt>
    <trkpt lat="47.05466" lon="12.68197"><ele>2778</ele><time>2021-05-09T04:53:37Z</time></trkpt>
    <trkpt lat="47.05480" lon="12.68192"><ele>2762</ele><time>2021-05-09T04:54:07Z</time></trkpt>
    <trkpt lat="47.05516" lon="12.68153"><ele>2757</ele><time>2021-05-09T04:55:53Z</time></trkpt>
    <trkpt lat="47.05498" lon="12.68111"><ele>2808</ele><time>2021-05-09T04:59:41Z</time></trkpt>
    <trkpt lat="47.05507" lon="12.68072"><ele>2824</ele><time>2021-05-09T05:09:59Z</time></trkpt>
    <trkpt lat="47.05489" lon="12.68109"><ele>2815</ele><time>2021-05-09T05:12:33Z</time></trkpt>
    <trkpt lat="47.05513" lon="12.68107"><ele>2795</ele><time>2021-05-09T05:17:13Z</time></trkpt>
    <trkpt lat="47.05534" lon="12.68082"><ele>2810</ele><time>2021-05-09T05:18:13Z</time></trkpt>
    <trkpt lat="47.05546" lon="12.68076"><ele>2812</ele><time>2021-05-09T05:18:42Z</time></trkpt>
    <trkpt lat="47.05556" lon="12.68076"><ele>2814</ele><time>2021-05-09T05:19:12Z</time></trkpt>
    <trkpt lat="47.05581" lon="12.68070"><ele>2817</ele><time>2021-05-09T05:20:12Z</time></trkpt>
    <trkpt lat="47.05618" lon="12.68077"><ele>2769</ele><time>2021-05-09T05:21:56Z</time></trkpt>
    <trkpt lat="47.05646" lon="12.68105"><ele>2848</ele><time>2021-05-09T05:23:57Z</time></trkpt>
    <trkpt lat="47.05649" lon="12.68075"><ele>2851</ele><time>2021-05-09T05:26:00Z</time></trkpt>
    <trkpt lat="47.05668" lon="12.68087"><ele>2855</ele><time>2021-05-09T05:27:59Z</time></trkpt>
    <trkpt lat="47.05757" lon="12.68092"><ele>2915</ele><time>2021-05-09T05:34:09Z</time></trkpt>
    <trkpt lat="47.05753" lon="12.68074"><ele>2945</ele><time>2021-05-09T05:35:13Z</time></trkpt>
    <trkpt lat="47.05792" lon="12.68118"><ele>2907</ele><time>2021-05-09T05:37:57Z</time></trkpt>
    <trkpt lat="47.05851" lon="12.68118"><ele>2971</ele><time>2021-05-09T05:41:20Z</time></trkpt>
    <trkpt lat="47.05894" lon="12.68133"><ele>2991</ele><time>2021-05-09T05:43:23Z</time></trkpt>
    <trkpt lat="47.05909" lon="12.68146"><ele>2966</ele><time>2021-05-09T05:44:48Z</time></trkpt>
    <trkpt lat="47.05948" lon="12.68153"><ele>2990</ele><time>2021-05-09T05:46:38Z</time></trkpt>
    <trkpt lat="47.05985" lon="12.68160"><ele>2997</ele><time>2021-05-09T05:47:56Z</time></trkpt>
    <trkpt lat="47.06074" lon="12.68157"><ele>3033</ele><time>2021-05-09T05:50:49Z</time></trkpt>
    <trkpt lat="47.06120" lon="12.68186"><ele>3021</ele><time>2021-05-09T05:52:40Z</time></trkpt>
    <trkpt lat="47.06109" lon="12.68196"><ele>2979</ele><time>2021-05-09T05:53:43Z</time></trkpt>
    <trkpt lat="47.06202" lon="12.68212"><ele>3026</ele><time>2021-05-09T05:54:49Z</time></trkpt>
    <trkpt lat="47.06310" lon="12.68242"><ele>3069</ele><time>2021-05-09T05:58:48Z</time></trkpt>
    <trkpt lat="47.06376" lon="12.68241"><ele>3053</ele><time>2021-05-09T06:00:50Z</time></trkpt>
    <trkpt lat="47.06386" lon="12.68240"><ele>3045</ele><time>2021-05-09T06:02:01Z</time></trkpt>
    <trkpt lat="47.06420" lon="12.68250"><ele>3074</ele><time>2021-05-09T06:04:59Z</time></trkpt>
    <trkpt lat="47.06491" lon="12.68273"><ele>3063</ele><time>2021-05-09T06:07:56Z</time></trkpt>
    <trkpt lat="47.06568" lon="12.68273"><ele>3101</ele><time>2021-05-09T06:10:42Z</time></trkpt>
    <trkpt lat="47.06624" lon="12.68299"><ele>3093</ele><time>2021-05-09T06:13:10Z</time></trkpt>
    <trkpt lat="47.06745" lon="12.68326"><ele>3151</ele><time>2021-05-09T06:17:16Z</time></trkpt>
    <trkpt lat="47.06769" lon="12.68374"><ele>3058</ele><time>2021-05-09T06:19:35Z</time></trkpt>
    <trkpt lat="47.06822" lon="12.68387"><ele>3107</ele><time>2021-05-09T06:20:23Z</time></trkpt>
    <trkpt lat="47.06895" lon="12.68412"><ele>3164</ele><time>2021-05-09T06:23:18Z</time></trkpt>
    <trkpt lat="47.06925" lon="12.68423"><ele>3143</ele><time>2021-05-09T06:24:54Z</time></trkpt>
    <trkpt lat="47.06936" lon="12.68417"><ele>3161</ele><time>2021-05-09T06:25:24Z</time></trkpt>
    <trkpt lat="47.06949" lon="12.68413"><ele>3163</ele><time>2021-05-09T06:25:53Z</time></trkpt>
    <trkpt lat="47.06964" lon="12.68411"><ele>3167</ele><time>2021-05-09T06:26:23Z</time></trkpt>
    <trkpt lat="47.06977" lon="12.68408"><ele>3176</ele><time>2021-05-09T06:26:53Z</time></trkpt>
    <trkpt lat="47.06988" lon="12.68412"><ele>3172</ele><time>2021-05-09T06:27:24Z</time></trkpt>
    <trkpt lat="47.07031" lon="12.68424"><ele>3133</ele><time>2021-05-09T06:30:27Z</time></trkpt>
    <trkpt lat="47.07084" lon="12.68421"><ele>3179</ele><time>2021-05-09T06:33:26Z</time></trkpt>
    <trkpt lat="47.07038" lon="12.68444"><ele>3045</ele><time>2021-05-09T06:35:43Z</time></trkpt>
    <trkpt lat="47.07267" lon="12.68434"><ele>3261</ele><time>2021-05-09T06:39:30Z</time></trkpt>
    <trkpt lat="47.07315" lon="12.68444"><ele>3272</ele><time>2021-05-09T06:42:52Z</time></trkpt>
    <trkpt lat="47.07333" lon="12.68608"><ele>3151</ele><time>2021-05-09T06:45:15Z</time></trkpt>
    <trkpt lat="47.07370" lon="12.68517"><ele>3198</ele><time>2021-05-09T06:46:57Z</time></trkpt>
    <trkpt lat="47.07415" lon="12.68538"><ele>3251</ele><time>2021-05-09T06:48:07Z</time></trkpt>
    <trkpt lat="47.07484" lon="12.68558"><ele>3258</ele><time>2021-05-09T06:50:49Z</time></trkpt>
    <trkpt lat="47.07488" lon="12.68589"><ele>3228</ele><time>2021-05-09T06:52:08Z</time></trkpt>
    <trkpt lat="47.07528" lon="12.68490"><ele>3317</ele><time>2021-05-09T06:55:27Z</time></trkpt>
    <trkpt lat="47.07530" lon="12.68476"><ele>3333</ele><time>2021-05-09T06:57:13Z</time></trkpt>
    <trkpt lat="47.07569" lon="12.68515"><ele>3342</ele><time>2021-05-09T07:00:13Z</time></trkpt>
    <trkpt lat="47.07580" lon="12.68536"><ele>3363</ele><time>2021-05-09T07:05:48Z</time></trkpt>
    <trkpt lat="47.07588" lon="12.68494"><ele>3375</ele><time>2021-05-09T07:07:22Z</time></trkpt>
    <trkpt lat="47.07610" lon="12.68495"><ele>3375</ele><time>2021-05-09T07:09:24Z</time></trkpt>
    <trkpt lat="47.07610" lon="12.68475"><ele>3378</ele><time>2021-05-09T07:10:22Z</time></trkpt>
    <trkpt lat="47.07635" lon="12.68457"><ele>3424</ele><time>2021-05-09T07:15:33Z</time></trkpt>
    <trkpt lat="47.07643" lon="12.68447"><ele>3370</ele><time>2021-05-09T07:23:51Z</time></trkpt>
    <trkpt lat="47.07648" lon="12.68465"><ele>3403</ele><time>2021-05-09T07:24:49Z</time></trkpt>
    <trkpt lat="47.07654" lon="12.68479"><ele>3416</ele><time>2021-05-09T07:28:36Z</time></trkpt>
    <trkpt lat="47.07673" lon="12.68468"><ele>3444</ele><time>2021-05-09T07:30:25Z</time></trkpt>
    <trkpt lat="47.07683" lon="12.68500"><ele>3438</ele><time>2021-05-09T07:34:15Z</time></trkpt>
    <trkpt lat="47.07685" lon="12.68487"><ele>3443</ele><time>2021-05-09T07:35:29Z</time></trkpt>
    <trkpt lat="47.07706" lon="12.68490"><ele>3494</ele><time>2021-05-09T07:37:29Z</time></trkpt>
    <trkpt lat="47.07731" lon="12.68501"><ele>3478</ele><time>2021-05-09T07:41:50Z</time></trkpt>
    <trkpt lat="47.07741" lon="12.68501"><ele>3484</ele><time>2021-05-09T07:45:07Z</time></trkpt>
    <trkpt lat="47.07751" lon="12.68519"><ele>3490</ele><time>2021-05-09T07:47:09Z</time></trkpt>
    <trkpt lat="47.07761" lon="12.68509"><ele>3484</ele><time>2021-05-09T07:50:01Z</time></trkpt>
    <trkpt lat="47.07774" lon="12.68531"><ele>3497</ele><time>2021-05-09T07:55:30Z</time></trkpt>
    <trkpt lat="47.07817" lon="12.68539"><ele>3550</ele><time>2021-05-09T08:03:21Z</time></trkpt>
    <trkpt lat="47.07838" lon="12.68543"><ele>3549</ele><time>2021-05-09T08:13:30Z</time></trkpt>
    <trkpt lat="47.07859" lon="12.68535"><ele>3561</ele><time>2021-05-09T08:16:13Z</time></trkpt>
    <trkpt lat="47.07877" lon="12.68540"><ele>3573</ele><time>2021-05-09T08:17:34Z</time></trkpt>
    <trkpt lat="47.07894" lon="12.68539"><ele>3612</ele><time>2021-05-09T08:22:03Z</time></trkpt>
    <trkpt lat="47.07905" lon="12.68546"><ele>3618</ele><time>2021-05-09T08:30:17Z</time></trkpt>
    <trkpt lat="47.07915" lon="12.68552"><ele>3655</ele><time>2021-05-09T08:34:47Z</time></trkpt>
    <trkpt lat="47.07923" lon="12.68557"><ele>3718</ele><time>2021-05-09T08:43:56Z</time></trkpt>
    <trkpt lat="47.07968" lon="12.68598"><ele>3674</ele><time>2021-05-09T08:49:42Z</time></trkpt>
    <trkpt lat="47.07979" lon="12.68607"><ele>3681</ele><time>2021-05-09T08:50:50Z</time></trkpt>
    <trkpt lat="47.07998" lon="12.68614"><ele>3706</ele><time>2021-05-09T08:54:18Z</time></trkpt>
    <trkpt lat="47.08007" lon="12.68606"><ele>3706</ele><time>2021-05-09T08:59:03Z</time></trkpt>
    <trkpt lat="47.08016" lon="12.68592"><ele>3713</ele><time>2021-05-09T09:04:11Z</time></trkpt>
    <trkpt lat="47.08000" lon="12.68605"><ele>3720</ele><time>2021-05-09T09:17:18Z</time></trkpt>
    <trkpt lat="47.07968" lon="12.68585"><ele>3650</ele><time>2021-05-09T09:29:51Z</time></trkpt>
    <trkpt lat="47.07917" lon="12.68546"><ele>3652</ele><time>2021-05-09T09:33:53Z</time></trkpt>
    <trkpt lat="47.07880" lon="12.68528"><ele>3741</ele><time>2021-05-09T09:37:27Z</time></trkpt>
    <trkpt lat="47.07808" lon="12.68537"><ele>3582</ele><time>2021-05-09T09:39:14Z</time></trkpt>
    <trkpt lat="47.07809" lon="12.68522"><ele>3562</ele><time>2021-05-09T09:39:43Z</time></trkpt>
    <trkpt lat="47.07772" lon="12.68520"><ele>3494</ele><time>2021-05-09T09:41:28Z</time></trkpt>
    <trkpt lat="47.07755" lon="12.68497"><ele>3508</ele><time>2021-05-09T09:42:15Z</time></trkpt>
    <trkpt lat="47.07718" lon="12.68492"><ele>3488</ele><time>2021-05-09T09:43:34Z</time></trkpt>
    <trkpt lat="47.07649" lon="12.68449"><ele>3424</ele><time>2021-05-09T09:48:17Z</time></trkpt>
    <trkpt lat="47.07641" lon="12.68471"><ele>3442</ele><time>2021-05-09T09:51:01Z</time></trkpt>
    <trkpt lat="47.07621" lon="12.68461"><ele>3399</ele><time>2021-05-09T09:52:15Z</time></trkpt>
    <trkpt lat="47.07524" lon="12.68486"><ele>3381</ele><time>2021-05-09T09:54:35Z</time></trkpt>
    <trkpt lat="47.07488" lon="12.68500"><ele>3173</ele><time>2021-05-09T09:57:48Z</time></trkpt>
    <trkpt lat="47.07373" lon="12.68261"><ele>3232</ele><time>2021-05-09T10:03:31Z</time></trkpt>
    <trkpt lat="47.07364" lon="12.68222"><ele>3230</ele><time>2021-05-09T10:04:22Z</time></trkpt>
    <trkpt lat="47.07340" lon="12.68091"><ele>3220</ele><time>2021-05-09T10:05:02Z</time></trkpt>
    <trkpt lat="47.07174" lon="12.67632"><ele>3185</ele><time>2021-05-09T10:07:44Z</time></trkpt>
    <trkpt lat="47.07115" lon="12.67434"><ele>3129</ele><time>2021-05-09T10:08:46Z</time></trkpt>
    <trkpt lat="47.06872" lon="12.67221"><ele>3109</ele><time>2021-05-09T10:11:24Z</time></trkpt>
    <trkpt lat="47.06895" lon="12.67231"><ele>3062</ele><time>2021-05-09T10:11:54Z</time></trkpt>
    <trkpt lat="47.06847" lon="12.67083"><ele>3045</ele><time>2021-05-09T10:19:58Z</time></trkpt>
    <trkpt lat="47.06749" lon="12.66989"><ele>3038</ele><time>2021-05-09T10:20:27Z</time></trkpt>
    <trkpt lat="47.06739" lon="12.66973"><ele>3036</ele><time>2021-05-09T10:20:57Z</time></trkpt>
    <trkpt lat="47.06759" lon="12.66971"><ele>3040</ele><time>2021-05-09T10:23:27Z</time></trkpt>
    <trkpt lat="47.06771" lon="12.66838"><ele>3047</ele><time>2021-05-09T10:25:27Z</time></trkpt>
    <trkpt lat="47.06822" lon="12.66733"><ele>2982</ele><time>2021-05-09T10:27:27Z</time></trkpt>
    <trkpt lat="47.06796" lon="12.66695"><ele>2981</ele><time>2021-05-09T10:28:09Z</time></trkpt>
    <trkpt lat="47.06752" lon="12.66598"><ele>2856</ele><time>2021-05-09T10:28:39Z</time></trkpt>
    <trkpt lat="47.06747" lon="12.66615"><ele>2958</ele><time>2021-05-09T10:31:11Z</time></trkpt>
    <trkpt lat="47.06420" lon="12.66646"><ele>2932</ele><time>2021-05-09T10:34:11Z</time></trkpt>
    <trkpt lat="47.06403" lon="12.66677"><ele>2785</ele><time>2021-05-09T10:37:33Z</time></trkpt>
    <trkpt lat="47.06227" lon="12.66878"><ele>2563</ele><time>2021-05-09T10:40:28Z</time></trkpt>
    <trkpt lat="47.06221" lon="12.66901"><ele>2586</ele><time>2021-05-09T10:41:51Z</time></trkpt>
    <trkpt lat="47.05800" lon="12.67380"><ele>2332</ele><time>2021-05-09T10:45:15Z</time></trkpt>
    <trkpt lat="47.05338" lon="12.67156"><ele>2329</ele><time>2021-05-09T10:49:04Z</time></trkpt>
    <trkpt lat="47.04926" lon="12.67132"><ele>2247</ele><time>2021-05-09T10:53:07Z</time></trkpt>
    <trkpt lat="47.04631" lon="12.67103"><ele>2258</ele><time>2021-05-09T10:56:17Z</time></trkpt>
    <trkpt lat="47.04442" lon="12.66971"><ele>2297</ele><time>2021-05-09T10:59:31Z</time></trkpt>
    <trkpt lat="47.03976" lon="12.66927"><ele>2114</ele><time>2021-05-09T11:04:31Z</time></trkpt>
    <trkpt lat="47.03929" lon="12.66850"><ele>2220</ele><time>2021-05-09T11:08:22Z</time></trkpt>
    <trkpt lat="47.03842" lon="12.66713"><ele>2219</ele><time>2021-05-09T11:12:13Z</time></trkpt>
    <trkpt lat="47.03726" lon="12.66580"><ele>2176</ele><time>2021-05-09T11:14:34Z</time></trkpt>
    <trkpt lat="47.03651" lon="12.66410"><ele>2140</ele><time>2021-05-09T11:16:36Z</time></trkpt>
    <trkpt lat="47.03548" lon="12.66212"><ele>2149</ele><time>2021-05-09T11:20:40Z</time></trkpt>
    <trkpt lat="47.03427" lon="12.65854"><ele>2181</ele><time>2021-05-09T11:23:48Z</time></trkpt>
    <trkpt lat="47.03397" lon="12.65811"><ele>2128</ele><time>2021-05-09T11:24:19Z</time></trkpt>
    <trkpt lat="47.03401" lon="12.65743"><ele>2152</ele><time>2021-05-09T11:24:49Z</time></trkpt>
    <trkpt lat="47.03377" lon="12.65578"><ele>2062</ele><time>2021-05-09T11:25:39Z</time></trkpt>
    <trkpt lat="47.03389" lon="12.65500"><ele>2098</ele><time>2021-05-09T11:26:24Z</time></trkpt>
    <trkpt lat="47.03392" lon="12.65453"><ele>2113</ele><time>2021-05-09T11:27:05Z</time></trkpt>
    <trkpt lat="47.03373" lon="12.65415"><ele>2100</ele><time>2021-05-09T11:27:39Z</time></trkpt>
    <trkpt lat="47.03321" lon="12.65150"><ele>2100</ele><time>2021-05-09T11:29:15Z</time></trkpt>
    <trkpt lat="47.03293" lon="12.65023"><ele>2049</ele><time>2021-05-09T11:31:04Z</time></trkpt>
    <trkpt lat="47.03269" lon="12.64869"><ele>2025</ele><time>2021-05-09T11:31:47Z</time></trkpt>
    <trkpt lat="47.03259" lon="12.64754"><ele>1964</ele><time>2021-05-09T11:33:07Z</time></trkpt>
    <trkpt lat="47.03205" lon="12.64635"><ele>1914</ele><time>2021-05-09T11:34:22Z</time></trkpt>
    <trkpt lat="47.03164" lon="12.64586"><ele>1932</ele><time>2021-05-09T11:35:24Z</time></trkpt>
    <trkpt lat="47.03202" lon="12.64462"><ele>1762</ele><time>2021-05-09T11:40:40Z</time></trkpt>
    <trkpt lat="47.03232" lon="12.64309"><ele>1817</ele><time>2021-05-09T11:42:24Z</time></trkpt>
    <trkpt lat="47.03254" lon="12.64320"><ele>1780</ele><time>2021-05-09T11:42:53Z</time></trkpt>
    <trkpt lat="47.03232" lon="12.64325"><ele>1828</ele><time>2021-05-09T12:06:45Z</time></trkpt>
    <trkpt lat="47.03243" lon="12.64304"><ele>1778</ele><time>2021-05-09T12:09:34Z</time></trkpt>
    <trkpt lat="47.03236" lon="12.64313"><ele>1810</ele><time>2021-05-09T12:11:49Z</time></trkpt>
    <trkpt lat="47.03251" lon="12.64299"><ele>1805</ele><time>2021-05-09T12:20:51Z</time></trkpt>
    <trkpt lat="47.03242" lon="12.64298"><ele>1801</ele><time>2021-05-09T12:24:05Z</time></trkpt>
    <trkpt lat="47.03256" lon="12.64304"><ele>1780</ele><time>2021-05-09T12:25:07Z</time></trkpt>
    <trkpt lat="47.03231" lon="12.64335"><ele>1753</ele><time>2021-05-09T12:28:43Z</time></trkpt>
    <trkpt lat="47.03057" lon="12.63868"><ele>1655</ele><time>2021-05-09T12:31:49Z</time></trkpt>
    <trkpt lat="47.02998" lon="12.63755"><ele>1588</ele><time>2021-05-09T12:34:54Z</time></trkpt>
    <trkpt lat="47.03014" lon="12.63725"><ele>1625</ele><time>2021-05-09T12:36:13Z</time></trkpt>
    <trkpt lat="47.03014" lon="12.63740"><ele>1647</ele><time>2021-05-09T12:40:39Z</time></trkpt>
    <trkpt lat="47.03013" lon="12.63726"><ele>1634</ele><time>2021-05-09T12:41:08Z</time></trkpt>
    <trkpt lat="47.03028" lon="12.63732"><ele>1622</ele><time>2021-05-09T12:42:17Z</time></trkpt>
    <trkpt lat="47.02918" lon="12.63576"><ele>1611</ele><time>2021-05-09T12:44:35Z</time></trkpt>
    <trkpt lat="47.02835" lon="12.63502"><ele>1704</ele><time>2021-05-09T12:46:02Z</time></trkpt>
    <trkpt lat="47.02854" lon="12.63569"><ele>1607</ele><time>2021-05-09T12:46:43Z</time></trkpt>
    <trkpt lat="47.02657" lon="12.63472"><ele>1520</ele><time>2021-05-09T12:50:58Z</time></trkpt>
    <trkpt lat="47.02543" lon="12.63429"><ele>1461</ele><time>2021-05-09T12:54:43Z</time></trkpt>
    <trkpt lat="47.02555" lon="12.63174"><ele>1459</ele><time>2021-05-09T12:57:05Z</time></trkpt>
    <trkpt lat="47.02654" lon="12.62985"><ele>1532</ele><time>2021-05-09T12:59:06Z</time></trkpt>
    <trkpt lat="47.02548" lon="12.63248"><ele>1509</ele><time>2021-05-09T13:03:13Z</time></trkpt>
    <trkpt lat="47.02541" lon="12.63425"><ele>1470</ele><time>2021-05-09T13:05:18Z</time></trkpt>
  </trkseg>
</trk>
</gpx>