<?xml version="1.0" encoding="UTF-8"?>
<gpx version="1.1" creator="GPX-Pro" xmlns="http://www.topografix.com/GPX/1/1">
<trk>
  <name>Kleinkaiser,Mitterkaiser</name>
  <trkseg>
    <trkpt lat="47.57915" lon="12.32912"><ele>980</ele><time>2021-07-24T04:09:38Z</time></trkpt>
    <trkpt lat="47.57889" lon="12.32912"><ele>978</ele><time>2021-07-24T04:10:35Z</time></trkpt>
    <trkpt lat="47.57875" lon="12.32904"><ele>974</ele><time>2021-07-24T04:10:53Z</time></trkpt>
    <trkpt lat="47.57873" lon="12.32886"><ele>983</ele><time>2021-07-24T04:11:12Z</time></trkpt>
    <trkpt lat="47.57885" lon="12.32873"><ele>992</ele><time>2021-07-24T04:11:30Z</time></trkpt>
    <trkpt lat="47.57886" lon="12.32851"><ele>992</ele><time>2021-07-24T04:11:49Z</time></trkpt>
    <trkpt lat="47.57893" lon="12.32830"><ele>996</ele><time>2021-07-24T04:12:07Z</time></trkpt>
    <trkpt lat="47.57900" lon="12.32812"><ele>1000</ele><time>2021-07-24T04:12:26Z</time></trkpt>
    <trkpt lat="47.57900" lon="12.32794"><ele>1006</ele><time>2021-07-24T04:12:45Z</time></trkpt>
    <trkpt lat="47.57900" lon="12.32774"><ele>1010</ele><time>2021-07-24T04:13:04Z</time></trkpt>
    <trkpt lat="47.57904" lon="12.32757"><ele>1016</ele><time>2021-07-24T04:13:23Z</time></trkpt>
    <trkpt lat="47.57914" lon="12.32749"><ele>1017</ele><time>2021-07-24T04:13:41Z</time></trkpt>
    <trkpt lat="47.57924" lon="12.32736"><ele>1023</ele><time>2021-07-24T04:14:00Z</time></trkpt>
    <trkpt lat="47.57926" lon="12.32716"><ele>1026</ele><time>2021-07-24T04:14:18Z</time></trkpt>
    <trkpt lat="47.57931" lon="12.32698"><ele>1029</ele><time>2021-07-24T04:14:37Z</time></trkpt>
    <trkpt lat="47.57938" lon="12.32682"><ele>1028</ele><time>2021-07-24T04:14:56Z</time></trkpt>
    <trkpt lat="47.57943" lon="12.32663"><ele>1033</ele><time>2021-07-24T04:15:15Z</time></trkpt>
    <trkpt lat="47.57945" lon="12.32647"><ele>1033</ele><time>2021-07-24T04:15:33Z</time></trkpt>
    <trkpt lat="47.57952" lon="12.32630"><ele>1033</ele><time>2021-07-24T04:15:51Z</time></trkpt>
    <trkpt lat="47.57957" lon="12.32616"><ele>1033</ele><time>2021-07-24T04:16:10Z</time></trkpt>
    <trkpt lat="47.57953" lon="12.32599"><ele>1033</ele><time>2021-07-24T04:16:28Z</time></trkpt>
    <trkpt lat="47.57960" lon="12.32577"><ele>1038</ele><time>2021-07-24T04:16:46Z</time></trkpt>
    <trkpt lat="47.57974" lon="12.32554"><ele>1037</ele><time>2021-07-24T04:17:24Z</time></trkpt>
    <trkpt lat="47.57965" lon="12.32549"><ele>1034</ele><time>2021-07-24T04:17:42Z</time></trkpt>
    <trkpt lat="47.57954" lon="12.32539"><ele>1037</ele><time>2021-07-24T04:18:01Z</time></trkpt>
    <trkpt lat="47.57945" lon="12.32526"><ele>1043</ele><time>2021-07-24T04:18:19Z</time></trkpt>
    <trkpt lat="47.57951" lon="12.32509"><ele>1049</ele><time>2021-07-24T04:18:38Z</time></trkpt>
    <trkpt lat="47.57964" lon="12.32505"><ele>1049</ele><time>2021-07-24T04:18:57Z</time></trkpt>
    <trkpt lat="47.57960" lon="12.32486"><ele>1058</ele><time>2021-07-24T04:19:16Z</time></trkpt>
    <trkpt lat="47.57954" lon="12.32471"><ele>1061</ele><time>2021-07-24T04:19:34Z</time></trkpt>
    <trkpt lat="47.57952" lon="12.32452"><ele>1060</ele><time>2021-07-24T04:19:53Z</time></trkpt>
    <trkpt lat="47.57950" lon="12.32434"><ele>1061</ele><time>2021-07-24T04:20:12Z</time></trkpt>
    <trkpt lat="47.57948" lon="12.32415"><ele>1059</ele><time>2021-07-24T04:20:30Z</time></trkpt>
    <trkpt lat="47.57945" lon="12.32398"><ele>1060</ele><time>2021-07-24T04:20:49Z</time></trkpt>
    <trkpt lat="47.57946" lon="12.32380"><ele>1063</ele><time>2021-07-24T04:21:07Z</time></trkpt>
    <trkpt lat="47.57942" lon="12.32358"><ele>1066</ele><time>2021-07-24T04:21:26Z</time></trkpt>
    <trkpt lat="47.57937" lon="12.32339"><ele>1067</ele><time>2021-07-24T04:21:44Z</time></trkpt>
    <trkpt lat="47.57929" lon="12.32325"><ele>1071</ele><time>2021-07-24T04:22:02Z</time></trkpt>
    <trkpt lat="47.57922" lon="12.32308"><ele>1073</ele><time>2021-07-24T04:22:21Z</time></trkpt>
    <trkpt lat="47.57917" lon="12.32290"><ele>1077</ele><time>2021-07-24T04:22:40Z</time></trkpt>
    <trkpt lat="47.57919" lon="12.32271"><ele>1084</ele><time>2021-07-24T04:22:58Z</time></trkpt>
    <trkpt lat="47.57917" lon="12.32254"><ele>1089</ele><time>2021-07-24T04:23:17Z</time></trkpt>
    <trkpt lat="47.57907" lon="12.32267"><ele>1087</ele><time>2021-07-24T04:23:35Z</time></trkpt>
    <trkpt lat="47.57898" lon="12.32284"><ele>1091</ele><time>2021-07-24T04:23:54Z</time></trkpt>
    <trkpt lat="47.57890" lon="12.32301"><ele>1092</ele><time>2021-07-24T04:24:12Z</time></trkpt>
    <trkpt lat="47.57878" lon="12.32315"><ele>1092</ele><time>2021-07-24T04:24:31Z</time></trkpt>
    <trkpt lat="47.57868" lon="12.32322"><ele>1091</ele><time>2021-07-24T04:24:50Z</time></trkpt>
    <trkpt lat="47.57857" lon="12.32336"><ele>1097</ele><time>2021-07-24T04:25:09Z</time></trkpt>
    <trkpt lat="47.57851" lon="12.32349"><ele>1098</ele><time>2021-07-24T04:25:28Z</time></trkpt>
    <trkpt lat="47.57837" lon="12.32324"><ele>1099</ele><time>2021-07-24T04:26:06Z</time></trkpt>
    <trkpt lat="47.57833" lon="12.32310"><ele>1103</ele><time>2021-07-24T04:26:25Z</time></trkpt>
    <trkpt lat="47.57834" lon="12.32295"><ele>1108</ele><time>2021-07-24T04:26:43Z</time></trkpt>
    <trkpt lat="47.57834" lon="12.32280"><ele>1108</ele><time>2021-07-24T04:27:01Z</time></trkpt>
    <trkpt lat="47.57825" lon="12.32275"><ele>1111</ele><time>2021-07-24T04:27:20Z</time></trkpt>
    <trkpt lat="47.57810" lon="12.32286"><ele>1118</ele><time>2021-07-24T04:27:59Z</time></trkpt>
    <trkpt lat="47.57806" lon="12.32301"><ele>1118</ele><time>2021-07-24T04:28:18Z</time></trkpt>
    <trkpt lat="47.57799" lon="12.32328"><ele>1120</ele><time>2021-07-24T04:28:55Z</time></trkpt>
    <trkpt lat="47.57790" lon="12.32338"><ele>1126</ele><time>2021-07-24T04:29:13Z</time></trkpt>
    <trkpt lat="47.57780" lon="12.32353"><ele>1128</ele><time>2021-07-24T04:29:32Z</time></trkpt>
    <trkpt lat="47.57774" lon="12.32364"><ele>1132</ele><time>2021-07-24T04:29:50Z</time></trkpt>
    <trkpt lat="47.57766" lon="12.32376"><ele>1134</ele><time>2021-07-24T04:30:08Z</time></trkpt>
    <trkpt lat="47.57756" lon="12.32387"><ele>1136</ele><time>2021-07-24T04:30:27Z</time></trkpt>
    <trkpt lat="47.57751" lon="12.32409"><ele>1137</ele><time>2021-07-24T04:30:46Z</time></trkpt>
    <trkpt lat="47.57751" lon="12.32422"><ele>1138</ele><time>2021-07-24T04:31:04Z</time></trkpt>
    <trkpt lat="47.57748" lon="12.32437"><ele>1144</ele><time>2021-07-24T04:31:22Z</time></trkpt>
    <trkpt lat="47.57745" lon="12.32455"><ele>1150</ele><time>2021-07-24T04:31:41Z</time></trkpt>
    <trkpt lat="47.57734" lon="12.32464"><ele>1152</ele><time>2021-07-24T04:31:59Z</time></trkpt>
    <trkpt lat="47.57723" lon="12.32475"><ele>1153</ele><time>2021-07-24T04:32:17Z</time></trkpt>
    <trkpt lat="47.57712" lon="12.32481"><ele>1153</ele><time>2021-07-24T04:32:35Z</time></trkpt>
    <trkpt lat="47.57704" lon="12.32473"><ele>1158</ele><time>2021-07-24T04:33:22Z</time></trkpt>
    <trkpt lat="47.57710" lon="12.32450"><ele>1162</ele><time>2021-07-24T04:34:04Z</time></trkpt>
    <trkpt lat="47.57708" lon="12.32427"><ele>1174</ele><time>2021-07-24T04:34:47Z</time></trkpt>
    <trkpt lat="47.57693" lon="12.32441"><ele>1180</ele><time>2021-07-24T04:35:39Z</time></trkpt>
    <trkpt lat="47.57681" lon="12.32449"><ele>1180</ele><time>2021-07-24T04:35:57Z</time></trkpt>
    <trkpt lat="47.57669" lon="12.32457"><ele>1182</ele><time>2021-07-24T04:36:15Z</time></trkpt>
    <trkpt lat="47.57663" lon="12.32472"><ele>1185</ele><time>2021-07-24T04:36:34Z</time></trkpt>
    <trkpt lat="47.57651" lon="12.32478"><ele>1187</ele><time>2021-07-24T04:36:52Z</time></trkpt>
    <trkpt lat="47.57658" lon="12.32500"><ele>1190</ele><time>2021-07-24T04:37:11Z</time></trkpt>
    <trkpt lat="47.57662" lon="12.32523"><ele>1197</ele><time>2021-07-24T04:37:51Z</time></trkpt>
    <trkpt lat="47.57666" lon="12.32539"><ele>1200</ele><time>2021-07-24T04:38:10Z</time></trkpt>
    <trkpt lat="47.57661" lon="12.32565"><ele>1201</ele><time>2021-07-24T04:38:48Z</time></trkpt>
    <trkpt lat="47.57653" lon="12.32573"><ele>1202</ele><time>2021-07-24T04:39:06Z</time></trkpt>
    <trkpt lat="47.57635" lon="12.32588"><ele>1200</ele><time>2021-07-24T04:39:42Z</time></trkpt>
    <trkpt lat="47.57623" lon="12.32606"><ele>1209</ele><time>2021-07-24T04:40:49Z</time></trkpt>
    <trkpt lat="47.57613" lon="12.32628"><ele>1214</ele><time>2021-07-24T04:41:27Z</time></trkpt>
    <trkpt lat="47.57603" lon="12.32637"><ele>1215</ele><time>2021-07-24T04:41:45Z</time></trkpt>
    <trkpt lat="47.57593" lon="12.32642"><ele>1211</ele><time>2021-07-24T04:42:04Z</time></trkpt>
    <trkpt lat="47.57580" lon="12.32651"><ele>1228</ele><time>2021-07-24T04:43:06Z</time></trkpt>
    <trkpt lat="47.57574" lon="12.32663"><ele>1233</ele><time>2021-07-24T04:43:25Z</time></trkpt>
    <trkpt lat="47.57555" lon="12.32669"><ele>1234</ele><time>2021-07-24T04:44:08Z</time></trkpt>
    <trkpt lat="47.57543" lon="12.32692"><ele>1243</ele><time>2021-07-24T04:44:46Z</time></trkpt>
    <trkpt lat="47.57531" lon="12.32701"><ele>1244</ele><time>2021-07-24T04:45:05Z</time></trkpt>
    <trkpt lat="47.57522" lon="12.32709"><ele>1243</ele><time>2021-07-24T04:45:24Z</time></trkpt>
    <trkpt lat="47.57515" lon="12.32725"><ele>1250</ele><time>2021-07-24T04:45:42Z</time></trkpt>
    <trkpt lat="47.57502" lon="12.32732"><ele>1247</ele><time>2021-07-24T04:46:01Z</time></trkpt>
    <trkpt lat="47.57489" lon="12.32737"><ele>1248</ele><time>2021-07-24T04:46:20Z</time></trkpt>
    <trkpt lat="47.57473" lon="12.32732"><ele>1260</ele><time>2021-07-24T04:47:14Z</time></trkpt>
    <trkpt lat="47.57464" lon="12.32759"><ele>1264</ele><time>2021-07-24T04:47:52Z</time></trkpt>
    <trkpt lat="47.57455" lon="12.32779"><ele>1273</ele><time>2021-07-24T04:48:36Z</time></trkpt>
    <trkpt lat="47.57448" lon="12.32795"><ele>1272</ele><time>2021-07-24T04:48:55Z</time></trkpt>
    <trkpt lat="47.57445" lon="12.32810"><ele>1274</ele><time>2021-07-24T04:49:14Z</time></trkpt>
    <trkpt lat="47.57442" lon="12.32826"><ele>1275</ele><time>2021-07-24T04:49:33Z</time></trkpt>
    <trkpt lat="47.57444" lon="12.32841"><ele>1278</ele><time>2021-07-24T04:49:51Z</time></trkpt>
    <trkpt lat="47.57439" lon="12.32854"><ele>1280</ele><time>2021-07-24T04:50:10Z</time></trkpt>
    <trkpt lat="47.57435" lon="12.32883"><ele>1281</ele><time>2021-07-24T04:50:51Z</time></trkpt>
    <trkpt lat="47.57428" lon="12.32862"><ele>1288</ele><time>2021-07-24T04:51:36Z</time></trkpt>
    <trkpt lat="47.57420" lon="12.32851"><ele>1296</ele><time>2021-07-24T04:51:55Z</time></trkpt>
    <trkpt lat="47.57412" lon="12.32843"><ele>1292</ele><time>2021-07-24T04:52:13Z</time></trkpt>
    <trkpt lat="47.57404" lon="12.32833"><ele>1289</ele><time>2021-07-24T04:52:31Z</time></trkpt>
    <trkpt lat="47.57391" lon="12.32812"><ele>1287</ele><time>2021-07-24T04:53:09Z</time></trkpt>
    <trkpt lat="47.57397" lon="12.32788"><ele>1299</ele><time>2021-07-24T04:53:51Z</time></trkpt>
    <trkpt lat="47.57387" lon="12.32780"><ele>1300</ele><time>2021-07-24T04:54:09Z</time></trkpt>
    <trkpt lat="47.57377" lon="12.32801"><ele>1317</ele><time>2021-07-24T04:55:18Z</time></trkpt>
    <trkpt lat="47.57369" lon="12.32808"><ele>1318</ele><time>2021-07-24T04:55:37Z</time></trkpt>
    <trkpt lat="47.57367" lon="12.32824"><ele>1323</ele><time>2021-07-24T04:55:55Z</time></trkpt>
    <trkpt lat="47.57365" lon="12.32849"><ele>1323</ele><time>2021-07-24T04:56:37Z</time></trkpt>
    <trkpt lat="47.57349" lon="12.32843"><ele>1329</ele><time>2021-07-24T04:57:17Z</time></trkpt>
    <trkpt lat="47.57334" lon="12.32822"><ele>1332</ele><time>2021-07-24T04:57:56Z</time></trkpt>
    <trkpt lat="47.57327" lon="12.32798"><ele>1334</ele><time>2021-07-24T04:58:37Z</time></trkpt>
    <trkpt lat="47.57318" lon="12.32820"><ele>1345</ele><time>2021-07-24T04:59:23Z</time></trkpt>
    <trkpt lat="47.57306" lon="12.32838"><ele>1345</ele><time>2021-07-24T05:00:11Z</time></trkpt>
    <trkpt lat="47.57301" lon="12.32814"><ele>1359</ele><time>2021-07-24T05:00:57Z</time></trkpt>
    <trkpt lat="47.57295" lon="12.32830"><ele>1366</ele><time>2021-07-24T05:01:39Z</time></trkpt>
    <trkpt lat="47.57281" lon="12.32840"><ele>1374</ele><time>2021-07-24T05:02:27Z</time></trkpt>
    <trkpt lat="47.57276" lon="12.32854"><ele>1378</ele><time>2021-07-24T05:02:45Z</time></trkpt>
    <trkpt lat="47.57264" lon="12.32870"><ele>1379</ele><time>2021-07-24T05:03:29Z</time></trkpt>
    <trkpt lat="47.57251" lon="12.32886"><ele>1390</ele><time>2021-07-24T05:04:14Z</time></trkpt>
    <trkpt lat="47.57259" lon="12.32871"><ele>1400</ele><time>2021-07-24T05:04:33Z</time></trkpt>
    <trkpt lat="47.57262" lon="12.32855"><ele>1402</ele><time>2021-07-24T05:04:51Z</time></trkpt>
    <trkpt lat="47.57254" lon="12.32844"><ele>1397</ele><time>2021-07-24T05:05:10Z</time></trkpt>
    <trkpt lat="47.57250" lon="12.32831"><ele>1403</ele><time>2021-07-24T05:05:29Z</time></trkpt>
    <trkpt lat="47.57239" lon="12.32825"><ele>1402</ele><time>2021-07-24T05:05:48Z</time></trkpt>
    <trkpt lat="47.57232" lon="12.32817"><ele>1405</ele><time>2021-07-24T05:06:07Z</time></trkpt>
    <trkpt lat="47.57228" lon="12.32803"><ele>1412</ele><time>2021-07-24T05:06:25Z</time></trkpt>
    <trkpt lat="47.57225" lon="12.32779"><ele>1417</ele><time>2021-07-24T05:07:10Z</time></trkpt>
    <trkpt lat="47.57210" lon="12.32785"><ele>1423</ele><time>2021-07-24T05:08:19Z</time></trkpt>
    <trkpt lat="47.57199" lon="12.32773"><ele>1420</ele><time>2021-07-24T05:08:38Z</time></trkpt>
    <trkpt lat="47.57197" lon="12.32797"><ele>1430</ele><time>2021-07-24T05:09:24Z</time></trkpt>
    <trkpt lat="47.57192" lon="12.32811"><ele>1426</ele><time>2021-07-24T05:09:42Z</time></trkpt>
    <trkpt lat="47.57190" lon="12.32841"><ele>1425</ele><time>2021-07-24T05:10:22Z</time></trkpt>
    <trkpt lat="47.57177" lon="12.32825"><ele>1449</ele><time>2021-07-24T05:11:27Z</time></trkpt>
    <trkpt lat="47.57165" lon="12.32806"><ele>1451</ele><time>2021-07-24T05:12:05Z</time></trkpt>
    <trkpt lat="47.57150" lon="12.32793"><ele>1455</ele><time>2021-07-24T05:12:55Z</time></trkpt>
    <trkpt lat="47.57142" lon="12.32786"><ele>1457</ele><time>2021-07-24T05:13:13Z</time></trkpt>
    <trkpt lat="47.57134" lon="12.32814"><ele>1458</ele><time>2021-07-24T05:14:01Z</time></trkpt>
    <trkpt lat="47.57126" lon="12.32831"><ele>1469</ele><time>2021-07-24T05:14:46Z</time></trkpt>
    <trkpt lat="47.57110" lon="12.32825"><ele>1474</ele><time>2021-07-24T05:15:25Z</time></trkpt>
    <trkpt lat="47.57106" lon="12.32849"><ele>1479</ele><time>2021-07-24T05:16:17Z</time></trkpt>
    <trkpt lat="47.57102" lon="12.32874"><ele>1482</ele><time>2021-07-24T05:16:54Z</time></trkpt>
    <trkpt lat="47.57095" lon="12.32894"><ele>1488</ele><time>2021-07-24T05:17:41Z</time></trkpt>
    <trkpt lat="47.57084" lon="12.32910"><ele>1497</ele><time>2021-07-24T05:18:39Z</time></trkpt>
    <trkpt lat="47.57067" lon="12.32913"><ele>1503</ele><time>2021-07-24T05:19:37Z</time></trkpt>
    <trkpt lat="47.57053" lon="12.32921"><ele>1511</ele><time>2021-07-24T05:20:29Z</time></trkpt>
    <trkpt lat="47.57037" lon="12.32936"><ele>1516</ele><time>2021-07-24T05:21:25Z</time></trkpt>
    <trkpt lat="47.57038" lon="12.32952"><ele>1535</ele><time>2021-07-24T05:22:33Z</time></trkpt>
    <trkpt lat="47.57027" lon="12.32974"><ele>1523</ele><time>2021-07-24T05:23:10Z</time></trkpt>
    <trkpt lat="47.57021" lon="12.32995"><ele>1533</ele><time>2021-07-24T05:23:59Z</time></trkpt>
    <trkpt lat="47.57008" lon="12.32980"><ele>1545</ele><time>2021-07-24T05:25:00Z</time></trkpt>
    <trkpt lat="47.57001" lon="12.32971"><ele>1549</ele><time>2021-07-24T05:25:19Z</time></trkpt>
    <trkpt lat="47.56983" lon="12.32983"><ele>1556</ele><time>2021-07-24T05:25:56Z</time></trkpt>
    <trkpt lat="47.56983" lon="12.33006"><ele>1560</ele><time>2021-07-24T05:27:04Z</time></trkpt>
    <trkpt lat="47.56966" lon="12.33004"><ele>1573</ele><time>2021-07-24T05:28:27Z</time></trkpt>
    <trkpt lat="47.56960" lon="12.33018"><ele>1585</ele><time>2021-07-24T05:29:51Z</time></trkpt>
    <trkpt lat="47.56960" lon="12.33047"><ele>1589</ele><time>2021-07-24T05:30:33Z</time></trkpt>
    <trkpt lat="47.56955" lon="12.33071"><ele>1595</ele><time>2021-07-24T05:31:10Z</time></trkpt>
    <trkpt lat="47.56970" lon="12.33085"><ele>1589</ele><time>2021-07-24T05:32:03Z</time></trkpt>
    <trkpt lat="47.56963" lon="12.33075"><ele>1554</ele><time>2021-07-24T05:35:07Z</time></trkpt>
    <trkpt lat="47.56955" lon="12.33056"><ele>1194</ele><time>2021-07-24T05:35:26Z</time></trkpt>
    <trkpt lat="47.56948" lon="12.33039"><ele>1592</ele><time>2021-07-24T05:35:45Z</time></trkpt>
    <trkpt lat="47.56936" lon="12.33050"><ele>1614</ele><time>2021-07-24T05:44:37Z</time></trkpt>
    <trkpt lat="47.56935" lon="12.33065"><ele>1620</ele><time>2021-07-24T05:44:55Z</time></trkpt>
    <trkpt lat="47.56926" lon="12.33057"><ele>1618</ele><time>2021-07-24T05:45:53Z</time></trkpt>
    <trkpt lat="47.56917" lon="12.33063"><ele>1623</ele><time>2021-07-24T05:46:11Z</time></trkpt>
    <trkpt lat="47.56901" lon="12.33071"><ele>1628</ele><time>2021-07-24T05:46:52Z</time></trkpt>
    <trkpt lat="47.56886" lon="12.33084"><ele>1633</ele><time>2021-07-24T05:47:33Z</time></trkpt>
    <trkpt lat="47.56870" lon="12.33085"><ele>1641</ele><time>2021-07-24T05:48:14Z</time></trkpt>
    <trkpt lat="47.56862" lon="12.33107"><ele>1643</ele><time>2021-07-24T05:48:52Z</time></trkpt>
    <trkpt lat="47.56846" lon="12.33116"><ele>1648</ele><time>2021-07-24T05:49:32Z</time></trkpt>
    <trkpt lat="47.56831" lon="12.33124"><ele>1654</ele><time>2021-07-24T05:50:32Z</time></trkpt>
    <trkpt lat="47.56821" lon="12.33145"><ele>1664</ele><time>2021-07-24T05:51:21Z</time></trkpt>
    <trkpt lat="47.56808" lon="12.33159"><ele>1666</ele><time>2021-07-24T05:52:16Z</time></trkpt>
    <trkpt lat="47.56787" lon="12.33170"><ele>1656</ele><time>2021-07-24T05:53:40Z</time></trkpt>
    <trkpt lat="47.56780" lon="12.33186"><ele>1669</ele><time>2021-07-24T05:53:59Z</time></trkpt>
    <trkpt lat="47.56772" lon="12.33193"><ele>1668</ele><time>2021-07-24T05:54:17Z</time></trkpt>
    <trkpt lat="47.56762" lon="12.33197"><ele>1676</ele><time>2021-07-24T05:54:36Z</time></trkpt>
    <trkpt lat="47.56746" lon="12.33192"><ele>1680</ele><time>2021-07-24T05:55:19Z</time></trkpt>
    <trkpt lat="47.56736" lon="12.33217"><ele>1678</ele><time>2021-07-24T05:55:56Z</time></trkpt>
    <trkpt lat="47.56729" lon="12.33231"><ele>1685</ele><time>2021-07-24T05:56:14Z</time></trkpt>
    <trkpt lat="47.56721" lon="12.33247"><ele>1689</ele><time>2021-07-24T05:56:33Z</time></trkpt>
    <trkpt lat="47.56711" lon="12.33246"><ele>1689</ele><time>2021-07-24T05:56:52Z</time></trkpt>
    <trkpt lat="47.56696" lon="12.33241"><ele>1694</ele><time>2021-07-24T05:57:33Z</time></trkpt>
    <trkpt lat="47.56692" lon="12.33225"><ele>1674</ele><time>2021-07-24T05:57:52Z</time></trkpt>
    <trkpt lat="47.56683" lon="12.33230"><ele>1693</ele><time>2021-07-24T05:58:10Z</time></trkpt>
    <trkpt lat="47.56674" lon="12.33234"><ele>1697</ele><time>2021-07-24T05:58:28Z</time></trkpt>
    <trkpt lat="47.56660" lon="12.33246"><ele>1703</ele><time>2021-07-24T05:59:07Z</time></trkpt>
    <trkpt lat="47.56645" lon="12.33254"><ele>1711</ele><time>2021-07-24T06:00:15Z</time></trkpt>
    <trkpt lat="47.56640" lon="12.33270"><ele>1713</ele><time>2021-07-24T06:00:34Z</time></trkpt>
    <trkpt lat="47.56638" lon="12.33294"><ele>1720</ele><time>2021-07-24T06:01:14Z</time></trkpt>
    <trkpt lat="47.56629" lon="12.33322"><ele>1728</ele><time>2021-07-24T06:02:19Z</time></trkpt>
    <trkpt lat="47.56614" lon="12.33329"><ele>1735</ele><time>2021-07-24T06:02:59Z</time></trkpt>
    <trkpt lat="47.56601" lon="12.33344"><ele>1752</ele><time>2021-07-24T06:03:39Z</time></trkpt>
    <trkpt lat="47.56588" lon="12.33360"><ele>1758</ele><time>2021-07-24T06:04:29Z</time></trkpt>
    <trkpt lat="47.56582" lon="12.33374"><ele>1759</ele><time>2021-07-24T06:04:47Z</time></trkpt>
    <trkpt lat="47.56567" lon="12.33386"><ele>1759</ele><time>2021-07-24T06:05:31Z</time></trkpt>
    <trkpt lat="47.56553" lon="12.33395"><ele>1760</ele><time>2021-07-24T06:06:24Z</time></trkpt>
    <trkpt lat="47.56545" lon="12.33409"><ele>1763</ele><time>2021-07-24T06:06:43Z</time></trkpt>
    <trkpt lat="47.56540" lon="12.33430"><ele>1774</ele><time>2021-07-24T06:07:25Z</time></trkpt>
    <trkpt lat="47.56534" lon="12.33452"><ele>1782</ele><time>2021-07-24T06:08:04Z</time></trkpt>
    <trkpt lat="47.56526" lon="12.33476"><ele>1786</ele><time>2021-07-24T06:09:00Z</time></trkpt>
    <trkpt lat="47.56511" lon="12.33486"><ele>1794</ele><time>2021-07-24T06:09:58Z</time></trkpt>
    <trkpt lat="47.56502" lon="12.33489"><ele>1801</ele><time>2021-07-24T06:10:17Z</time></trkpt>
    <trkpt lat="47.56493" lon="12.33496"><ele>1803</ele><time>2021-07-24T06:10:35Z</time></trkpt>
    <trkpt lat="47.56488" lon="12.33519"><ele>1811</ele><time>2021-07-24T06:12:00Z</time></trkpt>
    <trkpt lat="47.56497" lon="12.33529"><ele>1813</ele><time>2021-07-24T06:12:19Z</time></trkpt>
    <trkpt lat="47.56487" lon="12.33541"><ele>1824</ele><time>2021-07-24T06:13:14Z</time></trkpt>
    <trkpt lat="47.56486" lon="12.33565"><ele>1824</ele><time>2021-07-24T06:14:03Z</time></trkpt>
    <trkpt lat="47.56473" lon="12.33588"><ele>1829</ele><time>2021-07-24T06:14:40Z</time></trkpt>
    <trkpt lat="47.56463" lon="12.33597"><ele>1834</ele><time>2021-07-24T06:14:58Z</time></trkpt>
    <trkpt lat="47.56447" lon="12.33605"><ele>1838</ele><time>2021-07-24T06:15:36Z</time></trkpt>
    <trkpt lat="47.56437" lon="12.33629"><ele>1842</ele><time>2021-07-24T06:16:20Z</time></trkpt>
    <trkpt lat="47.56423" lon="12.33640"><ele>1835</ele><time>2021-07-24T06:30:02Z</time></trkpt>
    <trkpt lat="47.56404" lon="12.33657"><ele>1837</ele><time>2021-07-24T06:30:51Z</time></trkpt>
    <trkpt lat="47.56398" lon="12.33669"><ele>1844</ele><time>2021-07-24T06:31:10Z</time></trkpt>
    <trkpt lat="47.56388" lon="12.33670"><ele>1846</ele><time>2021-07-24T06:31:28Z</time></trkpt>
    <trkpt lat="47.56369" lon="12.33683"><ele>1849</ele><time>2021-07-24T06:32:07Z</time></trkpt>
    <trkpt lat="47.56357" lon="12.33677"><ele>1851</ele><time>2021-07-24T06:32:26Z</time></trkpt>
    <trkpt lat="47.56346" lon="12.33676"><ele>1856</ele><time>2021-07-24T06:32:44Z</time></trkpt>
    <trkpt lat="47.56335" lon="12.33658"><ele>1861</ele><time>2021-07-24T06:33:27Z</time></trkpt>
    <trkpt lat="47.56331" lon="12.33644"><ele>1861</ele><time>2021-07-24T06:33:45Z</time></trkpt>
    <trkpt lat="47.56323" lon="12.33636"><ele>1862</ele><time>2021-07-24T06:34:04Z</time></trkpt>
    <trkpt lat="47.56310" lon="12.33625"><ele>1861</ele><time>2021-07-24T06:34:22Z</time></trkpt>
    <trkpt lat="47.56293" lon="12.33610"><ele>1857</ele><time>2021-07-24T06:34:41Z</time></trkpt>
    <trkpt lat="47.56282" lon="12.33601"><ele>1857</ele><time>2021-07-24T06:34:59Z</time></trkpt>
    <trkpt lat="47.56272" lon="12.33587"><ele>1852</ele><time>2021-07-24T06:35:49Z</time></trkpt>
    <trkpt lat="47.56256" lon="12.33586"><ele>1861</ele><time>2021-07-24T06:36:08Z</time></trkpt>
    <trkpt lat="47.56241" lon="12.33565"><ele>1865</ele><time>2021-07-24T06:37:52Z</time></trkpt>
    <trkpt lat="47.56228" lon="12.33560"><ele>1865</ele><time>2021-07-24T06:38:11Z</time></trkpt>
    <trkpt lat="47.56213" lon="12.33563"><ele>1868</ele><time>2021-07-24T06:38:30Z</time></trkpt>
    <trkpt lat="47.56199" lon="12.33565"><ele>1869</ele><time>2021-07-24T06:38:48Z</time></trkpt>
    <trkpt lat="47.56191" lon="12.33555"><ele>1870</ele><time>2021-07-24T06:39:06Z</time></trkpt>
    <trkpt lat="47.56181" lon="12.33552"><ele>1869</ele><time>2021-07-24T06:39:25Z</time></trkpt>
    <trkpt lat="47.56188" lon="12.33533"><ele>1869</ele><time>2021-07-24T06:40:36Z</time></trkpt>
    <trkpt lat="47.56198" lon="12.33514"><ele>1881</ele><time>2021-07-24T06:42:13Z</time></trkpt>
    <trkpt lat="47.56200" lon="12.33495"><ele>1891</ele><time>2021-07-24T06:43:18Z</time></trkpt>
    <trkpt lat="47.56193" lon="12.33475"><ele>1918</ele><time>2021-07-24T06:45:06Z</time></trkpt>
    <trkpt lat="47.56203" lon="12.33458"><ele>1942</ele><time>2021-07-24T06:47:48Z</time></trkpt>
    <trkpt lat="47.56218" lon="12.33446"><ele>1945</ele><time>2021-07-24T06:48:47Z</time></trkpt>
    <trkpt lat="47.56234" lon="12.33450"><ele>1952</ele><time>2021-07-24T06:49:51Z</time></trkpt>
    <trkpt lat="47.56250" lon="12.33455"><ele>1972</ele><time>2021-07-24T06:52:11Z</time></trkpt>
    <trkpt lat="47.56264" lon="12.33445"><ele>1991</ele><time>2021-07-24T06:54:12Z</time></trkpt>
    <trkpt lat="47.56279" lon="12.33441"><ele>2003</ele><time>2021-07-24T06:55:16Z</time></trkpt>
    <trkpt lat="47.56295" lon="12.33435"><ele>2022</ele><time>2021-07-24T06:58:12Z</time></trkpt>
    <trkpt lat="47.56310" lon="12.33433"><ele>2036</ele><time>2021-07-24T07:00:17Z</time></trkpt>
    <trkpt lat="47.56295" lon="12.33439"><ele>2031</ele><time>2021-07-24T07:22:38Z</time></trkpt>
    <trkpt lat="47.56280" lon="12.33438"><ele>1971</ele><time>2021-07-24T07:26:44Z</time></trkpt>
    <trkpt lat="47.56264" lon="12.33441"><ele>1999</ele><time>2021-07-24T07:27:56Z</time></trkpt>
    <trkpt lat="47.56249" lon="12.33451"><ele>1983</ele><time>2021-07-24T07:29:57Z</time></trkpt>
    <trkpt lat="47.56236" lon="12.33458"><ele>1967</ele><time>2021-07-24T07:34:02Z</time></trkpt>
    <trkpt lat="47.56219" lon="12.33447"><ele>1954</ele><time>2021-07-24T07:35:29Z</time></trkpt>
    <trkpt lat="47.56200" lon="12.33437"><ele>1946</ele><time>2021-07-24T07:36:05Z</time></trkpt>
    <trkpt lat="47.56181" lon="12.33429"><ele>1877</ele><time>2021-07-24T07:36:49Z</time></trkpt>
    <trkpt lat="47.56170" lon="12.33411"><ele>1950</ele><time>2021-07-24T07:37:34Z</time></trkpt>
    <trkpt lat="47.56158" lon="12.33415"><ele>1935</ele><time>2021-07-24T07:37:52Z</time></trkpt>
    <trkpt lat="47.56141" lon="12.33414"><ele>1934</ele><time>2021-07-24T07:38:11Z</time></trkpt>
    <trkpt lat="47.56130" lon="12.33410"><ele>1931</ele><time>2021-07-24T07:38:29Z</time></trkpt>
    <trkpt lat="47.56121" lon="12.33404"><ele>1929</ele><time>2021-07-24T07:38:48Z</time></trkpt>
    <trkpt lat="47.56106" lon="12.33399"><ele>1925</ele><time>2021-07-24T07:39:37Z</time></trkpt>
    <trkpt lat="47.56095" lon="12.33402"><ele>1913</ele><time>2021-07-24T07:39:55Z</time></trkpt>
    <trkpt lat="47.56085" lon="12.33414"><ele>1905</ele><time>2021-07-24T07:40:14Z</time></trkpt>
    <trkpt lat="47.56066" lon="12.33413"><ele>1902</ele><time>2021-07-24T07:41:00Z</time></trkpt>
    <trkpt lat="47.56058" lon="12.33431"><ele>1868</ele><time>2021-07-24T07:41:18Z</time></trkpt>
    <trkpt lat="47.56060" lon="12.33446"><ele>1885</ele><time>2021-07-24T07:41:37Z</time></trkpt>
    <trkpt lat="47.56072" lon="12.33455"><ele>1896</ele><time>2021-07-24T07:41:55Z</time></trkpt>
    <trkpt lat="47.56083" lon="12.33472"><ele>1885</ele><time>2021-07-24T07:42:14Z</time></trkpt>
    <trkpt lat="47.56095" lon="12.33489"><ele>1950</ele><time>2021-07-24T07:42:51Z</time></trkpt>
    <trkpt lat="47.56100" lon="12.33503"><ele>1883</ele><time>2021-07-24T07:43:10Z</time></trkpt>
    <trkpt lat="47.56116" lon="12.33499"><ele>1861</ele><time>2021-07-24T07:43:28Z</time></trkpt>
    <trkpt lat="47.56132" lon="12.33506"><ele>1885</ele><time>2021-07-24T07:43:47Z</time></trkpt>
    <trkpt lat="47.56143" lon="12.33525"><ele>1876</ele><time>2021-07-24T07:44:24Z</time></trkpt>
    <trkpt lat="47.56155" lon="12.33532"><ele>1876</ele><time>2021-07-24T07:44:42Z</time></trkpt>
    <trkpt lat="47.56168" lon="12.33544"><ele>1873</ele><time>2021-07-24T07:45:01Z</time></trkpt>
    <trkpt lat="47.56173" lon="12.33558"><ele>1866</ele><time>2021-07-24T07:45:20Z</time></trkpt>
    <trkpt lat="47.56183" lon="12.33560"><ele>1871</ele><time>2021-07-24T07:45:39Z</time></trkpt>
    <trkpt lat="47.56193" lon="12.33567"><ele>1868</ele><time>2021-07-24T07:45:58Z</time></trkpt>
    <trkpt lat="47.56209" lon="12.33568"><ele>1866</ele><time>2021-07-24T07:46:17Z</time></trkpt>
    <trkpt lat="47.56224" lon="12.33567"><ele>1869</ele><time>2021-07-24T07:46:35Z</time></trkpt>
    <trkpt lat="47.56234" lon="12.33568"><ele>1869</ele><time>2021-07-24T07:46:53Z</time></trkpt>
    <trkpt lat="47.56248" lon="12.33583"><ele>1869</ele><time>2021-07-24T07:47:11Z</time></trkpt>
    <trkpt lat="47.56261" lon="12.33594"><ele>1869</ele><time>2021-07-24T07:47:29Z</time></trkpt>
    <trkpt lat="47.56275" lon="12.33596"><ele>1867</ele><time>2021-07-24T07:47:48Z</time></trkpt>
    <trkpt lat="47.56285" lon="12.33605"><ele>1865</ele><time>2021-07-24T07:48:06Z</time></trkpt>
    <trkpt lat="47.56296" lon="12.33616"><ele>1858</ele><time>2021-07-24T07:48:25Z</time></trkpt>
    <trkpt lat="47.56309" lon="12.33629"><ele>1856</ele><time>2021-07-24T07:48:44Z</time></trkpt>
    <trkpt lat="47.56320" lon="12.33641"><ele>1856</ele><time>2021-07-24T07:49:02Z</time></trkpt>
    <trkpt lat="47.56329" lon="12.33660"><ele>1856</ele><time>2021-07-24T07:49:21Z</time></trkpt>
    <trkpt lat="47.56341" lon="12.33666"><ele>1856</ele><time>2021-07-24T07:49:40Z</time></trkpt>
    <trkpt lat="47.56351" lon="12.33680"><ele>1859</ele><time>2021-07-24T07:49:58Z</time></trkpt>
    <trkpt lat="47.56359" lon="12.33689"><ele>1859</ele><time>2021-07-24T07:50:17Z</time></trkpt>
    <trkpt lat="47.56373" lon="12.33707"><ele>1858</ele><time>2021-07-24T07:50:35Z</time></trkpt>
    <trkpt lat="47.56383" lon="12.33711"><ele>1853</ele><time>2021-07-24T07:50:54Z</time></trkpt>
    <trkpt lat="47.56400" lon="12.33710"><ele>1863</ele><time>2021-07-24T07:51:37Z</time></trkpt>
    <trkpt lat="47.56416" lon="12.33709"><ele>1861</ele><time>2021-07-24T07:52:21Z</time></trkpt>
    <trkpt lat="47.56418" lon="12.33693"><ele>1865</ele><time>2021-07-24T07:52:58Z</time></trkpt>
    <trkpt lat="47.56420" lon="12.33714"><ele>1862</ele><time>2021-07-24T07:53:16Z</time></trkpt>
    <trkpt lat="47.56434" lon="12.33726"><ele>1864</ele><time>2021-07-24T07:54:51Z</time></trkpt>
    <trkpt lat="47.56443" lon="12.33714"><ele>1863</ele><time>2021-07-24T07:55:10Z</time></trkpt>
    <trkpt lat="47.56457" lon="12.33710"><ele>1871</ele><time>2021-07-24T07:55:28Z</time></trkpt>
    <trkpt lat="47.56475" lon="12.33702"><ele>1868</ele><time>2021-07-24T07:55:47Z</time></trkpt>
    <trkpt lat="47.56488" lon="12.33710"><ele>1868</ele><time>2021-07-24T07:56:06Z</time></trkpt>
    <trkpt lat="47.56501" lon="12.33712"><ele>1867</ele><time>2021-07-24T07:56:24Z</time></trkpt>
    <trkpt lat="47.56510" lon="12.33720"><ele>1866</ele><time>2021-07-24T07:56:42Z</time></trkpt>
    <trkpt lat="47.56523" lon="12.33714"><ele>1864</ele><time>2021-07-24T07:57:00Z</time></trkpt>
    <trkpt lat="47.56533" lon="12.33706"><ele>1866</ele><time>2021-07-24T07:57:18Z</time></trkpt>
    <trkpt lat="47.56544" lon="12.33692"><ele>1873</ele><time>2021-07-24T07:57:37Z</time></trkpt>
    <trkpt lat="47.56558" lon="12.33686"><ele>1873</ele><time>2021-07-24T07:57:55Z</time></trkpt>
    <trkpt lat="47.56568" lon="12.33681"><ele>1873</ele><time>2021-07-24T07:58:13Z</time></trkpt>
    <trkpt lat="47.56585" lon="12.33675"><ele>1872</ele><time>2021-07-24T07:59:01Z</time></trkpt>
    <trkpt lat="47.56600" lon="12.33664"><ele>1893</ele><time>2021-07-24T08:01:37Z</time></trkpt>
    <trkpt lat="47.56614" lon="12.33654"><ele>1904</ele><time>2021-07-24T08:03:25Z</time></trkpt>
    <trkpt lat="47.56631" lon="12.33651"><ele>1923</ele><time>2021-07-24T08:05:10Z</time></trkpt>
    <trkpt lat="47.56644" lon="12.33638"><ele>1950</ele><time>2021-07-24T08:06:13Z</time></trkpt>
    <trkpt lat="47.56658" lon="12.33653"><ele>1945</ele><time>2021-07-24T08:07:25Z</time></trkpt>
    <trkpt lat="47.56667" lon="12.33672"><ele>1951</ele><time>2021-07-24T08:08:45Z</time></trkpt>
    <trkpt lat="47.56684" lon="12.33675"><ele>1959</ele><time>2021-07-24T08:09:30Z</time></trkpt>
    <trkpt lat="47.56700" lon="12.33681"><ele>1974</ele><time>2021-07-24T08:11:03Z</time></trkpt>
    <trkpt lat="47.56714" lon="12.33684"><ele>1987</ele><time>2021-07-24T08:12:17Z</time></trkpt>
    <trkpt lat="47.56729" lon="12.33680"><ele>2007</ele><time>2021-07-24T08:14:30Z</time></trkpt>
    <trkpt lat="47.56740" lon="12.33676"><ele>2007</ele><time>2021-07-24T08:14:48Z</time></trkpt>
    <trkpt lat="47.56748" lon="12.33662"><ele>2009</ele><time>2021-07-24T08:15:06Z</time></trkpt>
    <trkpt lat="47.56764" lon="12.33663"><ele>2011</ele><time>2021-07-24T08:15:59Z</time></trkpt>
    <trkpt lat="47.56780" lon="12.33665"><ele>1997</ele><time>2021-07-24T08:17:14Z</time></trkpt>
    <trkpt lat="47.56791" lon="12.33650"><ele>1990</ele><time>2021-07-24T08:18:06Z</time></trkpt>
    <trkpt lat="47.56804" lon="12.33656"><ele>1987</ele><time>2021-07-24T08:18:25Z</time></trkpt>
    <trkpt lat="47.56813" lon="12.33659"><ele>1985</ele><time>2021-07-24T08:18:44Z</time></trkpt>
    <trkpt lat="47.56829" lon="12.33657"><ele>1989</ele><time>2021-07-24T08:19:40Z</time></trkpt>
    <trkpt lat="47.56845" lon="12.33665"><ele>1998</ele><time>2021-07-24T08:20:32Z</time></trkpt>
    <trkpt lat="47.56856" lon="12.33685"><ele>1997</ele><time>2021-07-24T08:21:17Z</time></trkpt>
    <trkpt lat="47.56873" lon="12.33682"><ele>2000</ele><time>2021-07-24T08:22:07Z</time></trkpt>
    <trkpt lat="47.56884" lon="12.33677"><ele>2004</ele><time>2021-07-24T08:22:25Z</time></trkpt>
    <trkpt lat="47.56894" lon="12.33676"><ele>2000</ele><time>2021-07-24T08:22:44Z</time></trkpt>
    <trkpt lat="47.56907" lon="12.33669"><ele>2000</ele><time>2021-07-24T08:23:03Z</time></trkpt>
    <trkpt lat="47.56920" lon="12.33664"><ele>2000</ele><time>2021-07-24T08:23:22Z</time></trkpt>
    <trkpt lat="47.56933" lon="12.33661"><ele>1998</ele><time>2021-07-24T08:23:41Z</time></trkpt>
    <trkpt lat="47.56943" lon="12.33659"><ele>2000</ele><time>2021-07-24T08:24:00Z</time></trkpt>
    <trkpt lat="47.56921" lon="12.33667"><ele>2000</ele><time>2021-07-24T08:48:21Z</time></trkpt>
    <trkpt lat="47.56909" lon="12.33671"><ele>1998</ele><time>2021-07-24T08:48:40Z</time></trkpt>
    <trkpt lat="47.56899" lon="12.33672"><ele>1999</ele><time>2021-07-24T08:48:58Z</time></trkpt>
    <trkpt lat="47.56887" lon="12.33677"><ele>2001</ele><time>2021-07-24T08:49:17Z</time></trkpt>
    <trkpt lat="47.56875" lon="12.33680"><ele>2003</ele><time>2021-07-24T08:49:36Z</time></trkpt>
    <trkpt lat="47.56859" lon="12.33680"><ele>2000</ele><time>2021-07-24T08:50:18Z</time></trkpt>
    <trkpt lat="47.56845" lon="12.33668"><ele>1998</ele><time>2021-07-24T08:51:11Z</time></trkpt>
    <trkpt lat="47.56829" lon="12.33659"><ele>1993</ele><time>2021-07-24T08:51:48Z</time></trkpt>
    <trkpt lat="47.56819" lon="12.33659"><ele>1992</ele><time>2021-07-24T08:52:07Z</time></trkpt>
    <trkpt lat="47.56809" lon="12.33654"><ele>1988</ele><time>2021-07-24T08:52:26Z</time></trkpt>
    <trkpt lat="47.56792" lon="12.33659"><ele>1986</ele><time>2021-07-24T08:53:15Z</time></trkpt>
    <trkpt lat="47.56778" lon="12.33666"><ele>2003</ele><time>2021-07-24T08:54:48Z</time></trkpt>
    <trkpt lat="47.56761" lon="12.33663"><ele>2011</ele><time>2021-07-24T08:56:46Z</time></trkpt>
    <trkpt lat="47.56745" lon="12.33660"><ele>2012</ele><time>2021-07-24T08:57:38Z</time></trkpt>
    <trkpt lat="47.56738" lon="12.33669"><ele>2011</ele><time>2021-07-24T08:57:56Z</time></trkpt>
    <trkpt lat="47.56729" lon="12.33675"><ele>2011</ele><time>2021-07-24T08:58:15Z</time></trkpt>
    <trkpt lat="47.56716" lon="12.33675"><ele>2002</ele><time>2021-07-24T08:59:09Z</time></trkpt>
    <trkpt lat="47.56700" lon="12.33675"><ele>1998</ele><time>2021-07-24T09:00:04Z</time></trkpt>
    <trkpt lat="47.56686" lon="12.33661"><ele>1984</ele><time>2021-07-24T09:01:15Z</time></trkpt>
    <trkpt lat="47.56677" lon="12.33668"><ele>1981</ele><time>2021-07-24T09:01:34Z</time></trkpt>
    <trkpt lat="47.56667" lon="12.33661"><ele>1973</ele><time>2021-07-24T09:02:20Z</time></trkpt>
    <trkpt lat="47.56654" lon="12.33648"><ele>1960</ele><time>2021-07-24T09:03:16Z</time></trkpt>
    <trkpt lat="47.56639" lon="12.33641"><ele>1946</ele><time>2021-07-24T09:04:10Z</time></trkpt>
    <trkpt lat="47.56630" lon="12.33644"><ele>1944</ele><time>2021-07-24T09:04:29Z</time></trkpt>
    <trkpt lat="47.56614" lon="12.33642"><ele>1935</ele><time>2021-07-24T09:05:31Z</time></trkpt>
    <trkpt lat="47.56604" lon="12.33661"><ele>1915</ele><time>2021-07-24T09:06:55Z</time></trkpt>
    <trkpt lat="47.56589" lon="12.33670"><ele>1903</ele><time>2021-07-24T09:08:21Z</time></trkpt>
    <trkpt lat="47.56574" lon="12.33682"><ele>1890</ele><time>2021-07-24T09:09:31Z</time></trkpt>
    <trkpt lat="47.56568" lon="12.33659"><ele>1874</ele><time>2021-07-24T09:10:45Z</time></trkpt>
    <trkpt lat="47.56553" lon="12.33648"><ele>1863</ele><time>2021-07-24T09:11:26Z</time></trkpt>
    <trkpt lat="47.56538" lon="12.33624"><ele>1852</ele><time>2021-07-24T09:12:14Z</time></trkpt>
    <trkpt lat="47.56531" lon="12.33613"><ele>1850</ele><time>2021-07-24T09:12:32Z</time></trkpt>
    <trkpt lat="47.56520" lon="12.33595"><ele>1842</ele><time>2021-07-24T09:13:10Z</time></trkpt>
    <trkpt lat="47.56510" lon="12.33575"><ele>1838</ele><time>2021-07-24T09:14:05Z</time></trkpt>
    <trkpt lat="47.56494" lon="12.33558"><ele>1831</ele><time>2021-07-24T09:14:43Z</time></trkpt>
    <trkpt lat="47.56495" lon="12.33544"><ele>1827</ele><time>2021-07-24T09:15:01Z</time></trkpt>
    <trkpt lat="47.56503" lon="12.33534"><ele>1825</ele><time>2021-07-24T09:15:19Z</time></trkpt>
    <trkpt lat="47.56495" lon="12.33527"><ele>1825</ele><time>2021-07-24T09:15:38Z</time></trkpt>
    <trkpt lat="47.56492" lon="12.33497"><ele>1816</ele><time>2021-07-24T09:16:23Z</time></trkpt>
    <trkpt lat="47.56506" lon="12.33493"><ele>1813</ele><time>2021-07-24T09:16:42Z</time></trkpt>
    <trkpt lat="47.56519" lon="12.33478"><ele>1804</ele><time>2021-07-24T09:17:26Z</time></trkpt>
    <trkpt lat="47.56531" lon="12.33480"><ele>1803</ele><time>2021-07-24T09:17:45Z</time></trkpt>
    <trkpt lat="47.56528" lon="12.33460"><ele>1795</ele><time>2021-07-24T09:18:03Z</time></trkpt>
    <trkpt lat="47.56540" lon="12.33453"><ele>1793</ele><time>2021-07-24T09:18:22Z</time></trkpt>
    <trkpt lat="47.56537" lon="12.33434"><ele>1787</ele><time>2021-07-24T09:18:41Z</time></trkpt>
    <trkpt lat="47.56537" lon="12.33416"><ele>1780</ele><time>2021-07-24T09:19:00Z</time></trkpt>
    <trkpt lat="47.56545" lon="12.33406"><ele>1776</ele><time>2021-07-24T09:19:18Z</time></trkpt>
    <trkpt lat="47.56558" lon="12.33398"><ele>1774</ele><time>2021-07-24T09:19:36Z</time></trkpt>
    <trkpt lat="47.56570" lon="12.33390"><ele>1811</ele><time>2021-07-24T09:19:55Z</time></trkpt>
    <trkpt lat="47.56578" lon="12.33379"><ele>1774</ele><time>2021-07-24T09:20:13Z</time></trkpt>
    <trkpt lat="47.56589" lon="12.33372"><ele>1767</ele><time>2021-07-24T09:20:32Z</time></trkpt>
    <trkpt lat="47.56599" lon="12.33366"><ele>1765</ele><time>2021-07-24T09:20:51Z</time></trkpt>
    <trkpt lat="47.56615" lon="12.33364"><ele>1769</ele><time>2021-07-24T09:21:44Z</time></trkpt>
    <trkpt lat="47.56630" lon="12.33348"><ele>1755</ele><time>2021-07-24T09:22:02Z</time></trkpt>
    <trkpt lat="47.56631" lon="12.33316"><ele>1741</ele><time>2021-07-24T09:22:20Z</time></trkpt>
    <trkpt lat="47.56630" lon="12.33290"><ele>1734</ele><time>2021-07-24T09:22:39Z</time></trkpt>
    <trkpt lat="47.56630" lon="12.33276"><ele>1720</ele><time>2021-07-24T09:23:04Z</time></trkpt>
    <trkpt lat="47.56634" lon="12.33253"><ele>1721</ele><time>2021-07-24T09:23:22Z</time></trkpt>
    <trkpt lat="47.56652" lon="12.33266"><ele>1720</ele><time>2021-07-24T09:24:08Z</time></trkpt>
    <trkpt lat="47.56669" lon="12.33254"><ele>1715</ele><time>2021-07-24T09:24:47Z</time></trkpt>
    <trkpt lat="47.56677" lon="12.33248"><ele>1707</ele><time>2021-07-24T09:25:05Z</time></trkpt>
    <trkpt lat="47.56689" lon="12.33240"><ele>1708</ele><time>2021-07-24T09:25:24Z</time></trkpt>
    <trkpt lat="47.56700" lon="12.33236"><ele>1708</ele><time>2021-07-24T09:25:42Z</time></trkpt>
    <trkpt lat="47.56708" lon="12.33254"><ele>1703</ele><time>2021-07-24T09:26:01Z</time></trkpt>
    <trkpt lat="47.56718" lon="12.33248"><ele>1698</ele><time>2021-07-24T09:26:19Z</time></trkpt>
    <trkpt lat="47.56735" lon="12.33212"><ele>1689</ele><time>2021-07-24T09:26:58Z</time></trkpt>
    <trkpt lat="47.56745" lon="12.33193"><ele>1687</ele><time>2021-07-24T09:27:16Z</time></trkpt>
    <trkpt lat="47.56757" lon="12.33191"><ele>1685</ele><time>2021-07-24T09:27:34Z</time></trkpt>
    <trkpt lat="47.56770" lon="12.33195"><ele>1681</ele><time>2021-07-24T09:27:52Z</time></trkpt>
    <trkpt lat="47.56790" lon="12.33184"><ele>1676</ele><time>2021-07-24T09:28:29Z</time></trkpt>
    <trkpt lat="47.56800" lon="12.33168"><ele>1671</ele><time>2021-07-24T09:28:47Z</time></trkpt>
    <trkpt lat="47.56809" lon="12.33154"><ele>1664</ele><time>2021-07-24T09:29:06Z</time></trkpt>
    <trkpt lat="47.56827" lon="12.33146"><ele>1662</ele><time>2021-07-24T09:29:44Z</time></trkpt>
    <trkpt lat="47.56833" lon="12.33135"><ele>1658</ele><time>2021-07-24T09:30:03Z</time></trkpt>
    <trkpt lat="47.56847" lon="12.33135"><ele>1650</ele><time>2021-07-24T09:30:50Z</time></trkpt>
    <trkpt lat="47.56858" lon="12.33128"><ele>1647</ele><time>2021-07-24T09:31:09Z</time></trkpt>
    <trkpt lat="47.56867" lon="12.33118"><ele>1643</ele><time>2021-07-24T09:31:28Z</time></trkpt>
    <trkpt lat="47.56872" lon="12.33105"><ele>1639</ele><time>2021-07-24T09:31:46Z</time></trkpt>
    <trkpt lat="47.56880" lon="12.33091"><ele>1636</ele><time>2021-07-24T09:32:05Z</time></trkpt>
    <trkpt lat="47.56892" lon="12.33096"><ele>1635</ele><time>2021-07-24T09:32:24Z</time></trkpt>
    <trkpt lat="47.56901" lon="12.33089"><ele>1634</ele><time>2021-07-24T09:32:43Z</time></trkpt>
    <trkpt lat="47.56908" lon="12.33080"><ele>1633</ele><time>2021-07-24T09:33:01Z</time></trkpt>
    <trkpt lat="47.56916" lon="12.33074"><ele>1629</ele><time>2021-07-24T09:33:20Z</time></trkpt>
    <trkpt lat="47.56929" lon="12.33068"><ele>1627</ele><time>2021-07-24T09:33:39Z</time></trkpt>
    <trkpt lat="47.56946" lon="12.33072"><ele>1612</ele><time>2021-07-24T09:34:18Z</time></trkpt>
    <trkpt lat="47.56948" lon="12.33042"><ele>1607</ele><time>2021-07-24T09:35:00Z</time></trkpt>
    <trkpt lat="47.56959" lon="12.33054"><ele>1602</ele><time>2021-07-24T09:35:18Z</time></trkpt>
    <trkpt lat="47.56965" lon="12.33027"><ele>1591</ele><time>2021-07-24T09:36:07Z</time></trkpt>
    <trkpt lat="47.56974" lon="12.33012"><ele>1590</ele><time>2021-07-24T09:36:59Z</time></trkpt>
    <trkpt lat="47.56992" lon="12.33014"><ele>1571</ele><time>2021-07-24T09:37:52Z</time></trkpt>
    <trkpt lat="47.56996" lon="12.32984"><ele>1570</ele><time>2021-07-24T09:38:29Z</time></trkpt>
    <trkpt lat="47.56984" lon="12.32967"><ele>1566</ele><time>2021-07-24T09:38:48Z</time></trkpt>
    <trkpt lat="47.56997" lon="12.32969"><ele>1561</ele><time>2021-07-24T09:39:06Z</time></trkpt>
    <trkpt lat="47.57007" lon="12.32969"><ele>1524</ele><time>2021-07-24T09:39:25Z</time></trkpt>
    <trkpt lat="47.57016" lon="12.32985"><ele>1551</ele><time>2021-07-24T09:39:44Z</time></trkpt>
    <trkpt lat="47.57030" lon="12.33002"><ele>1548</ele><time>2021-07-24T09:40:22Z</time></trkpt>
    <trkpt lat="47.57029" lon="12.32984"><ele>1734</ele><time>2021-07-24T09:40:41Z</time></trkpt>
    <trkpt lat="47.57037" lon="12.32974"><ele>1631</ele><time>2021-07-24T09:40:59Z</time></trkpt>
    <trkpt lat="47.57043" lon="12.32955"><ele>1571</ele><time>2021-07-24T09:41:18Z</time></trkpt>
    <trkpt lat="47.57037" lon="12.32936"><ele>1561</ele><time>2021-07-24T09:41:37Z</time></trkpt>
    <trkpt lat="47.57035" lon="12.32921"><ele>1542</ele><time>2021-07-24T09:41:55Z</time></trkpt>
    <trkpt lat="47.57046" lon="12.32928"><ele>1538</ele><time>2021-07-24T09:42:13Z</time></trkpt>
    <trkpt lat="47.57059" lon="12.32912"><ele>1519</ele><time>2021-07-24T09:43:03Z</time></trkpt>
    <trkpt lat="47.57075" lon="12.32911"><ele>1569</ele><time>2021-07-24T09:43:44Z</time></trkpt>
    <trkpt lat="47.57097" lon="12.32900"><ele>1503</ele><time>2021-07-24T09:44:27Z</time></trkpt>
    <trkpt lat="47.57105" lon="12.32886"><ele>1502</ele><time>2021-07-24T09:44:46Z</time></trkpt>
    <trkpt lat="47.57114" lon="12.32884"><ele>1488</ele><time>2021-07-24T09:45:04Z</time></trkpt>
    <trkpt lat="47.57108" lon="12.32858"><ele>1495</ele><time>2021-07-24T09:45:42Z</time></trkpt>
    <trkpt lat="47.57110" lon="12.32841"><ele>1493</ele><time>2021-07-24T09:46:01Z</time></trkpt>
    <trkpt lat="47.57111" lon="12.32820"><ele>1491</ele><time>2021-07-24T09:46:19Z</time></trkpt>
    <trkpt lat="47.57125" lon="12.32820"><ele>1476</ele><time>2021-07-24T09:47:07Z</time></trkpt>
    <trkpt lat="47.57140" lon="12.32832"><ele>1465</ele><time>2021-07-24T09:48:09Z</time></trkpt>
    <trkpt lat="47.57142" lon="12.32802"><ele>1457</ele><time>2021-07-24T09:48:48Z</time></trkpt>
    <trkpt lat="47.57150" lon="12.32791"><ele>1457</ele><time>2021-07-24T09:49:06Z</time></trkpt>
    <trkpt lat="47.57163" lon="12.32794"><ele>1455</ele><time>2021-07-24T09:49:25Z</time></trkpt>
    <trkpt lat="47.57177" lon="12.32802"><ele>1455</ele><time>2021-07-24T09:49:43Z</time></trkpt>
    <trkpt lat="47.57186" lon="12.32823"><ele>1450</ele><time>2021-07-24T09:50:20Z</time></trkpt>
    <trkpt lat="47.57200" lon="12.32836"><ele>1450</ele><time>2021-07-24T09:50:39Z</time></trkpt>
    <trkpt lat="47.57206" lon="12.32810"><ele>1433</ele><time>2021-07-24T09:51:49Z</time></trkpt>
    <trkpt lat="47.57204" lon="12.32791"><ele>1429</ele><time>2021-07-24T09:52:07Z</time></trkpt>
    <trkpt lat="47.57214" lon="12.32781"><ele>1422</ele><time>2021-07-24T09:52:25Z</time></trkpt>
    <trkpt lat="47.57224" lon="12.32789"><ele>1423</ele><time>2021-07-24T09:52:44Z</time></trkpt>
    <trkpt lat="47.57235" lon="12.32778"><ele>1422</ele><time>2021-07-24T09:53:03Z</time></trkpt>
    <trkpt lat="47.57239" lon="12.32810"><ele>1408</ele><time>2021-07-24T09:53:49Z</time></trkpt>
    <trkpt lat="47.57249" lon="12.32823"><ele>1408</ele><time>2021-07-24T09:54:07Z</time></trkpt>
    <trkpt lat="47.57257" lon="12.32831"><ele>1402</ele><time>2021-07-24T09:54:25Z</time></trkpt>
    <trkpt lat="47.57262" lon="12.32855"><ele>1403</ele><time>2021-07-24T09:56:17Z</time></trkpt>
    <trkpt lat="47.57259" lon="12.32879"><ele>1402</ele><time>2021-07-24T09:57:18Z</time></trkpt>
    <trkpt lat="47.57277" lon="12.32877"><ele>1395</ele><time>2021-07-24T09:57:56Z</time></trkpt>
    <trkpt lat="47.57288" lon="12.32869"><ele>1394</ele><time>2021-07-24T09:58:15Z</time></trkpt>
    <trkpt lat="47.57290" lon="12.32854"><ele>1382</ele><time>2021-07-24T09:58:34Z</time></trkpt>
    <trkpt lat="47.57302" lon="12.32836"><ele>1374</ele><time>2021-07-24T09:59:13Z</time></trkpt>
    <trkpt lat="47.57299" lon="12.32817"><ele>1373</ele><time>2021-07-24T09:59:32Z</time></trkpt>
    <trkpt lat="47.57316" lon="12.32816"><ele>1368</ele><time>2021-07-24T10:00:50Z</time></trkpt>
    <trkpt lat="47.57320" lon="12.32834"><ele>1366</ele><time>2021-07-24T10:01:09Z</time></trkpt>
    <trkpt lat="47.57331" lon="12.32835"><ele>1349</ele><time>2021-07-24T10:01:52Z</time></trkpt>
    <trkpt lat="47.57336" lon="12.32816"><ele>1352</ele><time>2021-07-24T10:02:11Z</time></trkpt>
    <trkpt lat="47.57340" lon="12.32837"><ele>1333</ele><time>2021-07-24T10:03:10Z</time></trkpt>
    <trkpt lat="47.57353" lon="12.32844"><ele>1333</ele><time>2021-07-24T10:03:28Z</time></trkpt>
    <trkpt lat="47.57362" lon="12.32852"><ele>1331</ele><time>2021-07-24T10:03:46Z</time></trkpt>
    <trkpt lat="47.57368" lon="12.32816"><ele>1329</ele><time>2021-07-24T10:04:34Z</time></trkpt>
    <trkpt lat="47.57383" lon="12.32814"><ele>1327</ele><time>2021-07-24T10:04:52Z</time></trkpt>
    <trkpt lat="47.57397" lon="12.32801"><ele>1328</ele><time>2021-07-24T10:05:10Z</time></trkpt>
    <trkpt lat="47.57397" lon="12.32788"><ele>1332</ele><time>2021-07-24T10:05:31Z</time></trkpt>
    <trkpt lat="47.57409" lon="12.32785"><ele>1327</ele><time>2021-07-24T10:05:49Z</time></trkpt>
    <trkpt lat="47.57408" lon="12.32812"><ele>1306</ele><time>2021-07-24T10:06:27Z</time></trkpt>
    <trkpt lat="47.57419" lon="12.32837"><ele>1297</ele><time>2021-07-24T10:07:04Z</time></trkpt>
    <trkpt lat="47.57432" lon="12.32850"><ele>1295</ele><time>2021-07-24T10:07:23Z</time></trkpt>
    <trkpt lat="47.57430" lon="12.32880"><ele>1280</ele><time>2021-07-24T10:08:02Z</time></trkpt>
    <trkpt lat="47.57441" lon="12.32858"><ele>1273</ele><time>2021-07-24T10:08:44Z</time></trkpt>
    <trkpt lat="47.57451" lon="12.32840"><ele>1276</ele><time>2021-07-24T10:09:02Z</time></trkpt>
    <trkpt lat="47.57446" lon="12.32820"><ele>1274</ele><time>2021-07-24T10:10:03Z</time></trkpt>
    <trkpt lat="47.57452" lon="12.32791"><ele>1273</ele><time>2021-07-24T10:18:19Z</time></trkpt>
    <trkpt lat="47.57461" lon="12.32782"><ele>1272</ele><time>2021-07-24T10:18:37Z</time></trkpt>
    <trkpt lat="47.57464" lon="12.32766"><ele>1268</ele><time>2021-07-24T10:18:56Z</time></trkpt>
    <trkpt lat="47.57482" lon="12.32745"><ele>1273</ele><time>2021-07-24T10:19:14Z</time></trkpt>
    <trkpt lat="47.57497" lon="12.32736"><ele>1259</ele><time>2021-07-24T10:20:10Z</time></trkpt>
    <trkpt lat="47.57509" lon="12.32728"><ele>1251</ele><time>2021-07-24T10:20:29Z</time></trkpt>
    <trkpt lat="47.57521" lon="12.32718"><ele>1250</ele><time>2021-07-24T10:20:48Z</time></trkpt>
    <trkpt lat="47.57533" lon="12.32708"><ele>1244</ele><time>2021-07-24T10:21:07Z</time></trkpt>
    <trkpt lat="47.57551" lon="12.32696"><ele>1249</ele><time>2021-07-24T10:21:25Z</time></trkpt>
    <trkpt lat="47.57557" lon="12.32676"><ele>1244</ele><time>2021-07-24T10:21:44Z</time></trkpt>
    <trkpt lat="47.57562" lon="12.32664"><ele>1242</ele><time>2021-07-24T10:22:02Z</time></trkpt>
    <trkpt lat="47.57572" lon="12.32657"><ele>1238</ele><time>2021-07-24T10:22:20Z</time></trkpt>
    <trkpt lat="47.57586" lon="12.32652"><ele>1222</ele><time>2021-07-24T10:22:39Z</time></trkpt>
    <trkpt lat="47.57595" lon="12.32655"><ele>1223</ele><time>2021-07-24T10:23:09Z</time></trkpt>
    <trkpt lat="47.57606" lon="12.32652"><ele>1228</ele><time>2021-07-24T10:23:28Z</time></trkpt>
    <trkpt lat="47.57620" lon="12.32640"><ele>1229</ele><time>2021-07-24T10:23:46Z</time></trkpt>
    <trkpt lat="47.57634" lon="12.32629"><ele>1232</ele><time>2021-07-24T10:24:04Z</time></trkpt>
    <trkpt lat="47.57644" lon="12.32610"><ele>1215</ele><time>2021-07-24T10:25:09Z</time></trkpt>
    <trkpt lat="47.57646" lon="12.32593"><ele>1213</ele><time>2021-07-24T10:25:28Z</time></trkpt>
    <trkpt lat="47.57656" lon="12.32582"><ele>1208</ele><time>2021-07-24T10:25:46Z</time></trkpt>
    <trkpt lat="47.57663" lon="12.32565"><ele>1204</ele><time>2021-07-24T10:26:05Z</time></trkpt>
    <trkpt lat="47.57665" lon="12.32544"><ele>1198</ele><time>2021-07-24T10:26:23Z</time></trkpt>
    <trkpt lat="47.57670" lon="12.32526"><ele>1201</ele><time>2021-07-24T10:26:41Z</time></trkpt>
    <trkpt lat="47.57659" lon="12.32508"><ele>1199</ele><time>2021-07-24T10:27:00Z</time></trkpt>
    <trkpt lat="47.57671" lon="12.32483"><ele>1201</ele><time>2021-07-24T10:27:36Z</time></trkpt>
    <trkpt lat="47.57673" lon="12.32465"><ele>1197</ele><time>2021-07-24T10:27:55Z</time></trkpt>
    <trkpt lat="47.57685" lon="12.32450"><ele>1188</ele><time>2021-07-24T10:28:13Z</time></trkpt>
    <trkpt lat="47.57699" lon="12.32438"><ele>1190</ele><time>2021-07-24T10:28:32Z</time></trkpt>
    <trkpt lat="47.57702" lon="12.32422"><ele>1180</ele><time>2021-07-24T10:28:51Z</time></trkpt>
    <trkpt lat="47.57710" lon="12.32430"><ele>1174</ele><time>2021-07-24T10:29:09Z</time></trkpt>
    <trkpt lat="47.57713" lon="12.32445"><ele>1165</ele><time>2021-07-24T10:29:27Z</time></trkpt>
    <trkpt lat="47.57704" lon="12.32459"><ele>1158</ele><time>2021-07-24T10:29:46Z</time></trkpt>
    <trkpt lat="47.57700" lon="12.32474"><ele>1161</ele><time>2021-07-24T10:30:05Z</time></trkpt>
    <trkpt lat="47.57725" lon="12.32469"><ele>1154</ele><time>2021-07-24T10:31:03Z</time></trkpt>
    <trkpt lat="47.57742" lon="12.32455"><ele>1152</ele><time>2021-07-24T10:31:21Z</time></trkpt>
    <trkpt lat="47.57750" lon="12.32433"><ele>1158</ele><time>2021-07-24T10:31:40Z</time></trkpt>
    <trkpt lat="47.57754" lon="12.32412"><ele>1151</ele><time>2021-07-24T10:31:59Z</time></trkpt>
    <trkpt lat="47.57768" lon="12.32391"><ele>1144</ele><time>2021-07-24T10:32:18Z</time></trkpt>
    <trkpt lat="47.57780" lon="12.32371"><ele>1138</ele><time>2021-07-24T10:32:36Z</time></trkpt>
    <trkpt lat="47.57794" lon="12.32355"><ele>1132</ele><time>2021-07-24T10:32:54Z</time></trkpt>
    <trkpt lat="47.57810" lon="12.32338"><ele>1130</ele><time>2021-07-24T10:33:12Z</time></trkpt>
    <trkpt lat="47.57812" lon="12.32312"><ele>1121</ele><time>2021-07-24T10:33:31Z</time></trkpt>
    <trkpt lat="47.57819" lon="12.32295"><ele>1121</ele><time>2021-07-24T10:33:49Z</time></trkpt>
    <trkpt lat="47.57831" lon="12.32279"><ele>1123</ele><time>2021-07-24T10:34:08Z</time></trkpt>
    <trkpt lat="47.57844" lon="12.32277"><ele>1116</ele><time>2021-07-24T10:34:26Z</time></trkpt>
    <trkpt lat="47.57843" lon="12.32301"><ele>1111</ele><time>2021-07-24T10:34:45Z</time></trkpt>
    <trkpt lat="47.57844" lon="12.32329"><ele>1111</ele><time>2021-07-24T10:35:04Z</time></trkpt>
    <trkpt lat="47.57847" lon="12.32346"><ele>1099</ele><time>2021-07-24T10:35:22Z</time></trkpt>
    <trkpt lat="47.57858" lon="12.32356"><ele>1102</ele><time>2021-07-24T10:35:41Z</time></trkpt>
    <trkpt lat="47.57859" lon="12.32329"><ele>1104</ele><time>2021-07-24T10:35:59Z</time></trkpt>
    <trkpt lat="47.57876" lon="12.32318"><ele>1101</ele><time>2021-07-24T10:36:18Z</time></trkpt>
    <trkpt lat="47.57892" lon="12.32304"><ele>1095</ele><time>2021-07-24T10:36:37Z</time></trkpt>
    <trkpt lat="47.57911" lon="12.32288"><ele>1092</ele><time>2021-07-24T10:36:55Z</time></trkpt>
    <trkpt lat="47.57919" lon="12.32268"><ele>1081</ele><time>2021-07-24T10:37:14Z</time></trkpt>
    <trkpt lat="47.57930" lon="12.32270"><ele>1091</ele><time>2021-07-24T10:37:33Z</time></trkpt>
    <trkpt lat="47.57924" lon="12.32294"><ele>1083</ele><time>2021-07-24T10:37:51Z</time></trkpt>
    <trkpt lat="47.57925" lon="12.32318"><ele>1152</ele><time>2021-07-24T10:38:10Z</time></trkpt>
    <trkpt lat="47.57939" lon="12.32334"><ele>1086</ele><time>2021-07-24T10:38:29Z</time></trkpt>
    <trkpt lat="47.57943" lon="12.32355"><ele>1076</ele><time>2021-07-24T10:38:48Z</time></trkpt>
    <trkpt lat="47.57943" lon="12.32383"><ele>1070</ele><time>2021-07-24T10:39:07Z</time></trkpt>
    <trkpt lat="47.57941" lon="12.32408"><ele>1067</ele><time>2021-07-24T10:39:25Z</time></trkpt>
    <trkpt lat="47.57948" lon="12.32428"><ele>1063</ele><time>2021-07-24T10:39:43Z</time></trkpt>
    <trkpt lat="47.57952" lon="12.32446"><ele>1054</ele><time>2021-07-24T10:40:02Z</time></trkpt>
    <trkpt lat="47.57957" lon="12.32477"><ele>1053</ele><time>2021-07-24T10:40:21Z</time></trkpt>
    <trkpt lat="47.57966" lon="12.32504"><ele>1055</ele><time>2021-07-24T10:40:39Z</time></trkpt>
    <trkpt lat="47.57951" lon="12.32512"><ele>1051</ele><time>2021-07-24T10:40:57Z</time></trkpt>
    <trkpt lat="47.57952" lon="12.32538"><ele>1049</ele><time>2021-07-24T10:41:16Z</time></trkpt>
    <trkpt lat="47.57965" lon="12.32550"><ele>1049</ele><time>2021-07-24T10:41:34Z</time></trkpt>
    <trkpt lat="47.57968" lon="12.32573"><ele>1044</ele><time>2021-07-24T10:41:53Z</time></trkpt>
    <trkpt lat="47.57957" lon="12.32601"><ele>1042</ele><time>2021-07-24T10:42:11Z</time></trkpt>
    <trkpt lat="47.57962" lon="12.32629"><ele>1040</ele><time>2021-07-24T10:42:30Z</time></trkpt>
    <trkpt lat="47.57953" lon="12.32653"><ele>1062</ele><time>2021-07-24T10:42:49Z</time></trkpt>
    <trkpt lat="47.57946" lon="12.32670"><ele>1034</ele><time>2021-07-24T10:43:07Z</time></trkpt>
    <trkpt lat="47.57941" lon="12.32686"><ele>1027</ele><time>2021-07-24T10:43:25Z</time></trkpt>
    <trkpt lat="47.57930" lon="12.32713"><ele>1073</ele><time>2021-07-24T10:43:44Z</time></trkpt>
    <trkpt lat="47.57927" lon="12.32741"><ele>1026</ele><time>2021-07-24T10:44:02Z</time></trkpt>
    <trkpt lat="47.57910" lon="12.32748"><ele>1025</ele><time>2021-07-24T10:44:21Z</time></trkpt>
    <trkpt lat="47.57902" lon="12.32773"><ele>1015</ele><time>2021-07-24T10:44:39Z</time></trkpt>
    <trkpt lat="47.57899" lon="12.32804"><ele>1014</ele><time>2021-07-24T10:44:58Z</time></trkpt>
    <trkpt lat="47.57898" lon="12.32824"><ele>1005</ele><time>2021-07-24T10:45:16Z</time></trkpt>
    <trkpt lat="47.57893" lon="12.32850"><ele>1001</ele><time>2021-07-24T10:45:35Z</time></trkpt>
    <trkpt lat="47.57888" lon="12.32883"><ele>1002</ele><time>2021-07-24T10:45:53Z</time></trkpt>
    <trkpt lat="47.57887" lon="12.32914"><ele>1000</ele><time>2021-07-24T10:46:11Z</time></trkpt>
    <trkpt lat="47.57909" lon="12.32914"><ele>997</ele><time>2021-07-24T10:46:30Z</time></trkpt>
    <trkpt lat="47.57928" lon="12.32908"><ele>993</ele><time>2021-07-24T10:46:48Z</time></trkpt>
    <trkpt lat="47.57933" lon="12.32930"><ele>985</ele><time>2021-07-24T10:47:06Z</time></trkpt>
    <trkpt lat="47.57935" lon="12.32952"><ele>982</ele><time>2021-07-24T10:47:25Z</time></trkpt>
    <trkpt lat="47.57960" lon="12.32972"><ele>983</ele><time>2021-07-24T10:47:43Z</time></trkpt>
    <trkpt lat="47.57975" lon="12.32985"><ele>983</ele><time>2021-07-24T10:48:01Z</time></trkpt>
    <trkpt lat="47.57980" lon="12.33012"><ele>986</ele><time>2021-07-24T10:48:20Z</time></trkpt>
    <trkpt lat="47.57976" lon="12.33045"><ele>989</ele><time>2021-07-24T10:48:38Z</time></trkpt>
    <trkpt lat="47.57976" lon="12.33070"><ele>985</ele><time>2021-07-24T10:49:26Z</time></trkpt>
    <trkpt lat="47.57984" lon="12.33060"><ele>990</ele><time>2021-07-24T10:49:45Z</time></trkpt>
    <trkpt lat="47.57995" lon="12.33084"><ele>987</ele><time>2021-07-24T10:52:59Z</time></trkpt>
    <trkpt lat="47.57997" lon="12.33105"><ele>978</ele><time>2021-07-24T10:53:17Z</time></trkpt>
    <trkpt lat="47.57996" lon="12.33138"><ele>979</ele><time>2021-07-24T10:53:35Z</time></trkpt>
    <trkpt lat="47.58004" lon="12.33170"><ele>982</ele><time>2021-07-24T10:53:54Z</time></trkpt>
    <trkpt lat="47.58012" lon="12.33198"><ele>979</ele><time>2021-07-24T10:54:12Z</time></trkpt>
    <trkpt lat="47.58024" lon="12.33220"><ele>982</ele><time>2021-07-24T10:54:30Z</time></trkpt>
    <trkpt lat="47.58036" lon="12.33237"><ele>975</ele><time>2021-07-24T10:54:48Z</time></trkpt>
    <trkpt lat="47.58031" lon="12.33246"><ele>982</ele><time>2021-07-24T11:03:18Z</time></trkpt>
  </trkseg>
</trk>
</gpx>