<?xml version="1.0" encoding="UTF-8"?>
<gpx version="1.1" creator="GPX-Pro" xmlns="http://www.topografix.com/GPX/1/1">
<trk>
  <name>Festkogelturm NWd.Z</name>
  <trkseg>
    <trkpt lat="47.58377" lon="14.61235"><ele>623</ele><time>2021-08-13T03:38:23Z</time></trkpt>
    <trkpt lat="47.58367" lon="14.61229"><ele>624</ele><time>2021-08-13T03:38:24Z</time></trkpt>
    <trkpt lat="47.58352" lon="14.61238"><ele>606</ele><time>2021-08-13T03:38:43Z</time></trkpt>
    <trkpt lat="47.58324" lon="14.61243"><ele>619</ele><time>2021-08-13T03:39:28Z</time></trkpt>
    <trkpt lat="47.58309" lon="14.61254"><ele>620</ele><time>2021-08-13T03:39:47Z</time></trkpt>
    <trkpt lat="47.58293" lon="14.61256"><ele>622</ele><time>2021-08-13T03:40:05Z</time></trkpt>
    <trkpt lat="47.58279" lon="14.61263"><ele>625</ele><time>2021-08-13T03:40:23Z</time></trkpt>
    <trkpt lat="47.58265" lon="14.61276"><ele>626</ele><time>2021-08-13T03:40:42Z</time></trkpt>
    <trkpt lat="47.58253" lon="14.61278"><ele>626</ele><time>2021-08-13T03:41:00Z</time></trkpt>
    <trkpt lat="47.58235" lon="14.61287"><ele>632</ele><time>2021-08-13T03:41:18Z</time></trkpt>
    <trkpt lat="47.58220" lon="14.61293"><ele>637</ele><time>2021-08-13T03:41:36Z</time></trkpt>
    <trkpt lat="47.58204" lon="14.61295"><ele>637</ele><time>2021-08-13T03:41:55Z</time></trkpt>
    <trkpt lat="47.58188" lon="14.61296"><ele>644</ele><time>2021-08-13T03:42:13Z</time></trkpt>
    <trkpt lat="47.58175" lon="14.61289"><ele>638</ele><time>2021-08-13T03:42:32Z</time></trkpt>
    <trkpt lat="47.58161" lon="14.61293"><ele>640</ele><time>2021-08-13T03:42:50Z</time></trkpt>
    <trkpt lat="47.58146" lon="14.61299"><ele>647</ele><time>2021-08-13T03:43:09Z</time></trkpt>
    <trkpt lat="47.58129" lon="14.61305"><ele>651</ele><time>2021-08-13T03:43:27Z</time></trkpt>
    <trkpt lat="47.58111" lon="14.61312"><ele>650</ele><time>2021-08-13T03:43:46Z</time></trkpt>
    <trkpt lat="47.58098" lon="14.61326"><ele>653</ele><time>2021-08-13T03:44:04Z</time></trkpt>
    <trkpt lat="47.58090" lon="14.61345"><ele>653</ele><time>2021-08-13T03:44:23Z</time></trkpt>
    <trkpt lat="47.58074" lon="14.61350"><ele>656</ele><time>2021-08-13T03:44:42Z</time></trkpt>
    <trkpt lat="47.58064" lon="14.61338"><ele>658</ele><time>2021-08-13T03:45:00Z</time></trkpt>
    <trkpt lat="47.58054" lon="14.61328"><ele>663</ele><time>2021-08-13T03:45:18Z</time></trkpt>
    <trkpt lat="47.58039" lon="14.61321"><ele>663</ele><time>2021-08-13T03:45:37Z</time></trkpt>
    <trkpt lat="47.58023" lon="14.61311"><ele>667</ele><time>2021-08-13T03:45:56Z</time></trkpt>
    <trkpt lat="47.58007" lon="14.61309"><ele>670</ele><time>2021-08-13T03:46:14Z</time></trkpt>
    <trkpt lat="47.57998" lon="14.61307"><ele>668</ele><time>2021-08-13T03:46:33Z</time></trkpt>
    <trkpt lat="47.57983" lon="14.61307"><ele>668</ele><time>2021-08-13T03:46:51Z</time></trkpt>
    <trkpt lat="47.57973" lon="14.61309"><ele>677</ele><time>2021-08-13T03:47:09Z</time></trkpt>
    <trkpt lat="47.57961" lon="14.61312"><ele>681</ele><time>2021-08-13T03:47:28Z</time></trkpt>
    <trkpt lat="47.57950" lon="14.61319"><ele>685</ele><time>2021-08-13T03:47:47Z</time></trkpt>
    <trkpt lat="47.57938" lon="14.61326"><ele>688</ele><time>2021-08-13T03:48:05Z</time></trkpt>
    <trkpt lat="47.57926" lon="14.61334"><ele>690</ele><time>2021-08-13T03:48:23Z</time></trkpt>
    <trkpt lat="47.57915" lon="14.61337"><ele>690</ele><time>2021-08-13T03:48:42Z</time></trkpt>
    <trkpt lat="47.57903" lon="14.61341"><ele>689</ele><time>2021-08-13T03:49:01Z</time></trkpt>
    <trkpt lat="47.57893" lon="14.61348"><ele>691</ele><time>2021-08-13T03:49:20Z</time></trkpt>
    <trkpt lat="47.57884" lon="14.61353"><ele>694</ele><time>2021-08-13T03:49:39Z</time></trkpt>
    <trkpt lat="47.57877" lon="14.61364"><ele>697</ele><time>2021-08-13T03:49:58Z</time></trkpt>
    <trkpt lat="47.57865" lon="14.61375"><ele>701</ele><time>2021-08-13T03:50:16Z</time></trkpt>
    <trkpt lat="47.57852" lon="14.61380"><ele>705</ele><time>2021-08-13T03:50:35Z</time></trkpt>
    <trkpt lat="47.57838" lon="14.61390"><ele>704</ele><time>2021-08-13T03:50:53Z</time></trkpt>
    <trkpt lat="47.57825" lon="14.61394"><ele>711</ele><time>2021-08-13T03:51:12Z</time></trkpt>
    <trkpt lat="47.57816" lon="14.61396"><ele>710</ele><time>2021-08-13T03:51:30Z</time></trkpt>
    <trkpt lat="47.57805" lon="14.61407"><ele>713</ele><time>2021-08-13T03:51:49Z</time></trkpt>
    <trkpt lat="47.57793" lon="14.61409"><ele>717</ele><time>2021-08-13T03:52:07Z</time></trkpt>
    <trkpt lat="47.57781" lon="14.61415"><ele>718</ele><time>2021-08-13T03:52:26Z</time></trkpt>
    <trkpt lat="47.57771" lon="14.61416"><ele>720</ele><time>2021-08-13T03:52:45Z</time></trkpt>
    <trkpt lat="47.57761" lon="14.61422"><ele>722</ele><time>2021-08-13T03:53:04Z</time></trkpt>
    <trkpt lat="47.57749" lon="14.61428"><ele>728</ele><time>2021-08-13T03:53:23Z</time></trkpt>
    <trkpt lat="47.57738" lon="14.61435"><ele>729</ele><time>2021-08-13T03:53:42Z</time></trkpt>
    <trkpt lat="47.57726" lon="14.61438"><ele>731</ele><time>2021-08-13T03:54:00Z</time></trkpt>
    <trkpt lat="47.57716" lon="14.61445"><ele>731</ele><time>2021-08-13T03:54:19Z</time></trkpt>
    <trkpt lat="47.57704" lon="14.61444"><ele>734</ele><time>2021-08-13T03:54:38Z</time></trkpt>
    <trkpt lat="47.57686" lon="14.61433"><ele>740</ele><time>2021-08-13T03:55:15Z</time></trkpt>
    <trkpt lat="47.57673" lon="14.61438"><ele>740</ele><time>2021-08-13T03:55:34Z</time></trkpt>
    <trkpt lat="47.57663" lon="14.61444"><ele>737</ele><time>2021-08-13T03:55:53Z</time></trkpt>
    <trkpt lat="47.57652" lon="14.61442"><ele>744</ele><time>2021-08-13T03:56:11Z</time></trkpt>
    <trkpt lat="47.57643" lon="14.61430"><ele>750</ele><time>2021-08-13T03:56:30Z</time></trkpt>
    <trkpt lat="47.57633" lon="14.61433"><ele>754</ele><time>2021-08-13T03:56:49Z</time></trkpt>
    <trkpt lat="47.57620" lon="14.61436"><ele>757</ele><time>2021-08-13T03:57:07Z</time></trkpt>
    <trkpt lat="47.57608" lon="14.61426"><ele>757</ele><time>2021-08-13T03:57:25Z</time></trkpt>
    <trkpt lat="47.57600" lon="14.61430"><ele>758</ele><time>2021-08-13T03:57:44Z</time></trkpt>
    <trkpt lat="47.57592" lon="14.61439"><ele>753</ele><time>2021-08-13T03:58:02Z</time></trkpt>
    <trkpt lat="47.57575" lon="14.61442"><ele>765</ele><time>2021-08-13T03:58:55Z</time></trkpt>
    <trkpt lat="47.57559" lon="14.61449"><ele>767</ele><time>2021-08-13T03:59:32Z</time></trkpt>
    <trkpt lat="47.57539" lon="14.61442"><ele>780</ele><time>2021-08-13T04:00:10Z</time></trkpt>
    <trkpt lat="47.57519" lon="14.61449"><ele>774</ele><time>2021-08-13T04:00:55Z</time></trkpt>
    <trkpt lat="47.57511" lon="14.61462"><ele>773</ele><time>2021-08-13T04:01:32Z</time></trkpt>
    <trkpt lat="47.57504" lon="14.61483"><ele>789</ele><time>2021-08-13T04:02:10Z</time></trkpt>
    <trkpt lat="47.57499" lon="14.61496"><ele>782</ele><time>2021-08-13T04:02:29Z</time></trkpt>
    <trkpt lat="47.57490" lon="14.61501"><ele>794</ele><time>2021-08-13T04:02:47Z</time></trkpt>
    <trkpt lat="47.57474" lon="14.61493"><ele>801</ele><time>2021-08-13T04:03:29Z</time></trkpt>
    <trkpt lat="47.57465" lon="14.61473"><ele>799</ele><time>2021-08-13T04:04:11Z</time></trkpt>
    <trkpt lat="47.57463" lon="14.61447"><ele>804</ele><time>2021-08-13T04:04:48Z</time></trkpt>
    <trkpt lat="47.57451" lon="14.61428"><ele>817</ele><time>2021-08-13T04:05:35Z</time></trkpt>
    <trkpt lat="47.57435" lon="14.61433"><ele>820</ele><time>2021-08-13T04:06:21Z</time></trkpt>
    <trkpt lat="47.57423" lon="14.61422"><ele>836</ele><time>2021-08-13T04:07:24Z</time></trkpt>
    <trkpt lat="47.57416" lon="14.61442"><ele>831</ele><time>2021-08-13T04:08:01Z</time></trkpt>
    <trkpt lat="47.57399" lon="14.61431"><ele>845</ele><time>2021-08-13T04:08:46Z</time></trkpt>
    <trkpt lat="47.57387" lon="14.61448"><ele>856</ele><time>2021-08-13T04:09:35Z</time></trkpt>
    <trkpt lat="47.57381" lon="14.61459"><ele>852</ele><time>2021-08-13T04:09:54Z</time></trkpt>
    <trkpt lat="47.57374" lon="14.61432"><ele>856</ele><time>2021-08-13T04:10:38Z</time></trkpt>
    <trkpt lat="47.57357" lon="14.61424"><ele>827</ele><time>2021-08-13T04:10:56Z</time></trkpt>
    <trkpt lat="47.57347" lon="14.61406"><ele>864</ele><time>2021-08-13T04:11:15Z</time></trkpt>
    <trkpt lat="47.57342" lon="14.61394"><ele>863</ele><time>2021-08-13T04:11:33Z</time></trkpt>
    <trkpt lat="47.57354" lon="14.61376"><ele>863</ele><time>2021-08-13T04:11:51Z</time></trkpt>
    <trkpt lat="47.57349" lon="14.61352"><ele>866</ele><time>2021-08-13T04:12:09Z</time></trkpt>
    <trkpt lat="47.57338" lon="14.61342"><ele>867</ele><time>2021-08-13T04:12:28Z</time></trkpt>
    <trkpt lat="47.57324" lon="14.61351"><ele>863</ele><time>2021-08-13T04:12:46Z</time></trkpt>
    <trkpt lat="47.57311" lon="14.61346"><ele>868</ele><time>2021-08-13T04:13:05Z</time></trkpt>
    <trkpt lat="47.57303" lon="14.61329"><ele>870</ele><time>2021-08-13T04:13:23Z</time></trkpt>
    <trkpt lat="47.57292" lon="14.61329"><ele>874</ele><time>2021-08-13T04:13:42Z</time></trkpt>
    <trkpt lat="47.57276" lon="14.61336"><ele>882</ele><time>2021-08-13T04:14:59Z</time></trkpt>
    <trkpt lat="47.57263" lon="14.61349"><ele>903</ele><time>2021-08-13T04:16:23Z</time></trkpt>
    <trkpt lat="47.57258" lon="14.61361"><ele>867</ele><time>2021-08-13T04:16:42Z</time></trkpt>
    <trkpt lat="47.57252" lon="14.61373"><ele>896</ele><time>2021-08-13T04:17:01Z</time></trkpt>
    <trkpt lat="47.57248" lon="14.61389"><ele>892</ele><time>2021-08-13T04:17:20Z</time></trkpt>
    <trkpt lat="47.57239" lon="14.61401"><ele>910</ele><time>2021-08-13T04:17:39Z</time></trkpt>
    <trkpt lat="47.57235" lon="14.61422"><ele>916</ele><time>2021-08-13T04:18:24Z</time></trkpt>
    <trkpt lat="47.57214" lon="14.61421"><ele>884</ele><time>2021-08-13T04:19:29Z</time></trkpt>
    <trkpt lat="47.57198" lon="14.61418"><ele>927</ele><time>2021-08-13T04:20:43Z</time></trkpt>
    <trkpt lat="47.57185" lon="14.61419"><ele>939</ele><time>2021-08-13T04:21:49Z</time></trkpt>
    <trkpt lat="47.57175" lon="14.61418"><ele>941</ele><time>2021-08-13T04:22:08Z</time></trkpt>
    <trkpt lat="47.57166" lon="14.61413"><ele>942</ele><time>2021-08-13T04:22:27Z</time></trkpt>
    <trkpt lat="47.57156" lon="14.61410"><ele>944</ele><time>2021-08-13T04:22:45Z</time></trkpt>
    <trkpt lat="47.57141" lon="14.61419"><ele>947</ele><time>2021-08-13T04:24:06Z</time></trkpt>
    <trkpt lat="47.57132" lon="14.61422"><ele>950</ele><time>2021-08-13T04:24:25Z</time></trkpt>
    <trkpt lat="47.57123" lon="14.61418"><ele>952</ele><time>2021-08-13T04:24:43Z</time></trkpt>
    <trkpt lat="47.57113" lon="14.61427"><ele>949</ele><time>2021-08-13T04:25:02Z</time></trkpt>
    <trkpt lat="47.57106" lon="14.61440"><ele>952</ele><time>2021-08-13T04:25:21Z</time></trkpt>
    <trkpt lat="47.57090" lon="14.61462"><ele>951</ele><time>2021-08-13T04:26:30Z</time></trkpt>
    <trkpt lat="47.57085" lon="14.61480"><ele>951</ele><time>2021-08-13T04:26:48Z</time></trkpt>
    <trkpt lat="47.57073" lon="14.61480"><ele>946</ele><time>2021-08-13T04:27:07Z</time></trkpt>
    <trkpt lat="47.57056" lon="14.61493"><ele>949</ele><time>2021-08-13T04:27:44Z</time></trkpt>
    <trkpt lat="47.57047" lon="14.61502"><ele>956</ele><time>2021-08-13T04:28:03Z</time></trkpt>
    <trkpt lat="47.57038" lon="14.61501"><ele>960</ele><time>2021-08-13T04:28:22Z</time></trkpt>
    <trkpt lat="47.57019" lon="14.61499"><ele>962</ele><time>2021-08-13T04:29:02Z</time></trkpt>
    <trkpt lat="47.57002" lon="14.61505"><ele>970</ele><time>2021-08-13T04:29:39Z</time></trkpt>
    <trkpt lat="47.56985" lon="14.61508"><ele>971</ele><time>2021-08-13T04:30:20Z</time></trkpt>
    <trkpt lat="47.56970" lon="14.61518"><ele>972</ele><time>2021-08-13T04:30:56Z</time></trkpt>
    <trkpt lat="47.56962" lon="14.61522"><ele>978</ele><time>2021-08-13T04:31:15Z</time></trkpt>
    <trkpt lat="47.56952" lon="14.61506"><ele>988</ele><time>2021-08-13T04:31:34Z</time></trkpt>
    <trkpt lat="47.56943" lon="14.61509"><ele>990</ele><time>2021-08-13T04:31:52Z</time></trkpt>
    <trkpt lat="47.56929" lon="14.61513"><ele>997</ele><time>2021-08-13T04:32:10Z</time></trkpt>
    <trkpt lat="47.56918" lon="14.61514"><ele>996</ele><time>2021-08-13T04:32:29Z</time></trkpt>
    <trkpt lat="47.56900" lon="14.61514"><ele>999</ele><time>2021-08-13T04:33:10Z</time></trkpt>
    <trkpt lat="47.56885" lon="14.61524"><ele>995</ele><time>2021-08-13T04:33:52Z</time></trkpt>
    <trkpt lat="47.56872" lon="14.61537"><ele>1005</ele><time>2021-08-13T04:34:29Z</time></trkpt>
    <trkpt lat="47.56855" lon="14.61532"><ele>1011</ele><time>2021-08-13T04:35:08Z</time></trkpt>
    <trkpt lat="47.56838" lon="14.61535"><ele>1014</ele><time>2021-08-13T04:35:45Z</time></trkpt>
    <trkpt lat="47.56821" lon="14.61540"><ele>1014</ele><time>2021-08-13T04:36:25Z</time></trkpt>
    <trkpt lat="47.56806" lon="14.61542"><ele>984</ele><time>2021-08-13T04:37:09Z</time></trkpt>
    <trkpt lat="47.56790" lon="14.61541"><ele>1034</ele><time>2021-08-13T04:37:51Z</time></trkpt>
    <trkpt lat="47.56780" lon="14.61537"><ele>1044</ele><time>2021-08-13T04:38:10Z</time></trkpt>
    <trkpt lat="47.56773" lon="14.61562"><ele>1046</ele><time>2021-08-13T04:38:52Z</time></trkpt>
    <trkpt lat="47.56764" lon="14.61565"><ele>1044</ele><time>2021-08-13T04:39:11Z</time></trkpt>
    <trkpt lat="47.56761" lon="14.61543"><ele>1062</ele><time>2021-08-13T04:39:51Z</time></trkpt>
    <trkpt lat="47.56752" lon="14.61521"><ele>1066</ele><time>2021-08-13T04:40:59Z</time></trkpt>
    <trkpt lat="47.56745" lon="14.61506"><ele>1073</ele><time>2021-08-13T04:41:18Z</time></trkpt>
    <trkpt lat="47.56740" lon="14.61474"><ele>1078</ele><time>2021-08-13T04:42:00Z</time></trkpt>
    <trkpt lat="47.56742" lon="14.61458"><ele>1080</ele><time>2021-08-13T04:42:19Z</time></trkpt>
    <trkpt lat="47.56738" lon="14.61440"><ele>1077</ele><time>2021-08-13T04:42:38Z</time></trkpt>
    <trkpt lat="47.56738" lon="14.61424"><ele>1079</ele><time>2021-08-13T04:42:56Z</time></trkpt>
    <trkpt lat="47.56752" lon="14.61407"><ele>1077</ele><time>2021-08-13T04:43:42Z</time></trkpt>
    <trkpt lat="47.56741" lon="14.61400"><ele>1078</ele><time>2021-08-13T04:47:55Z</time></trkpt>
    <trkpt lat="47.56743" lon="14.61387"><ele>1095</ele><time>2021-08-13T04:48:13Z</time></trkpt>
    <trkpt lat="47.56746" lon="14.61357"><ele>1096</ele><time>2021-08-13T04:48:50Z</time></trkpt>
    <trkpt lat="47.56747" lon="14.61333"><ele>1113</ele><time>2021-08-13T04:49:35Z</time></trkpt>
    <trkpt lat="47.56736" lon="14.61322"><ele>1112</ele><time>2021-08-13T04:49:54Z</time></trkpt>
    <trkpt lat="47.56731" lon="14.61308"><ele>1112</ele><time>2021-08-13T04:50:12Z</time></trkpt>
    <trkpt lat="47.56728" lon="14.61295"><ele>1104</ele><time>2021-08-13T04:50:30Z</time></trkpt>
    <trkpt lat="47.56727" lon="14.61269"><ele>1115</ele><time>2021-08-13T04:51:15Z</time></trkpt>
    <trkpt lat="47.56723" lon="14.61256"><ele>1116</ele><time>2021-08-13T04:51:33Z</time></trkpt>
    <trkpt lat="47.56717" lon="14.61237"><ele>1115</ele><time>2021-08-13T04:51:51Z</time></trkpt>
    <trkpt lat="47.56707" lon="14.61221"><ele>1118</ele><time>2021-08-13T04:52:10Z</time></trkpt>
    <trkpt lat="47.56698" lon="14.61215"><ele>1118</ele><time>2021-08-13T04:52:28Z</time></trkpt>
    <trkpt lat="47.56679" lon="14.61214"><ele>1116</ele><time>2021-08-13T04:53:20Z</time></trkpt>
    <trkpt lat="47.56680" lon="14.61231"><ele>1118</ele><time>2021-08-13T04:53:39Z</time></trkpt>
    <trkpt lat="47.56668" lon="14.61254"><ele>1123</ele><time>2021-08-13T04:54:16Z</time></trkpt>
    <trkpt lat="47.56662" lon="14.61276"><ele>1126</ele><time>2021-08-13T04:54:35Z</time></trkpt>
    <trkpt lat="47.56667" lon="14.61295"><ele>1130</ele><time>2021-08-13T04:54:53Z</time></trkpt>
    <trkpt lat="47.56670" lon="14.61310"><ele>1124</ele><time>2021-08-13T04:55:11Z</time></trkpt>
    <trkpt lat="47.56671" lon="14.61329"><ele>1128</ele><time>2021-08-13T04:55:30Z</time></trkpt>
    <trkpt lat="47.56670" lon="14.61348"><ele>1132</ele><time>2021-08-13T04:55:48Z</time></trkpt>
    <trkpt lat="47.56664" lon="14.61362"><ele>1134</ele><time>2021-08-13T04:56:07Z</time></trkpt>
    <trkpt lat="47.56655" lon="14.61372"><ele>1134</ele><time>2021-08-13T04:56:25Z</time></trkpt>
    <trkpt lat="47.56652" lon="14.61386"><ele>1126</ele><time>2021-08-13T04:56:43Z</time></trkpt>
    <trkpt lat="47.56651" lon="14.61402"><ele>1141</ele><time>2021-08-13T04:57:01Z</time></trkpt>
    <trkpt lat="47.56641" lon="14.61423"><ele>1142</ele><time>2021-08-13T04:57:20Z</time></trkpt>
    <trkpt lat="47.56641" lon="14.61439"><ele>1072</ele><time>2021-08-13T04:57:39Z</time></trkpt>
    <trkpt lat="47.56639" lon="14.61456"><ele>1075</ele><time>2021-08-13T04:57:57Z</time></trkpt>
    <trkpt lat="47.56636" lon="14.61471"><ele>1124</ele><time>2021-08-13T04:58:15Z</time></trkpt>
    <trkpt lat="47.56624" lon="14.61489"><ele>1115</ele><time>2021-08-13T04:58:34Z</time></trkpt>
    <trkpt lat="47.56625" lon="14.61506"><ele>1121</ele><time>2021-08-13T04:58:53Z</time></trkpt>
    <trkpt lat="47.56631" lon="14.61521"><ele>1125</ele><time>2021-08-13T04:59:11Z</time></trkpt>
    <trkpt lat="47.56633" lon="14.61539"><ele>1119</ele><time>2021-08-13T04:59:30Z</time></trkpt>
    <trkpt lat="47.56622" lon="14.61546"><ele>1111</ele><time>2021-08-13T04:59:49Z</time></trkpt>
    <trkpt lat="47.56607" lon="14.61536"><ele>1130</ele><time>2021-08-13T05:00:53Z</time></trkpt>
    <trkpt lat="47.56591" lon="14.61529"><ele>1142</ele><time>2021-08-13T05:01:54Z</time></trkpt>
    <trkpt lat="47.56581" lon="14.61522"><ele>1162</ele><time>2021-08-13T05:03:24Z</time></trkpt>
    <trkpt lat="47.56567" lon="14.61532"><ele>1169</ele><time>2021-08-13T05:04:19Z</time></trkpt>
    <trkpt lat="47.56552" lon="14.61542"><ele>1183</ele><time>2021-08-13T05:05:43Z</time></trkpt>
    <trkpt lat="47.56537" lon="14.61546"><ele>1188</ele><time>2021-08-13T05:06:33Z</time></trkpt>
    <trkpt lat="47.56522" lon="14.61537"><ele>1178</ele><time>2021-08-13T05:07:30Z</time></trkpt>
    <trkpt lat="47.56509" lon="14.61525"><ele>1198</ele><time>2021-08-13T05:08:16Z</time></trkpt>
    <trkpt lat="47.56501" lon="14.61534"><ele>1165</ele><time>2021-08-13T05:08:34Z</time></trkpt>
    <trkpt lat="47.56489" lon="14.61537"><ele>1194</ele><time>2021-08-13T05:08:53Z</time></trkpt>
    <trkpt lat="47.56476" lon="14.61548"><ele>1196</ele><time>2021-08-13T05:09:11Z</time></trkpt>
    <trkpt lat="47.56467" lon="14.61548"><ele>1198</ele><time>2021-08-13T05:09:30Z</time></trkpt>
    <trkpt lat="47.56451" lon="14.61541"><ele>1211</ele><time>2021-08-13T05:10:29Z</time></trkpt>
    <trkpt lat="47.56436" lon="14.61533"><ele>1218</ele><time>2021-08-13T05:11:18Z</time></trkpt>
    <trkpt lat="47.56419" lon="14.61526"><ele>1228</ele><time>2021-08-13T05:12:12Z</time></trkpt>
    <trkpt lat="47.56404" lon="14.61518"><ele>1241</ele><time>2021-08-13T05:13:11Z</time></trkpt>
    <trkpt lat="47.56388" lon="14.61522"><ele>1253</ele><time>2021-08-13T05:14:13Z</time></trkpt>
    <trkpt lat="47.56373" lon="14.61510"><ele>1254</ele><time>2021-08-13T05:15:06Z</time></trkpt>
    <trkpt lat="47.56359" lon="14.61523"><ele>1262</ele><time>2021-08-13T05:15:51Z</time></trkpt>
    <trkpt lat="47.56343" lon="14.61519"><ele>1275</ele><time>2021-08-13T05:17:12Z</time></trkpt>
    <trkpt lat="47.56334" lon="14.61524"><ele>1279</ele><time>2021-08-13T05:17:30Z</time></trkpt>
    <trkpt lat="47.56320" lon="14.61513"><ele>1285</ele><time>2021-08-13T05:18:50Z</time></trkpt>
    <trkpt lat="47.56304" lon="14.61521"><ele>1286</ele><time>2021-08-13T05:19:34Z</time></trkpt>
    <trkpt lat="47.56290" lon="14.61535"><ele>1288</ele><time>2021-08-13T05:20:16Z</time></trkpt>
    <trkpt lat="47.56275" lon="14.61540"><ele>1310</ele><time>2021-08-13T05:21:21Z</time></trkpt>
    <trkpt lat="47.56270" lon="14.61554"><ele>1295</ele><time>2021-08-13T05:21:40Z</time></trkpt>
    <trkpt lat="47.56269" lon="14.61578"><ele>1322</ele><time>2021-08-13T05:22:43Z</time></trkpt>
    <trkpt lat="47.56258" lon="14.61597"><ele>1328</ele><time>2021-08-13T05:23:47Z</time></trkpt>
    <trkpt lat="47.56257" lon="14.61618"><ele>1322</ele><time>2021-08-13T05:24:05Z</time></trkpt>
    <trkpt lat="47.56265" lon="14.61639"><ele>1338</ele><time>2021-08-13T05:25:12Z</time></trkpt>
    <trkpt lat="47.56264" lon="14.61663"><ele>1362</ele><time>2021-08-13T05:26:16Z</time></trkpt>
    <trkpt lat="47.56256" lon="14.61682"><ele>1358</ele><time>2021-08-13T05:27:27Z</time></trkpt>
    <trkpt lat="47.56247" lon="14.61701"><ele>1310</ele><time>2021-08-13T05:28:34Z</time></trkpt>
    <trkpt lat="47.56235" lon="14.61710"><ele>1337</ele><time>2021-08-13T05:29:58Z</time></trkpt>
    <trkpt lat="47.56226" lon="14.61705"><ele>1359</ele><time>2021-08-13T05:30:17Z</time></trkpt>
    <trkpt lat="47.56223" lon="14.61728"><ele>1402</ele><time>2021-08-13T05:31:53Z</time></trkpt>
    <trkpt lat="47.56208" lon="14.61736"><ele>1432</ele><time>2021-08-13T05:33:26Z</time></trkpt>
    <trkpt lat="47.56191" lon="14.61734"><ele>1440</ele><time>2021-08-13T05:34:41Z</time></trkpt>
    <trkpt lat="47.56175" lon="14.61735"><ele>1449</ele><time>2021-08-13T05:35:46Z</time></trkpt>
    <trkpt lat="47.56161" lon="14.61738"><ele>1477</ele><time>2021-08-13T05:37:46Z</time></trkpt>
    <trkpt lat="47.56154" lon="14.61758"><ele>1442</ele><time>2021-08-13T05:39:04Z</time></trkpt>
    <trkpt lat="47.56141" lon="14.61773"><ele>1403</ele><time>2021-08-13T05:39:56Z</time></trkpt>
    <trkpt lat="47.56132" lon="14.61795"><ele>1456</ele><time>2021-08-13T05:40:42Z</time></trkpt>
    <trkpt lat="47.56134" lon="14.61817"><ele>1490</ele><time>2021-08-13T05:41:29Z</time></trkpt>
    <trkpt lat="47.56133" lon="14.61832"><ele>1495</ele><time>2021-08-13T05:42:33Z</time></trkpt>
    <trkpt lat="47.56124" lon="14.61836"><ele>1500</ele><time>2021-08-13T05:42:51Z</time></trkpt>
    <trkpt lat="47.56120" lon="14.61859"><ele>1509</ele><time>2021-08-13T05:44:00Z</time></trkpt>
    <trkpt lat="47.56110" lon="14.61863"><ele>1509</ele><time>2021-08-13T05:44:19Z</time></trkpt>
    <trkpt lat="47.56097" lon="14.61850"><ele>1524</ele><time>2021-08-13T05:45:06Z</time></trkpt>
    <trkpt lat="47.56085" lon="14.61853"><ele>1524</ele><time>2021-08-13T05:45:59Z</time></trkpt>
    <trkpt lat="47.56062" lon="14.61866"><ele>1510</ele><time>2021-08-13T05:47:36Z</time></trkpt>
    <trkpt lat="47.56047" lon="14.61860"><ele>1538</ele><time>2021-08-13T05:56:16Z</time></trkpt>
    <trkpt lat="47.56036" lon="14.61842"><ele>1542</ele><time>2021-08-13T05:58:18Z</time></trkpt>
    <trkpt lat="47.56026" lon="14.61838"><ele>1567</ele><time>2021-08-13T06:02:19Z</time></trkpt>
    <trkpt lat="47.56016" lon="14.61854"><ele>1569</ele><time>2021-08-13T06:05:34Z</time></trkpt>
    <trkpt lat="47.56012" lon="14.61871"><ele>1587</ele><time>2021-08-13T06:13:40Z</time></trkpt>
    <trkpt lat="47.55998" lon="14.61861"><ele>1597</ele><time>2021-08-13T06:16:45Z</time></trkpt>
    <trkpt lat="47.55982" lon="14.61879"><ele>1596</ele><time>2021-08-13T06:18:33Z</time></trkpt>
    <trkpt lat="47.55977" lon="14.61890"><ele>1595</ele><time>2021-08-13T06:18:52Z</time></trkpt>
    <trkpt lat="47.55970" lon="14.61907"><ele>1613</ele><time>2021-08-13T06:21:30Z</time></trkpt>
    <trkpt lat="47.55968" lon="14.61931"><ele>1628</ele><time>2021-08-13T06:22:51Z</time></trkpt>
    <trkpt lat="47.55955" lon="14.61942"><ele>1663</ele><time>2021-08-13T06:29:03Z</time></trkpt>
    <trkpt lat="47.55939" lon="14.61943"><ele>1669</ele><time>2021-08-13T06:32:01Z</time></trkpt>
    <trkpt lat="47.55950" lon="14.61960"><ele>1661</ele><time>2021-08-13T06:35:26Z</time></trkpt>
    <trkpt lat="47.55941" lon="14.61971"><ele>1700</ele><time>2021-08-13T06:40:08Z</time></trkpt>
    <trkpt lat="47.55925" lon="14.61975"><ele>1711</ele><time>2021-08-13T06:42:48Z</time></trkpt>
    <trkpt lat="47.55931" lon="14.61997"><ele>1721</ele><time>2021-08-13T06:49:03Z</time></trkpt>
    <trkpt lat="47.55948" lon="14.62000"><ele>1728</ele><time>2021-08-13T06:50:43Z</time></trkpt>
    <trkpt lat="47.55958" lon="14.62006"><ele>1730</ele><time>2021-08-13T06:51:01Z</time></trkpt>
    <trkpt lat="47.55964" lon="14.62026"><ele>1741</ele><time>2021-08-13T06:54:48Z</time></trkpt>
    <trkpt lat="47.55970" lon="14.62049"><ele>1741</ele><time>2021-08-13T06:57:16Z</time></trkpt>
    <trkpt lat="47.55978" lon="14.62070"><ele>1764</ele><time>2021-08-13T06:58:29Z</time></trkpt>
    <trkpt lat="47.55978" lon="14.62094"><ele>1780</ele><time>2021-08-13T07:00:53Z</time></trkpt>
    <trkpt lat="47.55979" lon="14.62118"><ele>1801</ele><time>2021-08-13T07:04:57Z</time></trkpt>
    <trkpt lat="47.55972" lon="14.62133"><ele>1796</ele><time>2021-08-13T07:12:22Z</time></trkpt>
    <trkpt lat="47.55962" lon="14.62152"><ele>1828</ele><time>2021-08-13T07:15:18Z</time></trkpt>
    <trkpt lat="47.55969" lon="14.62173"><ele>1839</ele><time>2021-08-13T07:17:09Z</time></trkpt>
    <trkpt lat="47.55975" lon="14.62195"><ele>1845</ele><time>2021-08-13T07:20:12Z</time></trkpt>
    <trkpt lat="47.55976" lon="14.62219"><ele>1867</ele><time>2021-08-13T07:23:36Z</time></trkpt>
    <trkpt lat="47.55980" lon="14.62242"><ele>1884</ele><time>2021-08-13T07:27:22Z</time></trkpt>
    <trkpt lat="47.55986" lon="14.62264"><ele>1891</ele><time>2021-08-13T07:58:37Z</time></trkpt>
    <trkpt lat="47.55971" lon="14.62274"><ele>1911</ele><time>2021-08-13T08:05:36Z</time></trkpt>
    <trkpt lat="47.55956" lon="14.62270"><ele>1957</ele><time>2021-08-13T08:26:52Z</time></trkpt>
    <trkpt lat="47.55944" lon="14.62280"><ele>1973</ele><time>2021-08-13T08:58:59Z</time></trkpt>
    <trkpt lat="47.55945" lon="14.62307"><ele>2018</ele><time>2021-08-13T10:05:43Z</time></trkpt>
    <trkpt lat="47.55944" lon="14.62327"><ele>2080</ele><time>2021-08-13T10:41:07Z</time></trkpt>
    <trkpt lat="47.55940" lon="14.62306"><ele>2110</ele><time>2021-08-13T11:34:34Z</time></trkpt>
    <trkpt lat="47.55936" lon="14.62283"><ele>2149</ele><time>2021-08-13T11:39:02Z</time></trkpt>
    <trkpt lat="47.55921" lon="14.62280"><ele>2175</ele><time>2021-08-13T12:14:13Z</time></trkpt>
    <trkpt lat="47.55905" lon="14.62283"><ele>2178</ele><time>2021-08-13T12:18:59Z</time></trkpt>
    <trkpt lat="47.55904" lon="14.62308"><ele>2195</ele><time>2021-08-13T12:38:23Z</time></trkpt>
    <trkpt lat="47.55908" lon="14.62332"><ele>2203</ele><time>2021-08-13T12:39:06Z</time></trkpt>
    <trkpt lat="47.55920" lon="14.62338"><ele>2209</ele><time>2021-08-13T12:40:15Z</time></trkpt>
    <trkpt lat="47.55909" lon="14.62345"><ele>2207</ele><time>2021-08-13T12:42:39Z</time></trkpt>
    <trkpt lat="47.55913" lon="14.62365"><ele>2198</ele><time>2021-08-13T12:43:19Z</time></trkpt>
    <trkpt lat="47.55913" lon="14.62381"><ele>2190</ele><time>2021-08-13T12:44:11Z</time></trkpt>
    <trkpt lat="47.55916" lon="14.62405"><ele>2181</ele><time>2021-08-13T12:44:49Z</time></trkpt>
    <trkpt lat="47.55912" lon="14.62425"><ele>2173</ele><time>2021-08-13T12:45:38Z</time></trkpt>
    <trkpt lat="47.55912" lon="14.62441"><ele>2167</ele><time>2021-08-13T12:45:57Z</time></trkpt>
    <trkpt lat="47.55914" lon="14.62466"><ele>2161</ele><time>2021-08-13T12:46:35Z</time></trkpt>
    <trkpt lat="47.55911" lon="14.62486"><ele>2157</ele><time>2021-08-13T12:46:53Z</time></trkpt>
    <trkpt lat="47.55924" lon="14.62490"><ele>2152</ele><time>2021-08-13T12:50:32Z</time></trkpt>
    <trkpt lat="47.55937" lon="14.62479"><ele>2124</ele><time>2021-08-13T12:56:27Z</time></trkpt>
    <trkpt lat="47.55937" lon="14.62461"><ele>2117</ele><time>2021-08-13T13:08:11Z</time></trkpt>
    <trkpt lat="47.55944" lon="14.62439"><ele>2061</ele><time>2021-08-13T13:12:34Z</time></trkpt>
    <trkpt lat="47.55948" lon="14.62415"><ele>2126</ele><time>2021-08-13T13:17:12Z</time></trkpt>
    <trkpt lat="47.55959" lon="14.62400"><ele>2095</ele><time>2021-08-13T13:20:06Z</time></trkpt>
    <trkpt lat="47.55971" lon="14.62385"><ele>2093</ele><time>2021-08-13T13:28:09Z</time></trkpt>
    <trkpt lat="47.55985" lon="14.62373"><ele>2117</ele><time>2021-08-13T13:32:55Z</time></trkpt>
    <trkpt lat="47.55988" lon="14.62358"><ele>2007</ele><time>2021-08-13T13:43:05Z</time></trkpt>
    <trkpt lat="47.56002" lon="14.62359"><ele>1990</ele><time>2021-08-13T13:49:14Z</time></trkpt>
    <trkpt lat="47.56019" lon="14.62362"><ele>1986</ele><time>2021-08-13T13:50:03Z</time></trkpt>
    <trkpt lat="47.56034" lon="14.62370"><ele>1975</ele><time>2021-08-13T13:52:08Z</time></trkpt>
    <trkpt lat="47.56047" lon="14.62385"><ele>1970</ele><time>2021-08-13T13:54:52Z</time></trkpt>
    <trkpt lat="47.56060" lon="14.62396"><ele>1976</ele><time>2021-08-13T13:57:23Z</time></trkpt>
    <trkpt lat="47.56065" lon="14.62375"><ele>1971</ele><time>2021-08-13T14:00:04Z</time></trkpt>
    <trkpt lat="47.56067" lon="14.62351"><ele>1968</ele><time>2021-08-13T14:01:28Z</time></trkpt>
    <trkpt lat="47.56076" lon="14.62342"><ele>1954</ele><time>2021-08-13T14:02:22Z</time></trkpt>
    <trkpt lat="47.56088" lon="14.62328"><ele>1932</ele><time>2021-08-13T14:06:42Z</time></trkpt>
    <trkpt lat="47.56110" lon="14.62315"><ele>1950</ele><time>2021-08-13T14:11:56Z</time></trkpt>
    <trkpt lat="47.56126" lon="14.62306"><ele>1880</ele><time>2021-08-13T14:18:06Z</time></trkpt>
    <trkpt lat="47.56139" lon="14.62307"><ele>1870</ele><time>2021-08-13T14:19:04Z</time></trkpt>
    <trkpt lat="47.56158" lon="14.62306"><ele>1901</ele><time>2021-08-13T14:20:43Z</time></trkpt>
    <trkpt lat="47.56170" lon="14.62310"><ele>1852</ele><time>2021-08-13T14:21:28Z</time></trkpt>
    <trkpt lat="47.56171" lon="14.62334"><ele>1834</ele><time>2021-08-13T14:25:12Z</time></trkpt>
    <trkpt lat="47.56183" lon="14.62342"><ele>1823</ele><time>2021-08-13T14:27:32Z</time></trkpt>
    <trkpt lat="47.56196" lon="14.62348"><ele>1808</ele><time>2021-08-13T14:32:18Z</time></trkpt>
    <trkpt lat="47.56212" lon="14.62346"><ele>1779</ele><time>2021-08-13T14:35:41Z</time></trkpt>
    <trkpt lat="47.56225" lon="14.62332"><ele>1793</ele><time>2021-08-13T14:38:45Z</time></trkpt>
    <trkpt lat="47.56229" lon="14.62308"><ele>1822</ele><time>2021-08-13T14:41:18Z</time></trkpt>
    <trkpt lat="47.56242" lon="14.62317"><ele>1791</ele><time>2021-08-13T14:51:49Z</time></trkpt>
    <trkpt lat="47.56250" lon="14.62298"><ele>1789</ele><time>2021-08-13T14:55:42Z</time></trkpt>
    <trkpt lat="47.56259" lon="14.62317"><ele>1706</ele><time>2021-08-13T14:57:23Z</time></trkpt>
    <trkpt lat="47.56275" lon="14.62315"><ele>1737</ele><time>2021-08-13T15:00:25Z</time></trkpt>
    <trkpt lat="47.56298" lon="14.62309"><ele>1670</ele><time>2021-08-13T15:04:26Z</time></trkpt>
    <trkpt lat="47.56320" lon="14.62208"><ele>1735</ele><time>2021-08-13T15:07:52Z</time></trkpt>
    <trkpt lat="47.56308" lon="14.62176"><ele>1659</ele><time>2021-08-13T15:09:08Z</time></trkpt>
    <trkpt lat="47.56304" lon="14.62153"><ele>1622</ele><time>2021-08-13T15:09:47Z</time></trkpt>
    <trkpt lat="47.56295" lon="14.62123"><ele>1659</ele><time>2021-08-13T15:11:25Z</time></trkpt>
    <trkpt lat="47.56278" lon="14.62106"><ele>1648</ele><time>2021-08-13T15:12:08Z</time></trkpt>
    <trkpt lat="47.56275" lon="14.62070"><ele>1671</ele><time>2021-08-13T15:13:50Z</time></trkpt>
    <trkpt lat="47.56276" lon="14.62016"><ele>1654</ele><time>2021-08-13T15:16:46Z</time></trkpt>
    <trkpt lat="47.56264" lon="14.62007"><ele>1627</ele><time>2021-08-13T15:17:33Z</time></trkpt>
    <trkpt lat="47.56247" lon="14.62010"><ele>1657</ele><time>2021-08-13T15:18:35Z</time></trkpt>
    <trkpt lat="47.56228" lon="14.62012"><ele>1601</ele><time>2021-08-13T15:19:13Z</time></trkpt>
    <trkpt lat="47.56219" lon="14.62009"><ele>1554</ele><time>2021-08-13T15:19:31Z</time></trkpt>
    <trkpt lat="47.56203" lon="14.62021"><ele>1554</ele><time>2021-08-13T15:20:11Z</time></trkpt>
    <trkpt lat="47.56185" lon="14.62018"><ele>1539</ele><time>2021-08-13T15:20:51Z</time></trkpt>
    <trkpt lat="47.56169" lon="14.61990"><ele>1567</ele><time>2021-08-13T15:22:41Z</time></trkpt>
    <trkpt lat="47.56179" lon="14.62001"><ele>1535</ele><time>2021-08-13T15:28:06Z</time></trkpt>
    <trkpt lat="47.56176" lon="14.61977"><ele>1542</ele><time>2021-08-13T15:28:25Z</time></trkpt>
    <trkpt lat="47.56177" lon="14.61962"><ele>1542</ele><time>2021-08-13T15:30:46Z</time></trkpt>
    <trkpt lat="47.56169" lon="14.61951"><ele>1532</ele><time>2021-08-13T15:31:04Z</time></trkpt>
    <trkpt lat="47.56159" lon="14.61947"><ele>1529</ele><time>2021-08-13T15:31:22Z</time></trkpt>
    <trkpt lat="47.56149" lon="14.61935"><ele>1526</ele><time>2021-08-13T15:31:41Z</time></trkpt>
    <trkpt lat="47.56133" lon="14.61921"><ele>1518</ele><time>2021-08-13T15:32:18Z</time></trkpt>
    <trkpt lat="47.56128" lon="14.61901"><ele>1509</ele><time>2021-08-13T15:32:37Z</time></trkpt>
    <trkpt lat="47.56125" lon="14.61885"><ele>1505</ele><time>2021-08-13T15:32:55Z</time></trkpt>
    <trkpt lat="47.56121" lon="14.61859"><ele>1503</ele><time>2021-08-13T15:33:34Z</time></trkpt>
    <trkpt lat="47.56132" lon="14.61840"><ele>1497</ele><time>2021-08-13T15:34:11Z</time></trkpt>
    <trkpt lat="47.56132" lon="14.61816"><ele>1499</ele><time>2021-08-13T15:34:52Z</time></trkpt>
    <trkpt lat="47.56126" lon="14.61792"><ele>1463</ele><time>2021-08-13T15:35:31Z</time></trkpt>
    <trkpt lat="47.56138" lon="14.61774"><ele>1465</ele><time>2021-08-13T15:36:18Z</time></trkpt>
    <trkpt lat="47.56156" lon="14.61746"><ele>1451</ele><time>2021-08-13T15:37:22Z</time></trkpt>
    <trkpt lat="47.56172" lon="14.61742"><ele>1439</ele><time>2021-08-13T15:38:23Z</time></trkpt>
    <trkpt lat="47.56188" lon="14.61739"><ele>1437</ele><time>2021-08-13T15:39:05Z</time></trkpt>
    <trkpt lat="47.56204" lon="14.61737"><ele>1430</ele><time>2021-08-13T15:40:02Z</time></trkpt>
    <trkpt lat="47.56217" lon="14.61722"><ele>1408</ele><time>2021-08-13T15:41:10Z</time></trkpt>
    <trkpt lat="47.56221" lon="14.61708"><ele>1406</ele><time>2021-08-13T15:41:29Z</time></trkpt>
    <trkpt lat="47.56238" lon="14.61702"><ele>1400</ele><time>2021-08-13T15:42:31Z</time></trkpt>
    <trkpt lat="47.56260" lon="14.61672"><ele>1396</ele><time>2021-08-13T15:44:25Z</time></trkpt>
    <trkpt lat="47.56262" lon="14.61647"><ele>1371</ele><time>2021-08-13T15:45:48Z</time></trkpt>
    <trkpt lat="47.56264" lon="14.61619"><ele>1365</ele><time>2021-08-13T15:46:39Z</time></trkpt>
    <trkpt lat="47.56266" lon="14.61596"><ele>1353</ele><time>2021-08-13T15:46:57Z</time></trkpt>
    <trkpt lat="47.56274" lon="14.61589"><ele>1351</ele><time>2021-08-13T15:47:16Z</time></trkpt>
    <trkpt lat="47.56287" lon="14.61558"><ele>1360</ele><time>2021-08-13T15:48:24Z</time></trkpt>
    <trkpt lat="47.56305" lon="14.61533"><ele>1345</ele><time>2021-08-13T15:49:49Z</time></trkpt>
    <trkpt lat="47.56320" lon="14.61520"><ele>1320</ele><time>2021-08-13T15:50:26Z</time></trkpt>
    <trkpt lat="47.56330" lon="14.61511"><ele>1315</ele><time>2021-08-13T15:50:45Z</time></trkpt>
    <trkpt lat="47.56363" lon="14.61520"><ele>1295</ele><time>2021-08-13T15:52:41Z</time></trkpt>
    <trkpt lat="47.56380" lon="14.61514"><ele>1272</ele><time>2021-08-13T15:53:28Z</time></trkpt>
    <trkpt lat="47.56403" lon="14.61521"><ele>1272</ele><time>2021-08-13T15:54:32Z</time></trkpt>
    <trkpt lat="47.56420" lon="14.61524"><ele>1246</ele><time>2021-08-13T15:55:18Z</time></trkpt>
    <trkpt lat="47.56432" lon="14.61525"><ele>1239</ele><time>2021-08-13T15:55:37Z</time></trkpt>
    <trkpt lat="47.56447" lon="14.61535"><ele>1231</ele><time>2021-08-13T15:56:16Z</time></trkpt>
    <trkpt lat="47.56464" lon="14.61544"><ele>1224</ele><time>2021-08-13T15:56:58Z</time></trkpt>
    <trkpt lat="47.56482" lon="14.61546"><ele>1210</ele><time>2021-08-13T15:57:35Z</time></trkpt>
    <trkpt lat="47.56492" lon="14.61540"><ele>1212</ele><time>2021-08-13T15:57:53Z</time></trkpt>
    <trkpt lat="47.56515" lon="14.61531"><ele>1192</ele><time>2021-08-13T15:58:31Z</time></trkpt>
    <trkpt lat="47.56527" lon="14.61548"><ele>1209</ele><time>2021-08-13T15:59:25Z</time></trkpt>
    <trkpt lat="47.56538" lon="14.61552"><ele>1204</ele><time>2021-08-13T15:59:44Z</time></trkpt>
    <trkpt lat="47.56554" lon="14.61551"><ele>1184</ele><time>2021-08-13T16:00:30Z</time></trkpt>
    <trkpt lat="47.56570" lon="14.61538"><ele>1178</ele><time>2021-08-13T16:01:15Z</time></trkpt>
    <trkpt lat="47.56585" lon="14.61528"><ele>1171</ele><time>2021-08-13T16:02:12Z</time></trkpt>
    <trkpt lat="47.56596" lon="14.61528"><ele>1156</ele><time>2021-08-13T16:03:08Z</time></trkpt>
    <trkpt lat="47.56612" lon="14.61535"><ele>1150</ele><time>2021-08-13T16:03:48Z</time></trkpt>
    <trkpt lat="47.56625" lon="14.61551"><ele>1136</ele><time>2021-08-13T16:04:25Z</time></trkpt>
    <trkpt lat="47.56634" lon="14.61522"><ele>1074</ele><time>2021-08-13T16:05:12Z</time></trkpt>
    <trkpt lat="47.56628" lon="14.61507"><ele>1126</ele><time>2021-08-13T16:05:31Z</time></trkpt>
    <trkpt lat="47.56635" lon="14.61479"><ele>1138</ele><time>2021-08-13T16:06:45Z</time></trkpt>
    <trkpt lat="47.56634" lon="14.61460"><ele>1138</ele><time>2021-08-13T16:07:03Z</time></trkpt>
    <trkpt lat="47.56636" lon="14.61437"><ele>1137</ele><time>2021-08-13T16:07:22Z</time></trkpt>
    <trkpt lat="47.56635" lon="14.61422"><ele>1134</ele><time>2021-08-13T16:07:41Z</time></trkpt>
    <trkpt lat="47.56638" lon="14.61407"><ele>1130</ele><time>2021-08-13T16:08:00Z</time></trkpt>
    <trkpt lat="47.56645" lon="14.61387"><ele>1130</ele><time>2021-08-13T16:08:19Z</time></trkpt>
    <trkpt lat="47.56653" lon="14.61368"><ele>1129</ele><time>2021-08-13T16:08:37Z</time></trkpt>
    <trkpt lat="47.56664" lon="14.61355"><ele>1129</ele><time>2021-08-13T16:08:56Z</time></trkpt>
    <trkpt lat="47.56666" lon="14.61329"><ele>1121</ele><time>2021-08-13T16:09:14Z</time></trkpt>
    <trkpt lat="47.56665" lon="14.61311"><ele>1127</ele><time>2021-08-13T16:09:33Z</time></trkpt>
    <trkpt lat="47.56666" lon="14.61294"><ele>1131</ele><time>2021-08-13T16:09:51Z</time></trkpt>
    <trkpt lat="47.56663" lon="14.61275"><ele>1127</ele><time>2021-08-13T16:10:10Z</time></trkpt>
    <trkpt lat="47.56669" lon="14.61257"><ele>1126</ele><time>2021-08-13T16:10:29Z</time></trkpt>
    <trkpt lat="47.56680" lon="14.61239"><ele>1124</ele><time>2021-08-13T16:10:48Z</time></trkpt>
    <trkpt lat="47.56681" lon="14.61218"><ele>1123</ele><time>2021-08-13T16:11:07Z</time></trkpt>
    <trkpt lat="47.56690" lon="14.61216"><ele>1123</ele><time>2021-08-13T16:11:26Z</time></trkpt>
    <trkpt lat="47.56695" lon="14.61201"><ele>1128</ele><time>2021-08-13T16:11:45Z</time></trkpt>
    <trkpt lat="47.56710" lon="14.61206"><ele>1131</ele><time>2021-08-13T16:53:40Z</time></trkpt>
    <trkpt lat="47.56691" lon="14.61205"><ele>1126</ele><time>2021-08-13T17:03:26Z</time></trkpt>
    <trkpt lat="47.56697" lon="14.61216"><ele>1128</ele><time>2021-08-13T17:03:44Z</time></trkpt>
    <trkpt lat="47.56707" lon="14.61223"><ele>1124</ele><time>2021-08-13T17:04:02Z</time></trkpt>
    <trkpt lat="47.56709" lon="14.61236"><ele>1118</ele><time>2021-08-13T17:04:21Z</time></trkpt>
    <trkpt lat="47.56720" lon="14.61264"><ele>1118</ele><time>2021-08-13T17:05:14Z</time></trkpt>
    <trkpt lat="47.56724" lon="14.61292"><ele>1109</ele><time>2021-08-13T17:05:50Z</time></trkpt>
    <trkpt lat="47.56728" lon="14.61311"><ele>1106</ele><time>2021-08-13T17:06:09Z</time></trkpt>
    <trkpt lat="47.56738" lon="14.61323"><ele>1108</ele><time>2021-08-13T17:06:27Z</time></trkpt>
    <trkpt lat="47.56748" lon="14.61335"><ele>1106</ele><time>2021-08-13T17:06:46Z</time></trkpt>
    <trkpt lat="47.56748" lon="14.61348"><ele>1106</ele><time>2021-08-13T17:07:05Z</time></trkpt>
    <trkpt lat="47.56747" lon="14.61364"><ele>1101</ele><time>2021-08-13T17:07:24Z</time></trkpt>
  </trkseg>
</trk>
</gpx>