<?xml version="1.0" encoding="UTF-8"?>
<gpx version="1.1" creator="GPX-Pro" xmlns="http://www.topografix.com/GPX/1/1">
<trk>
  <name>SteinerneMänner</name>
  <trkseg>
    <trkpt lat="47.84384" lon="13.62746"><ele>818</ele><time>2021-09-26T06:54:22Z</time></trkpt>
    <trkpt lat="47.84372" lon="13.62689"><ele>780</ele><time>2021-09-26T06:54:40Z</time></trkpt>
    <trkpt lat="47.84360" lon="13.62657"><ele>768</ele><time>2021-09-26T06:54:58Z</time></trkpt>
    <trkpt lat="47.84352" lon="13.62626"><ele>764</ele><time>2021-09-26T06:55:17Z</time></trkpt>
    <trkpt lat="47.84342" lon="13.62604"><ele>729</ele><time>2021-09-26T06:55:35Z</time></trkpt>
    <trkpt lat="47.84325" lon="13.62569"><ele>760</ele><time>2021-09-26T06:55:54Z</time></trkpt>
    <trkpt lat="47.84313" lon="13.62541"><ele>763</ele><time>2021-09-26T06:56:12Z</time></trkpt>
    <trkpt lat="47.84312" lon="13.62518"><ele>766</ele><time>2021-09-26T06:56:30Z</time></trkpt>
    <trkpt lat="47.84305" lon="13.62489"><ele>746</ele><time>2021-09-26T06:56:49Z</time></trkpt>
    <trkpt lat="47.84296" lon="13.62459"><ele>767</ele><time>2021-09-26T06:57:08Z</time></trkpt>
    <trkpt lat="47.84282" lon="13.62447"><ele>771</ele><time>2021-09-26T06:57:26Z</time></trkpt>
    <trkpt lat="47.84268" lon="13.62430"><ele>772</ele><time>2021-09-26T06:57:45Z</time></trkpt>
    <trkpt lat="47.84241" lon="13.62417"><ele>760</ele><time>2021-09-26T06:58:04Z</time></trkpt>
    <trkpt lat="47.84225" lon="13.62405"><ele>765</ele><time>2021-09-26T06:58:22Z</time></trkpt>
    <trkpt lat="47.84208" lon="13.62395"><ele>765</ele><time>2021-09-26T06:58:41Z</time></trkpt>
    <trkpt lat="47.84187" lon="13.62384"><ele>758</ele><time>2021-09-26T06:59:00Z</time></trkpt>
    <trkpt lat="47.84190" lon="13.62362"><ele>736</ele><time>2021-09-26T06:59:19Z</time></trkpt>
    <trkpt lat="47.84201" lon="13.62345"><ele>746</ele><time>2021-09-26T06:59:37Z</time></trkpt>
    <trkpt lat="47.84212" lon="13.62321"><ele>755</ele><time>2021-09-26T06:59:56Z</time></trkpt>
    <trkpt lat="47.84220" lon="13.62289"><ele>765</ele><time>2021-09-26T07:00:15Z</time></trkpt>
    <trkpt lat="47.84224" lon="13.62265"><ele>766</ele><time>2021-09-26T07:00:34Z</time></trkpt>
    <trkpt lat="47.84227" lon="13.62250"><ele>734</ele><time>2021-09-26T07:00:53Z</time></trkpt>
    <trkpt lat="47.84238" lon="13.62241"><ele>771</ele><time>2021-09-26T07:01:11Z</time></trkpt>
    <trkpt lat="47.84235" lon="13.62227"><ele>779</ele><time>2021-09-26T07:01:29Z</time></trkpt>
    <trkpt lat="47.84239" lon="13.62210"><ele>786</ele><time>2021-09-26T07:01:48Z</time></trkpt>
    <trkpt lat="47.84243" lon="13.62192"><ele>785</ele><time>2021-09-26T07:02:07Z</time></trkpt>
    <trkpt lat="47.84242" lon="13.62169"><ele>791</ele><time>2021-09-26T07:02:25Z</time></trkpt>
    <trkpt lat="47.84227" lon="13.62147"><ele>740</ele><time>2021-09-26T07:02:43Z</time></trkpt>
    <trkpt lat="47.84218" lon="13.62127"><ele>785</ele><time>2021-09-26T07:03:01Z</time></trkpt>
    <trkpt lat="47.84206" lon="13.62110"><ele>788</ele><time>2021-09-26T07:03:19Z</time></trkpt>
    <trkpt lat="47.84198" lon="13.62091"><ele>792</ele><time>2021-09-26T07:03:38Z</time></trkpt>
    <trkpt lat="47.84199" lon="13.62074"><ele>799</ele><time>2021-09-26T07:03:57Z</time></trkpt>
    <trkpt lat="47.84205" lon="13.62057"><ele>807</ele><time>2021-09-26T07:04:15Z</time></trkpt>
    <trkpt lat="47.84217" lon="13.62048"><ele>803</ele><time>2021-09-26T07:04:34Z</time></trkpt>
    <trkpt lat="47.84210" lon="13.62027"><ele>804</ele><time>2021-09-26T07:04:53Z</time></trkpt>
    <trkpt lat="47.84205" lon="13.62008"><ele>810</ele><time>2021-09-26T07:05:12Z</time></trkpt>
    <trkpt lat="47.84200" lon="13.61992"><ele>813</ele><time>2021-09-26T07:05:31Z</time></trkpt>
    <trkpt lat="47.84197" lon="13.61976"><ele>811</ele><time>2021-09-26T07:05:49Z</time></trkpt>
    <trkpt lat="47.84202" lon="13.61959"><ele>816</ele><time>2021-09-26T07:06:08Z</time></trkpt>
    <trkpt lat="47.84208" lon="13.61943"><ele>821</ele><time>2021-09-26T07:06:26Z</time></trkpt>
    <trkpt lat="47.84219" lon="13.61930"><ele>819</ele><time>2021-09-26T07:06:45Z</time></trkpt>
    <trkpt lat="47.84215" lon="13.61908"><ele>822</ele><time>2021-09-26T07:07:04Z</time></trkpt>
    <trkpt lat="47.84214" lon="13.61889"><ele>825</ele><time>2021-09-26T07:07:23Z</time></trkpt>
    <trkpt lat="47.84210" lon="13.61873"><ele>829</ele><time>2021-09-26T07:07:41Z</time></trkpt>
    <trkpt lat="47.84209" lon="13.61856"><ele>831</ele><time>2021-09-26T07:08:00Z</time></trkpt>
    <trkpt lat="47.84203" lon="13.61844"><ele>837</ele><time>2021-09-26T07:08:18Z</time></trkpt>
    <trkpt lat="47.84200" lon="13.61827"><ele>837</ele><time>2021-09-26T07:08:37Z</time></trkpt>
    <trkpt lat="47.84197" lon="13.61812"><ele>834</ele><time>2021-09-26T07:08:55Z</time></trkpt>
    <trkpt lat="47.84196" lon="13.61797"><ele>839</ele><time>2021-09-26T07:09:14Z</time></trkpt>
    <trkpt lat="47.84200" lon="13.61781"><ele>838</ele><time>2021-09-26T07:09:32Z</time></trkpt>
    <trkpt lat="47.84202" lon="13.61761"><ele>839</ele><time>2021-09-26T07:09:51Z</time></trkpt>
    <trkpt lat="47.84212" lon="13.61730"><ele>848</ele><time>2021-09-26T07:10:31Z</time></trkpt>
    <trkpt lat="47.84209" lon="13.61712"><ele>850</ele><time>2021-09-26T07:10:49Z</time></trkpt>
    <trkpt lat="47.84218" lon="13.61692"><ele>849</ele><time>2021-09-26T07:11:08Z</time></trkpt>
    <trkpt lat="47.84226" lon="13.61675"><ele>780</ele><time>2021-09-26T07:11:26Z</time></trkpt>
    <trkpt lat="47.84231" lon="13.61660"><ele>848</ele><time>2021-09-26T07:11:45Z</time></trkpt>
    <trkpt lat="47.84226" lon="13.61649"><ele>833</ele><time>2021-09-26T07:12:47Z</time></trkpt>
    <trkpt lat="47.84211" lon="13.61629"><ele>851</ele><time>2021-09-26T07:13:06Z</time></trkpt>
    <trkpt lat="47.84197" lon="13.61610"><ele>863</ele><time>2021-09-26T07:13:25Z</time></trkpt>
    <trkpt lat="47.84179" lon="13.61589"><ele>869</ele><time>2021-09-26T07:13:43Z</time></trkpt>
    <trkpt lat="47.84171" lon="13.61566"><ele>868</ele><time>2021-09-26T07:14:02Z</time></trkpt>
    <trkpt lat="47.84166" lon="13.61543"><ele>825</ele><time>2021-09-26T07:14:20Z</time></trkpt>
    <trkpt lat="47.84161" lon="13.61514"><ele>859</ele><time>2021-09-26T07:14:39Z</time></trkpt>
    <trkpt lat="47.84154" lon="13.61492"><ele>864</ele><time>2021-09-26T07:14:58Z</time></trkpt>
    <trkpt lat="47.84146" lon="13.61461"><ele>865</ele><time>2021-09-26T07:15:17Z</time></trkpt>
    <trkpt lat="47.84133" lon="13.61434"><ele>868</ele><time>2021-09-26T07:15:36Z</time></trkpt>
    <trkpt lat="47.84128" lon="13.61408"><ele>873</ele><time>2021-09-26T07:15:54Z</time></trkpt>
    <trkpt lat="47.84124" lon="13.61380"><ele>880</ele><time>2021-09-26T07:16:12Z</time></trkpt>
    <trkpt lat="47.84127" lon="13.61356"><ele>873</ele><time>2021-09-26T07:16:31Z</time></trkpt>
    <trkpt lat="47.84127" lon="13.61327"><ele>874</ele><time>2021-09-26T07:16:49Z</time></trkpt>
    <trkpt lat="47.84123" lon="13.61297"><ele>883</ele><time>2021-09-26T07:17:08Z</time></trkpt>
    <trkpt lat="47.84118" lon="13.61270"><ele>885</ele><time>2021-09-26T07:17:26Z</time></trkpt>
    <trkpt lat="47.84115" lon="13.61243"><ele>891</ele><time>2021-09-26T07:17:45Z</time></trkpt>
    <trkpt lat="47.84109" lon="13.61217"><ele>894</ele><time>2021-09-26T07:18:04Z</time></trkpt>
    <trkpt lat="47.84106" lon="13.61190"><ele>880</ele><time>2021-09-26T07:18:23Z</time></trkpt>
    <trkpt lat="47.84095" lon="13.61162"><ele>886</ele><time>2021-09-26T07:18:41Z</time></trkpt>
    <trkpt lat="47.84086" lon="13.61137"><ele>889</ele><time>2021-09-26T07:18:59Z</time></trkpt>
    <trkpt lat="47.84084" lon="13.61108"><ele>889</ele><time>2021-09-26T07:19:18Z</time></trkpt>
    <trkpt lat="47.84063" lon="13.61086"><ele>901</ele><time>2021-09-26T07:20:11Z</time></trkpt>
    <trkpt lat="47.84051" lon="13.61072"><ele>898</ele><time>2021-09-26T07:20:30Z</time></trkpt>
    <trkpt lat="47.84048" lon="13.61059"><ele>889</ele><time>2021-09-26T07:20:48Z</time></trkpt>
    <trkpt lat="47.84042" lon="13.61042"><ele>894</ele><time>2021-09-26T07:21:06Z</time></trkpt>
    <trkpt lat="47.84032" lon="13.61015"><ele>897</ele><time>2021-09-26T07:21:25Z</time></trkpt>
    <trkpt lat="47.84020" lon="13.60992"><ele>892</ele><time>2021-09-26T07:21:44Z</time></trkpt>
    <trkpt lat="47.84014" lon="13.60970"><ele>900</ele><time>2021-09-26T07:22:02Z</time></trkpt>
    <trkpt lat="47.84014" lon="13.60944"><ele>899</ele><time>2021-09-26T07:22:21Z</time></trkpt>
    <trkpt lat="47.84008" lon="13.60917"><ele>902</ele><time>2021-09-26T07:22:40Z</time></trkpt>
    <trkpt lat="47.84002" lon="13.60890"><ele>906</ele><time>2021-09-26T07:22:58Z</time></trkpt>
    <trkpt lat="47.84000" lon="13.60863"><ele>905</ele><time>2021-09-26T07:23:17Z</time></trkpt>
    <trkpt lat="47.83998" lon="13.60838"><ele>904</ele><time>2021-09-26T07:23:36Z</time></trkpt>
    <trkpt lat="47.83988" lon="13.60820"><ele>906</ele><time>2021-09-26T07:23:54Z</time></trkpt>
    <trkpt lat="47.83974" lon="13.60796"><ele>908</ele><time>2021-09-26T07:24:13Z</time></trkpt>
    <trkpt lat="47.83969" lon="13.60776"><ele>908</ele><time>2021-09-26T07:24:31Z</time></trkpt>
    <trkpt lat="47.83961" lon="13.60752"><ele>905</ele><time>2021-09-26T07:24:50Z</time></trkpt>
    <trkpt lat="47.83956" lon="13.60737"><ele>909</ele><time>2021-09-26T07:25:08Z</time></trkpt>
    <trkpt lat="47.83949" lon="13.60714"><ele>905</ele><time>2021-09-26T07:25:26Z</time></trkpt>
    <trkpt lat="47.83942" lon="13.60696"><ele>906</ele><time>2021-09-26T07:25:45Z</time></trkpt>
    <trkpt lat="47.83934" lon="13.60678"><ele>913</ele><time>2021-09-26T07:26:03Z</time></trkpt>
    <trkpt lat="47.83929" lon="13.60653"><ele>912</ele><time>2021-09-26T07:26:22Z</time></trkpt>
    <trkpt lat="47.83925" lon="13.60630"><ele>916</ele><time>2021-09-26T07:26:41Z</time></trkpt>
    <trkpt lat="47.83922" lon="13.60610"><ele>911</ele><time>2021-09-26T07:27:00Z</time></trkpt>
    <trkpt lat="47.83918" lon="13.60588"><ele>911</ele><time>2021-09-26T07:27:18Z</time></trkpt>
    <trkpt lat="47.83917" lon="13.60562"><ele>914</ele><time>2021-09-26T07:27:36Z</time></trkpt>
    <trkpt lat="47.83909" lon="13.60527"><ele>919</ele><time>2021-09-26T07:29:03Z</time></trkpt>
    <trkpt lat="47.83905" lon="13.60509"><ele>919</ele><time>2021-09-26T07:29:20Z</time></trkpt>
    <trkpt lat="47.83894" lon="13.60481"><ele>920</ele><time>2021-09-26T07:29:40Z</time></trkpt>
    <trkpt lat="47.83882" lon="13.60462"><ele>922</ele><time>2021-09-26T07:29:59Z</time></trkpt>
    <trkpt lat="47.83871" lon="13.60439"><ele>920</ele><time>2021-09-26T07:30:18Z</time></trkpt>
    <trkpt lat="47.83865" lon="13.60418"><ele>919</ele><time>2021-09-26T07:30:36Z</time></trkpt>
    <trkpt lat="47.83865" lon="13.60400"><ele>915</ele><time>2021-09-26T07:30:55Z</time></trkpt>
    <trkpt lat="47.83853" lon="13.60379"><ele>925</ele><time>2021-09-26T07:31:13Z</time></trkpt>
    <trkpt lat="47.83844" lon="13.60359"><ele>928</ele><time>2021-09-26T07:31:31Z</time></trkpt>
    <trkpt lat="47.83834" lon="13.60330"><ele>929</ele><time>2021-09-26T07:31:50Z</time></trkpt>
    <trkpt lat="47.83836" lon="13.60308"><ele>930</ele><time>2021-09-26T07:32:08Z</time></trkpt>
    <trkpt lat="47.83836" lon="13.60288"><ele>931</ele><time>2021-09-26T07:32:27Z</time></trkpt>
    <trkpt lat="47.83830" lon="13.60273"><ele>932</ele><time>2021-09-26T07:32:46Z</time></trkpt>
    <trkpt lat="47.83825" lon="13.60250"><ele>934</ele><time>2021-09-26T07:33:05Z</time></trkpt>
    <trkpt lat="47.83820" lon="13.60219"><ele>933</ele><time>2021-09-26T07:33:24Z</time></trkpt>
    <trkpt lat="47.83816" lon="13.60198"><ele>936</ele><time>2021-09-26T07:33:43Z</time></trkpt>
    <trkpt lat="47.83815" lon="13.60175"><ele>934</ele><time>2021-09-26T07:34:01Z</time></trkpt>
    <trkpt lat="47.83815" lon="13.60154"><ele>936</ele><time>2021-09-26T07:34:20Z</time></trkpt>
    <trkpt lat="47.83811" lon="13.60134"><ele>945</ele><time>2021-09-26T07:34:39Z</time></trkpt>
    <trkpt lat="47.83816" lon="13.60113"><ele>947</ele><time>2021-09-26T07:34:58Z</time></trkpt>
    <trkpt lat="47.83801" lon="13.60096"><ele>941</ele><time>2021-09-26T07:35:16Z</time></trkpt>
    <trkpt lat="47.83794" lon="13.60078"><ele>942</ele><time>2021-09-26T07:35:35Z</time></trkpt>
    <trkpt lat="47.83786" lon="13.60059"><ele>949</ele><time>2021-09-26T07:35:54Z</time></trkpt>
    <trkpt lat="47.83780" lon="13.60039"><ele>950</ele><time>2021-09-26T07:36:13Z</time></trkpt>
    <trkpt lat="47.83788" lon="13.60015"><ele>954</ele><time>2021-09-26T07:36:49Z</time></trkpt>
    <trkpt lat="47.83797" lon="13.59987"><ele>951</ele><time>2021-09-26T07:37:08Z</time></trkpt>
    <trkpt lat="47.83807" lon="13.59971"><ele>950</ele><time>2021-09-26T07:37:27Z</time></trkpt>
    <trkpt lat="47.83812" lon="13.59951"><ele>950</ele><time>2021-09-26T07:37:45Z</time></trkpt>
    <trkpt lat="47.83804" lon="13.59942"><ele>957</ele><time>2021-09-26T07:38:04Z</time></trkpt>
    <trkpt lat="47.83790" lon="13.59928"><ele>966</ele><time>2021-09-26T07:38:47Z</time></trkpt>
    <trkpt lat="47.83782" lon="13.59905"><ele>956</ele><time>2021-09-26T07:39:29Z</time></trkpt>
    <trkpt lat="47.83776" lon="13.59893"><ele>964</ele><time>2021-09-26T07:39:47Z</time></trkpt>
    <trkpt lat="47.83760" lon="13.59902"><ele>976</ele><time>2021-09-26T07:40:30Z</time></trkpt>
    <trkpt lat="47.83746" lon="13.59915"><ele>983</ele><time>2021-09-26T07:41:09Z</time></trkpt>
    <trkpt lat="47.83733" lon="13.59931"><ele>993</ele><time>2021-09-26T07:42:38Z</time></trkpt>
    <trkpt lat="47.83718" lon="13.59941"><ele>1003</ele><time>2021-09-26T07:43:21Z</time></trkpt>
    <trkpt lat="47.83709" lon="13.59951"><ele>1001</ele><time>2021-09-26T07:43:39Z</time></trkpt>
    <trkpt lat="47.83695" lon="13.59948"><ele>1003</ele><time>2021-09-26T07:44:32Z</time></trkpt>
    <trkpt lat="47.83681" lon="13.59937"><ele>1008</ele><time>2021-09-26T07:45:13Z</time></trkpt>
    <trkpt lat="47.83673" lon="13.59944"><ele>1011</ele><time>2021-09-26T07:45:31Z</time></trkpt>
    <trkpt lat="47.83657" lon="13.59948"><ele>1020</ele><time>2021-09-26T07:46:13Z</time></trkpt>
    <trkpt lat="47.83641" lon="13.59955"><ele>1001</ele><time>2021-09-26T07:46:56Z</time></trkpt>
    <trkpt lat="47.83632" lon="13.59955"><ele>1026</ele><time>2021-09-26T07:47:15Z</time></trkpt>
    <trkpt lat="47.83615" lon="13.59950"><ele>1027</ele><time>2021-09-26T07:47:56Z</time></trkpt>
    <trkpt lat="47.83600" lon="13.59951"><ele>1013</ele><time>2021-09-26T07:48:51Z</time></trkpt>
    <trkpt lat="47.83585" lon="13.59950"><ele>1050</ele><time>2021-09-26T07:50:33Z</time></trkpt>
    <trkpt lat="47.83580" lon="13.59934"><ele>1051</ele><time>2021-09-26T07:50:52Z</time></trkpt>
    <trkpt lat="47.83577" lon="13.59921"><ele>1026</ele><time>2021-09-26T07:51:10Z</time></trkpt>
    <trkpt lat="47.83572" lon="13.59886"><ele>1004</ele><time>2021-09-26T07:51:47Z</time></trkpt>
    <trkpt lat="47.83570" lon="13.59858"><ele>1042</ele><time>2021-09-26T07:52:05Z</time></trkpt>
    <trkpt lat="47.83569" lon="13.59831"><ele>960</ele><time>2021-09-26T07:52:24Z</time></trkpt>
    <trkpt lat="47.83561" lon="13.59812"><ele>1015</ele><time>2021-09-26T07:52:42Z</time></trkpt>
    <trkpt lat="47.83549" lon="13.59801"><ele>1047</ele><time>2021-09-26T07:53:01Z</time></trkpt>
    <trkpt lat="47.83537" lon="13.59784"><ele>1053</ele><time>2021-09-26T07:53:44Z</time></trkpt>
    <trkpt lat="47.83528" lon="13.59775"><ele>1049</ele><time>2021-09-26T07:54:03Z</time></trkpt>
    <trkpt lat="47.83514" lon="13.59753"><ele>1064</ele><time>2021-09-26T07:54:43Z</time></trkpt>
    <trkpt lat="47.83504" lon="13.59726"><ele>996</ele><time>2021-09-26T07:55:23Z</time></trkpt>
    <trkpt lat="47.83494" lon="13.59712"><ele>1074</ele><time>2021-09-26T07:55:41Z</time></trkpt>
    <trkpt lat="47.83479" lon="13.59705"><ele>1074</ele><time>2021-09-26T07:56:57Z</time></trkpt>
    <trkpt lat="47.83461" lon="13.59702"><ele>1081</ele><time>2021-09-26T07:57:43Z</time></trkpt>
    <trkpt lat="47.83443" lon="13.59693"><ele>1096</ele><time>2021-09-26T07:58:27Z</time></trkpt>
    <trkpt lat="47.83434" lon="13.59696"><ele>1097</ele><time>2021-09-26T07:58:46Z</time></trkpt>
    <trkpt lat="47.83419" lon="13.59701"><ele>1067</ele><time>2021-09-26T07:59:52Z</time></trkpt>
    <trkpt lat="47.83403" lon="13.59705"><ele>1073</ele><time>2021-09-26T08:00:34Z</time></trkpt>
    <trkpt lat="47.83388" lon="13.59717"><ele>1131</ele><time>2021-09-26T08:02:29Z</time></trkpt>
    <trkpt lat="47.83389" lon="13.59741"><ele>1142</ele><time>2021-09-26T08:04:14Z</time></trkpt>
    <trkpt lat="47.83394" lon="13.59763"><ele>1154</ele><time>2021-09-26T08:05:48Z</time></trkpt>
    <trkpt lat="47.83398" lon="13.59788"><ele>1157</ele><time>2021-09-26T08:07:48Z</time></trkpt>
    <trkpt lat="47.83399" lon="13.59812"><ele>1121</ele><time>2021-09-26T08:08:39Z</time></trkpt>
    <trkpt lat="47.83405" lon="13.59835"><ele>1151</ele><time>2021-09-26T08:09:20Z</time></trkpt>
    <trkpt lat="47.83411" lon="13.59858"><ele>1167</ele><time>2021-09-26T08:10:11Z</time></trkpt>
    <trkpt lat="47.83415" lon="13.59880"><ele>1175</ele><time>2021-09-26T08:11:05Z</time></trkpt>
    <trkpt lat="47.83411" lon="13.59904"><ele>1178</ele><time>2021-09-26T08:12:51Z</time></trkpt>
    <trkpt lat="47.83421" lon="13.59922"><ele>1176</ele><time>2021-09-26T08:13:58Z</time></trkpt>
    <trkpt lat="47.83427" lon="13.59942"><ele>1181</ele><time>2021-09-26T08:18:18Z</time></trkpt>
    <trkpt lat="47.83415" lon="13.59944"><ele>1149</ele><time>2021-09-26T08:20:01Z</time></trkpt>
    <trkpt lat="47.83405" lon="13.59964"><ele>1184</ele><time>2021-09-26T08:21:51Z</time></trkpt>
    <trkpt lat="47.83396" lon="13.59985"><ele>1194</ele><time>2021-09-26T08:23:19Z</time></trkpt>
    <trkpt lat="47.83394" lon="13.60009"><ele>1180</ele><time>2021-09-26T08:24:06Z</time></trkpt>
    <trkpt lat="47.83388" lon="13.60033"><ele>1190</ele><time>2021-09-26T08:25:32Z</time></trkpt>
    <trkpt lat="47.83379" lon="13.60053"><ele>1204</ele><time>2021-09-26T08:27:41Z</time></trkpt>
    <trkpt lat="47.83365" lon="13.60062"><ele>1227</ele><time>2021-09-26T08:28:51Z</time></trkpt>
    <trkpt lat="47.83367" lon="13.60086"><ele>1228</ele><time>2021-09-26T08:30:12Z</time></trkpt>
    <trkpt lat="47.83369" lon="13.60103"><ele>1209</ele><time>2021-09-26T08:30:30Z</time></trkpt>
    <trkpt lat="47.83360" lon="13.60123"><ele>1228</ele><time>2021-09-26T08:31:11Z</time></trkpt>
    <trkpt lat="47.83359" lon="13.60147"><ele>1243</ele><time>2021-09-26T08:32:02Z</time></trkpt>
    <trkpt lat="47.83357" lon="13.60161"><ele>1244</ele><time>2021-09-26T08:32:20Z</time></trkpt>
    <trkpt lat="47.83355" lon="13.60186"><ele>1245</ele><time>2021-09-26T08:33:40Z</time></trkpt>
    <trkpt lat="47.83362" lon="13.60209"><ele>1253</ele><time>2021-09-26T08:34:28Z</time></trkpt>
    <trkpt lat="47.83376" lon="13.60220"><ele>1255</ele><time>2021-09-26T08:35:09Z</time></trkpt>
    <trkpt lat="47.83387" lon="13.60218"><ele>1255</ele><time>2021-09-26T08:35:27Z</time></trkpt>
    <trkpt lat="47.83401" lon="13.60231"><ele>1258</ele><time>2021-09-26T08:36:36Z</time></trkpt>
    <trkpt lat="47.83405" lon="13.60254"><ele>1285</ele><time>2021-09-26T08:38:40Z</time></trkpt>
    <trkpt lat="47.83419" lon="13.60266"><ele>1257</ele><time>2021-09-26T08:40:00Z</time></trkpt>
    <trkpt lat="47.83430" lon="13.60268"><ele>1301</ele><time>2021-09-26T08:49:26Z</time></trkpt>
    <trkpt lat="47.83419" lon="13.60265"><ele>1302</ele><time>2021-09-26T09:11:31Z</time></trkpt>
    <trkpt lat="47.83400" lon="13.60260"><ele>1329</ele><time>2021-09-26T09:14:11Z</time></trkpt>
    <trkpt lat="47.83404" lon="13.60284"><ele>1276</ele><time>2021-09-26T09:15:34Z</time></trkpt>
    <trkpt lat="47.83403" lon="13.60297"><ele>1136</ele><time>2021-09-26T09:16:57Z</time></trkpt>
    <trkpt lat="47.83408" lon="13.60313"><ele>1316</ele><time>2021-09-26T09:18:19Z</time></trkpt>
    <trkpt lat="47.83418" lon="13.60295"><ele>1330</ele><time>2021-09-26T09:19:27Z</time></trkpt>
    <trkpt lat="47.83421" lon="13.60320"><ele>1258</ele><time>2021-09-26T09:22:40Z</time></trkpt>
    <trkpt lat="47.83408" lon="13.60319"><ele>1319</ele><time>2021-09-26T09:25:06Z</time></trkpt>
    <trkpt lat="47.83393" lon="13.60310"><ele>1300</ele><time>2021-09-26T09:25:57Z</time></trkpt>
    <trkpt lat="47.83380" lon="13.60299"><ele>1289</ele><time>2021-09-26T09:26:45Z</time></trkpt>
    <trkpt lat="47.83371" lon="13.60303"><ele>1298</ele><time>2021-09-26T09:27:03Z</time></trkpt>
    <trkpt lat="47.83362" lon="13.60308"><ele>1237</ele><time>2021-09-26T09:27:21Z</time></trkpt>
    <trkpt lat="47.83350" lon="13.60309"><ele>1298</ele><time>2021-09-26T09:27:40Z</time></trkpt>
    <trkpt lat="47.83342" lon="13.60329"><ele>1253</ele><time>2021-09-26T09:28:45Z</time></trkpt>
    <trkpt lat="47.83341" lon="13.60354"><ele>1311</ele><time>2021-09-26T09:29:58Z</time></trkpt>
    <trkpt lat="47.83350" lon="13.60373"><ele>1332</ele><time>2021-09-26T09:32:40Z</time></trkpt>
    <trkpt lat="47.83366" lon="13.60365"><ele>1340</ele><time>2021-09-26T09:35:17Z</time></trkpt>
    <trkpt lat="47.83379" lon="13.60351"><ele>1380</ele><time>2021-09-26T09:44:00Z</time></trkpt>
    <trkpt lat="47.83378" lon="13.60373"><ele>1289</ele><time>2021-09-26T09:51:40Z</time></trkpt>
    <trkpt lat="47.83369" lon="13.60390"><ele>1371</ele><time>2021-09-26T09:51:58Z</time></trkpt>
    <trkpt lat="47.83360" lon="13.60400"><ele>1371</ele><time>2021-09-26T09:52:17Z</time></trkpt>
    <trkpt lat="47.83356" lon="13.60423"><ele>1325</ele><time>2021-09-26T09:53:14Z</time></trkpt>
    <trkpt lat="47.83340" lon="13.60417"><ele>1297</ele><time>2021-09-26T09:54:13Z</time></trkpt>
    <trkpt lat="47.83324" lon="13.60422"><ele>1403</ele><time>2021-09-26T09:55:16Z</time></trkpt>
    <trkpt lat="47.83315" lon="13.60437"><ele>1342</ele><time>2021-09-26T10:05:01Z</time></trkpt>
    <trkpt lat="47.83316" lon="13.60454"><ele>1435</ele><time>2021-09-26T10:18:46Z</time></trkpt>
    <trkpt lat="47.83302" lon="13.60467"><ele>1444</ele><time>2021-09-26T10:23:22Z</time></trkpt>
    <trkpt lat="47.83291" lon="13.60484"><ele>1451</ele><time>2021-09-26T10:33:40Z</time></trkpt>
    <trkpt lat="47.83283" lon="13.60506"><ele>1455</ele><time>2021-09-26T10:35:13Z</time></trkpt>
    <trkpt lat="47.83277" lon="13.60530"><ele>1458</ele><time>2021-09-26T10:35:58Z</time></trkpt>
    <trkpt lat="47.83266" lon="13.60541"><ele>1468</ele><time>2021-09-26T10:37:54Z</time></trkpt>
    <trkpt lat="47.83260" lon="13.60553"><ele>1475</ele><time>2021-09-26T10:39:11Z</time></trkpt>
    <trkpt lat="47.83251" lon="13.60553"><ele>1473</ele><time>2021-09-26T10:39:36Z</time></trkpt>
    <trkpt lat="47.83254" lon="13.60567"><ele>1477</ele><time>2021-09-26T10:39:55Z</time></trkpt>
    <trkpt lat="47.83242" lon="13.60572"><ele>1400</ele><time>2021-09-26T10:48:30Z</time></trkpt>
    <trkpt lat="47.83231" lon="13.60590"><ele>1482</ele><time>2021-09-26T10:49:51Z</time></trkpt>
    <trkpt lat="47.83220" lon="13.60599"><ele>1379</ele><time>2021-09-26T10:50:41Z</time></trkpt>
    <trkpt lat="47.83207" lon="13.60596"><ele>1507</ele><time>2021-09-26T10:53:16Z</time></trkpt>
    <trkpt lat="47.83195" lon="13.60598"><ele>1509</ele><time>2021-09-26T10:54:26Z</time></trkpt>
    <trkpt lat="47.83182" lon="13.60613"><ele>1524</ele><time>2021-09-26T10:57:33Z</time></trkpt>
    <trkpt lat="47.83168" lon="13.60602"><ele>1491</ele><time>2021-09-26T10:58:12Z</time></trkpt>
    <trkpt lat="47.83160" lon="13.60620"><ele>1477</ele><time>2021-09-26T11:00:13Z</time></trkpt>
    <trkpt lat="47.83145" lon="13.60645"><ele>1528</ele><time>2021-09-26T11:01:20Z</time></trkpt>
    <trkpt lat="47.83133" lon="13.60660"><ele>1528</ele><time>2021-09-26T11:01:39Z</time></trkpt>
    <trkpt lat="47.83117" lon="13.60660"><ele>1533</ele><time>2021-09-26T11:01:58Z</time></trkpt>
    <trkpt lat="47.83110" lon="13.60641"><ele>1534</ele><time>2021-09-26T11:02:17Z</time></trkpt>
    <trkpt lat="47.83096" lon="13.60631"><ele>1538</ele><time>2021-09-26T11:02:35Z</time></trkpt>
    <trkpt lat="47.83084" lon="13.60612"><ele>1538</ele><time>2021-09-26T11:02:54Z</time></trkpt>
    <trkpt lat="47.83069" lon="13.60597"><ele>1513</ele><time>2021-09-26T11:03:13Z</time></trkpt>
    <trkpt lat="47.83058" lon="13.60579"><ele>1538</ele><time>2021-09-26T11:03:32Z</time></trkpt>
    <trkpt lat="47.83040" lon="13.60577"><ele>1529</ele><time>2021-09-26T11:03:51Z</time></trkpt>
    <trkpt lat="47.83032" lon="13.60582"><ele>1518</ele><time>2021-09-26T11:04:10Z</time></trkpt>
    <trkpt lat="47.83054" lon="13.60609"><ele>1538</ele><time>2021-09-26T11:05:38Z</time></trkpt>
    <trkpt lat="47.83056" lon="13.60635"><ele>1520</ele><time>2021-09-26T11:05:57Z</time></trkpt>
    <trkpt lat="47.83051" lon="13.60651"><ele>1523</ele><time>2021-09-26T11:06:15Z</time></trkpt>
    <trkpt lat="47.83043" lon="13.60674"><ele>1530</ele><time>2021-09-26T11:06:34Z</time></trkpt>
    <trkpt lat="47.83046" lon="13.60697"><ele>1535</ele><time>2021-09-26T11:06:52Z</time></trkpt>
    <trkpt lat="47.83040" lon="13.60722"><ele>1534</ele><time>2021-09-26T11:07:10Z</time></trkpt>
    <trkpt lat="47.83042" lon="13.60743"><ele>1515</ele><time>2021-09-26T11:07:29Z</time></trkpt>
    <trkpt lat="47.83045" lon="13.60762"><ele>1539</ele><time>2021-09-26T11:07:47Z</time></trkpt>
    <trkpt lat="47.83050" lon="13.60776"><ele>1545</ele><time>2021-09-26T11:08:05Z</time></trkpt>
    <trkpt lat="47.83065" lon="13.60787"><ele>1514</ele><time>2021-09-26T11:15:33Z</time></trkpt>
    <trkpt lat="47.83056" lon="13.60811"><ele>1529</ele><time>2021-09-26T11:34:26Z</time></trkpt>
    <trkpt lat="47.83063" lon="13.60823"><ele>1435</ele><time>2021-09-26T11:34:45Z</time></trkpt>
    <trkpt lat="47.83059" lon="13.60836"><ele>1371</ele><time>2021-09-26T11:35:11Z</time></trkpt>
    <trkpt lat="47.83050" lon="13.60843"><ele>1514</ele><time>2021-09-26T11:35:30Z</time></trkpt>
    <trkpt lat="47.83040" lon="13.60853"><ele>1526</ele><time>2021-09-26T11:35:49Z</time></trkpt>
    <trkpt lat="47.83030" lon="13.60858"><ele>1235</ele><time>2021-09-26T11:36:08Z</time></trkpt>
    <trkpt lat="47.83016" lon="13.60859"><ele>1310</ele><time>2021-09-26T11:36:27Z</time></trkpt>
    <trkpt lat="47.83013" lon="13.60873"><ele>1479</ele><time>2021-09-26T11:37:05Z</time></trkpt>
    <trkpt lat="47.83011" lon="13.60895"><ele>1311</ele><time>2021-09-26T11:37:24Z</time></trkpt>
    <trkpt lat="47.83019" lon="13.60910"><ele>1483</ele><time>2021-09-26T11:38:01Z</time></trkpt>
    <trkpt lat="47.83022" lon="13.60929"><ele>1493</ele><time>2021-09-26T11:38:20Z</time></trkpt>
    <trkpt lat="47.83022" lon="13.60956"><ele>1362</ele><time>2021-09-26T11:39:02Z</time></trkpt>
    <trkpt lat="47.83018" lon="13.60978"><ele>1483</ele><time>2021-09-26T11:39:20Z</time></trkpt>
    <trkpt lat="47.83022" lon="13.60990"><ele>1256</ele><time>2021-09-26T11:39:38Z</time></trkpt>
    <trkpt lat="47.83032" lon="13.61005"><ele>1472</ele><time>2021-09-26T11:39:57Z</time></trkpt>
    <trkpt lat="47.83038" lon="13.61020"><ele>1452</ele><time>2021-09-26T11:40:15Z</time></trkpt>
    <trkpt lat="47.83051" lon="13.61037"><ele>1331</ele><time>2021-09-26T11:40:59Z</time></trkpt>
    <trkpt lat="47.83064" lon="13.61064"><ele>1410</ele><time>2021-09-26T11:41:37Z</time></trkpt>
    <trkpt lat="47.83073" lon="13.61077"><ele>1456</ele><time>2021-09-26T11:41:55Z</time></trkpt>
    <trkpt lat="47.83079" lon="13.61106"><ele>1427</ele><time>2021-09-26T11:42:32Z</time></trkpt>
    <trkpt lat="47.83075" lon="13.61129"><ele>1324</ele><time>2021-09-26T11:43:21Z</time></trkpt>
    <trkpt lat="47.83093" lon="13.61133"><ele>1385</ele><time>2021-09-26T11:44:06Z</time></trkpt>
    <trkpt lat="47.83099" lon="13.61157"><ele>1366</ele><time>2021-09-26T11:44:50Z</time></trkpt>
    <trkpt lat="47.83109" lon="13.61174"><ele>1229</ele><time>2021-09-26T11:45:09Z</time></trkpt>
    <trkpt lat="47.83113" lon="13.61188"><ele>1402</ele><time>2021-09-26T11:45:27Z</time></trkpt>
    <trkpt lat="47.83132" lon="13.61187"><ele>1394</ele><time>2021-09-26T11:46:18Z</time></trkpt>
    <trkpt lat="47.83150" lon="13.61171"><ele>1166</ele><time>2021-09-26T11:46:59Z</time></trkpt>
    <trkpt lat="47.83160" lon="13.61163"><ele>1363</ele><time>2021-09-26T11:47:18Z</time></trkpt>
    <trkpt lat="47.83167" lon="13.61173"><ele>1371</ele><time>2021-09-26T11:47:36Z</time></trkpt>
    <trkpt lat="47.83173" lon="13.61186"><ele>1368</ele><time>2021-09-26T11:47:55Z</time></trkpt>
    <trkpt lat="47.83189" lon="13.61209"><ele>1346</ele><time>2021-09-26T11:48:32Z</time></trkpt>
    <trkpt lat="47.83186" lon="13.61224"><ele>1374</ele><time>2021-09-26T11:48:50Z</time></trkpt>
    <trkpt lat="47.83191" lon="13.61240"><ele>1220</ele><time>2021-09-26T11:49:09Z</time></trkpt>
    <trkpt lat="47.83194" lon="13.61261"><ele>1292</ele><time>2021-09-26T11:55:08Z</time></trkpt>
    <trkpt lat="47.83181" lon="13.61267"><ele>1035</ele><time>2021-09-26T11:55:26Z</time></trkpt>
    <trkpt lat="47.83190" lon="13.61282"><ele>1360</ele><time>2021-09-26T11:55:44Z</time></trkpt>
    <trkpt lat="47.83195" lon="13.61294"><ele>1275</ele><time>2021-09-26T11:56:03Z</time></trkpt>
    <trkpt lat="47.83194" lon="13.61309"><ele>1262</ele><time>2021-09-26T11:56:21Z</time></trkpt>
    <trkpt lat="47.83202" lon="13.61322"><ele>1349</ele><time>2021-09-26T11:56:40Z</time></trkpt>
    <trkpt lat="47.83212" lon="13.61341"><ele>1309</ele><time>2021-09-26T11:57:23Z</time></trkpt>
    <trkpt lat="47.83218" lon="13.61358"><ele>1284</ele><time>2021-09-26T11:57:41Z</time></trkpt>
    <trkpt lat="47.83227" lon="13.61392"><ele>1232</ele><time>2021-09-26T11:58:18Z</time></trkpt>
    <trkpt lat="47.83224" lon="13.61416"><ele>1004</ele><time>2021-09-26T11:58:37Z</time></trkpt>
    <trkpt lat="47.83226" lon="13.61442"><ele>1029</ele><time>2021-09-26T11:58:55Z</time></trkpt>
    <trkpt lat="47.83226" lon="13.61464"><ele>1224</ele><time>2021-09-26T11:59:13Z</time></trkpt>
    <trkpt lat="47.83224" lon="13.61490"><ele>867</ele><time>2021-09-26T11:59:52Z</time></trkpt>
    <trkpt lat="47.83219" lon="13.61504"><ele>1246</ele><time>2021-09-26T12:00:11Z</time></trkpt>
    <trkpt lat="47.83219" lon="13.61523"><ele>1253</ele><time>2021-09-26T12:00:48Z</time></trkpt>
    <trkpt lat="47.83218" lon="13.61539"><ele>1213</ele><time>2021-09-26T12:01:06Z</time></trkpt>
    <trkpt lat="47.83239" lon="13.61539"><ele>1295</ele><time>2021-09-26T12:01:48Z</time></trkpt>
    <trkpt lat="47.83254" lon="13.61548"><ele>1308</ele><time>2021-09-26T12:02:59Z</time></trkpt>
    <trkpt lat="47.83267" lon="13.61539"><ele>1262</ele><time>2021-09-26T12:03:49Z</time></trkpt>
    <trkpt lat="47.83271" lon="13.61553"><ele>1252</ele><time>2021-09-26T12:04:07Z</time></trkpt>
    <trkpt lat="47.83289" lon="13.61564"><ele>1251</ele><time>2021-09-26T12:05:08Z</time></trkpt>
    <trkpt lat="47.83306" lon="13.61570"><ele>1242</ele><time>2021-09-26T12:06:12Z</time></trkpt>
    <trkpt lat="47.83321" lon="13.61562"><ele>1226</ele><time>2021-09-26T12:06:59Z</time></trkpt>
    <trkpt lat="47.83335" lon="13.61557"><ele>1207</ele><time>2021-09-26T12:07:52Z</time></trkpt>
    <trkpt lat="47.83338" lon="13.61571"><ele>1205</ele><time>2021-09-26T12:08:11Z</time></trkpt>
    <trkpt lat="47.83347" lon="13.61565"><ele>1200</ele><time>2021-09-26T12:08:29Z</time></trkpt>
    <trkpt lat="47.83356" lon="13.61570"><ele>1194</ele><time>2021-09-26T12:09:07Z</time></trkpt>
    <trkpt lat="47.83366" lon="13.61585"><ele>1193</ele><time>2021-09-26T12:09:26Z</time></trkpt>
    <trkpt lat="47.83368" lon="13.61600"><ele>1186</ele><time>2021-09-26T12:09:45Z</time></trkpt>
    <trkpt lat="47.83371" lon="13.61618"><ele>1188</ele><time>2021-09-26T12:10:03Z</time></trkpt>
    <trkpt lat="47.83379" lon="13.61610"><ele>1183</ele><time>2021-09-26T12:10:21Z</time></trkpt>
    <trkpt lat="47.83377" lon="13.61625"><ele>1173</ele><time>2021-09-26T12:10:39Z</time></trkpt>
    <trkpt lat="47.83386" lon="13.61617"><ele>1176</ele><time>2021-09-26T12:10:58Z</time></trkpt>
    <trkpt lat="47.83397" lon="13.61637"><ele>1168</ele><time>2021-09-26T12:11:36Z</time></trkpt>
    <trkpt lat="47.83407" lon="13.61656"><ele>1161</ele><time>2021-09-26T12:12:13Z</time></trkpt>
    <trkpt lat="47.83416" lon="13.61649"><ele>1156</ele><time>2021-09-26T12:12:32Z</time></trkpt>
    <trkpt lat="47.83423" lon="13.61660"><ele>1165</ele><time>2021-09-26T12:12:50Z</time></trkpt>
    <trkpt lat="47.83419" lon="13.61678"><ele>1148</ele><time>2021-09-26T12:13:09Z</time></trkpt>
    <trkpt lat="47.83417" lon="13.61695"><ele>1143</ele><time>2021-09-26T12:13:28Z</time></trkpt>
    <trkpt lat="47.83427" lon="13.61686"><ele>1143</ele><time>2021-09-26T12:13:46Z</time></trkpt>
    <trkpt lat="47.83443" lon="13.61678"><ele>1135</ele><time>2021-09-26T12:14:24Z</time></trkpt>
    <trkpt lat="47.83454" lon="13.61700"><ele>900</ele><time>2021-09-26T12:15:01Z</time></trkpt>
    <trkpt lat="47.83466" lon="13.61713"><ele>1183</ele><time>2021-09-26T12:15:19Z</time></trkpt>
    <trkpt lat="47.83464" lon="13.61738"><ele>1104</ele><time>2021-09-26T12:15:38Z</time></trkpt>
    <trkpt lat="47.83450" lon="13.61747"><ele>805</ele><time>2021-09-26T12:15:57Z</time></trkpt>
    <trkpt lat="47.83462" lon="13.61758"><ele>1241</ele><time>2021-09-26T12:16:15Z</time></trkpt>
    <trkpt lat="47.83473" lon="13.61752"><ele>899</ele><time>2021-09-26T12:16:34Z</time></trkpt>
    <trkpt lat="47.83463" lon="13.61768"><ele>1083</ele><time>2021-09-26T12:16:53Z</time></trkpt>
    <trkpt lat="47.83459" lon="13.61781"><ele>1097</ele><time>2021-09-26T12:17:12Z</time></trkpt>
    <trkpt lat="47.83460" lon="13.61803"><ele>1015</ele><time>2021-09-26T12:18:21Z</time></trkpt>
    <trkpt lat="47.83463" lon="13.61817"><ele>823</ele><time>2021-09-26T12:18:39Z</time></trkpt>
    <trkpt lat="47.83470" lon="13.61830"><ele>1064</ele><time>2021-09-26T12:19:33Z</time></trkpt>
    <trkpt lat="47.83477" lon="13.61852"><ele>1113</ele><time>2021-09-26T12:20:24Z</time></trkpt>
    <trkpt lat="47.83492" lon="13.61855"><ele>773</ele><time>2021-09-26T12:20:42Z</time></trkpt>
    <trkpt lat="47.83507" lon="13.61856"><ele>1070</ele><time>2021-09-26T12:21:01Z</time></trkpt>
    <trkpt lat="47.83522" lon="13.61869"><ele>716</ele><time>2021-09-26T12:21:21Z</time></trkpt>
    <trkpt lat="47.83537" lon="13.61864"><ele>994</ele><time>2021-09-26T12:21:39Z</time></trkpt>
    <trkpt lat="47.83558" lon="13.61840"><ele>1051</ele><time>2021-09-26T12:22:16Z</time></trkpt>
    <trkpt lat="47.83569" lon="13.61831"><ele>1017</ele><time>2021-09-26T12:22:34Z</time></trkpt>
    <trkpt lat="47.83562" lon="13.61814"><ele>828</ele><time>2021-09-26T12:22:53Z</time></trkpt>
    <trkpt lat="47.83574" lon="13.61804"><ele>816</ele><time>2021-09-26T12:23:11Z</time></trkpt>
    <trkpt lat="47.83584" lon="13.61796"><ele>839</ele><time>2021-09-26T12:23:30Z</time></trkpt>
    <trkpt lat="47.83594" lon="13.61788"><ele>992</ele><time>2021-09-26T12:23:48Z</time></trkpt>
    <trkpt lat="47.83604" lon="13.61786"><ele>968</ele><time>2021-09-26T12:24:07Z</time></trkpt>
    <trkpt lat="47.83614" lon="13.61779"><ele>1207</ele><time>2021-09-26T12:24:27Z</time></trkpt>
    <trkpt lat="47.83625" lon="13.61771"><ele>1032</ele><time>2021-09-26T12:24:45Z</time></trkpt>
    <trkpt lat="47.83636" lon="13.61771"><ele>1015</ele><time>2021-09-26T12:25:03Z</time></trkpt>
    <trkpt lat="47.83643" lon="13.61763"><ele>1005</ele><time>2021-09-26T12:25:22Z</time></trkpt>
    <trkpt lat="47.83653" lon="13.61765"><ele>998</ele><time>2021-09-26T12:25:43Z</time></trkpt>
    <trkpt lat="47.83667" lon="13.61765"><ele>885</ele><time>2021-09-26T12:26:01Z</time></trkpt>
    <trkpt lat="47.83671" lon="13.61786"><ele>1041</ele><time>2021-09-26T12:26:20Z</time></trkpt>
    <trkpt lat="47.83686" lon="13.61798"><ele>803</ele><time>2021-09-26T12:26:39Z</time></trkpt>
    <trkpt lat="47.83696" lon="13.61810"><ele>992</ele><time>2021-09-26T12:26:57Z</time></trkpt>
    <trkpt lat="47.83701" lon="13.61824"><ele>705</ele><time>2021-09-26T12:27:15Z</time></trkpt>
    <trkpt lat="47.83721" lon="13.61831"><ele>672</ele><time>2021-09-26T12:27:34Z</time></trkpt>
    <trkpt lat="47.83733" lon="13.61829"><ele>779</ele><time>2021-09-26T12:27:52Z</time></trkpt>
    <trkpt lat="47.83746" lon="13.61868"><ele>793</ele><time>2021-09-26T12:28:41Z</time></trkpt>
    <trkpt lat="47.83762" lon="13.61877"><ele>924</ele><time>2021-09-26T12:29:00Z</time></trkpt>
    <trkpt lat="47.83775" lon="13.61896"><ele>901</ele><time>2021-09-26T12:29:19Z</time></trkpt>
    <trkpt lat="47.83787" lon="13.61910"><ele>1089</ele><time>2021-09-26T12:29:37Z</time></trkpt>
    <trkpt lat="47.83782" lon="13.61927"><ele>821</ele><time>2021-09-26T12:29:56Z</time></trkpt>
    <trkpt lat="47.83785" lon="13.61952"><ele>746</ele><time>2021-09-26T12:30:50Z</time></trkpt>
    <trkpt lat="47.83783" lon="13.61971"><ele>740</ele><time>2021-09-26T12:31:08Z</time></trkpt>
    <trkpt lat="47.83785" lon="13.61985"><ele>721</ele><time>2021-09-26T12:31:27Z</time></trkpt>
    <trkpt lat="47.83788" lon="13.62016"><ele>1047</ele><time>2021-09-26T12:32:12Z</time></trkpt>
    <trkpt lat="47.83793" lon="13.62033"><ele>846</ele><time>2021-09-26T12:32:30Z</time></trkpt>
    <trkpt lat="47.83805" lon="13.62041"><ele>899</ele><time>2021-09-26T12:32:49Z</time></trkpt>
    <trkpt lat="47.83817" lon="13.62060"><ele>873</ele><time>2021-09-26T12:33:31Z</time></trkpt>
    <trkpt lat="47.83836" lon="13.62075"><ele>837</ele><time>2021-09-26T12:34:14Z</time></trkpt>
    <trkpt lat="47.83846" lon="13.62084"><ele>735</ele><time>2021-09-26T12:34:32Z</time></trkpt>
    <trkpt lat="47.83847" lon="13.62105"><ele>831</ele><time>2021-09-26T12:34:50Z</time></trkpt>
    <trkpt lat="47.83848" lon="13.62132"><ele>1039</ele><time>2021-09-26T12:35:08Z</time></trkpt>
    <trkpt lat="47.83847" lon="13.62156"><ele>873</ele><time>2021-09-26T12:35:27Z</time></trkpt>
    <trkpt lat="47.83845" lon="13.62182"><ele>871</ele><time>2021-09-26T12:35:46Z</time></trkpt>
    <trkpt lat="47.83843" lon="13.62210"><ele>743</ele><time>2021-09-26T12:36:04Z</time></trkpt>
    <trkpt lat="47.83849" lon="13.62242"><ele>804</ele><time>2021-09-26T12:36:23Z</time></trkpt>
    <trkpt lat="47.83861" lon="13.62269"><ele>837</ele><time>2021-09-26T12:36:42Z</time></trkpt>
    <trkpt lat="47.83877" lon="13.62280"><ele>854</ele><time>2021-09-26T12:37:00Z</time></trkpt>
    <trkpt lat="47.83884" lon="13.62309"><ele>894</ele><time>2021-09-26T12:37:19Z</time></trkpt>
    <trkpt lat="47.83881" lon="13.62327"><ele>746</ele><time>2021-09-26T12:37:37Z</time></trkpt>
    <trkpt lat="47.83868" lon="13.62343"><ele>844</ele><time>2021-09-26T12:40:41Z</time></trkpt>
    <trkpt lat="47.83853" lon="13.62349"><ele>846</ele><time>2021-09-26T12:41:00Z</time></trkpt>
    <trkpt lat="47.83836" lon="13.62355"><ele>846</ele><time>2021-09-26T12:41:18Z</time></trkpt>
    <trkpt lat="47.83821" lon="13.62365"><ele>822</ele><time>2021-09-26T12:41:36Z</time></trkpt>
    <trkpt lat="47.83807" lon="13.62387"><ele>722</ele><time>2021-09-26T12:41:55Z</time></trkpt>
    <trkpt lat="47.83796" lon="13.62409"><ele>788</ele><time>2021-09-26T12:42:13Z</time></trkpt>
    <trkpt lat="47.83786" lon="13.62433"><ele>689</ele><time>2021-09-26T12:42:32Z</time></trkpt>
    <trkpt lat="47.83784" lon="13.62458"><ele>829</ele><time>2021-09-26T12:42:50Z</time></trkpt>
    <trkpt lat="47.83775" lon="13.62495"><ele>801</ele><time>2021-09-26T12:43:32Z</time></trkpt>
    <trkpt lat="47.83768" lon="13.62517"><ele>827</ele><time>2021-09-26T12:43:51Z</time></trkpt>
    <trkpt lat="47.83754" lon="13.62539"><ele>825</ele><time>2021-09-26T12:44:10Z</time></trkpt>
    <trkpt lat="47.83753" lon="13.62568"><ele>816</ele><time>2021-09-26T12:44:28Z</time></trkpt>
    <trkpt lat="47.83763" lon="13.62594"><ele>817</ele><time>2021-09-26T12:44:47Z</time></trkpt>
    <trkpt lat="47.83783" lon="13.62607"><ele>812</ele><time>2021-09-26T12:45:06Z</time></trkpt>
    <trkpt lat="47.83800" lon="13.62620"><ele>812</ele><time>2021-09-26T12:45:24Z</time></trkpt>
    <trkpt lat="47.83817" lon="13.62640"><ele>809</ele><time>2021-09-26T12:45:42Z</time></trkpt>
    <trkpt lat="47.83832" lon="13.62663"><ele>808</ele><time>2021-09-26T12:46:01Z</time></trkpt>
    <trkpt lat="47.83843" lon="13.62693"><ele>806</ele><time>2021-09-26T12:46:19Z</time></trkpt>
    <trkpt lat="47.83847" lon="13.62725"><ele>803</ele><time>2021-09-26T12:46:38Z</time></trkpt>
    <trkpt lat="47.83863" lon="13.62749"><ele>809</ele><time>2021-09-26T12:46:57Z</time></trkpt>
    <trkpt lat="47.83883" lon="13.62766"><ele>809</ele><time>2021-09-26T12:47:15Z</time></trkpt>
    <trkpt lat="47.83901" lon="13.62787"><ele>807</ele><time>2021-09-26T12:47:34Z</time></trkpt>
    <trkpt lat="47.83917" lon="13.62804"><ele>810</ele><time>2021-09-26T12:47:52Z</time></trkpt>
    <trkpt lat="47.83934" lon="13.62823"><ele>806</ele><time>2021-09-26T12:48:10Z</time></trkpt>
    <trkpt lat="47.83952" lon="13.62835"><ele>797</ele><time>2021-09-26T12:48:28Z</time></trkpt>
    <trkpt lat="47.83976" lon="13.62839"><ele>789</ele><time>2021-09-26T12:48:47Z</time></trkpt>
    <trkpt lat="47.83996" lon="13.62839"><ele>785</ele><time>2021-09-26T12:49:05Z</time></trkpt>
    <trkpt lat="47.84015" lon="13.62840"><ele>779</ele><time>2021-09-26T12:49:23Z</time></trkpt>
    <trkpt lat="47.84036" lon="13.62836"><ele>782</ele><time>2021-09-26T12:49:42Z</time></trkpt>
    <trkpt lat="47.84056" lon="13.62838"><ele>779</ele><time>2021-09-26T12:50:00Z</time></trkpt>
    <trkpt lat="47.84079" lon="13.62843"><ele>776</ele><time>2021-09-26T12:50:18Z</time></trkpt>
    <trkpt lat="47.84097" lon="13.62824"><ele>799</ele><time>2021-09-26T12:50:36Z</time></trkpt>
    <trkpt lat="47.84113" lon="13.62811"><ele>910</ele><time>2021-09-26T12:50:54Z</time></trkpt>
    <trkpt lat="47.84131" lon="13.62806"><ele>926</ele><time>2021-09-26T12:51:13Z</time></trkpt>
    <trkpt lat="47.84154" lon="13.62811"><ele>789</ele><time>2021-09-26T12:51:32Z</time></trkpt>
    <trkpt lat="47.84177" lon="13.62822"><ele>773</ele><time>2021-09-26T12:51:50Z</time></trkpt>
    <trkpt lat="47.84190" lon="13.62812"><ele>766</ele><time>2021-09-26T12:52:09Z</time></trkpt>
    <trkpt lat="47.84208" lon="13.62797"><ele>766</ele><time>2021-09-26T12:52:28Z</time></trkpt>
    <trkpt lat="47.84230" lon="13.62789"><ele>768</ele><time>2021-09-26T12:52:46Z</time></trkpt>
    <trkpt lat="47.84251" lon="13.62796"><ele>770</ele><time>2021-09-26T12:53:05Z</time></trkpt>
    <trkpt lat="47.84271" lon="13.62794"><ele>771</ele><time>2021-09-26T12:53:23Z</time></trkpt>
    <trkpt lat="47.84290" lon="13.62774"><ele>769</ele><time>2021-09-26T12:53:42Z</time></trkpt>
    <trkpt lat="47.84312" lon="13.62758"><ele>763</ele><time>2021-09-26T12:54:00Z</time></trkpt>
    <trkpt lat="47.84323" lon="13.62744"><ele>759</ele><time>2021-09-26T12:54:19Z</time></trkpt>
    <trkpt lat="47.84336" lon="13.62749"><ele>761</ele><time>2021-09-26T12:54:37Z</time></trkpt>
    <trkpt lat="47.84353" lon="13.62739"><ele>761</ele><time>2021-09-26T12:54:55Z</time></trkpt>
    <trkpt lat="47.84369" lon="13.62732"><ele>758</ele><time>2021-09-26T12:55:13Z</time></trkpt>
  </trkseg>
</trk>
</gpx>