<?xml version="1.0" encoding="UTF-8"?>
<gpx version="1.1" creator="GPX-Pro" xmlns="http://www.topografix.com/GPX/1/1">
<trk>
  <name>Mtb_SanyTomaš</name>
  <trkseg>
    <trkpt lat="48.58279" lon="14.17383"><ele>737</ele><time>2021-10-30T08:15:10Z</time></trkpt>
    <trkpt lat="48.58356" lon="14.17427"><ele>739</ele><time>2021-10-30T08:16:17Z</time></trkpt>
    <trkpt lat="48.58437" lon="14.17463"><ele>738</ele><time>2021-10-30T08:16:35Z</time></trkpt>
    <trkpt lat="48.58507" lon="14.17407"><ele>741</ele><time>2021-10-30T08:16:54Z</time></trkpt>
    <trkpt lat="48.58553" lon="14.17380"><ele>745</ele><time>2021-10-30T08:17:13Z</time></trkpt>
    <trkpt lat="48.58590" lon="14.17396"><ele>750</ele><time>2021-10-30T08:17:31Z</time></trkpt>
    <trkpt lat="48.58632" lon="14.17424"><ele>745</ele><time>2021-10-30T08:17:50Z</time></trkpt>
    <trkpt lat="48.58717" lon="14.17444"><ele>748</ele><time>2021-10-30T08:18:09Z</time></trkpt>
    <trkpt lat="48.58793" lon="14.17518"><ele>747</ele><time>2021-10-30T08:18:27Z</time></trkpt>
    <trkpt lat="48.58864" lon="14.17569"><ele>743</ele><time>2021-10-30T08:18:46Z</time></trkpt>
    <trkpt lat="48.58909" lon="14.17562"><ele>746</ele><time>2021-10-30T08:19:04Z</time></trkpt>
    <trkpt lat="48.58961" lon="14.17561"><ele>750</ele><time>2021-10-30T08:19:23Z</time></trkpt>
    <trkpt lat="48.59021" lon="14.17571"><ele>753</ele><time>2021-10-30T08:19:42Z</time></trkpt>
    <trkpt lat="48.59077" lon="14.17593"><ele>756</ele><time>2021-10-30T08:20:00Z</time></trkpt>
    <trkpt lat="48.59096" lon="14.17765"><ele>742</ele><time>2021-10-30T08:20:19Z</time></trkpt>
    <trkpt lat="48.59111" lon="14.17823"><ele>746</ele><time>2021-10-30T08:20:38Z</time></trkpt>
    <trkpt lat="48.59101" lon="14.17814"><ele>744</ele><time>2021-10-30T08:21:15Z</time></trkpt>
    <trkpt lat="48.59094" lon="14.17707"><ele>742</ele><time>2021-10-30T08:21:34Z</time></trkpt>
    <trkpt lat="48.59101" lon="14.17649"><ele>749</ele><time>2021-10-30T08:21:52Z</time></trkpt>
    <trkpt lat="48.59086" lon="14.17595"><ele>753</ele><time>2021-10-30T08:22:10Z</time></trkpt>
    <trkpt lat="48.59092" lon="14.17572"><ele>756</ele><time>2021-10-30T08:22:29Z</time></trkpt>
    <trkpt lat="48.59162" lon="14.17569"><ele>752</ele><time>2021-10-30T08:22:47Z</time></trkpt>
    <trkpt lat="48.59238" lon="14.17599"><ele>755</ele><time>2021-10-30T08:23:06Z</time></trkpt>
    <trkpt lat="48.59304" lon="14.17611"><ele>750</ele><time>2021-10-30T08:23:25Z</time></trkpt>
    <trkpt lat="48.59375" lon="14.17614"><ele>759</ele><time>2021-10-30T08:23:44Z</time></trkpt>
    <trkpt lat="48.59340" lon="14.17613"><ele>756</ele><time>2021-10-30T08:24:03Z</time></trkpt>
    <trkpt lat="48.59307" lon="14.17661"><ele>747</ele><time>2021-10-30T08:24:22Z</time></trkpt>
    <trkpt lat="48.59334" lon="14.17717"><ele>754</ele><time>2021-10-30T08:24:41Z</time></trkpt>
    <trkpt lat="48.59359" lon="14.17769"><ele>757</ele><time>2021-10-30T08:25:00Z</time></trkpt>
    <trkpt lat="48.59379" lon="14.17817"><ele>764</ele><time>2021-10-30T08:25:18Z</time></trkpt>
    <trkpt lat="48.59406" lon="14.17868"><ele>766</ele><time>2021-10-30T08:25:37Z</time></trkpt>
    <trkpt lat="48.59428" lon="14.17922"><ele>766</ele><time>2021-10-30T08:25:55Z</time></trkpt>
    <trkpt lat="48.59438" lon="14.17979"><ele>768</ele><time>2021-10-30T08:26:14Z</time></trkpt>
    <trkpt lat="48.59448" lon="14.18031"><ele>775</ele><time>2021-10-30T08:26:32Z</time></trkpt>
    <trkpt lat="48.59459" lon="14.18089"><ele>775</ele><time>2021-10-30T08:26:50Z</time></trkpt>
    <trkpt lat="48.59474" lon="14.18142"><ele>774</ele><time>2021-10-30T08:27:08Z</time></trkpt>
    <trkpt lat="48.59492" lon="14.18182"><ele>777</ele><time>2021-10-30T08:27:27Z</time></trkpt>
    <trkpt lat="48.59511" lon="14.18219"><ele>784</ele><time>2021-10-30T08:27:46Z</time></trkpt>
    <trkpt lat="48.59529" lon="14.18251"><ele>794</ele><time>2021-10-30T08:28:05Z</time></trkpt>
    <trkpt lat="48.59546" lon="14.18288"><ele>784</ele><time>2021-10-30T08:28:23Z</time></trkpt>
    <trkpt lat="48.59569" lon="14.18315"><ele>784</ele><time>2021-10-30T08:28:42Z</time></trkpt>
    <trkpt lat="48.59590" lon="14.18337"><ele>797</ele><time>2021-10-30T08:29:00Z</time></trkpt>
    <trkpt lat="48.59605" lon="14.18370"><ele>803</ele><time>2021-10-30T08:29:18Z</time></trkpt>
    <trkpt lat="48.59617" lon="14.18411"><ele>801</ele><time>2021-10-30T08:29:37Z</time></trkpt>
    <trkpt lat="48.59625" lon="14.18458"><ele>805</ele><time>2021-10-30T08:29:55Z</time></trkpt>
    <trkpt lat="48.59630" lon="14.18554"><ele>809</ele><time>2021-10-30T08:30:31Z</time></trkpt>
    <trkpt lat="48.59635" lon="14.18599"><ele>796</ele><time>2021-10-30T08:30:49Z</time></trkpt>
    <trkpt lat="48.59643" lon="14.18646"><ele>809</ele><time>2021-10-30T08:31:07Z</time></trkpt>
    <trkpt lat="48.59637" lon="14.18686"><ele>824</ele><time>2021-10-30T08:31:25Z</time></trkpt>
    <trkpt lat="48.59619" lon="14.18745"><ele>835</ele><time>2021-10-30T08:31:44Z</time></trkpt>
    <trkpt lat="48.59610" lon="14.18799"><ele>833</ele><time>2021-10-30T08:32:02Z</time></trkpt>
    <trkpt lat="48.59599" lon="14.18860"><ele>838</ele><time>2021-10-30T08:32:21Z</time></trkpt>
    <trkpt lat="48.59597" lon="14.18925"><ele>842</ele><time>2021-10-30T08:32:39Z</time></trkpt>
    <trkpt lat="48.59604" lon="14.18993"><ele>842</ele><time>2021-10-30T08:32:57Z</time></trkpt>
    <trkpt lat="48.59617" lon="14.19058"><ele>844</ele><time>2021-10-30T08:33:16Z</time></trkpt>
    <trkpt lat="48.59633" lon="14.19116"><ele>849</ele><time>2021-10-30T08:33:35Z</time></trkpt>
    <trkpt lat="48.59649" lon="14.19173"><ele>852</ele><time>2021-10-30T08:33:54Z</time></trkpt>
    <trkpt lat="48.59664" lon="14.19237"><ele>849</ele><time>2021-10-30T08:34:13Z</time></trkpt>
    <trkpt lat="48.59686" lon="14.19310"><ele>852</ele><time>2021-10-30T08:34:31Z</time></trkpt>
    <trkpt lat="48.59719" lon="14.19476"><ele>841</ele><time>2021-10-30T08:34:50Z</time></trkpt>
    <trkpt lat="48.59741" lon="14.19641"><ele>847</ele><time>2021-10-30T08:35:08Z</time></trkpt>
    <trkpt lat="48.59747" lon="14.19717"><ele>847</ele><time>2021-10-30T08:35:27Z</time></trkpt>
    <trkpt lat="48.59755" lon="14.19789"><ele>852</ele><time>2021-10-30T08:35:46Z</time></trkpt>
    <trkpt lat="48.59761" lon="14.19855"><ele>855</ele><time>2021-10-30T08:36:04Z</time></trkpt>
    <trkpt lat="48.59765" lon="14.19916"><ele>857</ele><time>2021-10-30T08:36:23Z</time></trkpt>
    <trkpt lat="48.59765" lon="14.19968"><ele>867</ele><time>2021-10-30T08:36:41Z</time></trkpt>
    <trkpt lat="48.59763" lon="14.20028"><ele>865</ele><time>2021-10-30T08:37:00Z</time></trkpt>
    <trkpt lat="48.59759" lon="14.20081"><ele>873</ele><time>2021-10-30T08:37:18Z</time></trkpt>
    <trkpt lat="48.59759" lon="14.20127"><ele>863</ele><time>2021-10-30T08:37:36Z</time></trkpt>
    <trkpt lat="48.59762" lon="14.20179"><ele>883</ele><time>2021-10-30T08:37:55Z</time></trkpt>
    <trkpt lat="48.59755" lon="14.20223"><ele>891</ele><time>2021-10-30T08:38:13Z</time></trkpt>
    <trkpt lat="48.59750" lon="14.20263"><ele>897</ele><time>2021-10-30T08:38:31Z</time></trkpt>
    <trkpt lat="48.59744" lon="14.20308"><ele>886</ele><time>2021-10-30T08:38:49Z</time></trkpt>
    <trkpt lat="48.59737" lon="14.20358"><ele>902</ele><time>2021-10-30T08:39:08Z</time></trkpt>
    <trkpt lat="48.59732" lon="14.20401"><ele>902</ele><time>2021-10-30T08:39:27Z</time></trkpt>
    <trkpt lat="48.59739" lon="14.20440"><ele>903</ele><time>2021-10-30T08:39:46Z</time></trkpt>
    <trkpt lat="48.59755" lon="14.20453"><ele>915</ele><time>2021-10-30T08:40:04Z</time></trkpt>
    <trkpt lat="48.59781" lon="14.20453"><ele>913</ele><time>2021-10-30T08:40:23Z</time></trkpt>
    <trkpt lat="48.59805" lon="14.20445"><ele>918</ele><time>2021-10-30T08:40:41Z</time></trkpt>
    <trkpt lat="48.59861" lon="14.20414"><ele>931</ele><time>2021-10-30T08:41:18Z</time></trkpt>
    <trkpt lat="48.59897" lon="14.20385"><ele>940</ele><time>2021-10-30T08:41:37Z</time></trkpt>
    <trkpt lat="48.59944" lon="14.20364"><ele>943</ele><time>2021-10-30T08:41:56Z</time></trkpt>
    <trkpt lat="48.60002" lon="14.20386"><ele>925</ele><time>2021-10-30T08:42:14Z</time></trkpt>
    <trkpt lat="48.60156" lon="14.20616"><ele>913</ele><time>2021-10-30T08:43:10Z</time></trkpt>
    <trkpt lat="48.60195" lon="14.20664"><ele>916</ele><time>2021-10-30T08:43:28Z</time></trkpt>
    <trkpt lat="48.60214" lon="14.20691"><ele>916</ele><time>2021-10-30T08:43:46Z</time></trkpt>
    <trkpt lat="48.60212" lon="14.20678"><ele>916</ele><time>2021-10-30T08:44:05Z</time></trkpt>
    <trkpt lat="48.60284" lon="14.20701"><ele>921</ele><time>2021-10-30T08:44:24Z</time></trkpt>
    <trkpt lat="48.60345" lon="14.20711"><ele>927</ele><time>2021-10-30T08:44:42Z</time></trkpt>
    <trkpt lat="48.60424" lon="14.20735"><ele>920</ele><time>2021-10-30T08:45:00Z</time></trkpt>
    <trkpt lat="48.60491" lon="14.20740"><ele>918</ele><time>2021-10-30T08:45:19Z</time></trkpt>
    <trkpt lat="48.60542" lon="14.20726"><ele>929</ele><time>2021-10-30T08:45:37Z</time></trkpt>
    <trkpt lat="48.60582" lon="14.20713"><ele>930</ele><time>2021-10-30T08:45:55Z</time></trkpt>
    <trkpt lat="48.60645" lon="14.20716"><ele>929</ele><time>2021-10-30T08:46:14Z</time></trkpt>
    <trkpt lat="48.60749" lon="14.20640"><ele>923</ele><time>2021-10-30T08:46:33Z</time></trkpt>
    <trkpt lat="48.60875" lon="14.20573"><ele>917</ele><time>2021-10-30T08:46:51Z</time></trkpt>
    <trkpt lat="48.61020" lon="14.20520"><ele>899</ele><time>2021-10-30T08:47:10Z</time></trkpt>
    <trkpt lat="48.61130" lon="14.20555"><ele>891</ele><time>2021-10-30T08:47:33Z</time></trkpt>
    <trkpt lat="48.61182" lon="14.20528"><ele>891</ele><time>2021-10-30T08:47:51Z</time></trkpt>
    <trkpt lat="48.61238" lon="14.20503"><ele>890</ele><time>2021-10-30T08:48:10Z</time></trkpt>
    <trkpt lat="48.61317" lon="14.20499"><ele>873</ele><time>2021-10-30T08:48:28Z</time></trkpt>
    <trkpt lat="48.61397" lon="14.20455"><ele>874</ele><time>2021-10-30T08:48:47Z</time></trkpt>
    <trkpt lat="48.61440" lon="14.20400"><ele>863</ele><time>2021-10-30T08:49:06Z</time></trkpt>
    <trkpt lat="48.61470" lon="14.20357"><ele>868</ele><time>2021-10-30T08:49:25Z</time></trkpt>
    <trkpt lat="48.61505" lon="14.20381"><ele>863</ele><time>2021-10-30T08:49:44Z</time></trkpt>
    <trkpt lat="48.61547" lon="14.20425"><ele>858</ele><time>2021-10-30T08:50:02Z</time></trkpt>
    <trkpt lat="48.61589" lon="14.20476"><ele>863</ele><time>2021-10-30T08:50:20Z</time></trkpt>
    <trkpt lat="48.61624" lon="14.20477"><ele>864</ele><time>2021-10-30T08:50:38Z</time></trkpt>
    <trkpt lat="48.61666" lon="14.20464"><ele>869</ele><time>2021-10-30T08:50:57Z</time></trkpt>
    <trkpt lat="48.61711" lon="14.20448"><ele>871</ele><time>2021-10-30T08:51:16Z</time></trkpt>
    <trkpt lat="48.61748" lon="14.20434"><ele>876</ele><time>2021-10-30T08:51:34Z</time></trkpt>
    <trkpt lat="48.61788" lon="14.20405"><ele>865</ele><time>2021-10-30T08:51:53Z</time></trkpt>
    <trkpt lat="48.61825" lon="14.20371"><ele>858</ele><time>2021-10-30T08:52:12Z</time></trkpt>
    <trkpt lat="48.61844" lon="14.20298"><ele>865</ele><time>2021-10-30T08:52:31Z</time></trkpt>
    <trkpt lat="48.61854" lon="14.20217"><ele>869</ele><time>2021-10-30T08:52:49Z</time></trkpt>
    <trkpt lat="48.61883" lon="14.20042"><ele>858</ele><time>2021-10-30T08:53:08Z</time></trkpt>
    <trkpt lat="48.61894" lon="14.19867"><ele>844</ele><time>2021-10-30T08:53:27Z</time></trkpt>
    <trkpt lat="48.61862" lon="14.19732"><ele>835</ele><time>2021-10-30T08:54:04Z</time></trkpt>
    <trkpt lat="48.61834" lon="14.19681"><ele>835</ele><time>2021-10-30T08:54:22Z</time></trkpt>
    <trkpt lat="48.61808" lon="14.19628"><ele>842</ele><time>2021-10-30T08:54:41Z</time></trkpt>
    <trkpt lat="48.61781" lon="14.19586"><ele>840</ele><time>2021-10-30T08:55:00Z</time></trkpt>
    <trkpt lat="48.61755" lon="14.19529"><ele>845</ele><time>2021-10-30T08:55:18Z</time></trkpt>
    <trkpt lat="48.61731" lon="14.19473"><ele>848</ele><time>2021-10-30T08:55:37Z</time></trkpt>
    <trkpt lat="48.61695" lon="14.19441"><ele>851</ele><time>2021-10-30T08:55:56Z</time></trkpt>
    <trkpt lat="48.61665" lon="14.19406"><ele>849</ele><time>2021-10-30T08:56:15Z</time></trkpt>
    <trkpt lat="48.61639" lon="14.19368"><ele>853</ele><time>2021-10-30T08:56:33Z</time></trkpt>
    <trkpt lat="48.61632" lon="14.19270"><ele>861</ele><time>2021-10-30T08:56:52Z</time></trkpt>
    <trkpt lat="48.61642" lon="14.19099"><ele>860</ele><time>2021-10-30T08:57:11Z</time></trkpt>
    <trkpt lat="48.61653" lon="14.18911"><ele>852</ele><time>2021-10-30T08:57:29Z</time></trkpt>
    <trkpt lat="48.61666" lon="14.18713"><ele>841</ele><time>2021-10-30T08:57:47Z</time></trkpt>
    <trkpt lat="48.61680" lon="14.18508"><ele>839</ele><time>2021-10-30T08:58:05Z</time></trkpt>
    <trkpt lat="48.61653" lon="14.18278"><ele>830</ele><time>2021-10-30T08:58:24Z</time></trkpt>
    <trkpt lat="48.61665" lon="14.18050"><ele>827</ele><time>2021-10-30T08:58:42Z</time></trkpt>
    <trkpt lat="48.61696" lon="14.17788"><ele>822</ele><time>2021-10-30T08:59:01Z</time></trkpt>
    <trkpt lat="48.61768" lon="14.17592"><ele>815</ele><time>2021-10-30T08:59:19Z</time></trkpt>
    <trkpt lat="48.61816" lon="14.17572"><ele>817</ele><time>2021-10-30T08:59:37Z</time></trkpt>
    <trkpt lat="48.61875" lon="14.17538"><ele>815</ele><time>2021-10-30T08:59:56Z</time></trkpt>
    <trkpt lat="48.61942" lon="14.17515"><ele>819</ele><time>2021-10-30T09:00:15Z</time></trkpt>
    <trkpt lat="48.62060" lon="14.17477"><ele>818</ele><time>2021-10-30T09:00:33Z</time></trkpt>
    <trkpt lat="48.62191" lon="14.17421"><ele>816</ele><time>2021-10-30T09:00:52Z</time></trkpt>
    <trkpt lat="48.62307" lon="14.17356"><ele>820</ele><time>2021-10-30T09:01:10Z</time></trkpt>
    <trkpt lat="48.62411" lon="14.17245"><ele>793</ele><time>2021-10-30T09:01:29Z</time></trkpt>
    <trkpt lat="48.62396" lon="14.17277"><ele>788</ele><time>2021-10-30T09:01:48Z</time></trkpt>
    <trkpt lat="48.62389" lon="14.17290"><ele>787</ele><time>2021-10-30T09:02:40Z</time></trkpt>
    <trkpt lat="48.62400" lon="14.17268"><ele>785</ele><time>2021-10-30T09:04:08Z</time></trkpt>
    <trkpt lat="48.62450" lon="14.17182"><ele>787</ele><time>2021-10-30T09:04:26Z</time></trkpt>
    <trkpt lat="48.62480" lon="14.17051"><ele>782</ele><time>2021-10-30T09:04:45Z</time></trkpt>
    <trkpt lat="48.62504" lon="14.16909"><ele>779</ele><time>2021-10-30T09:05:03Z</time></trkpt>
    <trkpt lat="48.62633" lon="14.16977"><ele>768</ele><time>2021-10-30T09:05:22Z</time></trkpt>
    <trkpt lat="48.62739" lon="14.16886"><ele>763</ele><time>2021-10-30T09:05:40Z</time></trkpt>
    <trkpt lat="48.62887" lon="14.16894"><ele>745</ele><time>2021-10-30T09:05:58Z</time></trkpt>
    <trkpt lat="48.63067" lon="14.16973"><ele>733</ele><time>2021-10-30T09:06:17Z</time></trkpt>
    <trkpt lat="48.63136" lon="14.17030"><ele>729</ele><time>2021-10-30T09:06:35Z</time></trkpt>
    <trkpt lat="48.63119" lon="14.17146"><ele>728</ele><time>2021-10-30T09:06:53Z</time></trkpt>
    <trkpt lat="48.63111" lon="14.17200"><ele>727</ele><time>2021-10-30T09:07:12Z</time></trkpt>
    <trkpt lat="48.63113" lon="14.17213"><ele>724</ele><time>2021-10-30T09:07:31Z</time></trkpt>
    <trkpt lat="48.63121" lon="14.17143"><ele>725</ele><time>2021-10-30T09:07:50Z</time></trkpt>
    <trkpt lat="48.63137" lon="14.17041"><ele>727</ele><time>2021-10-30T09:08:09Z</time></trkpt>
    <trkpt lat="48.63122" lon="14.16972"><ele>729</ele><time>2021-10-30T09:08:27Z</time></trkpt>
    <trkpt lat="48.63153" lon="14.16893"><ele>732</ele><time>2021-10-30T09:08:45Z</time></trkpt>
    <trkpt lat="48.63171" lon="14.16864"><ele>732</ele><time>2021-10-30T09:09:04Z</time></trkpt>
    <trkpt lat="48.63183" lon="14.16872"><ele>726</ele><time>2021-10-30T09:09:23Z</time></trkpt>
    <trkpt lat="48.63171" lon="14.16853"><ele>734</ele><time>2021-10-30T09:11:29Z</time></trkpt>
    <trkpt lat="48.63159" lon="14.16762"><ele>734</ele><time>2021-10-30T09:11:47Z</time></trkpt>
    <trkpt lat="48.63148" lon="14.16684"><ele>738</ele><time>2021-10-30T09:12:06Z</time></trkpt>
    <trkpt lat="48.63116" lon="14.16639"><ele>741</ele><time>2021-10-30T09:12:25Z</time></trkpt>
    <trkpt lat="48.63081" lon="14.16594"><ele>746</ele><time>2021-10-30T09:12:44Z</time></trkpt>
    <trkpt lat="48.63050" lon="14.16547"><ele>750</ele><time>2021-10-30T09:13:03Z</time></trkpt>
    <trkpt lat="48.63022" lon="14.16498"><ele>754</ele><time>2021-10-30T09:13:21Z</time></trkpt>
    <trkpt lat="48.62982" lon="14.16468"><ele>756</ele><time>2021-10-30T09:13:40Z</time></trkpt>
    <trkpt lat="48.62941" lon="14.16450"><ele>761</ele><time>2021-10-30T09:13:59Z</time></trkpt>
    <trkpt lat="48.62904" lon="14.16440"><ele>763</ele><time>2021-10-30T09:14:17Z</time></trkpt>
    <trkpt lat="48.62863" lon="14.16450"><ele>764</ele><time>2021-10-30T09:14:35Z</time></trkpt>
    <trkpt lat="48.62821" lon="14.16463"><ele>765</ele><time>2021-10-30T09:14:53Z</time></trkpt>
    <trkpt lat="48.62773" lon="14.16471"><ele>766</ele><time>2021-10-30T09:15:12Z</time></trkpt>
    <trkpt lat="48.62729" lon="14.16475"><ele>782</ele><time>2021-10-30T09:15:31Z</time></trkpt>
    <trkpt lat="48.62693" lon="14.16439"><ele>775</ele><time>2021-10-30T09:15:50Z</time></trkpt>
    <trkpt lat="48.62667" lon="14.16392"><ele>779</ele><time>2021-10-30T09:16:09Z</time></trkpt>
    <trkpt lat="48.62647" lon="14.16339"><ele>784</ele><time>2021-10-30T09:16:28Z</time></trkpt>
    <trkpt lat="48.62624" lon="14.16279"><ele>783</ele><time>2021-10-30T09:16:46Z</time></trkpt>
    <trkpt lat="48.62615" lon="14.16214"><ele>785</ele><time>2021-10-30T09:17:04Z</time></trkpt>
    <trkpt lat="48.62601" lon="14.16152"><ele>790</ele><time>2021-10-30T09:17:23Z</time></trkpt>
    <trkpt lat="48.62587" lon="14.16101"><ele>792</ele><time>2021-10-30T09:17:41Z</time></trkpt>
    <trkpt lat="48.62563" lon="14.16059"><ele>795</ele><time>2021-10-30T09:18:00Z</time></trkpt>
    <trkpt lat="48.62536" lon="14.16025"><ele>796</ele><time>2021-10-30T09:18:18Z</time></trkpt>
    <trkpt lat="48.62511" lon="14.16003"><ele>802</ele><time>2021-10-30T09:18:37Z</time></trkpt>
    <trkpt lat="48.62481" lon="14.15972"><ele>801</ele><time>2021-10-30T09:18:55Z</time></trkpt>
    <trkpt lat="48.62461" lon="14.15910"><ele>803</ele><time>2021-10-30T09:19:14Z</time></trkpt>
    <trkpt lat="48.62445" lon="14.15844"><ele>802</ele><time>2021-10-30T09:19:33Z</time></trkpt>
    <trkpt lat="48.62444" lon="14.15829"><ele>802</ele><time>2021-10-30T09:21:13Z</time></trkpt>
    <trkpt lat="48.62438" lon="14.15751"><ele>803</ele><time>2021-10-30T09:21:31Z</time></trkpt>
    <trkpt lat="48.62428" lon="14.15674"><ele>805</ele><time>2021-10-30T09:21:50Z</time></trkpt>
    <trkpt lat="48.62428" lon="14.15607"><ele>808</ele><time>2021-10-30T09:22:09Z</time></trkpt>
    <trkpt lat="48.62423" lon="14.15544"><ele>810</ele><time>2021-10-30T09:22:28Z</time></trkpt>
    <trkpt lat="48.62419" lon="14.15485"><ele>810</ele><time>2021-10-30T09:22:46Z</time></trkpt>
    <trkpt lat="48.62408" lon="14.15424"><ele>813</ele><time>2021-10-30T09:23:05Z</time></trkpt>
    <trkpt lat="48.62407" lon="14.15368"><ele>815</ele><time>2021-10-30T09:23:23Z</time></trkpt>
    <trkpt lat="48.62416" lon="14.15319"><ele>816</ele><time>2021-10-30T09:23:42Z</time></trkpt>
    <trkpt lat="48.62406" lon="14.15272"><ele>820</ele><time>2021-10-30T09:24:00Z</time></trkpt>
    <trkpt lat="48.62402" lon="14.15225"><ele>820</ele><time>2021-10-30T09:24:18Z</time></trkpt>
    <trkpt lat="48.62399" lon="14.15173"><ele>824</ele><time>2021-10-30T09:24:37Z</time></trkpt>
    <trkpt lat="48.62401" lon="14.15121"><ele>830</ele><time>2021-10-30T09:24:56Z</time></trkpt>
    <trkpt lat="48.62406" lon="14.15070"><ele>831</ele><time>2021-10-30T09:25:15Z</time></trkpt>
    <trkpt lat="48.62425" lon="14.15035"><ele>835</ele><time>2021-10-30T09:25:33Z</time></trkpt>
    <trkpt lat="48.62444" lon="14.14990"><ele>836</ele><time>2021-10-30T09:25:51Z</time></trkpt>
    <trkpt lat="48.62457" lon="14.14947"><ele>840</ele><time>2021-10-30T09:26:09Z</time></trkpt>
    <trkpt lat="48.62470" lon="14.14896"><ele>841</ele><time>2021-10-30T09:26:28Z</time></trkpt>
    <trkpt lat="48.62484" lon="14.14848"><ele>846</ele><time>2021-10-30T09:26:47Z</time></trkpt>
    <trkpt lat="48.62496" lon="14.14799"><ele>849</ele><time>2021-10-30T09:27:06Z</time></trkpt>
    <trkpt lat="48.62507" lon="14.14753"><ele>851</ele><time>2021-10-30T09:27:24Z</time></trkpt>
    <trkpt lat="48.62517" lon="14.14703"><ele>853</ele><time>2021-10-30T09:27:43Z</time></trkpt>
    <trkpt lat="48.62520" lon="14.14650"><ele>853</ele><time>2021-10-30T09:28:01Z</time></trkpt>
    <trkpt lat="48.62521" lon="14.14583"><ele>855</ele><time>2021-10-30T09:28:19Z</time></trkpt>
    <trkpt lat="48.62523" lon="14.14511"><ele>853</ele><time>2021-10-30T09:28:38Z</time></trkpt>
    <trkpt lat="48.62525" lon="14.14429"><ele>854</ele><time>2021-10-30T09:28:57Z</time></trkpt>
    <trkpt lat="48.62552" lon="14.14359"><ele>849</ele><time>2021-10-30T09:29:16Z</time></trkpt>
    <trkpt lat="48.62589" lon="14.14302"><ele>851</ele><time>2021-10-30T09:29:35Z</time></trkpt>
    <trkpt lat="48.62620" lon="14.14253"><ele>854</ele><time>2021-10-30T09:29:53Z</time></trkpt>
    <trkpt lat="48.62646" lon="14.14208"><ele>858</ele><time>2021-10-30T09:30:11Z</time></trkpt>
    <trkpt lat="48.62677" lon="14.14149"><ele>864</ele><time>2021-10-30T09:31:28Z</time></trkpt>
    <trkpt lat="48.62707" lon="14.14098"><ele>868</ele><time>2021-10-30T09:31:46Z</time></trkpt>
    <trkpt lat="48.62737" lon="14.14054"><ele>872</ele><time>2021-10-30T09:32:04Z</time></trkpt>
    <trkpt lat="48.62758" lon="14.14018"><ele>872</ele><time>2021-10-30T09:32:22Z</time></trkpt>
    <trkpt lat="48.62774" lon="14.13977"><ele>873</ele><time>2021-10-30T09:32:41Z</time></trkpt>
    <trkpt lat="48.62793" lon="14.13938"><ele>871</ele><time>2021-10-30T09:32:59Z</time></trkpt>
    <trkpt lat="48.62818" lon="14.13909"><ele>882</ele><time>2021-10-30T09:33:18Z</time></trkpt>
    <trkpt lat="48.62848" lon="14.13911"><ele>892</ele><time>2021-10-30T09:33:37Z</time></trkpt>
    <trkpt lat="48.62882" lon="14.13915"><ele>892</ele><time>2021-10-30T09:33:55Z</time></trkpt>
    <trkpt lat="48.62915" lon="14.13898"><ele>892</ele><time>2021-10-30T09:34:14Z</time></trkpt>
    <trkpt lat="48.62949" lon="14.13882"><ele>891</ele><time>2021-10-30T09:34:33Z</time></trkpt>
    <trkpt lat="48.62974" lon="14.13870"><ele>901</ele><time>2021-10-30T09:34:51Z</time></trkpt>
    <trkpt lat="48.63005" lon="14.13850"><ele>910</ele><time>2021-10-30T09:35:09Z</time></trkpt>
    <trkpt lat="48.63042" lon="14.13826"><ele>916</ele><time>2021-10-30T09:35:28Z</time></trkpt>
    <trkpt lat="48.63078" lon="14.13810"><ele>921</ele><time>2021-10-30T09:35:47Z</time></trkpt>
    <trkpt lat="48.63114" lon="14.13796"><ele>921</ele><time>2021-10-30T09:36:05Z</time></trkpt>
    <trkpt lat="48.63150" lon="14.13765"><ele>922</ele><time>2021-10-30T09:36:24Z</time></trkpt>
    <trkpt lat="48.63189" lon="14.13742"><ele>917</ele><time>2021-10-30T09:36:42Z</time></trkpt>
    <trkpt lat="48.63231" lon="14.13735"><ele>919</ele><time>2021-10-30T09:37:01Z</time></trkpt>
    <trkpt lat="48.63271" lon="14.13701"><ele>918</ele><time>2021-10-30T09:37:20Z</time></trkpt>
    <trkpt lat="48.63284" lon="14.13656"><ele>918</ele><time>2021-10-30T09:37:38Z</time></trkpt>
    <trkpt lat="48.63296" lon="14.13574"><ele>914</ele><time>2021-10-30T09:37:57Z</time></trkpt>
    <trkpt lat="48.63385" lon="14.13347"><ele>909</ele><time>2021-10-30T09:38:35Z</time></trkpt>
    <trkpt lat="48.63440" lon="14.13293"><ele>908</ele><time>2021-10-30T09:38:53Z</time></trkpt>
    <trkpt lat="48.63495" lon="14.13241"><ele>908</ele><time>2021-10-30T09:39:12Z</time></trkpt>
    <trkpt lat="48.63551" lon="14.13200"><ele>908</ele><time>2021-10-30T09:39:30Z</time></trkpt>
    <trkpt lat="48.63596" lon="14.13174"><ele>917</ele><time>2021-10-30T09:39:48Z</time></trkpt>
    <trkpt lat="48.63641" lon="14.13143"><ele>914</ele><time>2021-10-30T09:40:07Z</time></trkpt>
    <trkpt lat="48.63689" lon="14.13116"><ele>917</ele><time>2021-10-30T09:40:25Z</time></trkpt>
    <trkpt lat="48.63737" lon="14.13088"><ele>919</ele><time>2021-10-30T09:40:43Z</time></trkpt>
    <trkpt lat="48.63880" lon="14.12984"><ele>914</ele><time>2021-10-30T09:41:38Z</time></trkpt>
    <trkpt lat="48.63892" lon="14.12902"><ele>912</ele><time>2021-10-30T09:41:56Z</time></trkpt>
    <trkpt lat="48.63913" lon="14.12764"><ele>907</ele><time>2021-10-30T09:42:14Z</time></trkpt>
    <trkpt lat="48.63897" lon="14.12664"><ele>906</ele><time>2021-10-30T09:42:33Z</time></trkpt>
    <trkpt lat="48.63889" lon="14.12576"><ele>911</ele><time>2021-10-30T09:42:52Z</time></trkpt>
    <trkpt lat="48.63884" lon="14.12511"><ele>915</ele><time>2021-10-30T09:43:10Z</time></trkpt>
    <trkpt lat="48.63882" lon="14.12445"><ele>918</ele><time>2021-10-30T09:43:28Z</time></trkpt>
    <trkpt lat="48.63867" lon="14.12391"><ele>921</ele><time>2021-10-30T09:43:47Z</time></trkpt>
    <trkpt lat="48.63855" lon="14.12339"><ele>924</ele><time>2021-10-30T09:44:06Z</time></trkpt>
    <trkpt lat="48.63851" lon="14.12291"><ele>931</ele><time>2021-10-30T09:44:24Z</time></trkpt>
    <trkpt lat="48.63850" lon="14.12237"><ele>937</ele><time>2021-10-30T09:44:43Z</time></trkpt>
    <trkpt lat="48.63842" lon="14.12195"><ele>937</ele><time>2021-10-30T09:45:02Z</time></trkpt>
    <trkpt lat="48.63850" lon="14.12153"><ele>939</ele><time>2021-10-30T09:45:20Z</time></trkpt>
    <trkpt lat="48.63891" lon="14.12092"><ele>937</ele><time>2021-10-30T09:45:56Z</time></trkpt>
    <trkpt lat="48.63913" lon="14.12065"><ele>952</ele><time>2021-10-30T09:46:15Z</time></trkpt>
    <trkpt lat="48.63921" lon="14.12026"><ele>953</ele><time>2021-10-30T09:46:34Z</time></trkpt>
    <trkpt lat="48.63908" lon="14.11999"><ele>942</ele><time>2021-10-30T09:46:53Z</time></trkpt>
    <trkpt lat="48.63899" lon="14.11973"><ele>959</ele><time>2021-10-30T09:47:12Z</time></trkpt>
    <trkpt lat="48.63915" lon="14.11942"><ele>924</ele><time>2021-10-30T09:47:31Z</time></trkpt>
    <trkpt lat="48.63936" lon="14.11915"><ele>974</ele><time>2021-10-30T09:47:50Z</time></trkpt>
    <trkpt lat="48.63924" lon="14.11881"><ele>936</ele><time>2021-10-30T09:48:09Z</time></trkpt>
    <trkpt lat="48.63865" lon="14.11847"><ele>974</ele><time>2021-10-30T09:48:46Z</time></trkpt>
    <trkpt lat="48.63831" lon="14.11834"><ele>963</ele><time>2021-10-30T09:49:04Z</time></trkpt>
    <trkpt lat="48.63797" lon="14.11803"><ele>990</ele><time>2021-10-30T09:49:23Z</time></trkpt>
    <trkpt lat="48.63777" lon="14.11765"><ele>928</ele><time>2021-10-30T09:49:41Z</time></trkpt>
    <trkpt lat="48.63768" lon="14.11715"><ele>991</ele><time>2021-10-30T09:50:00Z</time></trkpt>
    <trkpt lat="48.63766" lon="14.11665"><ele>994</ele><time>2021-10-30T09:50:18Z</time></trkpt>
    <trkpt lat="48.63763" lon="14.11614"><ele>989</ele><time>2021-10-30T09:50:36Z</time></trkpt>
    <trkpt lat="48.63761" lon="14.11553"><ele>961</ele><time>2021-10-30T09:50:53Z</time></trkpt>
    <trkpt lat="48.63756" lon="14.11451"><ele>1000</ele><time>2021-10-30T09:51:16Z</time></trkpt>
    <trkpt lat="48.63752" lon="14.11342"><ele>999</ele><time>2021-10-30T09:51:35Z</time></trkpt>
    <trkpt lat="48.63737" lon="14.11203"><ele>994</ele><time>2021-10-30T09:51:53Z</time></trkpt>
    <trkpt lat="48.63748" lon="14.11062"><ele>995</ele><time>2021-10-30T09:52:12Z</time></trkpt>
    <trkpt lat="48.63801" lon="14.10901"><ele>988</ele><time>2021-10-30T09:52:31Z</time></trkpt>
    <trkpt lat="48.63808" lon="14.10804"><ele>988</ele><time>2021-10-30T09:52:50Z</time></trkpt>
    <trkpt lat="48.63817" lon="14.10682"><ele>982</ele><time>2021-10-30T09:53:09Z</time></trkpt>
    <trkpt lat="48.63843" lon="14.10596"><ele>983</ele><time>2021-10-30T09:53:27Z</time></trkpt>
    <trkpt lat="48.63890" lon="14.10523"><ele>981</ele><time>2021-10-30T09:53:46Z</time></trkpt>
    <trkpt lat="48.63919" lon="14.10492"><ele>990</ele><time>2021-10-30T09:54:04Z</time></trkpt>
    <trkpt lat="48.63950" lon="14.10475"><ele>993</ele><time>2021-10-30T09:54:23Z</time></trkpt>
    <trkpt lat="48.63988" lon="14.10459"><ele>990</ele><time>2021-10-30T09:54:41Z</time></trkpt>
    <trkpt lat="48.64034" lon="14.10439"><ele>989</ele><time>2021-10-30T09:54:59Z</time></trkpt>
    <trkpt lat="48.64058" lon="14.10468"><ele>988</ele><time>2021-10-30T09:55:17Z</time></trkpt>
    <trkpt lat="48.64072" lon="14.10493"><ele>989</ele><time>2021-10-30T09:55:36Z</time></trkpt>
    <trkpt lat="48.64076" lon="14.10520"><ele>992</ele><time>2021-10-30T09:55:54Z</time></trkpt>
    <trkpt lat="48.64081" lon="14.10547"><ele>987</ele><time>2021-10-30T09:56:13Z</time></trkpt>
    <trkpt lat="48.64085" lon="14.10562"><ele>985</ele><time>2021-10-30T09:56:31Z</time></trkpt>
    <trkpt lat="48.64094" lon="14.10590"><ele>986</ele><time>2021-10-30T09:57:19Z</time></trkpt>
    <trkpt lat="48.64086" lon="14.10554"><ele>987</ele><time>2021-10-30T09:58:00Z</time></trkpt>
    <trkpt lat="48.64084" lon="14.10529"><ele>983</ele><time>2021-10-30T09:58:19Z</time></trkpt>
    <trkpt lat="48.64079" lon="14.10501"><ele>983</ele><time>2021-10-30T09:58:38Z</time></trkpt>
    <trkpt lat="48.64063" lon="14.10466"><ele>983</ele><time>2021-10-30T09:58:57Z</time></trkpt>
    <trkpt lat="48.64031" lon="14.10436"><ele>975</ele><time>2021-10-30T09:59:16Z</time></trkpt>
    <trkpt lat="48.64064" lon="14.10467"><ele>979</ele><time>2021-10-30T10:03:14Z</time></trkpt>
    <trkpt lat="48.64090" lon="14.10476"><ele>985</ele><time>2021-10-30T10:03:33Z</time></trkpt>
    <trkpt lat="48.64111" lon="14.10489"><ele>987</ele><time>2021-10-30T10:03:52Z</time></trkpt>
    <trkpt lat="48.64133" lon="14.10498"><ele>986</ele><time>2021-10-30T10:04:11Z</time></trkpt>
    <trkpt lat="48.64161" lon="14.10505"><ele>990</ele><time>2021-10-30T10:04:30Z</time></trkpt>
    <trkpt lat="48.64181" lon="14.10511"><ele>991</ele><time>2021-10-30T10:04:48Z</time></trkpt>
    <trkpt lat="48.64205" lon="14.10512"><ele>994</ele><time>2021-10-30T10:05:07Z</time></trkpt>
    <trkpt lat="48.64225" lon="14.10512"><ele>993</ele><time>2021-10-30T10:05:25Z</time></trkpt>
    <trkpt lat="48.64245" lon="14.10512"><ele>992</ele><time>2021-10-30T10:05:44Z</time></trkpt>
    <trkpt lat="48.64265" lon="14.10505"><ele>993</ele><time>2021-10-30T10:06:03Z</time></trkpt>
    <trkpt lat="48.64287" lon="14.10497"><ele>996</ele><time>2021-10-30T10:06:21Z</time></trkpt>
    <trkpt lat="48.64304" lon="14.10497"><ele>1002</ele><time>2021-10-30T10:06:39Z</time></trkpt>
    <trkpt lat="48.64325" lon="14.10487"><ele>1008</ele><time>2021-10-30T10:06:58Z</time></trkpt>
    <trkpt lat="48.64344" lon="14.10474"><ele>1006</ele><time>2021-10-30T10:07:17Z</time></trkpt>
    <trkpt lat="48.64361" lon="14.10458"><ele>1008</ele><time>2021-10-30T10:07:35Z</time></trkpt>
    <trkpt lat="48.64379" lon="14.10445"><ele>1013</ele><time>2021-10-30T10:07:54Z</time></trkpt>
    <trkpt lat="48.64397" lon="14.10440"><ele>1019</ele><time>2021-10-30T10:08:12Z</time></trkpt>
    <trkpt lat="48.64414" lon="14.10416"><ele>1018</ele><time>2021-10-30T10:08:30Z</time></trkpt>
    <trkpt lat="48.64434" lon="14.10401"><ele>1020</ele><time>2021-10-30T10:08:49Z</time></trkpt>
    <trkpt lat="48.64456" lon="14.10402"><ele>1022</ele><time>2021-10-30T10:09:08Z</time></trkpt>
    <trkpt lat="48.64471" lon="14.10390"><ele>1023</ele><time>2021-10-30T10:09:26Z</time></trkpt>
    <trkpt lat="48.64485" lon="14.10377"><ele>1035</ele><time>2021-10-30T10:11:23Z</time></trkpt>
    <trkpt lat="48.64489" lon="14.10359"><ele>1029</ele><time>2021-10-30T10:11:42Z</time></trkpt>
    <trkpt lat="48.64488" lon="14.10377"><ele>1015</ele><time>2021-10-30T10:14:31Z</time></trkpt>
    <trkpt lat="48.64480" lon="14.10389"><ele>1027</ele><time>2021-10-30T10:14:50Z</time></trkpt>
    <trkpt lat="48.64453" lon="14.10404"><ele>1028</ele><time>2021-10-30T10:15:09Z</time></trkpt>
    <trkpt lat="48.64396" lon="14.10437"><ele>1024</ele><time>2021-10-30T10:15:27Z</time></trkpt>
    <trkpt lat="48.64343" lon="14.10466"><ele>1016</ele><time>2021-10-30T10:15:46Z</time></trkpt>
    <trkpt lat="48.64304" lon="14.10497"><ele>1006</ele><time>2021-10-30T10:16:05Z</time></trkpt>
    <trkpt lat="48.64293" lon="14.10482"><ele>1004</ele><time>2021-10-30T10:16:23Z</time></trkpt>
    <trkpt lat="48.64289" lon="14.10495"><ele>1004</ele><time>2021-10-30T10:17:31Z</time></trkpt>
    <trkpt lat="48.64238" lon="14.10517"><ele>997</ele><time>2021-10-30T10:17:50Z</time></trkpt>
    <trkpt lat="48.64176" lon="14.10510"><ele>992</ele><time>2021-10-30T10:18:09Z</time></trkpt>
    <trkpt lat="48.64145" lon="14.10501"><ele>988</ele><time>2021-10-30T10:18:27Z</time></trkpt>
    <trkpt lat="48.64136" lon="14.10506"><ele>989</ele><time>2021-10-30T10:19:19Z</time></trkpt>
    <trkpt lat="48.64108" lon="14.10494"><ele>985</ele><time>2021-10-30T10:19:38Z</time></trkpt>
    <trkpt lat="48.64060" lon="14.10462"><ele>985</ele><time>2021-10-30T10:19:56Z</time></trkpt>
    <trkpt lat="48.63994" lon="14.10462"><ele>984</ele><time>2021-10-30T10:20:14Z</time></trkpt>
    <trkpt lat="48.63962" lon="14.10470"><ele>983</ele><time>2021-10-30T10:20:33Z</time></trkpt>
    <trkpt lat="48.63920" lon="14.10486"><ele>999</ele><time>2021-10-30T10:31:13Z</time></trkpt>
    <trkpt lat="48.63932" lon="14.10509"><ele>983</ele><time>2021-10-30T10:31:50Z</time></trkpt>
    <trkpt lat="48.63943" lon="14.10512"><ele>983</ele><time>2021-10-30T11:00:16Z</time></trkpt>
    <trkpt lat="48.63930" lon="14.10519"><ele>986</ele><time>2021-10-30T11:00:55Z</time></trkpt>
    <trkpt lat="48.63919" lon="14.10499"><ele>977</ele><time>2021-10-30T11:03:15Z</time></trkpt>
    <trkpt lat="48.63941" lon="14.10488"><ele>979</ele><time>2021-10-30T11:03:33Z</time></trkpt>
    <trkpt lat="48.63973" lon="14.10473"><ele>976</ele><time>2021-10-30T11:03:52Z</time></trkpt>
    <trkpt lat="48.64014" lon="14.10459"><ele>981</ele><time>2021-10-30T11:04:15Z</time></trkpt>
    <trkpt lat="48.64019" lon="14.10413"><ele>978</ele><time>2021-10-30T11:04:34Z</time></trkpt>
    <trkpt lat="48.63996" lon="14.10360"><ele>975</ele><time>2021-10-30T11:04:53Z</time></trkpt>
    <trkpt lat="48.63979" lon="14.10336"><ele>979</ele><time>2021-10-30T11:05:11Z</time></trkpt>
    <trkpt lat="48.63975" lon="14.10321"><ele>980</ele><time>2021-10-30T11:05:44Z</time></trkpt>
    <trkpt lat="48.63930" lon="14.10174"><ele>973</ele><time>2021-10-30T11:06:02Z</time></trkpt>
    <trkpt lat="48.63846" lon="14.10068"><ele>963</ele><time>2021-10-30T11:06:21Z</time></trkpt>
    <trkpt lat="48.63809" lon="14.10041"><ele>962</ele><time>2021-10-30T11:06:40Z</time></trkpt>
    <trkpt lat="48.63800" lon="14.10037"><ele>962</ele><time>2021-10-30T11:06:58Z</time></trkpt>
    <trkpt lat="48.63770" lon="14.10055"><ele>961</ele><time>2021-10-30T11:08:11Z</time></trkpt>
    <trkpt lat="48.63692" lon="14.10051"><ele>955</ele><time>2021-10-30T11:08:29Z</time></trkpt>
    <trkpt lat="48.63651" lon="14.10054"><ele>929</ele><time>2021-10-30T11:08:48Z</time></trkpt>
    <trkpt lat="48.63579" lon="14.10019"><ele>943</ele><time>2021-10-30T11:09:07Z</time></trkpt>
    <trkpt lat="48.63590" lon="14.10020"><ele>924</ele><time>2021-10-30T11:09:26Z</time></trkpt>
    <trkpt lat="48.63577" lon="14.10019"><ele>947</ele><time>2021-10-30T11:09:44Z</time></trkpt>
    <trkpt lat="48.63531" lon="14.10004"><ele>945</ele><time>2021-10-30T11:10:03Z</time></trkpt>
    <trkpt lat="48.63459" lon="14.09966"><ele>945</ele><time>2021-10-30T11:10:21Z</time></trkpt>
    <trkpt lat="48.63407" lon="14.09971"><ele>949</ele><time>2021-10-30T11:10:40Z</time></trkpt>
    <trkpt lat="48.63385" lon="14.09971"><ele>951</ele><time>2021-10-30T11:10:58Z</time></trkpt>
    <trkpt lat="48.63353" lon="14.09975"><ele>953</ele><time>2021-10-30T11:11:17Z</time></trkpt>
    <trkpt lat="48.63318" lon="14.09976"><ele>954</ele><time>2021-10-30T11:11:36Z</time></trkpt>
    <trkpt lat="48.63298" lon="14.09993"><ele>943</ele><time>2021-10-30T11:11:54Z</time></trkpt>
    <trkpt lat="48.63281" lon="14.10015"><ele>954</ele><time>2021-10-30T11:12:12Z</time></trkpt>
    <trkpt lat="48.63260" lon="14.10046"><ele>917</ele><time>2021-10-30T11:12:31Z</time></trkpt>
    <trkpt lat="48.63144" lon="14.10112"><ele>934</ele><time>2021-10-30T11:12:50Z</time></trkpt>
    <trkpt lat="48.63052" lon="14.10186"><ele>927</ele><time>2021-10-30T11:13:08Z</time></trkpt>
    <trkpt lat="48.62969" lon="14.10251"><ele>919</ele><time>2021-10-30T11:13:27Z</time></trkpt>
    <trkpt lat="48.62928" lon="14.10270"><ele>912</ele><time>2021-10-30T11:13:45Z</time></trkpt>
    <trkpt lat="48.62922" lon="14.10281"><ele>911</ele><time>2021-10-30T11:15:23Z</time></trkpt>
    <trkpt lat="48.62814" lon="14.10358"><ele>856</ele><time>2021-10-30T11:15:42Z</time></trkpt>
    <trkpt lat="48.62748" lon="14.10385"><ele>871</ele><time>2021-10-30T11:16:01Z</time></trkpt>
    <trkpt lat="48.62707" lon="14.10396"><ele>891</ele><time>2021-10-30T11:16:19Z</time></trkpt>
    <trkpt lat="48.62680" lon="14.10413"><ele>894</ele><time>2021-10-30T11:16:37Z</time></trkpt>
    <trkpt lat="48.62630" lon="14.10438"><ele>870</ele><time>2021-10-30T11:16:56Z</time></trkpt>
    <trkpt lat="48.62602" lon="14.10448"><ele>888</ele><time>2021-10-30T11:17:15Z</time></trkpt>
    <trkpt lat="48.62573" lon="14.10477"><ele>883</ele><time>2021-10-30T11:18:42Z</time></trkpt>
    <trkpt lat="48.62514" lon="14.10518"><ele>906</ele><time>2021-10-30T11:19:01Z</time></trkpt>
    <trkpt lat="48.62493" lon="14.10535"><ele>893</ele><time>2021-10-30T11:19:20Z</time></trkpt>
    <trkpt lat="48.62488" lon="14.10547"><ele>891</ele><time>2021-10-30T11:19:42Z</time></trkpt>
    <trkpt lat="48.62463" lon="14.10589"><ele>896</ele><time>2021-10-30T11:20:00Z</time></trkpt>
    <trkpt lat="48.62442" lon="14.10616"><ele>836</ele><time>2021-10-30T11:20:19Z</time></trkpt>
    <trkpt lat="48.62398" lon="14.10646"><ele>889</ele><time>2021-10-30T11:20:38Z</time></trkpt>
    <trkpt lat="48.62331" lon="14.10682"><ele>900</ele><time>2021-10-30T11:20:56Z</time></trkpt>
    <trkpt lat="48.62235" lon="14.10755"><ele>841</ele><time>2021-10-30T11:21:15Z</time></trkpt>
    <trkpt lat="48.62159" lon="14.10783"><ele>817</ele><time>2021-10-30T11:21:34Z</time></trkpt>
    <trkpt lat="48.62163" lon="14.10771"><ele>839</ele><time>2021-10-30T11:22:00Z</time></trkpt>
    <trkpt lat="48.62156" lon="14.10780"><ele>852</ele><time>2021-10-30T11:22:21Z</time></trkpt>
    <trkpt lat="48.62147" lon="14.10789"><ele>839</ele><time>2021-10-30T11:23:07Z</time></trkpt>
    <trkpt lat="48.62078" lon="14.10768"><ele>825</ele><time>2021-10-30T11:23:26Z</time></trkpt>
    <trkpt lat="48.62036" lon="14.10705"><ele>845</ele><time>2021-10-30T11:23:45Z</time></trkpt>
    <trkpt lat="48.61991" lon="14.10644"><ele>840</ele><time>2021-10-30T11:24:04Z</time></trkpt>
    <trkpt lat="48.61957" lon="14.10612"><ele>851</ele><time>2021-10-30T11:24:22Z</time></trkpt>
    <trkpt lat="48.61929" lon="14.10598"><ele>855</ele><time>2021-10-30T11:24:41Z</time></trkpt>
    <trkpt lat="48.61902" lon="14.10588"><ele>855</ele><time>2021-10-30T11:25:00Z</time></trkpt>
    <trkpt lat="48.61847" lon="14.10582"><ele>856</ele><time>2021-10-30T11:25:18Z</time></trkpt>
    <trkpt lat="48.61788" lon="14.10610"><ele>862</ele><time>2021-10-30T11:25:36Z</time></trkpt>
    <trkpt lat="48.61730" lon="14.10643"><ele>861</ele><time>2021-10-30T11:25:55Z</time></trkpt>
    <trkpt lat="48.61668" lon="14.10684"><ele>868</ele><time>2021-10-30T11:26:13Z</time></trkpt>
    <trkpt lat="48.61619" lon="14.10728"><ele>854</ele><time>2021-10-30T11:26:32Z</time></trkpt>
    <trkpt lat="48.61563" lon="14.10750"><ele>814</ele><time>2021-10-30T11:26:50Z</time></trkpt>
    <trkpt lat="48.61485" lon="14.10779"><ele>873</ele><time>2021-10-30T11:27:09Z</time></trkpt>
    <trkpt lat="48.61327" lon="14.10792"><ele>826</ele><time>2021-10-30T11:27:27Z</time></trkpt>
    <trkpt lat="48.61173" lon="14.10792"><ele>861</ele><time>2021-10-30T11:27:46Z</time></trkpt>
    <trkpt lat="48.61038" lon="14.10786"><ele>853</ele><time>2021-10-30T11:28:04Z</time></trkpt>
    <trkpt lat="48.60942" lon="14.10769"><ele>846</ele><time>2021-10-30T11:28:23Z</time></trkpt>
    <trkpt lat="48.60919" lon="14.10658"><ele>859</ele><time>2021-10-30T11:28:41Z</time></trkpt>
    <trkpt lat="48.60888" lon="14.10504"><ele>839</ele><time>2021-10-30T11:29:00Z</time></trkpt>
    <trkpt lat="48.60838" lon="14.10329"><ele>836</ele><time>2021-10-30T11:29:18Z</time></trkpt>
    <trkpt lat="48.60817" lon="14.10272"><ele>824</ele><time>2021-10-30T11:29:37Z</time></trkpt>
    <trkpt lat="48.60812" lon="14.10183"><ele>798</ele><time>2021-10-30T11:29:55Z</time></trkpt>
    <trkpt lat="48.60806" lon="14.10090"><ele>823</ele><time>2021-10-30T11:30:14Z</time></trkpt>
    <trkpt lat="48.60779" lon="14.10079"><ele>821</ele><time>2021-10-30T11:30:32Z</time></trkpt>
    <trkpt lat="48.60768" lon="14.10077"><ele>828</ele><time>2021-10-30T11:38:51Z</time></trkpt>
    <trkpt lat="48.60718" lon="14.10079"><ele>828</ele><time>2021-10-30T11:39:09Z</time></trkpt>
    <trkpt lat="48.60694" lon="14.10109"><ele>827</ele><time>2021-10-30T11:39:28Z</time></trkpt>
    <trkpt lat="48.60684" lon="14.10128"><ele>830</ele><time>2021-10-30T11:39:47Z</time></trkpt>
    <trkpt lat="48.60663" lon="14.10164"><ele>833</ele><time>2021-10-30T11:40:06Z</time></trkpt>
    <trkpt lat="48.60634" lon="14.10193"><ele>832</ele><time>2021-10-30T11:40:21Z</time></trkpt>
    <trkpt lat="48.60577" lon="14.10214"><ele>835</ele><time>2021-10-30T11:40:44Z</time></trkpt>
    <trkpt lat="48.60535" lon="14.10229"><ele>835</ele><time>2021-10-30T11:41:02Z</time></trkpt>
    <trkpt lat="48.60518" lon="14.10278"><ele>834</ele><time>2021-10-30T11:41:21Z</time></trkpt>
    <trkpt lat="48.60495" lon="14.10329"><ele>835</ele><time>2021-10-30T11:41:40Z</time></trkpt>
    <trkpt lat="48.60469" lon="14.10374"><ele>836</ele><time>2021-10-30T11:41:58Z</time></trkpt>
    <trkpt lat="48.60433" lon="14.10392"><ele>835</ele><time>2021-10-30T11:42:16Z</time></trkpt>
    <trkpt lat="48.60383" lon="14.10368"><ele>828</ele><time>2021-10-30T11:42:34Z</time></trkpt>
    <trkpt lat="48.60346" lon="14.10386"><ele>838</ele><time>2021-10-30T11:42:53Z</time></trkpt>
    <trkpt lat="48.60317" lon="14.10421"><ele>841</ele><time>2021-10-30T11:43:11Z</time></trkpt>
    <trkpt lat="48.60283" lon="14.10456"><ele>841</ele><time>2021-10-30T11:43:30Z</time></trkpt>
    <trkpt lat="48.60247" lon="14.10487"><ele>846</ele><time>2021-10-30T11:43:48Z</time></trkpt>
    <trkpt lat="48.60220" lon="14.10515"><ele>840</ele><time>2021-10-30T11:44:06Z</time></trkpt>
    <trkpt lat="48.60190" lon="14.10546"><ele>850</ele><time>2021-10-30T11:44:24Z</time></trkpt>
    <trkpt lat="48.60162" lon="14.10576"><ele>846</ele><time>2021-10-30T11:44:43Z</time></trkpt>
    <trkpt lat="48.60134" lon="14.10606"><ele>844</ele><time>2021-10-30T11:45:02Z</time></trkpt>
    <trkpt lat="48.60109" lon="14.10640"><ele>843</ele><time>2021-10-30T11:45:20Z</time></trkpt>
    <trkpt lat="48.60088" lon="14.10685"><ele>849</ele><time>2021-10-30T11:45:38Z</time></trkpt>
    <trkpt lat="48.60073" lon="14.10737"><ele>845</ele><time>2021-10-30T11:45:57Z</time></trkpt>
    <trkpt lat="48.60059" lon="14.10780"><ele>850</ele><time>2021-10-30T11:46:15Z</time></trkpt>
    <trkpt lat="48.60044" lon="14.10829"><ele>851</ele><time>2021-10-30T11:46:34Z</time></trkpt>
    <trkpt lat="48.60029" lon="14.10881"><ele>851</ele><time>2021-10-30T11:46:52Z</time></trkpt>
    <trkpt lat="48.60016" lon="14.10933"><ele>856</ele><time>2021-10-30T11:47:11Z</time></trkpt>
    <trkpt lat="48.60004" lon="14.10974"><ele>853</ele><time>2021-10-30T11:47:29Z</time></trkpt>
    <trkpt lat="48.59983" lon="14.11015"><ele>854</ele><time>2021-10-30T11:47:47Z</time></trkpt>
    <trkpt lat="48.59959" lon="14.11049"><ele>857</ele><time>2021-10-30T11:48:06Z</time></trkpt>
    <trkpt lat="48.59937" lon="14.11088"><ele>861</ele><time>2021-10-30T11:48:25Z</time></trkpt>
    <trkpt lat="48.59904" lon="14.11104"><ele>864</ele><time>2021-10-30T11:48:43Z</time></trkpt>
    <trkpt lat="48.59872" lon="14.11120"><ele>868</ele><time>2021-10-30T11:49:02Z</time></trkpt>
    <trkpt lat="48.59818" lon="14.11116"><ele>858</ele><time>2021-10-30T11:49:21Z</time></trkpt>
    <trkpt lat="48.59767" lon="14.11088"><ele>864</ele><time>2021-10-30T11:49:40Z</time></trkpt>
    <trkpt lat="48.59720" lon="14.11069"><ele>860</ele><time>2021-10-30T11:49:59Z</time></trkpt>
    <trkpt lat="48.59672" lon="14.11052"><ele>856</ele><time>2021-10-30T11:50:17Z</time></trkpt>
    <trkpt lat="48.59624" lon="14.11051"><ele>850</ele><time>2021-10-30T11:50:35Z</time></trkpt>
    <trkpt lat="48.59585" lon="14.11072"><ele>850</ele><time>2021-10-30T11:50:53Z</time></trkpt>
    <trkpt lat="48.59574" lon="14.11032"><ele>857</ele><time>2021-10-30T11:52:43Z</time></trkpt>
    <trkpt lat="48.59562" lon="14.11026"><ele>858</ele><time>2021-10-30T11:53:01Z</time></trkpt>
    <trkpt lat="48.59575" lon="14.11052"><ele>862</ele><time>2021-10-30T11:54:07Z</time></trkpt>
    <trkpt lat="48.59583" lon="14.11066"><ele>858</ele><time>2021-10-30T11:54:25Z</time></trkpt>
    <trkpt lat="48.59530" lon="14.11073"><ele>861</ele><time>2021-10-30T11:56:06Z</time></trkpt>
    <trkpt lat="48.59468" lon="14.11082"><ele>857</ele><time>2021-10-30T11:56:25Z</time></trkpt>
    <trkpt lat="48.59420" lon="14.11129"><ele>853</ele><time>2021-10-30T11:56:43Z</time></trkpt>
    <trkpt lat="48.59384" lon="14.11201"><ele>847</ele><time>2021-10-30T11:57:02Z</time></trkpt>
    <trkpt lat="48.59289" lon="14.11300"><ele>833</ele><time>2021-10-30T11:57:21Z</time></trkpt>
    <trkpt lat="48.59212" lon="14.11404"><ele>830</ele><time>2021-10-30T11:57:39Z</time></trkpt>
    <trkpt lat="48.59187" lon="14.11455"><ele>834</ele><time>2021-10-30T11:57:58Z</time></trkpt>
    <trkpt lat="48.59178" lon="14.11511"><ele>837</ele><time>2021-10-30T11:58:16Z</time></trkpt>
    <trkpt lat="48.59140" lon="14.11519"><ele>827</ele><time>2021-10-30T11:59:01Z</time></trkpt>
    <trkpt lat="48.59126" lon="14.11530"><ele>828</ele><time>2021-10-30T11:59:20Z</time></trkpt>
    <trkpt lat="48.59116" lon="14.11552"><ele>827</ele><time>2021-10-30T12:01:29Z</time></trkpt>
    <trkpt lat="48.59091" lon="14.11578"><ele>829</ele><time>2021-10-30T12:01:47Z</time></trkpt>
    <trkpt lat="48.59080" lon="14.11563"><ele>829</ele><time>2021-10-30T12:04:38Z</time></trkpt>
    <trkpt lat="48.59097" lon="14.11575"><ele>832</ele><time>2021-10-30T12:04:56Z</time></trkpt>
    <trkpt lat="48.59067" lon="14.11586"><ele>835</ele><time>2021-10-30T12:05:15Z</time></trkpt>
    <trkpt lat="48.59043" lon="14.11579"><ele>826</ele><time>2021-10-30T12:05:33Z</time></trkpt>
    <trkpt lat="48.59023" lon="14.11575"><ele>820</ele><time>2021-10-30T12:05:51Z</time></trkpt>
    <trkpt lat="48.59001" lon="14.11547"><ele>816</ele><time>2021-10-30T12:06:10Z</time></trkpt>
    <trkpt lat="48.58977" lon="14.11535"><ele>813</ele><time>2021-10-30T12:06:28Z</time></trkpt>
    <trkpt lat="48.58947" lon="14.11538"><ele>812</ele><time>2021-10-30T12:06:47Z</time></trkpt>
    <trkpt lat="48.58922" lon="14.11548"><ele>816</ele><time>2021-10-30T12:07:06Z</time></trkpt>
    <trkpt lat="48.58910" lon="14.11591"><ele>817</ele><time>2021-10-30T12:07:24Z</time></trkpt>
    <trkpt lat="48.58881" lon="14.11628"><ele>822</ele><time>2021-10-30T12:07:43Z</time></trkpt>
    <trkpt lat="48.58857" lon="14.11676"><ele>828</ele><time>2021-10-30T12:08:01Z</time></trkpt>
    <trkpt lat="48.58834" lon="14.11715"><ele>830</ele><time>2021-10-30T12:08:20Z</time></trkpt>
    <trkpt lat="48.58813" lon="14.11755"><ele>836</ele><time>2021-10-30T12:08:39Z</time></trkpt>
    <trkpt lat="48.58791" lon="14.11782"><ele>837</ele><time>2021-10-30T12:08:58Z</time></trkpt>
    <trkpt lat="48.58770" lon="14.11807"><ele>839</ele><time>2021-10-30T12:09:16Z</time></trkpt>
    <trkpt lat="48.58749" lon="14.11837"><ele>842</ele><time>2021-10-30T12:09:34Z</time></trkpt>
    <trkpt lat="48.58734" lon="14.11872"><ele>842</ele><time>2021-10-30T12:09:52Z</time></trkpt>
    <trkpt lat="48.58724" lon="14.11893"><ele>843</ele><time>2021-10-30T12:10:11Z</time></trkpt>
    <trkpt lat="48.58735" lon="14.11895"><ele>843</ele><time>2021-10-30T12:29:58Z</time></trkpt>
    <trkpt lat="48.58711" lon="14.11921"><ele>844</ele><time>2021-10-30T12:32:58Z</time></trkpt>
    <trkpt lat="48.58690" lon="14.11963"><ele>853</ele><time>2021-10-30T12:33:17Z</time></trkpt>
    <trkpt lat="48.58678" lon="14.12002"><ele>851</ele><time>2021-10-30T12:33:35Z</time></trkpt>
    <trkpt lat="48.58670" lon="14.12049"><ele>849</ele><time>2021-10-30T12:33:54Z</time></trkpt>
    <trkpt lat="48.58664" lon="14.12094"><ele>848</ele><time>2021-10-30T12:34:12Z</time></trkpt>
    <trkpt lat="48.58648" lon="14.12137"><ele>858</ele><time>2021-10-30T12:34:31Z</time></trkpt>
    <trkpt lat="48.58634" lon="14.12184"><ele>865</ele><time>2021-10-30T12:34:50Z</time></trkpt>
    <trkpt lat="48.58623" lon="14.12226"><ele>861</ele><time>2021-10-30T12:35:09Z</time></trkpt>
    <trkpt lat="48.58608" lon="14.12266"><ele>865</ele><time>2021-10-30T12:35:28Z</time></trkpt>
    <trkpt lat="48.58602" lon="14.12315"><ele>857</ele><time>2021-10-30T12:35:46Z</time></trkpt>
    <trkpt lat="48.58597" lon="14.12412"><ele>859</ele><time>2021-10-30T12:36:05Z</time></trkpt>
    <trkpt lat="48.58589" lon="14.12487"><ele>863</ele><time>2021-10-30T12:36:23Z</time></trkpt>
    <trkpt lat="48.58576" lon="14.12568"><ele>873</ele><time>2021-10-30T12:36:42Z</time></trkpt>
    <trkpt lat="48.58575" lon="14.12636"><ele>875</ele><time>2021-10-30T12:37:01Z</time></trkpt>
    <trkpt lat="48.58562" lon="14.12721"><ele>875</ele><time>2021-10-30T12:37:19Z</time></trkpt>
    <trkpt lat="48.58554" lon="14.12872"><ele>858</ele><time>2021-10-30T12:37:38Z</time></trkpt>
    <trkpt lat="48.58570" lon="14.13001"><ele>857</ele><time>2021-10-30T12:37:57Z</time></trkpt>
    <trkpt lat="48.58586" lon="14.12989"><ele>857</ele><time>2021-10-30T12:38:16Z</time></trkpt>
    <trkpt lat="48.58588" lon="14.13058"><ele>860</ele><time>2021-10-30T12:52:38Z</time></trkpt>
    <trkpt lat="48.58616" lon="14.13206"><ele>861</ele><time>2021-10-30T12:52:56Z</time></trkpt>
    <trkpt lat="48.58633" lon="14.13363"><ele>848</ele><time>2021-10-30T12:53:15Z</time></trkpt>
    <trkpt lat="48.58631" lon="14.13492"><ele>848</ele><time>2021-10-30T12:53:34Z</time></trkpt>
    <trkpt lat="48.58587" lon="14.13584"><ele>850</ele><time>2021-10-30T12:53:52Z</time></trkpt>
    <trkpt lat="48.58560" lon="14.13679"><ele>852</ele><time>2021-10-30T12:54:11Z</time></trkpt>
    <trkpt lat="48.58520" lon="14.13761"><ele>854</ele><time>2021-10-30T12:54:30Z</time></trkpt>
    <trkpt lat="48.58484" lon="14.13834"><ele>854</ele><time>2021-10-30T12:54:49Z</time></trkpt>
    <trkpt lat="48.58450" lon="14.13905"><ele>855</ele><time>2021-10-30T12:55:08Z</time></trkpt>
    <trkpt lat="48.58423" lon="14.13978"><ele>853</ele><time>2021-10-30T12:55:26Z</time></trkpt>
    <trkpt lat="48.58410" lon="14.14058"><ele>852</ele><time>2021-10-30T12:55:44Z</time></trkpt>
    <trkpt lat="48.58396" lon="14.14122"><ele>859</ele><time>2021-10-30T12:56:02Z</time></trkpt>
    <trkpt lat="48.58389" lon="14.14210"><ele>863</ele><time>2021-10-30T12:56:21Z</time></trkpt>
    <trkpt lat="48.58384" lon="14.14277"><ele>862</ele><time>2021-10-30T12:56:39Z</time></trkpt>
    <trkpt lat="48.58380" lon="14.14354"><ele>866</ele><time>2021-10-30T12:56:57Z</time></trkpt>
    <trkpt lat="48.58346" lon="14.14525"><ele>852</ele><time>2021-10-30T12:57:16Z</time></trkpt>
    <trkpt lat="48.58333" lon="14.14690"><ele>844</ele><time>2021-10-30T12:57:34Z</time></trkpt>
    <trkpt lat="48.58351" lon="14.14835"><ele>833</ele><time>2021-10-30T12:57:52Z</time></trkpt>
    <trkpt lat="48.58338" lon="14.14970"><ele>835</ele><time>2021-10-30T12:58:11Z</time></trkpt>
    <trkpt lat="48.58358" lon="14.15120"><ele>822</ele><time>2021-10-30T12:58:29Z</time></trkpt>
    <trkpt lat="48.58368" lon="14.15126"><ele>826</ele><time>2021-10-30T12:59:37Z</time></trkpt>
    <trkpt lat="48.58417" lon="14.15139"><ele>826</ele><time>2021-10-30T12:59:55Z</time></trkpt>
    <trkpt lat="48.58456" lon="14.15173"><ele>822</ele><time>2021-10-30T13:00:14Z</time></trkpt>
    <trkpt lat="48.58474" lon="14.15289"><ele>817</ele><time>2021-10-30T13:00:32Z</time></trkpt>
    <trkpt lat="48.58500" lon="14.15477"><ele>812</ele><time>2021-10-30T13:00:50Z</time></trkpt>
    <trkpt lat="48.58544" lon="14.15642"><ele>810</ele><time>2021-10-30T13:01:08Z</time></trkpt>
    <trkpt lat="48.58583" lon="14.15837"><ele>798</ele><time>2021-10-30T13:01:27Z</time></trkpt>
    <trkpt lat="48.58652" lon="14.15955"><ele>788</ele><time>2021-10-30T13:01:46Z</time></trkpt>
    <trkpt lat="48.58721" lon="14.15966"><ele>783</ele><time>2021-10-30T13:02:04Z</time></trkpt>
    <trkpt lat="48.58762" lon="14.15961"><ele>780</ele><time>2021-10-30T13:02:22Z</time></trkpt>
    <trkpt lat="48.58821" lon="14.15921"><ele>769</ele><time>2021-10-30T13:02:41Z</time></trkpt>
    <trkpt lat="48.58937" lon="14.15980"><ele>761</ele><time>2021-10-30T13:03:00Z</time></trkpt>
    <trkpt lat="48.59021" lon="14.16073"><ele>750</ele><time>2021-10-30T13:03:18Z</time></trkpt>
    <trkpt lat="48.58963" lon="14.16127"><ele>744</ele><time>2021-10-30T13:03:36Z</time></trkpt>
    <trkpt lat="48.58919" lon="14.16266"><ele>729</ele><time>2021-10-30T13:03:54Z</time></trkpt>
    <trkpt lat="48.58883" lon="14.16318"><ele>727</ele><time>2021-10-30T13:04:12Z</time></trkpt>
    <trkpt lat="48.58843" lon="14.16342"><ele>729</ele><time>2021-10-30T13:04:30Z</time></trkpt>
    <trkpt lat="48.58912" lon="14.16443"><ele>721</ele><time>2021-10-30T13:04:48Z</time></trkpt>
    <trkpt lat="48.58956" lon="14.16503"><ele>723</ele><time>2021-10-30T13:05:07Z</time></trkpt>
    <trkpt lat="48.58982" lon="14.16560"><ele>727</ele><time>2021-10-30T13:05:26Z</time></trkpt>
    <trkpt lat="48.58993" lon="14.16628"><ele>733</ele><time>2021-10-30T13:05:44Z</time></trkpt>
    <trkpt lat="48.59002" lon="14.16686"><ele>739</ele><time>2021-10-30T13:06:02Z</time></trkpt>
    <trkpt lat="48.59009" lon="14.16743"><ele>740</ele><time>2021-10-30T13:06:21Z</time></trkpt>
    <trkpt lat="48.59022" lon="14.16801"><ele>739</ele><time>2021-10-30T13:06:40Z</time></trkpt>
    <trkpt lat="48.59032" lon="14.16866"><ele>741</ele><time>2021-10-30T13:06:58Z</time></trkpt>
    <trkpt lat="48.59033" lon="14.16947"><ele>738</ele><time>2021-10-30T13:07:17Z</time></trkpt>
    <trkpt lat="48.59020" lon="14.17021"><ele>742</ele><time>2021-10-30T13:07:36Z</time></trkpt>
    <trkpt lat="48.59013" lon="14.17087"><ele>743</ele><time>2021-10-30T13:07:54Z</time></trkpt>
    <trkpt lat="48.59011" lon="14.17154"><ele>750</ele><time>2021-10-30T13:08:13Z</time></trkpt>
    <trkpt lat="48.59015" lon="14.17214"><ele>750</ele><time>2021-10-30T13:08:31Z</time></trkpt>
    <trkpt lat="48.59017" lon="14.17278"><ele>756</ele><time>2021-10-30T13:08:50Z</time></trkpt>
    <trkpt lat="48.59012" lon="14.17345"><ele>759</ele><time>2021-10-30T13:09:09Z</time></trkpt>
    <trkpt lat="48.58999" lon="14.17414"><ele>760</ele><time>2021-10-30T13:09:27Z</time></trkpt>
    <trkpt lat="48.58972" lon="14.17495"><ele>758</ele><time>2021-10-30T13:09:46Z</time></trkpt>
    <trkpt lat="48.58982" lon="14.17577"><ele>756</ele><time>2021-10-30T13:10:05Z</time></trkpt>
    <trkpt lat="48.59049" lon="14.17572"><ele>757</ele><time>2021-10-30T13:10:23Z</time></trkpt>
    <trkpt lat="48.59093" lon="14.17719"><ele>744</ele><time>2021-10-30T13:10:42Z</time></trkpt>
    <trkpt lat="48.59131" lon="14.17832"><ele>739</ele><time>2021-10-30T13:11:00Z</time></trkpt>
    <trkpt lat="48.59158" lon="14.17835"><ele>747</ele><time>2021-10-30T13:11:19Z</time></trkpt>
    <trkpt lat="48.59170" lon="14.17862"><ele>757</ele><time>2021-10-30T13:11:38Z</time></trkpt>
    <trkpt lat="48.59178" lon="14.17890"><ele>763</ele><time>2021-10-30T13:11:56Z</time></trkpt>
    <trkpt lat="48.59186" lon="14.17919"><ele>766</ele><time>2021-10-30T13:12:14Z</time></trkpt>
    <trkpt lat="48.59196" lon="14.17949"><ele>769</ele><time>2021-10-30T13:12:33Z</time></trkpt>
    <trkpt lat="48.59204" lon="14.17988"><ele>770</ele><time>2021-10-30T13:12:52Z</time></trkpt>
    <trkpt lat="48.59195" lon="14.18028"><ele>772</ele><time>2021-10-30T13:13:11Z</time></trkpt>
    <trkpt lat="48.59179" lon="14.18044"><ele>775</ele><time>2021-10-30T13:13:29Z</time></trkpt>
    <trkpt lat="48.59216" lon="14.18071"><ele>771</ele><time>2021-10-30T13:13:48Z</time></trkpt>
    <trkpt lat="48.59294" lon="14.18180"><ele>764</ele><time>2021-10-30T13:14:07Z</time></trkpt>
    <trkpt lat="48.59313" lon="14.18266"><ele>758</ele><time>2021-10-30T13:14:26Z</time></trkpt>
    <trkpt lat="48.59317" lon="14.18324"><ele>768</ele><time>2021-10-30T13:14:44Z</time></trkpt>
    <trkpt lat="48.59307" lon="14.18382"><ele>772</ele><time>2021-10-30T13:15:02Z</time></trkpt>
    <trkpt lat="48.59299" lon="14.18455"><ele>776</ele><time>2021-10-30T13:15:21Z</time></trkpt>
    <trkpt lat="48.59281" lon="14.18509"><ele>777</ele><time>2021-10-30T13:15:39Z</time></trkpt>
    <trkpt lat="48.59275" lon="14.18575"><ele>780</ele><time>2021-10-30T13:15:57Z</time></trkpt>
    <trkpt lat="48.59255" lon="14.18619"><ele>788</ele><time>2021-10-30T13:16:16Z</time></trkpt>
    <trkpt lat="48.59231" lon="14.18649"><ele>791</ele><time>2021-10-30T13:16:34Z</time></trkpt>
    <trkpt lat="48.59203" lon="14.18663"><ele>793</ele><time>2021-10-30T13:16:53Z</time></trkpt>
    <trkpt lat="48.59182" lon="14.18682"><ele>797</ele><time>2021-10-30T13:17:11Z</time></trkpt>
    <trkpt lat="48.59164" lon="14.18716"><ele>800</ele><time>2021-10-30T13:17:30Z</time></trkpt>
    <trkpt lat="48.59160" lon="14.18765"><ele>798</ele><time>2021-10-30T13:17:48Z</time></trkpt>
    <trkpt lat="48.59155" lon="14.18808"><ele>769</ele><time>2021-10-30T13:18:07Z</time></trkpt>
    <trkpt lat="48.59147" lon="14.18849"><ele>786</ele><time>2021-10-30T13:18:25Z</time></trkpt>
    <trkpt lat="48.59133" lon="14.18884"><ele>804</ele><time>2021-10-30T13:18:44Z</time></trkpt>
    <trkpt lat="48.59126" lon="14.18929"><ele>808</ele><time>2021-10-30T13:19:03Z</time></trkpt>
    <trkpt lat="48.59129" lon="14.18969"><ele>805</ele><time>2021-10-30T13:19:21Z</time></trkpt>
    <trkpt lat="48.59156" lon="14.19037"><ele>806</ele><time>2021-10-30T13:19:40Z</time></trkpt>
    <trkpt lat="48.59206" lon="14.19162"><ele>800</ele><time>2021-10-30T13:19:59Z</time></trkpt>
    <trkpt lat="48.59224" lon="14.19267"><ele>800</ele><time>2021-10-30T13:20:17Z</time></trkpt>
    <trkpt lat="48.59212" lon="14.19339"><ele>798</ele><time>2021-10-30T13:20:36Z</time></trkpt>
    <trkpt lat="48.59183" lon="14.19387"><ele>801</ele><time>2021-10-30T13:20:55Z</time></trkpt>
    <trkpt lat="48.59156" lon="14.19443"><ele>805</ele><time>2021-10-30T13:21:13Z</time></trkpt>
    <trkpt lat="48.59126" lon="14.19483"><ele>807</ele><time>2021-10-30T13:21:32Z</time></trkpt>
    <trkpt lat="48.59095" lon="14.19524"><ele>812</ele><time>2021-10-30T13:21:51Z</time></trkpt>
    <trkpt lat="48.59059" lon="14.19545"><ele>812</ele><time>2021-10-30T13:22:10Z</time></trkpt>
    <trkpt lat="48.59025" lon="14.19569"><ele>816</ele><time>2021-10-30T13:22:28Z</time></trkpt>
    <trkpt lat="48.58995" lon="14.19606"><ele>816</ele><time>2021-10-30T13:22:47Z</time></trkpt>
    <trkpt lat="48.58962" lon="14.19645"><ele>821</ele><time>2021-10-30T13:23:06Z</time></trkpt>
    <trkpt lat="48.58926" lon="14.19681"><ele>824</ele><time>2021-10-30T13:23:25Z</time></trkpt>
    <trkpt lat="48.58889" lon="14.19705"><ele>825</ele><time>2021-10-30T13:23:43Z</time></trkpt>
    <trkpt lat="48.58848" lon="14.19741"><ele>825</ele><time>2021-10-30T13:24:01Z</time></trkpt>
    <trkpt lat="48.58814" lon="14.19793"><ele>826</ele><time>2021-10-30T13:24:20Z</time></trkpt>
    <trkpt lat="48.58790" lon="14.19839"><ele>832</ele><time>2021-10-30T13:24:38Z</time></trkpt>
    <trkpt lat="48.58757" lon="14.19857"><ele>833</ele><time>2021-10-30T13:24:56Z</time></trkpt>
    <trkpt lat="48.58725" lon="14.19861"><ele>836</ele><time>2021-10-30T13:25:15Z</time></trkpt>
    <trkpt lat="48.58697" lon="14.19862"><ele>840</ele><time>2021-10-30T13:25:34Z</time></trkpt>
    <trkpt lat="48.58673" lon="14.19852"><ele>844</ele><time>2021-10-30T13:25:52Z</time></trkpt>
    <trkpt lat="48.58652" lon="14.19834"><ele>829</ele><time>2021-10-30T13:26:11Z</time></trkpt>
    <trkpt lat="48.58638" lon="14.19813"><ele>851</ele><time>2021-10-30T13:26:30Z</time></trkpt>
    <trkpt lat="48.58590" lon="14.19724"><ele>844</ele><time>2021-10-30T13:27:30Z</time></trkpt>
    <trkpt lat="48.58570" lon="14.19699"><ele>846</ele><time>2021-10-30T13:27:49Z</time></trkpt>
    <trkpt lat="48.58553" lon="14.19567"><ele>841</ele><time>2021-10-30T13:28:07Z</time></trkpt>
    <trkpt lat="48.58560" lon="14.19506"><ele>840</ele><time>2021-10-30T13:28:25Z</time></trkpt>
    <trkpt lat="48.58568" lon="14.19451"><ele>842</ele><time>2021-10-30T13:28:44Z</time></trkpt>
    <trkpt lat="48.58572" lon="14.19409"><ele>843</ele><time>2021-10-30T13:29:02Z</time></trkpt>
    <trkpt lat="48.58570" lon="14.19370"><ele>815</ele><time>2021-10-30T13:29:20Z</time></trkpt>
    <trkpt lat="48.58560" lon="14.19331"><ele>849</ele><time>2021-10-30T13:29:39Z</time></trkpt>
    <trkpt lat="48.58548" lon="14.19295"><ele>832</ele><time>2021-10-30T13:29:57Z</time></trkpt>
    <trkpt lat="48.58533" lon="14.19263"><ele>821</ele><time>2021-10-30T13:30:15Z</time></trkpt>
    <trkpt lat="48.58517" lon="14.19227"><ele>850</ele><time>2021-10-30T13:30:34Z</time></trkpt>
    <trkpt lat="48.58465" lon="14.19121"><ele>869</ele><time>2021-10-30T13:31:31Z</time></trkpt>
    <trkpt lat="48.58466" lon="14.19071"><ele>872</ele><time>2021-10-30T13:31:49Z</time></trkpt>
    <trkpt lat="48.58480" lon="14.19004"><ele>869</ele><time>2021-10-30T13:32:08Z</time></trkpt>
    <trkpt lat="48.58516" lon="14.18922"><ele>867</ele><time>2021-10-30T13:32:26Z</time></trkpt>
    <trkpt lat="48.58601" lon="14.18817"><ele>851</ele><time>2021-10-30T13:32:44Z</time></trkpt>
    <trkpt lat="48.58650" lon="14.18737"><ele>852</ele><time>2021-10-30T13:33:03Z</time></trkpt>
    <trkpt lat="48.58706" lon="14.18648"><ele>847</ele><time>2021-10-30T13:33:21Z</time></trkpt>
    <trkpt lat="48.58766" lon="14.18582"><ele>842</ele><time>2021-10-30T13:33:39Z</time></trkpt>
    <trkpt lat="48.58885" lon="14.18567"><ele>837</ele><time>2021-10-30T13:33:58Z</time></trkpt>
    <trkpt lat="48.59032" lon="14.18527"><ele>823</ele><time>2021-10-30T13:34:16Z</time></trkpt>
    <trkpt lat="48.59036" lon="14.18401"><ele>804</ele><time>2021-10-30T13:34:35Z</time></trkpt>
    <trkpt lat="48.59012" lon="14.18278"><ele>790</ele><time>2021-10-30T13:34:54Z</time></trkpt>
    <trkpt lat="48.59073" lon="14.18164"><ele>768</ele><time>2021-10-30T13:35:13Z</time></trkpt>
    <trkpt lat="48.59119" lon="14.18103"><ele>764</ele><time>2021-10-30T13:35:32Z</time></trkpt>
    <trkpt lat="48.59173" lon="14.18064"><ele>769</ele><time>2021-10-30T13:35:51Z</time></trkpt>
    <trkpt lat="48.59207" lon="14.17983"><ele>763</ele><time>2021-10-30T13:36:10Z</time></trkpt>
    <trkpt lat="48.59170" lon="14.17859"><ele>750</ele><time>2021-10-30T13:36:28Z</time></trkpt>
    <trkpt lat="48.59098" lon="14.17798"><ele>741</ele><time>2021-10-30T13:36:47Z</time></trkpt>
    <trkpt lat="48.59092" lon="14.17705"><ele>743</ele><time>2021-10-30T13:37:06Z</time></trkpt>
    <trkpt lat="48.59101" lon="14.17654"><ele>751</ele><time>2021-10-30T13:37:25Z</time></trkpt>
    <trkpt lat="48.59102" lon="14.17608"><ele>754</ele><time>2021-10-30T13:37:43Z</time></trkpt>
    <trkpt lat="48.59070" lon="14.17591"><ele>757</ele><time>2021-10-30T13:38:02Z</time></trkpt>
    <trkpt lat="48.59031" lon="14.17573"><ele>753</ele><time>2021-10-30T13:38:21Z</time></trkpt>
    <trkpt lat="48.58978" lon="14.17571"><ele>754</ele><time>2021-10-30T13:38:39Z</time></trkpt>
    <trkpt lat="48.58900" lon="14.17563"><ele>749</ele><time>2021-10-30T13:38:58Z</time></trkpt>
    <trkpt lat="48.58815" lon="14.17531"><ele>747</ele><time>2021-10-30T13:39:16Z</time></trkpt>
    <trkpt lat="48.58760" lon="14.17477"><ele>748</ele><time>2021-10-30T13:39:34Z</time></trkpt>
    <trkpt lat="48.58696" lon="14.17433"><ele>751</ele><time>2021-10-30T13:39:52Z</time></trkpt>
    <trkpt lat="48.58636" lon="14.17422"><ele>750</ele><time>2021-10-30T13:40:11Z</time></trkpt>
    <trkpt lat="48.58554" lon="14.17382"><ele>743</ele><time>2021-10-30T13:40:30Z</time></trkpt>
    <trkpt lat="48.58405" lon="14.17467"><ele>738</ele><time>2021-10-30T13:40:48Z</time></trkpt>
    <trkpt lat="48.58318" lon="14.17401"><ele>739</ele><time>2021-10-30T13:41:07Z</time></trkpt>
    <trkpt lat="48.58255" lon="14.17378"><ele>741</ele><time>2021-10-30T13:41:25Z</time></trkpt>
  </trkseg>
</trk>
</gpx>