<?xml version="1.0" encoding="UTF-8"?>
<gpx version="1.1" creator="GPX-Pro" xmlns="http://www.topografix.com/GPX/1/1">
<trk>
  <name>Nockplatte</name>
  <trkseg>
    <trkpt lat="47.75429" lon="14.31306"><ele>632</ele><time>2021-10-17T06:10:44Z</time></trkpt>
    <trkpt lat="47.75418" lon="14.31288"><ele>615</ele><time>2021-10-17T06:11:03Z</time></trkpt>
    <trkpt lat="47.75409" lon="14.31257"><ele>612</ele><time>2021-10-17T06:11:46Z</time></trkpt>
    <trkpt lat="47.75419" lon="14.31254"><ele>613</ele><time>2021-10-17T06:12:05Z</time></trkpt>
    <trkpt lat="47.75432" lon="14.31251"><ele>613</ele><time>2021-10-17T06:12:23Z</time></trkpt>
    <trkpt lat="47.75443" lon="14.31260"><ele>623</ele><time>2021-10-17T06:12:42Z</time></trkpt>
    <trkpt lat="47.75455" lon="14.31263"><ele>627</ele><time>2021-10-17T06:13:00Z</time></trkpt>
    <trkpt lat="47.75465" lon="14.31266"><ele>630</ele><time>2021-10-17T06:13:18Z</time></trkpt>
    <trkpt lat="47.75480" lon="14.31276"><ele>639</ele><time>2021-10-17T06:14:03Z</time></trkpt>
    <trkpt lat="47.75497" lon="14.31288"><ele>648</ele><time>2021-10-17T06:14:40Z</time></trkpt>
    <trkpt lat="47.75499" lon="14.31302"><ele>653</ele><time>2021-10-17T06:14:58Z</time></trkpt>
    <trkpt lat="47.75515" lon="14.31303"><ele>649</ele><time>2021-10-17T06:15:39Z</time></trkpt>
    <trkpt lat="47.75525" lon="14.31311"><ele>661</ele><time>2021-10-17T06:15:57Z</time></trkpt>
    <trkpt lat="47.75542" lon="14.31321"><ele>657</ele><time>2021-10-17T06:16:37Z</time></trkpt>
    <trkpt lat="47.75560" lon="14.31339"><ele>671</ele><time>2021-10-17T06:17:15Z</time></trkpt>
    <trkpt lat="47.75570" lon="14.31332"><ele>665</ele><time>2021-10-17T06:18:09Z</time></trkpt>
    <trkpt lat="47.75576" lon="14.31318"><ele>668</ele><time>2021-10-17T06:18:27Z</time></trkpt>
    <trkpt lat="47.75571" lon="14.31293"><ele>671</ele><time>2021-10-17T06:19:06Z</time></trkpt>
    <trkpt lat="47.75568" lon="14.31278"><ele>668</ele><time>2021-10-17T06:19:25Z</time></trkpt>
    <trkpt lat="47.75565" lon="14.31264"><ele>670</ele><time>2021-10-17T06:19:44Z</time></trkpt>
    <trkpt lat="47.75558" lon="14.31253"><ele>683</ele><time>2021-10-17T06:20:01Z</time></trkpt>
    <trkpt lat="47.75575" lon="14.31262"><ele>691</ele><time>2021-10-17T06:20:39Z</time></trkpt>
    <trkpt lat="47.75582" lon="14.31277"><ele>699</ele><time>2021-10-17T06:20:58Z</time></trkpt>
    <trkpt lat="47.75591" lon="14.31287"><ele>705</ele><time>2021-10-17T06:21:16Z</time></trkpt>
    <trkpt lat="47.75608" lon="14.31289"><ele>698</ele><time>2021-10-17T06:21:54Z</time></trkpt>
    <trkpt lat="47.75615" lon="14.31299"><ele>702</ele><time>2021-10-17T06:22:13Z</time></trkpt>
    <trkpt lat="47.75622" lon="14.31307"><ele>707</ele><time>2021-10-17T06:22:32Z</time></trkpt>
    <trkpt lat="47.75631" lon="14.31314"><ele>712</ele><time>2021-10-17T06:22:51Z</time></trkpt>
    <trkpt lat="47.75645" lon="14.31329"><ele>719</ele><time>2021-10-17T06:23:30Z</time></trkpt>
    <trkpt lat="47.75663" lon="14.31348"><ele>724</ele><time>2021-10-17T06:24:08Z</time></trkpt>
    <trkpt lat="47.75679" lon="14.31357"><ele>718</ele><time>2021-10-17T06:24:45Z</time></trkpt>
    <trkpt lat="47.75690" lon="14.31360"><ele>724</ele><time>2021-10-17T06:25:04Z</time></trkpt>
    <trkpt lat="47.75696" lon="14.31371"><ele>726</ele><time>2021-10-17T06:25:22Z</time></trkpt>
    <trkpt lat="47.75706" lon="14.31380"><ele>729</ele><time>2021-10-17T06:25:40Z</time></trkpt>
    <trkpt lat="47.75715" lon="14.31389"><ele>731</ele><time>2021-10-17T06:25:58Z</time></trkpt>
    <trkpt lat="47.75724" lon="14.31402"><ele>735</ele><time>2021-10-17T06:26:16Z</time></trkpt>
    <trkpt lat="47.75732" lon="14.31408"><ele>739</ele><time>2021-10-17T06:26:34Z</time></trkpt>
    <trkpt lat="47.75747" lon="14.31429"><ele>744</ele><time>2021-10-17T06:27:11Z</time></trkpt>
    <trkpt lat="47.75759" lon="14.31437"><ele>745</ele><time>2021-10-17T06:27:30Z</time></trkpt>
    <trkpt lat="47.75771" lon="14.31450"><ele>746</ele><time>2021-10-17T06:27:48Z</time></trkpt>
    <trkpt lat="47.75784" lon="14.31458"><ele>751</ele><time>2021-10-17T06:28:07Z</time></trkpt>
    <trkpt lat="47.75801" lon="14.31468"><ele>757</ele><time>2021-10-17T06:28:25Z</time></trkpt>
    <trkpt lat="47.75821" lon="14.31484"><ele>750</ele><time>2021-10-17T06:28:44Z</time></trkpt>
    <trkpt lat="47.75838" lon="14.31491"><ele>754</ele><time>2021-10-17T06:29:02Z</time></trkpt>
    <trkpt lat="47.75857" lon="14.31493"><ele>761</ele><time>2021-10-17T06:29:21Z</time></trkpt>
    <trkpt lat="47.75876" lon="14.31491"><ele>760</ele><time>2021-10-17T06:29:39Z</time></trkpt>
    <trkpt lat="47.75892" lon="14.31499"><ele>766</ele><time>2021-10-17T06:29:58Z</time></trkpt>
    <trkpt lat="47.75906" lon="14.31522"><ele>772</ele><time>2021-10-17T06:30:17Z</time></trkpt>
    <trkpt lat="47.75916" lon="14.31538"><ele>770</ele><time>2021-10-17T06:30:36Z</time></trkpt>
    <trkpt lat="47.75927" lon="14.31553"><ele>773</ele><time>2021-10-17T06:30:54Z</time></trkpt>
    <trkpt lat="47.75935" lon="14.31561"><ele>771</ele><time>2021-10-17T06:31:12Z</time></trkpt>
    <trkpt lat="47.75943" lon="14.31571"><ele>776</ele><time>2021-10-17T06:31:31Z</time></trkpt>
    <trkpt lat="47.75948" lon="14.31586"><ele>783</ele><time>2021-10-17T06:31:49Z</time></trkpt>
    <trkpt lat="47.75947" lon="14.31600"><ele>790</ele><time>2021-10-17T06:32:08Z</time></trkpt>
    <trkpt lat="47.75949" lon="14.31616"><ele>784</ele><time>2021-10-17T06:32:27Z</time></trkpt>
    <trkpt lat="47.75959" lon="14.31625"><ele>783</ele><time>2021-10-17T06:32:45Z</time></trkpt>
    <trkpt lat="47.75965" lon="14.31637"><ele>783</ele><time>2021-10-17T06:33:04Z</time></trkpt>
    <trkpt lat="47.75969" lon="14.31614"><ele>782</ele><time>2021-10-17T06:34:00Z</time></trkpt>
    <trkpt lat="47.75972" lon="14.31596"><ele>788</ele><time>2021-10-17T06:34:18Z</time></trkpt>
    <trkpt lat="47.75976" lon="14.31584"><ele>790</ele><time>2021-10-17T06:34:37Z</time></trkpt>
    <trkpt lat="47.75984" lon="14.31594"><ele>791</ele><time>2021-10-17T06:34:55Z</time></trkpt>
    <trkpt lat="47.76000" lon="14.31587"><ele>791</ele><time>2021-10-17T06:35:36Z</time></trkpt>
    <trkpt lat="47.75999" lon="14.31569"><ele>800</ele><time>2021-10-17T06:35:55Z</time></trkpt>
    <trkpt lat="47.76001" lon="14.31553"><ele>803</ele><time>2021-10-17T06:36:13Z</time></trkpt>
    <trkpt lat="47.76008" lon="14.31532"><ele>813</ele><time>2021-10-17T06:37:04Z</time></trkpt>
    <trkpt lat="47.76017" lon="14.31541"><ele>816</ele><time>2021-10-17T06:37:23Z</time></trkpt>
    <trkpt lat="47.76026" lon="14.31561"><ele>820</ele><time>2021-10-17T06:38:08Z</time></trkpt>
    <trkpt lat="47.76032" lon="14.31573"><ele>824</ele><time>2021-10-17T06:38:26Z</time></trkpt>
    <trkpt lat="47.76048" lon="14.31577"><ele>830</ele><time>2021-10-17T06:39:13Z</time></trkpt>
    <trkpt lat="47.76069" lon="14.31588"><ele>833</ele><time>2021-10-17T06:40:01Z</time></trkpt>
    <trkpt lat="47.76079" lon="14.31590"><ele>829</ele><time>2021-10-17T06:40:19Z</time></trkpt>
    <trkpt lat="47.76072" lon="14.31568"><ele>839</ele><time>2021-10-17T06:41:10Z</time></trkpt>
    <trkpt lat="47.76077" lon="14.31549"><ele>856</ele><time>2021-10-17T06:44:41Z</time></trkpt>
    <trkpt lat="47.76095" lon="14.31560"><ele>862</ele><time>2021-10-17T06:45:20Z</time></trkpt>
    <trkpt lat="47.76099" lon="14.31573"><ele>859</ele><time>2021-10-17T06:45:39Z</time></trkpt>
    <trkpt lat="47.76113" lon="14.31585"><ele>865</ele><time>2021-10-17T06:46:21Z</time></trkpt>
    <trkpt lat="47.76118" lon="14.31572"><ele>865</ele><time>2021-10-17T06:46:40Z</time></trkpt>
    <trkpt lat="47.76122" lon="14.31554"><ele>875</ele><time>2021-10-17T06:46:58Z</time></trkpt>
    <trkpt lat="47.76139" lon="14.31564"><ele>884</ele><time>2021-10-17T06:47:49Z</time></trkpt>
    <trkpt lat="47.76146" lon="14.31574"><ele>885</ele><time>2021-10-17T06:48:08Z</time></trkpt>
    <trkpt lat="47.76156" lon="14.31579"><ele>883</ele><time>2021-10-17T06:48:27Z</time></trkpt>
    <trkpt lat="47.76166" lon="14.31572"><ele>890</ele><time>2021-10-17T06:49:20Z</time></trkpt>
    <trkpt lat="47.76173" lon="14.31555"><ele>894</ele><time>2021-10-17T06:49:39Z</time></trkpt>
    <trkpt lat="47.76182" lon="14.31541"><ele>899</ele><time>2021-10-17T06:50:20Z</time></trkpt>
    <trkpt lat="47.76195" lon="14.31537"><ele>903</ele><time>2021-10-17T06:51:21Z</time></trkpt>
    <trkpt lat="47.76204" lon="14.31541"><ele>906</ele><time>2021-10-17T06:51:40Z</time></trkpt>
    <trkpt lat="47.76224" lon="14.31539"><ele>911</ele><time>2021-10-17T06:52:18Z</time></trkpt>
    <trkpt lat="47.76233" lon="14.31532"><ele>900</ele><time>2021-10-17T06:52:36Z</time></trkpt>
    <trkpt lat="47.76243" lon="14.31526"><ele>911</ele><time>2021-10-17T06:52:55Z</time></trkpt>
    <trkpt lat="47.76261" lon="14.31544"><ele>887</ele><time>2021-10-17T06:53:46Z</time></trkpt>
    <trkpt lat="47.76262" lon="14.31560"><ele>908</ele><time>2021-10-17T06:54:05Z</time></trkpt>
    <trkpt lat="47.76269" lon="14.31570"><ele>919</ele><time>2021-10-17T06:54:24Z</time></trkpt>
    <trkpt lat="47.76280" lon="14.31594"><ele>929</ele><time>2021-10-17T06:55:08Z</time></trkpt>
    <trkpt lat="47.76291" lon="14.31598"><ele>916</ele><time>2021-10-17T06:55:26Z</time></trkpt>
    <trkpt lat="47.76304" lon="14.31610"><ele>942</ele><time>2021-10-17T06:56:19Z</time></trkpt>
    <trkpt lat="47.76320" lon="14.31616"><ele>930</ele><time>2021-10-17T06:56:57Z</time></trkpt>
    <trkpt lat="47.76334" lon="14.31629"><ele>942</ele><time>2021-10-17T06:57:37Z</time></trkpt>
    <trkpt lat="47.76345" lon="14.31634"><ele>935</ele><time>2021-10-17T06:57:55Z</time></trkpt>
    <trkpt lat="47.76355" lon="14.31637"><ele>905</ele><time>2021-10-17T06:58:13Z</time></trkpt>
    <trkpt lat="47.76366" lon="14.31638"><ele>907</ele><time>2021-10-17T06:58:32Z</time></trkpt>
    <trkpt lat="47.76373" lon="14.31648"><ele>927</ele><time>2021-10-17T06:58:51Z</time></trkpt>
    <trkpt lat="47.76383" lon="14.31649"><ele>959</ele><time>2021-10-17T06:59:09Z</time></trkpt>
    <trkpt lat="47.76392" lon="14.31656"><ele>937</ele><time>2021-10-17T06:59:28Z</time></trkpt>
    <trkpt lat="47.76403" lon="14.31660"><ele>952</ele><time>2021-10-17T06:59:47Z</time></trkpt>
    <trkpt lat="47.76415" lon="14.31662"><ele>901</ele><time>2021-10-17T07:00:05Z</time></trkpt>
    <trkpt lat="47.76429" lon="14.31676"><ele>939</ele><time>2021-10-17T07:00:45Z</time></trkpt>
    <trkpt lat="47.76441" lon="14.31674"><ele>932</ele><time>2021-10-17T07:01:03Z</time></trkpt>
    <trkpt lat="47.76455" lon="14.31664"><ele>906</ele><time>2021-10-17T07:01:21Z</time></trkpt>
    <trkpt lat="47.76469" lon="14.31658"><ele>951</ele><time>2021-10-17T07:01:40Z</time></trkpt>
    <trkpt lat="47.76485" lon="14.31659"><ele>961</ele><time>2021-10-17T07:01:59Z</time></trkpt>
    <trkpt lat="47.76499" lon="14.31649"><ele>969</ele><time>2021-10-17T07:02:17Z</time></trkpt>
    <trkpt lat="47.76514" lon="14.31654"><ele>938</ele><time>2021-10-17T07:02:35Z</time></trkpt>
    <trkpt lat="47.76526" lon="14.31651"><ele>922</ele><time>2021-10-17T07:02:54Z</time></trkpt>
    <trkpt lat="47.76539" lon="14.31635"><ele>962</ele><time>2021-10-17T07:06:38Z</time></trkpt>
    <trkpt lat="47.76551" lon="14.31633"><ele>985</ele><time>2021-10-17T07:06:57Z</time></trkpt>
    <trkpt lat="47.76566" lon="14.31642"><ele>965</ele><time>2021-10-17T07:07:41Z</time></trkpt>
    <trkpt lat="47.76575" lon="14.31648"><ele>962</ele><time>2021-10-17T07:07:59Z</time></trkpt>
    <trkpt lat="47.76583" lon="14.31655"><ele>966</ele><time>2021-10-17T07:08:17Z</time></trkpt>
    <trkpt lat="47.76600" lon="14.31660"><ele>999</ele><time>2021-10-17T07:08:57Z</time></trkpt>
    <trkpt lat="47.76606" lon="14.31678"><ele>1016</ele><time>2021-10-17T07:09:16Z</time></trkpt>
    <trkpt lat="47.76606" lon="14.31696"><ele>977</ele><time>2021-10-17T07:09:35Z</time></trkpt>
    <trkpt lat="47.76615" lon="14.31711"><ele>1018</ele><time>2021-10-17T07:09:54Z</time></trkpt>
    <trkpt lat="47.76630" lon="14.31729"><ele>1021</ele><time>2021-10-17T07:10:34Z</time></trkpt>
    <trkpt lat="47.76648" lon="14.31711"><ele>1034</ele><time>2021-10-17T07:11:19Z</time></trkpt>
    <trkpt lat="47.76649" lon="14.31694"><ele>1039</ele><time>2021-10-17T07:11:38Z</time></trkpt>
    <trkpt lat="47.76659" lon="14.31715"><ele>1042</ele><time>2021-10-17T07:12:20Z</time></trkpt>
    <trkpt lat="47.76664" lon="14.31729"><ele>1049</ele><time>2021-10-17T07:12:38Z</time></trkpt>
    <trkpt lat="47.76669" lon="14.31746"><ele>1026</ele><time>2021-10-17T07:12:57Z</time></trkpt>
    <trkpt lat="47.76676" lon="14.31758"><ele>1056</ele><time>2021-10-17T07:13:16Z</time></trkpt>
    <trkpt lat="47.76683" lon="14.31773"><ele>1054</ele><time>2021-10-17T07:13:35Z</time></trkpt>
    <trkpt lat="47.76689" lon="14.31788"><ele>1057</ele><time>2021-10-17T07:13:54Z</time></trkpt>
    <trkpt lat="47.76686" lon="14.31805"><ele>1063</ele><time>2021-10-17T07:14:13Z</time></trkpt>
    <trkpt lat="47.76680" lon="14.31822"><ele>1063</ele><time>2021-10-17T07:14:32Z</time></trkpt>
    <trkpt lat="47.76674" lon="14.31835"><ele>1023</ele><time>2021-10-17T07:14:50Z</time></trkpt>
    <trkpt lat="47.76689" lon="14.31846"><ele>1068</ele><time>2021-10-17T07:15:08Z</time></trkpt>
    <trkpt lat="47.76700" lon="14.31852"><ele>1061</ele><time>2021-10-17T07:15:27Z</time></trkpt>
    <trkpt lat="47.76710" lon="14.31857"><ele>1077</ele><time>2021-10-17T07:15:45Z</time></trkpt>
    <trkpt lat="47.76720" lon="14.31854"><ele>1077</ele><time>2021-10-17T07:16:04Z</time></trkpt>
    <trkpt lat="47.76728" lon="14.31846"><ele>1082</ele><time>2021-10-17T07:16:22Z</time></trkpt>
    <trkpt lat="47.76736" lon="14.31839"><ele>1086</ele><time>2021-10-17T07:16:41Z</time></trkpt>
    <trkpt lat="47.76749" lon="14.31826"><ele>1097</ele><time>2021-10-17T07:17:18Z</time></trkpt>
    <trkpt lat="47.76754" lon="14.31813"><ele>1102</ele><time>2021-10-17T07:17:37Z</time></trkpt>
    <trkpt lat="47.76768" lon="14.31820"><ele>1094</ele><time>2021-10-17T07:18:35Z</time></trkpt>
    <trkpt lat="47.76778" lon="14.31840"><ele>1119</ele><time>2021-10-17T07:19:21Z</time></trkpt>
    <trkpt lat="47.76776" lon="14.31853"><ele>1128</ele><time>2021-10-17T07:19:40Z</time></trkpt>
    <trkpt lat="47.76773" lon="14.31878"><ele>1126</ele><time>2021-10-17T07:20:17Z</time></trkpt>
    <trkpt lat="47.76771" lon="14.31892"><ele>1127</ele><time>2021-10-17T07:20:36Z</time></trkpt>
    <trkpt lat="47.76769" lon="14.31911"><ele>1131</ele><time>2021-10-17T07:20:55Z</time></trkpt>
    <trkpt lat="47.76769" lon="14.31928"><ele>1116</ele><time>2021-10-17T07:21:13Z</time></trkpt>
    <trkpt lat="47.76766" lon="14.31944"><ele>1132</ele><time>2021-10-17T07:21:32Z</time></trkpt>
    <trkpt lat="47.76761" lon="14.31961"><ele>1006</ele><time>2021-10-17T07:21:50Z</time></trkpt>
    <trkpt lat="47.76759" lon="14.31979"><ele>1136</ele><time>2021-10-17T07:22:08Z</time></trkpt>
    <trkpt lat="47.76761" lon="14.31999"><ele>1101</ele><time>2021-10-17T07:22:27Z</time></trkpt>
    <trkpt lat="47.76773" lon="14.32004"><ele>1136</ele><time>2021-10-17T07:22:46Z</time></trkpt>
    <trkpt lat="47.76766" lon="14.32017"><ele>1144</ele><time>2021-10-17T07:23:05Z</time></trkpt>
    <trkpt lat="47.76764" lon="14.32032"><ele>1136</ele><time>2021-10-17T07:23:24Z</time></trkpt>
    <trkpt lat="47.76766" lon="14.32061"><ele>1157</ele><time>2021-10-17T07:24:02Z</time></trkpt>
    <trkpt lat="47.76772" lon="14.32074"><ele>1166</ele><time>2021-10-17T07:24:21Z</time></trkpt>
    <trkpt lat="47.76778" lon="14.32088"><ele>1156</ele><time>2021-10-17T07:24:40Z</time></trkpt>
    <trkpt lat="47.76786" lon="14.32099"><ele>1173</ele><time>2021-10-17T07:24:58Z</time></trkpt>
    <trkpt lat="47.76798" lon="14.32085"><ele>1172</ele><time>2021-10-17T07:25:17Z</time></trkpt>
    <trkpt lat="47.76811" lon="14.32080"><ele>1115</ele><time>2021-10-17T07:25:36Z</time></trkpt>
    <trkpt lat="47.76823" lon="14.32074"><ele>1136</ele><time>2021-10-17T07:25:55Z</time></trkpt>
    <trkpt lat="47.76832" lon="14.32068"><ele>1189</ele><time>2021-10-17T07:26:13Z</time></trkpt>
    <trkpt lat="47.76840" lon="14.32054"><ele>1140</ele><time>2021-10-17T07:26:32Z</time></trkpt>
    <trkpt lat="47.76846" lon="14.32037"><ele>1174</ele><time>2021-10-17T07:26:51Z</time></trkpt>
    <trkpt lat="47.76873" lon="14.31990"><ele>1169</ele><time>2021-10-17T07:28:24Z</time></trkpt>
    <trkpt lat="47.76886" lon="14.31955"><ele>1126</ele><time>2021-10-17T07:29:01Z</time></trkpt>
    <trkpt lat="47.76901" lon="14.31915"><ele>1173</ele><time>2021-10-17T07:29:37Z</time></trkpt>
    <trkpt lat="47.76907" lon="14.31899"><ele>1208</ele><time>2021-10-17T07:29:56Z</time></trkpt>
    <trkpt lat="47.76915" lon="14.31885"><ele>1202</ele><time>2021-10-17T07:30:14Z</time></trkpt>
    <trkpt lat="47.76924" lon="14.31906"><ele>1186</ele><time>2021-10-17T07:31:10Z</time></trkpt>
    <trkpt lat="47.76943" lon="14.31906"><ele>1228</ele><time>2021-10-17T07:32:14Z</time></trkpt>
    <trkpt lat="47.76955" lon="14.31889"><ele>1249</ele><time>2021-10-17T07:33:00Z</time></trkpt>
    <trkpt lat="47.76965" lon="14.31879"><ele>1254</ele><time>2021-10-17T07:33:19Z</time></trkpt>
    <trkpt lat="47.76988" lon="14.31867"><ele>1180</ele><time>2021-10-17T07:34:23Z</time></trkpt>
    <trkpt lat="47.77008" lon="14.31880"><ele>1187</ele><time>2021-10-17T07:35:25Z</time></trkpt>
    <trkpt lat="47.77019" lon="14.31866"><ele>1201</ele><time>2021-10-17T07:36:12Z</time></trkpt>
    <trkpt lat="47.77019" lon="14.31841"><ele>1204</ele><time>2021-10-17T07:36:50Z</time></trkpt>
    <trkpt lat="47.77034" lon="14.31864"><ele>1293</ele><time>2021-10-17T07:37:42Z</time></trkpt>
    <trkpt lat="47.77043" lon="14.31868"><ele>1236</ele><time>2021-10-17T07:38:01Z</time></trkpt>
    <trkpt lat="47.77056" lon="14.31888"><ele>1283</ele><time>2021-10-17T07:38:38Z</time></trkpt>
    <trkpt lat="47.77069" lon="14.31910"><ele>1274</ele><time>2021-10-17T07:39:15Z</time></trkpt>
    <trkpt lat="47.77081" lon="14.31924"><ele>1210</ele><time>2021-10-17T07:39:58Z</time></trkpt>
    <trkpt lat="47.77091" lon="14.31925"><ele>1145</ele><time>2021-10-17T07:40:17Z</time></trkpt>
    <trkpt lat="47.77106" lon="14.31891"><ele>1296</ele><time>2021-10-17T07:40:55Z</time></trkpt>
    <trkpt lat="47.77112" lon="14.31860"><ele>1294</ele><time>2021-10-17T07:41:32Z</time></trkpt>
    <trkpt lat="47.77115" lon="14.31846"><ele>1336</ele><time>2021-10-17T07:41:50Z</time></trkpt>
    <trkpt lat="47.77122" lon="14.31832"><ele>1317</ele><time>2021-10-17T07:42:09Z</time></trkpt>
    <trkpt lat="47.77125" lon="14.31816"><ele>1324</ele><time>2021-10-17T07:42:28Z</time></trkpt>
    <trkpt lat="47.77120" lon="14.31803"><ele>1202</ele><time>2021-10-17T07:42:47Z</time></trkpt>
    <trkpt lat="47.77111" lon="14.31784"><ele>1293</ele><time>2021-10-17T07:43:05Z</time></trkpt>
    <trkpt lat="47.77100" lon="14.31759"><ele>1339</ele><time>2021-10-17T07:43:23Z</time></trkpt>
    <trkpt lat="47.77082" lon="14.31701"><ele>1250</ele><time>2021-10-17T07:44:18Z</time></trkpt>
    <trkpt lat="47.77090" lon="14.31669"><ele>1354</ele><time>2021-10-17T07:45:01Z</time></trkpt>
    <trkpt lat="47.77093" lon="14.31651"><ele>1184</ele><time>2021-10-17T07:45:20Z</time></trkpt>
    <trkpt lat="47.77097" lon="14.31623"><ele>1364</ele><time>2021-10-17T07:45:57Z</time></trkpt>
    <trkpt lat="47.77103" lon="14.31646"><ele>1373</ele><time>2021-10-17T07:46:36Z</time></trkpt>
    <trkpt lat="47.77112" lon="14.31642"><ele>1326</ele><time>2021-10-17T07:46:55Z</time></trkpt>
    <trkpt lat="47.77129" lon="14.31626"><ele>1268</ele><time>2021-10-17T07:47:32Z</time></trkpt>
    <trkpt lat="47.77146" lon="14.31630"><ele>1401</ele><time>2021-10-17T07:48:24Z</time></trkpt>
    <trkpt lat="47.77149" lon="14.31660"><ele>1401</ele><time>2021-10-17T07:49:06Z</time></trkpt>
    <trkpt lat="47.77157" lon="14.31688"><ele>1369</ele><time>2021-10-17T07:49:43Z</time></trkpt>
    <trkpt lat="47.77172" lon="14.31689"><ele>1296</ele><time>2021-10-17T07:50:02Z</time></trkpt>
    <trkpt lat="47.77185" lon="14.31689"><ele>1343</ele><time>2021-10-17T07:50:21Z</time></trkpt>
    <trkpt lat="47.77193" lon="14.31702"><ele>1395</ele><time>2021-10-17T07:50:40Z</time></trkpt>
    <trkpt lat="47.77199" lon="14.31720"><ele>1391</ele><time>2021-10-17T07:50:59Z</time></trkpt>
    <trkpt lat="47.77213" lon="14.31726"><ele>1418</ele><time>2021-10-17T08:14:06Z</time></trkpt>
    <trkpt lat="47.77220" lon="14.31695"><ele>1419</ele><time>2021-10-17T08:18:11Z</time></trkpt>
    <trkpt lat="47.77213" lon="14.31664"><ele>1409</ele><time>2021-10-17T08:18:50Z</time></trkpt>
    <trkpt lat="47.77211" lon="14.31630"><ele>1355</ele><time>2021-10-17T08:19:57Z</time></trkpt>
    <trkpt lat="47.77213" lon="14.31614"><ele>1408</ele><time>2021-10-17T08:20:16Z</time></trkpt>
    <trkpt lat="47.77218" lon="14.31600"><ele>1419</ele><time>2021-10-17T08:20:34Z</time></trkpt>
    <trkpt lat="47.77227" lon="14.31611"><ele>1349</ele><time>2021-10-17T08:21:32Z</time></trkpt>
    <trkpt lat="47.77234" lon="14.31595"><ele>1458</ele><time>2021-10-17T08:21:51Z</time></trkpt>
    <trkpt lat="47.77246" lon="14.31619"><ele>1382</ele><time>2021-10-17T08:22:28Z</time></trkpt>
    <trkpt lat="47.77253" lon="14.31633"><ele>1470</ele><time>2021-10-17T08:22:46Z</time></trkpt>
    <trkpt lat="47.77262" lon="14.31642"><ele>1469</ele><time>2021-10-17T08:23:05Z</time></trkpt>
    <trkpt lat="47.77263" lon="14.31658"><ele>1444</ele><time>2021-10-17T08:23:23Z</time></trkpt>
    <trkpt lat="47.77280" lon="14.31648"><ele>1453</ele><time>2021-10-17T08:24:02Z</time></trkpt>
    <trkpt lat="47.77284" lon="14.31661"><ele>1473</ele><time>2021-10-17T08:24:21Z</time></trkpt>
    <trkpt lat="47.77297" lon="14.31667"><ele>1308</ele><time>2021-10-17T08:25:05Z</time></trkpt>
    <trkpt lat="47.77301" lon="14.31650"><ele>1470</ele><time>2021-10-17T08:25:24Z</time></trkpt>
    <trkpt lat="47.77310" lon="14.31629"><ele>1383</ele><time>2021-10-17T08:26:02Z</time></trkpt>
    <trkpt lat="47.77314" lon="14.31614"><ele>1417</ele><time>2021-10-17T08:26:20Z</time></trkpt>
    <trkpt lat="47.77319" lon="14.31588"><ele>1493</ele><time>2021-10-17T08:26:57Z</time></trkpt>
    <trkpt lat="47.77317" lon="14.31571"><ele>1483</ele><time>2021-10-17T08:27:15Z</time></trkpt>
    <trkpt lat="47.77334" lon="14.31573"><ele>1473</ele><time>2021-10-17T08:28:21Z</time></trkpt>
    <trkpt lat="47.77344" lon="14.31578"><ele>1458</ele><time>2021-10-17T08:28:39Z</time></trkpt>
    <trkpt lat="47.77355" lon="14.31599"><ele>1520</ele><time>2021-10-17T08:29:17Z</time></trkpt>
    <trkpt lat="47.77363" lon="14.31572"><ele>1432</ele><time>2021-10-17T08:29:59Z</time></trkpt>
    <trkpt lat="47.77363" lon="14.31556"><ele>1530</ele><time>2021-10-17T08:30:18Z</time></trkpt>
    <trkpt lat="47.77366" lon="14.31541"><ele>1374</ele><time>2021-10-17T08:31:07Z</time></trkpt>
    <trkpt lat="47.77379" lon="14.31525"><ele>1544</ele><time>2021-10-17T08:31:57Z</time></trkpt>
    <trkpt lat="47.77385" lon="14.31505"><ele>1477</ele><time>2021-10-17T08:32:15Z</time></trkpt>
    <trkpt lat="47.77390" lon="14.31488"><ele>1539</ele><time>2021-10-17T08:32:33Z</time></trkpt>
    <trkpt lat="47.77391" lon="14.31467"><ele>1544</ele><time>2021-10-17T08:32:52Z</time></trkpt>
    <trkpt lat="47.77392" lon="14.31444"><ele>1546</ele><time>2021-10-17T08:33:10Z</time></trkpt>
    <trkpt lat="47.77390" lon="14.31429"><ele>1546</ele><time>2021-10-17T08:33:29Z</time></trkpt>
    <trkpt lat="47.77383" lon="14.31409"><ele>1542</ele><time>2021-10-17T08:34:11Z</time></trkpt>
    <trkpt lat="47.77374" lon="14.31392"><ele>1536</ele><time>2021-10-17T08:34:30Z</time></trkpt>
    <trkpt lat="47.77376" lon="14.31379"><ele>1538</ele><time>2021-10-17T08:34:49Z</time></trkpt>
    <trkpt lat="47.77375" lon="14.31366"><ele>1540</ele><time>2021-10-17T08:36:00Z</time></trkpt>
    <trkpt lat="47.77374" lon="14.31342"><ele>1537</ele><time>2021-10-17T08:36:19Z</time></trkpt>
    <trkpt lat="47.77383" lon="14.31324"><ele>1539</ele><time>2021-10-17T08:36:38Z</time></trkpt>
    <trkpt lat="47.77392" lon="14.31307"><ele>1542</ele><time>2021-10-17T08:36:57Z</time></trkpt>
    <trkpt lat="47.77385" lon="14.31286"><ele>1542</ele><time>2021-10-17T08:37:15Z</time></trkpt>
    <trkpt lat="47.77401" lon="14.31293"><ele>1537</ele><time>2021-10-17T08:38:14Z</time></trkpt>
    <trkpt lat="47.77413" lon="14.31305"><ele>1550</ele><time>2021-10-17T08:39:16Z</time></trkpt>
    <trkpt lat="47.77423" lon="14.31324"><ele>1553</ele><time>2021-10-17T08:39:59Z</time></trkpt>
    <trkpt lat="47.77435" lon="14.31330"><ele>1555</ele><time>2021-10-17T08:40:35Z</time></trkpt>
    <trkpt lat="47.77446" lon="14.31326"><ele>1556</ele><time>2021-10-17T08:40:54Z</time></trkpt>
    <trkpt lat="47.77455" lon="14.31322"><ele>1564</ele><time>2021-10-17T08:41:13Z</time></trkpt>
    <trkpt lat="47.77471" lon="14.31309"><ele>1568</ele><time>2021-10-17T08:41:50Z</time></trkpt>
    <trkpt lat="47.77487" lon="14.31299"><ele>1569</ele><time>2021-10-17T08:42:30Z</time></trkpt>
    <trkpt lat="47.77497" lon="14.31292"><ele>1562</ele><time>2021-10-17T08:42:49Z</time></trkpt>
    <trkpt lat="47.77506" lon="14.31278"><ele>1568</ele><time>2021-10-17T08:43:08Z</time></trkpt>
    <trkpt lat="47.77520" lon="14.31291"><ele>1580</ele><time>2021-10-17T08:44:14Z</time></trkpt>
    <trkpt lat="47.77531" lon="14.31312"><ele>1589</ele><time>2021-10-17T08:44:53Z</time></trkpt>
    <trkpt lat="47.77551" lon="14.31318"><ele>1579</ele><time>2021-10-17T08:46:31Z</time></trkpt>
    <trkpt lat="47.77568" lon="14.31318"><ele>1584</ele><time>2021-10-17T08:47:28Z</time></trkpt>
    <trkpt lat="47.77585" lon="14.31319"><ele>1473</ele><time>2021-10-17T08:48:08Z</time></trkpt>
    <trkpt lat="47.77594" lon="14.31326"><ele>1584</ele><time>2021-10-17T08:48:26Z</time></trkpt>
    <trkpt lat="47.77609" lon="14.31318"><ele>1608</ele><time>2021-10-17T08:49:16Z</time></trkpt>
    <trkpt lat="47.77620" lon="14.31314"><ele>1611</ele><time>2021-10-17T08:49:34Z</time></trkpt>
    <trkpt lat="47.77639" lon="14.31301"><ele>1613</ele><time>2021-10-17T08:50:22Z</time></trkpt>
    <trkpt lat="47.77648" lon="14.31297"><ele>1616</ele><time>2021-10-17T08:50:41Z</time></trkpt>
    <trkpt lat="47.77657" lon="14.31306"><ele>1626</ele><time>2021-10-17T08:50:59Z</time></trkpt>
    <trkpt lat="47.77670" lon="14.31295"><ele>1563</ele><time>2021-10-17T08:51:51Z</time></trkpt>
    <trkpt lat="47.77682" lon="14.31305"><ele>1626</ele><time>2021-10-17T08:52:43Z</time></trkpt>
    <trkpt lat="47.77690" lon="14.31311"><ele>1624</ele><time>2021-10-17T08:53:01Z</time></trkpt>
    <trkpt lat="47.77706" lon="14.31316"><ele>1625</ele><time>2021-10-17T08:53:41Z</time></trkpt>
    <trkpt lat="47.77711" lon="14.31327"><ele>1629</ele><time>2021-10-17T08:54:00Z</time></trkpt>
    <trkpt lat="47.77728" lon="14.31346"><ele>1634</ele><time>2021-10-17T08:54:37Z</time></trkpt>
    <trkpt lat="47.77744" lon="14.31355"><ele>1637</ele><time>2021-10-17T08:55:26Z</time></trkpt>
    <trkpt lat="47.77757" lon="14.31368"><ele>1643</ele><time>2021-10-17T08:56:09Z</time></trkpt>
    <trkpt lat="47.77770" lon="14.31388"><ele>1651</ele><time>2021-10-17T08:56:54Z</time></trkpt>
    <trkpt lat="47.77775" lon="14.31400"><ele>1652</ele><time>2021-10-17T08:57:13Z</time></trkpt>
    <trkpt lat="47.77778" lon="14.31427"><ele>1658</ele><time>2021-10-17T08:58:00Z</time></trkpt>
    <trkpt lat="47.77789" lon="14.31446"><ele>1659</ele><time>2021-10-17T08:58:51Z</time></trkpt>
    <trkpt lat="47.77805" lon="14.31449"><ele>1661</ele><time>2021-10-17T08:59:32Z</time></trkpt>
    <trkpt lat="47.77813" lon="14.31458"><ele>1667</ele><time>2021-10-17T08:59:50Z</time></trkpt>
    <trkpt lat="47.77819" lon="14.31471"><ele>1670</ele><time>2021-10-17T09:00:09Z</time></trkpt>
    <trkpt lat="47.77830" lon="14.31483"><ele>1643</ele><time>2021-10-17T09:00:27Z</time></trkpt>
    <trkpt lat="47.77845" lon="14.31479"><ele>1602</ele><time>2021-10-17T09:02:05Z</time></trkpt>
    <trkpt lat="47.77864" lon="14.31485"><ele>1679</ele><time>2021-10-17T09:03:42Z</time></trkpt>
    <trkpt lat="47.77879" lon="14.31494"><ele>1692</ele><time>2021-10-17T09:04:45Z</time></trkpt>
    <trkpt lat="47.77895" lon="14.31500"><ele>1704</ele><time>2021-10-17T09:05:46Z</time></trkpt>
    <trkpt lat="47.77910" lon="14.31512"><ele>1705</ele><time>2021-10-17T09:06:39Z</time></trkpt>
    <trkpt lat="47.77932" lon="14.31524"><ele>1715</ele><time>2021-10-17T09:08:32Z</time></trkpt>
    <trkpt lat="47.77943" lon="14.31514"><ele>1735</ele><time>2021-10-17T09:09:39Z</time></trkpt>
    <trkpt lat="47.77954" lon="14.31497"><ele>1738</ele><time>2021-10-17T09:11:01Z</time></trkpt>
    <trkpt lat="47.77966" lon="14.31466"><ele>1600</ele><time>2021-10-17T09:12:51Z</time></trkpt>
    <trkpt lat="47.77971" lon="14.31442"><ele>1671</ele><time>2021-10-17T09:14:03Z</time></trkpt>
    <trkpt lat="47.77982" lon="14.31432"><ele>1737</ele><time>2021-10-17T09:33:12Z</time></trkpt>
    <trkpt lat="47.77998" lon="14.31438"><ele>1726</ele><time>2021-10-17T10:19:49Z</time></trkpt>
    <trkpt lat="47.78022" lon="14.31439"><ele>1827</ele><time>2021-10-17T10:37:08Z</time></trkpt>
    <trkpt lat="47.78038" lon="14.31436"><ele>1856</ele><time>2021-10-17T11:10:12Z</time></trkpt>
    <trkpt lat="47.78051" lon="14.31420"><ele>1787</ele><time>2021-10-17T11:39:01Z</time></trkpt>
    <trkpt lat="47.78060" lon="14.31418"><ele>1893</ele><time>2021-10-17T11:53:16Z</time></trkpt>
    <trkpt lat="47.78080" lon="14.31410"><ele>1873</ele><time>2021-10-17T11:53:34Z</time></trkpt>
    <trkpt lat="47.78099" lon="14.31407"><ele>1882</ele><time>2021-10-17T11:54:16Z</time></trkpt>
    <trkpt lat="47.78106" lon="14.31384"><ele>1877</ele><time>2021-10-17T11:55:24Z</time></trkpt>
    <trkpt lat="47.78117" lon="14.31365"><ele>1868</ele><time>2021-10-17T11:56:58Z</time></trkpt>
    <trkpt lat="47.78127" lon="14.31346"><ele>1863</ele><time>2021-10-17T11:57:52Z</time></trkpt>
    <trkpt lat="47.78134" lon="14.31338"><ele>1860</ele><time>2021-10-17T11:58:11Z</time></trkpt>
    <trkpt lat="47.78127" lon="14.31316"><ele>1856</ele><time>2021-10-17T11:59:56Z</time></trkpt>
    <trkpt lat="47.78113" lon="14.31297"><ele>1812</ele><time>2021-10-17T12:01:26Z</time></trkpt>
    <trkpt lat="47.78109" lon="14.31273"><ele>1799</ele><time>2021-10-17T12:02:15Z</time></trkpt>
    <trkpt lat="47.78109" lon="14.31260"><ele>1855</ele><time>2021-10-17T12:02:37Z</time></trkpt>
    <trkpt lat="47.78123" lon="14.31245"><ele>1796</ele><time>2021-10-17T12:03:36Z</time></trkpt>
    <trkpt lat="47.78124" lon="14.31230"><ele>1803</ele><time>2021-10-17T12:03:55Z</time></trkpt>
    <trkpt lat="47.78120" lon="14.31206"><ele>1829</ele><time>2021-10-17T12:04:32Z</time></trkpt>
    <trkpt lat="47.78118" lon="14.31176"><ele>1709</ele><time>2021-10-17T12:05:13Z</time></trkpt>
    <trkpt lat="47.78110" lon="14.31155"><ele>1835</ele><time>2021-10-17T12:06:04Z</time></trkpt>
    <trkpt lat="47.78095" lon="14.31143"><ele>1839</ele><time>2021-10-17T12:06:55Z</time></trkpt>
    <trkpt lat="47.78084" lon="14.31124"><ele>1806</ele><time>2021-10-17T12:07:33Z</time></trkpt>
    <trkpt lat="47.78069" lon="14.31112"><ele>1802</ele><time>2021-10-17T12:08:24Z</time></trkpt>
    <trkpt lat="47.78067" lon="14.31089"><ele>1751</ele><time>2021-10-17T12:10:14Z</time></trkpt>
    <trkpt lat="47.78074" lon="14.31066"><ele>1817</ele><time>2021-10-17T12:11:01Z</time></trkpt>
    <trkpt lat="47.78074" lon="14.31051"><ele>1721</ele><time>2021-10-17T12:11:20Z</time></trkpt>
    <trkpt lat="47.78082" lon="14.31025"><ele>1820</ele><time>2021-10-17T12:11:57Z</time></trkpt>
    <trkpt lat="47.78082" lon="14.31010"><ele>1769</ele><time>2021-10-17T12:12:15Z</time></trkpt>
    <trkpt lat="47.78086" lon="14.30996"><ele>1822</ele><time>2021-10-17T12:12:33Z</time></trkpt>
    <trkpt lat="47.78089" lon="14.30972"><ele>1682</ele><time>2021-10-17T12:13:11Z</time></trkpt>
    <trkpt lat="47.78089" lon="14.30953"><ele>1742</ele><time>2021-10-17T12:13:30Z</time></trkpt>
    <trkpt lat="47.78094" lon="14.30933"><ele>1748</ele><time>2021-10-17T12:13:49Z</time></trkpt>
    <trkpt lat="47.78102" lon="14.30911"><ele>1680</ele><time>2021-10-17T12:14:08Z</time></trkpt>
    <trkpt lat="47.78105" lon="14.30893"><ele>1816</ele><time>2021-10-17T12:14:27Z</time></trkpt>
    <trkpt lat="47.78115" lon="14.30874"><ele>1690</ele><time>2021-10-17T12:15:44Z</time></trkpt>
    <trkpt lat="47.78117" lon="14.30859"><ele>1743</ele><time>2021-10-17T12:16:03Z</time></trkpt>
    <trkpt lat="47.78114" lon="14.30840"><ele>1773</ele><time>2021-10-17T12:16:22Z</time></trkpt>
    <trkpt lat="47.78107" lon="14.30815"><ele>1807</ele><time>2021-10-17T12:17:14Z</time></trkpt>
    <trkpt lat="47.78110" lon="14.30782"><ele>1760</ele><time>2021-10-17T12:18:05Z</time></trkpt>
    <trkpt lat="47.78102" lon="14.30747"><ele>1773</ele><time>2021-10-17T12:18:52Z</time></trkpt>
    <trkpt lat="47.78097" lon="14.30727"><ele>1627</ele><time>2021-10-17T12:19:10Z</time></trkpt>
    <trkpt lat="47.78098" lon="14.30706"><ele>1781</ele><time>2021-10-17T12:19:28Z</time></trkpt>
    <trkpt lat="47.78100" lon="14.30683"><ele>1629</ele><time>2021-10-17T12:20:25Z</time></trkpt>
    <trkpt lat="47.78104" lon="14.30653"><ele>1735</ele><time>2021-10-17T12:21:04Z</time></trkpt>
    <trkpt lat="47.78111" lon="14.30632"><ele>1767</ele><time>2021-10-17T12:21:22Z</time></trkpt>
    <trkpt lat="47.78118" lon="14.30608"><ele>1779</ele><time>2021-10-17T12:21:41Z</time></trkpt>
    <trkpt lat="47.78118" lon="14.30588"><ele>1608</ele><time>2021-10-17T12:21:59Z</time></trkpt>
    <trkpt lat="47.78113" lon="14.30569"><ele>1760</ele><time>2021-10-17T12:22:17Z</time></trkpt>
    <trkpt lat="47.78111" lon="14.30528"><ele>1654</ele><time>2021-10-17T12:24:29Z</time></trkpt>
    <trkpt lat="47.78108" lon="14.30515"><ele>1575</ele><time>2021-10-17T12:24:48Z</time></trkpt>
    <trkpt lat="47.78094" lon="14.30505"><ele>1697</ele><time>2021-10-17T12:26:07Z</time></trkpt>
    <trkpt lat="47.78085" lon="14.30493"><ele>1711</ele><time>2021-10-17T12:34:28Z</time></trkpt>
    <trkpt lat="47.78079" lon="14.30483"><ele>1686</ele><time>2021-10-17T12:34:46Z</time></trkpt>
    <trkpt lat="47.78053" lon="14.30462"><ele>1613</ele><time>2021-10-17T12:35:52Z</time></trkpt>
    <trkpt lat="47.78045" lon="14.30440"><ele>1696</ele><time>2021-10-17T12:36:29Z</time></trkpt>
    <trkpt lat="47.78032" lon="14.30413"><ele>1697</ele><time>2021-10-17T12:37:06Z</time></trkpt>
    <trkpt lat="47.78023" lon="14.30392"><ele>1641</ele><time>2021-10-17T12:38:00Z</time></trkpt>
    <trkpt lat="47.78009" lon="14.30368"><ele>1589</ele><time>2021-10-17T12:38:37Z</time></trkpt>
    <trkpt lat="47.77998" lon="14.30351"><ele>1506</ele><time>2021-10-17T12:39:18Z</time></trkpt>
    <trkpt lat="47.77979" lon="14.30337"><ele>1657</ele><time>2021-10-17T12:39:55Z</time></trkpt>
    <trkpt lat="47.77952" lon="14.30316"><ele>1641</ele><time>2021-10-17T12:41:10Z</time></trkpt>
    <trkpt lat="47.77943" lon="14.30312"><ele>1508</ele><time>2021-10-17T12:41:46Z</time></trkpt>
    <trkpt lat="47.77929" lon="14.30326"><ele>1641</ele><time>2021-10-17T12:42:23Z</time></trkpt>
    <trkpt lat="47.77912" lon="14.30313"><ele>1613</ele><time>2021-10-17T12:43:10Z</time></trkpt>
    <trkpt lat="47.77896" lon="14.30292"><ele>1555</ele><time>2021-10-17T12:43:49Z</time></trkpt>
    <trkpt lat="47.77877" lon="14.30275"><ele>1616</ele><time>2021-10-17T12:44:28Z</time></trkpt>
    <trkpt lat="47.77869" lon="14.30267"><ele>1437</ele><time>2021-10-17T12:44:46Z</time></trkpt>
    <trkpt lat="47.77855" lon="14.30253"><ele>1401</ele><time>2021-10-17T12:45:43Z</time></trkpt>
    <trkpt lat="47.77842" lon="14.30243"><ele>1529</ele><time>2021-10-17T12:46:02Z</time></trkpt>
    <trkpt lat="47.77836" lon="14.30234"><ele>1524</ele><time>2021-10-17T12:46:21Z</time></trkpt>
    <trkpt lat="47.77807" lon="14.30215"><ele>1403</ele><time>2021-10-17T12:46:57Z</time></trkpt>
    <trkpt lat="47.77793" lon="14.30204"><ele>1581</ele><time>2021-10-17T12:47:16Z</time></trkpt>
    <trkpt lat="47.77781" lon="14.30184"><ele>1421</ele><time>2021-10-17T12:48:14Z</time></trkpt>
    <trkpt lat="47.77775" lon="14.30168"><ele>1566</ele><time>2021-10-17T12:48:32Z</time></trkpt>
    <trkpt lat="47.77743" lon="14.30155"><ele>1581</ele><time>2021-10-17T12:51:08Z</time></trkpt>
    <trkpt lat="47.77735" lon="14.30147"><ele>1549</ele><time>2021-10-17T12:51:27Z</time></trkpt>
    <trkpt lat="47.77723" lon="14.30139"><ele>1421</ele><time>2021-10-17T12:51:46Z</time></trkpt>
    <trkpt lat="47.77709" lon="14.30120"><ele>1419</ele><time>2021-10-17T12:52:25Z</time></trkpt>
    <trkpt lat="47.77695" lon="14.30093"><ele>1547</ele><time>2021-10-17T12:53:01Z</time></trkpt>
    <trkpt lat="47.77684" lon="14.30088"><ele>1490</ele><time>2021-10-17T12:53:20Z</time></trkpt>
    <trkpt lat="47.77675" lon="14.30069"><ele>1464</ele><time>2021-10-17T12:53:38Z</time></trkpt>
    <trkpt lat="47.77665" lon="14.30060"><ele>1524</ele><time>2021-10-17T12:53:57Z</time></trkpt>
    <trkpt lat="47.77652" lon="14.30041"><ele>1554</ele><time>2021-10-17T12:54:15Z</time></trkpt>
    <trkpt lat="47.77644" lon="14.30028"><ele>1517</ele><time>2021-10-17T12:54:34Z</time></trkpt>
    <trkpt lat="47.77636" lon="14.30008"><ele>1550</ele><time>2021-10-17T12:54:53Z</time></trkpt>
    <trkpt lat="47.77624" lon="14.29998"><ele>1513</ele><time>2021-10-17T12:55:11Z</time></trkpt>
    <trkpt lat="47.77590" lon="14.29978"><ele>1464</ele><time>2021-10-17T12:56:17Z</time></trkpt>
    <trkpt lat="47.77583" lon="14.29969"><ele>1397</ele><time>2021-10-17T12:56:50Z</time></trkpt>
    <trkpt lat="47.77571" lon="14.29956"><ele>1514</ele><time>2021-10-17T12:57:08Z</time></trkpt>
    <trkpt lat="47.77557" lon="14.29945"><ele>1516</ele><time>2021-10-17T12:57:27Z</time></trkpt>
    <trkpt lat="47.77546" lon="14.29934"><ele>1365</ele><time>2021-10-17T12:57:46Z</time></trkpt>
    <trkpt lat="47.77531" lon="14.29924"><ele>1491</ele><time>2021-10-17T13:06:55Z</time></trkpt>
    <trkpt lat="47.77522" lon="14.29921"><ele>1478</ele><time>2021-10-17T13:07:13Z</time></trkpt>
    <trkpt lat="47.77511" lon="14.29914"><ele>1419</ele><time>2021-10-17T13:07:32Z</time></trkpt>
    <trkpt lat="47.77498" lon="14.29911"><ele>1372</ele><time>2021-10-17T13:07:50Z</time></trkpt>
    <trkpt lat="47.77479" lon="14.29912"><ele>1431</ele><time>2021-10-17T13:08:27Z</time></trkpt>
    <trkpt lat="47.77462" lon="14.29905"><ele>1496</ele><time>2021-10-17T13:11:30Z</time></trkpt>
    <trkpt lat="47.77446" lon="14.29915"><ele>1485</ele><time>2021-10-17T13:12:46Z</time></trkpt>
    <trkpt lat="47.77443" lon="14.29928"><ele>1373</ele><time>2021-10-17T13:13:04Z</time></trkpt>
    <trkpt lat="47.77432" lon="14.29927"><ele>1460</ele><time>2021-10-17T13:13:23Z</time></trkpt>
    <trkpt lat="47.77418" lon="14.29936"><ele>1456</ele><time>2021-10-17T13:14:01Z</time></trkpt>
    <trkpt lat="47.77413" lon="14.29959"><ele>1461</ele><time>2021-10-17T13:14:20Z</time></trkpt>
    <trkpt lat="47.77405" lon="14.29974"><ele>1455</ele><time>2021-10-17T13:14:39Z</time></trkpt>
    <trkpt lat="47.77402" lon="14.29997"><ele>1435</ele><time>2021-10-17T13:14:58Z</time></trkpt>
    <trkpt lat="47.77399" lon="14.30018"><ele>1455</ele><time>2021-10-17T13:15:17Z</time></trkpt>
    <trkpt lat="47.77396" lon="14.30040"><ele>1450</ele><time>2021-10-17T13:15:36Z</time></trkpt>
    <trkpt lat="47.77388" lon="14.30066"><ele>1452</ele><time>2021-10-17T13:15:55Z</time></trkpt>
    <trkpt lat="47.77374" lon="14.30089"><ele>1460</ele><time>2021-10-17T13:16:14Z</time></trkpt>
    <trkpt lat="47.77362" lon="14.30105"><ele>1462</ele><time>2021-10-17T13:16:32Z</time></trkpt>
    <trkpt lat="47.77353" lon="14.30133"><ele>1472</ele><time>2021-10-17T13:17:14Z</time></trkpt>
    <trkpt lat="47.77341" lon="14.30166"><ele>1458</ele><time>2021-10-17T13:17:33Z</time></trkpt>
    <trkpt lat="47.77341" lon="14.30196"><ele>1460</ele><time>2021-10-17T13:17:51Z</time></trkpt>
    <trkpt lat="47.77338" lon="14.30222"><ele>1465</ele><time>2021-10-17T13:18:10Z</time></trkpt>
    <trkpt lat="47.77343" lon="14.30247"><ele>1468</ele><time>2021-10-17T13:18:28Z</time></trkpt>
    <trkpt lat="47.77347" lon="14.30262"><ele>1474</ele><time>2021-10-17T13:18:46Z</time></trkpt>
    <trkpt lat="47.77344" lon="14.30286"><ele>1497</ele><time>2021-10-17T13:19:44Z</time></trkpt>
    <trkpt lat="47.77338" lon="14.30306"><ele>1502</ele><time>2021-10-17T13:20:29Z</time></trkpt>
    <trkpt lat="47.77333" lon="14.30321"><ele>1505</ele><time>2021-10-17T13:20:48Z</time></trkpt>
    <trkpt lat="47.77335" lon="14.30354"><ele>1533</ele><time>2021-10-17T13:21:25Z</time></trkpt>
    <trkpt lat="47.77337" lon="14.30382"><ele>1528</ele><time>2021-10-17T13:22:03Z</time></trkpt>
    <trkpt lat="47.77334" lon="14.30397"><ele>1538</ele><time>2021-10-17T13:22:47Z</time></trkpt>
    <trkpt lat="47.77322" lon="14.30391"><ele>1547</ele><time>2021-10-17T13:23:06Z</time></trkpt>
    <trkpt lat="47.77312" lon="14.30383"><ele>1553</ele><time>2021-10-17T13:23:24Z</time></trkpt>
    <trkpt lat="47.77294" lon="14.30370"><ele>1544</ele><time>2021-10-17T13:24:01Z</time></trkpt>
    <trkpt lat="47.77274" lon="14.30352"><ele>1545</ele><time>2021-10-17T13:24:41Z</time></trkpt>
    <trkpt lat="47.77263" lon="14.30345"><ele>1541</ele><time>2021-10-17T13:24:59Z</time></trkpt>
    <trkpt lat="47.77253" lon="14.30340"><ele>1542</ele><time>2021-10-17T13:25:18Z</time></trkpt>
    <trkpt lat="47.77239" lon="14.30332"><ele>1539</ele><time>2021-10-17T13:25:37Z</time></trkpt>
    <trkpt lat="47.77228" lon="14.30323"><ele>1542</ele><time>2021-10-17T13:25:55Z</time></trkpt>
    <trkpt lat="47.77235" lon="14.30352"><ele>1545</ele><time>2021-10-17T13:26:41Z</time></trkpt>
    <trkpt lat="47.77241" lon="14.30368"><ele>1544</ele><time>2021-10-17T13:27:00Z</time></trkpt>
    <trkpt lat="47.77248" lon="14.30382"><ele>1544</ele><time>2021-10-17T13:27:19Z</time></trkpt>
    <trkpt lat="47.77245" lon="14.30396"><ele>1543</ele><time>2021-10-17T13:27:37Z</time></trkpt>
    <trkpt lat="47.77245" lon="14.30429"><ele>1528</ele><time>2021-10-17T13:28:21Z</time></trkpt>
    <trkpt lat="47.77249" lon="14.30450"><ele>1542</ele><time>2021-10-17T13:28:40Z</time></trkpt>
    <trkpt lat="47.77252" lon="14.30473"><ele>1547</ele><time>2021-10-17T13:28:59Z</time></trkpt>
    <trkpt lat="47.77259" lon="14.30500"><ele>1558</ele><time>2021-10-17T13:29:17Z</time></trkpt>
    <trkpt lat="47.77262" lon="14.30521"><ele>1561</ele><time>2021-10-17T13:29:35Z</time></trkpt>
    <trkpt lat="47.77276" lon="14.30551"><ele>1558</ele><time>2021-10-17T13:30:14Z</time></trkpt>
    <trkpt lat="47.77279" lon="14.30572"><ele>1560</ele><time>2021-10-17T13:30:33Z</time></trkpt>
    <trkpt lat="47.77281" lon="14.30601"><ele>1563</ele><time>2021-10-17T13:31:10Z</time></trkpt>
    <trkpt lat="47.77276" lon="14.30617"><ele>1568</ele><time>2021-10-17T13:31:28Z</time></trkpt>
    <trkpt lat="47.77278" lon="14.30641"><ele>1575</ele><time>2021-10-17T13:34:55Z</time></trkpt>
    <trkpt lat="47.77272" lon="14.30661"><ele>1571</ele><time>2021-10-17T13:35:14Z</time></trkpt>
    <trkpt lat="47.77278" lon="14.30683"><ele>1572</ele><time>2021-10-17T13:35:32Z</time></trkpt>
    <trkpt lat="47.77277" lon="14.30704"><ele>1575</ele><time>2021-10-17T13:35:50Z</time></trkpt>
    <trkpt lat="47.77277" lon="14.30719"><ele>1582</ele><time>2021-10-17T13:36:08Z</time></trkpt>
    <trkpt lat="47.77280" lon="14.30739"><ele>1576</ele><time>2021-10-17T13:36:28Z</time></trkpt>
    <trkpt lat="47.77290" lon="14.30760"><ele>1577</ele><time>2021-10-17T13:36:47Z</time></trkpt>
    <trkpt lat="47.77300" lon="14.30779"><ele>1577</ele><time>2021-10-17T13:37:05Z</time></trkpt>
    <trkpt lat="47.77304" lon="14.30802"><ele>1568</ele><time>2021-10-17T13:37:24Z</time></trkpt>
    <trkpt lat="47.77314" lon="14.30818"><ele>1575</ele><time>2021-10-17T13:37:43Z</time></trkpt>
    <trkpt lat="47.77325" lon="14.30833"><ele>1575</ele><time>2021-10-17T13:38:01Z</time></trkpt>
    <trkpt lat="47.77339" lon="14.30838"><ele>1572</ele><time>2021-10-17T13:38:20Z</time></trkpt>
    <trkpt lat="47.77345" lon="14.30860"><ele>1570</ele><time>2021-10-17T13:38:39Z</time></trkpt>
    <trkpt lat="47.77351" lon="14.30875"><ele>1570</ele><time>2021-10-17T13:38:57Z</time></trkpt>
    <trkpt lat="47.77361" lon="14.30891"><ele>1568</ele><time>2021-10-17T13:39:15Z</time></trkpt>
    <trkpt lat="47.77371" lon="14.30907"><ele>1574</ele><time>2021-10-17T13:39:34Z</time></trkpt>
    <trkpt lat="47.77380" lon="14.30919"><ele>1564</ele><time>2021-10-17T13:39:53Z</time></trkpt>
    <trkpt lat="47.77387" lon="14.30938"><ele>1564</ele><time>2021-10-17T13:40:11Z</time></trkpt>
    <trkpt lat="47.77393" lon="14.30955"><ele>1555</ele><time>2021-10-17T13:40:30Z</time></trkpt>
    <trkpt lat="47.77399" lon="14.30967"><ele>1558</ele><time>2021-10-17T13:40:48Z</time></trkpt>
    <trkpt lat="47.77409" lon="14.30981"><ele>1558</ele><time>2021-10-17T13:41:06Z</time></trkpt>
    <trkpt lat="47.77415" lon="14.30997"><ele>1555</ele><time>2021-10-17T13:41:24Z</time></trkpt>
    <trkpt lat="47.77424" lon="14.31013"><ele>1553</ele><time>2021-10-17T13:41:42Z</time></trkpt>
    <trkpt lat="47.77435" lon="14.31023"><ele>1550</ele><time>2021-10-17T13:42:01Z</time></trkpt>
    <trkpt lat="47.77437" lon="14.31064"><ele>1552</ele><time>2021-10-17T13:42:37Z</time></trkpt>
    <trkpt lat="47.77443" lon="14.31085"><ele>1550</ele><time>2021-10-17T13:42:56Z</time></trkpt>
    <trkpt lat="47.77439" lon="14.31103"><ele>1550</ele><time>2021-10-17T13:43:14Z</time></trkpt>
    <trkpt lat="47.77437" lon="14.31122"><ele>1544</ele><time>2021-10-17T13:43:33Z</time></trkpt>
    <trkpt lat="47.77431" lon="14.31132"><ele>1546</ele><time>2021-10-17T13:43:52Z</time></trkpt>
    <trkpt lat="47.77425" lon="14.31150"><ele>1545</ele><time>2021-10-17T13:44:10Z</time></trkpt>
    <trkpt lat="47.77425" lon="14.31178"><ele>1542</ele><time>2021-10-17T13:44:28Z</time></trkpt>
    <trkpt lat="47.77420" lon="14.31202"><ele>1535</ele><time>2021-10-17T13:47:18Z</time></trkpt>
    <trkpt lat="47.77403" lon="14.31237"><ele>1532</ele><time>2021-10-17T13:47:57Z</time></trkpt>
    <trkpt lat="47.77390" lon="14.31267"><ele>1532</ele><time>2021-10-17T13:48:16Z</time></trkpt>
    <trkpt lat="47.77389" lon="14.31294"><ele>1540</ele><time>2021-10-17T13:48:35Z</time></trkpt>
    <trkpt lat="47.77388" lon="14.31319"><ele>1539</ele><time>2021-10-17T13:48:53Z</time></trkpt>
    <trkpt lat="47.77387" lon="14.31338"><ele>1531</ele><time>2021-10-17T13:49:12Z</time></trkpt>
    <trkpt lat="47.77382" lon="14.31359"><ele>1526</ele><time>2021-10-17T13:49:30Z</time></trkpt>
    <trkpt lat="47.77378" lon="14.31388"><ele>1527</ele><time>2021-10-17T13:49:49Z</time></trkpt>
    <trkpt lat="47.77387" lon="14.31405"><ele>1540</ele><time>2021-10-17T13:50:07Z</time></trkpt>
    <trkpt lat="47.77388" lon="14.31420"><ele>1543</ele><time>2021-10-17T13:50:26Z</time></trkpt>
    <trkpt lat="47.77395" lon="14.31438"><ele>1544</ele><time>2021-10-17T13:50:44Z</time></trkpt>
    <trkpt lat="47.77397" lon="14.31461"><ele>1531</ele><time>2021-10-17T13:51:03Z</time></trkpt>
    <trkpt lat="47.77397" lon="14.31486"><ele>1541</ele><time>2021-10-17T13:51:21Z</time></trkpt>
    <trkpt lat="47.77386" lon="14.31500"><ele>1537</ele><time>2021-10-17T13:51:40Z</time></trkpt>
    <trkpt lat="47.77376" lon="14.31518"><ele>1548</ele><time>2021-10-17T13:51:59Z</time></trkpt>
    <trkpt lat="47.77362" lon="14.31535"><ele>1505</ele><time>2021-10-17T13:52:17Z</time></trkpt>
    <trkpt lat="47.77361" lon="14.31583"><ele>1367</ele><time>2021-10-17T13:53:52Z</time></trkpt>
    <trkpt lat="47.77352" lon="14.31604"><ele>1467</ele><time>2021-10-17T13:54:10Z</time></trkpt>
    <trkpt lat="47.77348" lon="14.31591"><ele>1493</ele><time>2021-10-17T13:54:28Z</time></trkpt>
    <trkpt lat="47.77337" lon="14.31576"><ele>1386</ele><time>2021-10-17T13:54:47Z</time></trkpt>
    <trkpt lat="47.77316" lon="14.31567"><ele>1450</ele><time>2021-10-17T13:55:26Z</time></trkpt>
    <trkpt lat="47.77311" lon="14.31602"><ele>1272</ele><time>2021-10-17T13:56:16Z</time></trkpt>
    <trkpt lat="47.77304" lon="14.31619"><ele>1323</ele><time>2021-10-17T13:56:35Z</time></trkpt>
    <trkpt lat="47.77277" lon="14.31650"><ele>1425</ele><time>2021-10-17T13:58:07Z</time></trkpt>
    <trkpt lat="47.77265" lon="14.31651"><ele>1448</ele><time>2021-10-17T13:58:46Z</time></trkpt>
    <trkpt lat="47.77254" lon="14.31636"><ele>1444</ele><time>2021-10-17T13:59:05Z</time></trkpt>
    <trkpt lat="47.77247" lon="14.31624"><ele>1427</ele><time>2021-10-17T13:59:24Z</time></trkpt>
    <trkpt lat="47.77237" lon="14.31602"><ele>1432</ele><time>2021-10-17T13:59:42Z</time></trkpt>
    <trkpt lat="47.77228" lon="14.31604"><ele>1300</ele><time>2021-10-17T14:00:00Z</time></trkpt>
    <trkpt lat="47.77212" lon="14.31658"><ele>1438</ele><time>2021-10-17T14:08:23Z</time></trkpt>
    <trkpt lat="47.77214" lon="14.31683"><ele>1429</ele><time>2021-10-17T14:08:42Z</time></trkpt>
    <trkpt lat="47.77213" lon="14.31702"><ele>1224</ele><time>2021-10-17T14:09:00Z</time></trkpt>
    <trkpt lat="47.77217" lon="14.31723"><ele>1255</ele><time>2021-10-17T14:09:18Z</time></trkpt>
    <trkpt lat="47.77200" lon="14.31729"><ele>1401</ele><time>2021-10-17T14:09:37Z</time></trkpt>
    <trkpt lat="47.77189" lon="14.31710"><ele>1344</ele><time>2021-10-17T14:09:55Z</time></trkpt>
    <trkpt lat="47.77178" lon="14.31688"><ele>1196</ele><time>2021-10-17T14:10:14Z</time></trkpt>
    <trkpt lat="47.77163" lon="14.31689"><ele>1296</ele><time>2021-10-17T14:10:33Z</time></trkpt>
    <trkpt lat="47.77157" lon="14.31677"><ele>1206</ele><time>2021-10-17T14:10:51Z</time></trkpt>
    <trkpt lat="47.77152" lon="14.31659"><ele>1121</ele><time>2021-10-17T14:11:10Z</time></trkpt>
    <trkpt lat="47.77147" lon="14.31647"><ele>1389</ele><time>2021-10-17T14:11:28Z</time></trkpt>
    <trkpt lat="47.77142" lon="14.31629"><ele>1105</ele><time>2021-10-17T14:11:47Z</time></trkpt>
    <trkpt lat="47.77127" lon="14.31622"><ele>1379</ele><time>2021-10-17T14:12:06Z</time></trkpt>
    <trkpt lat="47.77111" lon="14.31635"><ele>1288</ele><time>2021-10-17T14:12:51Z</time></trkpt>
    <trkpt lat="47.77098" lon="14.31644"><ele>1378</ele><time>2021-10-17T14:13:09Z</time></trkpt>
    <trkpt lat="47.77096" lon="14.31628"><ele>1384</ele><time>2021-10-17T14:13:27Z</time></trkpt>
    <trkpt lat="47.77082" lon="14.31659"><ele>1281</ele><time>2021-10-17T14:14:05Z</time></trkpt>
    <trkpt lat="47.77071" lon="14.31679"><ele>1329</ele><time>2021-10-17T14:14:23Z</time></trkpt>
    <trkpt lat="47.77072" lon="14.31701"><ele>1332</ele><time>2021-10-17T14:14:42Z</time></trkpt>
    <trkpt lat="47.77075" lon="14.31717"><ele>1347</ele><time>2021-10-17T14:15:00Z</time></trkpt>
    <trkpt lat="47.77085" lon="14.31748"><ele>1083</ele><time>2021-10-17T14:15:19Z</time></trkpt>
    <trkpt lat="47.77096" lon="14.31768"><ele>1316</ele><time>2021-10-17T14:15:38Z</time></trkpt>
    <trkpt lat="47.77105" lon="14.31799"><ele>1304</ele><time>2021-10-17T14:15:56Z</time></trkpt>
    <trkpt lat="47.77114" lon="14.31822"><ele>1358</ele><time>2021-10-17T14:16:15Z</time></trkpt>
    <trkpt lat="47.77105" lon="14.31838"><ele>1345</ele><time>2021-10-17T14:16:33Z</time></trkpt>
    <trkpt lat="47.77094" lon="14.31852"><ele>1348</ele><time>2021-10-17T14:16:52Z</time></trkpt>
    <trkpt lat="47.77089" lon="14.31871"><ele>1262</ele><time>2021-10-17T14:17:10Z</time></trkpt>
    <trkpt lat="47.77085" lon="14.31891"><ele>1300</ele><time>2021-10-17T14:17:29Z</time></trkpt>
    <trkpt lat="47.77081" lon="14.31916"><ele>1326</ele><time>2021-10-17T14:17:48Z</time></trkpt>
    <trkpt lat="47.77067" lon="14.31898"><ele>1173</ele><time>2021-10-17T14:18:55Z</time></trkpt>
    <trkpt lat="47.77058" lon="14.31889"><ele>1300</ele><time>2021-10-17T14:19:13Z</time></trkpt>
    <trkpt lat="47.77047" lon="14.31880"><ele>1060</ele><time>2021-10-17T14:19:32Z</time></trkpt>
    <trkpt lat="47.77042" lon="14.31862"><ele>1251</ele><time>2021-10-17T14:19:50Z</time></trkpt>
    <trkpt lat="47.77029" lon="14.31858"><ele>1291</ele><time>2021-10-17T14:20:09Z</time></trkpt>
    <trkpt lat="47.77016" lon="14.31848"><ele>1297</ele><time>2021-10-17T14:20:28Z</time></trkpt>
    <trkpt lat="47.77007" lon="14.31872"><ele>1283</ele><time>2021-10-17T14:21:18Z</time></trkpt>
    <trkpt lat="47.77006" lon="14.31889"><ele>1283</ele><time>2021-10-17T14:21:37Z</time></trkpt>
    <trkpt lat="47.76989" lon="14.31886"><ele>1245</ele><time>2021-10-17T14:22:19Z</time></trkpt>
    <trkpt lat="47.76975" lon="14.31865"><ele>1091</ele><time>2021-10-17T14:23:01Z</time></trkpt>
    <trkpt lat="47.76964" lon="14.31869"><ele>1259</ele><time>2021-10-17T14:23:20Z</time></trkpt>
    <trkpt lat="47.76954" lon="14.31893"><ele>1239</ele><time>2021-10-17T14:23:57Z</time></trkpt>
    <trkpt lat="47.76945" lon="14.31898"><ele>1230</ele><time>2021-10-17T14:24:15Z</time></trkpt>
    <trkpt lat="47.76940" lon="14.31909"><ele>1227</ele><time>2021-10-17T14:24:33Z</time></trkpt>
    <trkpt lat="47.76924" lon="14.31914"><ele>1141</ele><time>2021-10-17T14:25:14Z</time></trkpt>
    <trkpt lat="47.76911" lon="14.31882"><ele>1165</ele><time>2021-10-17T14:26:20Z</time></trkpt>
    <trkpt lat="47.76896" lon="14.31893"><ele>1160</ele><time>2021-10-17T14:26:39Z</time></trkpt>
    <trkpt lat="47.76891" lon="14.31910"><ele>1131</ele><time>2021-10-17T14:26:58Z</time></trkpt>
    <trkpt lat="47.76881" lon="14.31932"><ele>1192</ele><time>2021-10-17T14:27:16Z</time></trkpt>
    <trkpt lat="47.76872" lon="14.31949"><ele>1200</ele><time>2021-10-17T14:27:35Z</time></trkpt>
    <trkpt lat="47.76871" lon="14.31978"><ele>1176</ele><time>2021-10-17T14:27:54Z</time></trkpt>
    <trkpt lat="47.76861" lon="14.31989"><ele>1114</ele><time>2021-10-17T14:28:12Z</time></trkpt>
    <trkpt lat="47.76852" lon="14.32009"><ele>1083</ele><time>2021-10-17T14:28:30Z</time></trkpt>
    <trkpt lat="47.76839" lon="14.32031"><ele>1187</ele><time>2021-10-17T14:28:49Z</time></trkpt>
    <trkpt lat="47.76835" lon="14.32048"><ele>1197</ele><time>2021-10-17T14:29:07Z</time></trkpt>
    <trkpt lat="47.76821" lon="14.32071"><ele>1193</ele><time>2021-10-17T14:29:55Z</time></trkpt>
    <trkpt lat="47.76813" lon="14.32081"><ele>1188</ele><time>2021-10-17T14:30:13Z</time></trkpt>
    <trkpt lat="47.76801" lon="14.32089"><ele>1165</ele><time>2021-10-17T14:30:32Z</time></trkpt>
    <trkpt lat="47.76789" lon="14.32094"><ele>1172</ele><time>2021-10-17T14:30:51Z</time></trkpt>
    <trkpt lat="47.76779" lon="14.32099"><ele>1122</ele><time>2021-10-17T14:31:10Z</time></trkpt>
    <trkpt lat="47.76775" lon="14.32085"><ele>1168</ele><time>2021-10-17T14:31:28Z</time></trkpt>
    <trkpt lat="47.76771" lon="14.32070"><ele>1176</ele><time>2021-10-17T14:31:47Z</time></trkpt>
    <trkpt lat="47.76765" lon="14.32053"><ele>1122</ele><time>2021-10-17T14:32:06Z</time></trkpt>
    <trkpt lat="47.76765" lon="14.32023"><ele>1137</ele><time>2021-10-17T14:32:44Z</time></trkpt>
    <trkpt lat="47.76768" lon="14.32006"><ele>1155</ele><time>2021-10-17T14:33:03Z</time></trkpt>
    <trkpt lat="47.76759" lon="14.32003"><ele>1152</ele><time>2021-10-17T14:33:21Z</time></trkpt>
    <trkpt lat="47.76759" lon="14.31986"><ele>1063</ele><time>2021-10-17T14:33:40Z</time></trkpt>
    <trkpt lat="47.76763" lon="14.31966"><ele>1141</ele><time>2021-10-17T14:33:59Z</time></trkpt>
    <trkpt lat="47.76768" lon="14.31950"><ele>1097</ele><time>2021-10-17T14:34:18Z</time></trkpt>
    <trkpt lat="47.76769" lon="14.31918"><ele>1128</ele><time>2021-10-17T14:34:55Z</time></trkpt>
    <trkpt lat="47.76773" lon="14.31899"><ele>1135</ele><time>2021-10-17T14:35:13Z</time></trkpt>
    <trkpt lat="47.76775" lon="14.31882"><ele>1128</ele><time>2021-10-17T14:35:32Z</time></trkpt>
    <trkpt lat="47.76779" lon="14.31869"><ele>1110</ele><time>2021-10-17T14:35:50Z</time></trkpt>
    <trkpt lat="47.76782" lon="14.31851"><ele>1121</ele><time>2021-10-17T14:36:09Z</time></trkpt>
    <trkpt lat="47.76780" lon="14.31835"><ele>1108</ele><time>2021-10-17T14:36:28Z</time></trkpt>
    <trkpt lat="47.76762" lon="14.31811"><ele>1058</ele><time>2021-10-17T14:37:06Z</time></trkpt>
    <trkpt lat="47.76755" lon="14.31796"><ele>1100</ele><time>2021-10-17T14:37:25Z</time></trkpt>
    <trkpt lat="47.76744" lon="14.31811"><ele>1110</ele><time>2021-10-17T14:37:43Z</time></trkpt>
    <trkpt lat="47.76724" lon="14.31842"><ele>1076</ele><time>2021-10-17T14:38:42Z</time></trkpt>
    <trkpt lat="47.76711" lon="14.31850"><ele>1087</ele><time>2021-10-17T14:39:01Z</time></trkpt>
    <trkpt lat="47.76702" lon="14.31852"><ele>1052</ele><time>2021-10-17T14:39:20Z</time></trkpt>
    <trkpt lat="47.76694" lon="14.31845"><ele>1074</ele><time>2021-10-17T14:39:38Z</time></trkpt>
    <trkpt lat="47.76685" lon="14.31844"><ele>1060</ele><time>2021-10-17T14:39:56Z</time></trkpt>
    <trkpt lat="47.76677" lon="14.31836"><ele>1053</ele><time>2021-10-17T14:40:14Z</time></trkpt>
    <trkpt lat="47.76683" lon="14.31822"><ele>1074</ele><time>2021-10-17T14:40:33Z</time></trkpt>
    <trkpt lat="47.76685" lon="14.31806"><ele>1069</ele><time>2021-10-17T14:40:52Z</time></trkpt>
    <trkpt lat="47.76685" lon="14.31784"><ele>1061</ele><time>2021-10-17T14:41:11Z</time></trkpt>
    <trkpt lat="47.76663" lon="14.31721"><ele>1045</ele><time>2021-10-17T14:42:26Z</time></trkpt>
    <trkpt lat="47.76656" lon="14.31707"><ele>1046</ele><time>2021-10-17T14:42:44Z</time></trkpt>
    <trkpt lat="47.76644" lon="14.31696"><ele>1030</ele><time>2021-10-17T14:43:21Z</time></trkpt>
    <trkpt lat="47.76639" lon="14.31710"><ele>980</ele><time>2021-10-17T14:43:39Z</time></trkpt>
    <trkpt lat="47.76634" lon="14.31728"><ele>1008</ele><time>2021-10-17T14:43:58Z</time></trkpt>
    <trkpt lat="47.76620" lon="14.31711"><ele>1046</ele><time>2021-10-17T14:44:41Z</time></trkpt>
    <trkpt lat="47.76613" lon="14.31687"><ele>1020</ele><time>2021-10-17T14:45:18Z</time></trkpt>
    <trkpt lat="47.76594" lon="14.31663"><ele>1018</ele><time>2021-10-17T14:46:04Z</time></trkpt>
    <trkpt lat="47.76581" lon="14.31651"><ele>1015</ele><time>2021-10-17T14:46:23Z</time></trkpt>
    <trkpt lat="47.76567" lon="14.31644"><ele>1010</ele><time>2021-10-17T14:46:41Z</time></trkpt>
    <trkpt lat="47.76552" lon="14.31650"><ele>1013</ele><time>2021-10-17T14:47:00Z</time></trkpt>
    <trkpt lat="47.76541" lon="14.31647"><ele>1014</ele><time>2021-10-17T14:47:19Z</time></trkpt>
    <trkpt lat="47.76527" lon="14.31642"><ele>1006</ele><time>2021-10-17T14:47:38Z</time></trkpt>
    <trkpt lat="47.76505" lon="14.31646"><ele>994</ele><time>2021-10-17T14:48:20Z</time></trkpt>
    <trkpt lat="47.76493" lon="14.31650"><ele>988</ele><time>2021-10-17T14:48:38Z</time></trkpt>
    <trkpt lat="47.76481" lon="14.31655"><ele>988</ele><time>2021-10-17T14:48:56Z</time></trkpt>
    <trkpt lat="47.76468" lon="14.31661"><ele>985</ele><time>2021-10-17T14:49:15Z</time></trkpt>
    <trkpt lat="47.76452" lon="14.31666"><ele>975</ele><time>2021-10-17T14:49:33Z</time></trkpt>
    <trkpt lat="47.76442" lon="14.31665"><ele>979</ele><time>2021-10-17T14:49:52Z</time></trkpt>
    <trkpt lat="47.76430" lon="14.31663"><ele>978</ele><time>2021-10-17T14:50:10Z</time></trkpt>
    <trkpt lat="47.76415" lon="14.31658"><ele>980</ele><time>2021-10-17T14:50:29Z</time></trkpt>
    <trkpt lat="47.76394" lon="14.31655"><ele>966</ele><time>2021-10-17T14:51:08Z</time></trkpt>
    <trkpt lat="47.76365" lon="14.31647"><ele>971</ele><time>2021-10-17T14:51:45Z</time></trkpt>
    <trkpt lat="47.76353" lon="14.31645"><ele>897</ele><time>2021-10-17T14:52:03Z</time></trkpt>
    <trkpt lat="47.76338" lon="14.31642"><ele>949</ele><time>2021-10-17T14:52:22Z</time></trkpt>
    <trkpt lat="47.76319" lon="14.31625"><ele>948</ele><time>2021-10-17T14:53:04Z</time></trkpt>
    <trkpt lat="47.76306" lon="14.31618"><ele>946</ele><time>2021-10-17T14:53:23Z</time></trkpt>
    <trkpt lat="47.76298" lon="14.31610"><ele>941</ele><time>2021-10-17T14:53:41Z</time></trkpt>
    <trkpt lat="47.76281" lon="14.31601"><ele>930</ele><time>2021-10-17T14:54:19Z</time></trkpt>
    <trkpt lat="47.76265" lon="14.31581"><ele>951</ele><time>2021-10-17T14:54:56Z</time></trkpt>
    <trkpt lat="47.76259" lon="14.31564"><ele>947</ele><time>2021-10-17T14:55:15Z</time></trkpt>
    <trkpt lat="47.76249" lon="14.31548"><ele>916</ele><time>2021-10-17T14:55:34Z</time></trkpt>
    <trkpt lat="47.76235" lon="14.31538"><ele>910</ele><time>2021-10-17T14:55:52Z</time></trkpt>
    <trkpt lat="47.76221" lon="14.31545"><ele>923</ele><time>2021-10-17T14:56:11Z</time></trkpt>
    <trkpt lat="47.76194" lon="14.31545"><ele>931</ele><time>2021-10-17T14:56:49Z</time></trkpt>
    <trkpt lat="47.76172" lon="14.31537"><ele>873</ele><time>2021-10-17T14:57:26Z</time></trkpt>
    <trkpt lat="47.76166" lon="14.31561"><ele>900</ele><time>2021-10-17T14:58:04Z</time></trkpt>
    <trkpt lat="47.76159" lon="14.31588"><ele>893</ele><time>2021-10-17T14:58:43Z</time></trkpt>
    <trkpt lat="47.76150" lon="14.31577"><ele>884</ele><time>2021-10-17T14:59:01Z</time></trkpt>
    <trkpt lat="47.76140" lon="14.31564"><ele>884</ele><time>2021-10-17T14:59:20Z</time></trkpt>
    <trkpt lat="47.76127" lon="14.31553"><ele>881</ele><time>2021-10-17T14:59:39Z</time></trkpt>
    <trkpt lat="47.76118" lon="14.31556"><ele>882</ele><time>2021-10-17T14:59:57Z</time></trkpt>
    <trkpt lat="47.76117" lon="14.31573"><ele>874</ele><time>2021-10-17T15:00:16Z</time></trkpt>
    <trkpt lat="47.76111" lon="14.31588"><ele>868</ele><time>2021-10-17T15:00:35Z</time></trkpt>
    <trkpt lat="47.76102" lon="14.31583"><ele>865</ele><time>2021-10-17T15:00:53Z</time></trkpt>
    <trkpt lat="47.76099" lon="14.31565"><ele>864</ele><time>2021-10-17T15:01:12Z</time></trkpt>
    <trkpt lat="47.76088" lon="14.31556"><ele>863</ele><time>2021-10-17T15:01:31Z</time></trkpt>
    <trkpt lat="47.76076" lon="14.31553"><ele>864</ele><time>2021-10-17T15:01:50Z</time></trkpt>
    <trkpt lat="47.76067" lon="14.31559"><ele>861</ele><time>2021-10-17T15:02:09Z</time></trkpt>
    <trkpt lat="47.76072" lon="14.31582"><ele>854</ele><time>2021-10-17T15:02:28Z</time></trkpt>
    <trkpt lat="47.76078" lon="14.31599"><ele>850</ele><time>2021-10-17T15:02:46Z</time></trkpt>
    <trkpt lat="47.76069" lon="14.31593"><ele>842</ele><time>2021-10-17T15:03:04Z</time></trkpt>
    <trkpt lat="47.76053" lon="14.31588"><ele>842</ele><time>2021-10-17T15:03:23Z</time></trkpt>
    <trkpt lat="47.76036" lon="14.31581"><ele>832</ele><time>2021-10-17T15:03:59Z</time></trkpt>
    <trkpt lat="47.76028" lon="14.31571"><ele>829</ele><time>2021-10-17T15:04:17Z</time></trkpt>
    <trkpt lat="47.76017" lon="14.31562"><ele>828</ele><time>2021-10-17T15:04:36Z</time></trkpt>
    <trkpt lat="47.76012" lon="14.31547"><ele>833</ele><time>2021-10-17T15:04:55Z</time></trkpt>
    <trkpt lat="47.76003" lon="14.31535"><ele>832</ele><time>2021-10-17T15:05:14Z</time></trkpt>
    <trkpt lat="47.75994" lon="14.31549"><ele>820</ele><time>2021-10-17T15:05:33Z</time></trkpt>
    <trkpt lat="47.75986" lon="14.31570"><ele>810</ele><time>2021-10-17T15:05:52Z</time></trkpt>
    <trkpt lat="47.75989" lon="14.31593"><ele>812</ele><time>2021-10-17T15:06:10Z</time></trkpt>
    <trkpt lat="47.75980" lon="14.31596"><ele>809</ele><time>2021-10-17T15:06:28Z</time></trkpt>
    <trkpt lat="47.75968" lon="14.31611"><ele>802</ele><time>2021-10-17T15:07:06Z</time></trkpt>
    <trkpt lat="47.75962" lon="14.31635"><ele>810</ele><time>2021-10-17T15:07:24Z</time></trkpt>
    <trkpt lat="47.75951" lon="14.31631"><ele>794</ele><time>2021-10-17T15:08:01Z</time></trkpt>
    <trkpt lat="47.75946" lon="14.31612"><ele>787</ele><time>2021-10-17T15:08:19Z</time></trkpt>
    <trkpt lat="47.75944" lon="14.31587"><ele>782</ele><time>2021-10-17T15:08:38Z</time></trkpt>
    <trkpt lat="47.75936" lon="14.31576"><ele>778</ele><time>2021-10-17T15:08:56Z</time></trkpt>
    <trkpt lat="47.75929" lon="14.31557"><ele>776</ele><time>2021-10-17T15:09:15Z</time></trkpt>
    <trkpt lat="47.75917" lon="14.31544"><ele>777</ele><time>2021-10-17T15:09:33Z</time></trkpt>
    <trkpt lat="47.75907" lon="14.31516"><ele>773</ele><time>2021-10-17T15:09:51Z</time></trkpt>
    <trkpt lat="47.75893" lon="14.31492"><ele>771</ele><time>2021-10-17T15:10:10Z</time></trkpt>
    <trkpt lat="47.75874" lon="14.31492"><ele>769</ele><time>2021-10-17T15:10:29Z</time></trkpt>
    <trkpt lat="47.75850" lon="14.31494"><ele>773</ele><time>2021-10-17T15:10:48Z</time></trkpt>
    <trkpt lat="47.75834" lon="14.31484"><ele>774</ele><time>2021-10-17T15:11:07Z</time></trkpt>
    <trkpt lat="47.75816" lon="14.31469"><ele>778</ele><time>2021-10-17T15:11:26Z</time></trkpt>
    <trkpt lat="47.75797" lon="14.31460"><ele>775</ele><time>2021-10-17T15:11:45Z</time></trkpt>
    <trkpt lat="47.75778" lon="14.31450"><ele>770</ele><time>2021-10-17T15:12:03Z</time></trkpt>
    <trkpt lat="47.75756" lon="14.31431"><ele>766</ele><time>2021-10-17T15:12:21Z</time></trkpt>
    <trkpt lat="47.75736" lon="14.31419"><ele>790</ele><time>2021-10-17T15:12:40Z</time></trkpt>
    <trkpt lat="47.75726" lon="14.31404"><ele>750</ele><time>2021-10-17T15:12:58Z</time></trkpt>
    <trkpt lat="47.75710" lon="14.31393"><ele>749</ele><time>2021-10-17T15:13:17Z</time></trkpt>
    <trkpt lat="47.75696" lon="14.31377"><ele>752</ele><time>2021-10-17T15:13:36Z</time></trkpt>
    <trkpt lat="47.75668" lon="14.31357"><ele>737</ele><time>2021-10-17T15:14:13Z</time></trkpt>
    <trkpt lat="47.75657" lon="14.31341"><ele>738</ele><time>2021-10-17T15:14:32Z</time></trkpt>
    <trkpt lat="47.75648" lon="14.31332"><ele>737</ele><time>2021-10-17T15:14:50Z</time></trkpt>
    <trkpt lat="47.75635" lon="14.31320"><ele>728</ele><time>2021-10-17T15:15:08Z</time></trkpt>
    <trkpt lat="47.75626" lon="14.31305"><ele>718</ele><time>2021-10-17T15:15:27Z</time></trkpt>
    <trkpt lat="47.75612" lon="14.31291"><ele>709</ele><time>2021-10-17T15:15:46Z</time></trkpt>
    <trkpt lat="47.75603" lon="14.31284"><ele>704</ele><time>2021-10-17T15:16:04Z</time></trkpt>
    <trkpt lat="47.75590" lon="14.31265"><ele>793</ele><time>2021-10-17T15:16:23Z</time></trkpt>
    <trkpt lat="47.75579" lon="14.31254"><ele>717</ele><time>2021-10-17T15:16:42Z</time></trkpt>
    <trkpt lat="47.75565" lon="14.31259"><ele>702</ele><time>2021-10-17T15:17:01Z</time></trkpt>
    <trkpt lat="47.75572" lon="14.31280"><ele>712</ele><time>2021-10-17T15:17:20Z</time></trkpt>
    <trkpt lat="47.75564" lon="14.31299"><ele>699</ele><time>2021-10-17T15:17:38Z</time></trkpt>
    <trkpt lat="47.75564" lon="14.31325"><ele>694</ele><time>2021-10-17T15:17:57Z</time></trkpt>
    <trkpt lat="47.75564" lon="14.31343"><ele>688</ele><time>2021-10-17T15:18:15Z</time></trkpt>
    <trkpt lat="47.75538" lon="14.31306"><ele>689</ele><time>2021-10-17T15:19:27Z</time></trkpt>
    <trkpt lat="47.75521" lon="14.31298"><ele>665</ele><time>2021-10-17T15:19:46Z</time></trkpt>
    <trkpt lat="47.75504" lon="14.31290"><ele>743</ele><time>2021-10-17T15:20:05Z</time></trkpt>
    <trkpt lat="47.75497" lon="14.31277"><ele>672</ele><time>2021-10-17T15:20:24Z</time></trkpt>
    <trkpt lat="47.75476" lon="14.31273"><ele>665</ele><time>2021-10-17T15:20:43Z</time></trkpt>
    <trkpt lat="47.75458" lon="14.31271"><ele>655</ele><time>2021-10-17T15:21:19Z</time></trkpt>
    <trkpt lat="47.75436" lon="14.31254"><ele>632</ele><time>2021-10-17T15:22:06Z</time></trkpt>
    <trkpt lat="47.75415" lon="14.31257"><ele>625</ele><time>2021-10-17T15:22:25Z</time></trkpt>
    <trkpt lat="47.75420" lon="14.31284"><ele>616</ele><time>2021-10-17T15:22:43Z</time></trkpt>
    <trkpt lat="47.75428" lon="14.31310"><ele>618</ele><time>2021-10-17T15:23:02Z</time></trkpt>
    <trkpt lat="47.75440" lon="14.31327"><ele>620</ele><time>2021-10-17T15:23:21Z</time></trkpt>
  </trkseg>
</trk>
</gpx>