<?xml version="1.0" encoding="UTF-8"?>
<gpx version="1.1" creator="GPX-Pro" xmlns="http://www.topografix.com/GPX/1/1">
<trk>
  <name>Karkopf_Agnes_Hex</name>
  <trkseg>
    <trkpt lat="47.69655" lon="12.93525"><ele>685</ele><time>2021-10-25T06:59:49Z</time></trkpt>
    <trkpt lat="47.69619" lon="12.93519"><ele>690</ele><time>2021-10-25T07:01:29Z</time></trkpt>
    <trkpt lat="47.69599" lon="12.93510"><ele>691</ele><time>2021-10-25T07:01:48Z</time></trkpt>
    <trkpt lat="47.69581" lon="12.93506"><ele>691</ele><time>2021-10-25T07:02:07Z</time></trkpt>
    <trkpt lat="47.69566" lon="12.93516"><ele>694</ele><time>2021-10-25T07:02:25Z</time></trkpt>
    <trkpt lat="47.69547" lon="12.93528"><ele>696</ele><time>2021-10-25T07:02:44Z</time></trkpt>
    <trkpt lat="47.69529" lon="12.93530"><ele>689</ele><time>2021-10-25T07:03:02Z</time></trkpt>
    <trkpt lat="47.69511" lon="12.93541"><ele>691</ele><time>2021-10-25T07:03:21Z</time></trkpt>
    <trkpt lat="47.69493" lon="12.93557"><ele>692</ele><time>2021-10-25T07:03:39Z</time></trkpt>
    <trkpt lat="47.69480" lon="12.93567"><ele>704</ele><time>2021-10-25T07:03:57Z</time></trkpt>
    <trkpt lat="47.69465" lon="12.93578"><ele>705</ele><time>2021-10-25T07:04:16Z</time></trkpt>
    <trkpt lat="47.69450" lon="12.93584"><ele>699</ele><time>2021-10-25T07:04:34Z</time></trkpt>
    <trkpt lat="47.69436" lon="12.93598"><ele>706</ele><time>2021-10-25T07:04:53Z</time></trkpt>
    <trkpt lat="47.69421" lon="12.93599"><ele>706</ele><time>2021-10-25T07:05:12Z</time></trkpt>
    <trkpt lat="47.69405" lon="12.93597"><ele>710</ele><time>2021-10-25T07:05:31Z</time></trkpt>
    <trkpt lat="47.69387" lon="12.93604"><ele>718</ele><time>2021-10-25T07:05:49Z</time></trkpt>
    <trkpt lat="47.69370" lon="12.93602"><ele>722</ele><time>2021-10-25T07:06:08Z</time></trkpt>
    <trkpt lat="47.69354" lon="12.93588"><ele>729</ele><time>2021-10-25T07:06:27Z</time></trkpt>
    <trkpt lat="47.69338" lon="12.93578"><ele>729</ele><time>2021-10-25T07:06:45Z</time></trkpt>
    <trkpt lat="47.69320" lon="12.93582"><ele>730</ele><time>2021-10-25T07:07:04Z</time></trkpt>
    <trkpt lat="47.69307" lon="12.93585"><ele>725</ele><time>2021-10-25T07:07:22Z</time></trkpt>
    <trkpt lat="47.69291" lon="12.93589"><ele>732</ele><time>2021-10-25T07:07:41Z</time></trkpt>
    <trkpt lat="47.69276" lon="12.93596"><ele>739</ele><time>2021-10-25T07:08:00Z</time></trkpt>
    <trkpt lat="47.69260" lon="12.93589"><ele>736</ele><time>2021-10-25T07:08:19Z</time></trkpt>
    <trkpt lat="47.69244" lon="12.93590"><ele>740</ele><time>2021-10-25T07:08:37Z</time></trkpt>
    <trkpt lat="47.69223" lon="12.93590"><ele>737</ele><time>2021-10-25T07:08:56Z</time></trkpt>
    <trkpt lat="47.69210" lon="12.93581"><ele>745</ele><time>2021-10-25T07:09:15Z</time></trkpt>
    <trkpt lat="47.69202" lon="12.93566"><ele>738</ele><time>2021-10-25T07:09:34Z</time></trkpt>
    <trkpt lat="47.69194" lon="12.93553"><ele>738</ele><time>2021-10-25T07:09:53Z</time></trkpt>
    <trkpt lat="47.69185" lon="12.93544"><ele>740</ele><time>2021-10-25T07:10:11Z</time></trkpt>
    <trkpt lat="47.69173" lon="12.93533"><ele>748</ele><time>2021-10-25T07:10:30Z</time></trkpt>
    <trkpt lat="47.69179" lon="12.93521"><ele>748</ele><time>2021-10-25T07:10:49Z</time></trkpt>
    <trkpt lat="47.69191" lon="12.93505"><ele>753</ele><time>2021-10-25T07:11:08Z</time></trkpt>
    <trkpt lat="47.69203" lon="12.93498"><ele>757</ele><time>2021-10-25T07:11:27Z</time></trkpt>
    <trkpt lat="47.69217" lon="12.93489"><ele>765</ele><time>2021-10-25T07:11:46Z</time></trkpt>
    <trkpt lat="47.69228" lon="12.93472"><ele>772</ele><time>2021-10-25T07:12:04Z</time></trkpt>
    <trkpt lat="47.69228" lon="12.93458"><ele>760</ele><time>2021-10-25T07:12:23Z</time></trkpt>
    <trkpt lat="47.69245" lon="12.93451"><ele>772</ele><time>2021-10-25T07:13:05Z</time></trkpt>
    <trkpt lat="47.69264" lon="12.93438"><ele>786</ele><time>2021-10-25T07:13:24Z</time></trkpt>
    <trkpt lat="47.69276" lon="12.93422"><ele>793</ele><time>2021-10-25T07:13:42Z</time></trkpt>
    <trkpt lat="47.69281" lon="12.93410"><ele>789</ele><time>2021-10-25T07:14:01Z</time></trkpt>
    <trkpt lat="47.69281" lon="12.93394"><ele>789</ele><time>2021-10-25T07:14:19Z</time></trkpt>
    <trkpt lat="47.69280" lon="12.93376"><ele>792</ele><time>2021-10-25T07:14:37Z</time></trkpt>
    <trkpt lat="47.69288" lon="12.93363"><ele>793</ele><time>2021-10-25T07:14:55Z</time></trkpt>
    <trkpt lat="47.69295" lon="12.93353"><ele>795</ele><time>2021-10-25T07:15:13Z</time></trkpt>
    <trkpt lat="47.69288" lon="12.93338"><ele>800</ele><time>2021-10-25T07:15:31Z</time></trkpt>
    <trkpt lat="47.69297" lon="12.93324"><ele>800</ele><time>2021-10-25T07:15:49Z</time></trkpt>
    <trkpt lat="47.69305" lon="12.93314"><ele>805</ele><time>2021-10-25T07:16:08Z</time></trkpt>
    <trkpt lat="47.69290" lon="12.93303"><ele>811</ele><time>2021-10-25T07:17:26Z</time></trkpt>
    <trkpt lat="47.69278" lon="12.93308"><ele>810</ele><time>2021-10-25T07:17:45Z</time></trkpt>
    <trkpt lat="47.69269" lon="12.93305"><ele>807</ele><time>2021-10-25T07:18:04Z</time></trkpt>
    <trkpt lat="47.69258" lon="12.93306"><ele>809</ele><time>2021-10-25T07:18:23Z</time></trkpt>
    <trkpt lat="47.69244" lon="12.93309"><ele>792</ele><time>2021-10-25T07:18:42Z</time></trkpt>
    <trkpt lat="47.69230" lon="12.93314"><ele>811</ele><time>2021-10-25T07:19:00Z</time></trkpt>
    <trkpt lat="47.69220" lon="12.93308"><ele>809</ele><time>2021-10-25T07:19:19Z</time></trkpt>
    <trkpt lat="47.69209" lon="12.93300"><ele>817</ele><time>2021-10-25T07:19:37Z</time></trkpt>
    <trkpt lat="47.69193" lon="12.93291"><ele>824</ele><time>2021-10-25T07:19:56Z</time></trkpt>
    <trkpt lat="47.69184" lon="12.93278"><ele>825</ele><time>2021-10-25T07:20:15Z</time></trkpt>
    <trkpt lat="47.69195" lon="12.93270"><ele>832</ele><time>2021-10-25T07:20:34Z</time></trkpt>
    <trkpt lat="47.69211" lon="12.93268"><ele>836</ele><time>2021-10-25T07:20:52Z</time></trkpt>
    <trkpt lat="47.69222" lon="12.93262"><ele>844</ele><time>2021-10-25T07:21:11Z</time></trkpt>
    <trkpt lat="47.69231" lon="12.93259"><ele>843</ele><time>2021-10-25T07:21:30Z</time></trkpt>
    <trkpt lat="47.69238" lon="12.93247"><ele>842</ele><time>2021-10-25T07:21:49Z</time></trkpt>
    <trkpt lat="47.69246" lon="12.93232"><ele>845</ele><time>2021-10-25T07:22:07Z</time></trkpt>
    <trkpt lat="47.69253" lon="12.93216"><ele>847</ele><time>2021-10-25T07:22:25Z</time></trkpt>
    <trkpt lat="47.69259" lon="12.93203"><ele>852</ele><time>2021-10-25T07:22:43Z</time></trkpt>
    <trkpt lat="47.69260" lon="12.93186"><ele>854</ele><time>2021-10-25T07:23:02Z</time></trkpt>
    <trkpt lat="47.69272" lon="12.93176"><ele>858</ele><time>2021-10-25T07:23:21Z</time></trkpt>
    <trkpt lat="47.69293" lon="12.93171"><ele>866</ele><time>2021-10-25T07:23:40Z</time></trkpt>
    <trkpt lat="47.69305" lon="12.93160"><ele>868</ele><time>2021-10-25T07:23:58Z</time></trkpt>
    <trkpt lat="47.69290" lon="12.93140"><ele>800</ele><time>2021-10-25T07:24:45Z</time></trkpt>
    <trkpt lat="47.69280" lon="12.93132"><ele>853</ele><time>2021-10-25T07:25:03Z</time></trkpt>
    <trkpt lat="47.69272" lon="12.93124"><ele>858</ele><time>2021-10-25T07:25:21Z</time></trkpt>
    <trkpt lat="47.69255" lon="12.93113"><ele>871</ele><time>2021-10-25T07:25:40Z</time></trkpt>
    <trkpt lat="47.69243" lon="12.93104"><ele>872</ele><time>2021-10-25T07:25:59Z</time></trkpt>
    <trkpt lat="47.69231" lon="12.93097"><ele>874</ele><time>2021-10-25T07:26:18Z</time></trkpt>
    <trkpt lat="47.69222" lon="12.93082"><ele>876</ele><time>2021-10-25T07:26:36Z</time></trkpt>
    <trkpt lat="47.69225" lon="12.93069"><ele>885</ele><time>2021-10-25T07:27:13Z</time></trkpt>
    <trkpt lat="47.69237" lon="12.93068"><ele>895</ele><time>2021-10-25T07:27:32Z</time></trkpt>
    <trkpt lat="47.69252" lon="12.93065"><ele>901</ele><time>2021-10-25T07:27:51Z</time></trkpt>
    <trkpt lat="47.69262" lon="12.93066"><ele>906</ele><time>2021-10-25T07:28:09Z</time></trkpt>
    <trkpt lat="47.69273" lon="12.93059"><ele>908</ele><time>2021-10-25T07:28:28Z</time></trkpt>
    <trkpt lat="47.69283" lon="12.93049"><ele>910</ele><time>2021-10-25T07:28:47Z</time></trkpt>
    <trkpt lat="47.69296" lon="12.93047"><ele>910</ele><time>2021-10-25T07:29:05Z</time></trkpt>
    <trkpt lat="47.69285" lon="12.93042"><ele>910</ele><time>2021-10-25T07:29:24Z</time></trkpt>
    <trkpt lat="47.69273" lon="12.93037"><ele>914</ele><time>2021-10-25T07:29:43Z</time></trkpt>
    <trkpt lat="47.69255" lon="12.93031"><ele>908</ele><time>2021-10-25T07:30:21Z</time></trkpt>
    <trkpt lat="47.69243" lon="12.93020"><ele>916</ele><time>2021-10-25T07:30:39Z</time></trkpt>
    <trkpt lat="47.69229" lon="12.93019"><ele>922</ele><time>2021-10-25T07:30:57Z</time></trkpt>
    <trkpt lat="47.69253" lon="12.93009"><ele>919</ele><time>2021-10-25T07:31:55Z</time></trkpt>
    <trkpt lat="47.69237" lon="12.92994"><ele>923</ele><time>2021-10-25T07:32:39Z</time></trkpt>
    <trkpt lat="47.69247" lon="12.92989"><ele>927</ele><time>2021-10-25T07:32:58Z</time></trkpt>
    <trkpt lat="47.69263" lon="12.92972"><ele>939</ele><time>2021-10-25T07:35:31Z</time></trkpt>
    <trkpt lat="47.69266" lon="12.92937"><ele>947</ele><time>2021-10-25T07:36:17Z</time></trkpt>
    <trkpt lat="47.69267" lon="12.92921"><ele>950</ele><time>2021-10-25T07:36:35Z</time></trkpt>
    <trkpt lat="47.69264" lon="12.92897"><ele>963</ele><time>2021-10-25T07:37:11Z</time></trkpt>
    <trkpt lat="47.69253" lon="12.92884"><ele>962</ele><time>2021-10-25T07:37:30Z</time></trkpt>
    <trkpt lat="47.69244" lon="12.92878"><ele>963</ele><time>2021-10-25T07:37:48Z</time></trkpt>
    <trkpt lat="47.69257" lon="12.92865"><ele>979</ele><time>2021-10-25T07:39:16Z</time></trkpt>
    <trkpt lat="47.69265" lon="12.92858"><ele>985</ele><time>2021-10-25T07:39:35Z</time></trkpt>
    <trkpt lat="47.69280" lon="12.92845"><ele>994</ele><time>2021-10-25T07:39:54Z</time></trkpt>
    <trkpt lat="47.69287" lon="12.92834"><ele>995</ele><time>2021-10-25T07:40:12Z</time></trkpt>
    <trkpt lat="47.69298" lon="12.92827"><ele>1000</ele><time>2021-10-25T07:40:31Z</time></trkpt>
    <trkpt lat="47.69311" lon="12.92826"><ele>1005</ele><time>2021-10-25T07:40:50Z</time></trkpt>
    <trkpt lat="47.69323" lon="12.92820"><ele>998</ele><time>2021-10-25T07:41:09Z</time></trkpt>
    <trkpt lat="47.69336" lon="12.92812"><ele>1000</ele><time>2021-10-25T07:41:28Z</time></trkpt>
    <trkpt lat="47.69348" lon="12.92818"><ele>1007</ele><time>2021-10-25T07:41:47Z</time></trkpt>
    <trkpt lat="47.69365" lon="12.92814"><ele>1009</ele><time>2021-10-25T07:42:37Z</time></trkpt>
    <trkpt lat="47.69377" lon="12.92817"><ele>1014</ele><time>2021-10-25T07:42:55Z</time></trkpt>
    <trkpt lat="47.69389" lon="12.92806"><ele>1010</ele><time>2021-10-25T07:43:14Z</time></trkpt>
    <trkpt lat="47.69403" lon="12.92795"><ele>1008</ele><time>2021-10-25T07:43:33Z</time></trkpt>
    <trkpt lat="47.69414" lon="12.92791"><ele>1015</ele><time>2021-10-25T07:43:52Z</time></trkpt>
    <trkpt lat="47.69424" lon="12.92777"><ele>1021</ele><time>2021-10-25T07:44:10Z</time></trkpt>
    <trkpt lat="47.69435" lon="12.92776"><ele>1026</ele><time>2021-10-25T07:44:28Z</time></trkpt>
    <trkpt lat="47.69445" lon="12.92763"><ele>1022</ele><time>2021-10-25T07:44:47Z</time></trkpt>
    <trkpt lat="47.69455" lon="12.92763"><ele>1033</ele><time>2021-10-25T07:45:05Z</time></trkpt>
    <trkpt lat="47.69470" lon="12.92745"><ele>1036</ele><time>2021-10-25T07:45:42Z</time></trkpt>
    <trkpt lat="47.69476" lon="12.92728"><ele>1036</ele><time>2021-10-25T07:46:01Z</time></trkpt>
    <trkpt lat="47.69485" lon="12.92713"><ele>1044</ele><time>2021-10-25T07:46:20Z</time></trkpt>
    <trkpt lat="47.69483" lon="12.92696"><ele>1041</ele><time>2021-10-25T07:46:38Z</time></trkpt>
    <trkpt lat="47.69485" lon="12.92676"><ele>1041</ele><time>2021-10-25T07:46:57Z</time></trkpt>
    <trkpt lat="47.69494" lon="12.92655"><ele>1049</ele><time>2021-10-25T07:47:41Z</time></trkpt>
    <trkpt lat="47.69504" lon="12.92636"><ele>1064</ele><time>2021-10-25T07:48:21Z</time></trkpt>
    <trkpt lat="47.69505" lon="12.92621"><ele>1067</ele><time>2021-10-25T07:48:40Z</time></trkpt>
    <trkpt lat="47.69504" lon="12.92598"><ele>1074</ele><time>2021-10-25T07:49:30Z</time></trkpt>
    <trkpt lat="47.69505" lon="12.92574"><ele>1082</ele><time>2021-10-25T07:50:38Z</time></trkpt>
    <trkpt lat="47.69510" lon="12.92556"><ele>1081</ele><time>2021-10-25T07:50:57Z</time></trkpt>
    <trkpt lat="47.69516" lon="12.92544"><ele>1086</ele><time>2021-10-25T07:51:16Z</time></trkpt>
    <trkpt lat="47.69512" lon="12.92529"><ele>1089</ele><time>2021-10-25T07:51:34Z</time></trkpt>
    <trkpt lat="47.69514" lon="12.92509"><ele>1095</ele><time>2021-10-25T07:51:53Z</time></trkpt>
    <trkpt lat="47.69510" lon="12.92484"><ele>1102</ele><time>2021-10-25T07:52:34Z</time></trkpt>
    <trkpt lat="47.69502" lon="12.92453"><ele>1107</ele><time>2021-10-25T07:53:23Z</time></trkpt>
    <trkpt lat="47.69506" lon="12.92418"><ele>1097</ele><time>2021-10-25T07:54:07Z</time></trkpt>
    <trkpt lat="47.69512" lon="12.92396"><ele>1109</ele><time>2021-10-25T07:54:44Z</time></trkpt>
    <trkpt lat="47.69525" lon="12.92379"><ele>1122</ele><time>2021-10-25T07:55:33Z</time></trkpt>
    <trkpt lat="47.69528" lon="12.92365"><ele>1123</ele><time>2021-10-25T07:55:51Z</time></trkpt>
    <trkpt lat="47.69533" lon="12.92338"><ele>1135</ele><time>2021-10-25T07:56:29Z</time></trkpt>
    <trkpt lat="47.69524" lon="12.92319"><ele>1139</ele><time>2021-10-25T07:57:18Z</time></trkpt>
    <trkpt lat="47.69518" lon="12.92306"><ele>1137</ele><time>2021-10-25T07:57:37Z</time></trkpt>
    <trkpt lat="47.69510" lon="12.92298"><ele>1139</ele><time>2021-10-25T07:57:55Z</time></trkpt>
    <trkpt lat="47.69504" lon="12.92276"><ele>1143</ele><time>2021-10-25T07:58:13Z</time></trkpt>
    <trkpt lat="47.69513" lon="12.92271"><ele>1142</ele><time>2021-10-25T07:58:31Z</time></trkpt>
    <trkpt lat="47.69522" lon="12.92275"><ele>1135</ele><time>2021-10-25T07:58:50Z</time></trkpt>
    <trkpt lat="47.69530" lon="12.92255"><ele>1140</ele><time>2021-10-25T07:59:09Z</time></trkpt>
    <trkpt lat="47.69538" lon="12.92231"><ele>1135</ele><time>2021-10-25T07:59:27Z</time></trkpt>
    <trkpt lat="47.69545" lon="12.92212"><ele>1135</ele><time>2021-10-25T07:59:46Z</time></trkpt>
    <trkpt lat="47.69550" lon="12.92195"><ele>1105</ele><time>2021-10-25T08:00:04Z</time></trkpt>
    <trkpt lat="47.69559" lon="12.92174"><ele>1140</ele><time>2021-10-25T08:00:44Z</time></trkpt>
    <trkpt lat="47.69568" lon="12.92154"><ele>1147</ele><time>2021-10-25T08:01:03Z</time></trkpt>
    <trkpt lat="47.69579" lon="12.92144"><ele>1154</ele><time>2021-10-25T08:01:21Z</time></trkpt>
    <trkpt lat="47.69578" lon="12.92127"><ele>1158</ele><time>2021-10-25T08:05:00Z</time></trkpt>
    <trkpt lat="47.69568" lon="12.92117"><ele>1155</ele><time>2021-10-25T08:05:19Z</time></trkpt>
    <trkpt lat="47.69573" lon="12.92095"><ele>1173</ele><time>2021-10-25T08:06:08Z</time></trkpt>
    <trkpt lat="47.69559" lon="12.92089"><ele>1177</ele><time>2021-10-25T08:07:07Z</time></trkpt>
    <trkpt lat="47.69541" lon="12.92082"><ele>1168</ele><time>2021-10-25T08:07:47Z</time></trkpt>
    <trkpt lat="47.69526" lon="12.92084"><ele>1206</ele><time>2021-10-25T08:08:56Z</time></trkpt>
    <trkpt lat="47.69516" lon="12.92084"><ele>1206</ele><time>2021-10-25T08:09:14Z</time></trkpt>
    <trkpt lat="47.69501" lon="12.92092"><ele>1220</ele><time>2021-10-25T08:10:03Z</time></trkpt>
    <trkpt lat="47.69492" lon="12.92084"><ele>1179</ele><time>2021-10-25T08:11:08Z</time></trkpt>
    <trkpt lat="47.69475" lon="12.92077"><ele>1241</ele><time>2021-10-25T08:12:18Z</time></trkpt>
    <trkpt lat="47.69467" lon="12.92081"><ele>1249</ele><time>2021-10-25T08:12:37Z</time></trkpt>
    <trkpt lat="47.69451" lon="12.92074"><ele>1262</ele><time>2021-10-25T08:14:05Z</time></trkpt>
    <trkpt lat="47.69450" lon="12.92060"><ele>1266</ele><time>2021-10-25T08:14:31Z</time></trkpt>
    <trkpt lat="47.69443" lon="12.92046"><ele>1239</ele><time>2021-10-25T08:15:39Z</time></trkpt>
    <trkpt lat="47.69429" lon="12.92045"><ele>1276</ele><time>2021-10-25T08:15:58Z</time></trkpt>
    <trkpt lat="47.69418" lon="12.92044"><ele>1287</ele><time>2021-10-25T08:16:17Z</time></trkpt>
    <trkpt lat="47.69399" lon="12.92053"><ele>1285</ele><time>2021-10-25T08:16:57Z</time></trkpt>
    <trkpt lat="47.69390" lon="12.92061"><ele>1266</ele><time>2021-10-25T08:17:15Z</time></trkpt>
    <trkpt lat="47.69384" lon="12.92080"><ele>1281</ele><time>2021-10-25T08:17:34Z</time></trkpt>
    <trkpt lat="47.69381" lon="12.92097"><ele>1284</ele><time>2021-10-25T08:17:52Z</time></trkpt>
    <trkpt lat="47.69373" lon="12.92113"><ele>1287</ele><time>2021-10-25T08:18:10Z</time></trkpt>
    <trkpt lat="47.69372" lon="12.92132"><ele>1293</ele><time>2021-10-25T08:18:28Z</time></trkpt>
    <trkpt lat="47.69379" lon="12.92155"><ele>1291</ele><time>2021-10-25T08:19:13Z</time></trkpt>
    <trkpt lat="47.69374" lon="12.92177"><ele>1300</ele><time>2021-10-25T08:21:34Z</time></trkpt>
    <trkpt lat="47.69389" lon="12.92164"><ele>1315</ele><time>2021-10-25T08:24:36Z</time></trkpt>
    <trkpt lat="47.69381" lon="12.92149"><ele>1315</ele><time>2021-10-25T08:29:15Z</time></trkpt>
    <trkpt lat="47.69371" lon="12.92124"><ele>1283</ele><time>2021-10-25T08:30:21Z</time></trkpt>
    <trkpt lat="47.69363" lon="12.92132"><ele>1285</ele><time>2021-10-25T08:30:39Z</time></trkpt>
    <trkpt lat="47.69354" lon="12.92146"><ele>1287</ele><time>2021-10-25T08:30:58Z</time></trkpt>
    <trkpt lat="47.69338" lon="12.92151"><ele>1279</ele><time>2021-10-25T08:31:58Z</time></trkpt>
    <trkpt lat="47.69324" lon="12.92165"><ele>1273</ele><time>2021-10-25T08:32:36Z</time></trkpt>
    <trkpt lat="47.69311" lon="12.92189"><ele>1266</ele><time>2021-10-25T08:33:28Z</time></trkpt>
    <trkpt lat="47.69315" lon="12.92210"><ele>1261</ele><time>2021-10-25T08:33:47Z</time></trkpt>
    <trkpt lat="47.69321" lon="12.92220"><ele>1260</ele><time>2021-10-25T08:34:05Z</time></trkpt>
    <trkpt lat="47.69337" lon="12.92223"><ele>1261</ele><time>2021-10-25T08:34:53Z</time></trkpt>
    <trkpt lat="47.69350" lon="12.92222"><ele>1270</ele><time>2021-10-25T08:36:37Z</time></trkpt>
    <trkpt lat="47.69367" lon="12.92227"><ele>1322</ele><time>2021-10-25T08:40:39Z</time></trkpt>
    <trkpt lat="47.69365" lon="12.92205"><ele>1339</ele><time>2021-10-25T08:45:01Z</time></trkpt>
    <trkpt lat="47.69377" lon="12.92191"><ele>1316</ele><time>2021-10-25T08:48:53Z</time></trkpt>
    <trkpt lat="47.69376" lon="12.92218"><ele>1345</ele><time>2021-10-25T08:53:37Z</time></trkpt>
    <trkpt lat="47.69376" lon="12.92243"><ele>1356</ele><time>2021-10-25T08:57:15Z</time></trkpt>
    <trkpt lat="47.69365" lon="12.92260"><ele>1368</ele><time>2021-10-25T09:00:12Z</time></trkpt>
    <trkpt lat="47.69375" lon="12.92241"><ele>1367</ele><time>2021-10-25T09:06:22Z</time></trkpt>
    <trkpt lat="47.69381" lon="12.92219"><ele>1340</ele><time>2021-10-25T09:11:12Z</time></trkpt>
    <trkpt lat="47.69375" lon="12.92196"><ele>1343</ele><time>2021-10-25T09:16:37Z</time></trkpt>
    <trkpt lat="47.69369" lon="12.92225"><ele>1324</ele><time>2021-10-25T09:23:16Z</time></trkpt>
    <trkpt lat="47.69359" lon="12.92234"><ele>1307</ele><time>2021-10-25T09:27:37Z</time></trkpt>
    <trkpt lat="47.69344" lon="12.92227"><ele>1287</ele><time>2021-10-25T09:28:47Z</time></trkpt>
    <trkpt lat="47.69327" lon="12.92230"><ele>1251</ele><time>2021-10-25T09:29:35Z</time></trkpt>
    <trkpt lat="47.69318" lon="12.92223"><ele>1267</ele><time>2021-10-25T09:29:53Z</time></trkpt>
    <trkpt lat="47.69313" lon="12.92202"><ele>1243</ele><time>2021-10-25T09:30:54Z</time></trkpt>
    <trkpt lat="47.69324" lon="12.92185"><ele>1257</ele><time>2021-10-25T09:32:05Z</time></trkpt>
    <trkpt lat="47.69327" lon="12.92172"><ele>1227</ele><time>2021-10-25T09:32:24Z</time></trkpt>
    <trkpt lat="47.69332" lon="12.92160"><ele>1235</ele><time>2021-10-25T09:32:43Z</time></trkpt>
    <trkpt lat="47.69336" lon="12.92148"><ele>1242</ele><time>2021-10-25T09:33:02Z</time></trkpt>
    <trkpt lat="47.69351" lon="12.92124"><ele>1253</ele><time>2021-10-25T09:33:52Z</time></trkpt>
    <trkpt lat="47.69357" lon="12.92110"><ele>1250</ele><time>2021-10-25T09:34:10Z</time></trkpt>
    <trkpt lat="47.69364" lon="12.92085"><ele>1269</ele><time>2021-10-25T09:34:46Z</time></trkpt>
    <trkpt lat="47.69364" lon="12.92063"><ele>1267</ele><time>2021-10-25T09:35:05Z</time></trkpt>
    <trkpt lat="47.69368" lon="12.92039"><ele>1277</ele><time>2021-10-25T09:37:59Z</time></trkpt>
    <trkpt lat="47.69359" lon="12.92017"><ele>1284</ele><time>2021-10-25T09:38:17Z</time></trkpt>
    <trkpt lat="47.69352" lon="12.91997"><ele>1277</ele><time>2021-10-25T09:38:35Z</time></trkpt>
    <trkpt lat="47.69340" lon="12.91978"><ele>1275</ele><time>2021-10-25T09:38:53Z</time></trkpt>
    <trkpt lat="47.69334" lon="12.91960"><ele>1274</ele><time>2021-10-25T09:39:12Z</time></trkpt>
    <trkpt lat="47.69323" lon="12.91947"><ele>1273</ele><time>2021-10-25T09:39:30Z</time></trkpt>
    <trkpt lat="47.69321" lon="12.91931"><ele>1265</ele><time>2021-10-25T09:39:48Z</time></trkpt>
    <trkpt lat="47.69309" lon="12.91913"><ele>1265</ele><time>2021-10-25T09:40:07Z</time></trkpt>
    <trkpt lat="47.69299" lon="12.91903"><ele>1257</ele><time>2021-10-25T09:40:25Z</time></trkpt>
    <trkpt lat="47.69291" lon="12.91883"><ele>1256</ele><time>2021-10-25T09:40:43Z</time></trkpt>
    <trkpt lat="47.69283" lon="12.91865"><ele>1248</ele><time>2021-10-25T09:41:02Z</time></trkpt>
    <trkpt lat="47.69267" lon="12.91863"><ele>1252</ele><time>2021-10-25T09:41:20Z</time></trkpt>
    <trkpt lat="47.69252" lon="12.91857"><ele>1191</ele><time>2021-10-25T09:41:39Z</time></trkpt>
    <trkpt lat="47.69211" lon="12.91836"><ele>1226</ele><time>2021-10-25T09:42:36Z</time></trkpt>
    <trkpt lat="47.69200" lon="12.91828"><ele>1215</ele><time>2021-10-25T09:42:54Z</time></trkpt>
    <trkpt lat="47.69188" lon="12.91812"><ele>1238</ele><time>2021-10-25T09:44:22Z</time></trkpt>
    <trkpt lat="47.69175" lon="12.91800"><ele>1234</ele><time>2021-10-25T09:44:41Z</time></trkpt>
    <trkpt lat="47.69166" lon="12.91782"><ele>1237</ele><time>2021-10-25T09:45:00Z</time></trkpt>
    <trkpt lat="47.69151" lon="12.91755"><ele>1234</ele><time>2021-10-25T09:45:19Z</time></trkpt>
    <trkpt lat="47.69152" lon="12.91727"><ele>1228</ele><time>2021-10-25T09:45:37Z</time></trkpt>
    <trkpt lat="47.69145" lon="12.91709"><ele>1224</ele><time>2021-10-25T09:45:55Z</time></trkpt>
    <trkpt lat="47.69132" lon="12.91697"><ele>1223</ele><time>2021-10-25T09:46:14Z</time></trkpt>
    <trkpt lat="47.69125" lon="12.91687"><ele>1225</ele><time>2021-10-25T09:46:32Z</time></trkpt>
    <trkpt lat="47.69097" lon="12.91674"><ele>1215</ele><time>2021-10-25T09:47:09Z</time></trkpt>
    <trkpt lat="47.69091" lon="12.91654"><ele>1221</ele><time>2021-10-25T09:47:28Z</time></trkpt>
    <trkpt lat="47.69078" lon="12.91649"><ele>1223</ele><time>2021-10-25T09:47:47Z</time></trkpt>
    <trkpt lat="47.69065" lon="12.91641"><ele>1219</ele><time>2021-10-25T09:48:05Z</time></trkpt>
    <trkpt lat="47.69055" lon="12.91627"><ele>1219</ele><time>2021-10-25T09:48:23Z</time></trkpt>
    <trkpt lat="47.69040" lon="12.91615"><ele>1218</ele><time>2021-10-25T09:48:42Z</time></trkpt>
    <trkpt lat="47.69015" lon="12.91630"><ele>1225</ele><time>2021-10-25T09:49:01Z</time></trkpt>
    <trkpt lat="47.68994" lon="12.91621"><ele>1228</ele><time>2021-10-25T09:49:19Z</time></trkpt>
    <trkpt lat="47.68976" lon="12.91611"><ele>1231</ele><time>2021-10-25T09:49:37Z</time></trkpt>
    <trkpt lat="47.68973" lon="12.91592"><ele>1233</ele><time>2021-10-25T09:49:56Z</time></trkpt>
    <trkpt lat="47.68954" lon="12.91603"><ele>1239</ele><time>2021-10-25T09:50:15Z</time></trkpt>
    <trkpt lat="47.68941" lon="12.91597"><ele>1237</ele><time>2021-10-25T09:50:33Z</time></trkpt>
    <trkpt lat="47.68927" lon="12.91591"><ele>1235</ele><time>2021-10-25T09:50:51Z</time></trkpt>
    <trkpt lat="47.68913" lon="12.91588"><ele>1239</ele><time>2021-10-25T09:51:09Z</time></trkpt>
    <trkpt lat="47.68897" lon="12.91580"><ele>1238</ele><time>2021-10-25T09:51:28Z</time></trkpt>
    <trkpt lat="47.68879" lon="12.91588"><ele>1235</ele><time>2021-10-25T09:51:46Z</time></trkpt>
    <trkpt lat="47.68868" lon="12.91582"><ele>1246</ele><time>2021-10-25T09:52:05Z</time></trkpt>
    <trkpt lat="47.68855" lon="12.91576"><ele>1245</ele><time>2021-10-25T09:52:23Z</time></trkpt>
    <trkpt lat="47.68838" lon="12.91583"><ele>1240</ele><time>2021-10-25T09:52:42Z</time></trkpt>
    <trkpt lat="47.68823" lon="12.91592"><ele>1249</ele><time>2021-10-25T09:53:00Z</time></trkpt>
    <trkpt lat="47.68811" lon="12.91602"><ele>1252</ele><time>2021-10-25T09:53:18Z</time></trkpt>
    <trkpt lat="47.68797" lon="12.91621"><ele>1251</ele><time>2021-10-25T09:53:37Z</time></trkpt>
    <trkpt lat="47.68787" lon="12.91626"><ele>1265</ele><time>2021-10-25T09:53:56Z</time></trkpt>
    <trkpt lat="47.68779" lon="12.91649"><ele>1264</ele><time>2021-10-25T09:54:51Z</time></trkpt>
    <trkpt lat="47.68771" lon="12.91632"><ele>1263</ele><time>2021-10-25T09:56:09Z</time></trkpt>
    <trkpt lat="47.68759" lon="12.91613"><ele>1264</ele><time>2021-10-25T09:56:27Z</time></trkpt>
    <trkpt lat="47.68743" lon="12.91609"><ele>1270</ele><time>2021-10-25T09:56:45Z</time></trkpt>
    <trkpt lat="47.68733" lon="12.91593"><ele>1271</ele><time>2021-10-25T09:57:04Z</time></trkpt>
    <trkpt lat="47.68728" lon="12.91574"><ele>1275</ele><time>2021-10-25T09:57:23Z</time></trkpt>
    <trkpt lat="47.68718" lon="12.91555"><ele>1275</ele><time>2021-10-25T09:57:42Z</time></trkpt>
    <trkpt lat="47.68705" lon="12.91546"><ele>1269</ele><time>2021-10-25T09:58:00Z</time></trkpt>
    <trkpt lat="47.68693" lon="12.91525"><ele>1274</ele><time>2021-10-25T09:58:19Z</time></trkpt>
    <trkpt lat="47.68678" lon="12.91514"><ele>1266</ele><time>2021-10-25T09:58:38Z</time></trkpt>
    <trkpt lat="47.68666" lon="12.91497"><ele>1262</ele><time>2021-10-25T09:58:57Z</time></trkpt>
    <trkpt lat="47.68671" lon="12.91483"><ele>1259</ele><time>2021-10-25T09:59:16Z</time></trkpt>
    <trkpt lat="47.68680" lon="12.91464"><ele>1263</ele><time>2021-10-25T09:59:34Z</time></trkpt>
    <trkpt lat="47.68692" lon="12.91442"><ele>1265</ele><time>2021-10-25T09:59:53Z</time></trkpt>
    <trkpt lat="47.68700" lon="12.91436"><ele>1260</ele><time>2021-10-25T10:00:11Z</time></trkpt>
    <trkpt lat="47.68716" lon="12.91398"><ele>1259</ele><time>2021-10-25T10:00:54Z</time></trkpt>
    <trkpt lat="47.68716" lon="12.91375"><ele>1269</ele><time>2021-10-25T10:01:12Z</time></trkpt>
    <trkpt lat="47.68718" lon="12.91357"><ele>1267</ele><time>2021-10-25T10:01:31Z</time></trkpt>
    <trkpt lat="47.68726" lon="12.91341"><ele>1270</ele><time>2021-10-25T10:01:50Z</time></trkpt>
    <trkpt lat="47.68726" lon="12.91318"><ele>1269</ele><time>2021-10-25T10:02:09Z</time></trkpt>
    <trkpt lat="47.68728" lon="12.91293"><ele>1270</ele><time>2021-10-25T10:02:27Z</time></trkpt>
    <trkpt lat="47.68722" lon="12.91272"><ele>1270</ele><time>2021-10-25T10:02:46Z</time></trkpt>
    <trkpt lat="47.68709" lon="12.91251"><ele>1267</ele><time>2021-10-25T10:03:05Z</time></trkpt>
    <trkpt lat="47.68704" lon="12.91217"><ele>1277</ele><time>2021-10-25T10:03:42Z</time></trkpt>
    <trkpt lat="47.68703" lon="12.91200"><ele>1274</ele><time>2021-10-25T10:04:01Z</time></trkpt>
    <trkpt lat="47.68698" lon="12.91182"><ele>1275</ele><time>2021-10-25T10:04:20Z</time></trkpt>
    <trkpt lat="47.68700" lon="12.91159"><ele>1276</ele><time>2021-10-25T10:04:39Z</time></trkpt>
    <trkpt lat="47.68705" lon="12.91134"><ele>1272</ele><time>2021-10-25T10:04:57Z</time></trkpt>
    <trkpt lat="47.68711" lon="12.91113"><ele>1271</ele><time>2021-10-25T10:05:16Z</time></trkpt>
    <trkpt lat="47.68694" lon="12.91085"><ele>1262</ele><time>2021-10-25T10:05:53Z</time></trkpt>
    <trkpt lat="47.68676" lon="12.91056"><ele>1281</ele><time>2021-10-25T10:06:32Z</time></trkpt>
    <trkpt lat="47.68656" lon="12.91047"><ele>1288</ele><time>2021-10-25T10:06:51Z</time></trkpt>
    <trkpt lat="47.68650" lon="12.91031"><ele>1291</ele><time>2021-10-25T10:07:28Z</time></trkpt>
    <trkpt lat="47.68654" lon="12.91019"><ele>1287</ele><time>2021-10-25T10:07:57Z</time></trkpt>
    <trkpt lat="47.68653" lon="12.91000"><ele>1285</ele><time>2021-10-25T10:08:16Z</time></trkpt>
    <trkpt lat="47.68640" lon="12.90981"><ele>1287</ele><time>2021-10-25T10:08:34Z</time></trkpt>
    <trkpt lat="47.68633" lon="12.90966"><ele>1289</ele><time>2021-10-25T10:08:52Z</time></trkpt>
    <trkpt lat="47.68632" lon="12.90945"><ele>1295</ele><time>2021-10-25T10:09:10Z</time></trkpt>
    <trkpt lat="47.68620" lon="12.90928"><ele>1294</ele><time>2021-10-25T10:09:29Z</time></trkpt>
    <trkpt lat="47.68622" lon="12.90911"><ele>1289</ele><time>2021-10-25T10:09:47Z</time></trkpt>
    <trkpt lat="47.68633" lon="12.90910"><ele>1302</ele><time>2021-10-25T10:10:59Z</time></trkpt>
    <trkpt lat="47.68647" lon="12.90902"><ele>1308</ele><time>2021-10-25T10:11:48Z</time></trkpt>
    <trkpt lat="47.68660" lon="12.90889"><ele>1314</ele><time>2021-10-25T10:12:46Z</time></trkpt>
    <trkpt lat="47.68672" lon="12.90890"><ele>1331</ele><time>2021-10-25T10:17:51Z</time></trkpt>
    <trkpt lat="47.68687" lon="12.90881"><ele>1339</ele><time>2021-10-25T10:19:01Z</time></trkpt>
    <trkpt lat="47.68702" lon="12.90890"><ele>1348</ele><time>2021-10-25T10:20:05Z</time></trkpt>
    <trkpt lat="47.68714" lon="12.90907"><ele>1358</ele><time>2021-10-25T10:21:06Z</time></trkpt>
    <trkpt lat="47.68704" lon="12.90896"><ele>1355</ele><time>2021-10-25T10:24:57Z</time></trkpt>
    <trkpt lat="47.68688" lon="12.90888"><ele>1344</ele><time>2021-10-25T10:25:42Z</time></trkpt>
    <trkpt lat="47.68673" lon="12.90890"><ele>1336</ele><time>2021-10-25T10:26:23Z</time></trkpt>
    <trkpt lat="47.68657" lon="12.90897"><ele>1320</ele><time>2021-10-25T10:28:38Z</time></trkpt>
    <trkpt lat="47.68641" lon="12.90903"><ele>1311</ele><time>2021-10-25T10:29:17Z</time></trkpt>
    <trkpt lat="47.68630" lon="12.90905"><ele>1305</ele><time>2021-10-25T10:29:36Z</time></trkpt>
    <trkpt lat="47.68612" lon="12.90888"><ele>1299</ele><time>2021-10-25T10:29:55Z</time></trkpt>
    <trkpt lat="47.68604" lon="12.90884"><ele>1298</ele><time>2021-10-25T10:30:20Z</time></trkpt>
    <trkpt lat="47.68609" lon="12.90866"><ele>1297</ele><time>2021-10-25T10:30:39Z</time></trkpt>
    <trkpt lat="47.68626" lon="12.90866"><ele>1287</ele><time>2021-10-25T10:30:57Z</time></trkpt>
    <trkpt lat="47.68636" lon="12.90850"><ele>1277</ele><time>2021-10-25T10:31:16Z</time></trkpt>
    <trkpt lat="47.68640" lon="12.90830"><ele>1278</ele><time>2021-10-25T10:31:35Z</time></trkpt>
    <trkpt lat="47.68641" lon="12.90813"><ele>1277</ele><time>2021-10-25T10:31:54Z</time></trkpt>
    <trkpt lat="47.68636" lon="12.90794"><ele>1273</ele><time>2021-10-25T10:32:12Z</time></trkpt>
    <trkpt lat="47.68639" lon="12.90776"><ele>1271</ele><time>2021-10-25T10:32:30Z</time></trkpt>
    <trkpt lat="47.68636" lon="12.90758"><ele>1263</ele><time>2021-10-25T10:32:49Z</time></trkpt>
    <trkpt lat="47.68636" lon="12.90736"><ele>1266</ele><time>2021-10-25T10:33:08Z</time></trkpt>
    <trkpt lat="47.68634" lon="12.90722"><ele>1265</ele><time>2021-10-25T10:33:27Z</time></trkpt>
    <trkpt lat="47.68628" lon="12.90710"><ele>1258</ele><time>2021-10-25T10:33:46Z</time></trkpt>
    <trkpt lat="47.68630" lon="12.90694"><ele>1263</ele><time>2021-10-25T10:34:04Z</time></trkpt>
    <trkpt lat="47.68644" lon="12.90680"><ele>1271</ele><time>2021-10-25T10:34:42Z</time></trkpt>
    <trkpt lat="47.68654" lon="12.90677"><ele>1278</ele><time>2021-10-25T10:35:00Z</time></trkpt>
    <trkpt lat="47.68664" lon="12.90668"><ele>1276</ele><time>2021-10-25T10:35:19Z</time></trkpt>
    <trkpt lat="47.68669" lon="12.90643"><ele>1267</ele><time>2021-10-25T10:35:56Z</time></trkpt>
    <trkpt lat="47.68659" lon="12.90632"><ele>1269</ele><time>2021-10-25T10:36:15Z</time></trkpt>
    <trkpt lat="47.68655" lon="12.90620"><ele>1278</ele><time>2021-10-25T10:36:34Z</time></trkpt>
    <trkpt lat="47.68656" lon="12.90598"><ele>1277</ele><time>2021-10-25T10:36:52Z</time></trkpt>
    <trkpt lat="47.68653" lon="12.90574"><ele>1277</ele><time>2021-10-25T10:37:11Z</time></trkpt>
    <trkpt lat="47.68649" lon="12.90548"><ele>1276</ele><time>2021-10-25T10:37:30Z</time></trkpt>
    <trkpt lat="47.68640" lon="12.90532"><ele>1273</ele><time>2021-10-25T10:37:48Z</time></trkpt>
    <trkpt lat="47.68628" lon="12.90508"><ele>1280</ele><time>2021-10-25T10:38:06Z</time></trkpt>
    <trkpt lat="47.68618" lon="12.90487"><ele>1285</ele><time>2021-10-25T10:38:25Z</time></trkpt>
    <trkpt lat="47.68616" lon="12.90461"><ele>1287</ele><time>2021-10-25T10:38:43Z</time></trkpt>
    <trkpt lat="47.68606" lon="12.90441"><ele>1297</ele><time>2021-10-25T10:39:02Z</time></trkpt>
    <trkpt lat="47.68610" lon="12.90419"><ele>1296</ele><time>2021-10-25T10:39:21Z</time></trkpt>
    <trkpt lat="47.68617" lon="12.90396"><ele>1285</ele><time>2021-10-25T10:39:40Z</time></trkpt>
    <trkpt lat="47.68616" lon="12.90368"><ele>1278</ele><time>2021-10-25T10:39:59Z</time></trkpt>
    <trkpt lat="47.68610" lon="12.90341"><ele>1279</ele><time>2021-10-25T10:40:18Z</time></trkpt>
    <trkpt lat="47.68611" lon="12.90315"><ele>1280</ele><time>2021-10-25T10:40:36Z</time></trkpt>
    <trkpt lat="47.68605" lon="12.90283"><ele>1285</ele><time>2021-10-25T10:40:54Z</time></trkpt>
    <trkpt lat="47.68609" lon="12.90255"><ele>1274</ele><time>2021-10-25T10:41:13Z</time></trkpt>
    <trkpt lat="47.68601" lon="12.90229"><ele>1261</ele><time>2021-10-25T10:41:32Z</time></trkpt>
    <trkpt lat="47.68614" lon="12.90202"><ele>1266</ele><time>2021-10-25T10:41:50Z</time></trkpt>
    <trkpt lat="47.68610" lon="12.90175"><ele>1272</ele><time>2021-10-25T10:42:08Z</time></trkpt>
    <trkpt lat="47.68609" lon="12.90151"><ele>1269</ele><time>2021-10-25T10:42:27Z</time></trkpt>
    <trkpt lat="47.68606" lon="12.90127"><ele>1268</ele><time>2021-10-25T10:42:45Z</time></trkpt>
    <trkpt lat="47.68616" lon="12.90107"><ele>1273</ele><time>2021-10-25T10:43:04Z</time></trkpt>
    <trkpt lat="47.68615" lon="12.90083"><ele>1273</ele><time>2021-10-25T10:43:23Z</time></trkpt>
    <trkpt lat="47.68606" lon="12.90061"><ele>1277</ele><time>2021-10-25T10:43:42Z</time></trkpt>
    <trkpt lat="47.68599" lon="12.90041"><ele>1286</ele><time>2021-10-25T10:44:00Z</time></trkpt>
    <trkpt lat="47.68592" lon="12.90021"><ele>1291</ele><time>2021-10-25T10:44:18Z</time></trkpt>
    <trkpt lat="47.68587" lon="12.90007"><ele>1295</ele><time>2021-10-25T10:44:37Z</time></trkpt>
    <trkpt lat="47.68586" lon="12.89994"><ele>1297</ele><time>2021-10-25T10:44:55Z</time></trkpt>
    <trkpt lat="47.68603" lon="12.89980"><ele>1304</ele><time>2021-10-25T10:46:09Z</time></trkpt>
    <trkpt lat="47.68613" lon="12.89977"><ele>1309</ele><time>2021-10-25T10:46:28Z</time></trkpt>
    <trkpt lat="47.68630" lon="12.89974"><ele>1311</ele><time>2021-10-25T10:47:08Z</time></trkpt>
    <trkpt lat="47.68635" lon="12.89998"><ele>1326</ele><time>2021-10-25T10:47:46Z</time></trkpt>
    <trkpt lat="47.68645" lon="12.90000"><ele>1325</ele><time>2021-10-25T10:48:05Z</time></trkpt>
    <trkpt lat="47.68651" lon="12.90011"><ele>1334</ele><time>2021-10-25T10:48:24Z</time></trkpt>
    <trkpt lat="47.68663" lon="12.90014"><ele>1315</ele><time>2021-10-25T10:48:42Z</time></trkpt>
    <trkpt lat="47.68676" lon="12.90017"><ele>1324</ele><time>2021-10-25T10:49:01Z</time></trkpt>
    <trkpt lat="47.68692" lon="12.90026"><ele>1339</ele><time>2021-10-25T10:49:49Z</time></trkpt>
    <trkpt lat="47.68697" lon="12.90012"><ele>1346</ele><time>2021-10-25T10:50:08Z</time></trkpt>
    <trkpt lat="47.68714" lon="12.90013"><ele>1355</ele><time>2021-10-25T10:51:02Z</time></trkpt>
    <trkpt lat="47.68730" lon="12.90022"><ele>1357</ele><time>2021-10-25T10:51:53Z</time></trkpt>
    <trkpt lat="47.68741" lon="12.90042"><ele>1366</ele><time>2021-10-25T10:52:44Z</time></trkpt>
    <trkpt lat="47.68744" lon="12.90067"><ele>1393</ele><time>2021-10-25T10:53:31Z</time></trkpt>
    <trkpt lat="47.68760" lon="12.90054"><ele>1397</ele><time>2021-10-25T10:54:13Z</time></trkpt>
    <trkpt lat="47.68773" lon="12.90044"><ele>1401</ele><time>2021-10-25T10:55:00Z</time></trkpt>
    <trkpt lat="47.68778" lon="12.90020"><ele>1393</ele><time>2021-10-25T10:55:38Z</time></trkpt>
    <trkpt lat="47.68783" lon="12.89994"><ele>1409</ele><time>2021-10-25T10:56:17Z</time></trkpt>
    <trkpt lat="47.68782" lon="12.89980"><ele>1417</ele><time>2021-10-25T10:56:36Z</time></trkpt>
    <trkpt lat="47.68778" lon="12.89966"><ele>1419</ele><time>2021-10-25T10:56:54Z</time></trkpt>
    <trkpt lat="47.68772" lon="12.89953"><ele>1423</ele><time>2021-10-25T10:57:13Z</time></trkpt>
    <trkpt lat="47.68775" lon="12.89938"><ele>1424</ele><time>2021-10-25T10:57:32Z</time></trkpt>
    <trkpt lat="47.68784" lon="12.89917"><ele>1427</ele><time>2021-10-25T10:58:17Z</time></trkpt>
    <trkpt lat="47.68785" lon="12.89897"><ele>1428</ele><time>2021-10-25T10:58:35Z</time></trkpt>
    <trkpt lat="47.68793" lon="12.89875"><ele>1430</ele><time>2021-10-25T10:59:21Z</time></trkpt>
    <trkpt lat="47.68798" lon="12.89848"><ele>1450</ele><time>2021-10-25T11:00:01Z</time></trkpt>
    <trkpt lat="47.68802" lon="12.89820"><ele>1444</ele><time>2021-10-25T11:00:20Z</time></trkpt>
    <trkpt lat="47.68812" lon="12.89791"><ele>1451</ele><time>2021-10-25T11:00:38Z</time></trkpt>
    <trkpt lat="47.68823" lon="12.89765"><ele>1448</ele><time>2021-10-25T11:00:56Z</time></trkpt>
    <trkpt lat="47.68824" lon="12.89740"><ele>1451</ele><time>2021-10-25T11:01:14Z</time></trkpt>
    <trkpt lat="47.68828" lon="12.89719"><ele>1453</ele><time>2021-10-25T11:01:33Z</time></trkpt>
    <trkpt lat="47.68821" lon="12.89700"><ele>1454</ele><time>2021-10-25T11:01:52Z</time></trkpt>
    <trkpt lat="47.68811" lon="12.89688"><ele>1455</ele><time>2021-10-25T11:02:11Z</time></trkpt>
    <trkpt lat="47.68807" lon="12.89670"><ele>1458</ele><time>2021-10-25T11:02:30Z</time></trkpt>
    <trkpt lat="47.68795" lon="12.89663"><ele>1458</ele><time>2021-10-25T11:02:49Z</time></trkpt>
    <trkpt lat="47.68785" lon="12.89657"><ele>1460</ele><time>2021-10-25T11:03:07Z</time></trkpt>
    <trkpt lat="47.68779" lon="12.89637"><ele>1458</ele><time>2021-10-25T11:03:26Z</time></trkpt>
    <trkpt lat="47.68774" lon="12.89618"><ele>1463</ele><time>2021-10-25T11:03:44Z</time></trkpt>
    <trkpt lat="47.68781" lon="12.89594"><ele>1467</ele><time>2021-10-25T11:04:36Z</time></trkpt>
    <trkpt lat="47.68793" lon="12.89574"><ele>1486</ele><time>2021-10-25T11:05:15Z</time></trkpt>
    <trkpt lat="47.68803" lon="12.89554"><ele>1501</ele><time>2021-10-25T11:06:00Z</time></trkpt>
    <trkpt lat="47.68807" lon="12.89539"><ele>1503</ele><time>2021-10-25T11:06:19Z</time></trkpt>
    <trkpt lat="47.68815" lon="12.89531"><ele>1508</ele><time>2021-10-25T11:06:37Z</time></trkpt>
    <trkpt lat="47.68825" lon="12.89517"><ele>1459</ele><time>2021-10-25T11:06:56Z</time></trkpt>
    <trkpt lat="47.68834" lon="12.89508"><ele>1504</ele><time>2021-10-25T11:07:15Z</time></trkpt>
    <trkpt lat="47.68842" lon="12.89500"><ele>1507</ele><time>2021-10-25T11:07:34Z</time></trkpt>
    <trkpt lat="47.68851" lon="12.89485"><ele>1510</ele><time>2021-10-25T11:07:53Z</time></trkpt>
    <trkpt lat="47.68862" lon="12.89475"><ele>1513</ele><time>2021-10-25T11:08:12Z</time></trkpt>
    <trkpt lat="47.68874" lon="12.89458"><ele>1526</ele><time>2021-10-25T11:09:02Z</time></trkpt>
    <trkpt lat="47.68889" lon="12.89461"><ele>1541</ele><time>2021-10-25T11:09:44Z</time></trkpt>
    <trkpt lat="47.68907" lon="12.89473"><ele>1556</ele><time>2021-10-25T11:10:25Z</time></trkpt>
    <trkpt lat="47.68916" lon="12.89470"><ele>1560</ele><time>2021-10-25T11:10:43Z</time></trkpt>
    <trkpt lat="47.68932" lon="12.89474"><ele>1571</ele><time>2021-10-25T11:11:28Z</time></trkpt>
    <trkpt lat="47.68949" lon="12.89472"><ele>1577</ele><time>2021-10-25T11:12:07Z</time></trkpt>
    <trkpt lat="47.68963" lon="12.89485"><ele>1573</ele><time>2021-10-25T11:12:25Z</time></trkpt>
    <trkpt lat="47.68978" lon="12.89494"><ele>1573</ele><time>2021-10-25T11:12:43Z</time></trkpt>
    <trkpt lat="47.68993" lon="12.89504"><ele>1576</ele><time>2021-10-25T11:13:02Z</time></trkpt>
    <trkpt lat="47.69003" lon="12.89513"><ele>1577</ele><time>2021-10-25T11:13:20Z</time></trkpt>
    <trkpt lat="47.69019" lon="12.89523"><ele>1589</ele><time>2021-10-25T11:14:13Z</time></trkpt>
    <trkpt lat="47.69028" lon="12.89546"><ele>1378</ele><time>2021-10-25T11:14:54Z</time></trkpt>
    <trkpt lat="47.69038" lon="12.89564"><ele>1597</ele><time>2021-10-25T11:16:02Z</time></trkpt>
    <trkpt lat="47.69049" lon="12.89572"><ele>1594</ele><time>2021-10-25T11:16:21Z</time></trkpt>
    <trkpt lat="47.69058" lon="12.89547"><ele>1612</ele><time>2021-10-25T11:17:03Z</time></trkpt>
    <trkpt lat="47.69066" lon="12.89531"><ele>1611</ele><time>2021-10-25T11:17:21Z</time></trkpt>
    <trkpt lat="47.69072" lon="12.89517"><ele>1615</ele><time>2021-10-25T11:17:39Z</time></trkpt>
    <trkpt lat="47.69071" lon="12.89492"><ele>1618</ele><time>2021-10-25T11:17:58Z</time></trkpt>
    <trkpt lat="47.69064" lon="12.89471"><ele>1618</ele><time>2021-10-25T11:18:16Z</time></trkpt>
    <trkpt lat="47.69052" lon="12.89454"><ele>1546</ele><time>2021-10-25T11:18:35Z</time></trkpt>
    <trkpt lat="47.69044" lon="12.89432"><ele>1612</ele><time>2021-10-25T11:18:53Z</time></trkpt>
    <trkpt lat="47.69042" lon="12.89412"><ele>1625</ele><time>2021-10-25T11:19:11Z</time></trkpt>
    <trkpt lat="47.69032" lon="12.89398"><ele>1627</ele><time>2021-10-25T11:19:30Z</time></trkpt>
    <trkpt lat="47.69022" lon="12.89391"><ele>1627</ele><time>2021-10-25T11:19:49Z</time></trkpt>
    <trkpt lat="47.69010" lon="12.89373"><ele>1635</ele><time>2021-10-25T11:20:25Z</time></trkpt>
    <trkpt lat="47.69002" lon="12.89357"><ele>1616</ele><time>2021-10-25T11:20:43Z</time></trkpt>
    <trkpt lat="47.68990" lon="12.89347"><ele>1638</ele><time>2021-10-25T11:21:02Z</time></trkpt>
    <trkpt lat="47.68977" lon="12.89332"><ele>1639</ele><time>2021-10-25T11:21:21Z</time></trkpt>
    <trkpt lat="47.68967" lon="12.89327"><ele>1590</ele><time>2021-10-25T11:21:40Z</time></trkpt>
    <trkpt lat="47.68963" lon="12.89315"><ele>1647</ele><time>2021-10-25T11:21:59Z</time></trkpt>
    <trkpt lat="47.68952" lon="12.89301"><ele>1628</ele><time>2021-10-25T11:22:17Z</time></trkpt>
    <trkpt lat="47.68943" lon="12.89276"><ele>1649</ele><time>2021-10-25T11:22:36Z</time></trkpt>
    <trkpt lat="47.68943" lon="12.89259"><ele>1653</ele><time>2021-10-25T11:22:54Z</time></trkpt>
    <trkpt lat="47.68935" lon="12.89234"><ele>1654</ele><time>2021-10-25T11:23:13Z</time></trkpt>
    <trkpt lat="47.68920" lon="12.89225"><ele>1655</ele><time>2021-10-25T11:23:31Z</time></trkpt>
    <trkpt lat="47.68906" lon="12.89214"><ele>1656</ele><time>2021-10-25T11:23:50Z</time></trkpt>
    <trkpt lat="47.68893" lon="12.89203"><ele>1653</ele><time>2021-10-25T11:24:08Z</time></trkpt>
    <trkpt lat="47.68873" lon="12.89194"><ele>1650</ele><time>2021-10-25T11:24:27Z</time></trkpt>
    <trkpt lat="47.68856" lon="12.89182"><ele>1654</ele><time>2021-10-25T11:24:46Z</time></trkpt>
    <trkpt lat="47.68842" lon="12.89164"><ele>1657</ele><time>2021-10-25T11:25:04Z</time></trkpt>
    <trkpt lat="47.68827" lon="12.89149"><ele>1640</ele><time>2021-10-25T11:25:23Z</time></trkpt>
    <trkpt lat="47.68813" lon="12.89154"><ele>1658</ele><time>2021-10-25T11:25:41Z</time></trkpt>
    <trkpt lat="47.68802" lon="12.89143"><ele>1657</ele><time>2021-10-25T11:25:59Z</time></trkpt>
    <trkpt lat="47.68790" lon="12.89127"><ele>1650</ele><time>2021-10-25T11:26:18Z</time></trkpt>
    <trkpt lat="47.68778" lon="12.89102"><ele>1667</ele><time>2021-10-25T11:26:56Z</time></trkpt>
    <trkpt lat="47.68758" lon="12.89089"><ele>1674</ele><time>2021-10-25T11:27:34Z</time></trkpt>
    <trkpt lat="47.68745" lon="12.89081"><ele>1677</ele><time>2021-10-25T11:27:53Z</time></trkpt>
    <trkpt lat="47.68724" lon="12.89079"><ele>1683</ele><time>2021-10-25T11:28:32Z</time></trkpt>
    <trkpt lat="47.68712" lon="12.89095"><ele>1689</ele><time>2021-10-25T11:28:51Z</time></trkpt>
    <trkpt lat="47.68701" lon="12.89093"><ele>1695</ele><time>2021-10-25T11:29:10Z</time></trkpt>
    <trkpt lat="47.68690" lon="12.89098"><ele>1699</ele><time>2021-10-25T11:29:29Z</time></trkpt>
    <trkpt lat="47.68676" lon="12.89110"><ele>1696</ele><time>2021-10-25T11:29:48Z</time></trkpt>
    <trkpt lat="47.68665" lon="12.89128"><ele>1700</ele><time>2021-10-25T11:30:06Z</time></trkpt>
    <trkpt lat="47.68667" lon="12.89148"><ele>1701</ele><time>2021-10-25T11:30:25Z</time></trkpt>
    <trkpt lat="47.68663" lon="12.89162"><ele>1705</ele><time>2021-10-25T11:30:44Z</time></trkpt>
    <trkpt lat="47.68653" lon="12.89171"><ele>1709</ele><time>2021-10-25T11:31:03Z</time></trkpt>
    <trkpt lat="47.68644" lon="12.89181"><ele>1714</ele><time>2021-10-25T11:31:21Z</time></trkpt>
    <trkpt lat="47.68632" lon="12.89191"><ele>1716</ele><time>2021-10-25T11:31:39Z</time></trkpt>
    <trkpt lat="47.68631" lon="12.89207"><ele>1722</ele><time>2021-10-25T11:31:58Z</time></trkpt>
    <trkpt lat="47.68626" lon="12.89219"><ele>1726</ele><time>2021-10-25T11:32:17Z</time></trkpt>
    <trkpt lat="47.68613" lon="12.89226"><ele>1726</ele><time>2021-10-25T11:32:35Z</time></trkpt>
    <trkpt lat="47.68603" lon="12.89237"><ele>1733</ele><time>2021-10-25T11:32:54Z</time></trkpt>
    <trkpt lat="47.68619" lon="12.89251"><ele>1738</ele><time>2021-10-25T11:33:13Z</time></trkpt>
    <trkpt lat="47.68629" lon="12.89266"><ele>1740</ele><time>2021-10-25T11:33:32Z</time></trkpt>
    <trkpt lat="47.68607" lon="12.89241"><ele>1729</ele><time>2021-10-25T11:49:36Z</time></trkpt>
    <trkpt lat="47.68612" lon="12.89226"><ele>1730</ele><time>2021-10-25T11:49:55Z</time></trkpt>
    <trkpt lat="47.68631" lon="12.89217"><ele>1725</ele><time>2021-10-25T11:50:13Z</time></trkpt>
    <trkpt lat="47.68634" lon="12.89197"><ele>1722</ele><time>2021-10-25T11:50:31Z</time></trkpt>
    <trkpt lat="47.68647" lon="12.89185"><ele>1721</ele><time>2021-10-25T11:50:49Z</time></trkpt>
    <trkpt lat="47.68659" lon="12.89174"><ele>1714</ele><time>2021-10-25T11:51:07Z</time></trkpt>
    <trkpt lat="47.68671" lon="12.89151"><ele>1710</ele><time>2021-10-25T11:51:26Z</time></trkpt>
    <trkpt lat="47.68664" lon="12.89126"><ele>1707</ele><time>2021-10-25T11:51:45Z</time></trkpt>
    <trkpt lat="47.68678" lon="12.89109"><ele>1705</ele><time>2021-10-25T11:52:03Z</time></trkpt>
    <trkpt lat="47.68693" lon="12.89101"><ele>1702</ele><time>2021-10-25T11:52:22Z</time></trkpt>
    <trkpt lat="47.68708" lon="12.89097"><ele>1696</ele><time>2021-10-25T11:52:41Z</time></trkpt>
    <trkpt lat="47.68726" lon="12.89080"><ele>1691</ele><time>2021-10-25T11:52:59Z</time></trkpt>
    <trkpt lat="47.68749" lon="12.89093"><ele>1686</ele><time>2021-10-25T11:54:02Z</time></trkpt>
    <trkpt lat="47.68766" lon="12.89097"><ele>1684</ele><time>2021-10-25T11:54:20Z</time></trkpt>
    <trkpt lat="47.68780" lon="12.89108"><ele>1683</ele><time>2021-10-25T11:54:38Z</time></trkpt>
    <trkpt lat="47.68788" lon="12.89125"><ele>1675</ele><time>2021-10-25T11:54:57Z</time></trkpt>
    <trkpt lat="47.68795" lon="12.89137"><ele>1674</ele><time>2021-10-25T11:55:15Z</time></trkpt>
    <trkpt lat="47.68803" lon="12.89153"><ele>1666</ele><time>2021-10-25T11:55:34Z</time></trkpt>
    <trkpt lat="47.68824" lon="12.89146"><ele>1667</ele><time>2021-10-25T11:55:53Z</time></trkpt>
    <trkpt lat="47.68839" lon="12.89160"><ele>1660</ele><time>2021-10-25T11:56:12Z</time></trkpt>
    <trkpt lat="47.68850" lon="12.89173"><ele>1658</ele><time>2021-10-25T11:56:30Z</time></trkpt>
    <trkpt lat="47.68867" lon="12.89190"><ele>1660</ele><time>2021-10-25T11:56:49Z</time></trkpt>
    <trkpt lat="47.68883" lon="12.89200"><ele>1658</ele><time>2021-10-25T11:57:08Z</time></trkpt>
    <trkpt lat="47.68901" lon="12.89212"><ele>1657</ele><time>2021-10-25T11:57:26Z</time></trkpt>
    <trkpt lat="47.68917" lon="12.89222"><ele>1657</ele><time>2021-10-25T11:57:45Z</time></trkpt>
    <trkpt lat="47.68933" lon="12.89231"><ele>1656</ele><time>2021-10-25T11:58:03Z</time></trkpt>
    <trkpt lat="47.68942" lon="12.89251"><ele>1659</ele><time>2021-10-25T11:58:21Z</time></trkpt>
    <trkpt lat="47.68941" lon="12.89272"><ele>1620</ele><time>2021-10-25T11:58:40Z</time></trkpt>
    <trkpt lat="47.68951" lon="12.89297"><ele>1656</ele><time>2021-10-25T11:58:59Z</time></trkpt>
    <trkpt lat="47.68962" lon="12.89317"><ele>1654</ele><time>2021-10-25T11:59:18Z</time></trkpt>
    <trkpt lat="47.68970" lon="12.89327"><ele>1650</ele><time>2021-10-25T11:59:36Z</time></trkpt>
    <trkpt lat="47.68985" lon="12.89341"><ele>1648</ele><time>2021-10-25T11:59:54Z</time></trkpt>
    <trkpt lat="47.69000" lon="12.89355"><ele>1648</ele><time>2021-10-25T12:00:13Z</time></trkpt>
    <trkpt lat="47.69009" lon="12.89373"><ele>1648</ele><time>2021-10-25T12:00:32Z</time></trkpt>
    <trkpt lat="47.69017" lon="12.89384"><ele>1640</ele><time>2021-10-25T12:00:50Z</time></trkpt>
    <trkpt lat="47.69029" lon="12.89395"><ele>1637</ele><time>2021-10-25T12:01:08Z</time></trkpt>
    <trkpt lat="47.69039" lon="12.89416"><ele>1634</ele><time>2021-10-25T12:01:26Z</time></trkpt>
    <trkpt lat="47.69047" lon="12.89437"><ele>1635</ele><time>2021-10-25T12:01:44Z</time></trkpt>
    <trkpt lat="47.69059" lon="12.89457"><ele>1638</ele><time>2021-10-25T12:02:03Z</time></trkpt>
    <trkpt lat="47.69071" lon="12.89479"><ele>1629</ele><time>2021-10-25T12:02:21Z</time></trkpt>
    <trkpt lat="47.69066" lon="12.89502"><ele>1620</ele><time>2021-10-25T12:02:40Z</time></trkpt>
    <trkpt lat="47.69064" lon="12.89522"><ele>1618</ele><time>2021-10-25T12:02:59Z</time></trkpt>
    <trkpt lat="47.69055" lon="12.89535"><ele>1609</ele><time>2021-10-25T12:03:18Z</time></trkpt>
    <trkpt lat="47.69051" lon="12.89557"><ele>1606</ele><time>2021-10-25T12:03:37Z</time></trkpt>
    <trkpt lat="47.69041" lon="12.89545"><ele>1587</ele><time>2021-10-25T12:04:24Z</time></trkpt>
    <trkpt lat="47.69035" lon="12.89528"><ele>1589</ele><time>2021-10-25T12:04:43Z</time></trkpt>
    <trkpt lat="47.69018" lon="12.89507"><ele>1577</ele><time>2021-10-25T12:05:26Z</time></trkpt>
    <trkpt lat="47.69008" lon="12.89504"><ele>1576</ele><time>2021-10-25T12:05:45Z</time></trkpt>
    <trkpt lat="47.68990" lon="12.89496"><ele>1565</ele><time>2021-10-25T12:06:23Z</time></trkpt>
    <trkpt lat="47.68979" lon="12.89480"><ele>1566</ele><time>2021-10-25T12:06:41Z</time></trkpt>
    <trkpt lat="47.68966" lon="12.89461"><ele>1563</ele><time>2021-10-25T12:06:59Z</time></trkpt>
    <trkpt lat="47.68947" lon="12.89463"><ele>1563</ele><time>2021-10-25T12:07:18Z</time></trkpt>
    <trkpt lat="47.68934" lon="12.89467"><ele>1530</ele><time>2021-10-25T12:07:36Z</time></trkpt>
    <trkpt lat="47.68922" lon="12.89468"><ele>1545</ele><time>2021-10-25T12:07:55Z</time></trkpt>
    <trkpt lat="47.68910" lon="12.89470"><ele>1546</ele><time>2021-10-25T12:08:13Z</time></trkpt>
    <trkpt lat="47.68899" lon="12.89459"><ele>1539</ele><time>2021-10-25T12:08:31Z</time></trkpt>
    <trkpt lat="47.68886" lon="12.89462"><ele>1539</ele><time>2021-10-25T12:08:50Z</time></trkpt>
    <trkpt lat="47.68874" lon="12.89468"><ele>1540</ele><time>2021-10-25T12:09:09Z</time></trkpt>
    <trkpt lat="47.68862" lon="12.89469"><ele>1483</ele><time>2021-10-25T12:09:27Z</time></trkpt>
    <trkpt lat="47.68845" lon="12.89483"><ele>1518</ele><time>2021-10-25T12:10:09Z</time></trkpt>
    <trkpt lat="47.68833" lon="12.89486"><ele>1512</ele><time>2021-10-25T12:10:28Z</time></trkpt>
    <trkpt lat="47.68822" lon="12.89497"><ele>1507</ele><time>2021-10-25T12:10:46Z</time></trkpt>
    <trkpt lat="47.68814" lon="12.89510"><ele>1506</ele><time>2021-10-25T12:11:05Z</time></trkpt>
    <trkpt lat="47.68802" lon="12.89525"><ele>1502</ele><time>2021-10-25T12:11:23Z</time></trkpt>
    <trkpt lat="47.68796" lon="12.89537"><ele>1498</ele><time>2021-10-25T12:11:42Z</time></trkpt>
    <trkpt lat="47.68781" lon="12.89567"><ele>1494</ele><time>2021-10-25T12:12:24Z</time></trkpt>
    <trkpt lat="47.68773" lon="12.89579"><ele>1494</ele><time>2021-10-25T12:12:42Z</time></trkpt>
    <trkpt lat="47.68773" lon="12.89601"><ele>1485</ele><time>2021-10-25T12:13:01Z</time></trkpt>
    <trkpt lat="47.68778" lon="12.89639"><ele>1480</ele><time>2021-10-25T12:13:37Z</time></trkpt>
    <trkpt lat="47.68784" lon="12.89667"><ele>1478</ele><time>2021-10-25T12:13:56Z</time></trkpt>
    <trkpt lat="47.68799" lon="12.89667"><ele>1482</ele><time>2021-10-25T12:14:14Z</time></trkpt>
    <trkpt lat="47.68804" lon="12.89682"><ele>1474</ele><time>2021-10-25T12:14:32Z</time></trkpt>
    <trkpt lat="47.68809" lon="12.89697"><ele>1465</ele><time>2021-10-25T12:14:51Z</time></trkpt>
    <trkpt lat="47.68813" lon="12.89716"><ele>1463</ele><time>2021-10-25T12:15:10Z</time></trkpt>
    <trkpt lat="47.68814" lon="12.89742"><ele>1459</ele><time>2021-10-25T12:15:29Z</time></trkpt>
    <trkpt lat="47.68812" lon="12.89768"><ele>1450</ele><time>2021-10-25T12:15:48Z</time></trkpt>
    <trkpt lat="47.68803" lon="12.89793"><ele>1450</ele><time>2021-10-25T12:16:06Z</time></trkpt>
    <trkpt lat="47.68801" lon="12.89821"><ele>1448</ele><time>2021-10-25T12:16:24Z</time></trkpt>
    <trkpt lat="47.68797" lon="12.89845"><ele>1450</ele><time>2021-10-25T12:16:43Z</time></trkpt>
    <trkpt lat="47.68789" lon="12.89865"><ele>1453</ele><time>2021-10-25T12:17:02Z</time></trkpt>
    <trkpt lat="47.68782" lon="12.89886"><ele>1457</ele><time>2021-10-25T12:17:20Z</time></trkpt>
    <trkpt lat="47.68779" lon="12.89901"><ele>1454</ele><time>2021-10-25T12:17:39Z</time></trkpt>
    <trkpt lat="47.68769" lon="12.89917"><ele>1450</ele><time>2021-10-25T12:17:58Z</time></trkpt>
    <trkpt lat="47.68767" lon="12.89944"><ele>1438</ele><time>2021-10-25T12:18:36Z</time></trkpt>
    <trkpt lat="47.68768" lon="12.89965"><ele>1430</ele><time>2021-10-25T12:18:54Z</time></trkpt>
    <trkpt lat="47.68766" lon="12.89987"><ele>1428</ele><time>2021-10-25T12:19:13Z</time></trkpt>
    <trkpt lat="47.68769" lon="12.90009"><ele>1426</ele><time>2021-10-25T12:19:32Z</time></trkpt>
    <trkpt lat="47.68775" lon="12.90026"><ele>1421</ele><time>2021-10-25T12:19:50Z</time></trkpt>
    <trkpt lat="47.68769" lon="12.90041"><ele>1414</ele><time>2021-10-25T12:20:09Z</time></trkpt>
    <trkpt lat="47.68758" lon="12.90061"><ele>1359</ele><time>2021-10-25T12:20:52Z</time></trkpt>
    <trkpt lat="47.68744" lon="12.90059"><ele>1380</ele><time>2021-10-25T12:21:44Z</time></trkpt>
    <trkpt lat="47.68739" lon="12.90048"><ele>1386</ele><time>2021-10-25T12:22:02Z</time></trkpt>
    <trkpt lat="47.68742" lon="12.90030"><ele>1375</ele><time>2021-10-25T12:22:45Z</time></trkpt>
    <trkpt lat="47.68729" lon="12.90023"><ele>1372</ele><time>2021-10-25T12:23:04Z</time></trkpt>
    <trkpt lat="47.68713" lon="12.90024"><ele>1367</ele><time>2021-10-25T12:23:45Z</time></trkpt>
    <trkpt lat="47.68690" lon="12.90018"><ele>1352</ele><time>2021-10-25T12:24:39Z</time></trkpt>
    <trkpt lat="47.68675" lon="12.90010"><ele>1328</ele><time>2021-10-25T12:25:28Z</time></trkpt>
    <trkpt lat="47.68665" lon="12.90005"><ele>1326</ele><time>2021-10-25T12:25:46Z</time></trkpt>
    <trkpt lat="47.68654" lon="12.89991"><ele>1325</ele><time>2021-10-25T12:26:05Z</time></trkpt>
    <trkpt lat="47.68643" lon="12.89986"><ele>1322</ele><time>2021-10-25T12:26:24Z</time></trkpt>
    <trkpt lat="47.68646" lon="12.89966"><ele>1319</ele><time>2021-10-25T12:26:42Z</time></trkpt>
    <trkpt lat="47.68627" lon="12.89961"><ele>1321</ele><time>2021-10-25T12:27:00Z</time></trkpt>
    <trkpt lat="47.68618" lon="12.89974"><ele>1317</ele><time>2021-10-25T12:27:19Z</time></trkpt>
    <trkpt lat="47.68607" lon="12.89979"><ele>1313</ele><time>2021-10-25T12:27:37Z</time></trkpt>
    <trkpt lat="47.68597" lon="12.89981"><ele>1300</ele><time>2021-10-25T12:27:56Z</time></trkpt>
    <trkpt lat="47.68589" lon="12.89990"><ele>1280</ele><time>2021-10-25T12:28:14Z</time></trkpt>
    <trkpt lat="47.68583" lon="12.90000"><ele>1301</ele><time>2021-10-25T12:29:15Z</time></trkpt>
    <trkpt lat="47.68581" lon="12.90024"><ele>1296</ele><time>2021-10-25T12:29:33Z</time></trkpt>
    <trkpt lat="47.68586" lon="12.90048"><ele>1298</ele><time>2021-10-25T12:29:51Z</time></trkpt>
    <trkpt lat="47.68588" lon="12.90070"><ele>1294</ele><time>2021-10-25T12:30:10Z</time></trkpt>
    <trkpt lat="47.68590" lon="12.90093"><ele>1290</ele><time>2021-10-25T12:30:28Z</time></trkpt>
    <trkpt lat="47.68591" lon="12.90126"><ele>1289</ele><time>2021-10-25T12:30:47Z</time></trkpt>
    <trkpt lat="47.68594" lon="12.90151"><ele>1282</ele><time>2021-10-25T12:31:05Z</time></trkpt>
    <trkpt lat="47.68595" lon="12.90179"><ele>1279</ele><time>2021-10-25T12:31:23Z</time></trkpt>
    <trkpt lat="47.68597" lon="12.90206"><ele>1279</ele><time>2021-10-25T12:31:41Z</time></trkpt>
    <trkpt lat="47.68597" lon="12.90235"><ele>1282</ele><time>2021-10-25T12:32:00Z</time></trkpt>
    <trkpt lat="47.68599" lon="12.90251"><ele>1278</ele><time>2021-10-25T12:32:18Z</time></trkpt>
    <trkpt lat="47.68593" lon="12.90263"><ele>1275</ele><time>2021-10-25T12:32:36Z</time></trkpt>
    <trkpt lat="47.68594" lon="12.90288"><ele>1274</ele><time>2021-10-25T12:32:54Z</time></trkpt>
    <trkpt lat="47.68593" lon="12.90309"><ele>1269</ele><time>2021-10-25T12:33:13Z</time></trkpt>
    <trkpt lat="47.68595" lon="12.90344"><ele>1271</ele><time>2021-10-25T12:33:32Z</time></trkpt>
    <trkpt lat="47.68597" lon="12.90365"><ele>1280</ele><time>2021-10-25T12:33:50Z</time></trkpt>
    <trkpt lat="47.68600" lon="12.90388"><ele>1274</ele><time>2021-10-25T12:34:08Z</time></trkpt>
    <trkpt lat="47.68598" lon="12.90414"><ele>1278</ele><time>2021-10-25T12:34:27Z</time></trkpt>
    <trkpt lat="47.68592" lon="12.90437"><ele>1280</ele><time>2021-10-25T12:34:46Z</time></trkpt>
    <trkpt lat="47.68596" lon="12.90457"><ele>1291</ele><time>2021-10-25T12:35:05Z</time></trkpt>
    <trkpt lat="47.68600" lon="12.90499"><ele>1286</ele><time>2021-10-25T12:35:49Z</time></trkpt>
    <trkpt lat="47.68616" lon="12.90517"><ele>1285</ele><time>2021-10-25T12:36:08Z</time></trkpt>
    <trkpt lat="47.68628" lon="12.90542"><ele>1286</ele><time>2021-10-25T12:36:27Z</time></trkpt>
    <trkpt lat="47.68639" lon="12.90561"><ele>1288</ele><time>2021-10-25T12:36:45Z</time></trkpt>
    <trkpt lat="47.68644" lon="12.90579"><ele>1288</ele><time>2021-10-25T12:37:04Z</time></trkpt>
    <trkpt lat="47.68644" lon="12.90604"><ele>1293</ele><time>2021-10-25T12:37:22Z</time></trkpt>
    <trkpt lat="47.68648" lon="12.90627"><ele>1284</ele><time>2021-10-25T12:38:52Z</time></trkpt>
    <trkpt lat="47.68655" lon="12.90657"><ele>1282</ele><time>2021-10-25T12:40:50Z</time></trkpt>
    <trkpt lat="47.68659" lon="12.90671"><ele>1279</ele><time>2021-10-25T12:41:08Z</time></trkpt>
    <trkpt lat="47.68640" lon="12.90678"><ele>1264</ele><time>2021-10-25T12:41:52Z</time></trkpt>
    <trkpt lat="47.68622" lon="12.90683"><ele>1262</ele><time>2021-10-25T12:42:10Z</time></trkpt>
    <trkpt lat="47.68616" lon="12.90695"><ele>1265</ele><time>2021-10-25T12:42:29Z</time></trkpt>
    <trkpt lat="47.68622" lon="12.90707"><ele>1263</ele><time>2021-10-25T12:42:48Z</time></trkpt>
    <trkpt lat="47.68628" lon="12.90726"><ele>1259</ele><time>2021-10-25T12:43:07Z</time></trkpt>
    <trkpt lat="47.68637" lon="12.90745"><ele>1255</ele><time>2021-10-25T12:43:25Z</time></trkpt>
    <trkpt lat="47.68638" lon="12.90770"><ele>1257</ele><time>2021-10-25T12:44:07Z</time></trkpt>
    <trkpt lat="47.68639" lon="12.90788"><ele>1259</ele><time>2021-10-25T12:44:25Z</time></trkpt>
    <trkpt lat="47.68639" lon="12.90804"><ele>1258</ele><time>2021-10-25T12:44:43Z</time></trkpt>
    <trkpt lat="47.68636" lon="12.90831"><ele>1259</ele><time>2021-10-25T12:45:24Z</time></trkpt>
    <trkpt lat="47.68633" lon="12.90850"><ele>1258</ele><time>2021-10-25T12:45:43Z</time></trkpt>
    <trkpt lat="47.68625" lon="12.90866"><ele>1265</ele><time>2021-10-25T12:46:28Z</time></trkpt>
    <trkpt lat="47.68616" lon="12.90869"><ele>1277</ele><time>2021-10-25T12:46:46Z</time></trkpt>
    <trkpt lat="47.68605" lon="12.90880"><ele>1285</ele><time>2021-10-25T12:47:04Z</time></trkpt>
    <trkpt lat="47.68611" lon="12.90891"><ele>1286</ele><time>2021-10-25T12:47:24Z</time></trkpt>
    <trkpt lat="47.68614" lon="12.90909"><ele>1288</ele><time>2021-10-25T12:47:42Z</time></trkpt>
    <trkpt lat="47.68621" lon="12.90932"><ele>1290</ele><time>2021-10-25T12:48:01Z</time></trkpt>
    <trkpt lat="47.68635" lon="12.90948"><ele>1290</ele><time>2021-10-25T12:48:19Z</time></trkpt>
    <trkpt lat="47.68632" lon="12.90975"><ele>1287</ele><time>2021-10-25T12:48:38Z</time></trkpt>
    <trkpt lat="47.68631" lon="12.90996"><ele>1290</ele><time>2021-10-25T12:48:56Z</time></trkpt>
    <trkpt lat="47.68641" lon="12.91014"><ele>1300</ele><time>2021-10-25T12:49:14Z</time></trkpt>
    <trkpt lat="47.68645" lon="12.91044"><ele>1294</ele><time>2021-10-25T12:49:51Z</time></trkpt>
    <trkpt lat="47.68639" lon="12.91055"><ele>1290</ele><time>2021-10-25T12:50:10Z</time></trkpt>
    <trkpt lat="47.68622" lon="12.91046"><ele>1269</ele><time>2021-10-25T12:50:46Z</time></trkpt>
    <trkpt lat="47.68610" lon="12.91042"><ele>1262</ele><time>2021-10-25T12:51:05Z</time></trkpt>
    <trkpt lat="47.68608" lon="12.91022"><ele>1260</ele><time>2021-10-25T12:51:24Z</time></trkpt>
    <trkpt lat="47.68593" lon="12.91014"><ele>1254</ele><time>2021-10-25T12:52:25Z</time></trkpt>
    <trkpt lat="47.68582" lon="12.91024"><ele>1249</ele><time>2021-10-25T12:52:44Z</time></trkpt>
    <trkpt lat="47.68567" lon="12.91037"><ele>1254</ele><time>2021-10-25T12:53:03Z</time></trkpt>
    <trkpt lat="47.68559" lon="12.91056"><ele>1236</ele><time>2021-10-25T12:54:12Z</time></trkpt>
    <trkpt lat="47.68557" lon="12.91080"><ele>1236</ele><time>2021-10-25T12:54:31Z</time></trkpt>
    <trkpt lat="47.68548" lon="12.91098"><ele>1234</ele><time>2021-10-25T12:54:50Z</time></trkpt>
    <trkpt lat="47.68543" lon="12.91113"><ele>1225</ele><time>2021-10-25T12:55:08Z</time></trkpt>
    <trkpt lat="47.68554" lon="12.91127"><ele>1214</ele><time>2021-10-25T12:55:26Z</time></trkpt>
    <trkpt lat="47.68561" lon="12.91143"><ele>1222</ele><time>2021-10-25T12:55:45Z</time></trkpt>
    <trkpt lat="47.68580" lon="12.91162"><ele>1225</ele><time>2021-10-25T12:56:23Z</time></trkpt>
    <trkpt lat="47.68593" lon="12.91161"><ele>1219</ele><time>2021-10-25T12:56:42Z</time></trkpt>
    <trkpt lat="47.68604" lon="12.91162"><ele>1223</ele><time>2021-10-25T12:57:01Z</time></trkpt>
    <trkpt lat="47.68615" lon="12.91159"><ele>1223</ele><time>2021-10-25T12:57:20Z</time></trkpt>
    <trkpt lat="47.68625" lon="12.91169"><ele>1219</ele><time>2021-10-25T12:57:39Z</time></trkpt>
    <trkpt lat="47.68629" lon="12.91191"><ele>1215</ele><time>2021-10-25T12:57:57Z</time></trkpt>
    <trkpt lat="47.68630" lon="12.91214"><ele>1185</ele><time>2021-10-25T12:58:15Z</time></trkpt>
    <trkpt lat="47.68623" lon="12.91235"><ele>1207</ele><time>2021-10-25T12:58:34Z</time></trkpt>
    <trkpt lat="47.68620" lon="12.91261"><ele>1202</ele><time>2021-10-25T12:58:52Z</time></trkpt>
    <trkpt lat="47.68626" lon="12.91282"><ele>1208</ele><time>2021-10-25T12:59:10Z</time></trkpt>
    <trkpt lat="47.68633" lon="12.91303"><ele>1206</ele><time>2021-10-25T12:59:29Z</time></trkpt>
    <trkpt lat="47.68624" lon="12.91318"><ele>1202</ele><time>2021-10-25T12:59:47Z</time></trkpt>
    <trkpt lat="47.68623" lon="12.91344"><ele>1197</ele><time>2021-10-25T13:00:05Z</time></trkpt>
    <trkpt lat="47.68607" lon="12.91370"><ele>1189</ele><time>2021-10-25T13:00:24Z</time></trkpt>
    <trkpt lat="47.68587" lon="12.91388"><ele>1190</ele><time>2021-10-25T13:00:43Z</time></trkpt>
    <trkpt lat="47.68578" lon="12.91403"><ele>1186</ele><time>2021-10-25T13:01:02Z</time></trkpt>
    <trkpt lat="47.68565" lon="12.91415"><ele>1181</ele><time>2021-10-25T13:01:20Z</time></trkpt>
    <trkpt lat="47.68556" lon="12.91421"><ele>1168</ele><time>2021-10-25T13:01:39Z</time></trkpt>
    <trkpt lat="47.68546" lon="12.91420"><ele>1142</ele><time>2021-10-25T13:01:57Z</time></trkpt>
    <trkpt lat="47.68531" lon="12.91418"><ele>1148</ele><time>2021-10-25T13:02:40Z</time></trkpt>
    <trkpt lat="47.68509" lon="12.91425"><ele>1156</ele><time>2021-10-25T13:03:31Z</time></trkpt>
    <trkpt lat="47.68515" lon="12.91455"><ele>1157</ele><time>2021-10-25T13:04:50Z</time></trkpt>
    <trkpt lat="47.68524" lon="12.91482"><ele>1153</ele><time>2021-10-25T13:05:09Z</time></trkpt>
    <trkpt lat="47.68513" lon="12.91490"><ele>1140</ele><time>2021-10-25T13:05:28Z</time></trkpt>
    <trkpt lat="47.68532" lon="12.91510"><ele>1135</ele><time>2021-10-25T13:05:46Z</time></trkpt>
    <trkpt lat="47.68519" lon="12.91538"><ele>1130</ele><time>2021-10-25T13:06:05Z</time></trkpt>
    <trkpt lat="47.68501" lon="12.91563"><ele>1135</ele><time>2021-10-25T13:06:48Z</time></trkpt>
    <trkpt lat="47.68490" lon="12.91587"><ele>1137</ele><time>2021-10-25T13:07:07Z</time></trkpt>
    <trkpt lat="47.68488" lon="12.91611"><ele>1140</ele><time>2021-10-25T13:07:26Z</time></trkpt>
    <trkpt lat="47.68484" lon="12.91624"><ele>1136</ele><time>2021-10-25T13:07:44Z</time></trkpt>
    <trkpt lat="47.68472" lon="12.91628"><ele>1131</ele><time>2021-10-25T13:08:03Z</time></trkpt>
    <trkpt lat="47.68466" lon="12.91611"><ele>1126</ele><time>2021-10-25T13:08:22Z</time></trkpt>
    <trkpt lat="47.68457" lon="12.91598"><ele>1118</ele><time>2021-10-25T13:08:41Z</time></trkpt>
    <trkpt lat="47.68459" lon="12.91567"><ele>1106</ele><time>2021-10-25T13:09:18Z</time></trkpt>
    <trkpt lat="47.68454" lon="12.91552"><ele>1100</ele><time>2021-10-25T13:09:37Z</time></trkpt>
    <trkpt lat="47.68436" lon="12.91569"><ele>1099</ele><time>2021-10-25T13:10:22Z</time></trkpt>
    <trkpt lat="47.68429" lon="12.91559"><ele>1087</ele><time>2021-10-25T13:11:02Z</time></trkpt>
    <trkpt lat="47.68420" lon="12.91564"><ele>1086</ele><time>2021-10-25T13:11:21Z</time></trkpt>
    <trkpt lat="47.68404" lon="12.91563"><ele>1074</ele><time>2021-10-25T13:12:04Z</time></trkpt>
    <trkpt lat="47.68401" lon="12.91577"><ele>1074</ele><time>2021-10-25T13:12:22Z</time></trkpt>
    <trkpt lat="47.68393" lon="12.91589"><ele>1068</ele><time>2021-10-25T13:12:41Z</time></trkpt>
    <trkpt lat="47.68384" lon="12.91584"><ele>1068</ele><time>2021-10-25T13:13:00Z</time></trkpt>
    <trkpt lat="47.68368" lon="12.91589"><ele>1053</ele><time>2021-10-25T13:13:38Z</time></trkpt>
    <trkpt lat="47.68354" lon="12.91578"><ele>1048</ele><time>2021-10-25T13:14:18Z</time></trkpt>
    <trkpt lat="47.68340" lon="12.91590"><ele>1048</ele><time>2021-10-25T13:14:37Z</time></trkpt>
    <trkpt lat="47.68329" lon="12.91603"><ele>1037</ele><time>2021-10-25T13:15:28Z</time></trkpt>
    <trkpt lat="47.68332" lon="12.91629"><ele>1035</ele><time>2021-10-25T13:15:47Z</time></trkpt>
    <trkpt lat="47.68331" lon="12.91644"><ele>1031</ele><time>2021-10-25T13:16:05Z</time></trkpt>
    <trkpt lat="47.68330" lon="12.91667"><ele>1031</ele><time>2021-10-25T13:16:24Z</time></trkpt>
    <trkpt lat="47.68323" lon="12.91691"><ele>1026</ele><time>2021-10-25T13:16:44Z</time></trkpt>
    <trkpt lat="47.68323" lon="12.91722"><ele>1030</ele><time>2021-10-25T13:17:02Z</time></trkpt>
    <trkpt lat="47.68317" lon="12.91745"><ele>1029</ele><time>2021-10-25T13:17:21Z</time></trkpt>
    <trkpt lat="47.68314" lon="12.91761"><ele>1024</ele><time>2021-10-25T13:17:39Z</time></trkpt>
    <trkpt lat="47.68307" lon="12.91778"><ele>1022</ele><time>2021-10-25T13:17:57Z</time></trkpt>
    <trkpt lat="47.68306" lon="12.91807"><ele>1019</ele><time>2021-10-25T13:18:16Z</time></trkpt>
    <trkpt lat="47.68306" lon="12.91832"><ele>1019</ele><time>2021-10-25T13:18:34Z</time></trkpt>
    <trkpt lat="47.68300" lon="12.91856"><ele>1019</ele><time>2021-10-25T13:18:53Z</time></trkpt>
    <trkpt lat="47.68299" lon="12.91870"><ele>1018</ele><time>2021-10-25T13:19:31Z</time></trkpt>
    <trkpt lat="47.68295" lon="12.91886"><ele>1014</ele><time>2021-10-25T13:19:49Z</time></trkpt>
    <trkpt lat="47.68287" lon="12.91907"><ele>1008</ele><time>2021-10-25T13:20:28Z</time></trkpt>
    <trkpt lat="47.68281" lon="12.91927"><ele>1001</ele><time>2021-10-25T13:20:46Z</time></trkpt>
    <trkpt lat="47.68279" lon="12.91940"><ele>994</ele><time>2021-10-25T13:21:04Z</time></trkpt>
    <trkpt lat="47.68276" lon="12.91958"><ele>990</ele><time>2021-10-25T13:21:23Z</time></trkpt>
    <trkpt lat="47.68272" lon="12.91971"><ele>986</ele><time>2021-10-25T13:21:42Z</time></trkpt>
    <trkpt lat="47.68270" lon="12.91996"><ele>980</ele><time>2021-10-25T13:22:01Z</time></trkpt>
    <trkpt lat="47.68253" lon="12.92010"><ele>969</ele><time>2021-10-25T13:22:39Z</time></trkpt>
    <trkpt lat="47.68239" lon="12.92010"><ele>968</ele><time>2021-10-25T13:22:58Z</time></trkpt>
    <trkpt lat="47.68224" lon="12.92020"><ele>958</ele><time>2021-10-25T13:23:16Z</time></trkpt>
    <trkpt lat="47.68207" lon="12.92025"><ele>958</ele><time>2021-10-25T13:23:35Z</time></trkpt>
    <trkpt lat="47.68195" lon="12.92043"><ele>955</ele><time>2021-10-25T13:23:54Z</time></trkpt>
    <trkpt lat="47.68183" lon="12.92044"><ele>947</ele><time>2021-10-25T13:24:12Z</time></trkpt>
    <trkpt lat="47.68173" lon="12.92059"><ele>944</ele><time>2021-10-25T13:24:31Z</time></trkpt>
    <trkpt lat="47.68164" lon="12.92067"><ele>941</ele><time>2021-10-25T13:24:49Z</time></trkpt>
    <trkpt lat="47.68151" lon="12.92074"><ele>938</ele><time>2021-10-25T13:25:08Z</time></trkpt>
    <trkpt lat="47.68136" lon="12.92080"><ele>936</ele><time>2021-10-25T13:25:27Z</time></trkpt>
    <trkpt lat="47.68129" lon="12.92100"><ele>928</ele><time>2021-10-25T13:26:08Z</time></trkpt>
    <trkpt lat="47.68128" lon="12.92126"><ele>928</ele><time>2021-10-25T13:26:27Z</time></trkpt>
    <trkpt lat="47.68115" lon="12.92141"><ele>927</ele><time>2021-10-25T13:26:45Z</time></trkpt>
    <trkpt lat="47.68111" lon="12.92162"><ele>920</ele><time>2021-10-25T13:27:04Z</time></trkpt>
    <trkpt lat="47.68098" lon="12.92183"><ele>914</ele><time>2021-10-25T13:27:42Z</time></trkpt>
    <trkpt lat="47.68086" lon="12.92198"><ele>901</ele><time>2021-10-25T13:28:00Z</time></trkpt>
    <trkpt lat="47.68079" lon="12.92221"><ele>896</ele><time>2021-10-25T13:28:38Z</time></trkpt>
    <trkpt lat="47.68074" lon="12.92247"><ele>892</ele><time>2021-10-25T13:28:57Z</time></trkpt>
    <trkpt lat="47.68070" lon="12.92289"><ele>896</ele><time>2021-10-25T13:29:16Z</time></trkpt>
    <trkpt lat="47.68065" lon="12.92311"><ele>893</ele><time>2021-10-25T13:29:34Z</time></trkpt>
    <trkpt lat="47.68063" lon="12.92333"><ele>897</ele><time>2021-10-25T13:29:53Z</time></trkpt>
    <trkpt lat="47.68054" lon="12.92359"><ele>890</ele><time>2021-10-25T13:33:45Z</time></trkpt>
    <trkpt lat="47.68054" lon="12.92374"><ele>884</ele><time>2021-10-25T13:34:04Z</time></trkpt>
    <trkpt lat="47.68057" lon="12.92388"><ele>878</ele><time>2021-10-25T13:34:22Z</time></trkpt>
    <trkpt lat="47.68043" lon="12.92391"><ele>869</ele><time>2021-10-25T13:34:40Z</time></trkpt>
    <trkpt lat="47.68034" lon="12.92396"><ele>862</ele><time>2021-10-25T13:34:58Z</time></trkpt>
    <trkpt lat="47.68023" lon="12.92412"><ele>847</ele><time>2021-10-25T13:35:36Z</time></trkpt>
    <trkpt lat="47.68007" lon="12.92420"><ele>848</ele><time>2021-10-25T13:35:55Z</time></trkpt>
    <trkpt lat="47.67996" lon="12.92426"><ele>841</ele><time>2021-10-25T13:36:13Z</time></trkpt>
    <trkpt lat="47.67977" lon="12.92443"><ele>840</ele><time>2021-10-25T13:36:31Z</time></trkpt>
    <trkpt lat="47.67968" lon="12.92441"><ele>828</ele><time>2021-10-25T13:36:50Z</time></trkpt>
    <trkpt lat="47.67982" lon="12.92483"><ele>823</ele><time>2021-10-25T13:37:43Z</time></trkpt>
    <trkpt lat="47.67997" lon="12.92501"><ele>829</ele><time>2021-10-25T13:38:02Z</time></trkpt>
    <trkpt lat="47.68005" lon="12.92511"><ele>831</ele><time>2021-10-25T13:38:20Z</time></trkpt>
    <trkpt lat="47.67980" lon="12.92530"><ele>824</ele><time>2021-10-25T13:39:12Z</time></trkpt>
    <trkpt lat="47.67964" lon="12.92537"><ele>817</ele><time>2021-10-25T13:39:31Z</time></trkpt>
    <trkpt lat="47.67953" lon="12.92535"><ele>808</ele><time>2021-10-25T13:39:49Z</time></trkpt>
    <trkpt lat="47.67974" lon="12.92576"><ele>802</ele><time>2021-10-25T13:40:35Z</time></trkpt>
    <trkpt lat="47.67980" lon="12.92590"><ele>803</ele><time>2021-10-25T13:40:54Z</time></trkpt>
    <trkpt lat="47.67983" lon="12.92603"><ele>795</ele><time>2021-10-25T13:41:12Z</time></trkpt>
    <trkpt lat="47.67992" lon="12.92619"><ele>789</ele><time>2021-10-25T13:41:31Z</time></trkpt>
    <trkpt lat="47.68006" lon="12.92633"><ele>791</ele><time>2021-10-25T13:41:50Z</time></trkpt>
    <trkpt lat="47.68016" lon="12.92646"><ele>788</ele><time>2021-10-25T13:42:08Z</time></trkpt>
    <trkpt lat="47.68026" lon="12.92662"><ele>783</ele><time>2021-10-25T13:42:27Z</time></trkpt>
    <trkpt lat="47.68034" lon="12.92671"><ele>780</ele><time>2021-10-25T13:42:45Z</time></trkpt>
    <trkpt lat="47.68047" lon="12.92683"><ele>774</ele><time>2021-10-25T13:43:04Z</time></trkpt>
    <trkpt lat="47.68063" lon="12.92693"><ele>772</ele><time>2021-10-25T13:43:23Z</time></trkpt>
    <trkpt lat="47.68075" lon="12.92698"><ele>764</ele><time>2021-10-25T13:43:42Z</time></trkpt>
    <trkpt lat="47.68082" lon="12.92711"><ele>757</ele><time>2021-10-25T13:44:01Z</time></trkpt>
    <trkpt lat="47.68081" lon="12.92728"><ele>749</ele><time>2021-10-25T13:44:19Z</time></trkpt>
    <trkpt lat="47.68089" lon="12.92750"><ele>742</ele><time>2021-10-25T13:44:38Z</time></trkpt>
    <trkpt lat="47.68093" lon="12.92771"><ele>736</ele><time>2021-10-25T13:44:57Z</time></trkpt>
    <trkpt lat="47.68098" lon="12.92791"><ele>730</ele><time>2021-10-25T13:45:15Z</time></trkpt>
    <trkpt lat="47.68102" lon="12.92814"><ele>724</ele><time>2021-10-25T13:45:34Z</time></trkpt>
    <trkpt lat="47.68110" lon="12.92831"><ele>720</ele><time>2021-10-25T13:45:52Z</time></trkpt>
    <trkpt lat="47.68118" lon="12.92846"><ele>714</ele><time>2021-10-25T13:46:11Z</time></trkpt>
    <trkpt lat="47.68129" lon="12.92856"><ele>714</ele><time>2021-10-25T13:46:29Z</time></trkpt>
    <trkpt lat="47.68143" lon="12.92847"><ele>713</ele><time>2021-10-25T13:46:48Z</time></trkpt>
    <trkpt lat="47.68154" lon="12.92838"><ele>710</ele><time>2021-10-25T13:47:07Z</time></trkpt>
    <trkpt lat="47.68166" lon="12.92830"><ele>708</ele><time>2021-10-25T13:47:25Z</time></trkpt>
    <trkpt lat="47.68187" lon="12.92831"><ele>706</ele><time>2021-10-25T13:47:44Z</time></trkpt>
    <trkpt lat="47.68209" lon="12.92839"><ele>713</ele><time>2021-10-25T13:48:03Z</time></trkpt>
    <trkpt lat="47.68221" lon="12.92854"><ele>711</ele><time>2021-10-25T13:48:21Z</time></trkpt>
    <trkpt lat="47.68235" lon="12.92864"><ele>704</ele><time>2021-10-25T13:48:40Z</time></trkpt>
    <trkpt lat="47.68255" lon="12.92865"><ele>707</ele><time>2021-10-25T13:48:59Z</time></trkpt>
    <trkpt lat="47.68272" lon="12.92866"><ele>710</ele><time>2021-10-25T13:49:17Z</time></trkpt>
    <trkpt lat="47.68290" lon="12.92870"><ele>709</ele><time>2021-10-25T13:49:35Z</time></trkpt>
    <trkpt lat="47.68303" lon="12.92868"><ele>712</ele><time>2021-10-25T13:49:54Z</time></trkpt>
    <trkpt lat="47.68327" lon="12.92869"><ele>718</ele><time>2021-10-25T13:50:31Z</time></trkpt>
    <trkpt lat="47.68340" lon="12.92869"><ele>712</ele><time>2021-10-25T13:50:49Z</time></trkpt>
    <trkpt lat="47.68353" lon="12.92865"><ele>720</ele><time>2021-10-25T13:51:08Z</time></trkpt>
    <trkpt lat="47.68367" lon="12.92876"><ele>727</ele><time>2021-10-25T13:51:26Z</time></trkpt>
    <trkpt lat="47.68385" lon="12.92887"><ele>724</ele><time>2021-10-25T13:51:45Z</time></trkpt>
    <trkpt lat="47.68400" lon="12.92909"><ele>727</ele><time>2021-10-25T13:52:04Z</time></trkpt>
    <trkpt lat="47.68411" lon="12.92938"><ele>726</ele><time>2021-10-25T13:52:22Z</time></trkpt>
    <trkpt lat="47.68427" lon="12.92958"><ele>720</ele><time>2021-10-25T13:52:40Z</time></trkpt>
    <trkpt lat="47.68446" lon="12.92966"><ele>715</ele><time>2021-10-25T13:52:59Z</time></trkpt>
    <trkpt lat="47.68461" lon="12.92971"><ele>719</ele><time>2021-10-25T13:53:17Z</time></trkpt>
    <trkpt lat="47.68475" lon="12.92976"><ele>717</ele><time>2021-10-25T13:53:36Z</time></trkpt>
    <trkpt lat="47.68488" lon="12.93002"><ele>721</ele><time>2021-10-25T13:53:55Z</time></trkpt>
    <trkpt lat="47.68495" lon="12.93029"><ele>728</ele><time>2021-10-25T13:54:13Z</time></trkpt>
    <trkpt lat="47.68509" lon="12.93052"><ele>725</ele><time>2021-10-25T13:54:31Z</time></trkpt>
    <trkpt lat="47.68513" lon="12.93079"><ele>721</ele><time>2021-10-25T13:54:50Z</time></trkpt>
    <trkpt lat="47.68520" lon="12.93098"><ele>713</ele><time>2021-10-25T13:55:08Z</time></trkpt>
    <trkpt lat="47.68528" lon="12.93117"><ele>703</ele><time>2021-10-25T13:55:27Z</time></trkpt>
    <trkpt lat="47.68540" lon="12.93137"><ele>702</ele><time>2021-10-25T13:55:46Z</time></trkpt>
    <trkpt lat="47.68552" lon="12.93155"><ele>698</ele><time>2021-10-25T13:56:04Z</time></trkpt>
    <trkpt lat="47.68552" lon="12.93188"><ele>702</ele><time>2021-10-25T13:56:23Z</time></trkpt>
    <trkpt lat="47.68549" lon="12.93220"><ele>705</ele><time>2021-10-25T13:56:41Z</time></trkpt>
    <trkpt lat="47.68554" lon="12.93248"><ele>705</ele><time>2021-10-25T13:57:00Z</time></trkpt>
    <trkpt lat="47.68562" lon="12.93275"><ele>708</ele><time>2021-10-25T13:57:19Z</time></trkpt>
    <trkpt lat="47.68573" lon="12.93303"><ele>711</ele><time>2021-10-25T13:57:37Z</time></trkpt>
    <trkpt lat="47.68592" lon="12.93320"><ele>711</ele><time>2021-10-25T13:57:56Z</time></trkpt>
    <trkpt lat="47.68612" lon="12.93329"><ele>711</ele><time>2021-10-25T13:58:14Z</time></trkpt>
    <trkpt lat="47.68632" lon="12.93338"><ele>709</ele><time>2021-10-25T13:58:33Z</time></trkpt>
    <trkpt lat="47.68651" lon="12.93345"><ele>708</ele><time>2021-10-25T13:58:52Z</time></trkpt>
    <trkpt lat="47.68671" lon="12.93357"><ele>708</ele><time>2021-10-25T13:59:10Z</time></trkpt>
    <trkpt lat="47.68687" lon="12.93362"><ele>709</ele><time>2021-10-25T13:59:29Z</time></trkpt>
    <trkpt lat="47.68693" lon="12.93340"><ele>708</ele><time>2021-10-25T13:59:47Z</time></trkpt>
    <trkpt lat="47.68699" lon="12.93316"><ele>709</ele><time>2021-10-25T14:00:05Z</time></trkpt>
    <trkpt lat="47.68703" lon="12.93294"><ele>712</ele><time>2021-10-25T14:00:24Z</time></trkpt>
    <trkpt lat="47.68714" lon="12.93271"><ele>714</ele><time>2021-10-25T14:00:43Z</time></trkpt>
    <trkpt lat="47.68729" lon="12.93262"><ele>712</ele><time>2021-10-25T14:01:02Z</time></trkpt>
    <trkpt lat="47.68750" lon="12.93262"><ele>717</ele><time>2021-10-25T14:01:20Z</time></trkpt>
    <trkpt lat="47.68767" lon="12.93276"><ele>722</ele><time>2021-10-25T14:01:38Z</time></trkpt>
    <trkpt lat="47.68782" lon="12.93289"><ele>726</ele><time>2021-10-25T14:01:56Z</time></trkpt>
    <trkpt lat="47.68796" lon="12.93298"><ele>726</ele><time>2021-10-25T14:02:15Z</time></trkpt>
    <trkpt lat="47.68814" lon="12.93310"><ele>727</ele><time>2021-10-25T14:02:34Z</time></trkpt>
    <trkpt lat="47.68828" lon="12.93334"><ele>732</ele><time>2021-10-25T14:02:52Z</time></trkpt>
    <trkpt lat="47.68841" lon="12.93349"><ele>729</ele><time>2021-10-25T14:03:11Z</time></trkpt>
    <trkpt lat="47.68845" lon="12.93368"><ele>732</ele><time>2021-10-25T14:03:30Z</time></trkpt>
    <trkpt lat="47.68850" lon="12.93386"><ele>738</ele><time>2021-10-25T14:03:49Z</time></trkpt>
    <trkpt lat="47.68858" lon="12.93397"><ele>738</ele><time>2021-10-25T14:04:07Z</time></trkpt>
    <trkpt lat="47.68871" lon="12.93402"><ele>739</ele><time>2021-10-25T14:04:26Z</time></trkpt>
    <trkpt lat="47.68883" lon="12.93411"><ele>741</ele><time>2021-10-25T14:04:45Z</time></trkpt>
    <trkpt lat="47.68891" lon="12.93415"><ele>742</ele><time>2021-10-25T14:05:05Z</time></trkpt>
    <trkpt lat="47.68907" lon="12.93424"><ele>745</ele><time>2021-10-25T14:05:23Z</time></trkpt>
    <trkpt lat="47.68919" lon="12.93434"><ele>753</ele><time>2021-10-25T14:05:42Z</time></trkpt>
    <trkpt lat="47.68930" lon="12.93439"><ele>757</ele><time>2021-10-25T14:06:01Z</time></trkpt>
    <trkpt lat="47.68945" lon="12.93446"><ele>764</ele><time>2021-10-25T14:06:20Z</time></trkpt>
    <trkpt lat="47.68974" lon="12.93475"><ele>776</ele><time>2021-10-25T14:06:57Z</time></trkpt>
    <trkpt lat="47.68990" lon="12.93493"><ele>777</ele><time>2021-10-25T14:07:16Z</time></trkpt>
    <trkpt lat="47.69006" lon="12.93507"><ele>774</ele><time>2021-10-25T14:07:34Z</time></trkpt>
    <trkpt lat="47.69024" lon="12.93511"><ele>771</ele><time>2021-10-25T14:07:52Z</time></trkpt>
    <trkpt lat="47.69051" lon="12.93522"><ele>779</ele><time>2021-10-25T14:08:11Z</time></trkpt>
    <trkpt lat="47.69070" lon="12.93528"><ele>781</ele><time>2021-10-25T14:08:29Z</time></trkpt>
    <trkpt lat="47.69084" lon="12.93537"><ele>777</ele><time>2021-10-25T14:08:48Z</time></trkpt>
    <trkpt lat="47.69102" lon="12.93547"><ele>770</ele><time>2021-10-25T14:09:07Z</time></trkpt>
    <trkpt lat="47.69116" lon="12.93561"><ele>758</ele><time>2021-10-25T14:09:25Z</time></trkpt>
    <trkpt lat="47.69136" lon="12.93568"><ele>976</ele><time>2021-10-25T14:09:43Z</time></trkpt>
    <trkpt lat="47.69153" lon="12.93571"><ele>796</ele><time>2021-10-25T14:10:01Z</time></trkpt>
    <trkpt lat="47.69173" lon="12.93583"><ele>772</ele><time>2021-10-25T14:10:19Z</time></trkpt>
    <trkpt lat="47.69197" lon="12.93596"><ele>752</ele><time>2021-10-25T14:10:38Z</time></trkpt>
    <trkpt lat="47.69222" lon="12.93603"><ele>745</ele><time>2021-10-25T14:10:56Z</time></trkpt>
    <trkpt lat="47.69243" lon="12.93605"><ele>741</ele><time>2021-10-25T14:11:15Z</time></trkpt>
    <trkpt lat="47.69260" lon="12.93602"><ele>732</ele><time>2021-10-25T14:11:33Z</time></trkpt>
    <trkpt lat="47.69277" lon="12.93607"><ele>731</ele><time>2021-10-25T14:11:51Z</time></trkpt>
    <trkpt lat="47.69293" lon="12.93609"><ele>728</ele><time>2021-10-25T14:12:10Z</time></trkpt>
    <trkpt lat="47.69314" lon="12.93604"><ele>722</ele><time>2021-10-25T14:12:29Z</time></trkpt>
    <trkpt lat="47.69328" lon="12.93600"><ele>726</ele><time>2021-10-25T14:12:47Z</time></trkpt>
    <trkpt lat="47.69341" lon="12.93584"><ele>737</ele><time>2021-10-25T14:13:06Z</time></trkpt>
    <trkpt lat="47.69354" lon="12.93590"><ele>741</ele><time>2021-10-25T14:13:24Z</time></trkpt>
    <trkpt lat="47.69366" lon="12.93595"><ele>741</ele><time>2021-10-25T14:13:42Z</time></trkpt>
    <trkpt lat="47.69392" lon="12.93600"><ele>732</ele><time>2021-10-25T14:14:00Z</time></trkpt>
    <trkpt lat="47.69411" lon="12.93601"><ele>731</ele><time>2021-10-25T14:14:19Z</time></trkpt>
    <trkpt lat="47.69426" lon="12.93601"><ele>730</ele><time>2021-10-25T14:14:37Z</time></trkpt>
    <trkpt lat="47.69450" lon="12.93598"><ele>727</ele><time>2021-10-25T14:14:56Z</time></trkpt>
    <trkpt lat="47.69463" lon="12.93588"><ele>936</ele><time>2021-10-25T14:15:15Z</time></trkpt>
    <trkpt lat="47.69476" lon="12.93585"><ele>791</ele><time>2021-10-25T14:15:33Z</time></trkpt>
    <trkpt lat="47.69491" lon="12.93578"><ele>727</ele><time>2021-10-25T14:15:52Z</time></trkpt>
    <trkpt lat="47.69508" lon="12.93562"><ele>860</ele><time>2021-10-25T14:16:10Z</time></trkpt>
    <trkpt lat="47.69523" lon="12.93550"><ele>749</ele><time>2021-10-25T14:16:29Z</time></trkpt>
    <trkpt lat="47.69541" lon="12.93530"><ele>717</ele><time>2021-10-25T14:16:48Z</time></trkpt>
    <trkpt lat="47.69561" lon="12.93524"><ele>702</ele><time>2021-10-25T14:17:07Z</time></trkpt>
    <trkpt lat="47.69577" lon="12.93511"><ele>701</ele><time>2021-10-25T14:17:25Z</time></trkpt>
    <trkpt lat="47.69593" lon="12.93506"><ele>694</ele><time>2021-10-25T14:17:44Z</time></trkpt>
    <trkpt lat="47.69617" lon="12.93519"><ele>700</ele><time>2021-10-25T14:18:02Z</time></trkpt>
    <trkpt lat="47.69626" lon="12.93528"><ele>698</ele><time>2021-10-25T14:18:21Z</time></trkpt>
    <trkpt lat="47.69643" lon="12.93524"><ele>691</ele><time>2021-10-25T14:18:39Z</time></trkpt>
  </trkseg>
</trk>
</gpx>