<?xml version="1.0" encoding="UTF-8"?>
<gpx version="1.1" creator="GPX-Pro" xmlns="http://www.topografix.com/GPX/1/1">
<trk>
  <name>Kalbling-Riffl-Kreuzkogel</name>
  <trkseg>
    <trkpt lat="47.53904" lon="14.51311"><ele>1448</ele><time>2021-10-02T06:22:15Z</time></trkpt>
    <trkpt lat="47.53910" lon="14.51334"><ele>1444</ele><time>2021-10-02T06:22:33Z</time></trkpt>
    <trkpt lat="47.53915" lon="14.51350"><ele>1443</ele><time>2021-10-02T06:22:51Z</time></trkpt>
    <trkpt lat="47.53933" lon="14.51353"><ele>1449</ele><time>2021-10-02T06:23:09Z</time></trkpt>
    <trkpt lat="47.53956" lon="14.51354"><ele>1457</ele><time>2021-10-02T06:23:28Z</time></trkpt>
    <trkpt lat="47.53968" lon="14.51362"><ele>1469</ele><time>2021-10-02T06:23:46Z</time></trkpt>
    <trkpt lat="47.53982" lon="14.51377"><ele>1476</ele><time>2021-10-02T06:24:05Z</time></trkpt>
    <trkpt lat="47.53991" lon="14.51397"><ele>1484</ele><time>2021-10-02T06:24:24Z</time></trkpt>
    <trkpt lat="47.53996" lon="14.51411"><ele>1491</ele><time>2021-10-02T06:24:42Z</time></trkpt>
    <trkpt lat="47.54003" lon="14.51420"><ele>1496</ele><time>2021-10-02T06:25:00Z</time></trkpt>
    <trkpt lat="47.54012" lon="14.51429"><ele>1495</ele><time>2021-10-02T06:25:19Z</time></trkpt>
    <trkpt lat="47.54024" lon="14.51444"><ele>1510</ele><time>2021-10-02T06:26:13Z</time></trkpt>
    <trkpt lat="47.54034" lon="14.51446"><ele>1519</ele><time>2021-10-02T06:26:32Z</time></trkpt>
    <trkpt lat="47.54048" lon="14.51465"><ele>1524</ele><time>2021-10-02T06:27:26Z</time></trkpt>
    <trkpt lat="47.54058" lon="14.51485"><ele>1532</ele><time>2021-10-02T06:28:04Z</time></trkpt>
    <trkpt lat="47.54073" lon="14.51508"><ele>1540</ele><time>2021-10-02T06:28:50Z</time></trkpt>
    <trkpt lat="47.54088" lon="14.51523"><ele>1544</ele><time>2021-10-02T06:29:27Z</time></trkpt>
    <trkpt lat="47.54102" lon="14.51534"><ele>1556</ele><time>2021-10-02T06:30:08Z</time></trkpt>
    <trkpt lat="47.54113" lon="14.51555"><ele>1560</ele><time>2021-10-02T06:30:45Z</time></trkpt>
    <trkpt lat="47.54129" lon="14.51563"><ele>1569</ele><time>2021-10-02T06:31:32Z</time></trkpt>
    <trkpt lat="47.54142" lon="14.51580"><ele>1583</ele><time>2021-10-02T06:32:36Z</time></trkpt>
    <trkpt lat="47.54140" lon="14.51595"><ele>1592</ele><time>2021-10-02T06:32:54Z</time></trkpt>
    <trkpt lat="47.54147" lon="14.51618"><ele>1598</ele><time>2021-10-02T06:33:31Z</time></trkpt>
    <trkpt lat="47.54157" lon="14.51630"><ele>1604</ele><time>2021-10-02T06:33:50Z</time></trkpt>
    <trkpt lat="47.54173" lon="14.51645"><ele>1613</ele><time>2021-10-02T06:34:28Z</time></trkpt>
    <trkpt lat="47.54188" lon="14.51654"><ele>1605</ele><time>2021-10-02T06:35:37Z</time></trkpt>
    <trkpt lat="47.54197" lon="14.51661"><ele>1611</ele><time>2021-10-02T06:35:55Z</time></trkpt>
    <trkpt lat="47.54205" lon="14.51672"><ele>1609</ele><time>2021-10-02T06:36:14Z</time></trkpt>
    <trkpt lat="47.54216" lon="14.51670"><ele>1608</ele><time>2021-10-02T06:36:32Z</time></trkpt>
    <trkpt lat="47.54225" lon="14.51674"><ele>1609</ele><time>2021-10-02T06:36:51Z</time></trkpt>
    <trkpt lat="47.54241" lon="14.51680"><ele>1619</ele><time>2021-10-02T06:37:34Z</time></trkpt>
    <trkpt lat="47.54249" lon="14.51699"><ele>1618</ele><time>2021-10-02T06:38:16Z</time></trkpt>
    <trkpt lat="47.54250" lon="14.51713"><ele>1622</ele><time>2021-10-02T06:38:35Z</time></trkpt>
    <trkpt lat="47.54260" lon="14.51733"><ele>1631</ele><time>2021-10-02T06:39:17Z</time></trkpt>
    <trkpt lat="47.54266" lon="14.51753"><ele>1640</ele><time>2021-10-02T06:40:05Z</time></trkpt>
    <trkpt lat="47.54277" lon="14.51772"><ele>1644</ele><time>2021-10-02T06:40:51Z</time></trkpt>
    <trkpt lat="47.54288" lon="14.51789"><ele>1652</ele><time>2021-10-02T06:41:35Z</time></trkpt>
    <trkpt lat="47.54297" lon="14.51800"><ele>1655</ele><time>2021-10-02T06:41:53Z</time></trkpt>
    <trkpt lat="47.54304" lon="14.51815"><ele>1657</ele><time>2021-10-02T06:42:12Z</time></trkpt>
    <trkpt lat="47.54306" lon="14.51829"><ele>1662</ele><time>2021-10-02T06:42:31Z</time></trkpt>
    <trkpt lat="47.54305" lon="14.51846"><ele>1666</ele><time>2021-10-02T06:42:50Z</time></trkpt>
    <trkpt lat="47.54307" lon="14.51859"><ele>1666</ele><time>2021-10-02T06:43:08Z</time></trkpt>
    <trkpt lat="47.54319" lon="14.51876"><ele>1670</ele><time>2021-10-02T06:43:51Z</time></trkpt>
    <trkpt lat="47.54327" lon="14.51896"><ele>1681</ele><time>2021-10-02T06:44:35Z</time></trkpt>
    <trkpt lat="47.54335" lon="14.51905"><ele>1680</ele><time>2021-10-02T06:44:54Z</time></trkpt>
    <trkpt lat="47.54340" lon="14.51933"><ele>1687</ele><time>2021-10-02T06:45:34Z</time></trkpt>
    <trkpt lat="47.54354" lon="14.51944"><ele>1689</ele><time>2021-10-02T06:46:22Z</time></trkpt>
    <trkpt lat="47.54367" lon="14.51958"><ele>1696</ele><time>2021-10-02T06:47:09Z</time></trkpt>
    <trkpt lat="47.54371" lon="14.51980"><ele>1707</ele><time>2021-10-02T06:48:07Z</time></trkpt>
    <trkpt lat="47.54369" lon="14.52007"><ele>1716</ele><time>2021-10-02T06:48:48Z</time></trkpt>
    <trkpt lat="47.54377" lon="14.52019"><ele>1715</ele><time>2021-10-02T06:49:06Z</time></trkpt>
    <trkpt lat="47.54383" lon="14.52032"><ele>1719</ele><time>2021-10-02T06:49:25Z</time></trkpt>
    <trkpt lat="47.54390" lon="14.52043"><ele>1720</ele><time>2021-10-02T06:49:44Z</time></trkpt>
    <trkpt lat="47.54404" lon="14.52042"><ele>1733</ele><time>2021-10-02T06:50:56Z</time></trkpt>
    <trkpt lat="47.54406" lon="14.52066"><ele>1746</ele><time>2021-10-02T06:51:58Z</time></trkpt>
    <trkpt lat="47.54415" lon="14.52086"><ele>1745</ele><time>2021-10-02T06:52:35Z</time></trkpt>
    <trkpt lat="47.54422" lon="14.52105"><ele>1752</ele><time>2021-10-02T06:53:35Z</time></trkpt>
    <trkpt lat="47.54423" lon="14.52122"><ele>1759</ele><time>2021-10-02T06:53:54Z</time></trkpt>
    <trkpt lat="47.54432" lon="14.52141"><ele>1763</ele><time>2021-10-02T06:54:43Z</time></trkpt>
    <trkpt lat="47.54444" lon="14.52160"><ele>1761</ele><time>2021-10-02T06:55:29Z</time></trkpt>
    <trkpt lat="47.54452" lon="14.52182"><ele>1774</ele><time>2021-10-02T06:56:16Z</time></trkpt>
    <trkpt lat="47.54457" lon="14.52194"><ele>1778</ele><time>2021-10-02T06:56:35Z</time></trkpt>
    <trkpt lat="47.54470" lon="14.52208"><ele>1787</ele><time>2021-10-02T06:57:39Z</time></trkpt>
    <trkpt lat="47.54478" lon="14.52187"><ele>1738</ele><time>2021-10-02T06:58:37Z</time></trkpt>
    <trkpt lat="47.54492" lon="14.52175"><ele>1782</ele><time>2021-10-02T06:59:34Z</time></trkpt>
    <trkpt lat="47.54494" lon="14.52161"><ele>1781</ele><time>2021-10-02T06:59:52Z</time></trkpt>
    <trkpt lat="47.54500" lon="14.52149"><ele>1782</ele><time>2021-10-02T07:00:11Z</time></trkpt>
    <trkpt lat="47.54508" lon="14.52129"><ele>1807</ele><time>2021-10-02T07:01:56Z</time></trkpt>
    <trkpt lat="47.54516" lon="14.52109"><ele>1805</ele><time>2021-10-02T07:02:46Z</time></trkpt>
    <trkpt lat="47.54523" lon="14.52098"><ele>1801</ele><time>2021-10-02T07:03:05Z</time></trkpt>
    <trkpt lat="47.54524" lon="14.52069"><ele>1806</ele><time>2021-10-02T07:03:47Z</time></trkpt>
    <trkpt lat="47.54529" lon="14.52058"><ele>1810</ele><time>2021-10-02T07:04:46Z</time></trkpt>
    <trkpt lat="47.54537" lon="14.52045"><ele>1810</ele><time>2021-10-02T07:05:04Z</time></trkpt>
    <trkpt lat="47.54537" lon="14.52019"><ele>1813</ele><time>2021-10-02T07:05:48Z</time></trkpt>
    <trkpt lat="47.54542" lon="14.51994"><ele>1813</ele><time>2021-10-02T07:06:34Z</time></trkpt>
    <trkpt lat="47.54553" lon="14.52003"><ele>1872</ele><time>2021-10-02T07:09:54Z</time></trkpt>
    <trkpt lat="47.54563" lon="14.52022"><ele>1887</ele><time>2021-10-02T07:12:05Z</time></trkpt>
    <trkpt lat="47.54579" lon="14.52030"><ele>1897</ele><time>2021-10-02T07:13:39Z</time></trkpt>
    <trkpt lat="47.54589" lon="14.52037"><ele>1920</ele><time>2021-10-02T07:15:58Z</time></trkpt>
    <trkpt lat="47.54606" lon="14.52038"><ele>1932</ele><time>2021-10-02T07:18:32Z</time></trkpt>
    <trkpt lat="47.54622" lon="14.52031"><ele>1940</ele><time>2021-10-02T07:20:31Z</time></trkpt>
    <trkpt lat="47.54633" lon="14.52018"><ele>1942</ele><time>2021-10-02T07:23:19Z</time></trkpt>
    <trkpt lat="47.54628" lon="14.52035"><ele>2006</ele><time>2021-10-02T07:28:54Z</time></trkpt>
    <trkpt lat="47.54637" lon="14.52051"><ele>1999</ele><time>2021-10-02T07:33:18Z</time></trkpt>
    <trkpt lat="47.54649" lon="14.52067"><ele>1997</ele><time>2021-10-02T07:34:33Z</time></trkpt>
    <trkpt lat="47.54634" lon="14.52072"><ele>2009</ele><time>2021-10-02T07:35:10Z</time></trkpt>
    <trkpt lat="47.54648" lon="14.52074"><ele>1997</ele><time>2021-10-02T07:37:51Z</time></trkpt>
    <trkpt lat="47.54659" lon="14.52075"><ele>1994</ele><time>2021-10-02T08:01:08Z</time></trkpt>
    <trkpt lat="47.54642" lon="14.52065"><ele>2001</ele><time>2021-10-02T08:05:38Z</time></trkpt>
    <trkpt lat="47.54634" lon="14.52078"><ele>2015</ele><time>2021-10-02T08:05:56Z</time></trkpt>
    <trkpt lat="47.54642" lon="14.52100"><ele>2015</ele><time>2021-10-02T08:06:46Z</time></trkpt>
    <trkpt lat="47.54626" lon="14.52099"><ele>2033</ele><time>2021-10-02T08:07:35Z</time></trkpt>
    <trkpt lat="47.54634" lon="14.52082"><ele>2036</ele><time>2021-10-02T08:15:39Z</time></trkpt>
    <trkpt lat="47.54647" lon="14.52077"><ele>2044</ele><time>2021-10-02T08:16:56Z</time></trkpt>
    <trkpt lat="47.54638" lon="14.52098"><ele>2061</ele><time>2021-10-02T08:22:35Z</time></trkpt>
    <trkpt lat="47.54645" lon="14.52075"><ele>2053</ele><time>2021-10-02T08:24:02Z</time></trkpt>
    <trkpt lat="47.54647" lon="14.52089"><ele>2059</ele><time>2021-10-02T08:25:18Z</time></trkpt>
    <trkpt lat="47.54635" lon="14.52117"><ele>2070</ele><time>2021-10-02T08:25:37Z</time></trkpt>
    <trkpt lat="47.54636" lon="14.52103"><ele>2085</ele><time>2021-10-02T08:29:51Z</time></trkpt>
    <trkpt lat="47.54622" lon="14.52119"><ele>2099</ele><time>2021-10-02T08:36:00Z</time></trkpt>
    <trkpt lat="47.54633" lon="14.52116"><ele>2090</ele><time>2021-10-02T08:38:53Z</time></trkpt>
    <trkpt lat="47.54644" lon="14.52106"><ele>2086</ele><time>2021-10-02T08:39:11Z</time></trkpt>
    <trkpt lat="47.54658" lon="14.52091"><ele>2074</ele><time>2021-10-02T09:09:23Z</time></trkpt>
    <trkpt lat="47.54665" lon="14.52080"><ele>2083</ele><time>2021-10-02T09:10:12Z</time></trkpt>
    <trkpt lat="47.54668" lon="14.52065"><ele>2084</ele><time>2021-10-02T09:12:57Z</time></trkpt>
    <trkpt lat="47.54684" lon="14.52070"><ele>2132</ele><time>2021-10-02T09:56:40Z</time></trkpt>
    <trkpt lat="47.54680" lon="14.52084"><ele>2163</ele><time>2021-10-02T10:04:47Z</time></trkpt>
    <trkpt lat="47.54693" lon="14.52069"><ele>2171</ele><time>2021-10-02T10:10:16Z</time></trkpt>
    <trkpt lat="47.54707" lon="14.52065"><ele>2183</ele><time>2021-10-02T10:35:04Z</time></trkpt>
    <trkpt lat="47.54714" lon="14.52085"><ele>2189</ele><time>2021-10-02T10:36:26Z</time></trkpt>
    <trkpt lat="47.54721" lon="14.52098"><ele>2195</ele><time>2021-10-02T10:36:45Z</time></trkpt>
    <trkpt lat="47.54733" lon="14.52112"><ele>2194</ele><time>2021-10-02T10:38:42Z</time></trkpt>
    <trkpt lat="47.54751" lon="14.52134"><ele>2191</ele><time>2021-10-02T10:39:41Z</time></trkpt>
    <trkpt lat="47.54764" lon="14.52144"><ele>2179</ele><time>2021-10-02T10:40:00Z</time></trkpt>
    <trkpt lat="47.54770" lon="14.52161"><ele>2182</ele><time>2021-10-02T10:40:18Z</time></trkpt>
    <trkpt lat="47.54783" lon="14.52177"><ele>2179</ele><time>2021-10-02T10:41:07Z</time></trkpt>
    <trkpt lat="47.54802" lon="14.52184"><ele>2174</ele><time>2021-10-02T10:41:43Z</time></trkpt>
    <trkpt lat="47.54812" lon="14.52196"><ele>2174</ele><time>2021-10-02T10:42:01Z</time></trkpt>
    <trkpt lat="47.54826" lon="14.52195"><ele>2165</ele><time>2021-10-02T10:42:20Z</time></trkpt>
    <trkpt lat="47.54837" lon="14.52210"><ele>2160</ele><time>2021-10-02T10:42:39Z</time></trkpt>
    <trkpt lat="47.54857" lon="14.52226"><ele>2164</ele><time>2021-10-02T10:43:17Z</time></trkpt>
    <trkpt lat="47.54874" lon="14.52227"><ele>2155</ele><time>2021-10-02T10:43:36Z</time></trkpt>
    <trkpt lat="47.54885" lon="14.52236"><ele>2150</ele><time>2021-10-02T10:43:54Z</time></trkpt>
    <trkpt lat="47.54896" lon="14.52252"><ele>2146</ele><time>2021-10-02T10:44:12Z</time></trkpt>
    <trkpt lat="47.54908" lon="14.52270"><ele>2140</ele><time>2021-10-02T10:44:31Z</time></trkpt>
    <trkpt lat="47.54928" lon="14.52279"><ele>2147</ele><time>2021-10-02T10:44:50Z</time></trkpt>
    <trkpt lat="47.54940" lon="14.52293"><ele>2144</ele><time>2021-10-02T10:45:09Z</time></trkpt>
    <trkpt lat="47.54950" lon="14.52316"><ele>2153</ele><time>2021-10-02T10:45:28Z</time></trkpt>
    <trkpt lat="47.54961" lon="14.52326"><ele>2159</ele><time>2021-10-02T10:45:47Z</time></trkpt>
    <trkpt lat="47.54972" lon="14.52317"><ele>2140</ele><time>2021-10-02T10:46:06Z</time></trkpt>
    <trkpt lat="47.54981" lon="14.52301"><ele>2138</ele><time>2021-10-02T10:46:44Z</time></trkpt>
    <trkpt lat="47.54997" lon="14.52296"><ele>2125</ele><time>2021-10-02T10:47:24Z</time></trkpt>
    <trkpt lat="47.55004" lon="14.52274"><ele>2111</ele><time>2021-10-02T10:48:01Z</time></trkpt>
    <trkpt lat="47.55013" lon="14.52262"><ele>2114</ele><time>2021-10-02T10:48:20Z</time></trkpt>
    <trkpt lat="47.55018" lon="14.52249"><ele>2108</ele><time>2021-10-02T10:48:39Z</time></trkpt>
    <trkpt lat="47.55031" lon="14.52230"><ele>2089</ele><time>2021-10-02T10:49:16Z</time></trkpt>
    <trkpt lat="47.55038" lon="14.52221"><ele>2095</ele><time>2021-10-02T10:49:34Z</time></trkpt>
    <trkpt lat="47.55042" lon="14.52206"><ele>2090</ele><time>2021-10-02T10:49:53Z</time></trkpt>
    <trkpt lat="47.55047" lon="14.52181"><ele>2075</ele><time>2021-10-02T10:50:35Z</time></trkpt>
    <trkpt lat="47.55058" lon="14.52168"><ele>2069</ele><time>2021-10-02T10:50:53Z</time></trkpt>
    <trkpt lat="47.55059" lon="14.52152"><ele>2064</ele><time>2021-10-02T10:51:12Z</time></trkpt>
    <trkpt lat="47.55059" lon="14.52131"><ele>2086</ele><time>2021-10-02T10:51:30Z</time></trkpt>
    <trkpt lat="47.55065" lon="14.52107"><ele>2077</ele><time>2021-10-02T10:51:49Z</time></trkpt>
    <trkpt lat="47.55066" lon="14.52087"><ele>2055</ele><time>2021-10-02T10:52:08Z</time></trkpt>
    <trkpt lat="47.55057" lon="14.52065"><ele>2048</ele><time>2021-10-02T10:53:16Z</time></trkpt>
    <trkpt lat="47.55056" lon="14.52046"><ele>2085</ele><time>2021-10-02T10:53:34Z</time></trkpt>
    <trkpt lat="47.55061" lon="14.52021"><ele>2043</ele><time>2021-10-02T10:53:53Z</time></trkpt>
    <trkpt lat="47.55068" lon="14.52010"><ele>2027</ele><time>2021-10-02T10:54:11Z</time></trkpt>
    <trkpt lat="47.55078" lon="14.51996"><ele>2023</ele><time>2021-10-02T10:54:30Z</time></trkpt>
    <trkpt lat="47.55074" lon="14.51977"><ele>2018</ele><time>2021-10-02T10:54:48Z</time></trkpt>
    <trkpt lat="47.55068" lon="14.51958"><ele>2013</ele><time>2021-10-02T10:55:07Z</time></trkpt>
    <trkpt lat="47.55074" lon="14.51933"><ele>2018</ele><time>2021-10-02T10:55:26Z</time></trkpt>
    <trkpt lat="47.55072" lon="14.51915"><ele>2014</ele><time>2021-10-02T10:55:44Z</time></trkpt>
    <trkpt lat="47.55074" lon="14.51892"><ele>2005</ele><time>2021-10-02T10:56:03Z</time></trkpt>
    <trkpt lat="47.55072" lon="14.51867"><ele>2002</ele><time>2021-10-02T10:56:22Z</time></trkpt>
    <trkpt lat="47.55071" lon="14.51848"><ele>2000</ele><time>2021-10-02T10:56:41Z</time></trkpt>
    <trkpt lat="47.55070" lon="14.51830"><ele>2004</ele><time>2021-10-02T10:56:59Z</time></trkpt>
    <trkpt lat="47.55072" lon="14.51811"><ele>1998</ele><time>2021-10-02T11:19:00Z</time></trkpt>
    <trkpt lat="47.55078" lon="14.51799"><ele>1995</ele><time>2021-10-02T11:19:19Z</time></trkpt>
    <trkpt lat="47.55087" lon="14.51786"><ele>1996</ele><time>2021-10-02T11:19:38Z</time></trkpt>
    <trkpt lat="47.55098" lon="14.51767"><ele>2011</ele><time>2021-10-02T11:19:57Z</time></trkpt>
    <trkpt lat="47.55101" lon="14.51753"><ele>2002</ele><time>2021-10-02T11:20:16Z</time></trkpt>
    <trkpt lat="47.55113" lon="14.51736"><ele>2006</ele><time>2021-10-02T11:20:54Z</time></trkpt>
    <trkpt lat="47.55124" lon="14.51738"><ele>2009</ele><time>2021-10-02T11:21:13Z</time></trkpt>
    <trkpt lat="47.55136" lon="14.51718"><ele>2015</ele><time>2021-10-02T11:21:51Z</time></trkpt>
    <trkpt lat="47.55147" lon="14.51708"><ele>2015</ele><time>2021-10-02T11:22:10Z</time></trkpt>
    <trkpt lat="47.55158" lon="14.51702"><ele>2018</ele><time>2021-10-02T11:22:29Z</time></trkpt>
    <trkpt lat="47.55171" lon="14.51696"><ele>2021</ele><time>2021-10-02T11:22:47Z</time></trkpt>
    <trkpt lat="47.55184" lon="14.51699"><ele>2022</ele><time>2021-10-02T11:23:06Z</time></trkpt>
    <trkpt lat="47.55195" lon="14.51695"><ele>2024</ele><time>2021-10-02T11:23:25Z</time></trkpt>
    <trkpt lat="47.55210" lon="14.51692"><ele>2035</ele><time>2021-10-02T11:24:02Z</time></trkpt>
    <trkpt lat="47.55219" lon="14.51683"><ele>2035</ele><time>2021-10-02T11:24:20Z</time></trkpt>
    <trkpt lat="47.55231" lon="14.51666"><ele>2038</ele><time>2021-10-02T11:24:58Z</time></trkpt>
    <trkpt lat="47.55241" lon="14.51663"><ele>2043</ele><time>2021-10-02T11:25:17Z</time></trkpt>
    <trkpt lat="47.55258" lon="14.51659"><ele>2051</ele><time>2021-10-02T11:26:14Z</time></trkpt>
    <trkpt lat="47.55270" lon="14.51656"><ele>2054</ele><time>2021-10-02T11:26:33Z</time></trkpt>
    <trkpt lat="47.55282" lon="14.51640"><ele>2058</ele><time>2021-10-02T11:27:14Z</time></trkpt>
    <trkpt lat="47.55293" lon="14.51623"><ele>2069</ele><time>2021-10-02T11:28:10Z</time></trkpt>
    <trkpt lat="47.55298" lon="14.51600"><ele>2073</ele><time>2021-10-02T11:28:58Z</time></trkpt>
    <trkpt lat="47.55300" lon="14.51576"><ele>2080</ele><time>2021-10-02T11:29:37Z</time></trkpt>
    <trkpt lat="47.55303" lon="14.51552"><ele>2083</ele><time>2021-10-02T11:30:18Z</time></trkpt>
    <trkpt lat="47.55295" lon="14.51518"><ele>2103</ele><time>2021-10-02T11:30:55Z</time></trkpt>
    <trkpt lat="47.55295" lon="14.51500"><ele>2103</ele><time>2021-10-02T11:31:14Z</time></trkpt>
    <trkpt lat="47.55295" lon="14.51470"><ele>2107</ele><time>2021-10-02T11:31:52Z</time></trkpt>
    <trkpt lat="47.55297" lon="14.51456"><ele>2107</ele><time>2021-10-02T11:32:10Z</time></trkpt>
    <trkpt lat="47.55300" lon="14.51432"><ele>2113</ele><time>2021-10-02T11:34:01Z</time></trkpt>
    <trkpt lat="47.55312" lon="14.51416"><ele>2108</ele><time>2021-10-02T11:35:34Z</time></trkpt>
    <trkpt lat="47.55316" lon="14.51397"><ele>2110</ele><time>2021-10-02T11:36:58Z</time></trkpt>
    <trkpt lat="47.55330" lon="14.51388"><ele>2074</ele><time>2021-10-02T11:38:56Z</time></trkpt>
    <trkpt lat="47.55337" lon="14.51368"><ele>2067</ele><time>2021-10-02T11:40:28Z</time></trkpt>
    <trkpt lat="47.55338" lon="14.51333"><ele>2062</ele><time>2021-10-02T11:41:06Z</time></trkpt>
    <trkpt lat="47.55335" lon="14.51318"><ele>2060</ele><time>2021-10-02T11:41:24Z</time></trkpt>
    <trkpt lat="47.55330" lon="14.51306"><ele>2055</ele><time>2021-10-02T11:41:43Z</time></trkpt>
    <trkpt lat="47.55333" lon="14.51287"><ele>2049</ele><time>2021-10-02T11:42:02Z</time></trkpt>
    <trkpt lat="47.55336" lon="14.51271"><ele>2041</ele><time>2021-10-02T11:42:21Z</time></trkpt>
    <trkpt lat="47.55335" lon="14.51250"><ele>2043</ele><time>2021-10-02T11:43:20Z</time></trkpt>
    <trkpt lat="47.55331" lon="14.51227"><ele>2042</ele><time>2021-10-02T11:44:12Z</time></trkpt>
    <trkpt lat="47.55336" lon="14.51203"><ele>2036</ele><time>2021-10-02T11:44:49Z</time></trkpt>
    <trkpt lat="47.55339" lon="14.51181"><ele>2040</ele><time>2021-10-02T11:45:33Z</time></trkpt>
    <trkpt lat="47.55346" lon="14.51170"><ele>2045</ele><time>2021-10-02T11:45:51Z</time></trkpt>
    <trkpt lat="47.55348" lon="14.51145"><ele>2043</ele><time>2021-10-02T11:46:31Z</time></trkpt>
    <trkpt lat="47.55348" lon="14.51121"><ele>2046</ele><time>2021-10-02T11:47:24Z</time></trkpt>
    <trkpt lat="47.55348" lon="14.51107"><ele>2044</ele><time>2021-10-02T11:47:42Z</time></trkpt>
    <trkpt lat="47.55346" lon="14.51092"><ele>2039</ele><time>2021-10-02T11:48:01Z</time></trkpt>
    <trkpt lat="47.55345" lon="14.51060"><ele>2031</ele><time>2021-10-02T11:48:40Z</time></trkpt>
    <trkpt lat="47.55349" lon="14.51043"><ele>2030</ele><time>2021-10-02T11:48:59Z</time></trkpt>
    <trkpt lat="47.55354" lon="14.51019"><ele>2031</ele><time>2021-10-02T11:49:18Z</time></trkpt>
    <trkpt lat="47.55357" lon="14.51004"><ele>2027</ele><time>2021-10-02T11:49:36Z</time></trkpt>
    <trkpt lat="47.55359" lon="14.50983"><ele>2026</ele><time>2021-10-02T11:49:55Z</time></trkpt>
    <trkpt lat="47.55363" lon="14.50961"><ele>2025</ele><time>2021-10-02T11:50:13Z</time></trkpt>
    <trkpt lat="47.55365" lon="14.50945"><ele>2025</ele><time>2021-10-02T11:50:32Z</time></trkpt>
    <trkpt lat="47.55367" lon="14.50926"><ele>2018</ele><time>2021-10-02T11:50:50Z</time></trkpt>
    <trkpt lat="47.55376" lon="14.50926"><ele>2013</ele><time>2021-10-02T11:51:09Z</time></trkpt>
    <trkpt lat="47.55365" lon="14.50901"><ele>2010</ele><time>2021-10-02T11:56:54Z</time></trkpt>
    <trkpt lat="47.55361" lon="14.50878"><ele>2006</ele><time>2021-10-02T11:57:45Z</time></trkpt>
    <trkpt lat="47.55358" lon="14.50853"><ele>2000</ele><time>2021-10-02T11:58:23Z</time></trkpt>
    <trkpt lat="47.55352" lon="14.50825"><ele>1988</ele><time>2021-10-02T11:59:01Z</time></trkpt>
    <trkpt lat="47.55343" lon="14.50804"><ele>2027</ele><time>2021-10-02T12:00:45Z</time></trkpt>
    <trkpt lat="47.55330" lon="14.50790"><ele>1994</ele><time>2021-10-02T12:01:27Z</time></trkpt>
    <trkpt lat="47.55316" lon="14.50781"><ele>1997</ele><time>2021-10-02T12:01:46Z</time></trkpt>
    <trkpt lat="47.55301" lon="14.50767"><ele>2012</ele><time>2021-10-02T12:02:05Z</time></trkpt>
    <trkpt lat="47.55295" lon="14.50756"><ele>2026</ele><time>2021-10-02T12:02:23Z</time></trkpt>
    <trkpt lat="47.55287" lon="14.50745"><ele>1996</ele><time>2021-10-02T12:02:42Z</time></trkpt>
    <trkpt lat="47.55279" lon="14.50733"><ele>1996</ele><time>2021-10-02T12:03:01Z</time></trkpt>
    <trkpt lat="47.55269" lon="14.50718"><ele>2003</ele><time>2021-10-02T12:03:19Z</time></trkpt>
    <trkpt lat="47.55253" lon="14.50701"><ele>2006</ele><time>2021-10-02T12:03:58Z</time></trkpt>
    <trkpt lat="47.55247" lon="14.50686"><ele>2006</ele><time>2021-10-02T12:04:16Z</time></trkpt>
    <trkpt lat="47.55240" lon="14.50665"><ele>2000</ele><time>2021-10-02T12:04:35Z</time></trkpt>
    <trkpt lat="47.55230" lon="14.50644"><ele>1992</ele><time>2021-10-02T12:04:54Z</time></trkpt>
    <trkpt lat="47.55224" lon="14.50621"><ele>1998</ele><time>2021-10-02T12:05:12Z</time></trkpt>
    <trkpt lat="47.55214" lon="14.50601"><ele>1990</ele><time>2021-10-02T12:05:31Z</time></trkpt>
    <trkpt lat="47.55206" lon="14.50579"><ele>2007</ele><time>2021-10-02T12:05:50Z</time></trkpt>
    <trkpt lat="47.55196" lon="14.50566"><ele>1996</ele><time>2021-10-02T12:06:09Z</time></trkpt>
    <trkpt lat="47.55188" lon="14.50545"><ele>2001</ele><time>2021-10-02T12:06:28Z</time></trkpt>
    <trkpt lat="47.55183" lon="14.50529"><ele>1994</ele><time>2021-10-02T12:06:46Z</time></trkpt>
    <trkpt lat="47.55174" lon="14.50506"><ele>2033</ele><time>2021-10-02T12:07:05Z</time></trkpt>
    <trkpt lat="47.55167" lon="14.50484"><ele>2004</ele><time>2021-10-02T12:07:24Z</time></trkpt>
    <trkpt lat="47.55162" lon="14.50471"><ele>1999</ele><time>2021-10-02T12:07:43Z</time></trkpt>
    <trkpt lat="47.55151" lon="14.50451"><ele>2039</ele><time>2021-10-02T12:08:20Z</time></trkpt>
    <trkpt lat="47.55137" lon="14.50438"><ele>2045</ele><time>2021-10-02T12:09:11Z</time></trkpt>
    <trkpt lat="47.55124" lon="14.50424"><ele>2021</ele><time>2021-10-02T12:10:33Z</time></trkpt>
    <trkpt lat="47.55118" lon="14.50398"><ele>2034</ele><time>2021-10-02T12:11:09Z</time></trkpt>
    <trkpt lat="47.55113" lon="14.50363"><ele>2032</ele><time>2021-10-02T12:13:26Z</time></trkpt>
    <trkpt lat="47.55110" lon="14.50337"><ele>2050</ele><time>2021-10-02T12:13:45Z</time></trkpt>
    <trkpt lat="47.55115" lon="14.50314"><ele>2058</ele><time>2021-10-02T12:14:33Z</time></trkpt>
    <trkpt lat="47.55116" lon="14.50290"><ele>2025</ele><time>2021-10-02T12:14:52Z</time></trkpt>
    <trkpt lat="47.55116" lon="14.50268"><ele>2053</ele><time>2021-10-02T12:15:10Z</time></trkpt>
    <trkpt lat="47.55118" lon="14.50247"><ele>2044</ele><time>2021-10-02T12:15:29Z</time></trkpt>
    <trkpt lat="47.55123" lon="14.50221"><ele>2013</ele><time>2021-10-02T12:15:47Z</time></trkpt>
    <trkpt lat="47.55130" lon="14.50203"><ele>2029</ele><time>2021-10-02T12:16:06Z</time></trkpt>
    <trkpt lat="47.55138" lon="14.50184"><ele>2013</ele><time>2021-10-02T12:16:24Z</time></trkpt>
    <trkpt lat="47.55116" lon="14.50194"><ele>2014</ele><time>2021-10-02T12:19:16Z</time></trkpt>
    <trkpt lat="47.55100" lon="14.50203"><ele>2012</ele><time>2021-10-02T12:19:35Z</time></trkpt>
    <trkpt lat="47.55089" lon="14.50198"><ele>2022</ele><time>2021-10-02T12:19:54Z</time></trkpt>
    <trkpt lat="47.55081" lon="14.50191"><ele>2032</ele><time>2021-10-02T12:20:13Z</time></trkpt>
    <trkpt lat="47.55070" lon="14.50194"><ele>1997</ele><time>2021-10-02T12:20:31Z</time></trkpt>
    <trkpt lat="47.55064" lon="14.50206"><ele>1993</ele><time>2021-10-02T12:20:49Z</time></trkpt>
    <trkpt lat="47.55055" lon="14.50210"><ele>2017</ele><time>2021-10-02T12:21:08Z</time></trkpt>
    <trkpt lat="47.55048" lon="14.50226"><ele>1987</ele><time>2021-10-02T12:21:27Z</time></trkpt>
    <trkpt lat="47.55035" lon="14.50242"><ele>1969</ele><time>2021-10-02T12:22:03Z</time></trkpt>
    <trkpt lat="47.55026" lon="14.50253"><ele>1970</ele><time>2021-10-02T12:22:22Z</time></trkpt>
    <trkpt lat="47.55010" lon="14.50253"><ele>1960</ele><time>2021-10-02T12:23:00Z</time></trkpt>
    <trkpt lat="47.54994" lon="14.50244"><ele>2019</ele><time>2021-10-02T12:23:39Z</time></trkpt>
    <trkpt lat="47.54984" lon="14.50246"><ele>1943</ele><time>2021-10-02T12:23:57Z</time></trkpt>
    <trkpt lat="47.54969" lon="14.50239"><ele>1929</ele><time>2021-10-02T12:24:47Z</time></trkpt>
    <trkpt lat="47.54959" lon="14.50241"><ele>1937</ele><time>2021-10-02T12:25:06Z</time></trkpt>
    <trkpt lat="47.54940" lon="14.50237"><ele>1930</ele><time>2021-10-02T12:25:50Z</time></trkpt>
    <trkpt lat="47.54925" lon="14.50228"><ele>1906</ele><time>2021-10-02T12:26:31Z</time></trkpt>
    <trkpt lat="47.54912" lon="14.50211"><ele>1897</ele><time>2021-10-02T12:27:10Z</time></trkpt>
    <trkpt lat="47.54896" lon="14.50196"><ele>1888</ele><time>2021-10-02T12:27:47Z</time></trkpt>
    <trkpt lat="47.54887" lon="14.50193"><ele>1882</ele><time>2021-10-02T12:28:05Z</time></trkpt>
    <trkpt lat="47.54877" lon="14.50186"><ele>1880</ele><time>2021-10-02T12:28:24Z</time></trkpt>
    <trkpt lat="47.54858" lon="14.50176"><ele>1871</ele><time>2021-10-02T12:29:08Z</time></trkpt>
    <trkpt lat="47.54842" lon="14.50176"><ele>1870</ele><time>2021-10-02T12:29:49Z</time></trkpt>
    <trkpt lat="47.54827" lon="14.50177"><ele>1861</ele><time>2021-10-02T12:30:29Z</time></trkpt>
    <trkpt lat="47.54814" lon="14.50153"><ele>1845</ele><time>2021-10-02T12:31:10Z</time></trkpt>
    <trkpt lat="47.54801" lon="14.50141"><ele>1837</ele><time>2021-10-02T12:31:47Z</time></trkpt>
    <trkpt lat="47.54792" lon="14.50139"><ele>1835</ele><time>2021-10-02T12:32:06Z</time></trkpt>
    <trkpt lat="47.54786" lon="14.50122"><ele>1826</ele><time>2021-10-02T12:32:25Z</time></trkpt>
    <trkpt lat="47.54778" lon="14.50113"><ele>1887</ele><time>2021-10-02T12:32:44Z</time></trkpt>
    <trkpt lat="47.54764" lon="14.50132"><ele>1817</ele><time>2021-10-02T12:33:26Z</time></trkpt>
    <trkpt lat="47.54752" lon="14.50129"><ele>1819</ele><time>2021-10-02T12:33:44Z</time></trkpt>
    <trkpt lat="47.54744" lon="14.50137"><ele>1802</ele><time>2021-10-02T12:34:03Z</time></trkpt>
    <trkpt lat="47.54736" lon="14.50149"><ele>1805</ele><time>2021-10-02T12:34:21Z</time></trkpt>
    <trkpt lat="47.54727" lon="14.50148"><ele>1798</ele><time>2021-10-02T12:34:39Z</time></trkpt>
    <trkpt lat="47.54718" lon="14.50137"><ele>1783</ele><time>2021-10-02T12:34:57Z</time></trkpt>
    <trkpt lat="47.54708" lon="14.50129"><ele>1789</ele><time>2021-10-02T12:35:16Z</time></trkpt>
    <trkpt lat="47.54699" lon="14.50124"><ele>1775</ele><time>2021-10-02T12:35:34Z</time></trkpt>
    <trkpt lat="47.54687" lon="14.50119"><ele>1822</ele><time>2021-10-02T12:35:53Z</time></trkpt>
    <trkpt lat="47.54679" lon="14.50111"><ele>1804</ele><time>2021-10-02T12:36:11Z</time></trkpt>
    <trkpt lat="47.54668" lon="14.50104"><ele>1798</ele><time>2021-10-02T12:36:29Z</time></trkpt>
    <trkpt lat="47.54647" lon="14.50092"><ele>1800</ele><time>2021-10-02T12:37:06Z</time></trkpt>
    <trkpt lat="47.54639" lon="14.50081"><ele>1814</ele><time>2021-10-02T12:37:25Z</time></trkpt>
    <trkpt lat="47.54629" lon="14.50052"><ele>1802</ele><time>2021-10-02T12:38:12Z</time></trkpt>
    <trkpt lat="47.54613" lon="14.50047"><ele>1762</ele><time>2021-10-02T12:38:30Z</time></trkpt>
    <trkpt lat="47.54599" lon="14.50036"><ele>1749</ele><time>2021-10-02T12:38:48Z</time></trkpt>
    <trkpt lat="47.54588" lon="14.50020"><ele>1782</ele><time>2021-10-02T12:39:07Z</time></trkpt>
    <trkpt lat="47.54578" lon="14.50000"><ele>1770</ele><time>2021-10-02T12:39:25Z</time></trkpt>
    <trkpt lat="47.54568" lon="14.50000"><ele>1786</ele><time>2021-10-02T12:39:43Z</time></trkpt>
    <trkpt lat="47.54555" lon="14.49987"><ele>1774</ele><time>2021-10-02T12:40:02Z</time></trkpt>
    <trkpt lat="47.54541" lon="14.49985"><ele>1713</ele><time>2021-10-02T12:40:20Z</time></trkpt>
    <trkpt lat="47.54530" lon="14.49969"><ele>1714</ele><time>2021-10-02T12:40:39Z</time></trkpt>
    <trkpt lat="47.54518" lon="14.49967"><ele>1704</ele><time>2021-10-02T12:40:57Z</time></trkpt>
    <trkpt lat="47.54507" lon="14.49935"><ele>1699</ele><time>2021-10-02T12:41:16Z</time></trkpt>
    <trkpt lat="47.54490" lon="14.49916"><ele>1694</ele><time>2021-10-02T12:41:35Z</time></trkpt>
    <trkpt lat="47.54475" lon="14.49921"><ele>1946</ele><time>2021-10-02T12:41:54Z</time></trkpt>
    <trkpt lat="47.54472" lon="14.49952"><ele>1698</ele><time>2021-10-02T12:42:13Z</time></trkpt>
    <trkpt lat="47.54477" lon="14.49968"><ele>1698</ele><time>2021-10-02T12:42:32Z</time></trkpt>
    <trkpt lat="47.54486" lon="14.49986"><ele>1684</ele><time>2021-10-02T12:42:50Z</time></trkpt>
    <trkpt lat="47.54492" lon="14.50005"><ele>1679</ele><time>2021-10-02T12:43:08Z</time></trkpt>
    <trkpt lat="47.54489" lon="14.50027"><ele>1679</ele><time>2021-10-02T12:43:27Z</time></trkpt>
    <trkpt lat="47.54489" lon="14.50044"><ele>1678</ele><time>2021-10-02T12:43:45Z</time></trkpt>
    <trkpt lat="47.54475" lon="14.50065"><ele>1675</ele><time>2021-10-02T12:44:28Z</time></trkpt>
    <trkpt lat="47.54468" lon="14.50080"><ele>1675</ele><time>2021-10-02T12:44:46Z</time></trkpt>
    <trkpt lat="47.54468" lon="14.50095"><ele>1668</ele><time>2021-10-02T12:45:04Z</time></trkpt>
    <trkpt lat="47.54465" lon="14.50119"><ele>1660</ele><time>2021-10-02T12:45:22Z</time></trkpt>
    <trkpt lat="47.54457" lon="14.50144"><ele>1655</ele><time>2021-10-02T12:45:41Z</time></trkpt>
    <trkpt lat="47.54451" lon="14.50155"><ele>1654</ele><time>2021-10-02T12:45:59Z</time></trkpt>
    <trkpt lat="47.54436" lon="14.50173"><ele>1710</ele><time>2021-10-02T12:46:51Z</time></trkpt>
    <trkpt lat="47.54437" lon="14.50189"><ele>1646</ele><time>2021-10-02T12:47:10Z</time></trkpt>
    <trkpt lat="47.54428" lon="14.50210"><ele>1635</ele><time>2021-10-02T12:48:13Z</time></trkpt>
    <trkpt lat="47.54414" lon="14.50221"><ele>1610</ele><time>2021-10-02T12:49:20Z</time></trkpt>
    <trkpt lat="47.54405" lon="14.50221"><ele>1604</ele><time>2021-10-02T12:49:38Z</time></trkpt>
    <trkpt lat="47.54394" lon="14.50220"><ele>1602</ele><time>2021-10-02T12:49:56Z</time></trkpt>
    <trkpt lat="47.54380" lon="14.50221"><ele>1605</ele><time>2021-10-02T12:50:15Z</time></trkpt>
    <trkpt lat="47.54370" lon="14.50210"><ele>1604</ele><time>2021-10-02T12:50:33Z</time></trkpt>
    <trkpt lat="47.54354" lon="14.50216"><ele>1591</ele><time>2021-10-02T12:51:26Z</time></trkpt>
    <trkpt lat="47.54339" lon="14.50206"><ele>1583</ele><time>2021-10-02T12:52:04Z</time></trkpt>
    <trkpt lat="47.54326" lon="14.50189"><ele>1569</ele><time>2021-10-02T12:52:59Z</time></trkpt>
    <trkpt lat="47.54316" lon="14.50206"><ele>1562</ele><time>2021-10-02T12:53:35Z</time></trkpt>
    <trkpt lat="47.54322" lon="14.50228"><ele>1547</ele><time>2021-10-02T12:54:30Z</time></trkpt>
    <trkpt lat="47.54329" lon="14.50239"><ele>1542</ele><time>2021-10-02T12:54:48Z</time></trkpt>
    <trkpt lat="47.54327" lon="14.50263"><ele>1520</ele><time>2021-10-02T12:56:19Z</time></trkpt>
    <trkpt lat="47.54333" lon="14.50286"><ele>1516</ele><time>2021-10-02T12:57:15Z</time></trkpt>
    <trkpt lat="47.54342" lon="14.50286"><ele>1504</ele><time>2021-10-02T12:57:33Z</time></trkpt>
    <trkpt lat="47.54351" lon="14.50306"><ele>1505</ele><time>2021-10-02T12:57:51Z</time></trkpt>
    <trkpt lat="47.54349" lon="14.50331"><ele>1493</ele><time>2021-10-02T12:58:28Z</time></trkpt>
    <trkpt lat="47.54354" lon="14.50348"><ele>1490</ele><time>2021-10-02T12:58:46Z</time></trkpt>
    <trkpt lat="47.54362" lon="14.50358"><ele>1492</ele><time>2021-10-02T12:59:05Z</time></trkpt>
    <trkpt lat="47.54369" lon="14.50380"><ele>1479</ele><time>2021-10-02T12:59:48Z</time></trkpt>
    <trkpt lat="47.54372" lon="14.50397"><ele>1479</ele><time>2021-10-02T13:00:07Z</time></trkpt>
    <trkpt lat="47.54380" lon="14.50424"><ele>1479</ele><time>2021-10-02T13:00:26Z</time></trkpt>
    <trkpt lat="47.54376" lon="14.50436"><ele>1478</ele><time>2021-10-02T13:00:45Z</time></trkpt>
    <trkpt lat="47.54375" lon="14.50455"><ele>1475</ele><time>2021-10-02T13:01:03Z</time></trkpt>
    <trkpt lat="47.54369" lon="14.50477"><ele>1480</ele><time>2021-10-02T13:01:22Z</time></trkpt>
    <trkpt lat="47.54376" lon="14.50499"><ele>1480</ele><time>2021-10-02T13:01:40Z</time></trkpt>
    <trkpt lat="47.54376" lon="14.50513"><ele>1476</ele><time>2021-10-02T13:01:58Z</time></trkpt>
    <trkpt lat="47.54384" lon="14.50538"><ele>1472</ele><time>2021-10-02T13:02:35Z</time></trkpt>
    <trkpt lat="47.54388" lon="14.50561"><ele>1472</ele><time>2021-10-02T13:02:54Z</time></trkpt>
    <trkpt lat="47.54392" lon="14.50594"><ele>1467</ele><time>2021-10-02T13:03:12Z</time></trkpt>
    <trkpt lat="47.54390" lon="14.50618"><ele>1466</ele><time>2021-10-02T13:03:30Z</time></trkpt>
    <trkpt lat="47.54391" lon="14.50647"><ele>1462</ele><time>2021-10-02T13:03:49Z</time></trkpt>
    <trkpt lat="47.54384" lon="14.50673"><ele>1461</ele><time>2021-10-02T13:04:07Z</time></trkpt>
    <trkpt lat="47.54393" lon="14.50692"><ele>1460</ele><time>2021-10-02T13:04:26Z</time></trkpt>
    <trkpt lat="47.54401" lon="14.50705"><ele>1459</ele><time>2021-10-02T13:04:44Z</time></trkpt>
    <trkpt lat="47.54408" lon="14.50715"><ele>1463</ele><time>2021-10-02T13:05:03Z</time></trkpt>
    <trkpt lat="47.54382" lon="14.50721"><ele>1467</ele><time>2021-10-02T13:05:51Z</time></trkpt>
    <trkpt lat="47.54374" lon="14.50733"><ele>1461</ele><time>2021-10-02T13:06:10Z</time></trkpt>
    <trkpt lat="47.54359" lon="14.50740"><ele>1461</ele><time>2021-10-02T13:06:28Z</time></trkpt>
    <trkpt lat="47.54343" lon="14.50746"><ele>1445</ele><time>2021-10-02T13:07:06Z</time></trkpt>
    <trkpt lat="47.54336" lon="14.50758"><ele>1436</ele><time>2021-10-02T13:08:02Z</time></trkpt>
    <trkpt lat="47.54324" lon="14.50763"><ele>1434</ele><time>2021-10-02T13:08:21Z</time></trkpt>
    <trkpt lat="47.54305" lon="14.50768"><ele>1434</ele><time>2021-10-02T13:08:59Z</time></trkpt>
    <trkpt lat="47.54292" lon="14.50771"><ele>1425</ele><time>2021-10-02T13:09:17Z</time></trkpt>
    <trkpt lat="47.54278" lon="14.50768"><ele>1423</ele><time>2021-10-02T13:09:35Z</time></trkpt>
    <trkpt lat="47.54267" lon="14.50762"><ele>1418</ele><time>2021-10-02T13:09:54Z</time></trkpt>
    <trkpt lat="47.54252" lon="14.50743"><ele>1414</ele><time>2021-10-02T13:10:13Z</time></trkpt>
    <trkpt lat="47.54240" lon="14.50725"><ele>1405</ele><time>2021-10-02T13:10:32Z</time></trkpt>
    <trkpt lat="47.54229" lon="14.50758"><ele>1395</ele><time>2021-10-02T13:11:14Z</time></trkpt>
    <trkpt lat="47.54226" lon="14.50772"><ele>1396</ele><time>2021-10-02T13:11:32Z</time></trkpt>
    <trkpt lat="47.54224" lon="14.50797"><ele>1403</ele><time>2021-10-02T13:11:51Z</time></trkpt>
    <trkpt lat="47.54217" lon="14.50827"><ele>1406</ele><time>2021-10-02T13:12:10Z</time></trkpt>
    <trkpt lat="47.54205" lon="14.50842"><ele>1410</ele><time>2021-10-02T13:12:29Z</time></trkpt>
    <trkpt lat="47.54188" lon="14.50845"><ele>1418</ele><time>2021-10-02T13:12:48Z</time></trkpt>
    <trkpt lat="47.54171" lon="14.50853"><ele>1420</ele><time>2021-10-02T13:13:07Z</time></trkpt>
    <trkpt lat="47.54155" lon="14.50864"><ele>1424</ele><time>2021-10-02T13:13:25Z</time></trkpt>
    <trkpt lat="47.54136" lon="14.50858"><ele>1427</ele><time>2021-10-02T13:13:43Z</time></trkpt>
    <trkpt lat="47.54120" lon="14.50846"><ele>1434</ele><time>2021-10-02T13:14:01Z</time></trkpt>
    <trkpt lat="47.54108" lon="14.50834"><ele>1435</ele><time>2021-10-02T13:14:20Z</time></trkpt>
    <trkpt lat="47.54092" lon="14.50836"><ele>1434</ele><time>2021-10-02T13:14:38Z</time></trkpt>
    <trkpt lat="47.54081" lon="14.50852"><ele>1432</ele><time>2021-10-02T13:14:56Z</time></trkpt>
    <trkpt lat="47.54079" lon="14.50872"><ele>1429</ele><time>2021-10-02T13:15:14Z</time></trkpt>
    <trkpt lat="47.54067" lon="14.50891"><ele>1431</ele><time>2021-10-02T13:15:32Z</time></trkpt>
    <trkpt lat="47.54062" lon="14.50914"><ele>1433</ele><time>2021-10-02T13:15:51Z</time></trkpt>
    <trkpt lat="47.54053" lon="14.50935"><ele>1446</ele><time>2021-10-02T13:16:10Z</time></trkpt>
    <trkpt lat="47.54047" lon="14.50953"><ele>1439</ele><time>2021-10-02T13:16:28Z</time></trkpt>
    <trkpt lat="47.54039" lon="14.50977"><ele>1448</ele><time>2021-10-02T13:16:47Z</time></trkpt>
    <trkpt lat="47.54030" lon="14.50999"><ele>1446</ele><time>2021-10-02T13:17:06Z</time></trkpt>
    <trkpt lat="47.54022" lon="14.51020"><ele>1449</ele><time>2021-10-02T13:17:24Z</time></trkpt>
    <trkpt lat="47.54014" lon="14.51042"><ele>1447</ele><time>2021-10-02T13:17:43Z</time></trkpt>
    <trkpt lat="47.54001" lon="14.51053"><ele>1456</ele><time>2021-10-02T13:18:01Z</time></trkpt>
    <trkpt lat="47.53985" lon="14.51066"><ele>1461</ele><time>2021-10-02T13:18:19Z</time></trkpt>
    <trkpt lat="47.53976" lon="14.51071"><ele>1465</ele><time>2021-10-02T13:18:38Z</time></trkpt>
    <trkpt lat="47.53968" lon="14.51079"><ele>1468</ele><time>2021-10-02T13:18:57Z</time></trkpt>
    <trkpt lat="47.53958" lon="14.51095"><ele>1462</ele><time>2021-10-02T13:19:15Z</time></trkpt>
    <trkpt lat="47.53951" lon="14.51112"><ele>1460</ele><time>2021-10-02T13:19:34Z</time></trkpt>
    <trkpt lat="47.53942" lon="14.51127"><ele>1462</ele><time>2021-10-02T13:19:52Z</time></trkpt>
    <trkpt lat="47.53930" lon="14.51146"><ele>1464</ele><time>2021-10-02T13:20:10Z</time></trkpt>
    <trkpt lat="47.53920" lon="14.51170"><ele>1461</ele><time>2021-10-02T13:20:29Z</time></trkpt>
    <trkpt lat="47.53916" lon="14.51200"><ele>1459</ele><time>2021-10-02T13:20:48Z</time></trkpt>
    <trkpt lat="47.53911" lon="14.51221"><ele>1461</ele><time>2021-10-02T13:21:06Z</time></trkpt>
    <trkpt lat="47.53909" lon="14.51245"><ele>1471</ele><time>2021-10-02T13:22:13Z</time></trkpt>
    <trkpt lat="47.53909" lon="14.51259"><ele>1469</ele><time>2021-10-02T13:22:32Z</time></trkpt>
    <trkpt lat="47.53908" lon="14.51265"><ele>1482</ele><time>2021-10-02T13:24:01Z</time></trkpt>
  </trkseg>
</trk>
</gpx>