<?xml version="1.0" encoding="UTF-8"?>
<gpx version="1.1" creator="GPX-Pro" xmlns="http://www.topografix.com/GPX/1/1">
<trk>
  <name>Ski_ToterMann</name>
  <trkseg>
    <trkpt lat="47.62985" lon="14.31107"><ele>889</ele><time>2021-12-08T07:46:38Z</time></trkpt>
    <trkpt lat="47.62992" lon="14.31092"><ele>880</ele><time>2021-12-08T07:46:51Z</time></trkpt>
    <trkpt lat="47.63000" lon="14.31076"><ele>880</ele><time>2021-12-08T07:47:09Z</time></trkpt>
    <trkpt lat="47.63005" lon="14.31054"><ele>885</ele><time>2021-12-08T07:47:27Z</time></trkpt>
    <trkpt lat="47.63012" lon="14.31033"><ele>886</ele><time>2021-12-08T07:47:46Z</time></trkpt>
    <trkpt lat="47.63015" lon="14.31013"><ele>889</ele><time>2021-12-08T07:48:04Z</time></trkpt>
    <trkpt lat="47.63014" lon="14.30995"><ele>893</ele><time>2021-12-08T07:48:22Z</time></trkpt>
    <trkpt lat="47.63022" lon="14.30981"><ele>897</ele><time>2021-12-08T07:48:41Z</time></trkpt>
    <trkpt lat="47.63036" lon="14.30975"><ele>902</ele><time>2021-12-08T07:48:59Z</time></trkpt>
    <trkpt lat="47.63047" lon="14.30965"><ele>902</ele><time>2021-12-08T07:49:18Z</time></trkpt>
    <trkpt lat="47.63052" lon="14.30946"><ele>904</ele><time>2021-12-08T07:49:37Z</time></trkpt>
    <trkpt lat="47.63063" lon="14.30932"><ele>906</ele><time>2021-12-08T07:49:56Z</time></trkpt>
    <trkpt lat="47.63076" lon="14.30924"><ele>908</ele><time>2021-12-08T07:50:14Z</time></trkpt>
    <trkpt lat="47.63092" lon="14.30923"><ele>915</ele><time>2021-12-08T07:50:32Z</time></trkpt>
    <trkpt lat="47.63108" lon="14.30937"><ele>918</ele><time>2021-12-08T07:50:51Z</time></trkpt>
    <trkpt lat="47.63121" lon="14.30936"><ele>921</ele><time>2021-12-08T07:51:10Z</time></trkpt>
    <trkpt lat="47.63137" lon="14.30940"><ele>924</ele><time>2021-12-08T07:51:29Z</time></trkpt>
    <trkpt lat="47.63154" lon="14.30949"><ele>925</ele><time>2021-12-08T07:51:47Z</time></trkpt>
    <trkpt lat="47.63170" lon="14.30954"><ele>925</ele><time>2021-12-08T07:52:06Z</time></trkpt>
    <trkpt lat="47.63186" lon="14.30955"><ele>923</ele><time>2021-12-08T07:52:25Z</time></trkpt>
    <trkpt lat="47.63204" lon="14.30955"><ele>928</ele><time>2021-12-08T07:52:43Z</time></trkpt>
    <trkpt lat="47.63222" lon="14.30948"><ele>929</ele><time>2021-12-08T07:53:02Z</time></trkpt>
    <trkpt lat="47.63231" lon="14.30939"><ele>932</ele><time>2021-12-08T07:53:20Z</time></trkpt>
    <trkpt lat="47.63243" lon="14.30929"><ele>941</ele><time>2021-12-08T07:53:38Z</time></trkpt>
    <trkpt lat="47.63256" lon="14.30919"><ele>941</ele><time>2021-12-08T07:53:57Z</time></trkpt>
    <trkpt lat="47.63268" lon="14.30907"><ele>941</ele><time>2021-12-08T07:54:15Z</time></trkpt>
    <trkpt lat="47.63275" lon="14.30894"><ele>944</ele><time>2021-12-08T07:54:33Z</time></trkpt>
    <trkpt lat="47.63285" lon="14.30879"><ele>950</ele><time>2021-12-08T07:54:52Z</time></trkpt>
    <trkpt lat="47.63294" lon="14.30863"><ele>959</ele><time>2021-12-08T07:55:10Z</time></trkpt>
    <trkpt lat="47.63304" lon="14.30854"><ele>958</ele><time>2021-12-08T07:55:29Z</time></trkpt>
    <trkpt lat="47.63315" lon="14.30850"><ele>957</ele><time>2021-12-08T07:55:48Z</time></trkpt>
    <trkpt lat="47.63333" lon="14.30853"><ele>958</ele><time>2021-12-08T07:56:06Z</time></trkpt>
    <trkpt lat="47.63347" lon="14.30854"><ele>960</ele><time>2021-12-08T07:56:24Z</time></trkpt>
    <trkpt lat="47.63362" lon="14.30852"><ele>960</ele><time>2021-12-08T07:56:43Z</time></trkpt>
    <trkpt lat="47.63374" lon="14.30845"><ele>962</ele><time>2021-12-08T07:57:01Z</time></trkpt>
    <trkpt lat="47.63385" lon="14.30837"><ele>964</ele><time>2021-12-08T07:57:20Z</time></trkpt>
    <trkpt lat="47.63393" lon="14.30831"><ele>960</ele><time>2021-12-08T07:57:39Z</time></trkpt>
    <trkpt lat="47.63412" lon="14.30829"><ele>967</ele><time>2021-12-08T07:57:58Z</time></trkpt>
    <trkpt lat="47.63427" lon="14.30826"><ele>968</ele><time>2021-12-08T07:58:16Z</time></trkpt>
    <trkpt lat="47.63445" lon="14.30822"><ele>965</ele><time>2021-12-08T07:58:34Z</time></trkpt>
    <trkpt lat="47.63460" lon="14.30808"><ele>971</ele><time>2021-12-08T07:58:53Z</time></trkpt>
    <trkpt lat="47.63469" lon="14.30780"><ele>978</ele><time>2021-12-08T07:59:32Z</time></trkpt>
    <trkpt lat="47.63475" lon="14.30767"><ele>982</ele><time>2021-12-08T07:59:51Z</time></trkpt>
    <trkpt lat="47.63490" lon="14.30756"><ele>990</ele><time>2021-12-08T08:00:09Z</time></trkpt>
    <trkpt lat="47.63502" lon="14.30747"><ele>993</ele><time>2021-12-08T08:00:27Z</time></trkpt>
    <trkpt lat="47.63514" lon="14.30743"><ele>999</ele><time>2021-12-08T08:00:45Z</time></trkpt>
    <trkpt lat="47.63530" lon="14.30746"><ele>1008</ele><time>2021-12-08T08:01:04Z</time></trkpt>
    <trkpt lat="47.63547" lon="14.30745"><ele>1013</ele><time>2021-12-08T08:01:23Z</time></trkpt>
    <trkpt lat="47.63562" lon="14.30738"><ele>1006</ele><time>2021-12-08T08:01:42Z</time></trkpt>
    <trkpt lat="47.63577" lon="14.30727"><ele>1000</ele><time>2021-12-08T08:02:00Z</time></trkpt>
    <trkpt lat="47.63586" lon="14.30712"><ele>998</ele><time>2021-12-08T08:02:18Z</time></trkpt>
    <trkpt lat="47.63603" lon="14.30702"><ele>952</ele><time>2021-12-08T08:02:36Z</time></trkpt>
    <trkpt lat="47.63624" lon="14.30692"><ele>997</ele><time>2021-12-08T08:02:55Z</time></trkpt>
    <trkpt lat="47.63642" lon="14.30685"><ele>1010</ele><time>2021-12-08T08:03:13Z</time></trkpt>
    <trkpt lat="47.63656" lon="14.30675"><ele>1014</ele><time>2021-12-08T08:03:32Z</time></trkpt>
    <trkpt lat="47.63673" lon="14.30659"><ele>1003</ele><time>2021-12-08T08:03:51Z</time></trkpt>
    <trkpt lat="47.63680" lon="14.30639"><ele>982</ele><time>2021-12-08T08:04:09Z</time></trkpt>
    <trkpt lat="47.63687" lon="14.30619"><ele>1009</ele><time>2021-12-08T08:04:27Z</time></trkpt>
    <trkpt lat="47.63687" lon="14.30599"><ele>1012</ele><time>2021-12-08T08:04:45Z</time></trkpt>
    <trkpt lat="47.63695" lon="14.30580"><ele>1009</ele><time>2021-12-08T08:05:04Z</time></trkpt>
    <trkpt lat="47.63702" lon="14.30551"><ele>966</ele><time>2021-12-08T08:05:23Z</time></trkpt>
    <trkpt lat="47.63695" lon="14.30525"><ele>1006</ele><time>2021-12-08T08:05:41Z</time></trkpt>
    <trkpt lat="47.63686" lon="14.30502"><ele>1008</ele><time>2021-12-08T08:06:00Z</time></trkpt>
    <trkpt lat="47.63685" lon="14.30475"><ele>1008</ele><time>2021-12-08T08:06:18Z</time></trkpt>
    <trkpt lat="47.63680" lon="14.30444"><ele>1008</ele><time>2021-12-08T08:06:37Z</time></trkpt>
    <trkpt lat="47.63673" lon="14.30421"><ele>1009</ele><time>2021-12-08T08:06:55Z</time></trkpt>
    <trkpt lat="47.63661" lon="14.30393"><ele>1025</ele><time>2021-12-08T08:07:14Z</time></trkpt>
    <trkpt lat="47.63655" lon="14.30373"><ele>1036</ele><time>2021-12-08T08:07:32Z</time></trkpt>
    <trkpt lat="47.63644" lon="14.30365"><ele>1039</ele><time>2021-12-08T08:07:50Z</time></trkpt>
    <trkpt lat="47.63637" lon="14.30349"><ele>1045</ele><time>2021-12-08T08:08:09Z</time></trkpt>
    <trkpt lat="47.63634" lon="14.30329"><ele>1048</ele><time>2021-12-08T08:08:27Z</time></trkpt>
    <trkpt lat="47.63652" lon="14.30320"><ele>1056</ele><time>2021-12-08T08:09:05Z</time></trkpt>
    <trkpt lat="47.63649" lon="14.30304"><ele>1053</ele><time>2021-12-08T08:09:23Z</time></trkpt>
    <trkpt lat="47.63654" lon="14.30288"><ele>1059</ele><time>2021-12-08T08:09:41Z</time></trkpt>
    <trkpt lat="47.63667" lon="14.30284"><ele>1061</ele><time>2021-12-08T08:10:00Z</time></trkpt>
    <trkpt lat="47.63673" lon="14.30272"><ele>1061</ele><time>2021-12-08T08:10:19Z</time></trkpt>
    <trkpt lat="47.63685" lon="14.30264"><ele>1060</ele><time>2021-12-08T08:10:38Z</time></trkpt>
    <trkpt lat="47.63701" lon="14.30236"><ele>1064</ele><time>2021-12-08T08:11:16Z</time></trkpt>
    <trkpt lat="47.63708" lon="14.30215"><ele>1073</ele><time>2021-12-08T08:11:56Z</time></trkpt>
    <trkpt lat="47.63719" lon="14.30209"><ele>1079</ele><time>2021-12-08T08:12:14Z</time></trkpt>
    <trkpt lat="47.63728" lon="14.30199"><ele>1084</ele><time>2021-12-08T08:12:33Z</time></trkpt>
    <trkpt lat="47.63738" lon="14.30195"><ele>1081</ele><time>2021-12-08T08:12:51Z</time></trkpt>
    <trkpt lat="47.63747" lon="14.30183"><ele>1089</ele><time>2021-12-08T08:13:10Z</time></trkpt>
    <trkpt lat="47.63752" lon="14.30167"><ele>1090</ele><time>2021-12-08T08:13:28Z</time></trkpt>
    <trkpt lat="47.63752" lon="14.30149"><ele>1092</ele><time>2021-12-08T08:13:46Z</time></trkpt>
    <trkpt lat="47.63758" lon="14.30137"><ele>1093</ele><time>2021-12-08T08:14:04Z</time></trkpt>
    <trkpt lat="47.63776" lon="14.30122"><ele>1092</ele><time>2021-12-08T08:14:46Z</time></trkpt>
    <trkpt lat="47.63787" lon="14.30097"><ele>1099</ele><time>2021-12-08T08:15:28Z</time></trkpt>
    <trkpt lat="47.63794" lon="14.30076"><ele>1102</ele><time>2021-12-08T08:15:47Z</time></trkpt>
    <trkpt lat="47.63799" lon="14.30053"><ele>1111</ele><time>2021-12-08T08:16:24Z</time></trkpt>
    <trkpt lat="47.63802" lon="14.30038"><ele>1115</ele><time>2021-12-08T08:16:42Z</time></trkpt>
    <trkpt lat="47.63807" lon="14.30018"><ele>1115</ele><time>2021-12-08T08:17:01Z</time></trkpt>
    <trkpt lat="47.63809" lon="14.30001"><ele>1112</ele><time>2021-12-08T08:17:19Z</time></trkpt>
    <trkpt lat="47.63812" lon="14.29988"><ele>1114</ele><time>2021-12-08T08:17:37Z</time></trkpt>
    <trkpt lat="47.63814" lon="14.29973"><ele>1117</ele><time>2021-12-08T08:17:56Z</time></trkpt>
    <trkpt lat="47.63814" lon="14.29948"><ele>1134</ele><time>2021-12-08T08:18:41Z</time></trkpt>
    <trkpt lat="47.63820" lon="14.29922"><ele>1137</ele><time>2021-12-08T08:19:21Z</time></trkpt>
    <trkpt lat="47.63822" lon="14.29904"><ele>1144</ele><time>2021-12-08T08:19:39Z</time></trkpt>
    <trkpt lat="47.63828" lon="14.29888"><ele>1141</ele><time>2021-12-08T08:19:58Z</time></trkpt>
    <trkpt lat="47.63836" lon="14.29873"><ele>1144</ele><time>2021-12-08T08:20:17Z</time></trkpt>
    <trkpt lat="47.63844" lon="14.29858"><ele>1147</ele><time>2021-12-08T08:20:36Z</time></trkpt>
    <trkpt lat="47.63852" lon="14.29837"><ele>1160</ele><time>2021-12-08T08:21:28Z</time></trkpt>
    <trkpt lat="47.63854" lon="14.29811"><ele>1164</ele><time>2021-12-08T08:22:09Z</time></trkpt>
    <trkpt lat="47.63847" lon="14.29790"><ele>1174</ele><time>2021-12-08T08:22:27Z</time></trkpt>
    <trkpt lat="47.63845" lon="14.29770"><ele>1176</ele><time>2021-12-08T08:22:45Z</time></trkpt>
    <trkpt lat="47.63844" lon="14.29741"><ele>1186</ele><time>2021-12-08T08:23:27Z</time></trkpt>
    <trkpt lat="47.63847" lon="14.29719"><ele>1195</ele><time>2021-12-08T08:23:46Z</time></trkpt>
    <trkpt lat="47.63846" lon="14.29696"><ele>1199</ele><time>2021-12-08T08:24:04Z</time></trkpt>
    <trkpt lat="47.63849" lon="14.29681"><ele>1199</ele><time>2021-12-08T08:24:23Z</time></trkpt>
    <trkpt lat="47.63860" lon="14.29683"><ele>1202</ele><time>2021-12-08T08:24:41Z</time></trkpt>
    <trkpt lat="47.63872" lon="14.29663"><ele>1211</ele><time>2021-12-08T08:25:18Z</time></trkpt>
    <trkpt lat="47.63880" lon="14.29651"><ele>1215</ele><time>2021-12-08T08:25:36Z</time></trkpt>
    <trkpt lat="47.63892" lon="14.29631"><ele>1223</ele><time>2021-12-08T08:26:14Z</time></trkpt>
    <trkpt lat="47.63891" lon="14.29615"><ele>1223</ele><time>2021-12-08T08:26:32Z</time></trkpt>
    <trkpt lat="47.63900" lon="14.29609"><ele>1226</ele><time>2021-12-08T08:26:51Z</time></trkpt>
    <trkpt lat="47.63904" lon="14.29595"><ele>1230</ele><time>2021-12-08T08:27:09Z</time></trkpt>
    <trkpt lat="47.63917" lon="14.29582"><ele>1236</ele><time>2021-12-08T08:27:47Z</time></trkpt>
    <trkpt lat="47.63919" lon="14.29563"><ele>1241</ele><time>2021-12-08T08:28:05Z</time></trkpt>
    <trkpt lat="47.63932" lon="14.29563"><ele>1243</ele><time>2021-12-08T08:28:24Z</time></trkpt>
    <trkpt lat="47.63937" lon="14.29549"><ele>1253</ele><time>2021-12-08T08:28:43Z</time></trkpt>
    <trkpt lat="47.63948" lon="14.29544"><ele>1256</ele><time>2021-12-08T08:29:02Z</time></trkpt>
    <trkpt lat="47.63964" lon="14.29530"><ele>1257</ele><time>2021-12-08T08:30:54Z</time></trkpt>
    <trkpt lat="47.63973" lon="14.29523"><ele>1262</ele><time>2021-12-08T08:31:12Z</time></trkpt>
    <trkpt lat="47.63983" lon="14.29512"><ele>1267</ele><time>2021-12-08T08:31:31Z</time></trkpt>
    <trkpt lat="47.63991" lon="14.29501"><ele>1270</ele><time>2021-12-08T08:31:49Z</time></trkpt>
    <trkpt lat="47.63997" lon="14.29487"><ele>1276</ele><time>2021-12-08T08:32:07Z</time></trkpt>
    <trkpt lat="47.64005" lon="14.29478"><ele>1279</ele><time>2021-12-08T08:32:26Z</time></trkpt>
    <trkpt lat="47.64014" lon="14.29463"><ele>1282</ele><time>2021-12-08T08:32:44Z</time></trkpt>
    <trkpt lat="47.64020" lon="14.29446"><ele>1287</ele><time>2021-12-08T08:33:03Z</time></trkpt>
    <trkpt lat="47.64033" lon="14.29433"><ele>1288</ele><time>2021-12-08T08:33:22Z</time></trkpt>
    <trkpt lat="47.64041" lon="14.29421"><ele>1289</ele><time>2021-12-08T08:33:40Z</time></trkpt>
    <trkpt lat="47.64050" lon="14.29406"><ele>1295</ele><time>2021-12-08T08:33:59Z</time></trkpt>
    <trkpt lat="47.64061" lon="14.29395"><ele>1297</ele><time>2021-12-08T08:34:17Z</time></trkpt>
    <trkpt lat="47.64073" lon="14.29385"><ele>1301</ele><time>2021-12-08T08:34:36Z</time></trkpt>
    <trkpt lat="47.64082" lon="14.29374"><ele>1302</ele><time>2021-12-08T08:34:55Z</time></trkpt>
    <trkpt lat="47.64092" lon="14.29364"><ele>1306</ele><time>2021-12-08T08:35:14Z</time></trkpt>
    <trkpt lat="47.64101" lon="14.29355"><ele>1310</ele><time>2021-12-08T08:35:33Z</time></trkpt>
    <trkpt lat="47.64112" lon="14.29347"><ele>1311</ele><time>2021-12-08T08:35:51Z</time></trkpt>
    <trkpt lat="47.64121" lon="14.29337"><ele>1315</ele><time>2021-12-08T08:36:10Z</time></trkpt>
    <trkpt lat="47.64128" lon="14.29324"><ele>1316</ele><time>2021-12-08T08:36:28Z</time></trkpt>
    <trkpt lat="47.64136" lon="14.29311"><ele>1317</ele><time>2021-12-08T08:36:46Z</time></trkpt>
    <trkpt lat="47.64146" lon="14.29313"><ele>1322</ele><time>2021-12-08T08:37:04Z</time></trkpt>
    <trkpt lat="47.64154" lon="14.29292"><ele>1324</ele><time>2021-12-08T08:37:54Z</time></trkpt>
    <trkpt lat="47.64166" lon="14.29278"><ele>1331</ele><time>2021-12-08T08:38:32Z</time></trkpt>
    <trkpt lat="47.64182" lon="14.29278"><ele>1343</ele><time>2021-12-08T08:39:16Z</time></trkpt>
    <trkpt lat="47.64200" lon="14.29276"><ele>1348</ele><time>2021-12-08T08:39:53Z</time></trkpt>
    <trkpt lat="47.64210" lon="14.29271"><ele>1353</ele><time>2021-12-08T08:40:12Z</time></trkpt>
    <trkpt lat="47.64219" lon="14.29266"><ele>1357</ele><time>2021-12-08T08:40:31Z</time></trkpt>
    <trkpt lat="47.64229" lon="14.29263"><ele>1358</ele><time>2021-12-08T08:40:49Z</time></trkpt>
    <trkpt lat="47.64239" lon="14.29260"><ele>1363</ele><time>2021-12-08T08:41:08Z</time></trkpt>
    <trkpt lat="47.64249" lon="14.29253"><ele>1364</ele><time>2021-12-08T08:41:26Z</time></trkpt>
    <trkpt lat="47.64259" lon="14.29250"><ele>1367</ele><time>2021-12-08T08:41:44Z</time></trkpt>
    <trkpt lat="47.64269" lon="14.29246"><ele>1348</ele><time>2021-12-08T08:42:03Z</time></trkpt>
    <trkpt lat="47.64282" lon="14.29244"><ele>1375</ele><time>2021-12-08T08:42:22Z</time></trkpt>
    <trkpt lat="47.64295" lon="14.29240"><ele>1379</ele><time>2021-12-08T08:42:40Z</time></trkpt>
    <trkpt lat="47.64309" lon="14.29234"><ele>1381</ele><time>2021-12-08T08:42:59Z</time></trkpt>
    <trkpt lat="47.64324" lon="14.29224"><ele>1380</ele><time>2021-12-08T08:43:17Z</time></trkpt>
    <trkpt lat="47.64337" lon="14.29213"><ele>1386</ele><time>2021-12-08T08:43:36Z</time></trkpt>
    <trkpt lat="47.64350" lon="14.29206"><ele>1385</ele><time>2021-12-08T08:43:55Z</time></trkpt>
    <trkpt lat="47.64361" lon="14.29199"><ele>1380</ele><time>2021-12-08T08:44:13Z</time></trkpt>
    <trkpt lat="47.64378" lon="14.29188"><ele>1382</ele><time>2021-12-08T08:44:33Z</time></trkpt>
    <trkpt lat="47.64392" lon="14.29181"><ele>1383</ele><time>2021-12-08T08:44:51Z</time></trkpt>
    <trkpt lat="47.64404" lon="14.29172"><ele>1396</ele><time>2021-12-08T08:45:10Z</time></trkpt>
    <trkpt lat="47.64415" lon="14.29164"><ele>1396</ele><time>2021-12-08T08:45:29Z</time></trkpt>
    <trkpt lat="47.64429" lon="14.29157"><ele>1398</ele><time>2021-12-08T08:45:47Z</time></trkpt>
    <trkpt lat="47.64444" lon="14.29148"><ele>1400</ele><time>2021-12-08T08:46:05Z</time></trkpt>
    <trkpt lat="47.64456" lon="14.29136"><ele>1404</ele><time>2021-12-08T08:46:23Z</time></trkpt>
    <trkpt lat="47.64470" lon="14.29118"><ele>1398</ele><time>2021-12-08T08:46:42Z</time></trkpt>
    <trkpt lat="47.64489" lon="14.29103"><ele>1409</ele><time>2021-12-08T08:47:01Z</time></trkpt>
    <trkpt lat="47.64506" lon="14.29085"><ele>1407</ele><time>2021-12-08T08:47:20Z</time></trkpt>
    <trkpt lat="47.64522" lon="14.29068"><ele>1410</ele><time>2021-12-08T08:47:38Z</time></trkpt>
    <trkpt lat="47.64533" lon="14.29048"><ele>1411</ele><time>2021-12-08T08:47:56Z</time></trkpt>
    <trkpt lat="47.64545" lon="14.29026"><ele>1411</ele><time>2021-12-08T08:48:15Z</time></trkpt>
    <trkpt lat="47.64554" lon="14.29007"><ele>1411</ele><time>2021-12-08T08:48:33Z</time></trkpt>
    <trkpt lat="47.64561" lon="14.28990"><ele>1416</ele><time>2021-12-08T08:48:52Z</time></trkpt>
    <trkpt lat="47.64565" lon="14.28972"><ele>1419</ele><time>2021-12-08T08:49:10Z</time></trkpt>
    <trkpt lat="47.64568" lon="14.28952"><ele>1418</ele><time>2021-12-08T08:49:29Z</time></trkpt>
    <trkpt lat="47.64574" lon="14.28930"><ele>1391</ele><time>2021-12-08T08:49:47Z</time></trkpt>
    <trkpt lat="47.64572" lon="14.28904"><ele>1392</ele><time>2021-12-08T08:50:06Z</time></trkpt>
    <trkpt lat="47.64571" lon="14.28884"><ele>1410</ele><time>2021-12-08T08:50:24Z</time></trkpt>
    <trkpt lat="47.64578" lon="14.28871"><ele>1418</ele><time>2021-12-08T08:50:43Z</time></trkpt>
    <trkpt lat="47.64563" lon="14.28830"><ele>1425</ele><time>2021-12-08T08:51:20Z</time></trkpt>
    <trkpt lat="47.64559" lon="14.28807"><ele>1426</ele><time>2021-12-08T08:51:38Z</time></trkpt>
    <trkpt lat="47.64562" lon="14.28783"><ele>1425</ele><time>2021-12-08T08:51:57Z</time></trkpt>
    <trkpt lat="47.64559" lon="14.28758"><ele>1429</ele><time>2021-12-08T08:52:15Z</time></trkpt>
    <trkpt lat="47.64559" lon="14.28735"><ele>1435</ele><time>2021-12-08T08:52:33Z</time></trkpt>
    <trkpt lat="47.64560" lon="14.28715"><ele>1429</ele><time>2021-12-08T08:52:52Z</time></trkpt>
    <trkpt lat="47.64560" lon="14.28691"><ele>1441</ele><time>2021-12-08T09:02:23Z</time></trkpt>
    <trkpt lat="47.64552" lon="14.28664"><ele>1440</ele><time>2021-12-08T09:02:42Z</time></trkpt>
    <trkpt lat="47.64545" lon="14.28644"><ele>1441</ele><time>2021-12-08T09:03:00Z</time></trkpt>
    <trkpt lat="47.64540" lon="14.28616"><ele>1444</ele><time>2021-12-08T09:03:19Z</time></trkpt>
    <trkpt lat="47.64536" lon="14.28590"><ele>1439</ele><time>2021-12-08T09:03:37Z</time></trkpt>
    <trkpt lat="47.64530" lon="14.28560"><ele>1435</ele><time>2021-12-08T09:03:56Z</time></trkpt>
    <trkpt lat="47.64519" lon="14.28532"><ele>1447</ele><time>2021-12-08T09:04:15Z</time></trkpt>
    <trkpt lat="47.64510" lon="14.28510"><ele>1444</ele><time>2021-12-08T09:04:33Z</time></trkpt>
    <trkpt lat="47.64502" lon="14.28485"><ele>1450</ele><time>2021-12-08T09:04:52Z</time></trkpt>
    <trkpt lat="47.64498" lon="14.28467"><ele>1455</ele><time>2021-12-08T09:05:10Z</time></trkpt>
    <trkpt lat="47.64497" lon="14.28441"><ele>1454</ele><time>2021-12-08T09:05:28Z</time></trkpt>
    <trkpt lat="47.64494" lon="14.28417"><ele>1454</ele><time>2021-12-08T09:05:47Z</time></trkpt>
    <trkpt lat="47.64492" lon="14.28389"><ele>1457</ele><time>2021-12-08T09:06:06Z</time></trkpt>
    <trkpt lat="47.64482" lon="14.28363"><ele>1459</ele><time>2021-12-08T09:06:24Z</time></trkpt>
    <trkpt lat="47.64468" lon="14.28342"><ele>1460</ele><time>2021-12-08T09:06:42Z</time></trkpt>
    <trkpt lat="47.64450" lon="14.28321"><ele>1461</ele><time>2021-12-08T09:07:01Z</time></trkpt>
    <trkpt lat="47.64439" lon="14.28291"><ele>1465</ele><time>2021-12-08T09:07:20Z</time></trkpt>
    <trkpt lat="47.64431" lon="14.28268"><ele>1464</ele><time>2021-12-08T09:07:39Z</time></trkpt>
    <trkpt lat="47.64429" lon="14.28245"><ele>1467</ele><time>2021-12-08T09:07:57Z</time></trkpt>
    <trkpt lat="47.64421" lon="14.28218"><ele>1470</ele><time>2021-12-08T09:08:15Z</time></trkpt>
    <trkpt lat="47.64410" lon="14.28199"><ele>1473</ele><time>2021-12-08T09:08:33Z</time></trkpt>
    <trkpt lat="47.64403" lon="14.28179"><ele>1470</ele><time>2021-12-08T09:08:52Z</time></trkpt>
    <trkpt lat="47.64397" lon="14.28168"><ele>1473</ele><time>2021-12-08T09:11:19Z</time></trkpt>
    <trkpt lat="47.64383" lon="14.28157"><ele>1472</ele><time>2021-12-08T09:11:37Z</time></trkpt>
    <trkpt lat="47.64372" lon="14.28146"><ele>1474</ele><time>2021-12-08T09:11:55Z</time></trkpt>
    <trkpt lat="47.64360" lon="14.28140"><ele>1478</ele><time>2021-12-08T09:12:14Z</time></trkpt>
    <trkpt lat="47.64351" lon="14.28133"><ele>1483</ele><time>2021-12-08T09:12:32Z</time></trkpt>
    <trkpt lat="47.64342" lon="14.28127"><ele>1487</ele><time>2021-12-08T09:12:50Z</time></trkpt>
    <trkpt lat="47.64333" lon="14.28114"><ele>1486</ele><time>2021-12-08T09:13:08Z</time></trkpt>
    <trkpt lat="47.64326" lon="14.28099"><ele>1487</ele><time>2021-12-08T09:13:27Z</time></trkpt>
    <trkpt lat="47.64323" lon="14.28072"><ele>1481</ele><time>2021-12-08T09:17:56Z</time></trkpt>
    <trkpt lat="47.64372" lon="14.27966"><ele>1459</ele><time>2021-12-08T09:18:14Z</time></trkpt>
    <trkpt lat="47.64441" lon="14.27896"><ele>1441</ele><time>2021-12-08T09:18:32Z</time></trkpt>
    <trkpt lat="47.64470" lon="14.27839"><ele>1433</ele><time>2021-12-08T09:18:51Z</time></trkpt>
    <trkpt lat="47.64556" lon="14.27702"><ele>1411</ele><time>2021-12-08T09:19:09Z</time></trkpt>
    <trkpt lat="47.64595" lon="14.27641"><ele>1403</ele><time>2021-12-08T09:19:28Z</time></trkpt>
    <trkpt lat="47.64609" lon="14.27640"><ele>1407</ele><time>2021-12-08T09:19:46Z</time></trkpt>
    <trkpt lat="47.64616" lon="14.27630"><ele>1404</ele><time>2021-12-08T09:20:04Z</time></trkpt>
    <trkpt lat="47.64621" lon="14.27612"><ele>1404</ele><time>2021-12-08T09:20:22Z</time></trkpt>
    <trkpt lat="47.64652" lon="14.27578"><ele>1400</ele><time>2021-12-08T09:20:41Z</time></trkpt>
    <trkpt lat="47.64675" lon="14.27549"><ele>1397</ele><time>2021-12-08T09:20:59Z</time></trkpt>
    <trkpt lat="47.64701" lon="14.27537"><ele>1397</ele><time>2021-12-08T09:21:18Z</time></trkpt>
    <trkpt lat="47.64714" lon="14.27534"><ele>1401</ele><time>2021-12-08T09:21:37Z</time></trkpt>
    <trkpt lat="47.64724" lon="14.27529"><ele>1399</ele><time>2021-12-08T09:21:56Z</time></trkpt>
    <trkpt lat="47.64743" lon="14.27528"><ele>1398</ele><time>2021-12-08T09:22:14Z</time></trkpt>
    <trkpt lat="47.64770" lon="14.27515"><ele>1398</ele><time>2021-12-08T09:22:33Z</time></trkpt>
    <trkpt lat="47.64789" lon="14.27505"><ele>1396</ele><time>2021-12-08T09:23:12Z</time></trkpt>
    <trkpt lat="47.64803" lon="14.27498"><ele>1397</ele><time>2021-12-08T09:23:31Z</time></trkpt>
    <trkpt lat="47.64820" lon="14.27492"><ele>1395</ele><time>2021-12-08T09:23:49Z</time></trkpt>
    <trkpt lat="47.64841" lon="14.27488"><ele>1393</ele><time>2021-12-08T09:24:07Z</time></trkpt>
    <trkpt lat="47.64858" lon="14.27491"><ele>1392</ele><time>2021-12-08T09:24:25Z</time></trkpt>
    <trkpt lat="47.64870" lon="14.27477"><ele>1389</ele><time>2021-12-08T09:24:44Z</time></trkpt>
    <trkpt lat="47.64888" lon="14.27466"><ele>1387</ele><time>2021-12-08T09:25:03Z</time></trkpt>
    <trkpt lat="47.64890" lon="14.27451"><ele>1390</ele><time>2021-12-08T09:25:22Z</time></trkpt>
    <trkpt lat="47.64912" lon="14.27452"><ele>1390</ele><time>2021-12-08T09:30:34Z</time></trkpt>
    <trkpt lat="47.64922" lon="14.27445"><ele>1397</ele><time>2021-12-08T09:30:53Z</time></trkpt>
    <trkpt lat="47.64932" lon="14.27435"><ele>1395</ele><time>2021-12-08T09:31:11Z</time></trkpt>
    <trkpt lat="47.64942" lon="14.27423"><ele>1396</ele><time>2021-12-08T09:31:29Z</time></trkpt>
    <trkpt lat="47.64951" lon="14.27410"><ele>1397</ele><time>2021-12-08T09:31:48Z</time></trkpt>
    <trkpt lat="47.64960" lon="14.27400"><ele>1402</ele><time>2021-12-08T09:32:07Z</time></trkpt>
    <trkpt lat="47.64967" lon="14.27392"><ele>1403</ele><time>2021-12-08T09:32:25Z</time></trkpt>
    <trkpt lat="47.64977" lon="14.27379"><ele>1405</ele><time>2021-12-08T09:32:44Z</time></trkpt>
    <trkpt lat="47.64988" lon="14.27369"><ele>1406</ele><time>2021-12-08T09:33:03Z</time></trkpt>
    <trkpt lat="47.64998" lon="14.27367"><ele>1406</ele><time>2021-12-08T09:33:22Z</time></trkpt>
    <trkpt lat="47.65009" lon="14.27360"><ele>1406</ele><time>2021-12-08T09:33:41Z</time></trkpt>
    <trkpt lat="47.65023" lon="14.27355"><ele>1405</ele><time>2021-12-08T09:33:59Z</time></trkpt>
    <trkpt lat="47.65035" lon="14.27341"><ele>1405</ele><time>2021-12-08T09:34:18Z</time></trkpt>
    <trkpt lat="47.65040" lon="14.27327"><ele>1408</ele><time>2021-12-08T09:34:37Z</time></trkpt>
    <trkpt lat="47.65053" lon="14.27309"><ele>1415</ele><time>2021-12-08T09:35:14Z</time></trkpt>
    <trkpt lat="47.65061" lon="14.27300"><ele>1414</ele><time>2021-12-08T09:35:33Z</time></trkpt>
    <trkpt lat="47.65067" lon="14.27284"><ele>1415</ele><time>2021-12-08T09:35:52Z</time></trkpt>
    <trkpt lat="47.65081" lon="14.27266"><ele>1414</ele><time>2021-12-08T09:36:28Z</time></trkpt>
    <trkpt lat="47.65089" lon="14.27259"><ele>1415</ele><time>2021-12-08T09:36:46Z</time></trkpt>
    <trkpt lat="47.65097" lon="14.27253"><ele>1415</ele><time>2021-12-08T09:37:05Z</time></trkpt>
    <trkpt lat="47.65111" lon="14.27240"><ele>1424</ele><time>2021-12-08T09:37:49Z</time></trkpt>
    <trkpt lat="47.65118" lon="14.27230"><ele>1430</ele><time>2021-12-08T09:38:08Z</time></trkpt>
    <trkpt lat="47.65124" lon="14.27219"><ele>1449</ele><time>2021-12-08T09:38:27Z</time></trkpt>
    <trkpt lat="47.65133" lon="14.27211"><ele>1437</ele><time>2021-12-08T09:38:45Z</time></trkpt>
    <trkpt lat="47.65147" lon="14.27189"><ele>1441</ele><time>2021-12-08T09:39:23Z</time></trkpt>
    <trkpt lat="47.65152" lon="14.27177"><ele>1442</ele><time>2021-12-08T09:39:41Z</time></trkpt>
    <trkpt lat="47.65166" lon="14.27166"><ele>1444</ele><time>2021-12-08T09:40:45Z</time></trkpt>
    <trkpt lat="47.65178" lon="14.27150"><ele>1453</ele><time>2021-12-08T09:41:44Z</time></trkpt>
    <trkpt lat="47.65193" lon="14.27141"><ele>1456</ele><time>2021-12-08T09:42:30Z</time></trkpt>
    <trkpt lat="47.65208" lon="14.27130"><ele>1462</ele><time>2021-12-08T09:43:18Z</time></trkpt>
    <trkpt lat="47.65224" lon="14.27125"><ele>1432</ele><time>2021-12-08T09:43:56Z</time></trkpt>
    <trkpt lat="47.65234" lon="14.27117"><ele>1457</ele><time>2021-12-08T09:44:14Z</time></trkpt>
    <trkpt lat="47.65243" lon="14.27096"><ele>1460</ele><time>2021-12-08T09:45:10Z</time></trkpt>
    <trkpt lat="47.65259" lon="14.27092"><ele>1458</ele><time>2021-12-08T09:46:17Z</time></trkpt>
    <trkpt lat="47.65273" lon="14.27094"><ele>1451</ele><time>2021-12-08T09:48:13Z</time></trkpt>
    <trkpt lat="47.65276" lon="14.27068"><ele>1463</ele><time>2021-12-08T09:48:50Z</time></trkpt>
    <trkpt lat="47.65290" lon="14.27057"><ele>1471</ele><time>2021-12-08T09:50:13Z</time></trkpt>
    <trkpt lat="47.65302" lon="14.27040"><ele>1477</ele><time>2021-12-08T09:51:58Z</time></trkpt>
    <trkpt lat="47.65308" lon="14.27017"><ele>1485</ele><time>2021-12-08T09:53:43Z</time></trkpt>
    <trkpt lat="47.65321" lon="14.27012"><ele>1491</ele><time>2021-12-08T09:55:17Z</time></trkpt>
    <trkpt lat="47.65335" lon="14.27000"><ele>1490</ele><time>2021-12-08T09:57:02Z</time></trkpt>
    <trkpt lat="47.65351" lon="14.27002"><ele>1492</ele><time>2021-12-08T09:58:15Z</time></trkpt>
    <trkpt lat="47.65359" lon="14.27023"><ele>1498</ele><time>2021-12-08T09:59:03Z</time></trkpt>
    <trkpt lat="47.65369" lon="14.27043"><ele>1504</ele><time>2021-12-08T10:00:47Z</time></trkpt>
    <trkpt lat="47.65379" lon="14.27064"><ele>1506</ele><time>2021-12-08T10:01:25Z</time></trkpt>
    <trkpt lat="47.65384" lon="14.27077"><ele>1508</ele><time>2021-12-08T10:01:43Z</time></trkpt>
    <trkpt lat="47.65387" lon="14.27100"><ele>1511</ele><time>2021-12-08T10:03:01Z</time></trkpt>
    <trkpt lat="47.65392" lon="14.27122"><ele>1513</ele><time>2021-12-08T10:03:59Z</time></trkpt>
    <trkpt lat="47.65387" lon="14.27145"><ele>1512</ele><time>2021-12-08T10:04:54Z</time></trkpt>
    <trkpt lat="47.65386" lon="14.27159"><ele>1519</ele><time>2021-12-08T10:05:13Z</time></trkpt>
    <trkpt lat="47.65392" lon="14.27172"><ele>1520</ele><time>2021-12-08T10:05:32Z</time></trkpt>
    <trkpt lat="47.65406" lon="14.27182"><ele>1523</ele><time>2021-12-08T10:07:29Z</time></trkpt>
    <trkpt lat="47.65419" lon="14.27197"><ele>1529</ele><time>2021-12-08T10:09:01Z</time></trkpt>
    <trkpt lat="47.65428" lon="14.27218"><ele>1527</ele><time>2021-12-08T10:09:37Z</time></trkpt>
    <trkpt lat="47.65442" lon="14.27231"><ele>1533</ele><time>2021-12-08T10:10:18Z</time></trkpt>
    <trkpt lat="47.65454" lon="14.27247"><ele>1541</ele><time>2021-12-08T10:11:19Z</time></trkpt>
    <trkpt lat="47.65468" lon="14.27255"><ele>1545</ele><time>2021-12-08T10:12:53Z</time></trkpt>
    <trkpt lat="47.65484" lon="14.27250"><ele>1515</ele><time>2021-12-08T10:13:49Z</time></trkpt>
    <trkpt lat="47.65499" lon="14.27250"><ele>1556</ele><time>2021-12-08T10:15:22Z</time></trkpt>
    <trkpt lat="47.65515" lon="14.27251"><ele>1558</ele><time>2021-12-08T10:16:33Z</time></trkpt>
    <trkpt lat="47.65531" lon="14.27248"><ele>1569</ele><time>2021-12-08T10:17:37Z</time></trkpt>
    <trkpt lat="47.65548" lon="14.27241"><ele>1562</ele><time>2021-12-08T10:18:35Z</time></trkpt>
    <trkpt lat="47.65558" lon="14.27243"><ele>1580</ele><time>2021-12-08T10:20:21Z</time></trkpt>
    <trkpt lat="47.65572" lon="14.27230"><ele>1499</ele><time>2021-12-08T10:21:55Z</time></trkpt>
    <trkpt lat="47.65578" lon="14.27221"><ele>1579</ele><time>2021-12-08T10:22:13Z</time></trkpt>
    <trkpt lat="47.65589" lon="14.27230"><ele>1601</ele><time>2021-12-08T10:25:11Z</time></trkpt>
    <trkpt lat="47.65604" lon="14.27220"><ele>1595</ele><time>2021-12-08T10:26:49Z</time></trkpt>
    <trkpt lat="47.65617" lon="14.27205"><ele>1616</ele><time>2021-12-08T10:27:58Z</time></trkpt>
    <trkpt lat="47.65624" lon="14.27195"><ele>1503</ele><time>2021-12-08T10:28:16Z</time></trkpt>
    <trkpt lat="47.65637" lon="14.27192"><ele>1623</ele><time>2021-12-08T10:29:56Z</time></trkpt>
    <trkpt lat="47.65642" lon="14.27216"><ele>1633</ele><time>2021-12-08T10:30:49Z</time></trkpt>
    <trkpt lat="47.65658" lon="14.27211"><ele>1639</ele><time>2021-12-08T10:32:01Z</time></trkpt>
    <trkpt lat="47.65673" lon="14.27213"><ele>1647</ele><time>2021-12-08T10:34:07Z</time></trkpt>
    <trkpt lat="47.65688" lon="14.27202"><ele>1651</ele><time>2021-12-08T10:34:58Z</time></trkpt>
    <trkpt lat="47.65696" lon="14.27220"><ele>1666</ele><time>2021-12-08T10:37:53Z</time></trkpt>
    <trkpt lat="47.65706" lon="14.27233"><ele>1677</ele><time>2021-12-08T10:40:03Z</time></trkpt>
    <trkpt lat="47.65710" lon="14.27251"><ele>1685</ele><time>2021-12-08T10:42:10Z</time></trkpt>
    <trkpt lat="47.65720" lon="14.27257"><ele>1699</ele><time>2021-12-08T10:44:45Z</time></trkpt>
    <trkpt lat="47.65732" lon="14.27261"><ele>1714</ele><time>2021-12-08T10:47:39Z</time></trkpt>
    <trkpt lat="47.65747" lon="14.27264"><ele>1727</ele><time>2021-12-08T10:49:45Z</time></trkpt>
    <trkpt lat="47.65757" lon="14.27246"><ele>1726</ele><time>2021-12-08T10:51:05Z</time></trkpt>
    <trkpt lat="47.65775" lon="14.27242"><ele>1732</ele><time>2021-12-08T10:52:42Z</time></trkpt>
    <trkpt lat="47.65784" lon="14.27242"><ele>1734</ele><time>2021-12-08T10:53:01Z</time></trkpt>
    <trkpt lat="47.65802" lon="14.27246"><ele>1738</ele><time>2021-12-08T10:55:10Z</time></trkpt>
    <trkpt lat="47.65817" lon="14.27238"><ele>1754</ele><time>2021-12-08T10:58:05Z</time></trkpt>
    <trkpt lat="47.65833" lon="14.27231"><ele>1764</ele><time>2021-12-08T11:00:16Z</time></trkpt>
    <trkpt lat="47.65844" lon="14.27236"><ele>1762</ele><time>2021-12-08T11:00:35Z</time></trkpt>
    <trkpt lat="47.65856" lon="14.27245"><ele>1678</ele><time>2021-12-08T11:00:54Z</time></trkpt>
    <trkpt lat="47.65873" lon="14.27245"><ele>1770</ele><time>2021-12-08T11:01:39Z</time></trkpt>
    <trkpt lat="47.65865" lon="14.27213"><ele>1755</ele><time>2021-12-08T11:02:08Z</time></trkpt>
    <trkpt lat="47.65873" lon="14.27244"><ele>1770</ele><time>2021-12-08T11:02:11Z</time></trkpt>
    <trkpt lat="47.65879" lon="14.27225"><ele>1795</ele><time>2021-12-08T11:04:37Z</time></trkpt>
    <trkpt lat="47.65897" lon="14.27225"><ele>1809</ele><time>2021-12-08T11:06:17Z</time></trkpt>
    <trkpt lat="47.65913" lon="14.27230"><ele>1811</ele><time>2021-12-08T11:07:26Z</time></trkpt>
    <trkpt lat="47.65933" lon="14.27236"><ele>1803</ele><time>2021-12-08T11:08:14Z</time></trkpt>
    <trkpt lat="47.65941" lon="14.27243"><ele>1804</ele><time>2021-12-08T11:08:32Z</time></trkpt>
    <trkpt lat="47.65952" lon="14.27222"><ele>1801</ele><time>2021-12-08T11:09:21Z</time></trkpt>
    <trkpt lat="47.65954" lon="14.27203"><ele>1804</ele><time>2021-12-08T11:09:40Z</time></trkpt>
    <trkpt lat="47.65949" lon="14.27183"><ele>1806</ele><time>2021-12-08T11:10:24Z</time></trkpt>
    <trkpt lat="47.65935" lon="14.27171"><ele>1809</ele><time>2021-12-08T11:11:04Z</time></trkpt>
    <trkpt lat="47.65933" lon="14.27153"><ele>1818</ele><time>2021-12-08T11:12:28Z</time></trkpt>
    <trkpt lat="47.65923" lon="14.27134"><ele>1822</ele><time>2021-12-08T11:17:39Z</time></trkpt>
    <trkpt lat="47.65916" lon="14.27125"><ele>1825</ele><time>2021-12-08T11:17:58Z</time></trkpt>
    <trkpt lat="47.65911" lon="14.27100"><ele>1835</ele><time>2021-12-08T11:18:37Z</time></trkpt>
    <trkpt lat="47.65928" lon="14.27092"><ele>1843</ele><time>2021-12-08T11:19:21Z</time></trkpt>
    <trkpt lat="47.65936" lon="14.27085"><ele>1843</ele><time>2021-12-08T11:19:40Z</time></trkpt>
    <trkpt lat="47.65949" lon="14.27069"><ele>1852</ele><time>2021-12-08T11:20:23Z</time></trkpt>
    <trkpt lat="47.65964" lon="14.27058"><ele>1858</ele><time>2021-12-08T11:21:16Z</time></trkpt>
    <trkpt lat="47.65977" lon="14.27046"><ele>1861</ele><time>2021-12-08T11:22:44Z</time></trkpt>
    <trkpt lat="47.65992" lon="14.27033"><ele>1867</ele><time>2021-12-08T11:23:27Z</time></trkpt>
    <trkpt lat="47.66007" lon="14.27018"><ele>1875</ele><time>2021-12-08T11:24:18Z</time></trkpt>
    <trkpt lat="47.66011" lon="14.26995"><ele>1877</ele><time>2021-12-08T11:25:31Z</time></trkpt>
    <trkpt lat="47.66003" lon="14.26973"><ele>1883</ele><time>2021-12-08T11:26:10Z</time></trkpt>
    <trkpt lat="47.66012" lon="14.26964"><ele>1900</ele><time>2021-12-08T11:28:06Z</time></trkpt>
    <trkpt lat="47.66027" lon="14.26953"><ele>1901</ele><time>2021-12-08T11:28:47Z</time></trkpt>
    <trkpt lat="47.66040" lon="14.26939"><ele>1906</ele><time>2021-12-08T11:29:54Z</time></trkpt>
    <trkpt lat="47.66033" lon="14.26918"><ele>1906</ele><time>2021-12-08T11:31:03Z</time></trkpt>
    <trkpt lat="47.66030" lon="14.26904"><ele>1908</ele><time>2021-12-08T11:31:22Z</time></trkpt>
    <trkpt lat="47.66026" lon="14.26889"><ele>1899</ele><time>2021-12-08T11:31:41Z</time></trkpt>
    <trkpt lat="47.66024" lon="14.26863"><ele>1849</ele><time>2021-12-08T11:32:25Z</time></trkpt>
    <trkpt lat="47.66015" lon="14.26831"><ele>1870</ele><time>2021-12-08T11:45:19Z</time></trkpt>
    <trkpt lat="47.66007" lon="14.26824"><ele>1792</ele><time>2021-12-08T11:45:48Z</time></trkpt>
    <trkpt lat="47.65985" lon="14.26820"><ele>1876</ele><time>2021-12-08T11:46:07Z</time></trkpt>
    <trkpt lat="47.65958" lon="14.26794"><ele>1857</ele><time>2021-12-08T11:46:25Z</time></trkpt>
    <trkpt lat="47.65930" lon="14.26756"><ele>1851</ele><time>2021-12-08T11:47:12Z</time></trkpt>
    <trkpt lat="47.65924" lon="14.26745"><ele>1850</ele><time>2021-12-08T11:47:36Z</time></trkpt>
    <trkpt lat="47.65893" lon="14.26717"><ele>1725</ele><time>2021-12-08T11:47:55Z</time></trkpt>
    <trkpt lat="47.65883" lon="14.26716"><ele>1825</ele><time>2021-12-08T11:48:17Z</time></trkpt>
    <trkpt lat="47.65846" lon="14.26692"><ele>1800</ele><time>2021-12-08T11:48:54Z</time></trkpt>
    <trkpt lat="47.65813" lon="14.26685"><ele>1768</ele><time>2021-12-08T11:49:12Z</time></trkpt>
    <trkpt lat="47.65737" lon="14.26658"><ele>1648</ele><time>2021-12-08T11:51:01Z</time></trkpt>
    <trkpt lat="47.65677" lon="14.26635"><ele>1692</ele><time>2021-12-08T11:51:19Z</time></trkpt>
    <trkpt lat="47.65666" lon="14.26633"><ele>1689</ele><time>2021-12-08T11:52:06Z</time></trkpt>
    <trkpt lat="47.65635" lon="14.26607"><ele>1685</ele><time>2021-12-08T11:52:24Z</time></trkpt>
    <trkpt lat="47.65605" lon="14.26606"><ele>1675</ele><time>2021-12-08T11:52:43Z</time></trkpt>
    <trkpt lat="47.65552" lon="14.26612"><ele>1651</ele><time>2021-12-08T11:53:02Z</time></trkpt>
    <trkpt lat="47.65509" lon="14.26623"><ele>1578</ele><time>2021-12-08T11:53:21Z</time></trkpt>
    <trkpt lat="47.65504" lon="14.26636"><ele>1623</ele><time>2021-12-08T11:54:17Z</time></trkpt>
    <trkpt lat="47.65460" lon="14.26716"><ele>1582</ele><time>2021-12-08T11:54:36Z</time></trkpt>
    <trkpt lat="47.65459" lon="14.26733"><ele>1574</ele><time>2021-12-08T11:54:54Z</time></trkpt>
    <trkpt lat="47.65455" lon="14.26864"><ele>1527</ele><time>2021-12-08T11:55:59Z</time></trkpt>
    <trkpt lat="47.65461" lon="14.26900"><ele>1522</ele><time>2021-12-08T11:56:18Z</time></trkpt>
    <trkpt lat="47.65423" lon="14.26879"><ele>1497</ele><time>2021-12-08T11:57:32Z</time></trkpt>
    <trkpt lat="47.65413" lon="14.26862"><ele>1500</ele><time>2021-12-08T11:58:38Z</time></trkpt>
    <trkpt lat="47.65399" lon="14.26846"><ele>1496</ele><time>2021-12-08T11:59:44Z</time></trkpt>
    <trkpt lat="47.65385" lon="14.26837"><ele>1483</ele><time>2021-12-08T12:00:02Z</time></trkpt>
    <trkpt lat="47.65373" lon="14.26833"><ele>1489</ele><time>2021-12-08T12:01:09Z</time></trkpt>
    <trkpt lat="47.65363" lon="14.26816"><ele>1478</ele><time>2021-12-08T12:02:19Z</time></trkpt>
    <trkpt lat="47.65361" lon="14.26829"><ele>1468</ele><time>2021-12-08T12:02:38Z</time></trkpt>
    <trkpt lat="47.65350" lon="14.26819"><ele>1465</ele><time>2021-12-08T12:04:01Z</time></trkpt>
    <trkpt lat="47.65336" lon="14.26813"><ele>1457</ele><time>2021-12-08T12:04:19Z</time></trkpt>
    <trkpt lat="47.65316" lon="14.26816"><ele>1448</ele><time>2021-12-08T12:04:37Z</time></trkpt>
    <trkpt lat="47.65294" lon="14.26797"><ele>1439</ele><time>2021-12-08T12:04:55Z</time></trkpt>
    <trkpt lat="47.65269" lon="14.26783"><ele>1429</ele><time>2021-12-08T12:06:29Z</time></trkpt>
    <trkpt lat="47.65259" lon="14.26780"><ele>1429</ele><time>2021-12-08T12:07:12Z</time></trkpt>
    <trkpt lat="47.65243" lon="14.26783"><ele>1427</ele><time>2021-12-08T12:13:46Z</time></trkpt>
    <trkpt lat="47.65229" lon="14.26802"><ele>1426</ele><time>2021-12-08T12:14:35Z</time></trkpt>
    <trkpt lat="47.65215" lon="14.26804"><ele>1426</ele><time>2021-12-08T12:14:54Z</time></trkpt>
    <trkpt lat="47.65200" lon="14.26806"><ele>1427</ele><time>2021-12-08T12:15:12Z</time></trkpt>
    <trkpt lat="47.65178" lon="14.26809"><ele>1420</ele><time>2021-12-08T12:15:49Z</time></trkpt>
    <trkpt lat="47.65166" lon="14.26809"><ele>1421</ele><time>2021-12-08T12:16:08Z</time></trkpt>
    <trkpt lat="47.65155" lon="14.26807"><ele>1419</ele><time>2021-12-08T12:16:26Z</time></trkpt>
    <trkpt lat="47.65144" lon="14.26807"><ele>1418</ele><time>2021-12-08T12:16:45Z</time></trkpt>
    <trkpt lat="47.65126" lon="14.26801"><ele>1425</ele><time>2021-12-08T12:17:22Z</time></trkpt>
    <trkpt lat="47.65113" lon="14.26801"><ele>1423</ele><time>2021-12-08T12:17:41Z</time></trkpt>
    <trkpt lat="47.65101" lon="14.26804"><ele>1419</ele><time>2021-12-08T12:17:59Z</time></trkpt>
    <trkpt lat="47.65090" lon="14.26810"><ele>1415</ele><time>2021-12-08T12:18:17Z</time></trkpt>
    <trkpt lat="47.65079" lon="14.26807"><ele>1418</ele><time>2021-12-08T12:18:35Z</time></trkpt>
    <trkpt lat="47.65069" lon="14.26809"><ele>1413</ele><time>2021-12-08T12:18:53Z</time></trkpt>
    <trkpt lat="47.65054" lon="14.26810"><ele>1412</ele><time>2021-12-08T12:19:12Z</time></trkpt>
    <trkpt lat="47.65038" lon="14.26816"><ele>1412</ele><time>2021-12-08T12:19:31Z</time></trkpt>
    <trkpt lat="47.65025" lon="14.26817"><ele>1408</ele><time>2021-12-08T12:19:49Z</time></trkpt>
    <trkpt lat="47.65015" lon="14.26827"><ele>1411</ele><time>2021-12-08T12:20:08Z</time></trkpt>
    <trkpt lat="47.65005" lon="14.26833"><ele>1410</ele><time>2021-12-08T12:20:26Z</time></trkpt>
    <trkpt lat="47.64987" lon="14.26850"><ele>1414</ele><time>2021-12-08T12:21:04Z</time></trkpt>
    <trkpt lat="47.64978" lon="14.26868"><ele>1416</ele><time>2021-12-08T12:21:23Z</time></trkpt>
    <trkpt lat="47.64955" lon="14.26884"><ele>1412</ele><time>2021-12-08T12:21:41Z</time></trkpt>
    <trkpt lat="47.64950" lon="14.26916"><ele>1404</ele><time>2021-12-08T12:21:59Z</time></trkpt>
    <trkpt lat="47.64950" lon="14.26947"><ele>1403</ele><time>2021-12-08T12:22:17Z</time></trkpt>
    <trkpt lat="47.64954" lon="14.26967"><ele>1398</ele><time>2021-12-08T12:22:36Z</time></trkpt>
    <trkpt lat="47.64964" lon="14.26995"><ele>1391</ele><time>2021-12-08T12:22:55Z</time></trkpt>
    <trkpt lat="47.64968" lon="14.27013"><ele>1389</ele><time>2021-12-08T12:23:14Z</time></trkpt>
    <trkpt lat="47.64969" lon="14.27035"><ele>1388</ele><time>2021-12-08T12:23:32Z</time></trkpt>
    <trkpt lat="47.64960" lon="14.27053"><ele>1383</ele><time>2021-12-08T12:23:50Z</time></trkpt>
    <trkpt lat="47.64945" lon="14.27065"><ele>1386</ele><time>2021-12-08T12:24:09Z</time></trkpt>
    <trkpt lat="47.64924" lon="14.27064"><ele>1388</ele><time>2021-12-08T12:24:28Z</time></trkpt>
    <trkpt lat="47.64910" lon="14.27062"><ele>1388</ele><time>2021-12-08T12:24:46Z</time></trkpt>
    <trkpt lat="47.64898" lon="14.27068"><ele>1387</ele><time>2021-12-08T12:25:05Z</time></trkpt>
    <trkpt lat="47.64884" lon="14.27060"><ele>1390</ele><time>2021-12-08T12:25:24Z</time></trkpt>
    <trkpt lat="47.64870" lon="14.27054"><ele>1390</ele><time>2021-12-08T12:25:43Z</time></trkpt>
    <trkpt lat="47.64857" lon="14.27050"><ele>1389</ele><time>2021-12-08T12:26:02Z</time></trkpt>
    <trkpt lat="47.64844" lon="14.27049"><ele>1390</ele><time>2021-12-08T12:26:20Z</time></trkpt>
    <trkpt lat="47.64832" lon="14.27054"><ele>1392</ele><time>2021-12-08T12:26:39Z</time></trkpt>
    <trkpt lat="47.64820" lon="14.27061"><ele>1397</ele><time>2021-12-08T12:26:57Z</time></trkpt>
    <trkpt lat="47.64811" lon="14.27078"><ele>1402</ele><time>2021-12-08T12:27:16Z</time></trkpt>
    <trkpt lat="47.64800" lon="14.27093"><ele>1398</ele><time>2021-12-08T12:27:35Z</time></trkpt>
    <trkpt lat="47.64792" lon="14.27110"><ele>1397</ele><time>2021-12-08T12:27:54Z</time></trkpt>
    <trkpt lat="47.64774" lon="14.27135"><ele>1399</ele><time>2021-12-08T12:28:35Z</time></trkpt>
    <trkpt lat="47.64765" lon="14.27146"><ele>1398</ele><time>2021-12-08T12:28:54Z</time></trkpt>
    <trkpt lat="47.64754" lon="14.27165"><ele>1395</ele><time>2021-12-08T12:29:13Z</time></trkpt>
    <trkpt lat="47.64747" lon="14.27175"><ele>1392</ele><time>2021-12-08T12:29:31Z</time></trkpt>
    <trkpt lat="47.64736" lon="14.27187"><ele>1392</ele><time>2021-12-08T12:29:50Z</time></trkpt>
    <trkpt lat="47.64730" lon="14.27205"><ele>1393</ele><time>2021-12-08T12:30:09Z</time></trkpt>
    <trkpt lat="47.64725" lon="14.27222"><ele>1392</ele><time>2021-12-08T12:30:27Z</time></trkpt>
    <trkpt lat="47.64720" lon="14.27236"><ele>1392</ele><time>2021-12-08T12:30:46Z</time></trkpt>
    <trkpt lat="47.64721" lon="14.27266"><ele>1391</ele><time>2021-12-08T12:31:29Z</time></trkpt>
    <trkpt lat="47.64721" lon="14.27281"><ele>1394</ele><time>2021-12-08T12:31:47Z</time></trkpt>
    <trkpt lat="47.64720" lon="14.27300"><ele>1393</ele><time>2021-12-08T12:32:06Z</time></trkpt>
    <trkpt lat="47.64719" lon="14.27317"><ele>1393</ele><time>2021-12-08T12:32:24Z</time></trkpt>
    <trkpt lat="47.64719" lon="14.27332"><ele>1395</ele><time>2021-12-08T12:32:42Z</time></trkpt>
    <trkpt lat="47.64718" lon="14.27348"><ele>1397</ele><time>2021-12-08T12:33:01Z</time></trkpt>
    <trkpt lat="47.64717" lon="14.27362"><ele>1409</ele><time>2021-12-08T12:33:20Z</time></trkpt>
    <trkpt lat="47.64718" lon="14.27376"><ele>1401</ele><time>2021-12-08T12:33:38Z</time></trkpt>
    <trkpt lat="47.64716" lon="14.27403"><ele>1399</ele><time>2021-12-08T12:34:15Z</time></trkpt>
    <trkpt lat="47.64701" lon="14.27421"><ele>1402</ele><time>2021-12-08T12:35:00Z</time></trkpt>
    <trkpt lat="47.64688" lon="14.27431"><ele>1402</ele><time>2021-12-08T12:35:18Z</time></trkpt>
    <trkpt lat="47.64674" lon="14.27457"><ele>1398</ele><time>2021-12-08T12:35:36Z</time></trkpt>
    <trkpt lat="47.64671" lon="14.27482"><ele>1398</ele><time>2021-12-08T12:35:55Z</time></trkpt>
    <trkpt lat="47.64672" lon="14.27510"><ele>1396</ele><time>2021-12-08T12:36:13Z</time></trkpt>
    <trkpt lat="47.64673" lon="14.27529"><ele>1400</ele><time>2021-12-08T12:36:32Z</time></trkpt>
    <trkpt lat="47.64663" lon="14.27556"><ele>1404</ele><time>2021-12-08T12:36:50Z</time></trkpt>
    <trkpt lat="47.64653" lon="14.27571"><ele>1400</ele><time>2021-12-08T12:37:08Z</time></trkpt>
    <trkpt lat="47.64641" lon="14.27585"><ele>1401</ele><time>2021-12-08T12:37:26Z</time></trkpt>
    <trkpt lat="47.64630" lon="14.27595"><ele>1401</ele><time>2021-12-08T12:37:45Z</time></trkpt>
    <trkpt lat="47.64622" lon="14.27608"><ele>1402</ele><time>2021-12-08T12:38:03Z</time></trkpt>
    <trkpt lat="47.64609" lon="14.27626"><ele>1401</ele><time>2021-12-08T12:38:22Z</time></trkpt>
    <trkpt lat="47.64589" lon="14.27655"><ele>1402</ele><time>2021-12-08T12:38:41Z</time></trkpt>
    <trkpt lat="47.64573" lon="14.27664"><ele>1410</ele><time>2021-12-08T12:38:59Z</time></trkpt>
    <trkpt lat="47.64563" lon="14.27674"><ele>1412</ele><time>2021-12-08T12:39:18Z</time></trkpt>
    <trkpt lat="47.64552" lon="14.27684"><ele>1415</ele><time>2021-12-08T12:39:37Z</time></trkpt>
    <trkpt lat="47.64539" lon="14.27703"><ele>1418</ele><time>2021-12-08T12:39:56Z</time></trkpt>
    <trkpt lat="47.64531" lon="14.27719"><ele>1419</ele><time>2021-12-08T12:40:14Z</time></trkpt>
    <trkpt lat="47.64525" lon="14.27731"><ele>1422</ele><time>2021-12-08T12:40:33Z</time></trkpt>
    <trkpt lat="47.64516" lon="14.27741"><ele>1426</ele><time>2021-12-08T12:40:52Z</time></trkpt>
    <trkpt lat="47.64507" lon="14.27754"><ele>1431</ele><time>2021-12-08T12:41:11Z</time></trkpt>
    <trkpt lat="47.64501" lon="14.27769"><ele>1433</ele><time>2021-12-08T12:41:30Z</time></trkpt>
    <trkpt lat="47.64495" lon="14.27784"><ele>1432</ele><time>2021-12-08T12:41:48Z</time></trkpt>
    <trkpt lat="47.64489" lon="14.27795"><ele>1434</ele><time>2021-12-08T12:42:06Z</time></trkpt>
    <trkpt lat="47.64482" lon="14.27808"><ele>1436</ele><time>2021-12-08T12:42:25Z</time></trkpt>
    <trkpt lat="47.64473" lon="14.27821"><ele>1436</ele><time>2021-12-08T12:42:44Z</time></trkpt>
    <trkpt lat="47.64464" lon="14.27833"><ele>1441</ele><time>2021-12-08T12:43:02Z</time></trkpt>
    <trkpt lat="47.64457" lon="14.27848"><ele>1441</ele><time>2021-12-08T12:43:20Z</time></trkpt>
    <trkpt lat="47.64447" lon="14.27862"><ele>1442</ele><time>2021-12-08T12:43:39Z</time></trkpt>
    <trkpt lat="47.64437" lon="14.27877"><ele>1441</ele><time>2021-12-08T12:43:57Z</time></trkpt>
    <trkpt lat="47.64426" lon="14.27887"><ele>1443</ele><time>2021-12-08T12:44:16Z</time></trkpt>
    <trkpt lat="47.64417" lon="14.27895"><ele>1445</ele><time>2021-12-08T12:44:35Z</time></trkpt>
    <trkpt lat="47.64407" lon="14.27903"><ele>1447</ele><time>2021-12-08T12:44:53Z</time></trkpt>
    <trkpt lat="47.64400" lon="14.27911"><ele>1450</ele><time>2021-12-08T12:45:12Z</time></trkpt>
    <trkpt lat="47.64384" lon="14.27928"><ele>1453</ele><time>2021-12-08T12:45:49Z</time></trkpt>
    <trkpt lat="47.64373" lon="14.27951"><ele>1462</ele><time>2021-12-08T12:46:28Z</time></trkpt>
    <trkpt lat="47.64364" lon="14.27975"><ele>1461</ele><time>2021-12-08T12:47:11Z</time></trkpt>
    <trkpt lat="47.64353" lon="14.27992"><ele>1474</ele><time>2021-12-08T12:47:50Z</time></trkpt>
    <trkpt lat="47.64341" lon="14.28010"><ele>1476</ele><time>2021-12-08T12:48:28Z</time></trkpt>
    <trkpt lat="47.64333" lon="14.28018"><ele>1477</ele><time>2021-12-08T12:48:46Z</time></trkpt>
    <trkpt lat="47.64326" lon="14.28026"><ele>1481</ele><time>2021-12-08T12:49:05Z</time></trkpt>
    <trkpt lat="47.64310" lon="14.28037"><ele>1489</ele><time>2021-12-08T12:49:43Z</time></trkpt>
    <trkpt lat="47.64303" lon="14.28048"><ele>1491</ele><time>2021-12-08T12:50:01Z</time></trkpt>
    <trkpt lat="47.64297" lon="14.28065"><ele>1492</ele><time>2021-12-08T12:50:20Z</time></trkpt>
    <trkpt lat="47.64281" lon="14.28075"><ele>1499</ele><time>2021-12-08T12:50:58Z</time></trkpt>
    <trkpt lat="47.64277" lon="14.28090"><ele>1501</ele><time>2021-12-08T12:51:17Z</time></trkpt>
    <trkpt lat="47.64267" lon="14.28095"><ele>1504</ele><time>2021-12-08T12:51:36Z</time></trkpt>
    <trkpt lat="47.64252" lon="14.28106"><ele>1505</ele><time>2021-12-08T12:52:15Z</time></trkpt>
    <trkpt lat="47.64241" lon="14.28123"><ele>1516</ele><time>2021-12-08T12:53:02Z</time></trkpt>
    <trkpt lat="47.64232" lon="14.28127"><ele>1517</ele><time>2021-12-08T12:53:21Z</time></trkpt>
    <trkpt lat="47.64224" lon="14.28135"><ele>1520</ele><time>2021-12-08T12:53:40Z</time></trkpt>
    <trkpt lat="47.64210" lon="14.28149"><ele>1528</ele><time>2021-12-08T12:54:21Z</time></trkpt>
    <trkpt lat="47.64199" lon="14.28167"><ele>1535</ele><time>2021-12-08T12:54:59Z</time></trkpt>
    <trkpt lat="47.64188" lon="14.28184"><ele>1541</ele><time>2021-12-08T12:55:44Z</time></trkpt>
    <trkpt lat="47.64174" lon="14.28198"><ele>1545</ele><time>2021-12-08T12:56:23Z</time></trkpt>
    <trkpt lat="47.64166" lon="14.28206"><ele>1549</ele><time>2021-12-08T12:56:42Z</time></trkpt>
    <trkpt lat="47.64159" lon="14.28215"><ele>1529</ele><time>2021-12-08T12:57:00Z</time></trkpt>
    <trkpt lat="47.64145" lon="14.28230"><ele>1552</ele><time>2021-12-08T12:57:39Z</time></trkpt>
    <trkpt lat="47.64129" lon="14.28236"><ele>1556</ele><time>2021-12-08T12:58:20Z</time></trkpt>
    <trkpt lat="47.64121" lon="14.28256"><ele>1565</ele><time>2021-12-08T12:59:09Z</time></trkpt>
    <trkpt lat="47.64115" lon="14.28279"><ele>1571</ele><time>2021-12-08T12:59:49Z</time></trkpt>
    <trkpt lat="47.64100" lon="14.28275"><ele>1571</ele><time>2021-12-08T13:00:30Z</time></trkpt>
    <trkpt lat="47.64085" lon="14.28282"><ele>1576</ele><time>2021-12-08T13:01:19Z</time></trkpt>
    <trkpt lat="47.64080" lon="14.28305"><ele>1580</ele><time>2021-12-08T13:02:31Z</time></trkpt>
    <trkpt lat="47.64068" lon="14.28288"><ele>1585</ele><time>2021-12-08T13:03:39Z</time></trkpt>
    <trkpt lat="47.64059" lon="14.28287"><ele>1585</ele><time>2021-12-08T13:03:58Z</time></trkpt>
    <trkpt lat="47.64053" lon="14.28299"><ele>1589</ele><time>2021-12-08T13:04:17Z</time></trkpt>
    <trkpt lat="47.64037" lon="14.28304"><ele>1595</ele><time>2021-12-08T13:05:12Z</time></trkpt>
    <trkpt lat="47.64018" lon="14.28299"><ele>1593</ele><time>2021-12-08T13:05:50Z</time></trkpt>
    <trkpt lat="47.64014" lon="14.28287"><ele>1597</ele><time>2021-12-08T13:17:39Z</time></trkpt>
    <trkpt lat="47.63966" lon="14.28364"><ele>1580</ele><time>2021-12-08T13:17:58Z</time></trkpt>
    <trkpt lat="47.63955" lon="14.28353"><ele>1576</ele><time>2021-12-08T13:18:44Z</time></trkpt>
    <trkpt lat="47.63848" lon="14.28295"><ele>1549</ele><time>2021-12-08T13:19:02Z</time></trkpt>
    <trkpt lat="47.63748" lon="14.28276"><ele>1522</ele><time>2021-12-08T13:19:21Z</time></trkpt>
    <trkpt lat="47.63679" lon="14.28197"><ele>1504</ele><time>2021-12-08T13:19:39Z</time></trkpt>
    <trkpt lat="47.63610" lon="14.28115"><ele>1478</ele><time>2021-12-08T13:20:40Z</time></trkpt>
    <trkpt lat="47.63504" lon="14.28123"><ele>1452</ele><time>2021-12-08T13:20:58Z</time></trkpt>
    <trkpt lat="47.63358" lon="14.28170"><ele>1425</ele><time>2021-12-08T13:21:17Z</time></trkpt>
    <trkpt lat="47.63289" lon="14.28262"><ele>1415</ele><time>2021-12-08T13:21:36Z</time></trkpt>
    <trkpt lat="47.63279" lon="14.28280"><ele>1412</ele><time>2021-12-08T13:21:55Z</time></trkpt>
    <trkpt lat="47.63267" lon="14.28303"><ele>1412</ele><time>2021-12-08T13:22:13Z</time></trkpt>
    <trkpt lat="47.63264" lon="14.28437"><ele>1399</ele><time>2021-12-08T13:22:31Z</time></trkpt>
    <trkpt lat="47.63251" lon="14.28499"><ele>1395</ele><time>2021-12-08T13:22:50Z</time></trkpt>
    <trkpt lat="47.63245" lon="14.28635"><ele>1377</ele><time>2021-12-08T13:23:08Z</time></trkpt>
    <trkpt lat="47.63214" lon="14.28792"><ele>1361</ele><time>2021-12-08T13:23:26Z</time></trkpt>
    <trkpt lat="47.63141" lon="14.28912"><ele>1336</ele><time>2021-12-08T13:23:45Z</time></trkpt>
    <trkpt lat="47.63136" lon="14.28937"><ele>1328</ele><time>2021-12-08T13:24:03Z</time></trkpt>
    <trkpt lat="47.63035" lon="14.28938"><ele>1308</ele><time>2021-12-08T13:24:45Z</time></trkpt>
    <trkpt lat="47.62971" lon="14.28835"><ele>1290</ele><time>2021-12-08T13:25:04Z</time></trkpt>
    <trkpt lat="47.62927" lon="14.28809"><ele>1277</ele><time>2021-12-08T13:25:23Z</time></trkpt>
    <trkpt lat="47.62863" lon="14.28875"><ele>1265</ele><time>2021-12-08T13:25:41Z</time></trkpt>
    <trkpt lat="47.62851" lon="14.28877"><ele>1268</ele><time>2021-12-08T13:26:00Z</time></trkpt>
    <trkpt lat="47.62828" lon="14.28932"><ele>1250</ele><time>2021-12-08T13:26:18Z</time></trkpt>
    <trkpt lat="47.62775" lon="14.29023"><ele>1222</ele><time>2021-12-08T13:26:37Z</time></trkpt>
    <trkpt lat="47.62769" lon="14.29038"><ele>1221</ele><time>2021-12-08T13:27:07Z</time></trkpt>
    <trkpt lat="47.62717" lon="14.29173"><ele>1191</ele><time>2021-12-08T13:27:25Z</time></trkpt>
    <trkpt lat="47.62639" lon="14.29293"><ele>1160</ele><time>2021-12-08T13:27:44Z</time></trkpt>
    <trkpt lat="47.62619" lon="14.29490"><ele>1147</ele><time>2021-12-08T13:28:02Z</time></trkpt>
    <trkpt lat="47.62625" lon="14.29510"><ele>1128</ele><time>2021-12-08T13:28:21Z</time></trkpt>
    <trkpt lat="47.62648" lon="14.29672"><ele>1099</ele><time>2021-12-08T13:29:11Z</time></trkpt>
    <trkpt lat="47.62669" lon="14.29853"><ele>1073</ele><time>2021-12-08T13:29:30Z</time></trkpt>
    <trkpt lat="47.62721" lon="14.30014"><ele>1055</ele><time>2021-12-08T13:29:48Z</time></trkpt>
    <trkpt lat="47.62759" lon="14.30144"><ele>1060</ele><time>2021-12-08T13:30:06Z</time></trkpt>
    <trkpt lat="47.62764" lon="14.30168"><ele>1027</ele><time>2021-12-08T13:30:24Z</time></trkpt>
    <trkpt lat="47.62800" lon="14.30373"><ele>1147</ele><time>2021-12-08T13:30:43Z</time></trkpt>
    <trkpt lat="47.62840" lon="14.30552"><ele>1027</ele><time>2021-12-08T13:31:01Z</time></trkpt>
    <trkpt lat="47.62877" lon="14.30732"><ele>971</ele><time>2021-12-08T13:31:20Z</time></trkpt>
    <trkpt lat="47.62950" lon="14.30904"><ele>937</ele><time>2021-12-08T13:31:38Z</time></trkpt>
    <trkpt lat="47.62985" lon="14.31022"><ele>906</ele><time>2021-12-08T13:31:56Z</time></trkpt>
    <trkpt lat="47.62986" lon="14.31038"><ele>899</ele><time>2021-12-08T13:32:39Z</time></trkpt>
    <trkpt lat="47.62924" lon="14.31206"><ele>1014</ele><time>2021-12-08T13:32:58Z</time></trkpt>
    <trkpt lat="47.62871" lon="14.31294"><ele>880</ele><time>2021-12-08T13:33:16Z</time></trkpt>
    <trkpt lat="47.62810" lon="14.31366"><ele>859</ele><time>2021-12-08T13:33:35Z</time></trkpt>
    <trkpt lat="47.62726" lon="14.31392"><ele>838</ele><time>2021-12-08T13:33:54Z</time></trkpt>
    <trkpt lat="47.62779" lon="14.31550"><ele>817</ele><time>2021-12-08T13:34:13Z</time></trkpt>
    <trkpt lat="47.62776" lon="14.31616"><ele>840</ele><time>2021-12-08T13:34:31Z</time></trkpt>
    <trkpt lat="47.62783" lon="14.31683"><ele>813</ele><time>2021-12-08T13:34:50Z</time></trkpt>
  </trkseg>
</trk>
</gpx>