<?xml version="1.0" encoding="UTF-8"?>
<gpx version="1.1" creator="GPX-Pro" xmlns="http://www.topografix.com/GPX/1/1">
<trk>
  <name>Hike_Grillenparz</name>
  <trkseg>
    <trkpt lat="47.90658" lon="14.11640"><ele>435</ele><time>2021-12-31T10:34:50Z</time></trkpt>
    <trkpt lat="47.90648" lon="14.11671"><ele>432</ele><time>2021-12-31T10:35:01Z</time></trkpt>
    <trkpt lat="47.90629" lon="14.11675"><ele>435</ele><time>2021-12-31T10:35:47Z</time></trkpt>
    <trkpt lat="47.90608" lon="14.11681"><ele>428</ele><time>2021-12-31T10:36:05Z</time></trkpt>
    <trkpt lat="47.90590" lon="14.11691"><ele>430</ele><time>2021-12-31T10:36:24Z</time></trkpt>
    <trkpt lat="47.90596" lon="14.11724"><ele>431</ele><time>2021-12-31T10:36:43Z</time></trkpt>
    <trkpt lat="47.90604" lon="14.11754"><ele>434</ele><time>2021-12-31T10:37:01Z</time></trkpt>
    <trkpt lat="47.90611" lon="14.11788"><ele>434</ele><time>2021-12-31T10:37:20Z</time></trkpt>
    <trkpt lat="47.90618" lon="14.11820"><ele>434</ele><time>2021-12-31T10:37:39Z</time></trkpt>
    <trkpt lat="47.90628" lon="14.11855"><ele>434</ele><time>2021-12-31T10:37:58Z</time></trkpt>
    <trkpt lat="47.90636" lon="14.11891"><ele>436</ele><time>2021-12-31T10:38:16Z</time></trkpt>
    <trkpt lat="47.90643" lon="14.11934"><ele>439</ele><time>2021-12-31T10:38:35Z</time></trkpt>
    <trkpt lat="47.90636" lon="14.11944"><ele>439</ele><time>2021-12-31T10:38:53Z</time></trkpt>
    <trkpt lat="47.90644" lon="14.11986"><ele>436</ele><time>2021-12-31T10:40:43Z</time></trkpt>
    <trkpt lat="47.90658" lon="14.12019"><ele>444</ele><time>2021-12-31T10:41:01Z</time></trkpt>
    <trkpt lat="47.90667" lon="14.12052"><ele>444</ele><time>2021-12-31T10:41:19Z</time></trkpt>
    <trkpt lat="47.90671" lon="14.12088"><ele>444</ele><time>2021-12-31T10:41:38Z</time></trkpt>
    <trkpt lat="47.90680" lon="14.12123"><ele>446</ele><time>2021-12-31T10:41:57Z</time></trkpt>
    <trkpt lat="47.90686" lon="14.12159"><ele>445</ele><time>2021-12-31T10:42:16Z</time></trkpt>
    <trkpt lat="47.90690" lon="14.12186"><ele>446</ele><time>2021-12-31T10:42:35Z</time></trkpt>
    <trkpt lat="47.90675" lon="14.12184"><ele>444</ele><time>2021-12-31T10:42:54Z</time></trkpt>
    <trkpt lat="47.90654" lon="14.12194"><ele>442</ele><time>2021-12-31T10:43:12Z</time></trkpt>
    <trkpt lat="47.90638" lon="14.12204"><ele>439</ele><time>2021-12-31T10:43:31Z</time></trkpt>
    <trkpt lat="47.90620" lon="14.12217"><ele>441</ele><time>2021-12-31T10:43:49Z</time></trkpt>
    <trkpt lat="47.90603" lon="14.12217"><ele>450</ele><time>2021-12-31T10:44:26Z</time></trkpt>
    <trkpt lat="47.90587" lon="14.12222"><ele>448</ele><time>2021-12-31T10:44:44Z</time></trkpt>
    <trkpt lat="47.90586" lon="14.12245"><ele>453</ele><time>2021-12-31T10:45:03Z</time></trkpt>
    <trkpt lat="47.90590" lon="14.12275"><ele>452</ele><time>2021-12-31T10:45:21Z</time></trkpt>
    <trkpt lat="47.90610" lon="14.12292"><ele>447</ele><time>2021-12-31T10:45:39Z</time></trkpt>
    <trkpt lat="47.90625" lon="14.12322"><ele>446</ele><time>2021-12-31T10:45:58Z</time></trkpt>
    <trkpt lat="47.90637" lon="14.12356"><ele>453</ele><time>2021-12-31T10:46:16Z</time></trkpt>
    <trkpt lat="47.90643" lon="14.12385"><ele>452</ele><time>2021-12-31T10:46:34Z</time></trkpt>
    <trkpt lat="47.90647" lon="14.12415"><ele>451</ele><time>2021-12-31T10:46:53Z</time></trkpt>
    <trkpt lat="47.90659" lon="14.12441"><ele>444</ele><time>2021-12-31T10:47:12Z</time></trkpt>
    <trkpt lat="47.90671" lon="14.12456"><ele>447</ele><time>2021-12-31T10:47:30Z</time></trkpt>
    <trkpt lat="47.90692" lon="14.12455"><ele>451</ele><time>2021-12-31T10:47:49Z</time></trkpt>
    <trkpt lat="47.90712" lon="14.12449"><ele>455</ele><time>2021-12-31T10:48:07Z</time></trkpt>
    <trkpt lat="47.90732" lon="14.12438"><ele>459</ele><time>2021-12-31T10:48:26Z</time></trkpt>
    <trkpt lat="47.90752" lon="14.12423"><ele>464</ele><time>2021-12-31T10:48:44Z</time></trkpt>
    <trkpt lat="47.90773" lon="14.12403"><ele>463</ele><time>2021-12-31T10:49:03Z</time></trkpt>
    <trkpt lat="47.90792" lon="14.12384"><ele>463</ele><time>2021-12-31T10:49:21Z</time></trkpt>
    <trkpt lat="47.90807" lon="14.12403"><ele>457</ele><time>2021-12-31T10:49:40Z</time></trkpt>
    <trkpt lat="47.90798" lon="14.12429"><ele>453</ele><time>2021-12-31T10:49:58Z</time></trkpt>
    <trkpt lat="47.90799" lon="14.12462"><ele>463</ele><time>2021-12-31T10:53:10Z</time></trkpt>
    <trkpt lat="47.90808" lon="14.12490"><ele>465</ele><time>2021-12-31T10:53:28Z</time></trkpt>
    <trkpt lat="47.90810" lon="14.12523"><ele>465</ele><time>2021-12-31T10:53:46Z</time></trkpt>
    <trkpt lat="47.90814" lon="14.12550"><ele>462</ele><time>2021-12-31T10:54:05Z</time></trkpt>
    <trkpt lat="47.90827" lon="14.12557"><ele>461</ele><time>2021-12-31T10:54:24Z</time></trkpt>
    <trkpt lat="47.90846" lon="14.12545"><ele>462</ele><time>2021-12-31T10:54:42Z</time></trkpt>
    <trkpt lat="47.90867" lon="14.12527"><ele>470</ele><time>2021-12-31T10:55:00Z</time></trkpt>
    <trkpt lat="47.90888" lon="14.12516"><ele>470</ele><time>2021-12-31T10:55:18Z</time></trkpt>
    <trkpt lat="47.90907" lon="14.12527"><ele>465</ele><time>2021-12-31T10:55:37Z</time></trkpt>
    <trkpt lat="47.90916" lon="14.12547"><ele>467</ele><time>2021-12-31T10:55:55Z</time></trkpt>
    <trkpt lat="47.90923" lon="14.12569"><ele>467</ele><time>2021-12-31T10:56:13Z</time></trkpt>
    <trkpt lat="47.90931" lon="14.12589"><ele>468</ele><time>2021-12-31T10:56:31Z</time></trkpt>
    <trkpt lat="47.90940" lon="14.12605"><ele>470</ele><time>2021-12-31T10:56:50Z</time></trkpt>
    <trkpt lat="47.90952" lon="14.12622"><ele>470</ele><time>2021-12-31T10:57:09Z</time></trkpt>
    <trkpt lat="47.90964" lon="14.12633"><ele>472</ele><time>2021-12-31T10:57:27Z</time></trkpt>
    <trkpt lat="47.90980" lon="14.12639"><ele>476</ele><time>2021-12-31T10:57:46Z</time></trkpt>
    <trkpt lat="47.90993" lon="14.12639"><ele>478</ele><time>2021-12-31T10:58:04Z</time></trkpt>
    <trkpt lat="47.91004" lon="14.12651"><ele>479</ele><time>2021-12-31T10:58:22Z</time></trkpt>
    <trkpt lat="47.91014" lon="14.12661"><ele>480</ele><time>2021-12-31T10:58:40Z</time></trkpt>
    <trkpt lat="47.91026" lon="14.12672"><ele>483</ele><time>2021-12-31T10:58:58Z</time></trkpt>
    <trkpt lat="47.91036" lon="14.12684"><ele>485</ele><time>2021-12-31T10:59:17Z</time></trkpt>
    <trkpt lat="47.91044" lon="14.12691"><ele>489</ele><time>2021-12-31T10:59:36Z</time></trkpt>
    <trkpt lat="47.91055" lon="14.12714"><ele>487</ele><time>2021-12-31T11:00:13Z</time></trkpt>
    <trkpt lat="47.91065" lon="14.12728"><ele>490</ele><time>2021-12-31T11:00:32Z</time></trkpt>
    <trkpt lat="47.91081" lon="14.12731"><ele>494</ele><time>2021-12-31T11:00:51Z</time></trkpt>
    <trkpt lat="47.91092" lon="14.12733"><ele>495</ele><time>2021-12-31T11:01:09Z</time></trkpt>
    <trkpt lat="47.91103" lon="14.12743"><ele>500</ele><time>2021-12-31T11:01:28Z</time></trkpt>
    <trkpt lat="47.91118" lon="14.12747"><ele>501</ele><time>2021-12-31T11:04:18Z</time></trkpt>
    <trkpt lat="47.91127" lon="14.12762"><ele>496</ele><time>2021-12-31T11:04:37Z</time></trkpt>
    <trkpt lat="47.91136" lon="14.12772"><ele>507</ele><time>2021-12-31T11:04:55Z</time></trkpt>
    <trkpt lat="47.91142" lon="14.12786"><ele>509</ele><time>2021-12-31T11:05:13Z</time></trkpt>
    <trkpt lat="47.91154" lon="14.12795"><ele>510</ele><time>2021-12-31T11:05:31Z</time></trkpt>
    <trkpt lat="47.91167" lon="14.12802"><ele>510</ele><time>2021-12-31T11:05:49Z</time></trkpt>
    <trkpt lat="47.91180" lon="14.12812"><ele>515</ele><time>2021-12-31T11:06:08Z</time></trkpt>
    <trkpt lat="47.91187" lon="14.12827"><ele>518</ele><time>2021-12-31T11:06:27Z</time></trkpt>
    <trkpt lat="47.91195" lon="14.12841"><ele>522</ele><time>2021-12-31T11:06:46Z</time></trkpt>
    <trkpt lat="47.91204" lon="14.12845"><ele>524</ele><time>2021-12-31T11:07:05Z</time></trkpt>
    <trkpt lat="47.91212" lon="14.12852"><ele>527</ele><time>2021-12-31T11:07:23Z</time></trkpt>
    <trkpt lat="47.91220" lon="14.12860"><ele>526</ele><time>2021-12-31T11:07:42Z</time></trkpt>
    <trkpt lat="47.91227" lon="14.12872"><ele>530</ele><time>2021-12-31T11:08:00Z</time></trkpt>
    <trkpt lat="47.91238" lon="14.12883"><ele>536</ele><time>2021-12-31T11:08:19Z</time></trkpt>
    <trkpt lat="47.91246" lon="14.12895"><ele>539</ele><time>2021-12-31T11:08:37Z</time></trkpt>
    <trkpt lat="47.91256" lon="14.12898"><ele>541</ele><time>2021-12-31T11:08:56Z</time></trkpt>
    <trkpt lat="47.91266" lon="14.12905"><ele>547</ele><time>2021-12-31T11:09:14Z</time></trkpt>
    <trkpt lat="47.91275" lon="14.12910"><ele>550</ele><time>2021-12-31T11:09:33Z</time></trkpt>
    <trkpt lat="47.91290" lon="14.12906"><ele>549</ele><time>2021-12-31T11:10:20Z</time></trkpt>
    <trkpt lat="47.91301" lon="14.12905"><ele>547</ele><time>2021-12-31T11:10:38Z</time></trkpt>
    <trkpt lat="47.91315" lon="14.12890"><ele>548</ele><time>2021-12-31T11:10:57Z</time></trkpt>
    <trkpt lat="47.91326" lon="14.12884"><ele>547</ele><time>2021-12-31T11:11:15Z</time></trkpt>
    <trkpt lat="47.91338" lon="14.12879"><ele>553</ele><time>2021-12-31T11:11:34Z</time></trkpt>
    <trkpt lat="47.91349" lon="14.12883"><ele>554</ele><time>2021-12-31T11:11:51Z</time></trkpt>
    <trkpt lat="47.91360" lon="14.12887"><ele>555</ele><time>2021-12-31T11:12:11Z</time></trkpt>
    <trkpt lat="47.91373" lon="14.12892"><ele>556</ele><time>2021-12-31T11:12:29Z</time></trkpt>
    <trkpt lat="47.91392" lon="14.12900"><ele>559</ele><time>2021-12-31T11:12:48Z</time></trkpt>
    <trkpt lat="47.91419" lon="14.12915"><ele>563</ele><time>2021-12-31T11:13:30Z</time></trkpt>
    <trkpt lat="47.91409" lon="14.12935"><ele>565</ele><time>2021-12-31T11:13:49Z</time></trkpt>
    <trkpt lat="47.91388" lon="14.12938"><ele>571</ele><time>2021-12-31T11:14:08Z</time></trkpt>
    <trkpt lat="47.91374" lon="14.12948"><ele>555</ele><time>2021-12-31T11:14:27Z</time></trkpt>
    <trkpt lat="47.91375" lon="14.12968"><ele>574</ele><time>2021-12-31T11:14:45Z</time></trkpt>
    <trkpt lat="47.91375" lon="14.12986"><ele>579</ele><time>2021-12-31T11:15:04Z</time></trkpt>
    <trkpt lat="47.91375" lon="14.13002"><ele>582</ele><time>2021-12-31T11:15:22Z</time></trkpt>
    <trkpt lat="47.91392" lon="14.13009"><ele>585</ele><time>2021-12-31T11:16:01Z</time></trkpt>
    <trkpt lat="47.91407" lon="14.13003"><ele>573</ele><time>2021-12-31T11:16:19Z</time></trkpt>
    <trkpt lat="47.91422" lon="14.13008"><ele>591</ele><time>2021-12-31T11:16:38Z</time></trkpt>
    <trkpt lat="47.91438" lon="14.13016"><ele>579</ele><time>2021-12-31T11:16:57Z</time></trkpt>
    <trkpt lat="47.91456" lon="14.13021"><ele>584</ele><time>2021-12-31T11:17:17Z</time></trkpt>
    <trkpt lat="47.91472" lon="14.13018"><ele>594</ele><time>2021-12-31T11:17:35Z</time></trkpt>
    <trkpt lat="47.91488" lon="14.13014"><ele>582</ele><time>2021-12-31T11:17:53Z</time></trkpt>
    <trkpt lat="47.91503" lon="14.13002"><ele>603</ele><time>2021-12-31T11:18:12Z</time></trkpt>
    <trkpt lat="47.91515" lon="14.12994"><ele>605</ele><time>2021-12-31T11:18:30Z</time></trkpt>
    <trkpt lat="47.91522" lon="14.12986"><ele>601</ele><time>2021-12-31T11:18:48Z</time></trkpt>
    <trkpt lat="47.91527" lon="14.12965"><ele>604</ele><time>2021-12-31T11:19:06Z</time></trkpt>
    <trkpt lat="47.91528" lon="14.12945"><ele>577</ele><time>2021-12-31T11:19:25Z</time></trkpt>
    <trkpt lat="47.91532" lon="14.12929"><ele>599</ele><time>2021-12-31T11:19:43Z</time></trkpt>
    <trkpt lat="47.91540" lon="14.12904"><ele>616</ele><time>2021-12-31T11:20:21Z</time></trkpt>
    <trkpt lat="47.91545" lon="14.12879"><ele>621</ele><time>2021-12-31T11:21:03Z</time></trkpt>
    <trkpt lat="47.91555" lon="14.12853"><ele>608</ele><time>2021-12-31T11:21:40Z</time></trkpt>
    <trkpt lat="47.91563" lon="14.12842"><ele>568</ele><time>2021-12-31T11:21:59Z</time></trkpt>
    <trkpt lat="47.91577" lon="14.12827"><ele>619</ele><time>2021-12-31T11:22:39Z</time></trkpt>
    <trkpt lat="47.91585" lon="14.12817"><ele>627</ele><time>2021-12-31T11:22:58Z</time></trkpt>
    <trkpt lat="47.91607" lon="14.12812"><ele>565</ele><time>2021-12-31T11:23:39Z</time></trkpt>
    <trkpt lat="47.91616" lon="14.12805"><ele>571</ele><time>2021-12-31T11:23:57Z</time></trkpt>
    <trkpt lat="47.91636" lon="14.12802"><ele>599</ele><time>2021-12-31T11:24:39Z</time></trkpt>
    <trkpt lat="47.91645" lon="14.12800"><ele>510</ele><time>2021-12-31T11:24:57Z</time></trkpt>
    <trkpt lat="47.91662" lon="14.12796"><ele>589</ele><time>2021-12-31T11:25:34Z</time></trkpt>
    <trkpt lat="47.91678" lon="14.12794"><ele>656</ele><time>2021-12-31T11:26:17Z</time></trkpt>
    <trkpt lat="47.91692" lon="14.12781"><ele>619</ele><time>2021-12-31T11:26:55Z</time></trkpt>
    <trkpt lat="47.91700" lon="14.12770"><ele>657</ele><time>2021-12-31T11:27:14Z</time></trkpt>
    <trkpt lat="47.91708" lon="14.12775"><ele>601</ele><time>2021-12-31T11:28:04Z</time></trkpt>
    <trkpt lat="47.91722" lon="14.12785"><ele>644</ele><time>2021-12-31T11:28:50Z</time></trkpt>
    <trkpt lat="47.91738" lon="14.12791"><ele>679</ele><time>2021-12-31T11:29:55Z</time></trkpt>
    <trkpt lat="47.91748" lon="14.12806"><ele>702</ele><time>2021-12-31T11:30:43Z</time></trkpt>
    <trkpt lat="47.91759" lon="14.12825"><ele>710</ele><time>2021-12-31T11:31:24Z</time></trkpt>
    <trkpt lat="47.91770" lon="14.12843"><ele>697</ele><time>2021-12-31T11:32:11Z</time></trkpt>
    <trkpt lat="47.91780" lon="14.12854"><ele>722</ele><time>2021-12-31T11:33:00Z</time></trkpt>
    <trkpt lat="47.91805" lon="14.12857"><ele>719</ele><time>2021-12-31T11:33:41Z</time></trkpt>
    <trkpt lat="47.91821" lon="14.12862"><ele>708</ele><time>2021-12-31T11:33:59Z</time></trkpt>
    <trkpt lat="47.91840" lon="14.12878"><ele>722</ele><time>2021-12-31T11:34:17Z</time></trkpt>
    <trkpt lat="47.91858" lon="14.12886"><ele>694</ele><time>2021-12-31T11:34:35Z</time></trkpt>
    <trkpt lat="47.91877" lon="14.12894"><ele>556</ele><time>2021-12-31T11:34:54Z</time></trkpt>
    <trkpt lat="47.91901" lon="14.12904"><ele>731</ele><time>2021-12-31T11:35:13Z</time></trkpt>
    <trkpt lat="47.91914" lon="14.12916"><ele>730</ele><time>2021-12-31T11:35:31Z</time></trkpt>
    <trkpt lat="47.91896" lon="14.12918"><ele>638</ele><time>2021-12-31T11:35:49Z</time></trkpt>
    <trkpt lat="47.91877" lon="14.12914"><ele>722</ele><time>2021-12-31T11:36:07Z</time></trkpt>
    <trkpt lat="47.91859" lon="14.12908"><ele>738</ele><time>2021-12-31T11:36:26Z</time></trkpt>
    <trkpt lat="47.91843" lon="14.12919"><ele>724</ele><time>2021-12-31T11:36:45Z</time></trkpt>
    <trkpt lat="47.91842" lon="14.12936"><ele>689</ele><time>2021-12-31T11:37:04Z</time></trkpt>
    <trkpt lat="47.91851" lon="14.12948"><ele>724</ele><time>2021-12-31T11:37:23Z</time></trkpt>
    <trkpt lat="47.91860" lon="14.12956"><ele>631</ele><time>2021-12-31T11:37:41Z</time></trkpt>
    <trkpt lat="47.91866" lon="14.12978"><ele>731</ele><time>2021-12-31T11:38:19Z</time></trkpt>
    <trkpt lat="47.91870" lon="14.12991"><ele>647</ele><time>2021-12-31T11:38:38Z</time></trkpt>
    <trkpt lat="47.91880" lon="14.13014"><ele>740</ele><time>2021-12-31T11:39:17Z</time></trkpt>
    <trkpt lat="47.91889" lon="14.13024"><ele>753</ele><time>2021-12-31T11:39:36Z</time></trkpt>
    <trkpt lat="47.91896" lon="14.13031"><ele>757</ele><time>2021-12-31T11:39:55Z</time></trkpt>
    <trkpt lat="47.91911" lon="14.13042"><ele>765</ele><time>2021-12-31T11:40:14Z</time></trkpt>
    <trkpt lat="47.91916" lon="14.13054"><ele>766</ele><time>2021-12-31T11:40:33Z</time></trkpt>
    <trkpt lat="47.91924" lon="14.13066"><ele>761</ele><time>2021-12-31T11:40:51Z</time></trkpt>
    <trkpt lat="47.91931" lon="14.13078"><ele>734</ele><time>2021-12-31T11:41:10Z</time></trkpt>
    <trkpt lat="47.91947" lon="14.13093"><ele>736</ele><time>2021-12-31T11:42:04Z</time></trkpt>
    <trkpt lat="47.91953" lon="14.13104"><ele>762</ele><time>2021-12-31T11:42:22Z</time></trkpt>
    <trkpt lat="47.91960" lon="14.13117"><ele>772</ele><time>2021-12-31T11:42:41Z</time></trkpt>
    <trkpt lat="47.91967" lon="14.13129"><ele>711</ele><time>2021-12-31T11:42:59Z</time></trkpt>
    <trkpt lat="47.91979" lon="14.13152"><ele>740</ele><time>2021-12-31T11:43:37Z</time></trkpt>
    <trkpt lat="47.91988" lon="14.13163"><ele>791</ele><time>2021-12-31T11:43:55Z</time></trkpt>
    <trkpt lat="47.92008" lon="14.13176"><ele>783</ele><time>2021-12-31T11:44:33Z</time></trkpt>
    <trkpt lat="47.92001" lon="14.13188"><ele>710</ele><time>2021-12-31T11:44:51Z</time></trkpt>
    <trkpt lat="47.92012" lon="14.13207"><ele>807</ele><time>2021-12-31T11:45:46Z</time></trkpt>
    <trkpt lat="47.92021" lon="14.13210"><ele>810</ele><time>2021-12-31T11:46:05Z</time></trkpt>
    <trkpt lat="47.92032" lon="14.13215"><ele>815</ele><time>2021-12-31T11:46:24Z</time></trkpt>
    <trkpt lat="47.92044" lon="14.13220"><ele>818</ele><time>2021-12-31T11:46:42Z</time></trkpt>
    <trkpt lat="47.92058" lon="14.13226"><ele>820</ele><time>2021-12-31T11:47:01Z</time></trkpt>
    <trkpt lat="47.92070" lon="14.13234"><ele>823</ele><time>2021-12-31T11:47:19Z</time></trkpt>
    <trkpt lat="47.92080" lon="14.13245"><ele>829</ele><time>2021-12-31T11:47:37Z</time></trkpt>
    <trkpt lat="47.92089" lon="14.13258"><ele>832</ele><time>2021-12-31T11:47:56Z</time></trkpt>
    <trkpt lat="47.92094" lon="14.13277"><ele>834</ele><time>2021-12-31T11:48:15Z</time></trkpt>
    <trkpt lat="47.92087" lon="14.13287"><ele>834</ele><time>2021-12-31T11:48:33Z</time></trkpt>
    <trkpt lat="47.92075" lon="14.13295"><ele>835</ele><time>2021-12-31T11:48:52Z</time></trkpt>
    <trkpt lat="47.92065" lon="14.13307"><ele>837</ele><time>2021-12-31T11:49:11Z</time></trkpt>
    <trkpt lat="47.92056" lon="14.13316"><ele>841</ele><time>2021-12-31T11:49:30Z</time></trkpt>
    <trkpt lat="47.92047" lon="14.13327"><ele>841</ele><time>2021-12-31T11:49:48Z</time></trkpt>
    <trkpt lat="47.92066" lon="14.13307"><ele>832</ele><time>2021-12-31T11:50:26Z</time></trkpt>
    <trkpt lat="47.92084" lon="14.13296"><ele>823</ele><time>2021-12-31T11:50:45Z</time></trkpt>
    <trkpt lat="47.92097" lon="14.13282"><ele>822</ele><time>2021-12-31T11:51:03Z</time></trkpt>
    <trkpt lat="47.92110" lon="14.13259"><ele>821</ele><time>2021-12-31T11:51:22Z</time></trkpt>
    <trkpt lat="47.92109" lon="14.13235"><ele>823</ele><time>2021-12-31T12:52:01Z</time></trkpt>
    <trkpt lat="47.92108" lon="14.13259"><ele>824</ele><time>2021-12-31T13:06:45Z</time></trkpt>
    <trkpt lat="47.92106" lon="14.13284"><ele>829</ele><time>2021-12-31T13:07:03Z</time></trkpt>
    <trkpt lat="47.92107" lon="14.13315"><ele>826</ele><time>2021-12-31T13:07:22Z</time></trkpt>
    <trkpt lat="47.92115" lon="14.13333"><ele>824</ele><time>2021-12-31T13:07:41Z</time></trkpt>
    <trkpt lat="47.92115" lon="14.13348"><ele>821</ele><time>2021-12-31T13:07:59Z</time></trkpt>
    <trkpt lat="47.92097" lon="14.13362"><ele>819</ele><time>2021-12-31T13:08:17Z</time></trkpt>
    <trkpt lat="47.92078" lon="14.13380"><ele>818</ele><time>2021-12-31T13:08:36Z</time></trkpt>
    <trkpt lat="47.92052" lon="14.13392"><ele>818</ele><time>2021-12-31T13:08:55Z</time></trkpt>
    <trkpt lat="47.92030" lon="14.13402"><ele>818</ele><time>2021-12-31T13:09:14Z</time></trkpt>
    <trkpt lat="47.92010" lon="14.13411"><ele>815</ele><time>2021-12-31T13:09:33Z</time></trkpt>
    <trkpt lat="47.91996" lon="14.13434"><ele>809</ele><time>2021-12-31T13:09:51Z</time></trkpt>
    <trkpt lat="47.91981" lon="14.13458"><ele>809</ele><time>2021-12-31T13:10:10Z</time></trkpt>
    <trkpt lat="47.91969" lon="14.13487"><ele>811</ele><time>2021-12-31T13:10:29Z</time></trkpt>
    <trkpt lat="47.91958" lon="14.13516"><ele>805</ele><time>2021-12-31T13:10:47Z</time></trkpt>
    <trkpt lat="47.91942" lon="14.13547"><ele>805</ele><time>2021-12-31T13:11:06Z</time></trkpt>
    <trkpt lat="47.91929" lon="14.13577"><ele>805</ele><time>2021-12-31T13:11:25Z</time></trkpt>
    <trkpt lat="47.91912" lon="14.13606"><ele>805</ele><time>2021-12-31T13:11:43Z</time></trkpt>
    <trkpt lat="47.91895" lon="14.13635"><ele>801</ele><time>2021-12-31T13:12:20Z</time></trkpt>
    <trkpt lat="47.91886" lon="14.13665"><ele>801</ele><time>2021-12-31T13:12:38Z</time></trkpt>
    <trkpt lat="47.91880" lon="14.13695"><ele>795</ele><time>2021-12-31T13:12:57Z</time></trkpt>
    <trkpt lat="47.91871" lon="14.13735"><ele>796</ele><time>2021-12-31T13:13:16Z</time></trkpt>
    <trkpt lat="47.91866" lon="14.13769"><ele>795</ele><time>2021-12-31T13:13:35Z</time></trkpt>
    <trkpt lat="47.91853" lon="14.13765"><ele>796</ele><time>2021-12-31T13:13:54Z</time></trkpt>
    <trkpt lat="47.91838" lon="14.13747"><ele>794</ele><time>2021-12-31T13:14:12Z</time></trkpt>
    <trkpt lat="47.91827" lon="14.13728"><ele>784</ele><time>2021-12-31T13:14:30Z</time></trkpt>
    <trkpt lat="47.91820" lon="14.13695"><ele>777</ele><time>2021-12-31T13:14:49Z</time></trkpt>
    <trkpt lat="47.91813" lon="14.13661"><ele>782</ele><time>2021-12-31T13:15:07Z</time></trkpt>
    <trkpt lat="47.91807" lon="14.13631"><ele>780</ele><time>2021-12-31T13:15:26Z</time></trkpt>
    <trkpt lat="47.91796" lon="14.13607"><ele>778</ele><time>2021-12-31T13:15:44Z</time></trkpt>
    <trkpt lat="47.91782" lon="14.13583"><ele>773</ele><time>2021-12-31T13:16:03Z</time></trkpt>
    <trkpt lat="47.91771" lon="14.13559"><ele>767</ele><time>2021-12-31T13:16:22Z</time></trkpt>
    <trkpt lat="47.91759" lon="14.13527"><ele>767</ele><time>2021-12-31T13:17:01Z</time></trkpt>
    <trkpt lat="47.91752" lon="14.13504"><ele>764</ele><time>2021-12-31T13:17:20Z</time></trkpt>
    <trkpt lat="47.91743" lon="14.13493"><ele>758</ele><time>2021-12-31T13:17:39Z</time></trkpt>
    <trkpt lat="47.91731" lon="14.13511"><ele>723</ele><time>2021-12-31T13:17:58Z</time></trkpt>
    <trkpt lat="47.91722" lon="14.13538"><ele>757</ele><time>2021-12-31T13:18:17Z</time></trkpt>
    <trkpt lat="47.91712" lon="14.13559"><ele>735</ele><time>2021-12-31T13:18:35Z</time></trkpt>
    <trkpt lat="47.91703" lon="14.13585"><ele>728</ele><time>2021-12-31T13:18:54Z</time></trkpt>
    <trkpt lat="47.91691" lon="14.13576"><ele>732</ele><time>2021-12-31T13:19:12Z</time></trkpt>
    <trkpt lat="47.91690" lon="14.13554"><ele>714</ele><time>2021-12-31T13:19:30Z</time></trkpt>
    <trkpt lat="47.91683" lon="14.13523"><ele>706</ele><time>2021-12-31T13:19:48Z</time></trkpt>
    <trkpt lat="47.91688" lon="14.13498"><ele>728</ele><time>2021-12-31T13:20:07Z</time></trkpt>
    <trkpt lat="47.91680" lon="14.13466"><ele>722</ele><time>2021-12-31T13:20:25Z</time></trkpt>
    <trkpt lat="47.91665" lon="14.13438"><ele>691</ele><time>2021-12-31T13:20:44Z</time></trkpt>
    <trkpt lat="47.91656" lon="14.13424"><ele>715</ele><time>2021-12-31T13:21:03Z</time></trkpt>
    <trkpt lat="47.91642" lon="14.13439"><ele>722</ele><time>2021-12-31T13:21:22Z</time></trkpt>
    <trkpt lat="47.91636" lon="14.13455"><ele>716</ele><time>2021-12-31T13:21:40Z</time></trkpt>
    <trkpt lat="47.91623" lon="14.13449"><ele>696</ele><time>2021-12-31T13:21:59Z</time></trkpt>
    <trkpt lat="47.91618" lon="14.13429"><ele>705</ele><time>2021-12-31T13:22:17Z</time></trkpt>
    <trkpt lat="47.91613" lon="14.13405"><ele>704</ele><time>2021-12-31T13:22:36Z</time></trkpt>
    <trkpt lat="47.91613" lon="14.13384"><ele>700</ele><time>2021-12-31T13:22:54Z</time></trkpt>
    <trkpt lat="47.91607" lon="14.13352"><ele>670</ele><time>2021-12-31T13:23:31Z</time></trkpt>
    <trkpt lat="47.91604" lon="14.13329"><ele>693</ele><time>2021-12-31T13:23:50Z</time></trkpt>
    <trkpt lat="47.91603" lon="14.13305"><ele>645</ele><time>2021-12-31T13:24:08Z</time></trkpt>
    <trkpt lat="47.91604" lon="14.13283"><ele>689</ele><time>2021-12-31T13:24:27Z</time></trkpt>
    <trkpt lat="47.91604" lon="14.13266"><ele>684</ele><time>2021-12-31T13:24:46Z</time></trkpt>
    <trkpt lat="47.91595" lon="14.13265"><ele>692</ele><time>2021-12-31T13:25:48Z</time></trkpt>
    <trkpt lat="47.91588" lon="14.13279"><ele>667</ele><time>2021-12-31T13:26:06Z</time></trkpt>
    <trkpt lat="47.91578" lon="14.13303"><ele>673</ele><time>2021-12-31T13:26:25Z</time></trkpt>
    <trkpt lat="47.91566" lon="14.13327"><ele>673</ele><time>2021-12-31T13:26:44Z</time></trkpt>
    <trkpt lat="47.91560" lon="14.13340"><ele>672</ele><time>2021-12-31T13:27:03Z</time></trkpt>
    <trkpt lat="47.91548" lon="14.13329"><ele>667</ele><time>2021-12-31T13:29:47Z</time></trkpt>
    <trkpt lat="47.91535" lon="14.13294"><ele>659</ele><time>2021-12-31T13:30:26Z</time></trkpt>
    <trkpt lat="47.91523" lon="14.13285"><ele>653</ele><time>2021-12-31T13:30:45Z</time></trkpt>
    <trkpt lat="47.91516" lon="14.13268"><ele>648</ele><time>2021-12-31T13:31:03Z</time></trkpt>
    <trkpt lat="47.91511" lon="14.13246"><ele>645</ele><time>2021-12-31T13:31:22Z</time></trkpt>
    <trkpt lat="47.91498" lon="14.13234"><ele>642</ele><time>2021-12-31T13:31:41Z</time></trkpt>
    <trkpt lat="47.91490" lon="14.13221"><ele>630</ele><time>2021-12-31T13:32:00Z</time></trkpt>
    <trkpt lat="47.91478" lon="14.13203"><ele>630</ele><time>2021-12-31T13:33:28Z</time></trkpt>
    <trkpt lat="47.91477" lon="14.13172"><ele>620</ele><time>2021-12-31T13:35:13Z</time></trkpt>
    <trkpt lat="47.91489" lon="14.13162"><ele>603</ele><time>2021-12-31T13:35:32Z</time></trkpt>
    <trkpt lat="47.91467" lon="14.13146"><ele>616</ele><time>2021-12-31T14:00:50Z</time></trkpt>
    <trkpt lat="47.91454" lon="14.13134"><ele>615</ele><time>2021-12-31T14:01:09Z</time></trkpt>
    <trkpt lat="47.91441" lon="14.13122"><ele>610</ele><time>2021-12-31T14:01:27Z</time></trkpt>
    <trkpt lat="47.91426" lon="14.13107"><ele>606</ele><time>2021-12-31T14:01:45Z</time></trkpt>
    <trkpt lat="47.91412" lon="14.13099"><ele>600</ele><time>2021-12-31T14:02:04Z</time></trkpt>
    <trkpt lat="47.91398" lon="14.13105"><ele>600</ele><time>2021-12-31T14:02:23Z</time></trkpt>
    <trkpt lat="47.91395" lon="14.13091"><ele>592</ele><time>2021-12-31T14:02:41Z</time></trkpt>
    <trkpt lat="47.91394" lon="14.13060"><ele>588</ele><time>2021-12-31T14:03:00Z</time></trkpt>
    <trkpt lat="47.91384" lon="14.13035"><ele>584</ele><time>2021-12-31T14:03:19Z</time></trkpt>
    <trkpt lat="47.91372" lon="14.13018"><ele>583</ele><time>2021-12-31T14:03:38Z</time></trkpt>
    <trkpt lat="47.91360" lon="14.13049"><ele>564</ele><time>2021-12-31T14:03:57Z</time></trkpt>
    <trkpt lat="47.91344" lon="14.13044"><ele>563</ele><time>2021-12-31T14:04:15Z</time></trkpt>
    <trkpt lat="47.91350" lon="14.12999"><ele>579</ele><time>2021-12-31T14:04:34Z</time></trkpt>
    <trkpt lat="47.91359" lon="14.12966"><ele>579</ele><time>2021-12-31T14:04:52Z</time></trkpt>
    <trkpt lat="47.91373" lon="14.12944"><ele>567</ele><time>2021-12-31T14:05:11Z</time></trkpt>
    <trkpt lat="47.91384" lon="14.12926"><ele>569</ele><time>2021-12-31T14:05:29Z</time></trkpt>
    <trkpt lat="47.91378" lon="14.12900"><ele>559</ele><time>2021-12-31T14:05:48Z</time></trkpt>
    <trkpt lat="47.91358" lon="14.12884"><ele>554</ele><time>2021-12-31T14:06:07Z</time></trkpt>
    <trkpt lat="47.91335" lon="14.12873"><ele>552</ele><time>2021-12-31T14:06:25Z</time></trkpt>
    <trkpt lat="47.91312" lon="14.12875"><ele>552</ele><time>2021-12-31T14:06:44Z</time></trkpt>
    <trkpt lat="47.91298" lon="14.12855"><ele>548</ele><time>2021-12-31T14:07:03Z</time></trkpt>
    <trkpt lat="47.91295" lon="14.12841"><ele>545</ele><time>2021-12-31T14:07:21Z</time></trkpt>
    <trkpt lat="47.91307" lon="14.12818"><ele>542</ele><time>2021-12-31T14:07:39Z</time></trkpt>
    <trkpt lat="47.91318" lon="14.12788"><ele>541</ele><time>2021-12-31T14:07:58Z</time></trkpt>
    <trkpt lat="47.91328" lon="14.12752"><ele>541</ele><time>2021-12-31T14:08:17Z</time></trkpt>
    <trkpt lat="47.91350" lon="14.12747"><ele>537</ele><time>2021-12-31T14:08:35Z</time></trkpt>
    <trkpt lat="47.91359" lon="14.12730"><ele>534</ele><time>2021-12-31T14:08:54Z</time></trkpt>
    <trkpt lat="47.91337" lon="14.12710"><ele>539</ele><time>2021-12-31T14:09:12Z</time></trkpt>
    <trkpt lat="47.91313" lon="14.12695"><ele>534</ele><time>2021-12-31T14:09:31Z</time></trkpt>
    <trkpt lat="47.91288" lon="14.12687"><ele>529</ele><time>2021-12-31T14:09:49Z</time></trkpt>
    <trkpt lat="47.91292" lon="14.12645"><ele>521</ele><time>2021-12-31T14:10:07Z</time></trkpt>
    <trkpt lat="47.91291" lon="14.12607"><ele>512</ele><time>2021-12-31T14:10:25Z</time></trkpt>
    <trkpt lat="47.91289" lon="14.12568"><ele>507</ele><time>2021-12-31T14:10:43Z</time></trkpt>
    <trkpt lat="47.91296" lon="14.12515"><ele>506</ele><time>2021-12-31T14:11:01Z</time></trkpt>
    <trkpt lat="47.91298" lon="14.12479"><ele>496</ele><time>2021-12-31T14:11:20Z</time></trkpt>
    <trkpt lat="47.91284" lon="14.12441"><ele>489</ele><time>2021-12-31T14:11:39Z</time></trkpt>
    <trkpt lat="47.91268" lon="14.12406"><ele>488</ele><time>2021-12-31T14:11:57Z</time></trkpt>
    <trkpt lat="47.91250" lon="14.12367"><ele>483</ele><time>2021-12-31T14:12:16Z</time></trkpt>
    <trkpt lat="47.91234" lon="14.12334"><ele>476</ele><time>2021-12-31T14:12:34Z</time></trkpt>
    <trkpt lat="47.91221" lon="14.12305"><ele>465</ele><time>2021-12-31T14:12:52Z</time></trkpt>
    <trkpt lat="47.91209" lon="14.12263"><ele>462</ele><time>2021-12-31T14:13:11Z</time></trkpt>
    <trkpt lat="47.91195" lon="14.12219"><ele>462</ele><time>2021-12-31T14:13:29Z</time></trkpt>
    <trkpt lat="47.91175" lon="14.12177"><ele>462</ele><time>2021-12-31T14:13:47Z</time></trkpt>
    <trkpt lat="47.91153" lon="14.12145"><ele>463</ele><time>2021-12-31T14:14:05Z</time></trkpt>
    <trkpt lat="47.91139" lon="14.12109"><ele>461</ele><time>2021-12-31T14:14:24Z</time></trkpt>
    <trkpt lat="47.91132" lon="14.12067"><ele>456</ele><time>2021-12-31T14:14:43Z</time></trkpt>
    <trkpt lat="47.91117" lon="14.12034"><ele>457</ele><time>2021-12-31T14:15:01Z</time></trkpt>
    <trkpt lat="47.91107" lon="14.11995"><ele>453</ele><time>2021-12-31T14:15:20Z</time></trkpt>
    <trkpt lat="47.91091" lon="14.11959"><ele>445</ele><time>2021-12-31T14:15:39Z</time></trkpt>
    <trkpt lat="47.91060" lon="14.11940"><ele>448</ele><time>2021-12-31T14:15:57Z</time></trkpt>
    <trkpt lat="47.91038" lon="14.11912"><ele>447</ele><time>2021-12-31T14:16:16Z</time></trkpt>
    <trkpt lat="47.91016" lon="14.11872"><ele>449</ele><time>2021-12-31T14:16:35Z</time></trkpt>
    <trkpt lat="47.90997" lon="14.11830"><ele>446</ele><time>2021-12-31T14:16:53Z</time></trkpt>
    <trkpt lat="47.90979" lon="14.11792"><ele>445</ele><time>2021-12-31T14:17:11Z</time></trkpt>
    <trkpt lat="47.90962" lon="14.11751"><ele>438</ele><time>2021-12-31T14:17:29Z</time></trkpt>
    <trkpt lat="47.90939" lon="14.11754"><ele>441</ele><time>2021-12-31T14:17:48Z</time></trkpt>
    <trkpt lat="47.90913" lon="14.11783"><ele>440</ele><time>2021-12-31T14:18:07Z</time></trkpt>
    <trkpt lat="47.90891" lon="14.11801"><ele>441</ele><time>2021-12-31T14:18:25Z</time></trkpt>
    <trkpt lat="47.90867" lon="14.11826"><ele>437</ele><time>2021-12-31T14:18:43Z</time></trkpt>
    <trkpt lat="47.90844" lon="14.11850"><ele>436</ele><time>2021-12-31T14:19:01Z</time></trkpt>
    <trkpt lat="47.90817" lon="14.11852"><ele>440</ele><time>2021-12-31T14:19:19Z</time></trkpt>
    <trkpt lat="47.90786" lon="14.11820"><ele>441</ele><time>2021-12-31T14:19:38Z</time></trkpt>
    <trkpt lat="47.90756" lon="14.11787"><ele>443</ele><time>2021-12-31T14:19:56Z</time></trkpt>
    <trkpt lat="47.90734" lon="14.11762"><ele>442</ele><time>2021-12-31T14:20:14Z</time></trkpt>
    <trkpt lat="47.90719" lon="14.11726"><ele>436</ele><time>2021-12-31T14:20:33Z</time></trkpt>
    <trkpt lat="47.90709" lon="14.11680"><ele>435</ele><time>2021-12-31T14:20:52Z</time></trkpt>
    <trkpt lat="47.90686" lon="14.11621"><ele>437</ele><time>2021-12-31T14:21:11Z</time></trkpt>
    <trkpt lat="47.90645" lon="14.11640"><ele>436</ele><time>2021-12-31T14:21:30Z</time></trkpt>
    <trkpt lat="47.90629" lon="14.11646"><ele>431</ele><time>2021-12-31T14:21:56Z</time></trkpt>
    <trkpt lat="47.90644" lon="14.11628"><ele>432</ele><time>2021-12-31T14:22:09Z</time></trkpt>
    <trkpt lat="47.90652" lon="14.11625"><ele>439</ele><time>2021-12-31T14:22:16Z</time></trkpt>
  </trkseg>
</trk>
</gpx>